QIANFAN-1               
1 60379U 24140A   26030.42689384  .00000177  00000+0  25489-3 0  9996
2 60379  88.9768 294.2496 0019292  74.4408 285.8871 13.50992206 73926
QIANFAN-2               
1 60380U 24140B   26030.45571219  .00000175  00000+0  25192-3 0  9997
2 60380  88.9755 294.0792 0014384  49.9597 310.2813 13.50996220 73989
QIANFAN-3               
1 60381U 24140C   26030.46387127  .00000183  00000+0  26379-3 0  9999
2 60381  88.9747 294.2073 0015643  60.8587 299.4128 13.50996794 73898
QIANFAN-4               
1 60382U 24140D   26030.43919467  .00000165  00000+0  23632-3 0  9994
2 60382  88.9772 294.1198 0014654  52.2454 308.0023 13.50992361 74015
QIANFAN-5               
1 60383U 24140E   26030.48865279  .00000175  00000+0  25221-3 0  9998
2 60383  88.9747 294.2301 0016964  70.7846 289.5139 13.50994560 73889
QIANFAN-6               
1 60384U 24140F   26030.43515727  .00000165  00000+0  23605-3 0  9997
2 60384  88.9773 293.9950 0014826  57.5374 302.7208 13.50994441 74074
QIANFAN-7               
1 60385U 24140G   26030.45575243  .00000835  00000+0  33256-3 0  9996
2 60385  88.9782 288.0075 0012928 238.3314 121.6620 14.27739594 77342
QIANFAN-8               
1 60386U 24140H   26030.44342411  .00000159  00000+0  22651-3 0  9991
2 60386  88.9775 294.2323 0018306  59.0779 301.2169 13.50995794 73924
QIANFAN-9               
1 60387U 24140J   26030.41859892  .00000188  00000+0  27144-3 0  9999
2 60387  88.9773 294.3092 0017989  58.9036 301.3877 13.50990627 73902
QIANFAN-10              
1 60388U 24140K   26030.42270273  .00000179  00000+0  25909-3 0  9998
2 60388  88.9782 293.6608 0016139  38.6661 321.5643 13.50996450 74033
QIANFAN-11              
1 60389U 24140L   26030.45989667  .00000173  00000+0  24877-3 0  9993
2 60389  88.9709 294.2078 0016013  58.8238 301.4480 13.50995875 73693
QIANFAN-12              
1 60390U 24140M   26030.48040919  .00000176  00000+0  25359-3 0  9995
2 60390  88.9752 294.2703 0014891  66.0977 294.1732 13.50993587 73822
QIANFAN-13              
1 60391U 24140N   26030.45158985  .00000163  00000+0  23317-3 0  9994
2 60391  88.9764 294.3791 0014732  68.5436 291.7285 13.50993898 73848
QIANFAN-14              
1 60392U 24140P   26030.47621471  .00000171  00000+0  24643-3 0  9994
2 60392  88.9743 294.2638 0018399  68.2336 292.0771 13.50993649 73853
QIANFAN-15              
1 60393U 24140Q   26030.48452888  .00000160  00000+0  22881-3 0  9990
2 60393  88.9767 294.2310 0014111  56.4154 303.8342 13.50991877 73847
QIANFAN-16              
1 60394U 24140R   26030.47212633  .00000176  00000+0  25408-3 0  9997
2 60394  88.9770 294.3538 0016360  71.8697 288.4235 13.50997532 73759
QIANFAN-17              
1 60395U 24140S   26030.46815604  .00000175  00000+0  25133-3 0  9998
2 60395  88.9781 294.4055 0016736  66.2037 294.0867 13.50990985 74716
QIANFAN-18              
1 60396U 24140T   26030.44755795  .00000157  00000+0  22409-3 0  9994
2 60396  88.9773 293.9377 0015907  50.8041 309.4520 13.50990775 74109
QIANFAN-19              
1 61552U 24185A   26030.47299276  .00000595  00000+0  30394-3 0  9996
2 61552  88.9771  72.3555 0008540 135.8784 224.3085 14.14354074 76551
QIANFAN-20              
1 61553U 24185B   26030.48091157  .00000669  00000+0  37932-3 0  9993
2 61553  88.9769  72.7277 0006212 167.1423 192.9920 14.08900074 76352
QIANFAN-21              
1 61554U 24185C   26030.42336847  .00000761  00000+0  33376-3 0  9997
2 61554  88.9687  71.2752 0010089 192.2725 167.8223 14.22684393 76890
QIANFAN-22              
1 61555U 24185D   26030.51002999  .00000178  00000+0  14225-3 0  9990
2 61555  88.9755  73.9022 0006062 188.1711 171.9362 13.86323855 75690
QIANFAN-23              
1 61556U 24185E   26030.52106230  .00000683  00000+0  33709-3 0  9994
2 61556  88.9763  72.1366 0008909 146.0796 214.0964 14.16353012 76656
QIANFAN-24              
1 61557U 24185F   26030.45531971  .00000796  00000+0  34127-3 0  9991
2 61557  88.9745  71.4693 0011258 131.2390 228.9774 14.23883965 76958
QIANFAN-25              
1 61558U 24185G   26030.47546617  .00000665  00000+0  39756-3 0  9995
2 61558  88.9755  72.6718 0011442 155.2262 204.9472 14.05960673 76355
QIANFAN-26              
1 61559U 24185H   26030.47814191  .00000272  00000+0  25908-3 0  9999
2 61559  88.9763  74.4903 0004782 202.9798 157.1155 13.77845307 75387
QIANFAN-27              
1 61560U 24185J   26030.47076024  .00000560  00000+0  22223-3 0  9993
2 61560  88.9757  71.2285 0009764 121.6992 238.5155 14.27404286 77118
QIANFAN-28              
1 61561U 24185K   26030.49836141  .00001058  00000+0  41940-3 0  9990
2 61561  88.9774  71.2315 0009259 120.8538 239.3568 14.28149294 77133
QIANFAN-29              
1 61562U 24185L   26030.47188497  .00000220  00000+0  32134-3 0  9998
2 61562  88.9739  76.2751 0007890 268.0472  91.9776 13.51030317 74371
QIANFAN-30              
1 61563U 24185M   26030.48365436  .00000164  00000+0  23876-3 0  9990
2 61563  88.9758  75.8181 0005771 247.3066 112.7474 13.50007174 74641
QIANFAN-31              
1 61564U 24185N   26030.46060857  .00000232  00000+0  30441-3 0  9990
2 61564  88.9742  75.5447 0005307 236.8561 123.2085 13.57989356 74772
QIANFAN-32              
1 61565U 24185P   26030.49922412  .00000176  00000+0  25482-3 0  9994
2 61565  88.9803  75.9653 0007564 284.0693  75.9617 13.50754440 74627
QIANFAN-33              
1 61566U 24185Q   26030.48196056  .00000426  00000+0  29832-3 0  9992
2 61566  88.9751  73.3732 0007891 158.4042 201.7469 13.96594655 75967
QIANFAN-34              
1 61567U 24185R   26030.46151900  .00000535  00000+0  33993-3 0  9994
2 61567  88.9727  72.8742 0006617 154.0237 206.1276 14.02354219 76187
QIANFAN-35              
1 61568U 24185S   26030.46765939  .00000924  00000+0  36625-3 0  9995
2 61568  88.9754  71.1581 0008640 118.0177 242.1892 14.28063884 77135
QIANFAN-36              
1 61569U 24185T   26030.45775943  .00000166  00000+0  22092-3 0  9992
2 61569  88.9736  75.9701 0004129 253.0550 107.0151 13.55605530 74521
QIANFAN-37              
1 62238U 24232B   26030.50460558  .00000053  00000+0  63790-4 0  9994
2 62238  88.9998  36.3996 0001608  71.2393 288.8932 13.50983493105753
QIANFAN-38              
1 62239U 24232C   26030.45528252  .00000065  00000+0  81761-4 0  9996
2 62239  89.0005  36.3236 0016221  58.6504 301.6232 13.50981543105809
QIANFAN-39              
1 62240U 24232D   26030.42330650  .00000214  00000+0  84775-4 0  9992
2 62240  89.0002  31.7337 0013888 281.1844  78.7788 14.25418210108322
QIANFAN-40              
1 62241U 24232E   26030.48820302  .00000074  00000+0  96416-4 0  9996
2 62241  89.0032  35.9183 0015383  65.8735 294.4023 13.50981731106179
QIANFAN-41              
1 62242U 24232F   26030.49640045  .00000058  00000+0  71560-4 0  9997
2 62242  89.0002  36.2702 0015580  55.1702 305.0912 13.50983801105831
QIANFAN-42              
1 62243U 24232G   26030.52258201  .00000207  00000+0  83161-4 0  9997
2 62243  89.0000  31.7770 0012776 288.1632  71.8169 14.24512804108310
QIANFAN-43              
1 62244U 24232H   26030.49228288  .00000063  00000+0  78410-4 0  9997
2 62244  89.0007  36.3381 0017199  59.4866 300.7980 13.50982795 74448
QIANFAN-44              
1 62245U 24232J   26030.47990707  .00000068  00000+0  86545-4 0  9991
2 62245  89.0005  36.1493 0015344  57.3316 302.9313 13.50985096105914
QIANFAN-45              
1 62246U 24232K   26030.52111605  .00000070  00000+0  89546-4 0  9997
2 62246  89.0009  36.2934 0016010  56.7063 303.5619 13.50994523105846
QIANFAN-46              
1 62247U 24232L   26030.47171579  .00000061  00000+0  75945-4 0  9996
2 62247  89.0005  36.3654 0016155  61.7860 298.4920 13.50983173105794
QIANFAN-47              
1 62248U 24232M   26030.47586536  .00000087  00000+0  11596-3 0  9999
2 62248  89.0001  36.2961 0016613  61.0042 299.2772 13.50988132105823
QIANFAN-48              
1 62249U 24232N   26030.51283412  .00000048  00000+0  55798-4 0  9992
2 62249  89.0005  36.2960 0018861  62.7374 297.5695 13.50984292105839
QIANFAN-49              
1 62250U 24232P   26030.50049154  .00000057  00000+0  70151-4 0  9996
2 62250  89.0004  36.3094 0015865  58.4609 301.8089 13.50984550 74426
QIANFAN-50              
1 62251U 24232Q   26030.45118263  .00000061  00000+0  75904-4 0  9995
2 62251  89.0009  36.3253 0017528  59.4505 300.8373 13.50995202 74446
QIANFAN-51              
1 62252U 24232R   26030.50874645  .00000053  00000+0  63813-4 0  9992
2 62252  89.0003  36.3103 0015094  63.1402 297.1290 13.50983954 74446
QIANFAN-52              
1 62253U 24232S   26030.46351231  .00000048  00000+0  55062-4 0  9990
2 62253  88.9999  36.1865 0016951  55.8705 304.4051 13.50994518 74523
QIANFAN-53              
1 62254U 24232T   26030.51694064  .00000072  00000+0  92681-4 0  9996
2 62254  89.0007  36.2893 0015862  56.9862 303.2810 13.50984739 74494
QIANFAN-54              
1 62255U 24232U   26030.48400508  .00000074  00000+0  95694-4 0  9990
2 62255  88.9999  35.9667 0004090  92.1165 268.0454 13.50985253105991
QIANFAN-55              
1 62785U 25016A   26030.43586230  .00000145  00000+0  20552-3 0  9990
2 62785  88.9748  98.1836 0017067 201.0720 158.9729 13.50991873 53760
QIANFAN-56              
1 62786U 25016B   26030.45229070  .00000123  00000+0  17112-3 0  9993
2 62786  88.9721  98.0051 0015639 202.8741 157.1715 13.50994091 53812
QIANFAN-57              
1 62787U 25016C   26030.48529019  .00000123  00000+0  17121-3 0  9993
2 62787  88.9752  98.1702 0002128  85.7187 274.4208 13.50992541 53786
QIANFAN-58              
1 62788U 25016D   26030.45642116  .00000117  00000+0  16204-3 0  9999
2 62788  88.9721  97.9897 0013839 194.1159 165.9607 13.50994359 53821
QIANFAN-59              
1 62789U 25016E   26030.48115786  .00000120  00000+0  16673-3 0  9995
2 62789  88.9745  98.0725 0014060 198.0651 162.0002 13.50990495 53821
QIANFAN-60              
1 62790U 25016F   26030.43997046  .00000140  00000+0  19822-3 0  9990
2 62790  88.9726  98.0388 0015725 195.3984 164.6691 13.50988625 53807
QIANFAN-61              
1 62791U 25016G   26030.47292631  .00000127  00000+0  17873-3 0  9992
2 62791  88.9794  98.2316 0014673 194.2056 165.8684 13.50989899 53826
QIANFAN-62              
1 62792U 25016H   26030.47703495  .00000128  00000+0  17881-3 0  9998
2 62792  88.9740  98.0732 0016035 195.2251 164.8420 13.50992573 53819
QIANFAN-63              
1 62793U 25016J   26030.42765025  .00000134  00000+0  18844-3 0  9998
2 62793  88.9746  98.0331 0015912 200.7596 159.2910 13.50990780 53841
QIANFAN-64              
1 62794U 25016K   26030.46880253  .00000134  00000+0  18845-3 0  9995
2 62794  88.9733  97.9963 0014103 192.5401 167.5401 13.50989232 53848
QIANFAN-65              
1 62795U 25016L   26030.46475153  .00000131  00000+0  18458-3 0  9992
2 62795  88.9730  98.0211 0013898 194.1489 165.9275 13.50987948 53829
QIANFAN-66              
1 62796U 25016M   26030.41940989  .00000124  00000+0  17291-3 0  9998
2 62796  88.9749  98.0054 0015146 190.5316 169.5521 13.50992780 53860
QIANFAN-67              
1 62797U 25016N   26030.49756736  .00000130  00000+0  18322-3 0  9995
2 62797  88.9739  98.0181 0014882 197.1299 162.9352 13.50997065 53848
QIANFAN-68              
1 62798U 25016P   26030.41532970  .00000126  00000+0  17721-3 0  9997
2 62798  88.9743  98.0737 0014983 195.6457 164.4233 13.50989033 53810
QIANFAN-69              
1 62799U 25016Q   26030.43177686  .00000141  00000+0  19922-3 0  9991
2 62799  88.9722  97.9309 0015686 197.0503 163.0123 13.50989322 53858
QIANFAN-70              
1 62800U 25016R   26030.44826907  .00000125  00000+0  17417-3 0  9991
2 62800  88.9743  98.0780 0015628 187.2916 172.8010 13.50993110 53813
QIANFAN-71              
1 62801U 25016S   26030.44407814  .00000134  00000+0  18884-3 0  9993
2 62801  88.9737  98.0549 0015474 200.5329 159.5202 13.50992500 53813
QIANFAN-72              
1 62802U 25016T   26030.46052757  .00000125  00000+0  17553-3 0  9990
2 62802  88.9727  98.0619 0018469 209.1096 150.9027 13.50992359 53805
QIANFAN-73              
1 63159U 25046A   26030.48761008  .00000235  00000+0  34528-3 0  9990
2 63159  88.9795 314.9873 0015188 350.4783   9.6078 13.50996888 53993
QIANFAN-74              
1 63160U 25046B   26030.47112696  .00000228  00000+0  33399-3 0  9991
2 63160  88.9795 314.8778 0001791  69.7270 290.4074 13.50994283 54055
QIANFAN-75              
1 63161U 25046C   26030.45826254  .00000228  00000+0  33498-3 0  9992
2 63161  88.9797 315.1135 0016512 352.9804   7.1113 13.50993194 53928
QIANFAN-76              
1 63162U 25046D   26030.45486039  .00000227  00000+0  33321-3 0  9990
2 63162  88.9796 315.0941 0014097 354.7577   5.3425 13.50999880 53930
QIANFAN-77              
1 63163U 25046E   26030.42258499  .00000590  00000+0  42006-3 0  9998
2 63163  88.9794 312.7054 0013207 294.4483  65.5315 13.96144348 55249
QIANFAN-78              
1 63164U 25046F   26030.42171688  .00000232  00000+0  34050-3 0  9996
2 63164  88.9795 314.9611 0015532 356.2913   3.8121 13.50999027 54007
QIANFAN-79              
1 63165U 25046G   26030.45047458  .00000110  00000+0  15257-3 0  9990
2 63165  88.9799 315.0675 0015222 355.1355   4.9646 13.50966121 53954
QIANFAN-80              
1 63166U 25046H   26030.31878270  .00000203  00000+0  29582-3 0  9999
2 63166  88.9796 314.7867 0014302 359.6014   0.5124 13.50998732 54092
QIANFAN-81              
1 63167U 25046J   26030.44461417  .00000188  00000+0  27277-3 0  9996
2 63167  88.9796 314.8415 0014965 348.5162  11.5646 13.50970742 54068
QIANFAN-82              
1 63168U 25046K   26030.47938860  .00000246  00000+0  36248-3 0  9994
2 63168  88.9796 314.8820 0013321 356.1337   3.9709 13.50998188 54051
QIANFAN-83              
1 63169U 25046L   26030.48047486  .00000285  00000+0  35384-3 0  9994
2 63169  88.9796 314.5626 0013965 338.5654  21.4917 13.62002680 54235
QIANFAN-84              
1 63170U 25046M   26030.43275983  .00000227  00000+0  33355-3 0  9998
2 63170  88.9796 315.0191 0016164 351.3989   8.6883 13.51007025 53973
QIANFAN-85              
1 63171U 25046N   26030.50397407  .00000205  00000+0  29925-3 0  9997
2 63171  88.9796 314.8835 0013657 354.9434   5.1577 13.50988854 54053
QIANFAN-86              
1 63172U 25046P   26030.43819956  .00000246  00000+0  36188-3 0  9992
2 63172  88.9798 314.7536 0011693   0.4733 359.6427 13.50998823 54122
QIANFAN-87              
1 63173U 25046Q   26030.48367364  .00000247  00000+0  36374-3 0  9997
2 63173  88.9794 314.8586 0012171 355.3987   4.7051 13.50996318 54061
QIANFAN-88              
1 63174U 25046R   26030.42576923  .00000214  00000+0  31278-3 0  9997
2 63174  88.9797 314.8204 0012850   3.0664 357.0563 13.50990823 54084
QIANFAN-89              
1 63175U 25046S   26030.46286330  .00000226  00000+0  33072-3 0  9999
2 63175  88.9797 315.0057 0016881 351.8685   8.2190 13.50968181 53980
QIANFAN-90              
1 63176U 25046T   26030.41753909  .00000234  00000+0  34444-3 0  9999
2 63176  88.9796 314.9827 0013780 351.8936   8.1990 13.50969430 53993
QIANFAN-91              
1 66033U 25233A   26030.45018008  .00000048  00000+0  56275-4 0  9990
2 66033  88.9909  57.1444 0001818  89.4648 270.6712 13.50991476 14583
QIANFAN-92              
1 66034U 25233B   26030.45840217  .00000075  00000+0  97739-4 0  9996
2 66034  88.9893  57.1379 0002036  90.8680 269.2705 13.50995155 14582
QIANFAN-93              
1 66035U 25233C   26030.46662631  .00000074  00000+0  96251-4 0  9997
2 66035  88.9920  57.1516 0001881  89.1241 271.0126 13.50994303 14580
QIANFAN-94              
1 66036U 25233D   26030.45050154  .00000088  00000+0  11939-3 0  9992
2 66036  88.9917  57.0602 0015023 246.3548 113.6026 13.50141545 14630
QIANFAN-95              
1 66037U 25233E   26029.54403073 -.02095269  00000+0 -21664+1 0  9995
2 66037  88.9913  56.7467 0007158 248.1647 111.8759 13.80080385 14733
QIANFAN-96              
1 66038U 25233F   26030.48720628  .00000077  00000+0  99991-4 0  9990
2 66038  88.9911  57.1515 0001751  88.8333 271.3018 13.50992018 14580
QIANFAN-97              
1 66039U 25233G   26030.47075812  .00000082  00000+0  10783-3 0  9995
2 66039  88.9914  57.1327 0001835  89.7029 270.4333 13.50993329 14597
QIANFAN-98              
1 66040U 25233H   26029.44540616 -.02103883  00000+0 -31549+1 0  9998
2 66040  88.9899  56.9844 0016100 241.5227 118.4306 13.57256651 14599
QIANFAN-99              
1 66041U 25233J   26030.48309294  .00000079  00000+0  10325-3 0  9991
2 66041  88.9915  57.1346 0001924 101.5595 258.5772 13.50993225 14591
QIANFAN-100             
1 66042U 25233K   26030.47485379  .00000066  00000+0  83827-4 0  9994
2 66042  88.9926  57.0470 0001865  89.0289 271.1076 13.50994477 14649
QIANFAN-101             
1 66043U 25233L   26030.48165169  .00000352  00000+0  13964-3 0  9990
2 66043  88.9915  56.4024 0013052 229.6211 130.3845 14.26704888 14991
QIANFAN-102             
1 66044U 25233M   26029.54511530 -.02135583  00000+0 -33684+1 0  9990
2 66044  88.9909  57.1465 0009130 260.8246  99.1875 13.54164043 14515
QIANFAN-103             
1 66045U 25233N   26030.49948367  .00000068  00000+0  86382-4 0  9991
2 66045  88.9916  57.1371 0001865  89.0529 271.0835 13.50988064 14590
QIANFAN-104             
1 66046U 25233P   26029.98513979 -.02109389  00000+0 -36286+1 0  9995
2 66046  88.9979  57.0837 0013317 244.9177 115.0591 13.48552455 14585
QIANFAN-105             
1 66047U 25233Q   26030.04093143 -.02127620  00000+0 -31488+1 0  9998
2 66047  88.9954  56.9198 0017443 234.9071 125.0449 13.58123824 14682
QIANFAN-106             
1 66048U 25233R   26030.50778745  .00000077  00000+0  10129-3 0  9992
2 66048  88.9902  57.1130 0002052 103.0820 257.0561 13.50993822 14601
QIANFAN-107             
1 66049U 25233S   26030.51598169  .00000064  00000+0  79808-4 0  9990
2 66049  88.9918  57.1228 0001887  89.4819 270.6548 13.50991089 14606
QIANFAN-108             
1 66050U 25233T   26030.52013206  .00000070  00000+0  89471-4 0  9991
2 66050  88.9911  57.1199 0002066 101.5616 258.5767 13.50993240 14608
