QIANFAN-1               
1 60379U 24140A   26157.59326744  .00000118  00000+0  16377-3 0  9993
2 60379  88.9728 281.0283 0019276  71.1147 289.2092 13.51012726 91098
QIANFAN-2               
1 60380U 24140B   26157.54794243  .00000115  00000+0  15951-3 0  9997
2 60380  88.9715 280.8483 0013794  47.9063 312.3259 13.51008091 91141
QIANFAN-3               
1 60381U 24140C   26157.55617138  .00000124  00000+0  17245-3 0  9994
2 60381  88.9707 280.9668 0015299  58.7490 301.5158 13.51009179 91051
QIANFAN-4               
1 60382U 24140D   26157.60554253  .00000136  00000+0  19149-3 0  9997
2 60382  88.9732 280.9036 0014108  50.0036 310.2352 13.51011884 91181
QIANFAN-5               
1 60383U 24140E   26157.58086241  .00000118  00000+0  16301-3 0  9999
2 60383  88.9706 280.9891 0016873  68.2879 292.0067 13.51010723 91045
QIANFAN-6               
1 60384U 24140F   26157.60141819  .00000125  00000+0  17538-3 0  9997
2 60384  88.9734 280.7807 0014421  55.2696 304.9811 13.51011298 91242
QIANFAN-7               
1 60385U 24140G   26157.58708049  .00000622  00000+0  24552-3 0  9995
2 60385  88.9769 273.0190 0015674 172.8781 187.2639 14.27828243 95483
QIANFAN-8               
1 60386U 24140H   26157.53554691  .00000113  00000+0  15627-3 0  9991
2 60386  88.9734 281.0273 0017918  56.0406 304.2445 13.51007715 91084
QIANFAN-9               
1 60387U 24140J   26157.58498647  .00000121  00000+0  16835-3 0  9996
2 60387  88.9732 281.0941 0017593  55.8317 304.4499 13.51013164 91077
QIANFAN-10              
1 60388U 24140K   26157.58912671  .00000127  00000+0  17749-3 0  9996
2 60388  88.9744 280.4588 0015302  35.2886 324.9275 13.51014133 91201
QIANFAN-11              
1 60389U 24140L   26157.62604600  .00000123  00000+0  17088-3 0  9994
2 60389  88.9668 280.9101 0015631  56.1814 304.0823 13.51008405 90865
QIANFAN-12              
1 60390U 24140M   26157.57267905  .00000112  00000+0  15427-3 0  9996
2 60390  88.9711 281.0357 0014695  64.2603 296.0063 13.51010500 90984
QIANFAN-13              
1 60391U 24140N   26157.61789898  .00000114  00000+0  15695-3 0  9991
2 60391  88.9723 281.1523 0014581  66.5891 293.6792 13.51010529 91010
QIANFAN-14              
1 60392U 24140P   26157.64248953  .00000113  00000+0  15602-3 0  9994
2 60392  88.9702 281.0101 0018246  65.1395 295.1651 13.51011701 91020
QIANFAN-15              
1 60393U 24140Q   26157.57666831  .00000105  00000+0  14401-3 0  9993
2 60393  88.9726 281.0152 0013680  54.5862 305.6565 13.51013355 91007
QIANFAN-16              
1 60394U 24140R   26157.56451269  .00000116  00000+0  15989-3 0  9994
2 60394  88.9729 281.1416 0016300  69.4486 290.8413 13.51012472 90919
QIANFAN-17              
1 60395U 24140S   26157.63429722  .00000114  00000+0  15740-3 0  9995
2 60395  88.9740 281.1995 0016525  63.4439 296.8404 13.51008916 91887
QIANFAN-18              
1 60396U 24140T   26157.61367541  .00000113  00000+0  15644-3 0  9996
2 60396  88.9734 280.7233 0015338  47.9981 312.2474 13.51013288 91272
QIANFAN-19              
1 61552U 24185A   26157.53162766  .00000422  00000+0  21294-3 0  9994
2 61552  88.9847  57.7905 0009170  95.5881 264.6352 14.14468934 94512
QIANFAN-20              
1 61553U 24185B   26157.46280165  .00000403  00000+0  22443-3 0  9997
2 61553  88.9842  58.2968 0007054 126.2712 233.9125 14.09011753 94230
QIANFAN-21              
1 61554U 24185C   26157.51038239  .00000584  00000+0  25350-3 0  9997
2 61554  88.9763  56.3862 0011681 139.6615 220.5445 14.22844108 94966
QIANFAN-22              
1 61555U 24185D   26157.46756822  .00000287  00000+0  23694-3 0  9996
2 61555  88.9828  59.9867 0006451 158.5451 201.5992 13.86390436 93289
QIANFAN-23              
1 61556U 24185E   26157.46992274  .00000425  00000+0  20629-3 0  9999
2 61556  88.9838  57.5246 0009696 103.3311 256.8959 14.16494245 94625
QIANFAN-24              
1 61557U 24185F   26157.50485593  .00000628  00000+0  26693-3 0  9998
2 61557  88.9822  56.6402 0011752  84.7701 275.4832 14.24060088 95030
QIANFAN-25              
1 61558U 24185G   26157.58054000  .00000501  00000+0  29665-3 0  9994
2 61558  88.9833  58.2821 0011901 133.9055 226.3112 14.06068889 94213
QIANFAN-26              
1 61559U 24185H   26157.56266838  .00000248  00000+0  23462-3 0  9994
2 61559  88.9835  60.7663 0004950 177.0284 183.0913 13.77908796 92883
QIANFAN-27              
1 61560U 24185J   26157.55980259  .00000461  00000+0  18141-3 0  9990
2 61560  88.9831  56.3268 0009834  75.2265 285.0018 14.27529399 95243
QIANFAN-28              
1 61561U 24185K   26157.51676640  .00000778  00000+0  30577-3 0  9991
2 61561  88.9850  56.3434 0009691  73.5735 286.6525 14.28371253 95261
QIANFAN-29              
1 61562U 24185L   26157.55935228  .00000093  00000+0  12500-3 0  9992
2 61562  88.9810  63.1307 0007786 261.8874  98.1394 13.51071889 91535
QIANFAN-30              
1 61563U 24185M   26157.59345833  .00000085  00000+0  11410-3 0  9994
2 61563  88.9829  62.7199 0005319 244.7800 115.2800 13.50048538 91794
QIANFAN-31              
1 61564U 24185N   26157.56038542  .00000169  00000+0  21776-3 0  9997
2 61564  88.9812  62.2462 0005067 227.4367 132.6361 13.58036481 92025
QIANFAN-32              
1 61565U 24185P   26157.46513381  .00000064  00000+0  80298-4 0  9995
2 61565  88.9871  62.9203 0007647 282.6868  77.3428 13.50785544 91768
QIANFAN-33              
1 61566U 24185Q   26157.57941157  .00000326  00000+0  22562-3 0  9994
2 61566  88.9826  59.1967 0008911 123.8055 236.3972 13.96697471 93701
QIANFAN-34              
1 61567U 24185R   26157.46528448  .00000349  00000+0  21808-3 0  9994
2 61567  88.9805  58.5405 0006962 123.5984 236.5862 14.02463138 93980
QIANFAN-35              
1 61568U 24185S   26157.56502616  .00000735  00000+0  28913-3 0  9998
2 61568  88.9831  56.2354 0008813  71.9213 288.2941 14.28257866 95279
QIANFAN-36              
1 61569U 24185T   26157.56045447  .00000096  00000+0  12060-3 0  9999
2 61569  88.9804  62.7167 0004073 248.8905 111.1814 13.55633756 91747
QIANFAN-37              
1 62238U 24232B   26157.59668668  .00000100  00000+0  13614-3 0  9997
2 62238  89.0082  23.6483 0001650  65.2211 294.9112 13.51007297122913
QIANFAN-38              
1 62239U 24232C   26157.47324182  .00000093  00000+0  12467-3 0  9991
2 62239  89.0088  23.5884 0016261  51.6930 308.5681 13.51012231122956
QIANFAN-39              
1 62240U 24232D   26157.55053618  .00000325  00000+0  13138-3 0  9999
2 62240  89.0068  17.2782 0014433 216.5959 143.4249 14.25520908126435
QIANFAN-40              
1 62241U 24232E   26157.58022432  .00000107  00000+0  14754-3 0  9996
2 62241  89.0115  23.2113 0015426  58.7454 301.5206 13.51012130123330
QIANFAN-41              
1 62242U 24232F   26157.58849533  .00000109  00000+0  15069-3 0  9998
2 62242  89.0086  23.5251 0015581  48.0701 312.1776 13.51008401122990
QIANFAN-42              
1 62243U 24232G   26157.59026777  .00000308  00000+0  12634-3 0  9993
2 62243  89.0066  17.3470 0013110 223.4051 136.6110 14.24610329126406
QIANFAN-43              
1 62244U 24232H   26157.58437219  .00000108  00000+0  14894-3 0  9998
2 62244  89.0091  23.5986 0017222  52.3564 307.9147 13.51008187 91600
QIANFAN-44              
1 62245U 24232J   26157.57202352  .00000097  00000+0  13180-3 0  9990
2 62245  89.0088  23.4078 0015380  50.2208 310.0295 13.51010210123079
QIANFAN-45              
1 62246U 24232K   26157.53913078  .00000094  00000+0  12690-3 0  9993
2 62246  89.0093  23.5639 0016039  49.7861 310.4691 13.51007732122999
QIANFAN-46              
1 62247U 24232L   26157.56380764  .00000086  00000+0  11407-3 0  9993
2 62247  89.0088  23.6232 0016189  54.6492 305.6169 13.51008572122950
QIANFAN-47              
1 62248U 24232M   26157.56791090  .00000107  00000+0  14632-3 0  9999
2 62248  89.0084  23.5487 0016602  53.7764 306.4919 13.51007243122989
QIANFAN-48              
1 62249U 24232N   26157.60493449  .00000096  00000+0  13042-3 0  9993
2 62249  89.0088  23.5536 0018898  55.5735 304.7199 13.51011721122994
QIANFAN-49              
1 62250U 24232P   26157.59259599  .00000095  00000+0  12772-3 0  9997
2 62250  89.0087  23.5660 0015886  51.3626 308.8945 13.51010497 91583
QIANFAN-50              
1 62251U 24232Q   26157.54323712  .00000100  00000+0  13622-3 0  9994
2 62251  89.0093  23.5887 0017572  52.2810 307.9931 13.51007277 91601
QIANFAN-51              
1 62252U 24232R   26157.60078911  .00000085  00000+0  11241-3 0  9997
2 62252  89.0087  23.5660 0015120  56.0411 304.2175 13.51012294 91605
QIANFAN-52              
1 62253U 24232S   26157.55556043  .00000102  00000+0  13858-3 0  9995
2 62253  89.0083  23.4373 0016986  48.7149 311.5462 13.51009493 91684
QIANFAN-53              
1 62254U 24232T   26157.53495834  .00000088  00000+0  11691-3 0  9990
2 62254  89.0091  23.5571 0015893  50.0733 310.1812 13.51012057 91646
QIANFAN-54              
1 62255U 24232U   26157.57611182  .00000099  00000+0  13411-3 0  9995
2 62255  89.0081  23.2160 0004137  85.3020 274.8604 13.51010554123153
QIANFAN-55              
1 62785U 25016A   26157.60213882  .00000176  00000+0  25377-3 0  9993
2 62785  88.9739  84.9734 0016126 193.5895 166.4825 13.51016144 70932
QIANFAN-56              
1 62786U 25016B   26157.54455538  .00000157  00000+0  22493-3 0  9998
2 62786  88.9714  84.7687 0014682 195.7117 164.3580 13.51017346 70971
QIANFAN-57              
1 62787U 25016C   26157.57748687  .00000173  00000+0  24963-3 0  9994
2 62787  88.9744  84.9736 0002682  59.5198 300.6218 13.51015928 70949
QIANFAN-58              
1 62788U 25016D   26157.54876175  .00000160  00000+0  22902-3 0  9993
2 62788  88.9714  84.7545 0012892 186.3202 173.7788 13.51015341 70986
QIANFAN-59              
1 62789U 25016E   26157.57335905  .00000171  00000+0  24680-3 0  9995
2 62789  88.9738  84.8672 0013139 190.5637 169.5240 13.51009443 70981
QIANFAN-60              
1 62790U 25016F   26157.60625201  .00000170  00000+0  24468-3 0  9995
2 62790  88.9719  84.8017 0014788 187.5287 172.5645 13.51011861 70972
QIANFAN-61              
1 62791U 25016G   26157.56510095  .00000181  00000+0  26143-3 0  9999
2 62791  88.9786  85.0881 0013765 186.4054 173.6924 13.51004709 70989
QIANFAN-62              
1 62792U 25016H   26157.56932823  .00000172  00000+0  24722-3 0  9998
2 62792  88.9733  84.8615 0015111 187.5761 172.5164 13.51014087 70971
QIANFAN-63              
1 62793U 25016J   26157.59392189  .00000164  00000+0  23444-3 0  9998
2 62793  88.9739  84.8223 0014961 193.2316 166.8445 13.51007925 71012
QIANFAN-64              
1 62794U 25016K   26157.56098383  .00000161  00000+0  23003-3 0  9993
2 62794  88.9726  84.7761 0013185 184.6434 175.4597 13.51015093 71005
QIANFAN-65              
1 62795U 25016L   26157.55686803  .00000162  00000+0  23245-3 0  9992
2 62795  88.9722  84.7964 0012975 186.3660 173.7328 13.51012376 70983
QIANFAN-66              
1 62796U 25016M   26157.58566472  .00000154  00000+0  21908-3 0  9990
2 62796  88.9741  84.7979 0014197 182.4291 177.6794 13.51013151 71035
QIANFAN-67              
1 62797U 25016N   26157.58977678  .00000164  00000+0  23507-3 0  9993
2 62797  88.9732  84.8059 0013930 189.6139 170.4748 13.51017049 71007
QIANFAN-68              
1 62798U 25016P   26157.58173956  .00000168  00000+0  24152-3 0  9992
2 62798  88.9736  84.8583 0014075 187.4164 172.6781 13.51015611 70989
QIANFAN-69              
1 62799U 25016Q   26157.59801031  .00000168  00000+0  24186-3 0  9993
2 62799  88.9715  84.6884 0014770 189.2693 170.8188 13.51009501 71026
QIANFAN-70              
1 62800U 25016R   26157.54043893  .00000171  00000+0  24607-3 0  9997
2 62800  88.9735  84.8697 0014721 179.1331 180.9849 13.51007803 70970
QIANFAN-71              
1 62801U 25016S   26157.31409303  .00000102  00000+0  13968-3 0  9997
2 62801  88.9730  84.8620 0014524 193.8793 166.1961 13.51013326 70943
QIANFAN-72              
1 62802U 25016T   26157.55279693  .00000162  00000+0  23174-3 0  9997
2 62802  88.9720  84.8335 0017550 202.2333 157.8059 13.51015375 70966
QIANFAN-73              
1 63159U 25046A   26157.65388989  .00000134  00000+0  18822-3 0  9999
2 63159  88.9701 301.7796 0013896 342.3283  17.7383 13.51016600 71161
QIANFAN-74              
1 63160U 25046B   26157.63753628  .00000141  00000+0  19947-3 0  9992
2 63160  88.9702 301.6707 0001976 106.4407 253.6961 13.51006865 71220
QIANFAN-75              
1 63161U 25046C   26157.55101659  .00000131  00000+0  18387-3 0  9991
2 63161  88.9703 301.9160 0015035 345.4806  14.5911 13.51005783 71088
QIANFAN-76              
1 63162U 25046D   26157.54688840  .00000181  00000+0  26168-3 0  9994
2 63162  88.9703 301.8962 0012601 347.4497  12.6339 13.51012585 71094
QIANFAN-77              
1 63163U 25046E   26157.63416954  .00000315  00000+0  21948-3 0  9990
2 63163  88.9708 298.4445 0012887 246.9428 113.0391 13.96198602 72998
QIANFAN-78              
1 63164U 25046F   26157.58804457  .00000159  00000+0  22774-3 0  9998
2 63164  88.9703 301.7542 0014047 348.8762  11.2076 13.51011789 71172
QIANFAN-79              
1 63165U 25046G   26157.54285796  .00000148  00000+0  21099-3 0  9991
2 63165  88.9705 301.8729 0013783 347.2878  12.7924 13.51009648 71113
QIANFAN-80              
1 63166U 25046H   26157.63339732  .00000126  00000+0  17576-3 0  9993
2 63166  88.9703 301.5656 0012789 352.4647   7.6310 13.51007297 71283
QIANFAN-81              
1 63167U 25046J   26157.53880134  .00000137  00000+0  19347-3 0  9990
2 63167  88.9702 301.6432 0013709 340.5978  19.4650 13.51015008 71225
QIANFAN-82              
1 63168U 25046K   26157.64566070  .00000138  00000+0  19510-3 0  9996
2 63168  88.9703 301.6760 0011804 348.9781  11.1110 13.51009274 71227
QIANFAN-83              
1 63169U 25046L   26157.57346354  .00000174  00000+0  20980-3 0  9993
2 63169  88.9705 301.1136 0012414 321.5102  38.5169 13.62039492 71532
QIANFAN-84              
1 63170U 25046M   26157.60134913  .00000158  00000+0  22644-3 0  9996
2 63170  88.9703 301.8135 0014734 343.4956  16.5713 13.51033923 71144
QIANFAN-85              
1 63171U 25046N   26157.59628456  .00000120  00000+0  16654-3 0  9998
2 63171  88.9702 301.6842 0012260 347.5019  12.5826 13.51016578 71210
QIANFAN-86              
1 63172U 25046P   26157.60467634  .00000133  00000+0  18705-3 0  9993
2 63172  88.9704 301.5496 0010261 353.8021   6.3002 13.51014481 71295
QIANFAN-87              
1 63173U 25046Q   26157.57577325  .00000150  00000+0  21363-3 0  9992
2 63173  88.9701 301.6577 0010629 348.5179  11.5728 13.51016270 71221
QIANFAN-88              
1 63174U 25046R   26157.59221248  .00000128  00000+0  17882-3 0  9991
2 63174  88.9703 301.6149 0011360 356.6172   3.4900 13.51007837 71259
QIANFAN-89              
1 63175U 25046S   26157.55526930  .00000129  00000+0  18095-3 0  9992
2 63175  88.9703 301.8079 0015576 343.7505  16.3145 13.51014663 71141
QIANFAN-90              
1 63176U 25046T   26157.65796190  .00000148  00000+0  21090-3 0  9991
2 63176  88.9704 301.7699 0012457 343.6988  16.3761 13.51013252 71179
QIANFAN-91              
1 66033U 25233A   26157.39414197  .00000130  00000+0  18304-3 0  9994
2 66033  89.0010  44.2817 0001883  72.0209 288.1147 13.51009195 31722
QIANFAN-92              
1 66034U 25233B   26157.40237394  .00000128  00000+0  17940-3 0  9991
2 66034  88.9994  44.2543 0002102  74.0480 286.0903 13.51012232 31729
QIANFAN-93              
1 66035U 25233C   26157.41060902  .00000132  00000+0  18651-3 0  9997
2 66035  89.0022  44.3024 0001971  71.8216 288.3150 13.51011116 31723
QIANFAN-94              
1 66036U 25233D   26157.17606741  .00000129  00000+0  18152-3 0  9990
2 66036  89.0017  44.2296 0002004  76.5612 283.5763 13.51009656 31743
QIANFAN-95              
1 66037U 25233E   26157.40652756  .00000130  00000+0  18338-3 0  9992
2 66037  89.0015  43.7506 0001831  75.8701 284.2653 13.51010774 32029
QIANFAN-96              
1 66038U 25233F   26157.13494191  .00000131  00000+0  18441-3 0  9996
2 66038  89.0013  44.3214 0001832  71.4740 288.6610 13.51009845 31686
QIANFAN-97              
1 66039U 25233G   26157.19252912  .00000139  00000+0  19635-3 0  9990
2 66039  89.0017  44.2995 0001902  72.0672 288.0687 13.51009910 31709
QIANFAN-98              
1 66040U 25233H   26157.42292281  .00000129  00000+0  18116-3 0  9993
2 66040  89.0005  44.0083 0002109  89.0252 271.1141 13.51010021 31877
QIANFAN-99              
1 66041U 25233J   26157.42702095  .00000132  00000+0  18541-3 0  9999
2 66041  89.0017  44.2797 0001962  85.2779 274.8597 13.51009797 31731
QIANFAN-100             
1 66042U 25233K   26157.41880363  .00000133  00000+0  18743-3 0  9999
2 66042  89.0027  44.2063 0001940  72.1445 287.9917 13.51012714 31789
QIANFAN-101             
1 66043U 25233L   26157.42377057  .00000330  00000+0  13012-3 0  9995
2 66043  89.0011  41.8044 0015130 170.4049 189.7437 14.26801535 33095
QIANFAN-102             
1 66044U 25233M   26157.43939085  .00000125  00000+0  17470-3 0  9996
2 66044  89.0014  44.1882 0001988  78.1193 282.0181 13.51009795 31787
QIANFAN-103             
1 66045U 25233N   26157.44352551  .00000119  00000+0  16605-3 0  9997
2 66045  89.0016  44.2827 0001952  72.0325 288.1039 13.51010602 31734
QIANFAN-104             
1 66046U 25233P   26157.44762064  .00000131  00000+0  18426-3 0  9999
2 66046  89.0021  44.1840 0002082  77.9227 282.2158 13.51012969 31785
QIANFAN-105             
1 66047U 25233Q   26157.38177628  .00000136  00000+0  19175-3 0  9996
2 66047  89.0035  44.0322 0001854  75.5316 284.6040 13.51012404 31885
QIANFAN-106             
1 66048U 25233R   26157.45177235  .00000133  00000+0  18707-3 0  9996
2 66048  89.0003  44.2415 0002029  87.2513 272.8871 13.51009890 31730
QIANFAN-107             
1 66049U 25233S   26157.38590521  .00000138  00000+0  19557-3 0  9995
2 66049  89.0019  44.2789 0001953  72.9424 287.1941 13.51009254 31730
QIANFAN-108             
1 66050U 25233T   26157.39003609  .00000132  00000+0  18638-3 0  9997
2 66050  89.0012  44.2669 0002075  85.0838 275.0550 13.51010374 31739
QIANFAN-109             
1 68636U 26075A   26156.51645284 -.01918855  00000+0 -31641+1 0  9997
2 68636  88.9878 322.2056 0013467  48.8809 311.3502 13.51561674  8223
QIANFAN-110             
1 68637U 26075B   26157.55933946  .00000089  00000+0  12195-3 0  9992
2 68637  88.9885 322.1194 0012622  38.2315 321.9728 13.49919870  8354
QIANFAN-111             
1 68638U 26075C   26156.79877963 -.01752157  00000+0 -30863+1 0  9996
2 68638  88.9878 322.1558 0014645  25.2052 334.9809 13.46922401  8278
QIANFAN-112             
1 68639U 26075D   26156.76983289 -.01920374  00000+0 -33140+1 0  9992
2 68639  88.9879 322.1696 0008183  40.5983 319.5775 13.48674764  8264
QIANFAN-113             
1 68640U 26075E   26157.58574281  .00000070  00000+0  80234-4 0  9992
2 68640  88.9885 322.0867 0012157  34.5565 325.6377 13.57840065  8374
QIANFAN-114             
1 68641U 26075F   26156.82210131 -.01661063  00000+0 -29460+1 0  9998
2 68641  88.9882 322.1771 0014651  30.8228 329.3778 13.46263601  8260
QIANFAN-115             
1 68642U 26075G   26157.51934292  .00000041  00000+0  44341-4 0  9996
2 68642  88.9886 322.1129 0001909  93.9501 266.1869 13.51016962  8359
QIANFAN-116             
1 68643U 26075H   26155.69769618 -.01981998  00000+0 -30912+1 0  9999
2 68643  88.9872 322.2696 0014572  53.1372 307.1114 13.54537236  8128
QIANFAN-117             
1 68644U 26075J   26156.60664824 -.02067936  00000+0 -33931+1 0  9997
2 68644  88.9881 322.1822 0015155  51.5951 308.6559 13.51481997  8243
QIANFAN-118             
1 68645U 26075K   26156.94051370  .00000039  00000+0  37065-4 0  9994
2 68645  88.9883 322.1572 0009540  40.1138 320.0720 13.57841953  8280
QIANFAN-119             
1 68646U 26075L   26157.57524065  .00000045  00000+0  51313-4 0  9990
2 68646  88.9886 322.0856 0010778  33.1171 327.0652 13.49921867  8377
QIANFAN-120             
1 68647U 26075M   26156.49549402  .00000036  00000+0  32908-4 0  9992
2 68647  88.9886 322.1855 0010817  43.1565 317.0436 13.57833982  8233
QIANFAN-121             
1 68648U 26075N   26156.65619774 -.01882245  00000+0 -30902+1 0  9992
2 68648  88.9881 322.1721 0013511  41.9916 318.2269 13.51753188  8253
QIANFAN-122             
1 68649U 26075P   26156.49578142  .00000041  00000+0  42877-4 0  9999
2 68649  88.9884 322.1850 0010757  38.0187 322.1724 13.54283114  8234
QIANFAN-123             
1 68650U 26075Q   26156.69747183 -.00000094  00000+0 -14817-3 0  9998
2 68650  88.9880 322.1579 0011062  48.1797 312.0301 13.57810073  8231
QIANFAN-124             
1 68651U 26075R   26157.31280029  .00000092  00000+0  11031-3 0  9991
2 68651  88.9887 322.1026 0009584  35.6526 324.5267 13.57841380  8349
QIANFAN-125             
1 68652U 26075S   26156.87020595  .00000031  00000+0  27120-4 0  9992
2 68652  88.9884 322.1480 0010185  37.7700 322.4166 13.53952729  8281
QIANFAN-126             
1 68653U 26075T   26157.57300004  .00000062  00000+0  68475-4 0  9999
2 68653  88.9886 322.0481 0010728  40.1135 320.0810 13.57832529  8398
QIANFAN-127             
1 69073U 26104A   26157.35768540  .00000123  00000+0  49301-4 0  9993
2 69073  88.9863 342.8403 0005386 136.1903 223.9716 14.21690968  3557
QIANFAN-128             
1 69074U 26104B   26157.34422640  .00000120  00000+0  51669-4 0  9998
2 69074  88.9864 342.8573 0004660 133.6738 226.4838 14.18045988  3543
QIANFAN-129             
1 69075U 26104C   26157.45528543  .00000134  00000+0  50424-4 0  9993
2 69075  88.9863 342.8175 0005036 141.9147 218.2403 14.25500617  3578
QIANFAN-130             
1 69076U 26104D   26157.47185923  .00000129  00000+0  55367-4 0  9992
2 69076  88.9863 342.8388 0004711 124.8795 235.2838 14.18735353  3562
QIANFAN-131             
1 69077U 26104E   26157.44381736  .00000110  00000+0  44430-4 0  9999
2 69077  88.9862 342.8344 0004252 140.1028 220.0476 14.20505824  3565
QIANFAN-132             
1 69078U 26104F   26157.34170298  .00000128  00000+0  55255-4 0  9994
2 69078  88.9863 342.8567 0005070 132.4440 227.7178 14.18147314  3549
QIANFAN-133             
1 69079U 26104G   26157.46674371  .00000124  00000+0  52285-4 0  9995
2 69079  88.9863 342.8380 0004659 141.9916 218.1603 14.19029121  3563
QIANFAN-134             
1 69080U 26104H   26157.39060737  .00000126  00000+0  53050-4 0  9997
2 69080  88.9863 342.8452 0005535 126.8949 233.2749 14.19324595  3558
QIANFAN-135             
1 69081U 26104J   26157.45617199  .00000119  00000+0  49513-4 0  9996
2 69081  88.9863 342.8365 0004514 153.6750 206.4670 14.19622051  3560
QIANFAN-136             
1 69082U 26104K   26157.45199254  .00000122  00000+0  50789-4 0  9995
2 69082  88.9862 342.8357 0004940 142.2779 217.8758 14.19914377  3567
QIANFAN-137             
1 69083U 26104L   26157.53271905  .00000133  00000+0  50518-4 0  9991
2 69083  88.9862 342.8102 0005627 135.4032 224.7614 14.25196748  3586
QIANFAN-138             
1 69084U 26104M   26157.58079064  .00000123  00000+0  50762-4 0  9999
2 69084  88.9856 342.8161 0004528 137.3762 222.7781 14.20304287  3582
QIANFAN-139             
1 69085U 26104N   26157.43499571  .00000136  00000+0  55960-4 0  9992
2 69085  88.9863 342.8332 0004400 134.8358 225.3191 14.21102728  3562
QIANFAN-140             
1 69086U 26104P   26157.36001452  .00000130  00000+0  53008-4 0  9997
2 69086  88.9863 342.8405 0004436 138.9972 221.1553 14.21392259  3555
QIANFAN-141             
1 69087U 26104Q   26157.35584505  .00000125  00000+0  50586-4 0  9994
2 69087  88.9863 342.8398 0004057 135.2570 224.8949 14.21633632  3552
QIANFAN-142             
1 69088U 26104R   26157.35069324  .00000124  00000+0  49820-4 0  9990
2 69088  88.9863 342.8390 0005291 127.1044 233.0631 14.21952429  3550
QIANFAN-143             
1 69089U 26104S   26157.40811800  .00000130  00000+0  51147-4 0  9993
2 69089  88.9863 342.8289 0004611 129.0377 231.1226 14.23171036  3562
QIANFAN-144             
1 69090U 26104T   26157.41399076  .00000134  00000+0  53482-4 0  9990
2 69090  88.9863 342.8299 0003963 120.6673 239.4909 14.22581820  3564
QIANFAN-145             
1 69104U 26108A   26157.60093783  .00000298  00000+0  14354-3 0  9992
2 69104  89.0119  23.3995 0015607 147.1691 213.0470 14.16076563  2849
QIANFAN-146             
1 69105U 26108B   26157.32422719  .00000371  00000+0  15714-3 0  9990
2 69105  89.0123  23.4140 0015884 146.4922 213.7278 14.23384280  2810
QIANFAN-147             
1 69106U 26108C   26157.58775917  .00000307  00000+0  14530-3 0  9994
2 69106  89.0118  23.3973 0015593 144.2835 215.9400 14.17033400  2846
QIANFAN-148             
1 69107U 26108D   26157.58180956  .00000300  00000+0  14082-3 0  9993
2 69107  89.0119  23.3967 0016097 149.2020 211.0116 14.17402496  2848
QIANFAN-149             
1 69108U 26108E   26157.57916796  .00000314  00000+0  14657-3 0  9995
2 69108  89.0122  23.3967 0015746 148.4679 211.7457 14.17857069  2849
QIANFAN-150             
1 69109U 26108F   26157.57093539  .00000303  00000+0  14022-3 0  9991
2 69109  89.0122  23.3956 0015779 150.1874 210.0217 14.18305512  2849
QIANFAN-151             
1 69110U 26108G   26157.56547087  .00000327  00000+0  15052-3 0  9994
2 69110  89.0122  23.3946 0015900 148.7566 211.4572 14.18801219  2841
QIANFAN-152             
1 69111U 26108H   26157.56086919  .00000320  00000+0  14538-3 0  9998
2 69111  89.0120  23.3937 0015111 148.6676 211.5418 14.19418500  2843
QIANFAN-153             
1 69112U 26108J   26157.55584120  .00000315  00000+0  14198-3 0  9991
2 69112  89.0118  23.3926 0016306 148.6396 211.5770 14.19641654  2844
QIANFAN-154             
1 69113U 26108K   26157.47880832  .00000322  00000+0  14422-3 0  9990
2 69113  89.0123  23.4003 0015963 146.7765 213.4431 14.20189698  2836
QIANFAN-155             
1 69114U 26108L   26157.48148610  .00000335  00000+0  15220-3 0  9994
2 69114  89.0122  23.4007 0016679 147.1302 213.0928 14.19535095  2838
QIANFAN-156             
1 69115U 26108M   26157.54476334  .00000325  00000+0  14336-3 0  9995
2 69115  89.0126  23.3922 0016314 148.1475 212.0706 14.20957567  2844
QIANFAN-157             
1 69116U 26108N   26157.30898275  .00000375  00000+0  15436-3 0  9999
2 69116  89.0123  23.4118 0016590 153.6669 206.5371 14.24908081  2816
QIANFAN-158             
1 69117U 26108P   26157.46826248  .00000336  00000+0  14604-3 0  9991
2 69117  89.0122  23.3985 0016241 149.6968 210.5166 14.21846969  2839
QIANFAN-159             
1 69118U 26108Q   26157.60510964  .00000353  00000+0  15215-3 0  9991
2 69118  89.0120  23.3819 0015963 149.1161 211.0972 14.22293439  2856
QIANFAN-160             
1 69119U 26108R   26157.60195399  .00000096  00000+0  36535-4 0  9996
2 69119  89.0123  23.3819 0015682 148.9114 211.3009 14.22717258  2857
QIANFAN-161             
1 69120U 26108S   26157.59856566  .00000340  00000+0  14386-3 0  9997
2 69120  89.0122  23.3813 0015694 149.6820 210.5283 14.23188731  2851
QIANFAN-162             
1 69121U 26108T   26157.59655072  .00000353  00000+0  14827-3 0  9991
2 69121  89.0122  23.3809 0015530 150.8662 209.3400 14.23624182  2856
QIANFAN-163             
1 69325U 26121A   26157.63237313  .00000031  00000+0  24513-4 0  9998
2 69325  89.0163 301.5834 0019084 218.2148 141.7657 13.60350929   724
QIANFAN-164             
1 69326U 26121B   26157.63178367  .00000133  00000+0  16046-3 0  9996
2 69326  89.0161 301.5829 0018447 219.6890 140.2917 13.60504179   729
