EUTELSAT 139 WEST A     
1 28187U 04008A   26089.11640025  .00000124  00000+0  00000+0 0  9997
2 28187   5.6289  72.9370 0003571  25.0284 145.9143  1.00833594 80562
EUTELSAT 174A           
1 28924U 05052A   26091.46309935  .00000003  00000+0  00000+0 0  9995
2 28924   4.0258  77.4580 0006458 296.7058 156.3661  1.00273838 51564
EUTELSAT 33F            
1 29270U 06032A   26090.47485361  .00000144  00000+0  00000+0 0  9993
2 29270   1.4616  83.0929 0003543 291.0920  18.7285  1.00275708 46527
EUTELSAT HOTBIRD 13C    
1 33459U 08065A   26091.24276023 -.00000291  00000+0  00000+0 0  9998
2 33459   2.7534  80.0820 0004092 301.2271 205.3674  1.00269432 46572
EUTELSAT 36B            
1 36101U 09065A   26091.47658788  .00000103  00000+0  00000+0 0  9994
2 36101   0.2988  78.8319 0005928 294.3290  38.7134  1.00271898 59937
EUTELSAT KA-SAT 9A      
1 37258U 10069A   26090.75533429  .00000049  00000+0  00000+0 0  9997
2 37258   0.0597   1.3796 0003442 136.5824 332.0726  1.00269466 43235
EUTELSAT 7 WEST A       
1 37816U 11051A   26091.39382086 -.00000070  00000+0  00000+0 0  9996
2 37816   0.0738  24.5706 0001310 101.6395 197.9679  1.00272230 53103
EUTELSAT 16A            
1 37836U 11057A   26091.32717392  .00000094  00000+0  00000+0 0  9994
2 37836   0.0566   7.3607 0005538   7.0040 309.0869  1.00271741  6566
EUTELSAT 21B            
1 38992U 12062B   26091.22475544  .00000119  00000+0  00000+0 0  9992
2 38992   0.0697   3.0943 0002853   5.1154 283.8694  1.00271663 49052
EUTELSAT 70B            
1 39020U 12069A   26090.83881064 -.00000056  00000+0  00000+0 0  9997
2 39020   0.0679 345.3806 0001626  27.8675 188.4282  1.00273719 48732
EUTELSAT 117 WEST A     
1 39122U 13012A   26091.43239264 -.00000023  00000+0  00000+0 0  9999
2 39122   0.0471  46.1512 0002991 330.8629 211.6266  1.00272931 47664
EUTELSAT 7B             
1 39163U 13022A   26091.32535392  .00000038  00000+0  00000+0 0  9999
2 39163   0.0702  12.3207 0006278 354.2567 307.2088  1.00272399 47173
EXPRESS-AT1             
1 39612U 14010A   26091.47780122  .00000065  00000+0  00000+0 0  9995
2 39612   0.0648  83.9971 0000745 357.7579 336.5143  1.00280909 44043
EXPRESS-AT2             
1 39613U 14010B   26087.50111926  .00000056  00000+0  00000+0 0  9995
2 39613   0.0335  80.9118 0015441 241.0203 104.7585  1.00084267 43688
EUTELSAT 3B             
1 39773U 14030A   26091.32457392  .00000010  00000+0  00000+0 0  9999
2 39773   0.0682 351.1018 0000622 108.9982 209.5266  1.00273451 43294
EUTELSAT 115 WEST B     
1 40425U 15010B   26091.34289566 -.00000035  00000+0  00000+0 0  9990
2 40425   0.0244  40.5341 0000088  87.0924  70.6169  1.00272162 40622
EUTELSAT 8 WEST B       
1 40875U 15039B   26091.39373419 -.00000075  00000+0  00000+0 0  9990
2 40875   0.0684   3.1523 0003819   9.5200 310.8286  1.00272169 38888
EUTELSAT 9B             
1 41310U 16005A   26091.25446030  .00000052  00000+0  00000+0 0  9998
2 41310   0.0503  47.7245 0003853 295.3492 307.1474  1.00274603 37347
EUTELSAT 65 WEST A      
1 41382U 16014A   26091.45370778 -.00000286  00000+0  00000+0 0  9994
2 41382   0.0695 319.9394 0002261  47.0773 280.9311  1.00272456 36759
EUTELSAT 117 WEST B     
1 41589U 16038B   26091.44669373 -.00000021  00000+0  00000+0 0  9997
2 41589   0.0191  38.7537 0000144 196.6785 358.1899  1.00271886 35895
EUTELSAT 172B           
1 42741U 17029B   26091.55583653 -.00000015  00000+0  00000+0 0  9990
2 42741   0.0198 161.2726 0000127 138.7988 261.9246  1.00272440 32978
EUTELSAT 7C             
1 44334U 19034B   26091.32535392  .00000038  00000+0  00000+0 0  9994
2 44334   0.0635 180.1150 0003358 176.4861 317.2115  1.00270815  6068
EUTELSAT 5 WEST B       
1 44624U 19067A   26091.39434088 -.00000052  00000+0  00000+0 0  9996
2 44624   0.0665   4.1892 0003357  13.7625 308.7454  1.00272149 23669
EUTELSAT KONNECT        
1 45027U 20005B   26091.32544058  .00000039  00000+0  00000+0 0  9994
2 45027   0.0702  95.4994 0001537 222.3936 356.1509  1.00271319 23561
EUTELSAT QUANTUM        
1 49056U 21069B   26091.21364281  .00000000  00000+0  00000+0 0  9995
2 49056   0.0158 224.8120 0002474 152.6984 296.6937  1.00272774 17157
EUTELSAT KONNECT VHTS   
1 53765U 22110A   26091.32448726  .00000007  00000+0  00000+0 0  9991
2 53765   0.0606 102.1172 0002890 243.2739 323.7970  1.00271904  6060
EUTELSAT HOTBIRD 13F    
1 54048U 22134A   26091.25524030  .00000077  00000+0  00000+0 0  9994
2 54048   0.0542 284.9988 0002070  71.7824 297.7074  1.00272296 12604
EUTELSAT HOTBIRD 13G    
1 54225U 22146A   26091.28378250  .00000077  00000+0  00000+0 0  9998
2 54225   0.0428 229.2855 0001925 314.5356 120.9712  1.00272507  6698
EUTELSAT 10B            
1 54259U 22157A   26091.32596058  .00000057  00000+0  00000+0 0  9998
2 54259   0.0611  98.0596 0001492  18.8950 200.0310  1.00268021 12255
EUTELSAT 36D            
1 59346U 24059A   26091.47355453  .00000146  00000+0  00000+0 0  9990
2 59346   0.0156 126.6287 0000475 303.2681 326.2557  1.00272883  7370
