QIANFAN-1               
1 60379U 24140A   26200.84560024  .00000080  00000+0  10575-3 0  9993
2 60379  88.9729 276.5445 0015346 305.4121  54.5596 13.51020972 96939
QIANFAN-2               
1 60380U 24140B   26200.87450125  .00000082  00000+0  10871-3 0  9999
2 60380  88.9715 276.3510 0010397 273.0489  86.9472 13.51016792 96998
QIANFAN-3               
1 60381U 24140C   26200.80862573  .00000082  00000+0  10819-3 0  9999
2 60381  88.9708 276.4738 0011540 288.5549  71.4348 13.51017853 96892
QIANFAN-4               
1 60382U 24140D   26200.78385184  .00000090  00000+0  12113-3 0  9993
2 60382  88.9733 276.4292 0010616 276.5606  83.4336 13.51020906 97018
QIANFAN-5               
1 60383U 24140E   26200.83332226  .00000098  00000+0  13295-3 0  9999
2 60383  88.9707 276.4959 0012925 301.6808  58.3082 13.51011515 96888
QIANFAN-6               
1 60384U 24140F   26200.85381580  .00000072  00000+0  93656-4 0  9991
2 60384  88.9734 276.2994 0010751 283.6141  76.3813 13.51019602 97080
QIANFAN-7               
1 60385U 24140G   26200.82661515  .00000263  00000+0  10028-3 0  9991
2 60385  88.9763 267.9400 0016571  48.0350 312.2253 14.27867033101655
QIANFAN-8               
1 60386U 24140H   26200.78804565  .00000091  00000+0  12306-3 0  9991
2 60386  88.9736 276.5465 0014217 286.1853  73.7733 13.51016002 96924
QIANFAN-9               
1 60387U 24140J   26200.83730772  .00000090  00000+0  12150-3 0  9992
2 60387  88.9734 276.6123 0013905 285.7604  74.2014 13.51021699 96912
QIANFAN-10              
1 60388U 24140K   26200.84142950  .00000086  00000+0  11504-3 0  9996
2 60388  88.9744 275.9819 0012469 258.9436 101.0313 13.51022918 97048
QIANFAN-11              
1 60389U 24140L   26200.80446627  .00000085  00000+0  11244-3 0  9991
2 60389  88.9670 276.4081 0011943 285.7589  74.2245 13.51016811 96697
QIANFAN-12              
1 60390U 24140M   26200.82509745  .00000080  00000+0  10607-3 0  9993
2 60390  88.9712 276.5448 0010827 295.7262  64.2771 13.51018934 96829
QIANFAN-13              
1 60391U 24140N   26200.87031656  .00000094  00000+0  12632-3 0  9995
2 60391  88.9724 276.6665 0010681 298.8402  61.1676 13.51019055 96851
QIANFAN-14              
1 60392U 24140P   26200.82103590  .00000081  00000+0  10685-3 0  9990
2 60392  88.9703 276.5229 0014359 297.9719  61.9979 13.51012580 96851
QIANFAN-15              
1 60393U 24140Q   26200.82920159  .00000079  00000+0  10428-3 0  9991
2 60393  88.9727 276.5307 0010051 282.1987  77.8038 13.51012942 96846
QIANFAN-16              
1 60394U 24140R   26200.81686110  .00000080  00000+0  10496-3 0  9994
2 60394  88.9730 276.6582 0012374 303.0926  56.9037 13.51020996 96758
QIANFAN-17              
1 60395U 24140S   26200.81270317  .00000071  00000+0  91488-4 0  9994
2 60395  88.9741 276.7285 0012671 295.5511  64.4330 13.51016955 97714
QIANFAN-18              
1 60396U 24140T   26200.86617175  .00000086  00000+0  11531-3 0  9993
2 60396  88.9735 276.2421 0011919 274.7614  85.2176 13.51016422 97114
QIANFAN-19              
1 61552U 24185A   26200.82563442  .00000220  00000+0  10732-3 0  9992
2 61552  88.9811  52.8381 0005842 340.0994  19.9964 14.14496162100637
QIANFAN-20              
1 61553U 24185B   26200.78233185  .00000180  00000+0  95950-4 0  9997
2 61553  88.9807  53.3841 0006456  27.4419 332.7105 14.09037758100336
QIANFAN-21              
1 61554U 24185C   26200.83088751  .00000275  00000+0  11594-3 0  9997
2 61554  88.9728  51.3206 0011390  21.6946 338.4725 14.22883994101121
QIANFAN-22              
1 61555U 24185D   26200.84395566  .00000066  00000+0  45863-4 0  9999
2 61555  88.9792  55.2429 0008241  55.3402 304.8545 13.86408333 99295
QIANFAN-23              
1 61556U 24185E   26200.84338527  .00000207  00000+0  96924-4 0  9995
2 61556  88.9805  52.5429 0006759 348.4490  11.6542 14.16520237100763
QIANFAN-24              
1 61557U 24185F   26200.85863181  .00000287  00000+0  11859-3 0  9997
2 61557  88.9786  51.5898 0007659 314.3168  45.7396 14.24101458101209
QIANFAN-25              
1 61558U 24185G   26200.77712753  .00000158  00000+0  87918-4 0  9994
2 61558  88.9800  53.4030 0012382  21.8537 338.3171 14.06096964100289
QIANFAN-26              
1 61559U 24185H   26200.84277458  .00000129  00000+0  11571-3 0  9990
2 61559  88.9799  56.1034 0007842  73.4794 286.7233 13.77925300 98849
QIANFAN-27              
1 61560U 24185J   26200.87858483  .00000176  00000+0  65782-4 0  9994
2 61560  88.9798  51.2571 0005173 301.1507  58.9179 14.27558294101427
QIANFAN-28              
1 61561U 24185K   26200.87972898  .00000312  00000+0  11901-3 0  9997
2 61561  88.9815  51.2703 0005020 298.7277  61.3413 14.28421818101455
QIANFAN-29              
1 61562U 24185L   26200.88398358  .00000075  00000+0  97536-4 0  9997
2 61562  88.9772  58.6610 0011233 129.2757 230.9392 13.51079435 97385
QIANFAN-30              
1 61563U 24185M   26200.80254859  .00000017  00000+0  75398-5 0  9996
2 61563  88.9790  58.2785 0009177 115.8594 244.3504 13.50061394 97624
QIANFAN-31              
1 61564U 24185N   26200.88396422  .00000015  00000+0  39196-5 0  9992
2 61564  88.9776  57.7242 0008930 104.1381 256.0767 13.58047397 97909
QIANFAN-32              
1 61565U 24185P   26200.79895326  .00000081  00000+0  10697-3 0  9996
2 61565  88.9832  58.4784 0010554 143.4647 216.7226 13.50793612 97619
QIANFAN-33              
1 61566U 24185Q   26200.85070286  .00000148  00000+0  97052-4 0  9999
2 61566  88.9791  54.3813 0008145  18.4227 341.7243 13.96721195 99741
QIANFAN-34              
1 61567U 24185R   26200.84430272  .00000093  00000+0  51413-4 0  9994
2 61567  88.9768  53.6557 0006218  19.7465 340.3954 14.02484590100065
QIANFAN-35              
1 61568U 24185S   26200.86150519  .00000307  00000+0  11720-3 0  9994
2 61568  88.9796  51.1616 0004133 296.6652  63.4119 14.28300882101453
QIANFAN-36              
1 61569U 24185T   26200.88702066  .00000016  00000+0  57487-5 0  9996
2 61569  88.9769  58.2096 0007955 116.6396 243.5573 13.55640696 97611
QIANFAN-37              
1 62238U 24232B   26200.84932485  .00000036  00000+0  36624-4 0  9990
2 62238  89.0071  19.3030 0002140 108.3913 251.7471 13.51011456128753
QIANFAN-38              
1 62239U 24232C   26200.87398830  .00000018  00000+0  89145-5 0  9991
2 62239  89.0078  19.2311 0012518 284.1363  75.8397 13.51022231128816
QIANFAN-39              
1 62240U 24232D   26200.79025514  .00000081  00000+0  28150-4 0  9998
2 62240  89.0067  12.3520 0018495  82.6748 277.6547 14.25532974132591
QIANFAN-40              
1 62241U 24232E   26200.83283395  .00000020  00000+0  12319-4 0  9990
2 62241  89.0105  18.8808 0011645 293.7381  66.2549 13.51009539129171
QIANFAN-41              
1 62242U 24232F   26200.84104317  .00000035  00000+0  36346-4 0  9990
2 62242  89.0076  19.1818 0011891 279.6805  80.3002 13.51012522128830
QIANFAN-42              
1 62243U 24232G   26200.78738037  .00000079  00000+0  27762-4 0  9996
2 62243  89.0065  12.4320 0017371  88.7155 271.6028 14.24621459132552
QIANFAN-43              
1 62244U 24232H   26200.83692466  .00000023  00000+0  16998-4 0  9996
2 62244  89.0080  19.2573 0013474 285.5726  74.3938 13.51011863 97443
QIANFAN-44              
1 62245U 24232J   26200.82452181  .00000033  00000+0  32855-4 0  9995
2 62245  89.0078  19.0656 0011659 282.4596  77.5251 13.51013711128919
QIANFAN-45              
1 62246U 24232K   26200.86576988  .00000033  00000+0  32557-4 0  9991
2 62246  89.0082  19.2159 0012324 281.8072  78.1697 13.51011168128844
QIANFAN-46              
1 62247U 24232L   26200.81635874  .00000013  00000+0  21420-5 0  9993
2 62247  89.0078  19.2809 0012429 288.3630  71.6169 13.51011693128799
QIANFAN-47              
1 62248U 24232M   26200.82049029  .00000036  00000+0  37074-4 0  9992
2 62248  89.0074  19.2046 0012837 287.3361  72.6385 13.51011340128826
QIANFAN-48              
1 62249U 24232N   26200.85735691  .00000045  00000+0  51245-4 0  9999
2 62249  89.0078  19.2112 0015128 289.7567  70.1952 13.51016050128832
QIANFAN-49              
1 62250U 24232P   26200.84507905  .00000036  00000+0  37019-4 0  9998
2 62250  89.0077  19.2232 0012147 284.0720  75.9081 13.51014286 97428
QIANFAN-50              
1 62251U 24232Q   26200.86987788  .00000033  00000+0  32725-4 0  9998
2 62251  89.0083  19.2409 0013821 285.2746  74.6877 13.51011082 97456
QIANFAN-51              
1 62252U 24232R   26200.85343772  .00000036  00000+0  37539-4 0  9998
2 62252  89.0077  19.2229 0011329 290.3264  69.6670 13.51022361 97449
QIANFAN-52              
1 62253U 24232S   26200.80806046  .00000030  00000+0  28216-4 0  9998
2 62253  89.0072  19.0925 0013289 280.8653  79.1002 13.51014034 97521
QIANFAN-53              
1 62254U 24232T   26200.86162524  .00000035  00000+0  36000-4 0  9996
2 62254  89.0080  19.2083 0012174 282.1011  77.8776 13.51010006 97497
QIANFAN-54              
1 62255U 24232U   26200.82865016  .00000023  00000+0  17252-4 0  9994
2 62255  89.0071  18.8706 0001844  25.8924 334.2319 13.51013773128999
QIANFAN-55              
1 62785U 25016A   26200.78076314  .00000066  00000+0  83342-4 0  9993
2 62785  88.9711  80.4961 0019400  75.8267 284.5038 13.51011658 76768
QIANFAN-56              
1 62786U 25016B   26200.87130351  .00000014  00000+0  23031-5 0  9999
2 62786  88.9685  80.2646 0018042  77.7118 282.6052 13.51022412 76826
QIANFAN-57              
1 62787U 25016C   26200.90417067  .00000069  00000+0  87872-4 0  9998
2 62787  88.9716  80.4829 0001347  88.3370 271.7935 13.51010303 76796
QIANFAN-58              
1 62788U 25016D   26200.80117369  .00000074  00000+0  96117-4 0  9998
2 62788  88.9686  80.2584 0015928  71.3062 288.9817 13.51014806 76824
QIANFAN-59              
1 62789U 25016E   26200.89994137  .00000064  00000+0  80776-4 0  9997
2 62789  88.9709  80.3736 0016315  74.3806 285.9144 13.51019029 76834
QIANFAN-60              
1 62790U 25016F   26200.85895080  .00000068  00000+0  85757-4 0  9990
2 62790  88.9690  80.3075 0017849  71.2479 289.0607 13.51021944 76812
QIANFAN-61              
1 62791U 25016G   26200.74376919  .00000081  00000+0  10616-3 0  9990
2 62791  88.9757  80.6309 0016811  71.2166 289.0807 13.51002537 76810
QIANFAN-62              
1 62792U 25016H   26200.89579219  .00000058  00000+0  70527-4 0  9997
2 62792  88.9704  80.3656 0018152  70.9463 289.3653 13.51014430 76829
QIANFAN-63              
1 62793U 25016J   26200.84649465  .00000078  00000+0  10192-3 0  9997
2 62793  88.9711  80.3371 0018234  75.8091 284.5084 13.51017695 76858
QIANFAN-64              
1 62794U 25016K   26200.81364218  .00000069  00000+0  87918-4 0  9996
2 62794  88.9697  80.2852 0016136  69.7862 290.5022 13.51014160 76844
QIANFAN-65              
1 62795U 25016L   26200.80943635  .00000071  00000+0  91071-4 0  9990
2 62795  88.9694  80.3038 0016001  71.2599 289.0287 13.51030695 76820
QIANFAN-66              
1 62796U 25016M   26200.83836337  .00000078  00000+0  10241-3 0  9990
2 62796  88.9713  80.3141 0017072  67.3042 292.9912 13.51023887 76874
QIANFAN-67              
1 62797U 25016N   26200.84250058  .00000088  00000+0  11756-3 0  9995
2 62797  88.9704  80.3177 0017079  73.3444 286.9581 13.51012565 76847
QIANFAN-68              
1 62798U 25016P   26200.83406249  .00000069  00000+0  88541-4 0  9996
2 62798  88.9707  80.3715 0017146  71.4949 288.8063 13.51025239 76829
QIANFAN-69              
1 62799U 25016Q   26200.85053147  .00000075  00000+0  96717-4 0  9995
2 62799  88.9686  80.1925 0017886  72.7033 287.6073 13.51019098 76864
QIANFAN-70              
1 62800U 25016R   26200.86706738  .00000075  00000+0  96852-4 0  9990
2 62800  88.9707  80.3750 0017428  64.1517 296.1429 13.51017485 76827
QIANFAN-71              
1 62801U 25016S   26200.86307203  .00000062  00000+0  77349-4 0  9991
2 62801  88.9701  80.3417 0017805  75.8119 284.5008 13.51021437 76824
QIANFAN-72              
1 62802U 25016T   26200.87937593  .00000073  00000+0  94528-4 0  9994
2 62802  88.9691  80.3320 0021068  82.1948 278.1594 13.51014961 76815
QIANFAN-73              
1 63159U 25046A   26200.83229569  .00000024  00000+0  18576-4 0  9991
2 63159  88.9721 297.2920 0014573 201.9784 158.0743 13.51015514 76998
QIANFAN-74              
1 63160U 25046B   26200.81599985  .00000115  00000+0  15942-3 0  9997
2 63160  88.9723 297.1834 0002539 104.5590 255.5842 13.51023755 77054
QIANFAN-75              
1 63161U 25046C   26200.80360986  .00000082  00000+0  10779-3 0  9990
2 63161  88.9724 297.4213 0015549 205.5610 154.4774 13.51015973 76929
QIANFAN-76              
1 63162U 25046D   26200.79944733  .00000107  00000+0  14740-3 0  9997
2 63162  88.9724 297.4017 0013080 204.5495 155.5035 13.51015299 76934
QIANFAN-77              
1 63163U 25046E   26200.77770613  .00000190  00000+0  12809-3 0  9996
2 63163  88.9725 293.6068 0017331 115.0851 245.2126 13.96223647 79012
QIANFAN-78              
1 63164U 25046F   26200.84065786  .00000109  00000+0  14935-3 0  9995
2 63164  88.9723 297.2592 0014362 207.4241 152.6154 13.51010593 77018
QIANFAN-79              
1 63165U 25046G   26200.79531883  .00000104  00000+0  14172-3 0  9994
2 63165  88.9726 297.3794 0014205 205.9574 154.0866 13.51020612 76956
QIANFAN-80              
1 63166U 25046H   26200.81187775  .00000122  00000+0  17088-3 0  9994
2 63166  88.9723 297.0787 0012892 209.7667 150.2752 13.51017671 77110
QIANFAN-81              
1 63167U 25046J   26200.79111302  .00000107  00000+0  14741-3 0  9991
2 63167  88.9723 297.1483 0014583 199.7266 160.3322 13.51025058 77064
QIANFAN-82              
1 63168U 25046K   26200.82408132  .00000117  00000+0  16312-3 0  9993
2 63168  88.9723 297.1890 0012186 205.0693 154.9868 13.51019605 77053
QIANFAN-83              
1 63169U 25046L   26200.84325630  .00000130  00000+0  15180-3 0  9994
2 63169  88.9724 296.5318 0014594 179.1332 180.9854 13.62052305 77420
QIANFAN-84              
1 63170U 25046M   26200.77896167  .00000051  00000+0  59703-4 0  9998
2 63170  88.9724 297.3264 0015361 203.6656 156.3790 13.51045498 76974
QIANFAN-85              
1 63171U 25046N   26200.77470072  .00000114  00000+0  15753-3 0  9998
2 63171  88.9723 297.1969 0012733 204.4055 155.6495 13.51017255 77049
QIANFAN-86              
1 63172U 25046P   26200.78293017  .00000124  00000+0  17378-3 0  9998
2 63172  88.9725 297.0633 0010427 206.6930 153.3686 13.51024841 77128
QIANFAN-87              
1 63173U 25046Q   26200.82830943  .00000114  00000+0  15715-3 0  9991
2 63173  88.9721 297.1621 0011166 202.1085 157.9586 13.51010459 77068
QIANFAN-88              
1 63174U 25046R   26200.84473802  .00000112  00000+0  15551-3 0  9997
2 63174  88.9724 297.1203 0011254 211.2296 148.8188 13.51018012 77094
QIANFAN-89              
1 63175U 25046S   26200.80757846  .00000114  00000+0  15802-3 0  9998
2 63175  88.9723 297.3130 0016173 204.4134 155.6253 13.51025211 76980
QIANFAN-90              
1 63176U 25046T   26200.83640118  .00000112  00000+0  15540-3 0  9992
2 63176  88.9724 297.2831 0013184 201.0481 159.0129 13.51017684 77005
QIANFAN-91              
1 66033U 25233A   26200.79480926  .00000012  00000+0 -60635-6 0  9997
2 66033  88.9981  39.8899 0002124  95.1700 264.9694 13.51015109 37589
QIANFAN-92              
1 66034U 25233B   26200.50675567  .00000032  00000+0  31554-4 0  9991
2 66034  88.9965  39.8855 0001978  89.6657 270.4721 13.51013562 37549
QIANFAN-93              
1 66035U 25233C   26200.81121609  .00000019  00000+0  11591-4 0  9993
2 66035  88.9991  39.9153 0002057  94.0148 266.1238 13.51016890 37581
QIANFAN-94              
1 66036U 25233D   26200.50265452  .00000029  00000+0  25611-4 0  9994
2 66036  88.9988  39.8487 0002116  90.1175 270.0218 13.51015900 37594
QIANFAN-95              
1 66037U 25233E   26200.51089393  .00000033  00000+0  33206-4 0  9998
2 66037  88.9985  39.3905 0002231  93.4766 266.6641 13.51016870 37848
QIANFAN-96              
1 66038U 25233F   26200.53559267  .00000013  00000+0  14134-5 0  9991
2 66038  88.9983  39.9307 0002144  96.2758 263.8637 13.51015676 37548
QIANFAN-97              
1 66039U 25233G   26200.51911249  .00000027  00000+0  22840-4 0  9999
2 66039  88.9986  39.9176 0002075  93.8768 266.2620 13.51015909 37552
QIANFAN-98              
1 66040U 25233H   26200.52731936  .00000009  00000+0 -52794-5 0  9998
2 66040  88.9975  39.6441 0002394  81.5756 278.5667 13.51015643 37696
QIANFAN-99              
1 66041U 25233J   26200.82767008  .00000010  00000+0 -34149-5 0  9997
2 66041  88.9987  39.8906 0002358  86.3124 273.8297 13.51015674 37590
QIANFAN-100             
1 66042U 25233K   26200.52314318  .00000012  00000+0 -29754-6 0  9996
2 66042  88.9997  39.8520 0002053  94.1007 266.0379 13.51015761 37607
QIANFAN-101             
1 66043U 25233L   26200.48426710  .00000153  00000+0  56803-4 0  9990
2 66043  88.9984  36.8576 0016798  45.0107 315.2445 14.26823847 39236
QIANFAN-102             
1 66044U 25233M   26200.84004131  .00000023  00000+0  16795-4 0  9992
2 66044  88.9985  39.7982 0002165  89.5529 270.5871 13.51015607 37648
QIANFAN-103             
1 66045U 25233N   26200.84414661  .00000028  00000+0  24300-4 0  9992
2 66045  88.9987  39.8938 0002057  94.0584 266.0802 13.51016556 37597
QIANFAN-104             
1 66046U 25233P   26200.55213948  .00000017  00000+0  77031-5 0  9994
2 66046  88.9991  39.8270 0002094  87.3664 272.7727 13.51022041 37605
QIANFAN-105             
1 66047U 25233Q   26200.56039220  .00000019  00000+0  10342-4 0  9998
2 66047  89.0004  39.6734 0002192  92.4523 267.6879 13.51021234 37712
QIANFAN-106             
1 66048U 25233R   26200.85242171  .00000013  00000+0  11225-5 0  9998
2 66048  88.9973  39.8467 0002344  83.4047 276.7371 13.51015587 37599
QIANFAN-107             
1 66049U 25233S   26200.56438572  .00000011  00000+0 -10069-5 0  9993
2 66049  88.9989  39.9135 0002054  93.5811 266.5575 13.51015088 37565
QIANFAN-108             
1 66050U 25233T   26200.79066711  .00000011  00000+0 -17611-5 0  9992
2 66050  88.9982  39.8759 0002302  84.0926 276.0488 13.51016283 37599
QIANFAN-109             
1 68636U 26075A   26200.80478437  .00000105  00000+0  14442-3 0  9993
2 68636  88.9918 317.6823 0002406 115.1327 245.0074 13.51024712 14199
QIANFAN-110             
1 68637U 26075B   26200.81301221  .00000109  00000+0  14953-3 0  9992
2 68637  88.9919 317.7029 0002054 104.5786 255.5593 13.51016365 14197
QIANFAN-111             
1 68638U 26075C   26200.80063056  .00000112  00000+0  15505-3 0  9991
2 68638  88.9918 317.6636 0002023 103.6491 256.4886 13.51023223 14218
QIANFAN-112             
1 68639U 26075D   26200.83755755  .00000118  00000+0  16477-3 0  9994
2 68639  88.9916 317.6685 0002205 118.1169 242.0205 13.51013761 14218
QIANFAN-113             
1 68640U 26075E   26200.80882931  .00000113  00000+0  15689-3 0  9999
2 68640  88.9922 317.6669 0002032 108.2167 251.9205 13.51019187 14212
QIANFAN-114             
1 68641U 26075F   26200.81702645  .00000102  00000+0  13913-3 0  9990
2 68641  88.9917 317.6837 0002080 105.0128 255.1253 13.51017913 14202
QIANFAN-115             
1 68642U 26075G   26200.77169641  .00000109  00000+0  15024-3 0  9991
2 68642  88.9917 317.6955 0002232 107.0636 253.0760 13.51014664 14197
QIANFAN-116             
1 68643U 26075H   26200.83341758  .00000113  00000+0  15714-3 0  9991
2 68643  88.9910 317.6470 0002070 114.8708 245.2659 13.51015227 14218
QIANFAN-117             
1 68644U 26075J   26200.82106892  .00000101  00000+0  13816-3 0  9997
2 68644  88.9915 317.6654 0002210 110.7633 249.3755 13.51013127 14215
QIANFAN-118             
1 68645U 26075K   26200.55774111  .00000099  00000+0  13467-3 0  9991
2 68645  88.9920 317.7018 0001979 103.0110 257.1263 13.51014907 14176
QIANFAN-119             
1 68646U 26075L   26200.60714337  .00000100  00000+0  13666-3 0  9996
2 68646  88.9920 317.6924 0002334 111.7990 248.3410 13.51021180 14188
QIANFAN-120             
1 68647U 26075M   26200.54553614  .00000113  00000+0  15565-3 0  9993
2 68647  88.9921 317.6842 0002473 111.4725 248.6690 13.51021707 14184
QIANFAN-121             
1 68648U 26075N   26200.57012119  .00000102  00000+0  13968-3 0  9990
2 68648  88.9919 317.6860 0002052 103.1667 256.9713 13.51013709 14189
QIANFAN-122             
1 68649U 26075P   26200.56200056  .00000088  00000+0  11798-3 0  9991
2 68649  88.9918 317.6846 0002247 112.5177 247.6212 13.51017356 14171
QIANFAN-123             
1 68650U 26075Q   26200.60319255  .00000091  00000+0  12159-3 0  9996
2 68650  88.9915 317.6693 0002398 116.9496 243.1901 13.51015747 14166
QIANFAN-124             
1 68651U 26075R   26200.62784087  .00000084  00000+0  11177-3 0  9999
2 68651  88.9917 317.6766 0002274 114.3610 245.7779 13.51016986 14193
QIANFAN-125             
1 68652U 26075S   26200.56601279  .00000097  00000+0  13147-3 0  9997
2 68652  88.9917 317.6850 0002026 103.7407 256.3970 13.51013921 14185
QIANFAN-126             
1 68653U 26075T   26200.57430308  .00000107  00000+0  14714-3 0  9995
2 68653  88.9921 317.6511 0002405 116.3000 243.8398 13.51019009 14206
QIANFAN-127             
1 69073U 26104A   26200.21999133 -.01743515  00000+0 -27854+1 0  9998
2 69073  88.9915 338.1951 0010486  13.9333 346.2106 13.53173799  9489
QIANFAN-128             
1 69074U 26104B   26199.18002306 -.01942531  00000+0 -33012+1 0  9991
2 69074  88.9887 338.3350 0009643 351.9012   8.1982 13.49707511  9324
QIANFAN-129             
1 69075U 26104C   26200.78882322  .00000087  00000+0  10449-3 0  9995
2 69075  88.9903 338.1105 0009163   2.8079 357.3126 13.57830897  9571
QIANFAN-130             
1 69076U 26104D   26200.79763969  .00000076  00000+0  99694-4 0  9990
2 69076  88.9906 338.1675 0001712 106.8551 253.2788 13.51012380  9547
QIANFAN-131             
1 69077U 26104E   26200.31244029 -.01800367  00000+0 -28956+1 0  9993
2 69077  88.9888 338.1854 0012565   6.0188 354.1113 13.52873435  9495
QIANFAN-132             
1 69078U 26104F   26200.87990580  .00000056  00000+0  68417-4 0  9999
2 69078  88.9900 338.1790 0001827 103.1376 256.9979 13.51021590  9548
QIANFAN-133             
1 69079U 26104G   26200.85824227  .00000094  00000+0  11298-3 0  9998
2 69079  88.9903 338.1400 0009275 355.8132   4.2944 13.57838678  9557
QIANFAN-134             
1 69080U 26104H   26200.77987594  .00000067  00000+0  76387-4 0  9999
2 69080  88.9905 338.1641 0009923 350.8379   9.2593 13.57516645  9547
QIANFAN-135             
1 69081U 26104J   26200.67555778  .00000044  00000+0  46829-4 0  9997
2 69081  88.9901 338.1667 0008494   2.5260 357.5934 13.54407299  9532
QIANFAN-136             
1 69082U 26104K   26200.53593708 -.01376230  00000+0 -22438+1 0  9990
2 69082  88.9898 338.1831 0008123   8.3738 351.7547 13.51591160  9516
QIANFAN-137             
1 69083U 26104L   26200.21125794 -.01823573  00000+0 -28928+1 0  9999
2 69083  88.9907 338.0993 0014191  27.3072 332.8824 13.53795014  9536
QIANFAN-138             
1 69084U 26104M   26199.07335854 -.02089634  00000+0 -35630+1 0  9992
2 69084  88.9882 338.3358 0007611 346.7774  13.3175 13.49102339  9316
QIANFAN-139             
1 69085U 26104N   26200.77085273 -.01734015  00000+0 -28758+1 0  9992
2 69085  88.9896 338.1448 0009537  10.6845 349.4507 13.50769548  9556
QIANFAN-140             
1 69086U 26104P   26199.14408993 -.02106488  00000+0 -34786+1 0  9995
2 69086  88.9904 338.3119 0009485  26.7669 333.3970 13.51179619  9335
QIANFAN-141             
1 69087U 26104Q   26200.87781762 -.00000080  00000+0 -12853-3 0  9990
2 69087  88.9896 338.1065 0007744 356.9149   3.1956 13.57847476  9583
QIANFAN-142             
1 69088U 26104R   26200.71725178 -.01786118  00000+0 -30195+1 0  9993
2 69088  88.9884 338.1184 0008102   2.0906 358.0277 13.49673000  9569
QIANFAN-143             
1 69089U 26104S   26199.77789803 -.01665412  00000+0 -26589+1 0  9997
2 69089  88.9902 338.2205 0006071 337.7683  22.3205 13.53042853  9438
QIANFAN-144             
1 69090U 26104T   26200.86758995  .00000033  00000+0  32988-4 0  9993
2 69090  88.9905 338.1215 0001678  97.0162 263.1180 13.51020738  9577
QIANFAN-145             
1 69104U 26108A   26200.02762988 -.01895567  00000+0 -27751+1 0  9993
2 69104  89.0103  18.8684 0019728   1.5086 358.6126 13.58997687  8737
QIANFAN-146             
1 69105U 26108B   26200.21651258 -.01880361  00000+0 -20030+1 0  9991
2 69105  89.0105  18.7365 0020869  15.8328 344.3487 13.78453734  8824
QIANFAN-147             
1 69106U 26108C   26200.84814287  .00000016  00000+0  59763-5 0  9992
2 69106  89.0109  18.7872 0018755   9.5074 350.6433 13.57849308  8836
QIANFAN-148             
1 69107U 26108D   26200.75756716 -.01882342  00000+0 -28990+1 0  9991
2 69107  89.0100  18.7906 0025548  17.4479 342.7547 13.55720066  8825
QIANFAN-149             
1 69108U 26108E   26200.21656615 -.01797487  00000+0 -28504+1 0  9996
2 69108  89.0102  18.8579 0016000  20.2739 339.9046 13.53743688  8756
QIANFAN-150             
1 69109U 26108F   26199.04437281 -.02074465  00000+0 -29050+1 0  9993
2 69109  89.0101  18.9442 0018413   4.5465 355.5856 13.61470758  8608
QIANFAN-151             
1 69110U 26108G   26199.97152477 -.01895673  00000+0 -28506+1 0  9994
2 69110  89.0100  18.8601 0019985  15.9891 344.1890 13.57311349  8729
QIANFAN-152             
1 69111U 26108H   26199.72495899 -.02053861  00000+0 -30864+1 0  9992
2 69111  89.0105  18.8794 0019793  16.9396 343.2415 13.56995443  8709
QIANFAN-153             
1 69112U 26108J   26200.75327603 -.01760386  00000+0 -23912+1 0  9998
2 69112  89.0096  18.7700 0021586   7.5746 352.5734 13.63333661  8830
QIANFAN-154             
1 69113U 26108K   26199.78190297 -.02016140  00000+0 -31996+1 0  9990
2 69113  89.0106  18.8881 0022652  21.8623 338.3491 13.53443911  8709
QIANFAN-155             
1 69114U 26108L   26200.74265190 -.01790091  00000+0 -26498+1 0  9999
2 69114  89.0105  18.7742 0019559  14.9907 345.1824 13.58052131  8839
QIANFAN-156             
1 69115U 26108M   26200.82070198  .00000020  00000+0  97111-5 0  9999
2 69115  89.0122  18.7541 0022120  12.5240 347.6463 13.63191077  8866
QIANFAN-157             
1 69116U 26108N   26199.76653183  .00000013  00000+0  70538-6 0  9998
2 69116  89.0103  18.8113 0019999  22.1610 338.0413 13.72883300  8743
QIANFAN-158             
1 69117U 26108P   26200.52967463 -.01875818  00000+0 -27055+1 0  9991
2 69117  89.0101  18.7591 0017421  14.1301 346.0339 13.59904415  8839
QIANFAN-159             
1 69118U 26108Q   26199.34699095 -.02084710  00000+0 -30133+1 0  9997
2 69118  89.0090  18.8921 0017988   5.0127 355.1206 13.59515039  8663
QIANFAN-160             
1 69119U 26108R   26199.90230176 -.01902063  00000+0 -29831+1 0  9993
2 69119  89.0109  18.8516 0022605  26.6662 333.5649 13.54644040  8739
QIANFAN-161             
1 69120U 26108S   26200.26961530 -.01893836  00000+0 -23532+1 0  9991
2 69120  89.0107  18.7615 0017970  29.2598 330.9566 13.69180318  8811
QIANFAN-162             
1 69121U 26108T   26200.06487148 -.01861590  00000+0 -26313+1 0  9990
2 69121  89.0096  18.8021 0019634   2.7062 357.4197 13.61116520  8766
QIANFAN-163             
1 69325U 26121A   26189.97247712  .00000008  00000+0 -66399-5 0  9998
2 69325  89.0049 298.3591 0020480 118.5630 241.7588 13.53894414  5116
QIANFAN-164             
1 69326U 26121B   26194.67164071  .00000062  00000+0  78132-4 0  9994
2 69326  89.0183 297.8725 0022845 112.6356 247.7213 13.49695561  5743
QIANFAN-165             
1 69382U 26124A   26200.68168146 -.01987785  00000+0 -20353+1 0  9992
2 69382  89.0009 358.4232 0011522  76.9480 283.2973 13.80425601  6389
QIANFAN-166             
1 69383U 26124B   26200.63904860 -.01937443  00000+0 -18791+1 0  9998
2 69383  89.0010 358.4162 0012282  45.9413 314.2766 13.83531345  6381
QIANFAN-167             
1 69384U 26124C   26198.87548135 -.02097118  00000+0 -20293+1 0  9997
2 69384  88.9997 358.6171 0009464  61.7925 298.4200 13.84006830  6134
QIANFAN-168             
1 69385U 26124D   26200.13840536 -.01826293  00000+0 -18444+1 0  9999
2 69385  88.9999 358.4697 0012274  78.8809 281.3738 13.81567787  6318
QIANFAN-169             
1 69386U 26124E   26200.69887350 -.01868916  00000+0 -19116+1 0  9991
2 69386  89.0000 358.4059 0012157  83.2628 276.9923 13.80915159  6398
QIANFAN-170             
1 69387U 26124F   26200.37293551 -.01931958  00000+0 -17928+1 0  9997
2 69387  88.9992 358.4308 0007149  55.3691 304.8153 13.86142397  6353
QIANFAN-171             
1 69388U 26124G   26199.42341223 -.02012415  00000+0 -18309+1 0  9994
2 69388  89.0004 358.5303 0003080 135.1347 225.0075 13.87475735  6220
QIANFAN-172             
1 69389U 26124H   26199.70936549 -.01774562  00000+0 -15980+1 0  9996
2 69389  88.9999 358.4995 0007473  24.8346 335.3185 13.88217430  6269
QIANFAN-173             
1 69390U 26124J   26200.70073102 -.01852633  00000+0 -17358+1 0  9995
2 69390  89.0002 358.3875 0006382  64.4629 295.7201 13.86088170  6405
QIANFAN-174             
1 69391U 26124K   26200.59208376 -.01836240  00000+0 -15561+1 0  9996
2 69391  88.9999 358.3901 0008075  45.9041 314.2797 13.91897391  6385
QIANFAN-175             
1 69392U 26124L   26199.24169628  .00000035  00000+0  16284-4 0  9991
2 69392  89.0012 358.5397 0007731  64.0413 296.1558 13.93949050  6204
QIANFAN-176             
1 69393U 26124M   26199.74722265 -.02044943  00000+0 -19016+1 0  9991
2 69393  89.0001 358.4860 0006551  53.4344 306.7430 13.86254701  6268
QIANFAN-177             
1 69394U 26124N   26200.72259602 -.01939432  00000+0 -17789+1 0  9993
2 69394  88.9996 358.3720 0008959  53.7326 306.4672 13.86836261  6410
QIANFAN-178             
1 69395U 26124P   26200.70841159 -.01821535  00000+0 -15950+1 0  9998
2 69395  88.9990 358.3691 0008690 157.9964 202.1584 13.89959102  6416
QIANFAN-179             
1 69396U 26124Q   26200.26370751 -.01985697  00000+0 -16972+1 0  9990
2 69396  88.9996 358.4157 0005560 135.1022 225.0602 13.91053735  6355
QIANFAN-180             
1 69397U 26124R   26200.70267213 -.01845456  00000+0 -16795+1 0  9999
2 69397  88.9994 358.3692 0006340  43.0057 317.1610 13.87774504  6417
QIANFAN-181             
1 69398U 26124S   26199.31698798 -.02083670  00000+0 -20717+1 0  9992
2 69398  89.0002 358.5694 0011435  46.2227 313.9886 13.82365223  6192
QIANFAN-182             
1 69399U 26124T   26199.62027269 -.01914545  00000+0 -19192+1 0  9994
2 69399  88.9991 358.5228 0012876  55.7395 304.4991 13.81529091  6233
QIANFAN-183             
1 69401U 26125A   26199.05775987 -.01919362  00000+0 -17083+1 0  9992
2 69401  88.9937 276.9881 0013769  87.2367 273.0381 13.88525817  6059
QIANFAN-184             
1 69402U 26125B   26200.63735514 -.01806531  00000+0 -17661+1 0  9997
2 69402  88.9942 276.8164 0018043  78.7914 281.5283 13.83407349  6275
QIANFAN-185             
1 69403U 26125C   26199.80996274 -.01923222  00000+0 -14625+1 0  9990
2 69403  88.9940 276.8965 0023579  67.8826 292.4851 13.97505058  6165
QIANFAN-186             
1 69404U 26125D   26200.26378205 -.01935766  00000+0 -18719+1 0  9996
2 69404  88.9950 276.8537 0023921  64.1817 296.1816 13.83608371  6229
QIANFAN-187             
1 69405U 26125E   26200.01908418 -.01981504  00000+0 -18387+1 0  9997
2 69405  88.9939 276.8709 0019665  65.3471 294.9745 13.86169466  6190
QIANFAN-188             
1 69406U 26125F   26200.27218132 -.01924233  00000+0 -17300+1 0  9993
2 69406  88.9938 276.8354 0015365  79.8789 280.4115 13.87937433  6235
QIANFAN-189             
1 69407U 26125G   26199.21159264 -.02013904  00000+0 -17800+1 0  9995
2 69407  88.9942 276.9556 0017094  87.9593 272.3537 13.89102194  6070
QIANFAN-190             
1 69408U 26125H   26199.63558363 -.01986894  00000+0 -17044+1 0  9991
2 69408  88.9941 276.9081 0018199  60.6776 299.6213 13.90772112  6147
QIANFAN-191             
1 69409U 26125J   26199.76248191 -.01917362  00000+0 -17367+1 0  9993
2 69409  88.9936 276.8889 0015195  72.3532 287.9298 13.87491573  6160
QIANFAN-192             
1 69410U 26125K   26200.61385580 -.02077220  00000+0 -18940+1 0  9995
2 69410  88.9905 276.7886 0017046  47.6107 312.6505 13.87415842  6289
QIANFAN-193             
1 69411U 26125L   26199.59991797 -.01959056  00000+0 -17564+1 0  9999
2 69411  88.9942 276.9019 0015320  66.5877 293.6905 13.88172583  6148
QIANFAN-194             
1 69412U 26125M   26199.95388985 -.01989722  00000+0 -17529+1 0  9993
2 69412  88.9946 276.8600 0018690  54.7563 305.5355 13.89229433  6186
QIANFAN-195             
1 69413U 26125N   26199.48826838 -.02035559  00000+0 -16779+1 0  9993
2 69413  88.9941 276.9042 0021684  75.8931 284.4652 13.93143174  6135
QIANFAN-196             
1 69414U 26125P   26200.42677700 -.01958670  00000+0 -17597+1 0  9999
2 69414  88.9936 276.8022 0020746  75.0261 285.3206 13.88003775  6268
QIANFAN-197             
1 69415U 26125Q   26200.69825707  .00000041  00000+0  18567-4 0  9990
2 69415  88.9945 276.7690 0018451  66.9444 293.3677 13.98942736  6295
QIANFAN-198             
1 69416U 26125R   26199.78093088 -.01958961  00000+0 -16711+1 0  9998
2 69416  88.9936 276.8726 0015734  66.7782 293.5047 13.91059316  6177
QIANFAN-199             
1 69417U 26125S   26199.72235248 -.02007920  00000+0 -15992+1 0  9990
2 69417  88.9935 276.8650 0025493  70.6713 289.7217 13.95017731  6179
QIANFAN-200             
1 69418U 26125T   26199.69892002 -.01956121  00000+0 -17812+1 0  9992
2 69418  88.9929 276.8971 0016079  63.3675 296.9141 13.87252715  6153
QIANFAN-201             
1 69800U 26153A   26199.18856381 -.01723216  00000+0 -84414+0 0  9990
2 69800  88.9921 358.7016 0006905 149.7286 210.4306 14.22000035  1979
QIANFAN-202             
1 69801U 26153B   26200.83686464  .00000166  00000+0  72924-4 0  9996
2 69801  88.9928 358.5202 0007215 160.7212 199.4252 14.18844181  2205
QIANFAN-203             
1 69802U 26153C   26199.34660293 -.01871829  00000+0 -99096+0 0  9991
2 69802  88.9920 358.6881 0012649 191.3457 168.7448 14.17511061  1998
QIANFAN-204             
1 69803U 26153D   26200.83130447  .00000126  00000+0  52169-4 0  9998
2 69803  88.9928 358.5193 0008183 164.0459 196.0991 14.20114816  2202
QIANFAN-205             
1 69804U 26153E   26200.19228081 -.01918245  00000+0 -10084+1 0  9999
2 69804  88.9920 358.5912 0003748 210.3039 149.7933 14.18024271  2118
QIANFAN-206             
1 69805U 26153F   26200.04068392 -.01913818  00000+0 -97476+0 0  9991
2 69805  88.9921 358.6058 0010447 189.8519 170.2467 14.19679006  2090
QIANFAN-207             
1 69806U 26153G   26200.67196598 -.02033861  00000+0 -10349+1 0  9998
2 69806  88.9920 358.5330 0009127 169.9330 190.2044 14.19985325  2182
QIANFAN-208             
1 69807U 26153H   26199.89589782  .00000160  00000+0  61583-4 0  9993
2 69807  88.9926 358.6211 0008667 171.9931 188.1402 14.25462891  2073
QIANFAN-209             
1 69808U 26153J   26200.25287150 -.01912362  00000+0 -99336+0 0  9992
2 69808  88.9921 358.5819 0006791 200.7636 159.3278 14.18642799  2127
QIANFAN-210             
1 69809U 26153K   26200.60059514 -.01917183  00000+0 -98214+0 0  9993
2 69809  88.9925 358.5414 0006954 190.0162 170.0890 14.19393556  2179
QIANFAN-211             
1 69810U 26153L   26200.59982508 -.01893711  00000+0 -97145+0 0  9993
2 69810  88.9923 358.5407 0005964 190.8396 169.2667 14.19275357  2178
QIANFAN-212             
1 69811U 26153M   26199.18924639 -.02018720  00000+0 -97540+0 0  9996
2 69811  88.9888 358.7049 0012200 152.0967 208.0882 14.22682297  1975
QIANFAN-213             
1 69812U 26153N   26198.90858230 -.02004805  00000+0 -98228+0 0  9992
2 69812  88.9917 358.7338 0007827 155.5754 204.5809 14.21939575  1930
QIANFAN-214             
1 69813U 26153P   26199.96087807  .00000060  00000+0  18792-4 0  9992
2 69813  88.9926 358.6122 0008141 171.0888 189.0452 14.26672643  2085
QIANFAN-215             
1 69814U 26153Q   26199.96081115  .00000127  00000+0  46376-4 0  9992
2 69814  88.9925 358.6119 0008354 173.3885 186.7420 14.26719080  2085
QIANFAN-216             
1 69815U 26153R   26200.31148107  .00000152  00000+0  56574-4 0  9999
2 69815  88.9926 358.5716 0008380 172.1459 187.9868 14.26720384  2136
QIANFAN-217             
1 69816U 26153S   26200.80190067  .00000053  00000+0  15677-4 0  9995
2 69816  88.9926 358.5145 0008145 167.4202 192.7197 14.26768230  2204
QIANFAN-218             
1 69817U 26153T   26200.87158036  .00000131  00000+0  47861-4 0  9990
2 69817  88.9929 358.5069 0007926 164.5769 195.5667 14.26811585  2211
QIANFAN-219             
1 69848U 26155A   26200.57147292 -.01799626  00000+0 -87017+0 0  9994
2 69848  89.0059  60.4479 0029457 207.2393 152.7255 14.22001674  2007
QIANFAN-220             
1 69849U 26155B   26200.88345573  .00000042  00000+0  13542-4 0  9992
2 69849  89.0063  60.4200 0029803 206.4572 153.5097 14.17597853  2040
QIANFAN-221             
1 69850U 26155C   26200.85259097  .00000175  00000+0  66320-4 0  9995
2 69850  89.0063  60.4155 0030795 207.6230 152.3329 14.26648253  2043
QIANFAN-222             
1 69851U 26155D   26198.83195585  .00000049  00000+0  15570-4 0  9992
2 69851  89.0065  60.6495 0029555 214.6997 145.2267 14.22185075  1758
QIANFAN-223             
1 69852U 26155E   26200.09572403 -.02023195  00000+0 -10600+1 0  9999
2 69852  89.0058  60.5062 0034503 216.3041 143.5808 14.18104033  1930
QIANFAN-224             
1 69853U 26155F   26198.89566005 -.01809487  00000+0 -93450+0 0  9993
2 69853  89.0052  60.6399 0031114 224.5648 135.3039 14.18497223  1760
QIANFAN-225             
1 69854U 26155G   26200.30196266 -.02042683  00000+0 -10600+1 0  9997
2 69854  89.0056  60.4814 0034268 215.2357 144.6567 14.18662242  1968
QIANFAN-226             
1 69855U 26155H   26200.36989704 -.01814487  00000+0 -95337+0 0  9998
2 69855  89.0058  60.4729 0033600 218.1332 141.7479 14.17543510  1976
QIANFAN-227             
1 69856U 26155J   26200.43462891 -.01743430  00000+0 -91043+0 0  9999
2 69856  89.0058  60.4639 0034256 216.4994 143.3861 14.18343532  1987
QIANFAN-228             
1 69857U 26155K   26198.95854703 -.01902873  00000+0 -95328+0 0  9998
2 69857  89.0055  60.6322 0031877 218.7208 141.1698 14.20295178  1771
QIANFAN-229             
1 69858U 26155L   26199.87010617  .00000161  00000+0  60230-4 0  9994
2 69858  89.0064  60.5275 0030818 210.5909 149.3489 14.26690212  1907
QIANFAN-230             
1 69859U 26155M   26198.90384435 -.01931944  00000+0 -10463+1 0  9994
2 69859  89.0054  60.6411 0032961 222.0372 137.8286 14.16167691  1763
QIANFAN-231             
1 69860U 26155N   26199.94418398  .00000187  00000+0  71811-4 0  9998
2 69860  89.0065  60.5202 0030899 209.7131 150.2309 14.26097133  1913
QIANFAN-232             
1 69861U 26155P   26199.93898904 -.01928897  00000+0 -92873+0 0  9999
2 69861  89.0055  60.5197 0029251 204.9431 155.0349 14.22492911  1912
QIANFAN-233             
1 69862U 26155Q   26200.56899890 -.01641998  00000+0 -79470+0 0  9999
2 69862  89.0060  60.4472 0028686 211.5277 148.4197 14.22233601  2004
QIANFAN-234             
1 69863U 26155R   26200.85162407  .00000183  00000+0  69313-4 0  9991
2 69863  89.0064  60.4155 0030727 207.7190 152.2368 14.26759635  2048
QIANFAN-235             
1 69864U 26155S   26200.78143169  .00000161  00000+0  60076-4 0  9991
2 69864  89.0063  60.4235 0030675 207.9856 151.9690 14.26765417  2038
QIANFAN-236             
1 69865U 26155T   26200.08004672  .00000191  00000+0  72759-4 0  9994
2 69865  89.0064  60.5035 0030561 210.4183 149.5239 14.26770514  1939
QIANFAN-237             
1 69866U 26155U   26200.78129757  .00000171  00000+0  64449-4 0  9999
2 69866  89.0064  60.4235 0030619 208.0377 151.9169 14.26778897  2025
QIANFAN-238             
1 69867U 26155V   26200.85135692  .00000185  00000+0  70094-4 0  9991
2 69867  89.0064  60.4154 0030605 207.8330 152.1228 14.26786445  2046
