IRIDIUM 106             
1 41917U 17003A   26100.28048782  .00000043  00000+0  83316-5 0  9993
2 41917  86.3930 116.9544 0002663  94.9873 265.1627 14.34217321483473
IRIDIUM 103             
1 41918U 17003B   26100.05849643  .00000004  00000+0 -56853-5 0  9998
2 41918  86.3931 116.9470 0001948  97.4480 262.6937 14.34216885483469
IRIDIUM 109             
1 41919U 17003C   26100.06484069  .00000014  00000+0 -22067-5 0  9998
2 41919  86.3933 117.0028 0002128  93.3430 266.8010 14.34217581483433
IRIDIUM 102             
1 41920U 17003D   26100.31220116  .00000037  00000+0  60280-5 0  9992
2 41920  86.3929 116.8244 0002330  90.3893 269.7570 14.34217506483555
IRIDIUM 105             
1 41921U 17003E   26100.20421688 -.00000073  00000+0 -33027-4 0  9998
2 41921  86.3921  85.2980 0002108  89.4741 270.6697 14.34397367485397
IRIDIUM 104             
1 41922U 17003F   26100.04581240  .00000047  00000+0  97785-5 0  9993
2 41922  86.3930 116.9776 0001968  91.4449 268.6972 14.34217615483505
IRIDIUM 114             
1 41923U 17003G   26100.05215523 -.00000003  00000+0 -83109-5 0  9992
2 41923  86.3931 116.9580 0001987  94.8064 265.3359 14.34217504483488
IRIDIUM 108             
1 41924U 17003H   26100.21998290  .00000059  00000+0  13891-4 0  9999
2 41924  86.3913  85.1825 0002311  85.4309 274.7150 14.34217786485362
IRIDIUM 112             
1 41925U 17003J   26100.31854436  .00000029  00000+0  31237-5 0  9996
2 41925  86.3925 116.6920 0002134  90.9281 269.2159 14.34217649483549
IRIDIUM 111             
1 41926U 17003K   26100.30585922 -.00000013  00000+0 -11545-4 0  9991
2 41926  86.3929 116.7662 0002139  93.8790 266.2650 14.34217440483520
IRIDIUM 113             
1 42803U 17039A   26100.14628630  .00000223  00000+0  72495-4 0  9993
2 42803  86.4016 350.6212 0001897  83.8436 276.2976 14.34218838461439
IRIDIUM 123             
1 42804U 17039B   26100.18776549  .00000197  00000+0  63311-4 0  9998
2 42804  86.4017  22.0472 0002226  89.6338 270.5113 14.34218645460201
IRIDIUM 120             
1 42805U 17039C   26100.13994454 -.00000166  00000+0 -66290-4 0  9998
2 42805  86.4002 350.4150 0002218  84.1421 276.0028 14.34217424461426
IRIDIUM 115             
1 42806U 17039D   26100.17435364  .00000286  00000+0  78977-4 0  9999
2 42806  86.4543 350.5205 0002407  91.6620 268.4857 14.43278027464450
IRIDIUM 118             
1 42807U 17039E   26100.21948098  .00000300  00000+0  10005-3 0  9992
2 42807  86.4017  22.0324 0002167  85.3033 274.8410 14.34216917460206
IRIDIUM 117             
1 42808U 17039F   26100.16873912  .00000255  00000+0  83866-4 0  9994
2 42808  86.4015  22.0118 0002233  89.4857 270.6595 14.34217341460221
IRIDIUM 126             
1 42809U 17039G   26100.19410296 -.00000053  00000+0 -26029-4 0  9996
2 42809  86.4019  22.0515 0001971  87.6804 272.4617 14.34218277460209
IRIDIUM 124             
1 42810U 17039H   26100.03897434  .00000128  00000+0  32097-4 0  9997
2 42810  86.4479 318.8749 0002208  89.5679 270.5774 14.43295449465283
IRIDIUM 128             
1 42811U 17039J   26100.18484779  .00000261  00000+0  86183-4 0  9991
2 42811  86.3966  53.5677 0002442  86.7114 273.4361 14.34217742460234
IRIDIUM 121             
1 42812U 17039K   26100.21314051  .00000292  00000+0  97274-4 0  9998
2 42812  86.4016  22.0706 0002300  84.2422 275.9036 14.34213591460081
IRIDIUM 133             
1 42955U 17061A   26100.21655969  .00000077  00000+0  20302-4 0  9996
2 42955  86.3964  53.6705 0002273  87.7505 272.3951 14.34217954445030
IRIDIUM 100             
1 42956U 17061B   26100.21021765  .00000273  00000+0  90413-4 0  9996
2 42956  86.3965  53.5934 0002268  88.0809 272.0647 14.34218155445033
IRIDIUM 122             
1 42957U 17061C   26099.82966317  .00000010  00000+0 -36621-5 0  9994
2 42957  86.3964  53.7528 0002147  87.9673 272.1769 14.34216844444989
IRIDIUM 129             
1 42958U 17061D   26100.20387542  .00000260  00000+0  85744-4 0  9992
2 42958  86.3962  53.6623 0002038  81.4528 278.6898 14.34216660445059
IRIDIUM 119             
1 42959U 17061E   26099.82331881  .00000044  00000+0  87555-5 0  9996
2 42959  86.3963  53.8171 0002089  87.8224 272.3211 14.34217676445014
IRIDIUM 107             
1 42960U 17061F   26100.19120350  .00000287  00000+0  95439-4 0  9996
2 42960  86.3966  53.6841 0002283  93.9320 266.2137 14.34217938445078
IRIDIUM 132             
1 42961U 17061G   26099.84868366  .00000122  00000+0  36660-4 0  9991
2 42961  86.3964  53.8070 0002279  87.5149 272.6308 14.34216244445021
IRIDIUM 136             
1 42962U 17061H   26100.22924606  .00000273  00000+0  90548-4 0  9999
2 42962  86.3964  53.6545 0002200  89.3978 270.7470 14.34218130445093
IRIDIUM 139             
1 42963U 17061J   26100.30535550  .00000278  00000+0  92320-4 0  9990
2 42963  86.3967  53.6835 0002336  87.9463 272.2001 14.34217454445110
IRIDIUM 125             
1 42964U 17061K   26100.29267003  .00000148  00000+0  45693-4 0  9991
2 42964  86.3967  53.7487 0001932  99.1426 260.9988 14.34218236445128
IRIDIUM 135             
1 43070U 17083A   26100.19702870  .00000239  00000+0  78254-4 0  9999
2 43070  86.4011 350.4413 0002185  85.0369 275.1076 14.34218216434408
IRIDIUM 138             
1 43071U 17083B   26100.15262977  .00000224  00000+0  73039-4 0  9995
2 43071  86.4025 350.1451 0001806  86.2490 273.8912 14.34218337434385
IRIDIUM 116             
1 43072U 17083C   26100.19068461  .00000243  00000+0  79575-4 0  9994
2 43072  86.4008 350.4307 0002451  85.4752 274.6724 14.34217234434429
IRIDIUM 130             
1 43073U 17083D   26100.01943641 -.00000036  00000+0 -20050-4 0  9994
2 43073  86.4018 350.7706 0002186  90.7744 269.3702 14.34217041434346
IRIDIUM 151             
1 43074U 17083E   26100.20337110  .00000084  00000+0  22830-4 0  9993
2 43074  86.4010 350.4815 0002249  84.7129 275.4323 14.34217414434393
IRIDIUM 134             
1 43075U 17083F   26100.17165755  .00000012  00000+0 -26547-5 0  9996
2 43075  86.4010 350.5016 0002107  88.1440 271.9998 14.34217584434358
IRIDIUM 137             
1 43076U 17083G   26100.18434559  .00000225  00000+0  73343-4 0  9999
2 43076  86.4015 350.5881 0002563  76.8909 283.2573 14.34216759434420
IRIDIUM 141             
1 43077U 17083H   26100.17799968 -.00000068  00000+0 -31168-4 0  9993
2 43077  86.4008 350.4250 0001982  83.7416 276.4006 14.34217759434422
IRIDIUM 153             
1 43078U 17083J   26100.13017874  .00000350  00000+0  11778-3 0  9995
2 43078  86.3959 318.9457 0001942  90.2268 269.9150 14.34218601435525
IRIDIUM 131             
1 43079U 17083K   26100.16531478  .00000039  00000+0  67216-5 0  9994
2 43079  86.4023 350.6121 0002087  83.1975 276.9458 14.34217794434358
IRIDIUM 144             
1 43249U 18030A   26100.13652205  .00000047  00000+0  96417-5 0  9999
2 43249  86.3954 318.8739 0002281  87.4072 272.7385 14.34217491420386
IRIDIUM 149             
1 43250U 18030B   26100.14286398  .00000030  00000+0  35147-5 0  9993
2 43250  86.3952 318.8388 0001927  87.0000 273.1416 14.34217439420404
IRIDIUM 157             
1 43251U 18030C   26100.16189159  .00000231  00000+0  75553-4 0  9990
2 43251  86.3956 318.8827 0002152  87.8333 272.3109 14.34217143420384
IRIDIUM 140             
1 43252U 18030D   26100.04138253  .00000037  00000+0  61881-5 0  9991
2 43252  86.3953 318.9458 0002127  89.4408 270.7031 14.34217592420425
IRIDIUM 145             
1 43253U 18030E   26099.95893087  .00000211  00000+0  68234-4 0  9994
2 43253  86.3957 318.9528 0002481  88.0973 272.0507 14.34216861420345
IRIDIUM 146             
1 43254U 18030F   26100.14920772  .00000180  00000+0  57169-4 0  9991
2 43254  86.3955 318.8856 0002257  87.3890 272.7564 14.34217917420385
IRIDIUM 148             
1 43255U 18030G   26100.04770993  .00000192  00000+0  61442-4 0  9991
2 43255  86.3956 318.9701 0002167  84.3722 275.7721 14.34213372420400
IRIDIUM 142             
1 43256U 18030H   26100.15555026  .00000244  00000+0  80049-4 0  9994
2 43256  86.3954 318.8166 0002389  88.1731 271.9738 14.34218177420382
IRIDIUM 150             
1 43257U 18030J   26099.98429981 -.00000035  00000+0 -19450-4 0  9991
2 43257  86.3952 319.0018 0002048  88.5093 271.6337 14.34217038420384
IRIDIUM 143             
1 43258U 18030K   26100.03504074  .00000057  00000+0  13352-4 0  9995
2 43258  86.3961 319.0709 0002268  88.2882 271.8573 14.34217074420327
IRIDIUM 161             
1 43478U 18047C   26100.29410266  .00000165  00000+0  43063-4 0  9996
2 43478  86.4450 116.8681 0002090  85.7103 274.4337 14.43279845415345
IRIDIUM 152             
1 43479U 18047D   26100.28683089  .00000006  00000+0 -48422-5 0  9991
2 43479  86.3926 116.7314 0002011  91.9261 268.2165 14.34217482412753
IRIDIUM 147             
1 43480U 18047E   26100.29317420  .00000011  00000+0 -31163-5 0  9997
2 43480  86.3927 116.7328 0002249  91.0553 269.0901 14.34217593412759
IRIDIUM 110             
1 43481U 18047F   26100.02044159  .00000013  00000+0 -23745-5 0  9994
2 43481  86.3930 116.9369 0001803  87.1087 273.0315 14.34217582412701
IRIDIUM 162             
1 43482U 18047G   26100.28779434  .00000162  00000+0  42123-4 0  9998
2 43482  86.4449 116.7625 0002283  94.5888 265.5574 14.43278710415330
IRIDIUM 160             
1 43569U 18061A   26100.03604698 -.00000058  00000+0 -27898-4 0  9990
2 43569  86.3921  85.2945 0002079  85.1083 275.0351 14.34217011403604
IRIDIUM 166             
1 43570U 18061B   26100.20095456  .00000062  00000+0  15026-4 0  9990
2 43570  86.3915  85.1765 0002331  88.6963 271.4500 14.34217865403652
IRIDIUM 158             
1 43571U 18061C   26100.02970459  .00000035  00000+0  53107-5 0  9999
2 43571  86.3916  85.2582 0002172  92.1028 268.0416 14.34217479403599
IRIDIUM 165             
1 43572U 18061D   26100.19461099  .00000019  00000+0 -29630-6 0  9991
2 43572  86.3919  85.2344 0002262  88.5262 271.6193 14.34217515403647
IRIDIUM 155             
1 43573U 18061E   26100.22632474  .00000011  00000+0 -31511-5 0  9995
2 43573  86.3913  85.0934 0002185  92.3444 267.8002 14.34217343403616
IRIDIUM 154             
1 43574U 18061F   26100.20729651  .00000053  00000+0  11733-4 0  9996
2 43574  86.3919  85.2317 0002425  87.2200 272.9273 14.34217882403660
IRIDIUM 163             
1 43575U 18061G   26099.97894397  .00000247  00000+0  81189-4 0  9995
2 43575  86.3914  85.2445 0002239  88.9805 271.1647 14.34230990403605
IRIDIUM 156             
1 43576U 18061H   26100.23266629  .00000063  00000+0  15410-4 0  9999
2 43576  86.3914  85.1456 0002358  92.2216 267.9249 14.34217501403630
IRIDIUM 164             
1 43577U 18061J   26100.07410258  .00000029  00000+0  31971-5 0  9994
2 43577  86.3917  85.2514 0002374  84.9652 275.1815 14.34217420403652
IRIDIUM 159             
1 43578U 18061K   26100.25169389 -.00000015  00000+0 -12539-4 0  9996
2 43578  86.3916  85.1153 0002017  86.4211 273.7216 14.34217376403640
IRIDIUM 180             
1 43922U 19002A   26100.25119162  .00000023  00000+0  10723-5 0  9990
2 43922  86.4014  21.9817 0002026  81.6360 278.5065 14.34217391379251
IRIDIUM 176             
1 43923U 19002B   26100.25925318  .00000901  00000+0  13904-3 0  9996
2 43923  86.6137  21.9312 0002648  84.9263 275.2257 14.72250358389258
IRIDIUM 168             
1 43924U 19002C   26100.10531321  .00000175  00000+0  55311-4 0  9990
2 43924  86.4017  22.1178 0002171  86.1781 273.9663 14.34217401379218
IRIDIUM 173             
1 43925U 19002D   26100.30193302  .00000299  00000+0  99564-4 0  9991
2 43925  86.4016  21.9275 0002121  87.6077 272.5362 14.34217428379223
IRIDIUM 169             
1 43926U 19002E   26100.29625813  .00000402  00000+0  12492-3 0  9997
2 43926  86.4220  53.5634 0002367 102.9622 257.1841 14.38606753380466
IRIDIUM 172             
1 43927U 19002F   26100.22582100  .00000200  00000+0  64414-4 0  9990
2 43927  86.4015  21.9669 0002130  82.4127 277.7310 14.34218380379228
IRIDIUM 175             
1 43928U 19002G   26100.13857106  .00000320  00000+0  88398-4 0  9992
2 43928  86.4509 318.9860 0005378  88.4093 271.7724 14.43587109389169
IRIDIUM 171             
1 43929U 19002H   26100.20679552 -.00000018  00000+0 -13556-4 0  9998
2 43929  86.4025  22.2735 0002201  86.0426 274.1021 14.34216254379217
IRIDIUM 170             
1 43930U 19002J   26100.19746039  .00000080  00000+0  88133-5 0  9994
2 43930  86.6130  21.9596 0002314  84.0437 276.1044 14.72257159389257
IRIDIUM 167             
1 43931U 19002K   26100.20045052  .00000208  00000+0  67305-4 0  9993
2 43931  86.4014  21.9993 0002471  90.1615 269.9864 14.34218814379216
IRIDIUM 181             
1 56726U 23068S   26100.23298075  .00000061  00000+0  12068-4 0  9997
2 56726  86.4452  85.1980 0002393  80.6889 279.4582 14.43309568152631
IRIDIUM 177             
1 56727U 23068T   26100.18019358  .00001368  00000+0  17663-3 0  9993
2 56727  86.2013   1.0857 0002155  86.2011 273.9457 14.80211823156303
IRIDIUM 174             
1 56728U 23068U   26100.18512779  .00001009  00000+0  15605-3 0  9995
2 56728  86.6145  22.1056 0002164  83.2092 276.9371 14.72255837156015
IRIDIUM 178             
1 56729U 23068V   26100.30448114  .00001273  00000+0  16409-3 0  9997
2 56729  86.6539  53.7158 0002763  83.2331 276.9205 14.80228155156329
IRIDIUM 179             
1 56730U 23068W   26100.29910004  .00000749  00000+0  95190-4 0  9991
2 56730  86.6755  62.4994 0002908  91.3544 268.8010 14.80226728156321
