ORBCOMM FM06            
1 25118U 97084G   26124.81773016  .00001484  00000+0  43962-3 0  9996
2 25118  45.0139 261.4769 0000863 171.7000 342.8055 14.47456119488109
ORBCOMM FM04            
1 25159U 98007C   26124.77724374  .00001105  00000+0  42447-3 0  9992
2 25159 107.9621  80.0858 0039609  40.4442 319.9631 14.35654058470367
ORBCOMM FM19            
1 25415U 98046C   26124.65595373  .00001055  00000+0  38124-3 0  9993
2 25415  44.9932  90.4644 0001932  52.6943 116.9337 14.39409601450502
ORBCOMM FM20            
1 25416U 98046D   26124.31505262  .00000665  00000+0  26458-3 0  9998
2 25416  44.9933  99.5271 0001533 305.9674  54.1031 14.37999585450475
ORBCOMM FM27            
1 25481U 98053G   26124.59135701  .00000825  00000+0  31036-3 0  9991
2 25481  45.0041 182.4049 0001856 256.5617 103.5025 14.39057555443951
ORBCOMM FM32            
1 25982U 99065C   26124.77263666  .00000792  00000+0  31166-3 0  9990
2 25982  45.0172  18.7261 0005008 205.3253 154.7350 14.37070159380840
ORBCOMM FM109           
1 40086U 14040A   26124.81344603  .00000455  00000+0  13272-3 0  9992
2 40086  47.0037 296.5473 0001228   6.2794 353.8107 14.58799470628016
ORBCOMM FM114           
1 41179U 15081A   26124.62553492  .00000428  00000+0  12686-3 0  9997
2 41179  47.0042 207.9505 0002204 334.1870  25.8905 14.58810206551390
ORBCOMM FM110           
1 41182U 15081D   26124.47729886  .00000716  00000+0  18801-3 0  9991
2 41182  47.0013 208.1045 0003899 239.5017 120.5484 14.58812781551245
ORBCOMM FM118           
1 41183U 15081E   26124.64888961  .00000706  00000+0  18575-3 0  9998
2 41183  47.0036 207.6194 0003624 208.6194 151.4493 14.58834620551372
ORBCOMM FM112           
1 41184U 15081F   26124.65275867  .00000698  00000+0  18506-3 0  9999
2 41184  46.9976 116.0847 0002177   5.4594 354.6315 14.58558917552598
ORBCOMM FM113           
1 41185U 15081G   26124.69789648  .00000416  00000+0  12436-3 0  9995
2 41185  46.9994 116.2411 0001845 335.7093  24.3705 14.58809669552588
ORBCOMM FM108           
1 41187U 15081J   26124.79745552  .00000778  00000+0  20096-3 0  9996
2 41187  47.0064  27.3308 0002813 347.6647  12.4170 14.58807394553746
ORBCOMM FM117           
1 41188U 15081K   26124.83138095  .00000702  00000+0  18487-3 0  9998
2 41188  47.0030  25.8177 0003191 355.6229   4.4628 14.58805613553798
ORBCOMM FM116           
1 41189U 15081L   26124.67517514  .00000300  00000+0  99864-4 0  9991
2 41189  47.0010 116.3453 0002394 248.8163 111.2467 14.58818552552584
