QIANFAN-1               
1 60379U 24140A   26075.23519065  .00000061  00000+0  76656-4 0  9997
2 60379  88.9699 289.6048 0016165 309.2161  50.7554 13.51000617 79976
QIANFAN-2               
1 60380U 24140B   26075.26389534  .00000048  00000+0  55281-4 0  9994
2 60380  88.9686 289.4281 0011001 279.3840  80.6067 13.51004699 80030
QIANFAN-3               
1 60381U 24140C   26075.27208292  .00000049  00000+0  57580-4 0  9992
2 60381  88.9678 289.5529 0012288 293.4767  66.5093 13.51000783 79941
QIANFAN-4               
1 60382U 24140D   26075.24750049  .00000071  00000+0  91556-4 0  9998
2 60382  88.9703 289.4766 0011262 282.3867  77.6023 13.51001282 80068
QIANFAN-5               
1 60383U 24140E   26075.22281631  .00000052  00000+0  61609-4 0  9998
2 60383  88.9678 289.5833 0013773 305.7372  54.2498 13.51002937 79924
QIANFAN-6               
1 60384U 24140F   26075.24340000  .00000064  00000+0  80716-4 0  9990
2 60384  88.9704 289.3524 0011445 289.1674  70.8238 13.51002832 80128
QIANFAN-7               
1 60385U 24140G   26075.23981599  .00000243  00000+0  92095-4 0  9996
2 60385  88.9720 282.7357 0017185  92.5702 267.7460 14.27777968 83730
QIANFAN-8               
1 60386U 24140H   26075.25160342  .00000068  00000+0  86132-4 0  9994
2 60386  88.9706 289.5905 0014928 290.8172  69.1380 13.51004387 79975
QIANFAN-9               
1 60387U 24140J   26075.22695161  .00000053  00000+0  63519-4 0  9992
2 60387  88.9704 289.6666 0014624 290.7098  69.2485 13.50999078 79952
QIANFAN-10              
1 60388U 24140K   26075.23096897  .00000056  00000+0  68487-4 0  9997
2 60388  88.9713 289.0222 0012895 265.2780  94.6898 13.50997573 80082
QIANFAN-11              
1 60389U 24140L   26075.26808333  .00000053  00000+0  63366-4 0  9995
2 60389  88.9640 289.5359 0012642 290.7073  69.2722 13.51004445 79749
QIANFAN-12              
1 60390U 24140M   26075.21461443  .00000058  00000+0  71593-4 0  9995
2 60390  88.9683 289.6258 0011610 300.5165  59.4840 13.51002048 79865
QIANFAN-13              
1 60391U 24140N   26075.25984494  .00000056  00000+0  67784-4 0  9991
2 60391  88.9695 289.7324 0011491 303.5009  56.5043 13.51002496 79894
QIANFAN-14              
1 60392U 24140P   26075.21039812  .00000060  00000+0  74362-4 0  9998
2 60392  88.9674 289.6152 0015166 302.2190  57.7491 13.51002436 79894
QIANFAN-15              
1 60393U 24140Q   26075.21879693  .00000042  00000+0  46399-4 0  9997
2 60393  88.9697 289.5931 0010726 288.0146  71.9836 13.51000151 79885
QIANFAN-16              
1 60394U 24140R   26075.28036072  .00000062  00000+0  76815-4 0  9999
2 60394  88.9700 289.7095 0013178 306.9734  53.0210 13.50998977 79801
QIANFAN-17              
1 60395U 24140S   26075.27630275  .00000056  00000+0  67717-4 0  9998
2 60395  88.9711 289.7661 0013439 299.8444  60.1371 13.51005584 80769
QIANFAN-18              
1 60396U 24140T   26075.25577218  .00000057  00000+0  70013-4 0  9998
2 60396  88.9704 289.2950 0012521 280.5175  79.4566 13.51004684 80159
QIANFAN-19              
1 61552U 24185A   26075.25601026  .00000477  00000+0  24215-3 0  9995
2 61552  88.9768  67.2010 0007590  22.9540 337.1985 14.14398557 82885
QIANFAN-20              
1 61553U 24185B   26075.22407223  .00000430  00000+0  24072-3 0  9996
2 61553  88.9765  67.6227 0007813  58.9139 301.2811 14.08944445 82659
QIANFAN-21              
1 61554U 24185C   26075.22553794  .00000681  00000+0  29717-3 0  9991
2 61554  88.9687  66.0050 0012826  64.3575 295.8940 14.22743736 83260
QIANFAN-22              
1 61555U 24185D   26075.25986277  .00000262  00000+0  21460-3 0  9993
2 61555  88.9749  68.9779 0008598  75.3345 284.8779 13.86344797 81895
QIANFAN-23              
1 61556U 24185E   26075.24079779  .00000618  00000+0  30411-3 0  9994
2 61556  88.9761  66.9685 0008654  30.9631 329.2065 14.16406154 82985
QIANFAN-24              
1 61557U 24185F   26075.21964716  .00000804  00000+0  34418-3 0  9994
2 61557  88.9745  66.2231 0009313   8.3497 351.7849 14.23951605 83323
QIANFAN-25              
1 61558U 24185G   26075.24089806  .00000449  00000+0  26542-3 0  9990
2 61558  88.9758  67.5838 0011688  38.1286 322.0721 14.06005631 82644
QIANFAN-26              
1 61559U 24185H   26075.21261535  .00000243  00000+0  22936-3 0  9994
2 61559  88.9753  69.6403 0007959  88.8535 271.3543 13.77866599 81547
QIANFAN-27              
1 61560U 24185J   26075.26516368  .00000577  00000+0  22929-3 0  9990
2 61560  88.9759  65.9553 0007368   0.9915 359.1292 14.27456315 83502
QIANFAN-28              
1 61561U 24185K   26075.26891721  .00000914  00000+0  36127-3 0  9990
2 61561  88.9774  65.9624 0006945   2.3291 357.7935 14.28235474 83524
QIANFAN-29              
1 61562U 24185L   26075.27890397  .00000204  00000+0  29756-3 0  9992
2 61562  88.9725  71.6229 0011241 131.8277 228.3836 13.51048200 80426
QIANFAN-30              
1 61563U 24185M   26075.25052775  .00000187  00000+0  27442-3 0  9991
2 61563  88.9745  71.1871 0009363 117.9541 242.2559 13.50022796 80684
QIANFAN-31              
1 61564U 24185N   26075.25923075  .00000207  00000+0  26943-3 0  9990
2 61564  88.9730  70.8393 0008950 110.2323 249.9795 13.58007658 80852
QIANFAN-32              
1 61565U 24185P   26075.24138993  .00000164  00000+0  23641-3 0  9991
2 61565  88.9789  71.3509 0010655 143.8659 216.3215 13.50767151 80668
QIANFAN-33              
1 61566U 24185Q   26075.26090450  .00000448  00000+0  31364-3 0  9995
2 61566  88.9746  68.3582 0008740  47.2915 312.8996 13.96632984 82219
QIANFAN-34              
1 61567U 24185R   26075.27073436  .00000507  00000+0  32106-3 0  9993
2 61567  88.9725  67.7964 0007612  49.4103 310.7739 14.02394303 82461
QIANFAN-35              
1 61568U 24185S   26075.24106411  .00000909  00000+0  35983-3 0  9993
2 61568  88.9755  65.8797 0006118   1.2163 358.9046 14.28141479 83525
QIANFAN-36              
1 61569U 24185T   26075.26140480  .00000108  00000+0  13837-3 0  9995
2 61569  88.9724  71.2809 0007762 120.7321 239.4598 13.55615946 80599
QIANFAN-37              
1 62238U 24232B   26075.23883090  .00000092  00000+0  12320-3 0  9998
2 62238  89.0070  31.8909 0002075  97.1405 262.9982 13.51007108111790
QIANFAN-38              
1 62239U 24232C   26075.26346897  .00000071  00000+0  92261-4 0  9991
2 62239  89.0077  31.8107 0012626 289.5003  70.4784 13.51005618111855
QIANFAN-39              
1 62240U 24232D   26075.21041271  .00000472  00000+0  19362-3 0  9991
2 62240  89.0074  26.6229 0017808 126.5124 233.7713 14.25447088114708
QIANFAN-40              
1 62241U 24232E   26075.22232579  .00000081  00000+0  10705-3 0  9994
2 62241  89.0105  31.4256 0011840 299.2085  60.7881 13.51004978112215
QIANFAN-41              
1 62242U 24232F   26075.23058708  .00000070  00000+0  90319-4 0  9994
2 62242  89.0075  31.7639 0011979 285.2087  74.7740 13.51006507111870
QIANFAN-42              
1 62243U 24232G   26075.26788901  .00000437  00000+0  18190-3 0  9996
2 62243  89.0072  26.6775 0016474 131.5911 228.6697 14.24540362114682
QIANFAN-43              
1 62244U 24232H   26075.22642822  .00000068  00000+0  86235-4 0  9990
2 62244  89.0080  31.8337 0013593 290.7848  69.1846 13.51006505 80489
QIANFAN-44              
1 62245U 24232J   26075.21411173  .00000080  00000+0  10493-3 0  9999
2 62245  89.0078  31.6443 0011758 288.0317  71.9553 13.51004505111956
QIANFAN-45              
1 62246U 24232K   26075.25526285  .00000072  00000+0  92843-4 0  9996
2 62246  89.0082  31.7899 0012409 287.2147  72.7646 13.51008335111883
QIANFAN-46              
1 62247U 24232L   26075.20586169  .00000090  00000+0  12050-3 0  9990
2 62247  89.0077  31.8600 0012575 293.7099  66.2732 13.51005100111837
QIANFAN-47              
1 62248U 24232M   26075.20997420  .00000095  00000+0  12911-3 0  9998
2 62248  89.0073  31.7889 0012990 292.5839  67.3937 13.51005029111864
QIANFAN-48              
1 62249U 24232N   26075.24701042  .00000072  00000+0  92955-4 0  9998
2 62249  89.0077  31.7907 0015283 294.7319  65.2242 13.51005066111873
QIANFAN-49              
1 62250U 24232P   26075.23468056  .00000078  00000+0  10220-3 0  9994
2 62250  89.0076  31.8037 0012256 289.4953  70.4874 13.51004255 80469
QIANFAN-50              
1 62251U 24232Q   26075.25934665  .00000074  00000+0  95889-4 0  9992
2 62251  89.0082  31.8144 0013934 290.4582  69.5072 13.51005274 80494
QIANFAN-51              
1 62252U 24232R   26075.24291548  .00000080  00000+0  10564-3 0  9991
2 62252  89.0076  31.8042 0011514 295.6767  64.3195 13.51005976 80486
QIANFAN-52              
1 62253U 24232S   26075.27175025  .00000080  00000+0  10574-3 0  9997
2 62253  89.0072  31.6713 0013354 285.8601  74.1078 13.51002459 80570
QIANFAN-53              
1 62254U 24232T   26075.25112504  .00000063  00000+0  78999-4 0  9996
2 62254  89.0080  31.7848 0012261 287.5957  72.3854 13.51005237 80534
QIANFAN-54              
1 62255U 24232U   26075.21825217  .00000075  00000+0  97541-4 0  9992
2 62255  89.0071  31.4585 0002349  23.9471 336.1790 13.51004769112039
QIANFAN-55              
1 62785U 25016A   26075.24436427  .00000054  00000+0  63843-4 0  9990
2 62785  88.9683  93.5290 0019439  80.0872 280.2472 13.50996974 59812
QIANFAN-56              
1 62786U 25016B   26075.26072266  .00000054  00000+0  65082-4 0  9997
2 62786  88.9656  93.3385 0018106  82.2916 278.0290 13.50998685 59868
QIANFAN-57              
1 62787U 25016C   26075.21964186  .00000061  00000+0  75533-4 0  9994
2 62787  88.9687  93.5254 0001560 109.0853 251.0467 13.50997735 59822
QIANFAN-58              
1 62788U 25016D   26075.26482688  .00000055  00000+0  65845-4 0  9990
2 62788  88.9657  93.3235 0015938  75.8642 284.4279 13.50999285 59875
QIANFAN-59              
1 62789U 25016E   26075.21555287  .00000043  00000+0  48193-4 0  9996
2 62789  88.9680  93.4245 0016346  79.2251 281.0739 13.51007637 59867
QIANFAN-60              
1 62790U 25016F   26075.24845810  .00000048  00000+0  55032-4 0  9990
2 62790  88.9662  93.3747 0017860  75.8142 284.4992 13.51009858 59852
QIANFAN-61              
1 62791U 25016G   26075.20732650  .00000041  00000+0  44759-4 0  9991
2 62791  88.9728  93.6056 0016776  75.5116 284.7895 13.51006294 59862
QIANFAN-62              
1 62792U 25016H   26075.21145048  .00000045  00000+0  51114-4 0  9999
2 62792  88.9675  93.4230 0018162  75.6406 284.6760 13.50997071 59850
QIANFAN-63              
1 62793U 25016J   26071.97752288 -.02122006  00000+0 -36135+1 0  9997
2 62793  88.9681  93.7208 0018229  96.0583 264.2645 13.49196539 59453
QIANFAN-64              
1 62794U 25016K   26075.27727103  .00000042  00000+0  46388-4 0  9999
2 62794  88.9669  93.3354 0016134  74.2721 286.0209 13.51006035 59893
QIANFAN-65              
1 62795U 25016L   26075.27303795  .00000045  00000+0  50191-4 0  9997
2 62795  88.9665  93.3586 0016005  75.8025 284.4903 13.51009314 59872
QIANFAN-66              
1 62796U 25016M   26075.22787330  .00000061  00000+0  75683-4 0  9995
2 62796  88.9685  93.3518 0017048  71.9241 288.3766 13.50997459 59915
QIANFAN-67              
1 62797U 25016N   26075.23194854  .00000051  00000+0  59571-4 0  9997
2 62797  88.9675  93.3677 0017106  77.9725 282.3342 13.50995818 59886
QIANFAN-68              
1 62798U 25016P   26075.22378084  .00000056  00000+0  67021-4 0  9990
2 62798  88.9679  93.4172 0017138  76.4658 283.8401 13.51005783 59860
QIANFAN-69              
1 62799U 25016Q   26075.24024280  .00000044  00000+0  49889-4 0  9998
2 62799  88.9657  93.2647 0017910  77.2106 283.1045 13.51005944 59908
QIANFAN-70              
1 62800U 25016R   26075.25672261  .00000054  00000+0  64399-4 0  9994
2 62800  88.9678  93.4213 0017366  68.7250 291.5753 13.50997574 59867
QIANFAN-71              
1 62801U 25016S   26075.25256054  .00000056  00000+0  67424-4 0  9997
2 62801  88.9672  93.3955 0017849  80.3126 280.0041 13.50997100 59860
QIANFAN-72              
1 62802U 25016T   26075.26903515  .00000052  00000+0  61538-4 0  9996
2 62802  88.9662  93.3980 0021167  86.4502 273.9069 13.50996693 59857
QIANFAN-73              
1 63159U 25046A   26075.22180794  .00000125  00000+0  17516-3 0  9994
2 63159  88.9741 310.3656 0013691 208.4304 151.6102 13.51001103 60038
QIANFAN-74              
1 63160U 25046B   26075.20539494  .00000151  00000+0  21547-3 0  9997
2 63160  88.9741 310.2562 0001976  79.5973 280.5401 13.51001514 60093
QIANFAN-75              
1 63161U 25046C   26075.26692431  .00000168  00000+0  24136-3 0  9990
2 63161  88.9743 310.4849 0014784 212.1506 147.8745 13.50952730 59979
QIANFAN-76              
1 63162U 25046D   26075.26291178  .00000181  00000+0  26200-3 0  9993
2 63162  88.9742 310.4651 0012308 211.8463 148.1946 13.51002854 59980
QIANFAN-77              
1 63163U 25046E   26075.21593407  .00000319  00000+0  22217-3 0  9996
2 63163  88.9738 307.7082 0015722 142.1567 218.0718 13.96181483 61495
QIANFAN-78              
1 63164U 25046F   26075.23003511  .00000176  00000+0  25345-3 0  9997
2 63164  88.9741 310.3316 0013593 215.1806 144.8449 13.51002132 60053
QIANFAN-79              
1 63165U 25046G   26075.25889918  .00000142  00000+0  20055-3 0  9999
2 63165  88.9745 310.4399 0013494 213.2183 146.8122 13.51011944 60003
QIANFAN-80              
1 63166U 25046H   26075.27527852  .00000132  00000+0  18573-3 0  9999
2 63166  88.9742 310.1425 0012239 217.3713 142.6588 13.51001158 60161
QIANFAN-81              
1 63167U 25046J   26075.25354982  .00000101  00000+0  13846-3 0  9994
2 63167  88.9742 310.2126 0013526 205.9751 154.0723 13.50986177 60111
QIANFAN-82              
1 63168U 25046K   26075.21359071  .00000135  00000+0  19045-3 0  9999
2 63168  88.9742 310.2607 0011445 212.9768 147.0670 13.51002626 60099
QIANFAN-83              
1 63169U 25046L   26075.22052336  .00000172  00000+0  20678-3 0  9990
2 63169  88.9742 309.8526 0013300 191.6507 168.4345 13.62025705 60327
QIANFAN-84              
1 63170U 25046M   26075.24272090  .00000164  00000+0  23623-3 0  9999
2 63170  88.9742 310.3903 0014755 210.5397 149.4896 13.50833879 60021
QIANFAN-85              
1 63171U 25046N   26075.23823846  .00000142  00000+0  20067-3 0  9995
2 63171  88.9741 310.2619 0011880 211.8090 148.2345 13.51005265 60098
QIANFAN-86              
1 63172U 25046P   26075.24647851  .00000134  00000+0  18840-3 0  9994
2 63172  88.9744 310.1253 0009640 215.4831 144.5680 13.51004552 60177
QIANFAN-87              
1 63173U 25046Q   26075.21769287  .00000147  00000+0  20973-3 0  9994
2 63173  88.9740 310.2363 0010423 210.4338 149.6210 13.51013043 60108
QIANFAN-88              
1 63174U 25046R   26075.23410723  .00000137  00000+0  19399-3 0  9994
2 63174  88.9742 310.1915 0010632 219.9075 140.1296 13.51001134 60138
QIANFAN-89              
1 63175U 25046S   26075.27121936  .00000143  00000+0  20318-3 0  9994
2 63175  88.9743 310.3768 0015315 210.9089 149.1162 13.51011672 60035
QIANFAN-90              
1 63176U 25046T   26075.22598887  .00000158  00000+0  22549-3 0  9997
2 63176  88.9743 310.3540 0012294 208.2382 151.8104 13.51011987 60049
QIANFAN-91              
1 66033U 25233A   26075.25856127  .00000059  00000+0  72344-4 0  9996
2 66033  88.9947  52.5794 0002120  91.1806 268.9588 13.51005333 20638
QIANFAN-92              
1 66034U 25233B   26075.26671762  .00000058  00000+0  71072-4 0  9994
2 66034  88.9931  52.5655 0002012  85.5783 274.5598 13.51006558 20633
QIANFAN-93              
1 66035U 25233C   26075.27495758  .00000059  00000+0  73533-4 0  9990
2 66035  88.9958  52.5914 0002068  89.6100 270.5288 13.51005796 20635
QIANFAN-94              
1 66036U 25233D   26075.26255792  .00000060  00000+0  74573-4 0  9999
2 66036  88.9954  52.4991 0002142  85.6932 274.4464 13.50992684 20682
QIANFAN-95              
1 66037U 25233E   26075.27063833  .00000038  00000+0  39530-4 0  9993
2 66037  88.9952  52.0444 0002248  90.0163 270.1246 13.51001486 20934
QIANFAN-96              
1 66038U 25233F   26075.29557800  .00000066  00000+0  84306-4 0  9990
2 66038  88.9949  52.5875 0002153  92.5407 267.5991 13.51005501 20633
QIANFAN-97              
1 66039U 25233G   26075.20504736  .00000045  00000+0  51686-4 0  9994
2 66039  88.9953  52.5777 0002111  90.7085 269.4308 13.51004810 20631
QIANFAN-98              
1 66040U 25233H   26075.21321878  .00000071  00000+0  91683-4 0  9991
2 66040  88.9942  52.3178 0002450  78.9193 281.2234 13.51005563 20779
QIANFAN-99              
1 66041U 25233J   26075.21737982  .00000057  00000+0  69597-4 0  9992
2 66041  88.9953  52.5798 0002403  83.5606 276.5819 13.51005597 20639
QIANFAN-100             
1 66042U 25233K   26075.20911566  .00000051  00000+0  60095-4 0  9992
2 66042  88.9964  52.4973 0002071  90.3488 269.7901 13.51006491 20686
QIANFAN-101             
1 66043U 25233L   26075.22817301  .00000580  00000+0  23335-3 0  9999
2 66043  88.9953  51.2302 0017341  88.6317 271.6864 14.26748373 21377
QIANFAN-102             
1 66044U 25233M   26075.22966163  .00000057  00000+0  69395-4 0  9997
2 66044  88.9951  52.4904 0002191  85.6060 274.5341 13.50993401 20681
QIANFAN-103             
1 66045U 25233N   26075.23386127  .00000047  00000+0  54334-4 0  9991
2 66045  88.9954  52.5826 0002069  90.5288 269.6101 13.51006992 20635
QIANFAN-104             
1 66046U 25233P   26075.23772779  .00000045  00000+0  50968-4 0  9991
2 66046  88.9958  52.4801 0002129  83.6269 276.5124 13.51011179 20681
QIANFAN-105             
1 66047U 25233Q   26075.24612198  .00000052  00000+0  61502-4 0  9995
2 66047  88.9971  52.3099 0002217  89.3560 270.7845 13.50982390 20799
QIANFAN-106             
1 66048U 25233R   26075.24205006  .00000044  00000+0  49002-4 0  9994
2 66048  88.9940  52.5525 0002399  80.5696 279.5726 13.51006004 20645
QIANFAN-107             
1 66049U 25233S   26075.25032530  .00000051  00000+0  60630-4 0  9994
2 66049  88.9956  52.5693 0002073  89.6909 270.4480 13.51004010 20647
QIANFAN-108             
1 66050U 25233T   26075.25441794  .00000057  00000+0  69430-4 0  9995
2 66050  88.9949  52.5632 0002349  80.6717 279.4699 13.51005444 20641
