KUIPER-00008            
1 63724U 25088A   26076.10131351 -.00079438  00000+0 -10035-1 0  9993
2 63724  51.9029  54.5795 0001934 104.8819 255.2359 14.81882001 49156
KUIPER-00009            
1 63725U 25088B   26076.58335648 -.00021869  00000+0 -26183-2 0  9998
2 63725  51.9012  71.6720 0006131 125.2539  90.7787 14.83419526  5561
KUIPER-00010            
1 63726U 25088C   26076.60864107 -.00000662  00000+0 -57793-4 0  9990
2 63726  51.9033  48.0751 0000441  83.9595 276.1418 14.79928510 48906
KUIPER-00011            
1 63727U 25088D   26076.63445060  .00008096  00000+0  10884-2 0  9992
2 63727  51.9005  55.5233 0000481 115.8430 244.2582 14.79981959 48938
KUIPER-00012            
1 63728U 25088E   26076.61668241  .00002090  00000+0  30277-3 0  9996
2 63728  51.9036  40.5273 0001063  88.1993 271.9091 14.79971287 49097
KUIPER-00013            
1 63729U 25088F   26076.41291822  .00002854  00000+0  40350-3 0  9993
2 63729  51.9009  73.9455 0002310  70.2179 289.9032 14.79903159 48719
KUIPER-00014            
1 63730U 25088G   26076.58335648 -.00019068  00000+0 -22797-2 0  9999
2 63730  51.9001  74.1014 0001787 141.2893  88.0467 14.83413185  4651
KUIPER-00015            
1 63731U 25088H   26076.58335648 -.00007967  00000+0 -96848-3 0  9994
2 63731  51.8974  83.2449 0002446 102.3411 134.6265 14.81964892  4827
KUIPER-00016            
1 63732U 25088J   26076.58335648 -.00016090  00000+0 -19143-2 0  9994
2 63732  51.8989  76.6303 0004668 106.2888 138.0704 14.83495138  4840
KUIPER-00018            
1 63733U 25088K   26076.21834711  .00002564  00000+0  36521-3 0  9999
2 63733  51.9022  67.2771 0000693  95.2164 264.8877 14.79935799 48601
KUIPER-00019            
1 63734U 25088L   26075.67913501  .00001497  00000+0  22528-3 0  9990
2 63734  51.9009  68.1870 0000708  67.9834 292.1204 14.79951350 48546
KUIPER-00020            
1 63735U 25088M   26076.21564612  .00041782  00000+0  54862-2 0  9993
2 63735  51.9006  69.8092 0004159 110.7956 249.3452 14.79848365 48779
KUIPER-00021            
1 63736U 25088N   26076.58335648 -.00024149  00000+0 -28969-2 0  9998
2 63736  51.8993  69.1069 0003066 105.0105 101.0618 14.83408281  4707
KUIPER-00023            
1 63737U 25088P   26076.48306744 -.00015195  00000+0 -19668-2 0  9990
2 63737  51.8998  71.0847 0005431 124.4330 235.7146 14.79958619 48914
KUIPER-00024            
1 63738U 25088Q   26076.63168573  .00001404  00000+0  21320-3 0  9999
2 63738  51.9042  57.9951 0000869  69.0032 291.1024 14.79921134 49237
KUIPER-00025            
1 63739U 25088R   26076.23967553  .00002803  00000+0  36403-3 0  9993
2 63739  51.9020  67.7762 0000828  35.4208 324.6811 14.83590299 48920
KUIPER-00027            
1 63740U 25088S   26076.22370340  .00001143  00000+0  17906-3 0  9999
2 63740  51.9018  62.2684 0000927 102.4808 257.6259 14.79908769 48733
KUIPER-00028            
1 63741U 25088T   26076.39539627  .00005271  00000+0  71996-3 0  9998
2 63741  51.8999  58.9788 0001274  73.8673 286.2430 14.79932656 49209
KUIPER-00029            
1 63742U 25088U   26076.19534226  .00001665  00000+0  24757-3 0  9993
2 63742  51.9025  57.4087 0000671  97.8409 262.2629 14.79905685 48733
KUIPER-00030            
1 63743U 25088V   26076.41007157 -.00041549  00000+0 -54809-2 0  9994
2 63743  51.9003  76.4039 0009877  94.7963 265.4127 14.79692382 48775
KUIPER-00031            
1 63744U 25088W   26076.24867436  .00002964  00000+0  38213-3 0  9998
2 63744  51.9008  62.0644 0001666 158.9418 201.1615 14.83730823 48676
KUIPER-00032            
1 63745U 25088X   26076.46827762  .00011511  00000+0  31682-3 0  9992
2 63745  51.8717 346.6018 0005285 138.4411 221.6979 15.37620453 50744
KUIPER-00033            
1 63746U 25088Y   26075.76259604  .00003200  00000+0  41220-3 0  9994
2 63746  51.8993  94.4028 0001162  50.1428 309.9638 14.83541835 48664
KUIPER-00034            
1 63747U 25088Z   26076.58335648 -.00032363  00000+0 -42532-2 0  9999
2 63747  51.9008  53.1872 0001125 359.6968 256.4183 14.79768145  5560
KUIPER-00035            
1 63748U 25088AA  26076.43104224  .00003093  00000+0  40093-3 0  9995
2 63748  51.8995  79.4489 0003998  90.5080 269.6342 14.83384660 48668
KUIPER-00037            
1 63749U 25088AB  26076.27229443 -.00003831  00000+0 -47380-3 0  9997
2 63749  51.9002  79.5266 0000508  99.5915 260.5105 14.79933786 49430
KUIPER-00038            
1 63750U 25088AC  26076.22132039  .00001461  00000+0  22084-3 0  9997
2 63750  51.9026  64.7894 0000709 100.0136 260.0907 14.79900217 48636
KUIPER-00039            
1 64500U 25134A   26076.59878317  .00003554  00000+0  49481-3 0  9994
2 64500  51.9002 198.1180 0000618  86.9667 273.1366 14.79948250 41247
KUIPER-00040            
1 64501U 25134B   26076.64886415  .00051003  00000+0  61495-2 0  9999
2 64501  51.8986 208.9851 0010687 297.5357  62.4520 14.83284279 41099
KUIPER-00041            
1 64502U 25134C   26076.58335648 -.00023646  00000+0 -28342-2 0  9998
2 64502  51.8979 210.7979 0002261 327.8231 320.0924 14.83431612  5413
KUIPER-00042            
1 64503U 25134D   26076.65631214  .00003530  00000+0  49180-3 0  9997
2 64503  51.8997 206.3600 0006947 311.3040  48.7324 14.79934439 41134
KUIPER-00043            
1 64504U 25134E   26076.63251554 -.00001976  00000+0 -23025-3 0  9995
2 64504  51.9009 197.9054 0000665  96.8805 263.2233 14.79939029 41259
KUIPER-00044            
1 64505U 25134F   26076.65087425  .00003365  00000+0  46928-3 0  9991
2 64505  51.8985 211.3819 0008001 303.3532  56.6664 14.80016831 41067
KUIPER-00046            
1 64506U 25134G   26076.65552679 -.00001213  00000+0 -13017-3 0  9995
2 64506  51.8963 207.8223 0000457 106.1440 253.9573 14.79929555 41118
KUIPER-00047            
1 64507U 25134H   26076.58335648  .00068978  00000+0  88507-2 0  9997
2 64507  51.8981 181.0434 0001990  91.6018  65.1951 14.80563576  4636
KUIPER-00048            
1 64508U 25134J   26076.54999345 -.00002574  00000+0 -30877-3 0  9994
2 64508  51.8981 180.8187 0000725  70.1923 289.9117 14.79935746 41485
KUIPER-00049            
1 64509U 25134K   26076.62704090  .00005750  00000+0  72035-3 0  9994
2 64509  51.8990 193.5131 0001279 158.4423 201.6594 14.83435094 41314
KUIPER-00050            
1 64510U 25134L   26076.58335648 -.00027801  00000+0 -25910-2 0  9992
2 64510  51.8923 176.1144 0004063  17.5655  50.3212 14.93639467  4955
KUIPER-00051            
1 64511U 25134M   26076.58335648 -.00049293  00000+0 -63057-2 0  9996
2 64511  51.9005 190.7038 0002199 170.4863 242.3885 14.81099100  5131
KUIPER-00053            
1 64513U 25134P   26076.60946396  .00001933  00000+0  28228-3 0  9998
2 64513  51.8997 188.0733 0000491 192.6267 167.4683 14.79956940 41382
KUIPER-00054            
1 64514U 25134Q   26076.54743612 -.00000887  00000+0 -87324-4 0  9990
2 64514  51.8962 183.3160 0000503  66.3491 293.7524 14.79930414 41449
KUIPER-00055            
1 64515U 25134R   26076.59108225  .00011347  00000+0  52143-3 0  9992
2 64515  51.8928 142.5357 0002341  50.2190 309.8996 15.20815861 42029
KUIPER-00056            
1 64516U 25134S   26076.58335648 -.00015345  00000+0 -19868-2 0  9993
2 64516  51.9017 188.2113 0000477 112.3988 287.8766 14.79966358  5312
KUIPER-00057            
1 64517U 25134T   26076.58335648 -.00020732  00000+0 -26977-2 0  9999
2 64517  51.8988 195.6729 0000910  92.5748 350.8171 14.79951328  5096
KUIPER-00058            
1 64518U 25134U   26076.60686640 -.00002431  00000+0 -28999-3 0  9997
2 64518  51.8995 190.5227 0000525  84.1368 275.9654 14.79927137 41352
KUIPER-00059            
1 64519U 25134V   26076.00461427  .00004059  00000+0  56102-3 0  9999
2 64519  51.8996 188.2395 0000667 199.2415 160.8522 14.79943812 41334
KUIPER-00060            
1 64520U 25134W   26076.57834974  .00003465  00000+0  48565-3 0  9998
2 64520  51.9021 185.7341 0001248 101.9609 258.1493 14.79719493 41402
KUIPER-00061            
1 64521U 25134X   26076.60418369 -.00001119  00000+0 -11781-3 0  9995
2 64521  51.8995 193.0931 0000409 105.5009 254.5999 14.79922970 41307
KUIPER-00062            
1 64522U 25134Y   26076.06118816 -.00004807  00000+0 -60227-3 0  9996
2 64522  51.8953 198.0225 0000643  69.2499 290.8533 14.79914190 41203
KUIPER-00063            
1 64523U 25134Z   26076.05315475 -.00002982  00000+0 -36272-3 0  9991
2 64523  51.9028 205.5381 0000872 181.7901 178.3059 14.79893688 41095
KUIPER-00064            
1 64524U 25134AA  26076.59603067 -.00004096  00000+0 -50890-3 0  9998
2 64524  51.9005 200.5604 0000283 153.7881 206.3096 14.79909610 41216
KUIPER-00065            
1 64525U 25134AB  26076.65817787  .00003486  00000+0  48611-3 0  9990
2 64525  51.9036 205.4451 0000519  83.3180 276.7841 14.79925714 41130
KUIPER-00066            
1 64526U 25134AC  26076.57592912 -.00005285  00000+0 -20628-3 0  9991
2 64526  51.8696 146.6904 0004045  12.2896 347.8182 15.23236706 41969
KUIPER-00069            
1 64816U 25151A   26076.48002658  .00003266  00000+0  45721-3 0  9991
2 64816  51.9006 246.1754 0000679 108.8182 251.2854 14.79930091 37917
KUIPER-00070            
1 64817U 25151B   26076.55435322  .00003802  00000+0  52738-3 0  9990
2 64817  51.8986 270.7810 0000742 133.0789 227.0236 14.79938635 37584
KUIPER-00071            
1 64818U 25151C   26076.55712587  .00026206  00000+0  34582-2 0  9991
2 64818  51.8991 268.2942 0002703 110.9240 249.2012 14.79870286 36432
KUIPER-00072            
1 64819U 25151D   26076.20719869  .00003005  00000+0  42310-3 0  9995
2 64819  51.8952 249.8216 0000843 138.9267 221.1759 14.79920688 36665
KUIPER-00073            
1 64820U 25151E   26076.52333321  .00001762  00000+0  26018-3 0  9992
2 64820  51.8984 268.4350 0000683  90.7975 269.3066 14.79916271 37615
KUIPER-00074            
1 64821U 25151F   26076.58335648  .00026388  00000+0  96361-3 0  9992
2 64821  51.9005 252.0212 0002211 316.4398   6.7635 15.27935668  5629
KUIPER-00075            
1 64822U 25151G   26076.55458053  .00041085  00000+0  95820-3 0  9996
2 64822  51.8661 183.4931 0002554 334.3154  25.7708 15.41823608 37613
KUIPER-00076            
1 64823U 25151H   26076.59082021 -.00418869  00000+0 -61393-1 0  9995
2 64823  51.9132 258.0525 0005350 313.9132  46.1387 14.77428843 36587
KUIPER-00077            
1 64824U 25151J   26076.58335648 -.00011291  00000+0 -14850-2 0  9996
2 64824  51.8998 263.1881 0001693  82.4439 212.6385 14.79064644  4594
KUIPER-00078            
1 64825U 25151K   26076.49766375  .00002466  00000+0  35230-3 0  9990
2 64825  51.8991 261.0616 0001018  87.1559 272.9520 14.79945171 36539
KUIPER-00079            
1 64826U 25151L   26076.25573621  .00002690  00000+0  38177-3 0  9997
2 64826  51.8991 267.1050 0000832 113.5204 246.5846 14.79930148 37620
KUIPER-00080            
1 64827U 25151M   26076.22210324 -.00002844  00000+0 -34432-3 0  9996
2 64827  51.8983 267.2605 0000747 100.1186 259.9861 14.79918248 36424
KUIPER-00082            
1 64828U 25151N   26076.20181389  .00002628  00000+0  37349-3 0  9991
2 64828  51.8996 254.8834 0000640  99.1544 260.9491 14.79942132 36590
KUIPER-00083            
1 64829U 25151P   26076.53144519  .00002746  00000+0  38917-3 0  9995
2 64829  51.8991 260.9156 0000687 103.8964 256.2074 14.79922055 37724
KUIPER-00084            
1 64830U 25151Q   26076.52062816  .00001811  00000+0  26657-3 0  9995
2 64830  51.9018 270.9461 0000483  84.3824 275.7193 14.79917138 36395
KUIPER-00085            
1 64831U 25151R   26076.50578340  .00002729  00000+0  38679-3 0  9994
2 64831  51.9013 253.5687 0000753 110.3063 249.7980 14.79938534 36638
KUIPER-00086            
1 64832U 25151S   26076.22484516 -.00001137  00000+0 -12021-3 0  9992
2 64832  51.8981 264.7782 0000801  82.3871 277.7182 14.79924840 36451
KUIPER-00087            
1 64833U 25151T   26076.44626588  .00002792  00000+0  39514-3 0  9996
2 64833  51.8983 246.2795 0000596  78.7074 281.3955 14.79932892 36723
KUIPER-00089            
1 64834U 25151U   26076.50837112  .00030677  00000+0  40425-2 0  9996
2 64834  51.9014 251.0175 0000656 139.4638 220.6373 14.79851333 36678
KUIPER-00090            
1 64835U 25151V   26075.84119748  .00003001  00000+0  42242-3 0  9992
2 64835  51.8971 246.4961 0000673  90.5082 269.5958 14.79932558 36670
KUIPER-00091            
1 64836U 25151W   26076.44351007  .00003000  00000+0  41884-3 0  9996
2 64836  51.9002 248.8104 0000943  54.1403 305.9647 14.80291520 36696
KUIPER-00092            
1 64837U 25151X   26076.50307233  .00002619  00000+0  37240-3 0  9992
2 64837  51.8995 256.0464 0000890 101.5446 258.5617 14.79942066 37813
KUIPER-00093            
1 64838U 25151Y   26076.23026000  .00002745  00000+0  38916-3 0  9994
2 64838  51.8992 259.7339 0000917  88.4923 271.6144 14.79906057 36523
KUIPER-00094            
1 64839U 25151Z   26076.41817468  .00006561  00000+0  48316-3 0  9996
2 64839  51.8872 226.8511 0005728 318.5157  41.5381 15.04432118 37001
KUIPER-00081            
1 65132U 25171A   26076.35281891  .00002648  00000+0  37629-3 0  9990
2 65132  51.8986 114.1874 0000878  72.4230 287.6829 14.79930941 34177
KUIPER-00088            
1 65133U 25171B   26075.86122065  .00003165  00000+0  44405-3 0  9998
2 65133  51.8984 133.8673 0000700  87.8594 272.2449 14.79925276 33855
KUIPER-00095            
1 65134U 25171C   26076.49053382 -.00008868  00000+0 -11356-2 0  9999
2 65134  51.8966 111.1520 0002607 108.5220 251.6026 14.79935348 34226
KUIPER-00096            
1 65135U 25171D   26076.51085037  .00002780  00000+0  39349-3 0  9993
2 65135  51.8982 123.4963 0000603  80.6094 279.4936 14.79938782 34059
KUIPER-00097            
1 65136U 25171E   26076.50817638 -.00000507  00000+0 -37515-4 0  9994
2 65136  51.9002 126.1395 0000798  76.3266 283.7786 14.79929864 34008
KUIPER-00098            
1 65137U 25171F   26076.57291945 -.00002230  00000+0 -26358-3 0  9996
2 65137  51.8995 128.2305 0000908 206.0632 154.0285 14.79943341 33330
KUIPER-00099            
1 65138U 25171G   26076.55065008  .00002664  00000+0  37758-3 0  9999
2 65138  51.9018 118.3199 0000870  33.1144 326.9873 14.80010711 34123
KUIPER-00100            
1 65139U 25171H   26076.58646785  .00002677  00000+0  37999-3 0  9991
2 65139  51.9002 115.6346 0000797  76.8340 283.2712 14.79933664 34161
KUIPER-00102            
1 65140U 25171J   26076.51597737  .00002738  00000+0  39044-3 0  9999
2 65140  51.8972 118.4665 0001514 122.8402 237.2706 14.79672867 34114
KUIPER-00103            
1 65141U 25171K   26076.59865406 -.00003966  00000+0 -49164-3 0  9999
2 65141  51.8962 135.5939 0000650 137.9243 222.1769 14.79922685 33889
KUIPER-00104            
1 65142U 25171L   26076.40954755  .00002802  00000+0  39634-3 0  9993
2 65142  51.9008 123.8967 0000542  76.7427 283.3595 14.79945550 34037
KUIPER-00105            
1 65143U 25171M   26076.57062661  .00002823  00000+0  40001-3 0  9991
2 65143  51.8995 130.8077 0001012 128.4408 231.6645 14.79847576 33950
KUIPER-00106            
1 65144U 25171N   26076.52007631  .00004177  00000+0  37910-3 0  9992
2 65144  51.8921 119.3927 0007968 123.2110 236.9625 14.97205401 34115
KUIPER-00107            
1 65145U 25171P   26076.45401236 -.00002690  00000+0 -32397-3 0  9998
2 65145  51.8981 113.7579 0000710  79.3556 280.7486 14.79931648 34184
KUIPER-00108            
1 65146U 25171Q   26076.54192840 -.00000527  00000+0 -40184-4 0  9998
2 65146  51.9016 125.8863 0000160 143.2135 216.8838 14.79930122 34028
KUIPER-00109            
1 65147U 25171R   26076.37848365  .00000155  00000+0  49309-4 0  9993
2 65147  51.9000 121.5532 0000851  73.6141 286.4915 14.79935446 34065
KUIPER-00110            
1 65148U 25171S   26076.53421939  .00002991  00000+0  41986-3 0  9998
2 65148  51.8985 133.4522 0001457 231.6026 128.4805 14.80075714 33909
KUIPER-00111            
1 65149U 25171T   26076.42714966  .00003090  00000+0  43465-3 0  9997
2 65149  51.8970 138.8314 0000407 112.3409 247.7596 14.79879220 33821
KUIPER-00112            
1 65150U 25171U   26076.41202134  .00002759  00000+0  39301-3 0  9992
2 65150  51.9005 121.4558 0001496  99.4392 260.6739 14.79686453 34060
KUIPER-00114            
1 65151U 25171V   26076.55951669  .00004251  00000+0  58641-3 0  9999
2 65151  51.8993 140.8023 0000491 108.6815 251.4200 14.79927132 33809
KUIPER-00115            
1 65152U 25171W   26076.63497034 -.00005134  00000+0 -64553-3 0  9992
2 65152  51.9006 132.9553 0000572  69.9428 290.1596 14.79891787 33922
KUIPER-00116            
1 65153U 25171X   26076.59595205 -.00001798  00000+0 -20707-3 0  9992
2 65153  51.8997 138.1681 0000178  29.5834 330.5138 14.79909628 33842
KUIPER-00118            
1 65154U 25171Y   26076.59293867  .00003091  00000+0  43780-3 0  9994
2 65154  51.8991 140.6347 0001911 125.7792 234.3348 14.79588354 33812
KUIPER-00119            
1 65155U 25171Z   26076.53878962 -.00001473  00000+0 -16534-3 0  9995
2 65155  51.8995 128.4572 0001259  59.4944 300.6142 14.79664321 33973
KUIPER-00120            
1 65762U 25217A   26076.37070521 -.00005108  00000+0 -64159-3 0  9992
2 65762  51.9003  19.0984 0000927 117.2950 242.8107 14.79932696 25872
KUIPER-00132            
1 65763U 25217B   26076.40588810  .00037644  00000+0  93073-3 0  9997
2 65763  51.8601 326.0335 0006301   3.3526 356.7503 15.40084479 26617
KUIPER-00133            
1 65764U 25217C   26076.53956691  .00003727  00000+0  51754-3 0  9993
2 65764  51.9051  18.4099 0002087  58.5085 301.6081 14.79938764 25903
KUIPER-00139            
1 65765U 25217D   26076.49398100  .00000604  00000+0  66204-4 0  9992
2 65765  51.8873 358.0696 0007406 343.7973  16.2760 15.01976859 26183
KUIPER-00142            
1 65766U 25217E   26076.52481129  .00001046  00000+0  16621-3 0  9999
2 65766  51.9020   0.9443 0000752  89.4355 270.6693 14.79935003 26144
KUIPER-00145            
1 65767U 25217F   26076.52194411 -.00001925  00000+0 -22360-3 0  9990
2 65767  51.9015   3.4695 0000758  64.2302 295.8738 14.79931464 26107
KUIPER-00147            
1 65768U 25217G   26076.48554077  .00001741  00000+0  25731-3 0  9993
2 65768  51.9005   6.1269 0000654 106.3529 253.7505 14.79938623 26062
KUIPER-00148            
1 65769U 25217H   26076.02126474  .00008757  00000+0  55641-3 0  9997
2 65769  51.8790 350.6895 0007801  15.8428 344.2789 15.09537810 26245
KUIPER-00150            
1 65770U 25217J   26076.54116651  .00002539  00000+0  36069-3 0  9997
2 65770  51.9024  15.8753 0001072  69.4523 290.6554 14.80087347 25938
KUIPER-00151            
1 65771U 25217K   26076.07772889  .00000509  00000+0  95774-4 0  9991
2 65771  51.9026  10.4329 0000889  94.3559 265.7505 14.79952391 25973
KUIPER-00152            
1 65772U 25217L   26076.05748390  .00000871  00000+0  14321-3 0  9990
2 65772  51.9020 358.0156 0000782 106.3314 253.7734 14.79938027 26143
KUIPER-00153            
1 65773U 25217M   26076.58335648  .00022364  00000+0  18377-2 0  9992
2 65773  51.8884 351.1671 0010105 342.8135 101.1604 14.99039499  4892
KUIPER-00155            
1 65774U 25217N   26076.40653344  .00011359  00000+0  48430-3 0  9996
2 65774  51.8767 334.9976 0005721 343.3296  16.7496 15.23376829 26491
KUIPER-00156            
1 65775U 25217P   26075.96153863 -.00000826  00000+0 -79398-4 0  9995
2 65775  51.9039 353.4718 0000798  98.4848 261.6205 14.79912996 26192
KUIPER-00158            
1 65776U 25217Q   26076.49955667  .00003738  00000+0  51034-3 0  9996
2 65776  51.8989  10.8861 0001427  75.9522 284.1600 14.80658418 26005
KUIPER-00163            
1 65777U 25217R   26076.58335648  .01779539  00000+0  75966-1 0  9996
2 65777  51.9000  10.1435 0002189 154.8776 340.1610 15.19237683  5343
KUIPER-00165            
1 65778U 25217S   26076.49097464  .00003663  00000+0  50911-3 0  9990
2 65778  51.9026   1.1009 0000739  98.9026 261.2020 14.79943675 26132
KUIPER-00166            
1 65779U 25217T   26076.47071101  .00003511  00000+0  48939-3 0  9998
2 65779  51.9046 348.7164 0000626  68.4464 291.6565 14.79930774 26306
KUIPER-00167            
1 65780U 25217U   26076.07498002  .00003644  00000+0  50659-3 0  9998
2 65780  51.8986  12.9017 0000801  89.0243 271.0811 14.79945323 25936
KUIPER-00168            
1 65781U 25217V   26076.49908813 -.00002483  00000+0 -29703-3 0  9999
2 65781  51.9040 353.5675 0000640 103.4255 256.6779 14.79911931 26243
KUIPER-00169            
1 65782U 25217W   26076.49381705  .00002918  00000+0  40801-3 0  9998
2 65782  51.9025 358.5962 0000511 272.6925  87.3979 14.80305233 26178
KUIPER-00170            
1 65783U 25217X   26076.48827932  .00003630  00000+0  50598-3 0  9991
2 65783  51.9007   3.6022 0000817  78.5961 281.5093 14.79846851 26108
KUIPER-00172            
1 65785U 25217Z   26076.03885002  .00002133  00000+0  33359-3 0  9999
2 65785  51.9012 346.4317 0001801  11.5608 348.5393 14.76540821 26304
KUIPER-00173            
1 65786U 25217AA  26076.47769073  .00004624  00000+0  68811-3 0  9995
2 65786  51.9022 358.1548 0000829 125.1565 234.9474 14.76485518 26179
KUIPER-00174            
1 65787U 25217AB  26076.46533371  .00002384  00000+0  34156-3 0  9991
2 65787  51.9039 353.7460 0001041  91.4707 268.6375 14.79943279 26239
KUIPER-00176            
1 65788U 25217AC  26076.51649947  .00004048  00000+0  55952-3 0  9991
2 65788  51.9019   8.4877 0000774  85.5097 274.5954 14.79941608 26033
KUIPER-00101            
1 65947U 25228A   26076.39379916  .00003294  00000+0  46105-3 0  9994
2 65947  51.8999 326.5108 0000714 104.4282 255.6760 14.79922635 24377
KUIPER-00113            
1 65948U 25228B   26076.36541848  .00002437  00000+0  34862-3 0  9992
2 65948  51.8992 321.6541 0000617  95.3826 264.7207 14.79931790 24438
KUIPER-00117            
1 65949U 25228C   26076.39649050  .00003147  00000+0  44167-3 0  9998
2 65949  51.8991 324.0193 0000813  89.7825 270.3230 14.79926216 24405
KUIPER-00121            
1 65950U 25228D   26076.36810609 -.00003455  00000+0 -42453-3 0  9997
2 65950  51.9002 319.1404 0000964 112.0659 248.0406 14.79919365 24474
KUIPER-00122            
1 65951U 25228E   26076.42478120  .00003014  00000+0  42416-3 0  9991
2 65951  51.9007 328.8671 0000949 121.8856 238.2199 14.79933863 24348
KUIPER-00123            
1 65952U 25228F   26076.39109984  .00003255  00000+0  45590-3 0  9990
2 65952  51.9004 329.0378 0000740 105.9428 254.1616 14.79925533 24335
KUIPER-00124            
1 65953U 25228G   26076.39918892  .00003007  00000+0  42332-3 0  9993
2 65953  51.8998 321.4892 0000792  98.5385 261.5667 14.79928245 24443
KUIPER-00125            
1 65954U 25228H   26076.61784381 -.00004455  00000+0 -55605-3 0  9990
2 65954  51.9003 305.5468 0000566  97.7408 262.3618 14.79907906 24682
KUIPER-00126            
1 65955U 25228J   26076.42735989  .00003315  00000+0  46396-3 0  9999
2 65955  51.9011 326.3873 0000706 109.8370 250.2668 14.79907437 24378
KUIPER-00127            
1 65956U 25228K   26076.40475091  .00002035  00000+0  32097-3 0  9994
2 65956  51.9008 318.1071 0001080 201.0628 159.0288 14.76357415 24490
KUIPER-00128            
1 65957U 25228L   26076.40185945  .00004397  00000+0  60575-3 0  9996
2 65957  51.9022 319.0185 0001153 101.8469 258.2623 14.79913109 24478
KUIPER-00129            
1 65958U 25228M   26076.64379489  .00002621  00000+0  37281-3 0  9997
2 65958  51.9014 312.9346 0001157  90.9701 269.1394 14.79917256 24587
KUIPER-00130            
1 65959U 25228N   26076.40458899  .00003001  00000+0  42254-3 0  9994
2 65959  51.9028 316.4988 0000895  81.1548 278.9515 14.79924628 14801
KUIPER-00134            
1 65960U 25228P   26075.86049378  .00027520  00000+0  71201-3 0  9999
2 65960  51.8738 285.6385 0004836 348.3819  11.7056 15.38864262 24892
KUIPER-00135            
1 65961U 25228Q   26076.37085415  .00003031  00000+0  42647-3 0  9992
2 65961  51.9033 316.7104 0000751 112.3190 247.7852 14.79930123 24507
KUIPER-00136            
1 65962U 25228R   26075.93454449  .00002968  00000+0  41835-3 0  9997
2 65962  51.9009 316.1100 0001133 127.1203 232.9863 14.79917208 24478
KUIPER-00137            
1 65963U 25228S   26076.58335648  .00028843  00000+0  37964-2 0  9996
2 65963  51.9031 310.7051 0000831  95.2999 109.2541 14.79930302  5737
KUIPER-00138            
1 65964U 25228T   26076.37884764  .00002823  00000+0  39912-3 0  9998
2 65964  51.8989 309.0920 0001072  88.7593 271.3492 14.79935796 24616
KUIPER-00140            
1 65965U 25228U   26076.64633756  .00002896  00000+0  40880-3 0  9998
2 65965  51.8999 310.4929 0001012 105.2615 254.8459 14.79931767 24610
KUIPER-00141            
1 65966U 25228V   26076.65162706 -.00004748  00000+0 -59461-3 0  9997
2 65966  51.9029 305.4824 0000360 144.4367 215.6620 14.79904549 24688
KUIPER-00146            
1 65967U 25228W   26074.85549227  .00078489  00000+0  10955-1 0  9999
2 65967  51.9047 315.8924 0001438 110.5071 249.6045 14.76927970 24383
KUIPER-00149            
1 65968U 25228X   26076.65434886  .00011618  00000+0  15494-2 0  9999
2 65968  51.9004 302.8850 0001237  92.6961 267.4143 14.79959838 24722
KUIPER-00154            
1 65969U 25228Y   26076.35311631 -.00001866  00000+0 -21603-3 0  9995
2 65969  51.9007 301.7211 0000745 110.7517 249.3525 14.79896570 24712
KUIPER-00157            
1 65970U 25228Z   26076.62054584  .00002741  00000+0  38847-3 0  9997
2 65970  51.9029 303.1490 0001135 101.5392 258.5698 14.79932716 24712
KUIPER-00144            
1 67133U 25301A   26076.57840459 -.00106975  00000+0 -28564-2 0  9990
2 67133  51.8716  26.8451 0007623  61.6409 298.5346 15.37857750 14954
KUIPER-00164            
1 67134U 25301B   26076.58335648 -.00037096  00000+0 -31672-2 0  9992
2 67134  51.8922  31.0385 0004564 113.0822 270.9747 14.97195617  4118
KUIPER-00175            
1 67135U 25301C   26076.58335648 -.00005730  00000+0 -20152-3 0  9995
2 67135  51.8779  27.3505 0002765  66.9823  78.2073 15.26815404  5498
KUIPER-00179            
1 67136U 25301D   26076.58335648 -.00227093  00000+0 -21077-1 0  9999
2 67136  51.8938  30.6641 0003053  84.7735 234.5738 14.95238531  5787
KUIPER-00181            
1 67137U 25301E   26076.63712687  .00001976  00000+0  31187-3 0  9991
2 67137  51.9032  42.1492 0001155 106.2631 253.8457 14.76465581 14904
KUIPER-00183            
1 67138U 25301F   26076.58335648 -.00010620  00000+0 -38398-3 0  9993
2 67138  51.8695  28.4761 0014791  84.6214 153.3549 15.26759876  4141
KUIPER-00184            
1 67139U 25301G   26076.58335648 -.01950322  00000+0 -93230-1 0  9991
2 67139  51.8716  28.0341 0011955  77.6899  12.0548 15.21819515  5442
KUIPER-00186            
1 67140U 25301H   26076.61403268  .00007162  00000+0  96698-3 0  9996
2 67140  51.9026  43.0709 0001014  93.8079 266.2999 14.79955780 14731
KUIPER-00187            
1 67141U 25301J   26076.61124127  .00003264  00000+0  45647-3 0  9998
2 67141  51.9035  45.5955 0000762  83.5386 276.5663 14.79973963 14698
KUIPER-00188            
1 67142U 25301K   26076.14951028  .00029579  00000+0  78098-3 0  9998
2 67142  51.8680  29.2092 0009051  75.2636 284.9354 15.38174211 14887
KUIPER-00191            
1 67143U 25301L   26076.58559762 -.00005420  00000+0 -68225-3 0  9998
2 67143  51.9019  38.2237 0000984  76.1023 284.0049 14.79947452 14827
KUIPER-00196            
1 67144U 25301M   26076.55459643 -.00043495  00000+0 -11141-2 0  9991
2 67144  51.8718  26.7056 0004975  33.5352 326.5949 15.38729733 14951
KUIPER-00204            
1 67145U 25301N   26076.58329109  .00016384  00000+0  63981-3 0  9993
2 67145  51.8856  32.7428 0002736  30.6428 329.4713 15.26018462 14981
KUIPER-00210            
1 67146U 25301P   26076.61936449 -.00006012  00000+0 -76054-3 0  9993
2 67146  51.9001  38.0364 0000824 112.7586 247.3463 14.79920075 14974
KUIPER-00221            
1 67147U 25301Q   26076.17240654  .00002981  00000+0  41998-3 0  9999
2 67147  51.9019  47.5184 0000990  90.1455 269.9620 14.79928572 14635
KUIPER-00232            
1 67148U 25301R   26076.58335648 -.00025294  00000+0 -21886-2 0  9990
2 67148  51.9051  30.3635 0003354 168.7748 189.2977 14.96490436  4312
KUIPER-00241            
1 67149U 25301S   26076.58294862  .00002427  00000+0  34751-3 0  9990
2 67149  51.9033  40.7099 0000509  73.2965 286.8053 14.79906005 15093
KUIPER-00245            
1 67150U 25301T   26076.16952970  .00003153  00000+0  44166-3 0  9995
2 67150  51.9027  50.0510 0000686  74.3827 285.7211 14.79999809 14597
KUIPER-00246            
1 67151U 25301U   26076.58335648 -.00041029  00000+0 -49804-2 0  9998
2 67151  51.9022  32.9230 0000431 323.1135 318.8694 14.83189090  4631
KUIPER-00247            
1 67152U 25301V   26076.58335648 -.00001056  00000+0 -21334-4 0  9995
2 67152  51.8655  27.8847 0014090  82.6955 116.7429 15.32328891  4486
KUIPER-00248            
1 67153U 25301W   26076.11456297  .00041342  00000+0  11001-2 0  9997
2 67153  51.8689  29.7002 0011158  71.8277 288.3923 15.37748671 15043
KUIPER-00249            
1 67154U 25301X   26076.58335648 -.00933443  00000+0 -29258-1 0  9991
2 67154  51.8663  27.0562 0009786  79.0954 167.5874 15.35239475  5849
KUIPER-00250            
1 67155U 25301Y   26076.58335648 -.00067999  00000+0 -90785-2 0  9990
2 67155  51.9004  34.9964 0001771 231.9623 105.1811 14.79478744  3995
KUIPER-00251            
1 67156U 25301Z   26076.58335648 -.00941178  00000+0 -35459-1 0  9997
2 67156  51.8723  27.5013 0011749  78.8241 300.7030 15.29415172  2263
KUIPER-00252            
1 67157U 25301AA  26076.58335648 -.00004112  00000+0 -16560-3 0  9990
2 67157  51.8724  28.0995 0010172  91.8094  21.8394 15.21486465  5149
KUIPER-00261            
1 67158U 25301AB  26076.58335648 -.00068073  00000+0 -95690-2 0  9997
2 67158  51.9022  35.3167 0003706   8.1822   2.4120 14.77299082  5441
KUIPER-00265            
1 67159U 25301AC  26076.16697606  .00003136  00000+0  44029-3 0  9995
2 67159  51.9030  52.5493 0001119  66.6271 293.4809 14.79927229 14592
KUIPER-00159            
1 67764U 26030A   26076.57005078  .00031377  00000+0  88502-3 0  9990
2 67764  51.8848 181.1533 0005445  65.7220 294.4335 15.36117371  6302
KUIPER-00160            
1 67765U 26030B   26076.57265424  .00027186  00000+0  77290-3 0  9999
2 67765  51.8827 181.1578 0007223  82.8770 277.3037 15.35936661  6304
KUIPER-00177            
1 67766U 26030C   26076.58335648 -.01949951  00000+0 -87546-1 0  9996
2 67766  51.8855 181.2801 0002466  48.2906 262.0315 15.24040352  5688
KUIPER-00178            
1 67767U 26030D   26076.58335648  .00011180  00000+0  41400-3 0  9999
2 67767  51.8844 181.3466 0008266  67.5805 246.7877 15.28108252  5579
KUIPER-00180            
1 67768U 26030E   26076.57839622  .00020371  00000+0  70010-3 0  9991
2 67768  51.8801 181.9215 0015207  92.2143 268.0582 15.29977578  6290
KUIPER-00197            
1 67769U 26030F   26075.58098328  .00027564  00000+0  76670-3 0  9991
2 67769  51.8838 185.7736 0002571  70.2610 289.8654 15.36630421  6153
KUIPER-00198            
1 67770U 26030G   26076.56371603  .00026417  00000+0  74026-3 0  9991
2 67770  51.8817 181.1012 0004418  68.3180 291.8276 15.36418489  6309
KUIPER-00199            
1 67771U 26030H   26076.01295701  .00011848  00000+0  35877-3 0  9999
2 67771  51.8824 184.1451 0011598  83.9738 276.2569 15.34543029  6216
KUIPER-00200            
1 67772U 26030J   26076.02243006  .00029595  00000+0  80112-3 0  9992
2 67772  51.8820 183.4779 0001444 303.2010  56.8838 15.37438154  6225
KUIPER-00203            
1 67773U 26030K   26076.58335648 -.00069487  00000+0 -54606-2 0  9992
2 67773  51.8921 183.6383 0011079  86.9559  96.7953 15.00631483  4868
KUIPER-00205            
1 67774U 26030L   26076.55686798  .00026449  00000+0  73299-3 0  9994
2 67774  51.8813 181.0565 0004215  48.6645 311.4704 15.36763599  6303
KUIPER-00208            
1 67775U 26030M   26076.56468722  .00022396  00000+0  71747-3 0  9994
2 67775  51.8849 181.8475 0016270  82.2667 278.0165 15.32169435  6295
KUIPER-00209            
1 67776U 26030N   26076.58863126  .00019513  00000+0  68715-3 0  9992
2 67776  51.8840 181.9945 0013478  87.4274 272.8253 15.29235999  6293
KUIPER-00213            
1 67777U 26030P   26076.56187474 -.00006019  00000+0 -17635-3 0  9990
2 67777  51.8812 181.8160 0016070  91.2460 269.0366 15.32517671  6299
KUIPER-00214            
1 67778U 26030Q   26076.54764114  .00026985  00000+0  73890-3 0  9998
2 67778  51.8852 181.0056 0000801  45.0947 315.0105 15.37131556  6306
KUIPER-00215            
1 67779U 26030R   26076.01056792  .00023166  00000+0  68484-3 0  9998
2 67779  51.8868 184.1420 0010711  82.3285 277.8917 15.34773590  6216
KUIPER-00218            
1 67780U 26030S   26075.99554174  .00042801  00000+0  12246-2 0  9994
2 67780  51.8831 184.0433 0007441  68.5407 291.6372 15.35509677  6212
KUIPER-00220            
1 67781U 26030T   26076.59068610  .00021820  00000+0  63895-3 0  9992
2 67781  51.8810 181.2704 0010019  79.0313 281.1800 15.35117770  6307
KUIPER-00222            
1 67782U 26030U   26076.56844010  .00032201  00000+0  10218-2 0  9991
2 67782  51.8830 181.8579 0016340  92.0059 268.2797 15.32268675  6298
KUIPER-00223            
1 67783U 26030V   26076.01660751  .00034860  00000+0  10346-2 0  9995
2 67783  51.8846 184.1757 0013304  83.4330 276.8169 15.34398570  6213
KUIPER-00225            
1 67784U 26030W   26076.56656706  .00025498  00000+0  71864-3 0  9991
2 67784  51.8797 181.1191 0005208  62.4204 297.7310 15.36254650  6301
KUIPER-00226            
1 67785U 26030X   26076.59237741  .00022574  00000+0  76334-3 0  9998
2 67785  51.8823 182.0099 0020981  93.7279 266.6104 15.30339503  6292
KUIPER-00259            
1 67786U 26030Y   26076.58425045  .00033026  00000+0  95252-3 0  9998
2 67786  51.8821 181.2283 0008692  73.1637 287.0301 15.35373813  6307
KUIPER-00260            
1 67787U 26030Z   26076.55426205  .00028952  00000+0  79879-3 0  9994
2 67787  51.8791 181.0359 0002154  61.8302 298.2902 15.36857810  6212
KUIPER-00262            
1 67788U 26030AA  26076.54912506  .00024582  00000+0  67584-3 0  9993
2 67788  51.8818 181.0064 0001197  67.5983 292.5131 15.37058080  6304
KUIPER-00266            
1 67789U 26030AB  26076.00875749  .00020437  00000+0  68675-3 0  9999
2 67789  51.8795 184.8466 0023641  98.1821 262.1846 15.30550228  6204
KUIPER-00268            
1 67790U 26030AC  26076.56328488  .00024827  00000+0  69813-3 0  9997
2 67790  51.8844 181.1091 0003673  61.7843 298.3514 15.36348073  6301
KUIPER-00270            
1 67791U 26030AD  26076.00715928  .00025758  00000+0  75614-3 0  9996
2 67791  51.8815 184.1076 0011151  79.1625 281.0615 15.34927669  6210
KUIPER-00274            
1 67792U 26030AE  26076.59173165  .00010833  00000+0  38389-3 0  9998
2 67792  51.8843 182.0130 0019260  98.6309 261.6857 15.29462419  6295
KUIPER-00275            
1 67793U 26030AF  26076.58970968  .00020885  00000+0  61277-3 0  9994
2 67793  51.8860 181.2760 0010694  76.9783 283.2396 15.35077306  6306
KUIPER-00276            
1 67794U 26030AG  26076.59357972  .00022048  00000+0  75658-3 0  9991
2 67794  51.8825 182.0235 0019050  90.9178 269.3989 15.29913764  6294
KUIPER-00279            
1 67795U 26030AH  26076.57797324  .00029183  00000+0  83716-3 0  9990
2 67795  51.8769 181.1866 0006684  68.9491 291.2209 15.35619718  6304
