ORBCOMM FM06            
1 25118U 97084G   26242.73370174  .00001032  00000+0  31587-3 0  9995
2 25118  45.0138  53.7946 0000566 195.4977 179.5705 14.47717884505198
ORBCOMM FM04            
1 25159U 98007C   26244.47565586  .00000511  00000+0  22021-3 0  9996
2 25159 107.9606 326.4360 0041277 195.1824 164.8080 14.35845589487545
ORBCOMM FM19            
1 25415U 98046C   26244.43793781  .00000489  00000+0  20037-3 0  9999
2 25415  44.9925 241.0770 0005475 312.5244 203.2306 14.39614987467763
ORBCOMM FM20            
1 25416U 98046D   26244.28897750  .00000333  00000+0  15527-3 0  9990
2 25416  44.9928 250.5559 0003004 289.8970  70.1554 14.38155590467748
ORBCOMM FM27            
1 25481U 98053G   26244.54463538  .00000534  00000+0  21623-3 0  9999
2 25481  45.0066 332.6445 0002559 235.4393 124.6214 14.39258509461232
ORBCOMM FM32            
1 25982U 99065C   26243.08691460  .00000520  00000+0  22036-3 0  9998
2 25982  45.0139 178.6832 0005658  52.8215 307.3149 14.37221953397869
ORBCOMM FM109           
1 40086U 14040A   26242.95355687  .00000257  00000+0  90459-4 0  9995
2 40086  47.0028  97.9801 0001621 219.3325 140.7444 14.58905562645262
ORBCOMM FM110           
1 41182U 15081D   26243.70973702  .00000383  00000+0  11710-3 0  9999
2 41182  47.0033   4.3210 0002055  65.2835 294.8264 14.58973852568653
ORBCOMM FM118           
1 41183U 15081E   26243.67622131  .00000375  00000+0  11530-3 0  9994
2 41183  47.0056   4.8331 0002311   7.0487 353.0431 14.58956868568753
ORBCOMM FM112           
1 41184U 15081F   26244.50118921  .00000212  00000+0  80925-4 0  9990
2 41184  46.9982 269.3560 0003348 217.6293 142.4359 14.58943849570091
ORBCOMM FM113           
1 41185U 15081G   26244.48055527  .00000156  00000+0  69238-4 0  9991
2 41185  46.9997 269.8712 0002177 227.0727 132.9976 14.58920985570071
ORBCOMM FM108           
1 41187U 15081J   26244.09895743  .00000358  00000+0  11166-3 0  9992
2 41187  47.0040 183.2600 0002148 211.0133 149.0627 14.58963869571162
ORBCOMM FM117           
1 41188U 15081K   26244.13364109  .00000311  00000+0  10196-3 0  9996
2 41188  47.0004 181.7127 0002690 213.9688 146.1026 14.58946171571212
ORBCOMM FM116           
1 41189U 15081L   26244.45645726  .00000208  00000+0  79963-4 0  9992
2 41189  47.0015 269.9845 0000830 359.8495   0.2390 14.58948094570074
