KUIPER-00008            
1 63724U 25088A   26145.31502846  .00004843  00000+0  66435-3 0  9997
2 63724  51.8999 109.1715 0001072  91.4263 268.6822 14.79898051 59396
KUIPER-00009            
1 63725U 25088B   26145.32975939  .00001317  00000+0  20158-3 0  9991
2 63725  51.9019 126.7250 0000297  40.3776 319.7208 14.79952569 59144
KUIPER-00010            
1 63726U 25088C   26145.28650657  .00000389  00000+0  79987-4 0  9997
2 63726  51.9017 104.3919 0000727  65.9653 294.1385 14.79934000 59076
KUIPER-00011            
1 63727U 25088D   26145.31219594  .00001489  00000+0  22422-3 0  9996
2 63727  51.9004 111.8339 0000756  46.2649 313.8376 14.79950642 59104
KUIPER-00012            
1 63728U 25088E   26145.22705186  .00001875  00000+0  27487-3 0  9999
2 63728  51.9015  97.1394 0000668 100.8251 259.2787 14.79936723 59251
KUIPER-00013            
1 63729U 25088F   26145.36084461  .00000882  00000+0  14466-3 0  9991
2 63729  51.9005 129.0662 0000889   5.8548 354.2424 14.79931825 58927
KUIPER-00014            
1 63730U 25088G   26145.32705656  .00001073  00000+0  16977-3 0  9997
2 63730  51.9013 129.1587 0000305  36.5916 323.5067 14.79929940 58734
KUIPER-00015            
1 63731U 25088H   26145.28255810  .00001211  00000+0  18781-3 0  9994
2 63731  51.8983 139.4303 0000567  41.6072 318.4934 14.79942147 59045
KUIPER-00016            
1 63732U 25088J   26145.39188250  .00001257  00000+0  19343-3 0  9995
2 63732  51.8995 131.3933 0000556  67.5290 292.5732 14.80018538 58706
KUIPER-00018            
1 63733U 25088K   26145.23383134 -.00001686  00000+0 -19218-3 0  9996
2 63733  51.9029 122.1078 0000415  78.4897 281.6112 14.79931033 58828
KUIPER-00019            
1 63734U 25088L   26145.32805432  .00001997  00000+0  29092-3 0  9991
2 63734  51.8985 120.4620 0000529 161.3247 198.7735 14.79928633 58854
KUIPER-00020            
1 63735U 25088M   26145.23117007  .00001163  00000+0  18145-3 0  9998
2 63735  51.9014 124.6318 0001174   4.0671 356.0300 14.79949638 58990
KUIPER-00021            
1 63736U 25088N   26145.33245965  .00001357  00000+0  20692-3 0  9990
2 63736  51.8994 124.1442 0001311  75.4314 284.6794 14.79936669 58846
KUIPER-00023            
1 63737U 25088P   26145.36360623  .00001466  00000+0  22137-3 0  9990
2 63737  51.8998 126.4950 0000719  67.3428 292.7610 14.79925958 59114
KUIPER-00024            
1 63738U 25088Q   26145.17442676  .00001295  00000+0  19889-3 0  9999
2 63738  51.9025 114.9180 0000638  65.8335 294.2694 14.79933961 59385
KUIPER-00025            
1 63739U 25088R   26145.20010083  .00000748  00000+0  12714-3 0  9999
2 63739  51.9028 122.2854 0000680  57.3263 302.7764 14.79923570 59144
KUIPER-00027            
1 63740U 25088S   26145.10418329  .00001018  00000+0  16251-3 0  9996
2 63740  51.9009 117.6869 0000672  62.8374 297.2656 14.79943884 58938
KUIPER-00028            
1 63741U 25088T   26145.20818446  .00001151  00000+0  17996-3 0  9997
2 63741  51.8997 114.6854 0000678  66.5915 293.5119 14.79944818 59395
KUIPER-00029            
1 63742U 25088U   26145.17569566  .00001643  00000+0  26387-3 0  9990
2 63742  51.9017 113.4169 0002980  82.6742 277.4558 14.76578045 58930
KUIPER-00030            
1 63743U 25088V   26145.22302397  .00001483  00000+0  22349-3 0  9990
2 63743  51.9002 132.1217 0000709  70.7140 289.3899 14.79926110 58960
KUIPER-00031            
1 63744U 25088W   26145.20887929  .00001557  00000+0  25271-3 0  9997
2 63744  51.9000 115.8556 0001634  45.0059 315.1034 14.76381756 58906
KUIPER-00032            
1 63745U 25088X   26145.05799249  .00013898  00000+0  35839-3 0  9990
2 63745  51.8682  14.2777 0004946  47.2485 312.8918 15.39450626 61301
KUIPER-00033            
1 63746U 25088Y   26145.44326273  .00002082  00000+0  30203-3 0  9990
2 63746  51.8994 146.1746 0000458  67.0005 293.1006 14.79935521 58985
KUIPER-00034            
1 63747U 25088Z   26145.14606284  .00001158  00000+0  18086-3 0  9999
2 63747  51.9015 110.0169 0000663  68.3835 291.7198 14.79949280 59145
KUIPER-00035            
1 63748U 25088AA  26145.38920566  .00000781  00000+0  13143-3 0  9998
2 63748  51.8995 133.9243 0000763  27.3940 332.7062 14.79932469 58889
KUIPER-00037            
1 63749U 25088AB  26145.50003471 -.00006796  00000+0 -81657-3 0  9999
2 63749  51.8986 132.3201 0000495  97.0121 155.6215 14.82230400  5697
KUIPER-00038            
1 63750U 25088AC  26145.37163586  .00002192  00000+0  31607-3 0  9994
2 63750  51.9013 119.0159 0000683  50.1285 309.9737 14.79985714 58877
KUIPER-00039            
1 64500U 25134A   26145.00653775  .00001510  00000+0  22706-3 0  9997
2 64500  51.9001 255.6295 0000357 113.8412 246.2588 14.79936619 51378
KUIPER-00040            
1 64501U 25134B   26145.36717396  .00000714  00000+0  12268-3 0  9994
2 64501  51.8975 264.1287 0000927 159.7457 200.3543 14.79947890 51280
KUIPER-00041            
1 64502U 25134C   26145.33070301  .00004211  00000+0  58100-3 0  9991
2 64502  51.8997 266.6711 0000330 141.3893 218.7093 14.79932350 51247
KUIPER-00042            
1 64503U 25134D   26145.03220426  .00001500  00000+0  22565-3 0  9998
2 64503  51.8977 262.9714 0000354 115.7479 244.3520 14.79938725 51274
KUIPER-00043            
1 64504U 25134E   26145.31041399  .00003456  00000+0  48202-3 0  9998
2 64504  51.9000 254.2249 0000264 123.3170 236.7818 14.79940567 51422
KUIPER-00044            
1 64505U 25134F   26145.36446279  .00001590  00000+0  23752-3 0  9990
2 64505  51.8983 266.5018 0000743 108.3370 251.7673 14.79936630 51252
KUIPER-00046            
1 64506U 25134G   26145.06327727  .00000886  00000+0  14522-3 0  9996
2 64506  51.8980 265.3166 0000510  97.7971 262.3050 14.79932721 51244
KUIPER-00047            
1 64507U 25134H   26145.53191360  .00003168  00000+0  44401-3 0  9996
2 64507  51.8983 235.7627 0000215  59.6925 300.4059 14.79970651 51695
KUIPER-00048            
1 64508U 25134J   26145.22800031  .00000450  00000+0  88031-4 0  9994
2 64508  51.8978 237.1212 0000289 110.4808 249.6186 14.79935115 51650
KUIPER-00049            
1 64509U 25134K   26145.31580661  .00000004  00000+0  29574-4 0  9991
2 64509  51.8976 249.1911 0000466  91.6226 268.4790 14.79931149 51494
KUIPER-00050            
1 64510U 25134L   26145.53727073  .00000506  00000+0  95421-4 0  9998
2 64510  51.8990 230.7353 0000526 109.8486 250.2533 14.79934000 51779
KUIPER-00051            
1 64511U 25134M   26144.67875861  .00049983  00000+0  70269-2 0  9995
2 64511  51.8995 250.6462 0000639  43.0121 317.0890 14.76868978 51413
KUIPER-00053            
1 64513U 25134P   26145.30479586  .00001922  00000+0  27013-3 0  9993
2 64513  51.9002 243.7931 0001841 118.3982 241.7167 14.81659881 51569
KUIPER-00054            
1 64514U 25134Q   26145.42787959  .00003144  00000+0  44113-3 0  9991
2 64514  51.8973 238.7184 0000326 114.4230 245.6766 14.79944205 51641
KUIPER-00055            
1 64515U 25134R   26145.37791919  .00002087  00000+0  30299-3 0  9992
2 64515  51.9000 191.5585 0001524  73.9486 286.1644 14.79888136 52307
KUIPER-00056            
1 64516U 25134S   26145.52380061  .00000571  00000+0  10384-3 0  9991
2 64516  51.9003 243.3705 0000324 103.0798 257.0201 14.79935221 51593
KUIPER-00057            
1 64517U 25134T   26144.77287770  .00001318  00000+0  20178-3 0  9993
2 64517  51.8984 254.1357 0000540 111.5261 248.5759 14.79937190 51379
KUIPER-00058            
1 64518U 25134U   26145.55485691  .00001126  00000+0  17674-3 0  9997
2 64518  51.9003 245.6361 0001011 118.5515 241.5549 14.79935822 51567
KUIPER-00059            
1 64519U 25134V   26145.42517183  .00002276  00000+0  32739-3 0  9992
2 64519  51.8997 241.2601 0000962  87.0209 273.0863 14.79949421 51617
KUIPER-00060            
1 64520U 25134W   26145.25634521  .00003423  00000+0  47815-3 0  9997
2 64520  51.9011 242.0583 0000617  94.8130 265.2903 14.79905964 51578
KUIPER-00061            
1 64521U 25134X   26145.55171490  .00003512  00000+0  49026-3 0  9997
2 64521  51.9004 248.2088 0000226 121.4259 238.6725 14.79856592 51516
KUIPER-00062            
1 64522U 25134Y   26145.54947027  .00003624  00000+0  50405-3 0  9991
2 64522  51.8957 250.7206 0000297  95.9066 264.1930 14.79939011 51499
KUIPER-00063            
1 64523U 25134Z   26145.27123470  .00004387  00000+0  60378-3 0  9997
2 64523  51.9035 259.4745 0001317 105.3764 254.7344 14.79960644 51341
KUIPER-00064            
1 64524U 25134AA  26145.34148253  .00003536  00000+0  49252-3 0  9995
2 64524  51.9019 256.5872 0000502 107.0169 253.0848 14.79938939 51394
KUIPER-00065            
1 64525U 25134AB  26145.33610958  .00000363  00000+0  76578-4 0  9998
2 64525  51.9037 261.7779 0000543 118.4342 241.6675 14.79932466 51304
KUIPER-00066            
1 64526U 25134AC  26145.43725590  .00000329  00000+0  72169-4 0  9993
2 64526  51.8999 198.6163 0000247   6.4901 353.6064 14.79933728 52213
KUIPER-00069            
1 64816U 25151A   26145.42801723  .00003527  00000+0  49140-3 0  9991
2 64816  51.9018 301.2988 0000604 112.1562 247.9465 14.79936824 48125
KUIPER-00070            
1 64817U 25151B   26145.50222403  .00003291  00000+0  46007-3 0  9990
2 64817  51.8999 325.8906 0000785 126.1052 233.9983 14.79977986 47790
KUIPER-00071            
1 64818U 25151C   26145.50503652  .00000981  00000+0  15761-3 0  9995
2 64818  51.9006 323.4120 0000713 101.3415 258.7628 14.79935735 46642
KUIPER-00072            
1 64819U 25151D   26145.15518867  .00002124  00000+0  30751-3 0  9998
2 64819  51.8965 304.9193 0000707 126.5752 233.5276 14.79935746 46873
KUIPER-00073            
1 64820U 25151E   26145.20115222  .00001102  00000+0  17355-3 0  9994
2 64820  51.9000 324.7429 0000734 120.8221 239.2813 14.79935953 47787
KUIPER-00074            
1 64821U 25151F   26145.49973166  .00259548  00000+0  12779-2 0  9998
2 64821  51.8907 262.6459 0007668 299.0801  60.9436 15.80833481 47485
KUIPER-00075            
1 64822U 25151G   26145.34310566  .00026964  00000+0  59102-3 0  9998
2 64822  51.8662 208.0571 0003006 196.1458 163.9436 15.43888464 48238
KUIPER-00076            
1 64823U 25151H   26145.48206101  .00001142  00000+0  17873-3 0  9993
2 64823  51.9020 313.5184 0001050 134.1620 225.9429 14.79934459 46783
KUIPER-00077            
1 64824U 25151J   26145.47666593  .00003263  00000+0  45674-3 0  9994
2 64824  51.9026 318.5579 0000681 118.1096 241.9935 14.79937015 46715
KUIPER-00078            
1 64825U 25151K   26145.17547719  .00002673  00000+0  37938-3 0  9998
2 64825  51.9017 317.3713 0000695 120.9588 239.1443 14.79938914 46706
KUIPER-00079            
1 64826U 25151L   26145.47396498  .00003251  00000+0  45525-3 0  9992
2 64826  51.9002 321.0174 0000664 105.4444 254.6592 14.79933827 47873
KUIPER-00080            
1 64827U 25151M   26145.50772983  .00001113  00000+0  17503-3 0  9994
2 64827  51.8996 320.8769 0000707 120.8940 239.2091 14.79936843 46684
KUIPER-00082            
1 64828U 25151N   26145.14979735  .00003521  00000+0  49060-3 0  9997
2 64828  51.9018 310.0044 0000638 111.5736 248.5294 14.79937122 46804
KUIPER-00083            
1 64829U 25151P   26145.47933323 -.00000112  00000+0  14365-4 0  9992
2 64829  51.9011 316.0323 0001138 115.3664 244.7416 14.79944118 47934
KUIPER-00084            
1 64830U 25151Q   26145.53609551  .00001266  00000+0  19514-3 0  9994
2 64830  51.9030 325.7669 0000739 101.5081 258.5964 14.79918042 46615
KUIPER-00085            
1 64831U 25151R   26145.18357784  .00000458  00000+0  89039-4 0  9996
2 64831  51.9029 309.8947 0000736 121.9746 238.1288 14.79931142 46807
KUIPER-00086            
1 64832U 25151S   26145.44289954  .00000692  00000+0  11972-3 0  9999
2 64832  51.9014 318.7032 0000753 131.3564 228.7463 14.79935578 46704
KUIPER-00087            
1 64833U 25151T   26145.46177507  .00003219  00000+0  45095-3 0  9993
2 64833  51.8996 301.0907 0000611 110.1162 249.9866 14.79939384 46948
KUIPER-00089            
1 64834U 25151U   26145.45638875  .00001516  00000+0  22774-3 0  9990
2 64834  51.9003 306.1319 0000629 101.1763 258.9270 14.79936372 46884
KUIPER-00090            
1 64835U 25151V   26145.39694220  .00000738  00000+0  12578-3 0  9996
2 64835  51.8991 298.9095 0000742 132.0507 228.0519 14.79936034 46973
KUIPER-00091            
1 64836U 25151W   26145.45888674  .00003632  00000+0  50807-3 0  9995
2 64836  51.9015 303.6305 0000564 102.3134 257.7891 14.79683257 46910
KUIPER-00092            
1 64837U 25151X   26145.18087278  .00003487  00000+0  48609-3 0  9992
2 64837  51.9014 312.3564 0000599 109.5988 250.5040 14.79941617 47980
KUIPER-00093            
1 64838U 25151Y   26145.17808749 -.00006678  00000+0 -84770-3 0  9992
2 64838  51.9008 314.8441 0000598 101.2901 258.8129 14.79941535 46738
KUIPER-00094            
1 64839U 25151Z   26145.50003471 -.00033016  00000+0 -27817-2 0  9993
2 64839  51.8925 269.3168 0004410 181.1014 168.4757 14.97651538  4632
KUIPER-00081            
1 65132U 25171A   26145.43586794  .00001757  00000+0  25942-3 0  9991
2 65132  51.8985 168.7022 0000400  67.5343 292.5662 14.79930091 44400
KUIPER-00088            
1 65133U 25171B   26145.41699178  .00002100  00000+0  30439-3 0  9991
2 65133  51.8981 186.2899 0000256  51.6672 308.4314 14.79935564 44155
KUIPER-00095            
1 65134U 25171C   26145.43857456  .00001803  00000+0  26539-3 0  9994
2 65134  51.8963 166.2499 0000469  76.7284 283.3731 14.79937796 44437
KUIPER-00096            
1 65135U 25171D   26145.45884565  .00001983  00000+0  28902-3 0  9993
2 65135  51.8978 178.6030 0000386  77.3115 282.7891 14.79931831 44265
KUIPER-00097            
1 65136U 25171E   26145.52368494  .00001914  00000+0  27999-3 0  9999
2 65136  51.9002 180.9620 0000271  64.8214 295.2776 14.79940027 44224
KUIPER-00098            
1 65137U 25171F   26145.52097741  .00002028  00000+0  29485-3 0  9993
2 65137  51.8993 183.3441 0000324  65.2788 294.8208 14.79943236 43545
KUIPER-00099            
1 65138U 25171G   26145.36299337  .00002110  00000+0  30563-3 0  9992
2 65138  51.9004 174.0399 0000572  52.6847 307.4168 14.79946265 44317
KUIPER-00100            
1 65139U 25171H   26145.46692721  .00001976  00000+0  28802-3 0  9990
2 65139  51.8996 171.0534 0000312  68.6403 291.4593 14.79941847 44362
KUIPER-00102            
1 65140U 25171J   26145.46421240  .00001310  00000+0  20067-3 0  9995
2 65140  51.8954 173.5660 0000377  27.3627 332.7355 14.79947025 44321
KUIPER-00103            
1 65141U 25171K   26145.41159522  .00000436  00000+0  86133-4 0  9997
2 65141  51.8975 191.2966 0000334  87.1890 272.9111 14.79933132 44071
KUIPER-00104            
1 65142U 25171L   26145.35754550  .00000012  00000+0  30611-4 0  9993
2 65142  51.8993 179.0202 0000311  75.7177 284.3820 14.79931128 44241
KUIPER-00105            
1 65143U 25171M   26145.38310067  .00007309  00000+0  98455-3 0  9993
2 65143  51.8993 186.5160 0000992  66.2413 293.8653 14.80025349 44140
KUIPER-00106            
1 65144U 25171N   26145.46592598  .00003490  00000+0  32297-3 0  9993
2 65144  51.8919 166.0308 0008319   0.4205 359.6770 14.96890654 44446
KUIPER-00107            
1 65145U 25171P   26145.46963964  .00001962  00000+0  28625-3 0  9995
2 65145  51.8991 168.5741 0000384  77.2587 282.8418 14.79929078 44400
KUIPER-00108            
1 65146U 25171Q   26145.42238400  .00002078  00000+0  30147-3 0  9993
2 65146  51.9006 181.3122 0000313  41.7470 318.3516 14.79942191 44229
KUIPER-00109            
1 65147U 25171R   26145.46153951  .00001994  00000+0  29043-3 0  9994
2 65147  51.9007 176.0812 0000385  58.3278 301.7722 14.79931068 44290
KUIPER-00110            
1 65148U 25171S   26145.41428160 -.00000950  00000+0 -95658-4 0  9996
2 65148  51.8982 188.8591 0000682  96.2938 263.8102 14.79929758 44104
KUIPER-00111            
1 65149U 25171T   26145.44265494  .00002236  00000+0  32221-3 0  9992
2 65149  51.8958 193.6247 0000411  84.9687 275.1322 14.79940174 44043
KUIPER-00112            
1 65150U 25171U   26145.35762610  .00001871  00000+0  27312-3 0  9995
2 65150  51.9004 176.5650 0000670 326.6530  33.4390 14.80130077 44276
KUIPER-00114            
1 65151U 25171V   26145.43997378  .00000173  00000+0  51742-4 0  9995
2 65151  51.8971 196.2086 0000347  87.6335 272.4667 14.79932420 44002
KUIPER-00115            
1 65152U 25171W   26145.51555133  .00009488  00000+0  12704-2 0  9995
2 65152  51.8978 188.3641 0000070 138.6726 221.4242 14.79983089 44126
KUIPER-00116            
1 65153U 25171X   26145.40890564  .00000016  00000+0  31028-4 0  9994
2 65153  51.8981 193.8783 0000365  85.8388 274.2616 14.79932552 44033
KUIPER-00118            
1 65154U 25171Y   26145.40618188 -.00004108  00000+0 -50981-3 0  9991
2 65154  51.8982 196.3446 0000606 334.5877  25.5055 14.79959982 44001
KUIPER-00119            
1 65155U 25171Z   26143.53944020  .00040682  00000+0  53720-2 0  9999
2 65155  51.9002 192.2951 0001280 103.5757 256.5348 14.79627262 43892
KUIPER-00120            
1 65762U 25217A   26145.52143914  .00000225  00000+0  58491-4 0  9999
2 65762  51.8975  73.3089 0000846  99.2883 260.8175 14.79933816 36111
KUIPER-00132            
1 65763U 25217B   26144.94804924  .00027741  00000+0  64908-3 0  9991
2 65763  51.8566 352.5884 0005789 229.2064 130.8423 15.41910214 37187
KUIPER-00133            
1 65764U 25217C   26145.48770396  .00010561  00000+0  14125-2 0  9994
2 65764  51.9031  73.5465 0000903  93.4856 266.6210 14.79924148 36119
KUIPER-00139            
1 65765U 25217D   26145.41683269 -.00164949  00000+0 -12739-1 0  9990
2 65765  51.8859  42.3831 0005937 183.6832 176.4097 15.01925106 36545
KUIPER-00142            
1 65766U 25217E   26145.20267796  .00003822  00000+0  53013-3 0  9993
2 65766  51.9003  57.2450 0000840  93.7042 266.4017 14.79929651 36312
KUIPER-00145            
1 65767U 25217F   26145.47009664  .00001314  00000+0  20131-3 0  9990
2 65767  51.9014  58.5807 0000751 102.4047 257.6999 14.79936632 36317
KUIPER-00147            
1 65768U 25217G   26145.50116661  .00001518  00000+0  22809-3 0  9991
2 65768  51.8979  60.9291 0001138  72.5315 287.5772 14.79936945 36280
KUIPER-00148            
1 65769U 25217H   26145.12134310  .00002879  00000+0  44661-3 0  9992
2 65769  51.9054  43.7712 0001040 104.8459 255.2616 14.75842796 36491
KUIPER-00150            
1 65770U 25217J   26145.49039362  .00008870  00000+0  11913-2 0  9995
2 65770  51.9012  71.0011 0000920  86.2979 273.8088 14.79925437 36148
KUIPER-00151            
1 65771U 25217K   26145.49847395  .00002754  00000+0  39009-3 0  9991
2 65771  51.9022  63.4620 0001145  80.4589 279.6503 14.79942451 36257
KUIPER-00152            
1 65772U 25217L   26145.47819373  .00001651  00000+0  24546-3 0  9990
2 65772  51.9008  51.0394 0001025  88.3145 271.7935 14.79936258 36424
KUIPER-00153            
1 65773U 25217M   26145.41620187  .00003587  00000+0  49939-3 0  9991
2 65773  51.9035  46.3811 0000956 109.0380 251.0686 14.79923069 36486
KUIPER-00155            
1 65774U 25217N   26145.37819163 -.00000597  00000+0 -49264-4 0  9993
2 65774  51.9043  19.0125 0000998 125.3895 234.7161 14.79937382 36860
KUIPER-00156            
1 65775U 25217P   26145.11217902  .00000617  00000+0  10997-3 0  9990
2 65775  51.9035  47.7053 0000792 101.4410 258.6641 14.79932070 36430
KUIPER-00163            
1 65777U 25217R   26145.50454741  .00125954  00000+0  60862-3 0  9997
2 65777  51.8952  23.3934 0002279 169.9499 190.1552 15.81669805 36804
KUIPER-00165            
1 65778U 25217S   26145.43903309  .00003477  00000+0  48479-3 0  9994
2 65778  51.9024  56.2153 0000949  91.9699 268.1372 14.79936042 36343
KUIPER-00166            
1 65779U 25217T   26145.01357524 -.00000869  00000+0 -84939-4 0  9997
2 65779  51.9034  45.6360 0000783 104.3793 255.7257 14.79930676 36450
KUIPER-00167            
1 65780U 25217U   26145.49576531  .00002405  00000+0  34432-3 0  9990
2 65780  51.8968  65.8960 0000856  95.4202 264.6858 14.79939837 36211
KUIPER-00168            
1 65781U 25217V   26145.17700228  .00001811  00000+0  26644-3 0  9994
2 65781  51.9012  49.8774 0000900 100.4937 259.6126 14.79938939 36416
KUIPER-00169            
1 65782U 25217W   26145.03655361  .00001259  00000+0  19406-3 0  9991
2 65782  51.9024  55.5058 0000897  93.7021 266.4044 14.79936748 36323
KUIPER-00170            
1 65783U 25217X   26145.03114697  .00003256  00000+0  45599-3 0  9995
2 65783  51.8995  60.4986 0000795  99.3873 260.7179 14.79924222 36251
KUIPER-00172            
1 65785U 25217Z   26145.41154876  .00002016  00000+0  31617-3 0  9991
2 65785  51.8984  41.2413 0000975 176.1300 183.9669 14.76656586 36557
KUIPER-00173            
1 65786U 25217AA  26145.47549375  .00002151  00000+0  31105-3 0  9992
2 65786  51.9011  53.5629 0001204  75.4222 284.6873 14.79940180 36381
KUIPER-00174            
1 65787U 25217AB  26145.00819369  .00003210  00000+0  44970-3 0  9996
2 65787  51.9031  50.6674 0001194  98.1849 261.9249 14.79956818 36387
KUIPER-00176            
1 65788U 25217AC  26145.46471104  .00001162  00000+0  18148-3 0  9990
2 65788  51.9010  63.5982 0000947 103.2737 256.8331 14.79927363 36242
KUIPER-00101            
1 65947U 25228A   26145.34172163  .00001108  00000+0  17432-3 0  9994
2 65947  51.8997  21.6088 0000968 101.7616 258.3455 14.79933837 34588
KUIPER-00113            
1 65948U 25228B   26145.38087679  .00002168  00000+0  31333-3 0  9999
2 65948  51.8988  16.4531 0000936 102.3928 257.7139 14.79935360 34655
KUIPER-00117            
1 65949U 25228C   26145.34441163  .00002621  00000+0  37263-3 0  9990
2 65949  51.8995  19.1158 0000790 104.6586 255.4464 14.79938431 34616
KUIPER-00121            
1 65950U 25228D   26145.04592444  .00003480  00000+0  48513-3 0  9992
2 65950  51.9011  15.4423 0001147 103.7016 256.4074 14.79943666 34644
KUIPER-00122            
1 65951U 25228E   26145.37274486 -.00000517  00000+0 -38719-4 0  9990
2 65951  51.9009  23.9714 0001365  91.3061 268.8057 14.79964068 34550
KUIPER-00123            
1 65952U 25228F   26144.66374469  .00003227  00000+0  45221-3 0  9998
2 65952  51.8999  27.1229 0000948  90.1349 269.9722 14.79927228 34443
KUIPER-00124            
1 65953U 25228G   26145.34710109  .00003407  00000+0  47563-3 0  9991
2 65953  51.8996  16.5889 0000708 106.8574 253.2466 14.79932978 34656
KUIPER-00125            
1 65954U 25228H   26145.29576480  .00002046  00000+0  29721-3 0  9992
2 65954  51.9013   1.8530 0000873 108.1297 251.9760 14.79940498 34858
KUIPER-00126            
1 65955U 25228J   26145.37548471  .00000678  00000+0  11792-3 0  9999
2 65955  51.9007  21.4916 0000716 103.1015 257.0027 14.79934695 34582
KUIPER-00127            
1 65956U 25228K   26145.02904110  .00000028  00000+0  32716-4 0  9997
2 65956  51.9017  15.4867 0001279 109.7837 250.3263 14.79932476 34641
KUIPER-00128            
1 65957U 25228L   26145.34981373  .00002207  00000+0  31833-3 0  9998
2 65957  51.9007  14.1323 0000911 106.8703 253.2359 14.79939981 34686
KUIPER-00129            
1 65958U 25228M   26145.32144041  .00002129  00000+0  30809-3 0  9995
2 65958  51.9007   9.2405 0000858 103.9390 256.1668 14.79939421 34755
KUIPER-00130            
1 65959U 25228N   26145.35251382  .00001878  00000+0  27525-3 0  9997
2 65959  51.9040  11.6262 0000818 101.8531 258.2523 14.79932646 25015
KUIPER-00134            
1 65960U 25228P   26145.43432010  .00038448  00000+0  93278-3 0  9998
2 65960  51.8735 307.9636 0005142 218.8300 141.2319 15.40655291 35619
KUIPER-00135            
1 65961U 25228Q   26145.31875198  .00002325  00000+0  33381-3 0  9998
2 65961  51.9023  11.8322 0000866 104.8516 255.2542 14.79937945 34719
KUIPER-00136            
1 65962U 25228R   26145.35538176  .00010220  00000+0  13622-2 0  9993
2 65962  51.9019   9.1342 0001218  63.9251 296.1836 14.80098737 34753
KUIPER-00137            
1 65963U 25228S   26144.88519644  .00001299  00000+0  19930-3 0  9995
2 65963  51.9038   8.6931 0000763 108.9426 251.1620 14.79937432 34722
KUIPER-00138            
1 65964U 25228T   26145.32683392  .00001095  00000+0  17263-3 0  9999
2 65964  51.9009   4.1916 0000670 114.5514 245.5518 14.79933662 34828
KUIPER-00140            
1 65965U 25228U   26145.32414272  .00002168  00000+0  31327-3 0  9998
2 65965  51.8996   6.7897 0000785 106.8929 253.2120 14.79940160 34781
KUIPER-00141            
1 65966U 25228V   26145.32953572  .00003772  00000+0  52330-3 0  9999
2 65966  51.9039   1.8048 0000749 106.5364 253.5680 14.79945909 34853
KUIPER-00146            
1 65967U 25228W   26145.29307052 -.00001982  00000+0 -23099-3 0  9995
2 65967  51.9053   4.4754 0000996 116.4563 243.6502 14.79930052 34810
KUIPER-00149            
1 65968U 25228X   26145.33222128  .00002139  00000+0  30945-3 0  9992
2 65968  51.9021 359.1956 0000818 115.5394 244.5653 14.79936203 34894
KUIPER-00154            
1 65969U 25228Y   26145.30116035 -.00000032  00000+0  24763-4 0  9992
2 65969  51.9017 356.8306 0000707 107.7057 252.3983 14.79934762 34924
KUIPER-00157            
1 65970U 25228Z   26145.29846814  .00003559  00000+0  49574-3 0  9999
2 65970  51.9035 359.4686 0000635 106.8704 253.2328 14.79922994 34887
KUIPER-00144            
1 67133U 25301A   26145.52712843  .00002053  00000+0  32300-3 0  9991
2 67133  51.9011  75.5755 0001121  55.4890 304.6177 14.76425883 25259
KUIPER-00164            
1 67134U 25301B   26145.21112366  .00002091  00000+0  32796-3 0  9993
2 67134  51.9026  88.4405 0001156 136.9611 223.1440 14.76497660 25222
KUIPER-00175            
1 67135U 25301C   26145.19412803  .00004272  00000+0  43878-3 0  9996
2 67135  51.8951  75.8322 0001059  54.0050 306.1015 14.92194281 25294
KUIPER-00179            
1 67136U 25301D   26145.13656066  .00000673  00000+0  11723-3 0  9997
2 67136  51.8963  87.5483 0000717  94.5910 265.5134 14.79931383 25231
KUIPER-00181            
1 67137U 25301E   26145.25814639  .00003172  00000+0  44472-3 0  9997
2 67137  51.9015  99.5294 0001620  79.0429 281.0715 14.79955251 25059
KUIPER-00183            
1 67138U 25301F   26145.50510510  .00004288  00000+0  43614-3 0  9993
2 67138  51.8948  75.2809 0008947 327.7076  32.3343 14.92577585 25427
KUIPER-00184            
1 67139U 25301G   26145.22453941  .00002160  00000+0  33803-3 0  9993
2 67139  51.8989  81.9660 0001833 120.0073 240.1070 14.76457049 25419
KUIPER-00186            
1 67140U 25301H   26145.15676583 -.00006664  00000+0 -84622-3 0  9996
2 67140  51.9014  99.9869 0000604 113.0949 247.0077 14.79925611 24881
KUIPER-00187            
1 67141U 25301J   26145.28920645  .00001430  00000+0  21660-3 0  9999
2 67141  51.9022 101.9229 0000760  89.2350 270.8700 14.79931164 24863
KUIPER-00188            
1 67142U 25301K   26145.50003471 -.00024156  00000+0 -31137-2 0  9995
2 67142  51.9024  68.5801 0001776  95.8850 300.3475 14.80429180  5663
KUIPER-00191            
1 67143U 25301L   26145.12849262  .00002838  00000+0  40087-3 0  9996
2 67143  51.9005  95.1322 0000835  66.6705 293.4345 14.79958926 24973
KUIPER-00196            
1 67144U 25301M   26145.15081830  .00018170  00000+0  65795-3 0  9998
2 67144  51.8774  55.1633 0001395 251.8413 108.2418 15.28443826 25500
KUIPER-00204            
1 67145U 25301N   26145.50003471 -.01811596  00000+0 -15505+0 0  9999
2 67145  51.8945  66.6784 0001379 312.4591 227.6550 15.00885840  5763
KUIPER-00210            
1 67146U 25301P   26145.16223213  .00002953  00000+0  41608-3 0  9993
2 67146  51.8993  94.9395 0000837  75.3536 284.7519 14.79942268 25125
KUIPER-00221            
1 67147U 25301Q   26145.25544360  .00003110  00000+0  43670-3 0  9990
2 67147  51.9005 102.0439 0000785  74.4260 285.6789 14.79934068 24865
KUIPER-00232            
1 67148U 25301R   26145.23783273  .00003339  00000+0  46723-3 0  9992
2 67148  51.8991  87.1558 0001210  85.5967 274.5134 14.79890998 25062
KUIPER-00241            
1 67149U 25301S   26145.26082755  .00003323  00000+0  46451-3 0  9994
2 67149  51.9022  97.0355 0000800  83.3627 276.7426 14.79944159 25266
KUIPER-00245            
1 67150U 25301T   26145.32025530  .00003026  00000+0  42556-3 0  9993
2 67150  51.9022 104.2857 0000812  58.8801 301.2240 14.79958202 24834
KUIPER-00246            
1 67151U 25301U   26145.03256861  .00003096  00000+0  43469-3 0  9996
2 67151  51.8995  90.5206 0000917  70.3864 289.7198 14.79960331 25022
KUIPER-00247            
1 67152U 25301V   26145.51626661  .00003337  00000+0  46642-3 0  9993
2 67152  51.8964  78.3765 0000865  82.1660 277.9401 14.79936263 25214
KUIPER-00248            
1 67153U 25301W   26145.50003471 -.00044964  00000+0 -57619-2 0  9999
2 67153  51.8992  60.3132 0000729  48.5255 154.4620 14.80984720  5527
KUIPER-00249            
1 67154U 25301X   26145.51873117  .00003320  00000+0  46451-3 0  9995
2 67154  51.8999  75.9054 0000822  75.9734 284.1320 14.79910548 25244
KUIPER-00250            
1 67155U 25301Y   26145.26627566  .00003382  00000+0  47183-3 0  9994
2 67155  51.8993  91.9783 0001152  74.1603 285.9486 14.79983092 25032
KUIPER-00251            
1 67156U 25301Z   26145.21218709  .00011728  00000+0  15656-2 0  9997
2 67156  51.9004  79.7764 0001890 152.4134 207.6929 14.79910243 25354
KUIPER-00252            
1 67157U 25301AA  26145.20947472  .00003494  00000+0  48696-3 0  9995
2 67157  51.8999  82.2411 0000547  79.5776 280.5248 14.79941308 25130
KUIPER-00261            
1 67158U 25301AB  26145.23245057 -.00000292  00000+0 -92764-5 0  9991
2 67158  51.9042  92.1880 0000836  97.2937 262.8121 14.79935481 24999
KUIPER-00265            
1 67159U 25301AC  26145.18252051  .00000410  00000+0  82730-4 0  9999
2 67159  51.9007 107.3784 0000696  71.0739 289.0299 14.79931198 24816
KUIPER-00159            
1 67764U 26030A   26145.36180433  .00021053  00000+0  56549-3 0  9999
2 67764  51.8844 208.7876 0005973 329.1169  30.9466 15.37865275 16885
KUIPER-00160            
1 67765U 26030B   26145.49574767  .00022462  00000+0  60118-3 0  9993
2 67765  51.8803 208.1502 0006395 335.9653  24.1034 15.37932341 16901
KUIPER-00177            
1 67766U 26030C   26145.53457181  .00000931  00000+0  15115-3 0  9993
2 67766  51.9000 233.3129 0000525  88.6363 271.4660 14.79927758 16550
KUIPER-00178            
1 67767U 26030D   26145.51367109  .00001487  00000+0  24220-3 0  9996
2 67767  51.8994 232.8274 0000424 100.7022 259.3986 14.76452651 16562
KUIPER-00180            
1 67768U 26030E   26144.96596669 -.00000315  00000+0 -12273-4 0  9997
2 67768  51.8972 230.8234 0000331  94.6944 265.4056 14.79936072 16545
KUIPER-00197            
1 67769U 26030F   26145.50003471 -.01392873  00000+0 -10123+0 0  9994
2 67769  51.8971 209.4601 0003418   7.4812  73.2810 15.06612258  4841
KUIPER-00198            
1 67770U 26030G   26145.41297735  .00002707  00000+0  38400-3 0  9997
2 67770  51.8972 221.3458 0000401  98.4318 261.6690 14.79919610 16716
KUIPER-00199            
1 67771U 26030H   26145.46420282  .00017684  00000+0  51582-3 0  9994
2 67771  51.8801 209.4123 0011291 338.6613  21.3901 15.35371551 16883
KUIPER-00200            
1 67772U 26030J   26145.44615110  .00009375  00000+0  45916-3 0  9991
2 67772  51.8836 213.5798 0002770  20.5924 339.5166 15.18810645 16824
KUIPER-00203            
1 67773U 26030K   26145.52917168  .00003373  00000+0  47083-3 0  9998
2 67773  51.9059 238.3537 0000422 116.1678 243.9328 14.79965753 16486
KUIPER-00205            
1 67774U 26030L   26145.50003471  .00024518  00000+0  89055-3 0  9999
2 67774  51.8831 207.7824 0003227 311.5954 265.1610 15.28150365  5485
KUIPER-00208            
1 67775U 26030M   26145.51696404  .00001395  00000+0  22890-3 0  9997
2 67775  51.8968 229.6417 0006992 326.9658  33.0865 14.76530687 16602
KUIPER-00209            
1 67776U 26030N   26144.93215411  .00001750  00000+0  25857-3 0  9999
2 67776  51.8985 231.0584 0000464 169.5338 190.5634 14.79912625 16532
KUIPER-00213            
1 67777U 26030P   26145.50887198  .00002872  00000+0  40565-3 0  9990
2 67777  51.8957 226.0076 0001071  61.4981 298.6089 14.79922130 16650
KUIPER-00214            
1 67778U 26030Q   26144.93763470  .00002620  00000+0  37241-3 0  9991
2 67778  51.8987 226.0238 0000390 113.1723 246.9280 14.79948335 16605
KUIPER-00215            
1 67779U 26030R   26145.50003471 -.01634092  00000+0 -11706+0 0  9995
2 67779  51.8940 211.1303 0009323 350.4433  71.9680 15.07071769  5431
KUIPER-00218            
1 67780U 26030S   26145.50046771  .00001547  00000+0  25071-3 0  9991
2 67780  51.8969 225.5202 0000876  92.2695 267.8366 14.76461724 16669
KUIPER-00220            
1 67781U 26030T   26145.50003471  .00025753  00000+0  99453-3 0  9992
2 67781  51.8849 209.2180 0010095 344.3858 217.7246 15.26056829  5624
KUIPER-00222            
1 67782U 26030U   26145.51438235  .00013569  00000+0  18061-2 0  9991
2 67782  51.8994 221.0474 0000464 255.6464 104.4447 14.79914178 16725
KUIPER-00223            
1 67783U 26030V   26145.50003471 -.00014370  00000+0 -15412-2 0  9991
2 67783  51.8980 213.3584 0007830   4.4544  62.7407 14.87616241  5707
KUIPER-00225            
1 67784U 26030W   26145.38218913  .00001360  00000+0  22432-3 0  9991
2 67784  51.8972 218.7422 0002886 353.6800   6.4124 14.76430818 16748
KUIPER-00226            
1 67785U 26030X   26145.37895700 -.00001682  00000+0 -54926-4 0  9999
2 67785  51.8887 214.7007 0018792 342.0758  17.9558 15.23524193 16804
KUIPER-00259            
1 67786U 26030Y   26145.41180737  .00001413  00000+0  23223-3 0  9997
2 67786  51.8980 218.4705 0001513 103.9774 256.1355 14.76356843 16758
KUIPER-00260            
1 67787U 26030Z   26145.50003471 -.00007421  00000+0 -10288-2 0  9990
2 67787  51.9000 215.5666 0002126 127.2182  20.3401 14.76390613  4562
KUIPER-00262            
1 67788U 26030AA  26145.48584551  .00074425  00000+0  97247-2 0  9997
2 67788  51.8998 216.0329 0001410 112.6596 247.4515 14.79755923 16790
KUIPER-00266            
1 67789U 26030AB  26145.50003471 -.00066002  00000+0 -48097-2 0  9991
2 67789  51.8920 214.6320 0020295 354.2173  36.1785 15.03325517  5473
KUIPER-00268            
1 67790U 26030AC  26145.50003471 -.00075515  00000+0 -72482-2 0  9997
2 67790  51.8981 211.3247 0004755 348.5649 243.3026 14.92972248  4612
KUIPER-00270            
1 67791U 26030AD  26145.44573902  .00030890  00000+0  87101-3 0  9992
2 67791  51.8802 209.2898 0011028 336.6328  23.4155 15.36092211 16880
KUIPER-00274            
1 67792U 26030AE  26145.41276860  .00001397  00000+0  23009-3 0  9990
2 67792  51.9000 223.5205 0004038   5.9511 354.1497 14.76348195 16685
KUIPER-00275            
1 67793U 26030AF  26145.50003471  .00028123  00000+0  85967-3 0  9994
2 67793  51.8857 208.9847 0011620 321.9090  15.7732 15.33593648  5658
KUIPER-00276            
1 67794U 26030AG  26145.37444675  .00008205  00000+0  34756-3 0  9994
2 67794  51.8854 214.6846 0018054 316.4197  43.5358 15.23874107 16807
KUIPER-00279            
1 67795U 26030AH  26145.35385075 -.00004618  00000+0 -12061-3 0  9992
2 67795  51.8800 209.4223 0007612 327.5437  32.5080 15.35531920 16871
KUIPER-00131            
1 68573U 26072A   26145.39971802  .00010365  00000+0  13860-2 0  9997
2 68573  51.8988 296.4141 0001542 131.7064 228.4031 14.79949339  7747
KUIPER-00189            
1 68574U 26072B   26145.38682586  .00002364  00000+0  36824-3 0  9991
2 68574  51.8989 298.5129 0000804 231.0610 129.0279 14.76322404  7711
KUIPER-00192            
1 68575U 26072C   26145.50003471 -.00043521  00000+0 -56077-2 0  9999
2 68575  51.9005 293.4750 0002540  69.0929  89.5388 14.80735740  4227
KUIPER-00193            
1 68576U 26072D   26145.50003471  .00003219  00000+0  13263-3 0  9999
2 68576  51.8802 286.8211 0003865 277.4808 240.5151 15.27016553  5170
KUIPER-00194            
1 68577U 26072E   26145.50003471 -.00041716  00000+0 -45129-2 0  9991
2 68577  51.8969 291.1334 0003763 305.7625 291.8274 14.87895956  5014
KUIPER-00229            
1 68578U 26072F   26145.12081870  .00001960  00000+0  31035-3 0  9996
2 68578  51.9016 297.2024 0002294 135.3207 224.7939 14.76350272  7710
KUIPER-00230            
1 68579U 26072G   26145.37669610  .00023624  00000+0  64117-3 0  9996
2 68579  51.8773 287.0546 0001589 308.0607  52.0236 15.37483146  7879
KUIPER-00231            
1 68580U 26072H   26145.37187535  .00043813  00000+0  11854-2 0  9990
2 68580  51.8746 287.0240 0001687 317.9420  42.1437 15.37264349  7878
KUIPER-00234            
1 68581U 26072J   26145.50003471 -.00026675  00000+0 -26624-2 0  9992
2 68581  51.8959 290.1062 0005703 341.2716 259.0481 14.90899534  5114
KUIPER-00236            
1 68582U 26072K   26145.38418031  .00031641  00000+0  87230-3 0  9999
2 68582  51.8773 287.1057 0002222 272.6742  87.3990 15.36835682  7875
KUIPER-00244            
1 68583U 26072L   26145.50003471 -.01234793  00000+0 -40186-1 0  9995
2 68583  51.8780 286.3996 0002709 289.4582  67.9948 15.34506291  5789
KUIPER-00253            
1 68584U 26072M   26145.50003471 -.02196771  00000+0 -10543+0 0  9992
2 68584  51.8785 287.0095 0007223 301.7898  73.7163 15.22192414  4426
KUIPER-00254            
1 68585U 26072N   26145.50003471 -.01146507  00000+0 -73217-1 0  9993
2 68585  51.8840 288.0193 0008599 308.4547 269.8022 15.11149440  5445
KUIPER-00263            
1 68586U 26072P   26145.11305259  .00031427  00000+0  84254-3 0  9996
2 68586  51.8767 288.2860 0000996 253.9841 106.1036 15.37705540  7831
KUIPER-00269            
1 68587U 26072Q   26145.11728133  .00031377  00000+0  81987-3 0  9991
2 68587  51.8730 288.3137 0004316 280.4929  79.5572 15.38493093  7838
KUIPER-00272            
1 68588U 26072R   26145.50003471 -.00047750  00000+0 -62142-2 0  9991
2 68588  51.8979 293.4701 0001263 101.6004 238.3698 14.80367411  5476
KUIPER-00285            
1 68589U 26072S   26145.12560523  .00030002  00000+0  78846-3 0  9995
2 68589  51.8756 288.3653 0006712 292.3178  67.7097 15.38326665  7832
KUIPER-00286            
1 68590U 26072T   26145.11390089  .00030611  00000+0  79650-3 0  9994
2 68590  51.8746 288.2868 0004485 282.8180  77.2306 15.38634482  7830
KUIPER-00289            
1 68591U 26072U   26145.36708826  .00031018  00000+0  86404-3 0  9991
2 68591  51.8650 287.6855 0010850 312.1105  47.8958 15.36471553  7866
KUIPER-00290            
1 68592U 26072V   26145.10861046  .00039188  00000+0  10951-2 0  9997
2 68592  51.8655 288.9477 0011217 304.7626  55.2304 15.36253379  7827
KUIPER-00293            
1 68593U 26072W   26145.50003471 -.00020817  00000+0 -16448-2 0  9990
2 68593  51.8887 289.2989 0013667 318.7433 323.3732 14.99787314  1309
KUIPER-00294            
1 68594U 26072X   26145.42782628  .00024365  00000+0  67982-3 0  9990
2 68594  51.8691 287.3547 0010383 304.9969  55.0042 15.36558513  7875
KUIPER-00296            
1 68595U 26072Y   26145.40852253  .00029226  00000+0  78749-3 0  9995
2 68595  51.8698 287.2426 0009519 301.7145  58.2914 15.37547974  7871
KUIPER-00297            
1 68596U 26072Z   26145.50003471 -.02187412  00000+0 -13927+0 0  9996
2 68596  51.8785 288.6167 0008875 311.7067  49.3310 15.11767350  4517
KUIPER-00300            
1 68597U 26072AA  26145.50003471 -.01971021  00000+0 -84729-1 0  9993
2 68597  51.8784 287.3883 0007793 306.5841 285.9307 15.25457163  3996
KUIPER-00301            
1 68598U 26072AB  26144.82598326  .00027642  00000+0  74328-3 0  9990
2 68598  51.8668 290.0661 0009328 301.3869  58.6204 15.37643717  7789
KUIPER-00304            
1 68599U 26072AC  26145.41633196  .00026734  00000+0  72607-3 0  9991
2 68599  51.8670 287.2765 0010061 303.6426  56.3601 15.37346255  7879
KUIPER-00317            
1 68600U 26072AD  26145.40766250  .00030484  00000+0  81911-3 0  9996
2 68600  51.8700 287.2299 0008848 297.8335  62.1754 15.37618273  7877
KUIPER-00320            
1 68601U 26072AE  26145.37551453  .00034073  00000+0  95588-3 0  9993
2 68601  51.8630 287.7187 0011558 299.8762  60.1075 15.36195339  7864
KUIPER-00299            
1 68864U 26095A   26145.50003471 -.01808323  00000+0 -86470-1 0  9994
2 68864  51.8797 352.8810 0008767 228.1670 262.2262 15.22170797  4953
KUIPER-00353            
1 68865U 26095B   26144.99054012  .00050458  00000+0  12990-2 0  9996
2 68865  51.8863 354.3218 0001048 223.1515 136.9390 15.38733357  4161
KUIPER-00357            
1 68866U 26095C   26144.99874495  .00036635  00000+0  95753-3 0  9992
2 68866  51.8836 354.3818 0003361 194.3992 165.6900 15.38411050  4165
KUIPER-00364            
1 68867U 26095D   26145.52254713 -.00096096  00000+0 -25835-2 0  9990
2 68867  51.8815 351.8895 0006543 195.9214 164.1568 15.37602110  4240
KUIPER-00375            
1 68868U 26095E   26144.99230991  .00028014  00000+0  72759-3 0  9994
2 68868  51.8849 354.3395 0001431 219.6202 140.4681 15.38744475  4169
KUIPER-00433            
1 68869U 26095F   26145.50003471 -.01774045  00000+0 -13451+0 0  9999
2 68869  51.8851 354.2896 0007668 237.2648 351.2937 15.05276979  4211
KUIPER-00437            
1 68870U 26095G   26144.95372442  .00023763  00000+0  65054-3 0  9997
2 68870  51.8808 354.8198 0007477 208.8532 151.2042 15.37189566  4158
KUIPER-00448            
1 68871U 26095H   26145.00173546  .00025676  00000+0  68029-3 0  9999
2 68871  51.8844 354.3990 0003244 197.9885 162.0987 15.38176130  4164
KUIPER-00459            
1 68872U 26095J   26145.55709131  .00022080  00000+0  63571-3 0  9998
2 68872  51.8722 352.0928 0010530 218.4205 141.6032 15.35635376  4249
KUIPER-00468            
1 68873U 26095K   26144.94165904  .00025748  00000+0  68931-3 0  9994
2 68873  51.8827 354.7448 0004908 193.6263 166.4593 15.37849719  4159
KUIPER-00476            
1 68874U 26095L   26145.55186094  .00022678  00000+0  64316-3 0  9998
2 68874  51.8750 352.0632 0008614 213.7642 146.2797 15.36108712  4246
KUIPER-00478            
1 68875U 26095M   26145.54446080  .00025781  00000+0  71151-3 0  9995
2 68875  51.8784 352.0252 0007735 218.4885 141.5551 15.36888221  4242
KUIPER-00480            
1 68876U 26095N   26145.53528529  .00043920  00000+0  11802-2 0  9995
2 68876  51.8775 351.9650 0006213 204.3056 155.7639 15.37459816  4246
KUIPER-00482            
1 68877U 26095P   26144.99505072  .00036808  00000+0  95538-3 0  9999
2 68877  51.8857 354.3551 0002293 182.4525 177.6452 15.38625043  4161
KUIPER-00483            
1 68878U 26095Q   26145.50003471 -.02239156  00000+0 -14947+0 0  9990
2 68878  51.8860 353.7534 0010125 234.6140 167.2632 15.10139317  4301
KUIPER-00488            
1 68879U 26095R   26145.29997942  .00023809  00000+0  68384-3 0  9992
2 68879  51.8687 353.3604 0010299 225.4480 134.5665 15.35667651  4206
KUIPER-00489            
1 68880U 26095S   26145.29244458  .00022872  00000+0  65123-3 0  9998
2 68880  51.8760 353.3288 0009671 222.6815 137.3420 15.35971318  4209
KUIPER-00499            
1 68881U 26095T   26145.29965881  .00023218  00000+0  67497-3 0  9990
2 68881  51.8725 353.3648 0007907 217.3339 142.7098 15.35323116  4201
KUIPER-00500            
1 68882U 26095U   26145.50003471 -.02230248  00000+0 -12748+0 0  9995
2 68882  51.8878 353.0033 0004656 224.3464 265.7659 15.15690822  5457
KUIPER-00502            
1 68883U 26095V   26144.94561816  .00021698  00000+0  58574-3 0  9999
2 68883  51.8806 354.7677 0005821 202.0241 158.0497 15.37691421  4152
KUIPER-00503            
1 68884U 26095W   26145.50003471  .00054002  00000+0  19503-2 0  9994
2 68884  51.8823 352.4625 0007013 215.6279 159.2642 15.27936462  4810
KUIPER-00504            
1 68885U 26095X   26145.50003471  .00042339  00000+0  36778-2 0  9998
2 68885  51.8897 356.1120 0013054 243.2421 177.5557 14.96537764  4603
KUIPER-00505            
1 68886U 26095Y   26145.50003471  .00057107  00000+0  16946-2 0  9993
2 68886  51.8833 352.0336 0004568 195.3288  15.7093 15.34250615  5010
KUIPER-00507            
1 68887U 26095Z   26145.50003471  .00065983  00000+0  17728-2 0  9994
2 68887  51.8851 351.8612 0001205  92.3497 209.9903 15.37298993  3398
KUIPER-00511            
1 68888U 26095AA  26145.27658106  .00036556  00000+0  98850-3 0  9990
2 68888  51.8776 353.2305 0006612 207.6284 152.4352 15.37348000  4208
KUIPER-00512            
1 68889U 26095AB  26145.50003471 -.01111367  00000+0 -45895-1 0  9992
2 68889  51.8858 352.3629 0003705 208.6802 184.3390 15.26550296  5326
KUIPER-00519            
1 68890U 26095AC  26144.99356031  .00026570  00000+0  69186-3 0  9998
2 68890  51.8834 354.3449 0001878 165.4705 194.6336 15.38694248  4169
KUIPER-00521            
1 68891U 26095AD  26144.86182922  .00040505  00000+0  10662-2 0  9999
2 68891  51.8855 354.9604 0000951 124.5589 235.5488 15.38150464  4147
KUIPER-00524            
1 68892U 26095AE  26144.99777844  .00041165  00000+0  10733-2 0  9999
2 68892  51.8825 354.3759 0001680 196.0854 164.0080 15.38433265  4168
KUIPER-00370            
1 68919U 26098A   26145.48654292 -.00024627  00000+0 -80936-3 0  9997
2 68919  51.8715 177.5941 0015121  72.8750 287.3889 15.30540514  3854
KUIPER-00380            
1 68920U 26098B   26145.39196897  .00013881  00000+0  43619-3 0  9996
2 68920  51.8734 177.7247 0009321  60.2081 299.9829 15.33228809  3846
KUIPER-00386            
1 68921U 26098C   26145.36628588  .00521238  00000+0  13488-1 0  9990
2 68921  51.8715 177.5589 0020112 127.3545 232.9277 15.36281930  3845
KUIPER-00388            
1 68922U 26098D   26145.37134366  .00013750  00000+0  47202-3 0  9996
2 68922  51.8741 178.3190 0021744  65.4462 294.8785 15.30209310  3830
KUIPER-00405            
1 68923U 26098E   26145.47731273  .00013656  00000+0  44420-3 0  9992
2 68923  51.8764 177.5448 0015010  67.4562 292.8009 15.32072966  3851
KUIPER-00408            
1 68924U 26098F   26145.48606682  .00001724  00000+0  69588-4 0  9995
2 68924  51.8758 177.5999 0015630  66.9920 293.2711 15.30584069  3851
KUIPER-00409            
1 68925U 26098G   26145.38305662  .00019500  00000+0  59007-3 0  9994
2 68925  51.8728 177.6667 0008138  65.8536 294.3299 15.34170337  3843
KUIPER-00410            
1 68926U 26098H   26145.47973235 -.00061970  00000+0 -20703-2 0  9992
2 68926  51.8744 177.5544 0013905  61.7228 298.5157 15.30483295  3852
KUIPER-00412            
1 68927U 26098J   26144.51258233 -.00017929  00000+0 -49129-3 0  9990
2 68927  51.8764 181.5941 0002389 136.0910 224.0267 15.36171573  3719
KUIPER-00413            
1 68928U 26098K   26145.50809779  .00006879  00000+0  24565-3 0  9995
2 68928  51.8733 177.7330 0025088  80.2398 280.1417 15.29733410  3857
KUIPER-00414            
1 68929U 26098L   26145.50942017 -.00039525  00000+0 -13492-2 0  9991
2 68929  51.8745 177.7486 0022444  67.8300 292.5062 15.29422764  3850
KUIPER-00415            
1 68930U 26098M   26145.46220760  .00012239  00000+0  38716-3 0  9990
2 68930  51.8768 177.4522 0011081  56.9779 303.2269 15.33122047  3854
KUIPER-00416            
1 68931U 26098N   26145.35500725  .00023067  00000+0  64654-3 0  9992
2 68931  51.8745 177.4873 0001398  93.6087 266.5059 15.36495108  3840
KUIPER-00420            
1 68932U 26098P   26145.49804804  .00021283  00000+0  61976-3 0  9995
2 68932  51.8756 176.9476 0003658  73.2971 286.8416 15.35345518  3865
KUIPER-00421            
1 68933U 26098Q   26145.38363825 -.00005689  00000+0 -15822-3 0  9990
2 68933  51.8755 177.6779 0009146  51.5634 308.6171 15.34120501  3843
KUIPER-00425            
1 68934U 26098R   26145.50003471  .00053359  00000+0  17746-2 0  9994
2 68934  51.8750 177.5368 0018405  71.3993   1.9600 15.30490514  3703
KUIPER-00430            
1 68935U 26098S   26145.49689487  .00011731  00000+0  39971-3 0  9993
2 68935  51.8769 177.6719 0019945  74.9482 285.3707 15.30644496  3859
KUIPER-00431            
1 68936U 26098T   26145.49547899  .00025158  00000+0  87665-3 0  9995
2 68936  51.8752 177.6541 0017679  69.9579 290.3306 15.29358318  3852
KUIPER-00432            
1 68937U 26098U   26145.46591632 -.00025104  00000+0 -77553-3 0  9995
2 68937  51.8756 177.4697 0012366  64.8991 295.3276 15.32560381  3857
KUIPER-00434            
1 68938U 26098V   26145.44754968  .00018702  00000+0  55923-3 0  9998
2 68938  51.8722 177.3454 0007880  55.2283 304.9443 15.34576912  3856
KUIPER-00436            
1 68939U 26098W   26145.46484829  .00017971  00000+0  56760-3 0  9994
2 68939  51.8742 177.4615 0011236  66.6161 293.6004 15.32836592  3858
KUIPER-00438            
1 68940U 26098X   26145.37677676  .00013223  00000+0  40469-3 0  9995
2 68940  51.8731 177.6274 0006102  69.4908 290.6731 15.34136040  3843
KUIPER-00439            
1 68941U 26098Y   26145.38891551  .00013776  00000+0  42695-3 0  9993
2 68941  51.8750 177.7105 0006827  71.7351 288.4376 15.33693690  3849
KUIPER-00440            
1 68942U 26098Z   26145.37977057  .00013377  00000+0  40650-3 0  9995
2 68942  51.8766 177.6552 0004755  79.8501 280.3020 15.34356053  3843
KUIPER-00442            
1 68943U 26098AA  26145.38136676  .00011849  00000+0  36351-3 0  9996
2 68943  51.8762 177.6656 0006953  63.7475 296.4224 15.34164839  3842
KUIPER-00446            
1 68944U 26098AB  26145.50969575  .00010362  00000+0  32022-3 0  9993
2 68944  51.8734 177.0162 0006171  60.9069 299.2533 15.34082851  3867
KUIPER-00451            
1 68945U 26098AC  26145.50003471  .00049846  00000+0  17002-2 0  9997
2 68945  51.8786 177.4651 0014069  65.3602  49.0283 15.29769573  4488
KUIPER-00452            
1 68946U 26098AD  26145.49717825  .00029104  00000+0  83653-3 0  9992
2 68946  51.8744 176.9375 0003720  54.1438 305.9893 15.35572557  3868
KUIPER-00453            
1 68947U 26098AE  26145.48838594  .00035665  00000+0  10006-2 0  9999
2 68947  51.8742 176.8825 0003896 103.5878 256.5542 15.36227532  3860
KUIPER-00454            
1 68948U 26098AF  26145.37141784  .00007278  00000+0  26640-3 0  9997
2 68948  51.8770 178.3288 0016238  60.8650 299.3956 15.28983199  3839
KUIPER-00455            
1 68949U 26098AG  26145.37631383 -.00004453  00000+0 -13891-3 0  9995
2 68949  51.8735 178.3534 0019526  71.3525 288.9577 15.29742126  3833
KUIPER-00458            
1 68950U 26098AH  26145.49283429  .00022119  00000+0  63155-3 0  9999
2 68950  51.8768 176.9152 0003795  66.8440 293.2946 15.35939478  3864
