IRIDIUM 106             
1 41917U 17003A   26213.65433208 -.00000016  00000+0 -12767-4 0  9993
2 41917  86.3923  69.5390 0002350  89.9316 270.2149 14.34217376499727
IRIDIUM 103             
1 41918U 17003B   26213.64164460  .00000100  00000+0  28604-4 0  9993
2 41918  86.3922  69.4444 0002019  91.9166 268.2261 14.34218486499741
IRIDIUM 109             
1 41919U 17003C   26213.92706106  .00000221  00000+0  71822-4 0  9998
2 41919  86.3923  69.3848 0002128  87.6144 272.5295 14.34218996499751
IRIDIUM 102             
1 41920U 17003D   26213.96511727  .00000048  00000+0  99973-5 0  9992
2 41920  86.3922  69.2915 0002164  85.4410 274.7033 14.34217987499841
IRIDIUM 105             
1 41921U 17003E   26213.92371528  .00000055  00000+0  12641-4 0  9996
2 41921  86.3944  37.7371 0001901  86.4025 273.7389 14.34217684501697
IRIDIUM 104             
1 41922U 17003F   26213.97780745  .00000133  00000+0  40416-4 0  9995
2 41922  86.3924  69.3293 0001837  88.6699 271.4707 14.34212973499836
IRIDIUM 114             
1 41923U 17003G   26213.63530363  .00000022  00000+0  64650-6 0  9993
2 41923  86.3922  69.4559 0002031  88.9966 271.1463 14.34217560499763
IRIDIUM 108             
1 41924U 17003H   26213.94266658  .00000037  00000+0  62804-5 0  9995
2 41924  86.3939  37.6164 0002135  87.3784 272.7657 14.34218010501663
IRIDIUM 112             
1 41925U 17003J   26213.97146096 -.00000004  00000+0 -86596-5 0  9992
2 41925  86.3916  69.1548 0001957  86.4717 273.6703 14.34217390499839
IRIDIUM 111             
1 41926U 17003K   26213.67970177 -.00000003  00000+0 -82251-5 0  9998
2 41926  86.3920  69.3486 0002032  87.4355 272.7074 14.34217409499777
IRIDIUM 113             
1 42803U 17039A   26213.79920327  .00000019  00000+0 -35161-6 0  9992
2 42803  86.3986 303.1181 0002022  95.7760 264.3667 14.34217656477726
IRIDIUM 123             
1 42804U 17039B   26213.84068208 -.00000042  00000+0 -22094-4 0  9996
2 42804  86.4006 334.5584 0002154  97.1473 262.9968 14.34217297476491
IRIDIUM 120             
1 42805U 17039C   26213.79286157  .00000033  00000+0  48581-5 0  9994
2 42805  86.3978 302.8974 0002402  94.5469 265.6001 14.34217716477712
IRIDIUM 115             
1 42806U 17039D   26213.73826568  .00000233  00000+0  63193-4 0  9992
2 42806  86.4515 303.0554 0002396  99.0935 261.0537 14.43278605480833
IRIDIUM 118             
1 42807U 17039E   26213.87239539  .00000050  00000+0  10615-4 0  9992
2 42807  86.4011 334.5425 0002187  93.3292 266.8154 14.34217855476497
IRIDIUM 117             
1 42808U 17039F   26213.82165427  .00000013  00000+0 -23752-5 0  9999
2 42808  86.4006 334.5213 0002108  96.1333 264.0103 14.34217609476511
IRIDIUM 126             
1 42809U 17039G   26213.84702453  .00000016  00000+0 -14239-5 0  9991
2 42809  86.4007 334.5624 0001961  96.3759 263.7660 14.34217671476499
IRIDIUM 124             
1 42810U 17039H   26213.67208604  .00000283  00000+0  78202-4 0  9997
2 42810  86.4463 271.3404 0002359  96.4059 263.7411 14.43280831481675
IRIDIUM 128             
1 42811U 17039J   26213.90753127  .00000018  00000+0 -79746-6 0  9992
2 42811  86.3980   6.0321 0002222  92.8087 267.3363 14.34217747476531
IRIDIUM 121             
1 42812U 17039K   26213.86605250  .00000011  00000+0 -32334-5 0  9995
2 42812  86.4006 334.5825 0002099  93.1146 267.0290 14.34217635476376
IRIDIUM 133             
1 42955U 17061A   26213.93924464  .00000012  00000+0 -28743-5 0  9997
2 42955  86.3990   6.1375 0002209  91.6304 268.5145 14.34217624461332
IRIDIUM 100             
1 42956U 17061B   26213.93290168  .00000012  00000+0 -27124-5 0  9997
2 42956  86.3988   6.0576 0002170  91.0703 269.0741 14.34217600461338
IRIDIUM 122             
1 42957U 17061C   26213.97095701 -.00000022  00000+0 -14910-4 0  9998
2 42957  86.3982   6.0423 0002042  93.5138 266.6292 14.34217235461340
IRIDIUM 129             
1 42958U 17061D   26213.92655875 -.00000013  00000+0 -11588-4 0  9996
2 42958  86.3983   6.1283 0001840  90.4536 269.6871 14.34217925461353
IRIDIUM 119             
1 42959U 17061E   26213.96461456 -.00000017  00000+0 -13050-4 0  9991
2 42959  86.3983   6.1087 0002022  94.4678 265.6749 14.34217560461377
IRIDIUM 107             
1 42960U 17061F   26213.91387426 -.00000018  00000+0 -13647-4 0  9995
2 42960  86.3985   6.1513 0002192  97.2298 262.9147 14.34217327461375
IRIDIUM 132             
1 42961U 17061G   26213.92021653  .00000005  00000+0 -52259-5 0  9992
2 42961  86.3982   6.1277 0002075  92.7126 267.4308 14.34217521461375
IRIDIUM 136             
1 42962U 17061H   26213.95192937  .00000018  00000+0 -51090-6 0  9997
2 42962  86.3989   6.1211 0002185  90.2529 269.8918 14.34217654461395
IRIDIUM 139             
1 42963U 17061J   26213.88849900 -.00000021  00000+0 -14503-4 0  9990
2 42963  86.3984   6.2107 0002111  92.0265 268.1173 14.34216496461390
IRIDIUM 125             
1 42964U 17061K   26213.94558656  .00000018  00000+0 -71074-6 0  9996
2 42964  86.3985   6.2486 0001910 107.0482 253.0923 14.34217497461417
IRIDIUM 135             
1 43070U 17083A   26213.78017487  .00000119  00000+0  35348-4 0  9996
2 43070  86.3984 302.9602 0002219  95.3750 264.7699 14.34218401450683
IRIDIUM 138             
1 43071U 17083B   26213.66600858  .00000010  00000+0 -34891-5 0  9998
2 43071  86.3994 302.7100 0001993  97.5196 262.6226 14.34217707450650
IRIDIUM 116             
1 43072U 17083C   26213.77383329  .00000067  00000+0  16919-4 0  9993
2 43072  86.3983 302.9480 0002514  93.6845 266.4638 14.34217163450701
IRIDIUM 130             
1 43073U 17083D   26213.81188943 -.00000005  00000+0 -89872-5 0  9997
2 43073  86.3989 303.2120 0002338  97.6319 262.5142 14.34217420450654
IRIDIUM 151             
1 43074U 17083E   26213.78651887  .00000070  00000+0  17861-4 0  9994
2 43074  86.3984 303.0017 0002278  94.6812 265.4644 14.34217771450671
IRIDIUM 134             
1 43075U 17083F   26213.96411117  .00000064  00000+0  15652-4 0  9994
2 43075  86.3985 302.9361 0002272  95.9439 264.2016 14.34217875450660
IRIDIUM 137             
1 43076U 17083G   26213.76749104 -.00000014  00000+0 -12098-4 0  9991
2 43076  86.3985 303.1118 0002334  85.6136 274.5326 14.34217477450704
IRIDIUM 141             
1 43077U 17083H   26213.76114811  .00000029  00000+0  31834-5 0  9997
2 43077  86.3983 302.9427 0002165  95.5529 264.5914 14.34217673450701
IRIDIUM 153             
1 43078U 17083J   26213.92263196  .00000007  00000+0 -44477-5 0  9991
2 43078  86.3941 271.3493 0002073  97.1990 262.9442 14.34217512451831
IRIDIUM 131             
1 43079U 17083K   26213.95776814  .00000020  00000+0  10807-6 0  9996
2 43079  86.3986 303.0495 0002053  94.5007 265.6423 14.34217679450667
IRIDIUM 144             
1 43249U 18030A   26213.64990132  .00000322  00000+0  10809-3 0  9999
2 43249  86.3938 271.3914 0002365  92.3195 267.8271 14.34217835436658
IRIDIUM 149             
1 43250U 18030B   26213.86554812  .00000272  00000+0  90052-4 0  9999
2 43250  86.3938 271.2679 0002208  94.5227 265.6221 14.34216747436701
IRIDIUM 157             
1 43251U 18030C   26213.67527113 -.00000002  00000+0 -77521-5 0  9993
2 43251  86.3940 271.4014 0002128  94.1707 265.9732 14.34217460436657
IRIDIUM 140             
1 43252U 18030D   26213.69429902  .00000046  00000+0  94586-5 0  9999
2 43252  86.3939 271.4063 0002274  94.8847 265.2608 14.34217829436715
IRIDIUM 145             
1 43253U 18030E   26213.89091982  .00000014  00000+0 -20190-5 0  9991
2 43253  86.3940 271.2958 0002467  92.8266 267.3212 14.34217633436678
IRIDIUM 146             
1 43254U 18030F   26213.87189158  .00000022  00000+0  66652-6 0  9995
2 43254  86.3940 271.3158 0002259  93.6451 266.5003 14.34217722436685
IRIDIUM 148             
1 43255U 18030G   26213.90994705 -.00000014  00000+0 -12220-4 0  9995
2 43255  86.3941 271.3437 0002154  92.2840 267.8603 14.34217426436724
IRIDIUM 142             
1 43256U 18030H   26213.66892918  .00000078  00000+0  20873-4 0  9993
2 43256  86.3936 271.3322 0002429  92.1159 268.0315 14.34217707436656
IRIDIUM 150             
1 43257U 18030J   26213.63721570  .00000043  00000+0  82044-5 0  9997
2 43257  86.3939 271.4632 0002315  94.6197 265.5263 14.34217910436670
IRIDIUM 143             
1 43258U 18030K   26213.89726124  .00000170  00000+0  53614-4 0  9997
2 43258  86.3943 271.4488 0002376  94.2038 265.9430 14.34218489436641
IRIDIUM 161             
1 43478U 18047C   26213.65002639  .00000274  00000+0  75569-4 0  9999
2 43478  86.4442  69.4529 0002021  83.6833 276.4598 14.43283482431690
IRIDIUM 152             
1 43479U 18047D   26213.66067345 -.00000004  00000+0 -83280-5 0  9999
2 43479  86.3916  69.3097 0001953  86.9394 273.2025 14.34217492429006
IRIDIUM 147             
1 43480U 18047E   26213.66701670  .00000018  00000+0 -47292-6 0  9995
2 43480  86.3917  69.3131 0002168  85.8101 274.3343 14.34217630429000
IRIDIUM 110             
1 43481U 18047F   26213.95243269  .00000185  00000+0  58881-4 0  9991
2 43481  86.3923  69.2869 0001879  85.0576 275.0834 14.34217890429035
IRIDIUM 162             
1 43482U 18047G   26213.85171699  .00000254  00000+0  69383-4 0  9994
2 43482  86.4442  69.2590 0002231  87.8719 272.2737 14.43278159431710
IRIDIUM 160             
1 43569U 18061A   26213.96803949  .00000039  00000+0  69012-5 0  9999
2 43569  86.3940  37.6446 0002134  87.6810 272.4630 14.34217521419939
IRIDIUM 166             
1 43570U 18061B   26213.92364241  .00000039  00000+0  67157-5 0  9992
2 43570  86.3940  37.6129 0002252  88.3027 271.8427 14.34217719419956
IRIDIUM 158             
1 43571U 18061C   26213.89192557  .00000051  00000+0  11145-4 0  9997
2 43571  86.3940  37.6362 0002116  90.8581 269.2857 14.34218140419911
IRIDIUM 165             
1 43572U 18061D   26213.91729883  .00000031  00000+0  38349-5 0  9993
2 43572  86.3940  37.6728 0002291  89.2438 270.9020 14.34217706419946
IRIDIUM 155             
1 43573U 18061E   26213.94900880  .00000029  00000+0  31748-5 0  9998
2 43573  86.3936  37.5262 0002216  91.2155 268.9294 14.34217966419915
IRIDIUM 154             
1 43574U 18061F   26213.92998220  .00000046  00000+0  91912-5 0  9990
2 43574  86.3943  37.6702 0002273  87.9970 272.1486 14.34217963419966
IRIDIUM 163             
1 43575U 18061G   26213.91095663  .00000041  00000+0  76163-5 0  9995
2 43575  86.3938  37.5919 0002089  89.3695 270.7741 14.34217561419934
IRIDIUM 156             
1 43576U 18061H   26213.95535116  .00000096  00000+0  27155-4 0  9998
2 43576  86.3939  37.5806 0002257  93.9381 266.2073 14.34217424419937
IRIDIUM 164             
1 43577U 18061J   26213.93632691  .00000041  00000+0  74416-5 0  9996
2 43577  86.3940  37.6298 0002293  87.3442 272.8016 14.34217640419975
IRIDIUM 159             
1 43578U 18061K   26213.97438047  .00000041  00000+0  75794-5 0  9990
2 43578  86.3939  37.5496 0002082  89.4070 270.7364 14.34217844419945
IRIDIUM 180             
1 43922U 19002A   26213.83433956  .00000010  00000+0 -34722-5 0  9991
2 43922  86.4006 334.5209 0002002  93.0916 267.0509 14.34217544395533
IRIDIUM 176             
1 43923U 19002B   26213.83336124  .00000714  00000+0  10931-3 0  9995
2 43923  86.6132 334.4582 0002316  93.3396 266.8087 14.72265146405962
IRIDIUM 168             
1 43924U 19002C   26213.82799732  .00000028  00000+0  30342-5 0  9991
2 43924  86.4014 334.6018 0002136  92.9071 267.2370 14.34217661395517
IRIDIUM 173             
1 43925U 19002D   26213.88507876  .00000195  00000+0  62681-4 0  9999
2 43925  86.4010 334.4649 0002168  95.0057 265.1387 14.34218443395508
IRIDIUM 169             
1 43926U 19002E   26213.95038688  .00000233  00000+0  69792-4 0  9991
2 43926  86.4244   6.0572 0002303 103.2536 256.8919 14.38604660396806
IRIDIUM 172             
1 43927U 19002F   26213.87873821  .00000056  00000+0  12968-4 0  9995
2 43927  86.4009 334.4755 0002144  93.8090 266.3351 14.34217619395512
IRIDIUM 175             
1 43928U 19002G   26213.67673013  .00000268  00000+0  72967-4 0  9995
2 43928  86.4493 271.5059 0005486  81.5260 278.6562 14.43634892405544
IRIDIUM 171             
1 43929U 19002H   26213.85971008  .00000014  00000+0 -22120-5 0  9998
2 43929  86.4014 334.7949 0002185  94.7355 265.4091 14.34217684395509
IRIDIUM 170             
1 43930U 19002J   26213.83949299  .00000708  00000+0  10836-3 0  9993
2 43930  86.6126 334.4572 0002119  91.7029 268.4431 14.72257113405975
IRIDIUM 167             
1 43931U 19002K   26213.85336803  .00000011  00000+0 -30612-5 0  9991
2 43931  86.4005 334.5089 0002369  95.9665 264.1801 14.34217369395501
IRIDIUM 181             
1 56726U 23068S   26213.93318535  .00000075  00000+0  16301-4 0  9992
2 56726  86.4477  37.6569 0002190  83.6532 276.4919 14.43310919169031
IRIDIUM 177             
1 56727U 23068T   26213.75576708  .00000637  00000+0  80679-4 0  9994
2 56727  86.1986 307.1613 0002319  94.4286 265.7200 14.80035195173106
IRIDIUM 174             
1 56728U 23068U   26213.82710588  .00000750  00000+0  11498-3 0  9997
2 56728  86.6137 334.6146 0002076 100.4347 259.7104 14.72254168172730
IRIDIUM 178             
1 56729U 23068V   26213.94771175  .00000910  00000+0  11692-3 0  9994
2 56729  86.6557   6.2369 0002335  93.9475 266.2014 14.80039108173134
IRIDIUM 179             
1 56730U 23068W   26213.94233221  .00000947  00000+0  12170-3 0  9993
2 56730  86.6784  15.3523 0002470  93.9014 266.2490 14.80040196173137
