EUTELSAT 174A           
1 28924U 05052A   26144.12098218  .00000005  00000+0  00000+0 0  9998
2 28924   4.1613  76.8160 0006330 341.7520  40.6834  1.00272380 52098
EUTELSAT 33F            
1 29270U 06032A   26144.16442012  .00000151  00000+0  00000+0 0  9993
2 29270   1.6018  82.4946 0003552 336.3905 275.1752  1.00274129 47067
EUTELSAT HOTBIRD 13C    
1 33459U 08065A   26144.14792700 -.00000287  00000+0  00000+0 0  9996
2 33459   2.8910  79.4640 0004003 344.0492 181.1985  1.00270149 47108
EUTELSAT 36B            
1 36101U 09065A   26144.16780014  .00000107  00000+0  00000+0 0  9991
2 36101   0.4326  80.7294 0005725 337.8920 294.0617  1.00269683 60469
EUTELSAT KA-SAT 9A      
1 37258U 10069A   26144.15965343  .00000056  00000+0  00000+0 0  9993
2 37258   0.0620  10.6380 0003740 117.6555 179.9348  1.00270806 43762
EUTELSAT 7 WEST A       
1 37816U 11051A   26144.15636007 -.00000066  00000+0  00000+0 0  9999
2 37816   0.0934  43.3179 0003968  19.7465 227.6771  1.00272267 53634
EUTELSAT 16A            
1 37836U 11057A   26144.16104008  .00000098  00000+0  00000+0 0  9993
2 37836   0.0456 355.9996 0005962  71.8976 247.8494  1.00270309  7096
EUTELSAT 21B            
1 38992U 12062B   26144.16208009  .00000124  00000+0  00000+0 0  9990
2 38992   0.0672 352.8869 0003015  69.6358 259.2004  1.00269528 49586
EUTELSAT 70B            
1 39020U 12069A   26144.17178682 -.00000049  00000+0  00000+0 0  9991
2 39020   0.0667  11.3690 0004427  43.6556 319.0981  1.00271546 49269
EUTELSAT 117 WEST A     
1 39122U 13012A   26144.13659876 -.00000018  00000+0  00000+0 0  9994
2 39122   0.0144 343.1082 0002617  75.8972 115.1011  1.00271612 48195
EUTELSAT 7B             
1 39163U 13022A   26144.15922008  .00000042  00000+0  00000+0 0  9998
2 39163   0.0733  16.3856 0005400  13.8774 275.8086  1.00271020 47702
EXPRESS-AT1             
1 39612U 14010A   26144.16970681  .00000041  00000+0  00000+0 0  9995
2 39612   0.1973  85.7601 0002928  30.1208 246.7864  1.00297034 44578
EXPRESS-AT2             
1 39613U 14010B   26144.16892681  .00000000  00000+0  00000+0 0  9994
2 39613   0.0154 308.1638 0000296  24.6539  25.7682  1.00272188 44253
EUTELSAT 3B             
1 39773U 14030A   26144.15844007  .00000015  00000+0  00000+0 0  9997
2 39773   0.0676  13.9041 0003963  46.2722 241.7192  1.00272843 43822
EUTELSAT 115 WEST B     
1 40425U 15010B   26143.99249747 -.00000029  00000+0  00000+0 0  9999
2 40425   0.0101 157.3265 0000817 281.3527  45.3278  1.00259524 41150
EUTELSAT 8 WEST B       
1 40875U 15039B   26144.15627339 -.00000071  00000+0  00000+0 0  9992
2 40875   0.0655 353.1037 0003933  68.5622 228.3634  1.00271597 39418
EUTELSAT 9B             
1 41310U 16005A   26144.15965343  .00000057  00000+0  00000+0 0  9994
2 41310   0.0798  77.7689 0002452 304.5287 285.9374  1.00273263 37878
EUTELSAT 65 WEST A      
1 41382U 16014A   26144.22866846 -.00000282  00000+0  00000+0 0  9990
2 41382   0.0637  32.4563 0002394  20.7465 205.7516  1.00273145 37280
EUTELSAT 117 WEST B     
1 41589U 16038B   26144.13659852 -.00000017  00000+0  00000+0 0  9998
2 41589   0.0020 120.0980 0000180 318.9048  94.9259  1.00269927 36422
EUTELSAT 172B           
1 42741U 17029B   26143.90670178 -.00000012  00000+0  00000+0 0  9993
2 42741   0.0309 156.2533 0000095 120.6241 103.0500  1.00271514 33496
EUTELSAT 7C             
1 44334U 19034B   26144.15922008  .00000043  00000+0  00000+0 0  9994
2 44334   0.0744 176.8188 0003249 225.6983 263.5743  1.00272246  6591
EUTELSAT 5 WEST B       
1 44624U 19067A   26144.15688007 -.00000048  00000+0  00000+0 0  9996
2 44624   0.0666 338.1390 0003085  80.7990 234.2951  1.00271260 24197
EUTELSAT KONNECT        
1 45027U 20005B   26144.15930676  .00000044  00000+0  00000+0 0  9995
2 45027   0.0688  98.6120 0000979 171.0424  36.6695  1.00269807 24095
EUTELSAT QUANTUM        
1 49056U 21069B   26144.16728013  .00000120  00000+0  00000+0 0  9998
2 49056   0.0143   1.1795 0002257  58.1705 290.3390  1.00272117 17688
EUTELSAT KONNECT VHTS   
1 53765U 22110A   26144.15835340  .00000011  00000+0  00000+0 0  9998
2 53765   0.0618 103.7613 0002747 295.3948 262.3170  1.00269718  6599
EUTELSAT HOTBIRD 13F    
1 54048U 22134A   26144.16043343  .00000082  00000+0  00000+0 0  9992
2 54048   0.0446 293.6621 0001786  66.5213 312.3316  1.00271459 13137
EUTELSAT HOTBIRD 13G    
1 54225U 22146A   26144.16043343  .00000082  00000+0  00000+0 0  9992
2 54225   0.0413 235.2135 0001990 307.8745 129.4288  1.00271995  7221
EUTELSAT 10B            
1 54259U 22157A   26144.15982676  .00000062  00000+0  00000+0 0  9999
2 54259   0.0632 101.5974 0001076  13.6508 194.0241  1.00266883 12785
EUTELSAT 36D            
1 59346U 24059A   26144.07753258  .00000000  00000+0  00000+0 0  9999
2 59346   0.0131 316.1532 0000152 175.9026 173.4071  1.00270180  7901
