ORBCOMM FM06            
1 25118U 97084G   26128.58692466  .00001163  00000+0  35279-3 0  9999
2 25118  45.0139 243.3348 0001213 194.4965 179.9907 14.47467322488656
ORBCOMM FM04            
1 25159U 98007C   26128.81856244  .00000841  00000+0  33412-3 0  9991
2 25159 107.9622  88.4013 0039802  33.2784 327.0848 14.35662795470948
ORBCOMM FM19            
1 25415U 98046C   26128.61210221  .00000887  00000+0  32790-3 0  9994
2 25415  44.9940  71.6618 0001889  82.2438  87.6560 14.39418878451073
ORBCOMM FM20            
1 25416U 98046D   26128.83082258  .00000591  00000+0  24017-3 0  9991
2 25416  44.9939  78.1135 0001261 319.1104  40.9649 14.38007594451128
ORBCOMM FM27            
1 25481U 98053G   26128.40958390  .00000602  00000+0  23863-3 0  9994
2 25481  45.0036 164.2716 0001952 267.8495  92.2130 14.39064007444503
ORBCOMM FM32            
1 25982U 99065C   26128.94374279  .00000576  00000+0  23961-3 0  9990
2 25982  45.0170 358.9855 0005292 222.6654 137.3783 14.37076940381446
ORBCOMM FM109           
1 40086U 14040A   26128.78584126  .00000328  00000+0  10568-3 0  9992
2 40086  47.0036 277.7671 0000987  27.8372 332.2567 14.58803879628591
ORBCOMM FM114           
1 41179U 15081A   26128.87185704  .00000264  00000+0  92226-4 0  9992
2 41179  47.0037 187.8761 0001981 350.7408   9.3441 14.58814775552013
ORBCOMM FM110           
1 41182U 15081D   26128.86058583  .00000396  00000+0  12016-3 0  9993
2 41182  47.0008 187.3812 0004019 256.3684 103.6755 14.58818682551880
ORBCOMM FM118           
1 41183U 15081E   26128.89513472  .00000396  00000+0  12002-3 0  9995
2 41183  47.0033 187.5445 0003849 226.5649 133.4917 14.58840393551990
ORBCOMM FM112           
1 41184U 15081F   26127.94079875  .00000619  00000+0  16807-3 0  9990
2 41184  46.9979 100.5442 0002002  22.2024 337.8948 14.58564611553079
ORBCOMM FM113           
1 41185U 15081G   26128.60177404  .00000345  00000+0  10923-3 0  9991
2 41185  46.9998  97.7833 0001628 352.8100   7.2762 14.58814281553154
ORBCOMM FM108           
1 41187U 15081J   26128.97529246  .00000589  00000+0  16103-3 0  9994
2 41187  47.0065   7.5811 0002523   7.4570 352.6353 14.58815066554355
ORBCOMM FM117           
1 41188U 15081K   26128.94073343  .00000567  00000+0  15634-3 0  9998
2 41188  47.0030   6.3903 0002924  15.2044 344.8929 14.58813075554399
ORBCOMM FM116           
1 41189U 15081L   26128.64751782  .00000243  00000+0  87741-4 0  9996
2 41189  47.0015  97.5643 0002437 261.5812  98.4797 14.58822286553167
