ORBCOMM FM06            
1 25118U 97084G   26233.99370932  .00001030  00000+0  31564-3 0  9998
2 25118  45.0134  95.8802 0000329 351.1148 148.7549 14.47697462503922
ORBCOMM FM04            
1 25159U 98007C   26234.02522363  .00000600  00000+0  25030-3 0  9994
2 25159 107.9615 304.9290 0041711 212.9412 146.9128 14.35830759486043
ORBCOMM FM19            
1 25415U 98046C   26234.14167723  .00000612  00000+0  23947-3 0  9998
2 25415  44.9938 290.0288 0005623 267.0747 115.5107 14.39600529466289
ORBCOMM FM20            
1 25416U 98046D   26233.59116404  .00000386  00000+0  17271-3 0  9998
2 25416  44.9945 301.2963 0002865 249.2214 110.8328 14.38143925466205
ORBCOMM FM27            
1 25481U 98053G   26233.43852501  .00000735  00000+0  28048-3 0  9998
2 25481  45.0062  25.4025 0001621 187.3414 172.7411 14.39241008459637
ORBCOMM FM32            
1 25982U 99065C   26234.25893085  .00000550  00000+0  23031-3 0  9993
2 25982  45.0140 220.4763 0006177   4.2995 355.7905 14.37210278396597
ORBCOMM FM109           
1 40086U 14040A   26233.16021791  .00000371  00000+0  11453-3 0  9997
2 40086  47.0029 144.2868 0001061 186.6859 173.4013 14.58896896643833
ORBCOMM FM110           
1 41182U 15081D   26234.19077101  .00000389  00000+0  11833-3 0  9992
2 41182  47.0023  49.3353 0002559  13.5386 346.5569 14.58962658567266
ORBCOMM FM118           
1 41183U 15081E   26233.54079654  .00000398  00000+0  12020-3 0  9995
2 41183  47.0043  52.7592 0002974 326.1056  33.9639 14.58945071567276
ORBCOMM FM112           
1 41184U 15081F   26233.61238443  .00000456  00000+0  13247-3 0  9994
2 41184  47.0002 320.8491 0002974 169.6457 190.4491 14.58980298568506
ORBCOMM FM113           
1 41185U 15081G   26233.66006408  .00000258  00000+0  90644-4 0  9991
2 41185  47.0018 321.0378 0001624 183.6660 176.4214 14.58913013568490
ORBCOMM FM108           
1 41187U 15081J   26234.03207441  .00000389  00000+0  11829-3 0  9997
2 41187  47.0036 230.8636 0001630 169.7780 190.3139 14.58952171569693
ORBCOMM FM117           
1 41188U 15081K   26234.06664181  .00000233  00000+0  85375-4 0  9995
2 41188  46.9998 229.3184 0002195 172.5044 187.5875 14.58936212569741
ORBCOMM FM116           
1 41189U 15081L   26233.22525644  .00000453  00000+0  13178-3 0  9998
2 41189  47.0035 323.0935 0001401 319.9272  40.1510 14.58937423568431
