KUIPER-00008            
1 63724U 25088A   26079.60994167 -.00056214  00000+0 -72079-2 0  9997
2 63724  51.9025  39.0381 0001215   3.1318 356.9652 14.81069282 49678
KUIPER-00009            
1 63725U 25088B   26079.91150696  .00003773  00000+0  48241-3 0  9998
2 63725  51.9029  56.8739 0006114 135.8676 224.2777 14.83427598 49440
KUIPER-00010            
1 63726U 25088C   26079.57995794  .00001314  00000+0  20130-3 0  9993
2 63726  51.9042  34.9361 0000786  90.1406 269.9647 14.79930389 49340
KUIPER-00011            
1 63727U 25088D   26079.87576290 -.00004305  00000+0 -53556-3 0  9996
2 63727  51.9015  41.1916 0000655 113.3595 246.7436 14.79971808 49417
KUIPER-00012            
1 63728U 25088E   26079.58800942 -.00002670  00000+0 -32161-3 0  9991
2 63728  51.9026  27.3870 0000399 108.9132 251.1874 14.79908912 49532
KUIPER-00013            
1 63729U 25088F   26079.65432411  .00008170  00000+0  10984-2 0  9999
2 63729  51.9016  59.6112 0002300  80.7652 279.3570 14.79970372 49193
KUIPER-00014            
1 63730U 25088G   26079.90902108  .00003768  00000+0  48182-3 0  9994
2 63730  51.9040  59.3132 0001735 155.2812 204.8235 14.83421855 49034
KUIPER-00015            
1 63731U 25088H   26079.91668981  .00015489  00000+0  20616-2 0  9998
2 63731  51.8985  68.4780 0000779 212.8209 166.2879 14.79818715  5328
KUIPER-00016            
1 63732U 25088J   26079.63656366  .00003921  00000+0  49941-3 0  9993
2 63732  51.9003  63.0521 0004688 115.4644 244.6805 14.83503565 48954
KUIPER-00018            
1 63733U 25088K   26079.93244369  .00003300  00000+0  46142-3 0  9994
2 63733  51.9038  50.8534 0000726  91.0539 269.0507 14.79959827 49156
KUIPER-00019            
1 63734U 25088L   26079.91668981  .00017467  00000+0  21294-2 0  9992
2 63734  51.9004  49.3650 0000687  96.5505 216.2645 14.83420624  4264
KUIPER-00020            
1 63735U 25088M   26079.92975513 -.00006244  00000+0 -79102-3 0  9991
2 63735  51.9028  53.3851 0003426 116.9484 243.1829 14.79914507 49328
KUIPER-00021            
1 63736U 25088N   26079.64390793  .00004295  00000+0  54543-3 0  9996
2 63736  51.9018  55.4983 0003092 113.5806 246.5483 14.83416243 49105
KUIPER-00023            
1 63737U 25088P   26079.91668981  .00015959  00000+0  21157-2 0  9997
2 63737  51.9002  55.8966 0002668 138.7593 166.1418 14.79967882  4116
KUIPER-00024            
1 63738U 25088Q   26079.60299304  .00001309  00000+0  20062-3 0  9992
2 63738  51.9052  44.8573 0000942  71.0290 289.0774 14.79940296 49670
KUIPER-00025            
1 63739U 25088R   26079.94461675  .00003729  00000+0  47497-3 0  9991
2 63739  51.9035  51.2986 0001021  45.2911 314.8136 14.83615661 49471
KUIPER-00027            
1 63740U 25088S   26079.87032812  .00001325  00000+0  20281-3 0  9994
2 63740  51.9024  46.1436 0000978 102.1016 258.0056 14.79932176 49279
KUIPER-00028            
1 63741U 25088T   26079.90690103  .00003151  00000+0  44189-3 0  9994
2 63741  51.9010  43.4501 0001348  74.1655 285.9456 14.79959245 49726
KUIPER-00029            
1 63742U 25088U   26079.90950812  .00001898  00000+0  27789-3 0  9994
2 63742  51.9034  40.9855 0000687  96.6820 263.4221 14.79928748 49281
KUIPER-00030            
1 63743U 25088V   26079.91668981  .00027179  00000+0  35861-2 0  9998
2 63743  51.9006  60.8956 0002373 112.1687 222.8291 14.79857802  4765
KUIPER-00031            
1 63744U 25088W   26079.61648097  .00004297  00000+0  54130-3 0  9999
2 63744  51.9012  47.0816 0001569 165.6815 194.4194 14.83756995 49173
KUIPER-00032            
1 63745U 25088X   26079.97786920  .00013515  00000+0  36918-3 0  9994
2 63745  51.8691 329.6236 0005271 151.3730 208.7547 15.37693901 51286
KUIPER-00033            
1 63746U 25088Y   26079.94128891 -.00134427  00000+0 -17078-1 0  9991
2 63746  51.9008  75.8407 0000603  77.0289 283.0742 14.82031719 49289
KUIPER-00034            
1 63747U 25088Z   26079.91214525  .00022959  00000+0  30353-2 0  9995
2 63747  51.9030  38.4700 0001197   8.6450 351.4533 14.79863874 49486
KUIPER-00035            
1 63748U 25088AA  26079.93438272  .00003813  00000+0  48742-3 0  9995
2 63748  51.9001  63.8716 0004004  99.9735 260.1681 14.83408421 49188
KUIPER-00037            
1 63749U 25088AB  26079.44625350  .00001363  00000+0  20792-3 0  9990
2 63749  51.9018  65.4926 0000979  92.3396 267.7678 14.79905909 49902
KUIPER-00038            
1 63750U 25088AC  26079.93550162  .00001821  00000+0  26794-3 0  9991
2 63750  51.9038  48.3661 0000790  97.2990 262.8062 14.79922853 49187
KUIPER-00039            
1 64500U 25134A   26079.70516997  .00004147  00000+0  57264-3 0  9990
2 64500  51.9010 184.3832 0000724  79.0047 281.0997 14.79936302 41704
KUIPER-00040            
1 64501U 25134B   26079.91668981 -.00020091  00000+0 -24015-2 0  9990
2 64501  51.8989 194.4568 0010885 309.0829 232.3619 14.83406523  5511
KUIPER-00041            
1 64502U 25134C   26079.91668981 -.00048001  00000+0 -59514-2 0  9994
2 64502  51.8982 195.9810 0000766 132.9633 324.2802 14.82388418  5408
KUIPER-00042            
1 64503U 25134D   26078.07435925  .00036994  00000+0  48375-2 0  9990
2 64503  51.8957 200.0869 0006971 306.8148  53.2174 14.80071070 41345
KUIPER-00043            
1 64504U 25134E   26079.80645607  .00003978  00000+0  55059-3 0  9997
2 64504  51.9006 183.8710 0000727 108.6288 251.4754 14.79921623 41725
KUIPER-00044            
1 64505U 25134F   26079.62199460  .00004091  00000+0  56389-3 0  9993
2 64505  51.8996 198.2417 0008155 313.4547  46.5736 14.80038849 41504
KUIPER-00046            
1 64506U 25134G   26079.69437428  .00004302  00000+0  59286-3 0  9994
2 64506  51.8980 194.3851 0000570 106.5176 253.5849 14.79940528 41564
KUIPER-00047            
1 64507U 25134H   26079.91668981 -.00032811  00000+0 -39381-2 0  9991
2 64507  51.8982 166.2395 0001666 100.3798 220.4158 14.83545528  5121
KUIPER-00048            
1 64508U 25134J   26079.92646945  .00003684  00000+0  51177-3 0  9991
2 64508  51.8999 165.8877 0000763  53.6617 306.4416 14.79950897 41987
KUIPER-00049            
1 64509U 25134K   26079.79340314  .00004842  00000+0  61068-3 0  9995
2 64509  51.8997 179.4348 0001062 170.0731 190.0254 14.83464717 41785
KUIPER-00050            
1 64510U 25134L   26079.91668981 -.00030412  00000+0 -31579-2 0  9991
2 64510  51.8940 161.1274 0004226  19.3099 315.8467 14.89391384  5450
KUIPER-00051            
1 64511U 25134M   26079.91668981 -.00031443  00000+0 -41305-2 0  9995
2 64511  51.9000 175.9574 0001652  75.3709 110.6068 14.79771266  5622
KUIPER-00053            
1 64513U 25134P   26079.78330653  .00002814  00000+0  39766-3 0  9991
2 64513  51.9012 174.0395 0000310 205.7229 154.3718 14.79965551 41858
KUIPER-00054            
1 64514U 25134Q   26079.65381478  .00001398  00000+0  21236-3 0  9998
2 64514  51.8997 169.5798 0000579  72.1219 287.9807 14.79932400 41903
KUIPER-00055            
1 64515U 25134R   26079.94244934  .00015326  00000+0  69865-3 0  9992
2 64515  51.8930 126.7412 0002329  62.6072 297.5145 15.20823787 42531
KUIPER-00056            
1 64516U 25134S   26079.95227970 -.00003123  00000+0 -38075-3 0  9998
2 64516  51.9023 173.3131 0000370 301.0841  59.0085 14.79938698 41882
KUIPER-00057            
1 64517U 25134T   26079.67405442  .00003956  00000+0  54714-3 0  9990
2 64517  51.9000 182.0048 0000663 105.0342 255.0693 14.79968205 41739
KUIPER-00058            
1 64518U 25134U   26079.71324523  .00004032  00000+0  55749-3 0  9991
2 64518  51.9006 176.7878 0000474  93.4254 266.6763 14.79939655 41811
KUIPER-00059            
1 64519U 25134V   26079.51610087  .00004007  00000+0  55381-3 0  9997
2 64519  51.8991 172.7113 0000586 219.9934 140.0986 14.79971554 41856
KUIPER-00060            
1 64520U 25134W   26079.68481889 -.00003930  00000+0 -48679-3 0  9991
2 64520  51.9017 171.9991 0000618  83.4344 276.6688 14.79935914 41864
KUIPER-00061            
1 64521U 25134X   26079.44043690  .00003720  00000+0  51667-3 0  9996
2 64521  51.9003 180.5506 0000510 110.6171 249.4846 14.79939523 41729
KUIPER-00062            
1 64522U 25134Y   26079.57283998  .00009682  00000+0  12977-2 0  9991
2 64522  51.8946 182.4938 0000573  84.4462 275.6565 14.79919941 41726
KUIPER-00063            
1 64523U 25134Z   26079.56475589 -.00010941  00000+0 -14092-2 0  9992
2 64523  51.9063 190.0118 0001897 262.6687  97.4060 14.79910059 41611
KUIPER-00064            
1 64524U 25134AA  26079.77003179  .00004792  00000+0  65771-3 0  9994
2 64524  51.9062 186.5287 0000661 102.3158 257.7878 14.79893983 41680
KUIPER-00065            
1 64525U 25134AB  26079.69700868  .00004357  00000+0  59986-3 0  9993
2 64525  51.9047 192.0095 0000546  78.4524 281.6500 14.79949342 41583
KUIPER-00066            
1 64526U 25134AC  26079.91668981  .00023520  00000+0  11536-2 0  9999
2 64526  51.8709 130.9641 0002726  40.6731 258.6767 15.17994374  4888
KUIPER-00069            
1 64816U 25151A   26079.72146334 -.00000159  00000+0  81887-5 0  9995
2 64816  51.9030 231.8427 0000525 110.2677 249.8342 14.79926863 38398
KUIPER-00070            
1 64817U 25151B   26079.86331560  .00000638  00000+0  11265-3 0  9990
2 64817  51.8992 256.1502 0000917 112.6031 247.5028 14.79927350 38077
KUIPER-00071            
1 64818U 25151C   26078.78557528  .00005050  00000+0  69029-3 0  9999
2 64818  51.9027 258.4388 0000881  67.4195 292.6860 14.79975910 36767
KUIPER-00072            
1 64819U 25151D   26079.85380951  .00003863  00000+0  53537-3 0  9990
2 64819  51.8971 233.6965 0000693 125.1694 234.9334 14.79942763 37203
KUIPER-00073            
1 64820U 25151E   26079.76478379  .00003783  00000+0  52500-3 0  9994
2 64820  51.8993 254.1010 0000645  98.1918 261.9118 14.79932721 38094
KUIPER-00074            
1 64821U 25151F   26079.91668981  .01784411  00000+0  43776-1 0  9990
2 64821  51.8989 236.0322 0002851 349.8085  15.9972 15.36941510  4332
KUIPER-00075            
1 64822U 25151G   26079.73058096  .00022182  00000+0  52202-3 0  9996
2 64822  51.8694 168.0333 0003990 331.9636  28.1137 15.41876540 38108
KUIPER-00076            
1 64823U 25151H   26079.91668981  .00089915  00000+0  12335-1 0  9995
2 64823  51.8997 243.4048 0001532 113.6945 298.7654 14.77573527  3449
KUIPER-00077            
1 64824U 25151J   26079.91668981  .00041331  00000+0  54230-2 0  9997
2 64824  51.9001 248.4552 0000884  66.7260 354.9570 14.79888717  5096
KUIPER-00078            
1 64825U 25151K   26079.94170096  .00003402  00000+0  47502-3 0  9998
2 64825  51.8997 245.8320 0000815  92.1740 267.9316 14.79929649 37045
KUIPER-00079            
1 64826U 25151L   26079.90237012  .00002002  00000+0  29158-3 0  9999
2 64826  51.8963 250.9782 0000588 118.7498 241.3524 14.79922166 38168
KUIPER-00080            
1 64827U 25151M   26079.73369844  .00004068  00000+0  56236-3 0  9991
2 64827  51.8981 251.7324 0000593 110.9719 249.1307 14.79924432 36943
KUIPER-00082            
1 64828U 25151N   26079.91596699  .00003534  00000+0  49239-3 0  9994
2 64828  51.8999 238.4599 0000547  87.8481 272.2544 14.79931364 37141
KUIPER-00083            
1 64829U 25151P   26079.50276222  .00003794  00000+0  52637-3 0  9991
2 64829  51.9007 247.7760 0000699 108.2962 251.8076 14.79938317 38167
KUIPER-00084            
1 64830U 25151Q   26079.89702655  .00003711  00000+0  51483-3 0  9996
2 64830  51.9009 256.0167 0001013  87.5971 272.5108 14.79995965 36891
KUIPER-00085            
1 64831U 25151R   26079.88225721 -.00010975  00000+0 -14122-2 0  9990
2 64831  51.9029 238.6385 0000804  84.5160 275.5894 14.79958678 37139
KUIPER-00086            
1 64832U 25151S   26079.87147282  .00003256  00000+0  45589-3 0  9999
2 64832  51.8998 248.6546 0000877  92.5465 267.5597 14.79934308 36999
KUIPER-00087            
1 64833U 25151T   26079.68769693  .00000191  00000+0  54109-4 0  9999
2 64833  51.8993 231.9453 0000558  81.3872 278.7153 14.79928966 37201
KUIPER-00089            
1 64834U 25151U   26079.41220362  .00003044  00000+0  42843-3 0  9997
2 64834  51.9008 238.1746 0000780 135.5816 224.5210 14.79902470 37105
KUIPER-00090            
1 64835U 25151V   26079.89298885 -.00000595  00000+0 -48985-4 0  9999
2 64835  51.8956 228.5752 0001134  90.2389 269.8703 14.79924866 37273
KUIPER-00091            
1 64836U 25151W   26079.68495952  .00013062  00000+0  17437-2 0  9998
2 64836  51.9005 234.4767 0001608 136.6903 223.4186 14.79821459 37179
KUIPER-00092            
1 64837U 25151X   26079.74450322 -.00000863  00000+0 -84177-4 0  9992
2 64837  51.9003 241.7120 0000560  97.4838 262.6188 14.79936719 38296
KUIPER-00093            
1 64838U 25151Y   26079.87691174  .00003654  00000+0  50814-3 0  9998
2 64838  51.9000 243.6082 0000955  95.8829 264.2243 14.79925634 37060
KUIPER-00094            
1 64839U 25151Z   26079.73958525  .00009665  00000+0  70131-3 0  9992
2 64839  51.8890 211.5867 0006021 330.8017  29.2619 15.04475910 37504
KUIPER-00081            
1 65132U 25171A   26079.52670437  .00003059  00000+0  42989-3 0  9992
2 65132  51.8990 100.1515 0000893  64.8645 295.2409 14.79947223 34643
KUIPER-00088            
1 65133U 25171B   26079.37278210 -.00000837  00000+0 -80820-4 0  9999
2 65133  51.8994 118.3395 0000666  86.3999 273.7039 14.79921317 34370
KUIPER-00095            
1 65134U 25171C   26079.32683619  .00002649  00000+0  37654-3 0  9995
2 65134  51.8973  98.6088 0001477 120.6309 239.4799 14.79908907 34647
KUIPER-00096            
1 65135U 25171D   26079.48217467  .00002258  00000+0  32516-3 0  9995
2 65135  51.8970 110.3556 0000679  74.6803 285.4235 14.79923230 34492
KUIPER-00097            
1 65136U 25171E   26079.34442842  .00002561  00000+0  36473-3 0  9991
2 65136  51.9011 113.5974 0000809  73.9006 286.2045 14.79938474 34428
KUIPER-00098            
1 65137U 25171F   26079.40923176 -.00003571  00000+0 -44013-3 0  9996
2 65137  51.8998 115.6882 0000451 243.5547 116.5369 14.79891972 33751
KUIPER-00099            
1 65138U 25171G   26079.79188977  .00003361  00000+0  46860-3 0  9998
2 65138  51.9018 103.9849 0000988  36.9262 323.1768 14.80027942 34606
KUIPER-00100            
1 65139U 25171H   26079.76037288  .00000045  00000+0  34969-4 0  9998
2 65139  51.9003 101.5994 0000731  75.0613 285.0430 14.79926858 34633
KUIPER-00102            
1 65140U 25171J   26079.75764054  .00022342  00000+0  29517-2 0  9992
2 65140  51.8978 104.1309 0000422 108.0604 252.0404 14.79908347 34591
KUIPER-00103            
1 65141U 25171K   26079.50245932  .00003231  00000+0  45271-3 0  9997
2 65141  51.8978 122.7540 0000520 143.6401 216.4596 14.79927637 34313
KUIPER-00104            
1 65142U 25171L   26079.78605894  .00003195  00000+0  44792-3 0  9991
2 65142  51.9007 108.9664 0000636  83.7798 276.3237 14.79925135 34534
KUIPER-00105            
1 65143U 25171M   26079.40702342  .00002608  00000+0  37153-3 0  9998
2 65143  51.8988 118.2665 0000878 131.4429 228.6609 14.79861844 34378
KUIPER-00106            
1 65144U 25171N   26079.79080662  .00005919  00000+0  52741-3 0  9993
2 65144  51.8926 104.5298 0007806 132.6272 227.5357 14.97229072 34603
KUIPER-00107            
1 65145U 25171P   26079.76298159  .00003365  00000+0  47006-3 0  9994
2 65145  51.8993  99.1247 0000792  73.7647 286.3402 14.79940104 34676
KUIPER-00108            
1 65146U 25171Q   26079.78336418  .00003270  00000+0  45762-3 0  9990
2 65146  51.9010 111.5538 0000160  47.3667 312.7309 14.79939242 34501
KUIPER-00109            
1 65147U 25171R   26079.75498929  .00003392  00000+0  47374-3 0  9990
2 65147  51.9016 106.6212 0000747  69.0565 291.0478 14.79934856 34569
KUIPER-00110            
1 65148U 25171S   26079.43770025  .00003258  00000+0  45452-3 0  9992
2 65148  51.8987 120.6095 0001456 248.8245 111.2562 14.80092654 34336
KUIPER-00111            
1 65149U 25171T   26079.80373409  .00002968  00000+0  41841-3 0  9994
2 65149  51.8963 123.8987 0000269  88.2317 271.8676 14.79898680 34322
KUIPER-00112            
1 65150U 25171U   26079.78878246  .00014972  00000+0  19907-2 0  9997
2 65150  51.9007 106.5262 0001445  54.8871 305.2227 14.79888164 34565
KUIPER-00114            
1 65151U 25171V   26079.53083272  .00000468  00000+0  90337-4 0  9991
2 65151  51.8987 127.6625 0000431  87.9050 272.1961 14.79928012 34248
KUIPER-00115            
1 65152U 25171W   26079.47132347  .00003254  00000+0  45614-3 0  9996
2 65152  51.8997 120.4143 0000544  62.4053 297.6964 14.79890678 34344
KUIPER-00116            
1 65153U 25171X   26079.43225009  .00002894  00000+0  40855-3 0  9992
2 65153  51.8991 125.6262 0000334  18.8590 341.2385 14.79916714 34260
KUIPER-00118            
1 65154U 25171Y   26079.49701392  .00032132  00000+0  42290-2 0  9995
2 65154  51.8993 127.7956 0000910 108.8598 251.2463 14.79881130 34242
KUIPER-00119            
1 65155U 25171Z   26079.78066715  .00027228  00000+0  35955-2 0  9991
2 65155  51.8995 114.1259 0000952  79.6882 280.4188 14.79823822 34453
KUIPER-00120            
1 65762U 25217A   26079.94976791  .00003112  00000+0  43711-3 0  9994
2 65762  51.9005   3.2705 0000419  33.7444 326.3545 14.79928295 26400
KUIPER-00132            
1 65763U 25217B   26079.90989528  .00029770  00000+0  73687-3 0  9996
2 65763  51.8599 309.0125 0006219  16.0594 344.0590 15.40168149 27158
KUIPER-00133            
1 65764U 25217C   26079.51087550  .00000866  00000+0  14267-3 0  9992
2 65764  51.9056   5.2724 0002075  68.5275 291.5909 14.79936634 26345
KUIPER-00139            
1 65765U 25217D   26079.95392586  .00007270  00000+0  56815-3 0  9990
2 65765  51.8868 342.2276 0007453 355.5218   4.5685 15.02008206 26708
KUIPER-00142            
1 65766U 25217E   26079.90131223  .00000137  00000+0  46961-4 0  9992
2 65766  51.9007 346.0132 0000891 118.3670 241.7383 14.79928566 26640
KUIPER-00145            
1 65767U 25217F   26079.96596474  .00003889  00000+0  53871-3 0  9996
2 65767  51.9011 348.2408 0001012  57.1514 302.9545 14.79943583 26612
KUIPER-00147            
1 65768U 25217G   26079.92954910  .00000312  00000+0  69889-4 0  9991
2 65768  51.8998 350.8956 0000724 107.7102 252.3940 14.79935223 26571
KUIPER-00148            
1 65769U 25217H   26079.91668981 -.01153294  00000+0 -83467-1 0  9997
2 65769  51.8816 332.6482 0008982  25.9161 268.0511 15.06625849  4534
KUIPER-00150            
1 65770U 25217J   26079.78288908 -.00022814  00000+0 -29975-2 0  9998
2 65770  51.9035   1.5444 0001039 160.7786 199.3216 14.79599326 26415
KUIPER-00151            
1 65771U 25217K   26079.92691296  .00004011  00000+0  55483-3 0  9994
2 65771  51.9028 353.4130 0000847 106.0283 254.0772 14.79937277 26541
KUIPER-00152            
1 65772U 25217L   26079.97423717  .00003566  00000+0  49658-3 0  9992
2 65772  51.9019 340.6970 0000764  99.9376 260.1673 14.79928832 26728
KUIPER-00153            
1 65773U 25217M   26079.91668981 -.00024583  00000+0 -19714-2 0  9994
2 65773  51.8889 335.9693 0010983 354.2172  92.5869 14.99348035  5406
KUIPER-00155            
1 65774U 25217N   26079.94899267  .00010074  00000+0  43047-3 0  9996
2 65774  51.8758 318.2317 0005593 352.6802   7.4096 15.23430672 27039
KUIPER-00156            
1 65775U 25217P   26079.94583087  .00003633  00000+0  50524-3 0  9998
2 65775  51.9047 335.8551 0000820  98.2180 261.8876 14.79933770 26787
KUIPER-00158            
1 65776U 25217Q   26079.94185802  .00004029  00000+0  54756-3 0  9993
2 65776  51.8992 355.6466 0001486  83.6048 276.5083 14.80682256 26517
KUIPER-00163            
1 65777U 25217R   26079.91668981  .00011805  00000+0  45819-3 0  9995
2 65777  51.9001 354.3828 0001214 127.0334 295.5980 15.26509523  3853
KUIPER-00165            
1 65778U 25217S   26079.93497952 -.00000049  00000+0  22540-4 0  9992
2 65778  51.9027 345.8718 0000677  98.1038 262.0002 14.79938940 26648
KUIPER-00166            
1 65779U 25217T   26079.98227657 -.00002234  00000+0 -26429-3 0  9999
2 65779  51.9034 333.1900 0000762  81.6935 278.4114 14.79914374 26828
KUIPER-00167            
1 65780U 25217U   26079.92417187 -.00003187  00000+0 -38922-3 0  9993
2 65780  51.8981 355.8794 0000803  99.1413 260.9640 14.79933104 26500
KUIPER-00168            
1 65781U 25217V   26079.94315938  .00003732  00000+0  51839-3 0  9993
2 65781  51.9021 338.3398 0000778  96.0570 264.0482 14.79922612 26752
KUIPER-00169            
1 65782U 25217W   26079.93773503  .00003848  00000+0  53318-3 0  9991
2 65782  51.9027 343.3668 0001023 104.5601 255.5475 14.79952142 26689
KUIPER-00170            
1 65783U 25217X   26079.93236940  .00005722  00000+0  77888-3 0  9992
2 65783  51.9004 348.3733 0001107  75.3225 284.7860 14.79935088 26618
KUIPER-00172            
1 65785U 25217Z   26079.96457238  .00002182  00000+0  34048-3 0  9990
2 65785  51.9000 329.1640 0001924  26.3172 333.7886 14.76549759 26889
KUIPER-00173            
1 65786U 25217AA  26079.92977012 -.00003329  00000+0 -44362-3 0  9990
2 65786  51.9029 342.9739 0000750 116.8973 243.2064 14.76464272 26680
KUIPER-00174            
1 65787U 25217AB  26079.97685636  .00003544  00000+0  49404-3 0  9993
2 65787  51.9044 338.2195 0001083  97.2040 262.9046 14.79898036 26757
KUIPER-00176            
1 65788U 25217AC  26079.96051505 -.00000821  00000+0 -78746-4 0  9994
2 65788  51.9010 353.2591 0000802  84.6559 275.4495 14.79927723 26541
KUIPER-00101            
1 65947U 25228A   26079.90534651  .00003207  00000+0  44943-3 0  9995
2 65947  51.8989 310.9822 0000886 106.7835 253.3224 14.79942736 24896
KUIPER-00113            
1 65948U 25228B   26079.87698327  .00000140  00000+0  47347-4 0  9998
2 65948  51.8987 306.1246 0000370 114.5010 245.5991 14.79923554 24950
KUIPER-00117            
1 65949U 25228C   26079.90804884  .00000075  00000+0  38810-4 0  9992
2 65949  51.8978 308.4888 0000946  93.6432 266.4639 14.79925390 24920
KUIPER-00121            
1 65950U 25228D   26079.87968349  .00003213  00000+0  45025-3 0  9999
2 65950  51.8991 303.6119 0000795 117.7714 242.3329 14.79930385 24990
KUIPER-00122            
1 65951U 25228E   26079.93636315  .00003191  00000+0  44756-3 0  9997
2 65951  51.9001 313.3398 0000849 115.5373 244.5677 14.79922474 24864
KUIPER-00123            
1 65952U 25228F   26079.90265257  .00000488  00000+0  92981-4 0  9998
2 65952  51.8987 313.5086 0001147  98.2082 261.9011 14.79930737 24854
KUIPER-00124            
1 65953U 25228G   26079.91074889 -.00001582  00000+0 -17866-3 0  9995
2 65953  51.8997 305.9607 0000849  91.2297 268.8763 14.79920342 24962
KUIPER-00125            
1 65954U 25228H   26079.58922837  .00003350  00000+0  46855-3 0  9997
2 65954  51.9001 292.4084 0000734  98.2000 261.9045 14.79902849 25129
KUIPER-00126            
1 65955U 25228J   26079.93898338 -.00000189  00000+0  42633-5 0  9995
2 65955  51.8995 310.8588 0000669  97.8035 262.3004 14.79896984 24890
KUIPER-00127            
1 65956U 25228K   26079.92481783  .00000045  00000+0  37011-4 0  9990
2 65956  51.9050 302.6275 0001455 220.4573 139.6280 14.76349374 25011
KUIPER-00128            
1 65957U 25228L   26079.91342366  .00003191  00000+0  44732-3 0  9995
2 65957  51.9011 303.4904 0000881 110.7601 249.3456 14.79934366 24996
KUIPER-00129            
1 65958U 25228M   26079.88523628  .00003202  00000+0  44888-3 0  9999
2 65958  51.9010 298.6011 0001167  97.2151 262.8944 14.79935641 25065
KUIPER-00130            
1 65959U 25228N   26079.91613351  .00003261  00000+0  45644-3 0  9993
2 65959  51.9031 300.9711 0000996  88.4789 271.6287 14.79944113 15321
KUIPER-00134            
1 65960U 25228P   26079.88677059  .00033341  00000+0  85715-3 0  9991
2 65960  51.8733 266.1203 0005060   3.2863 356.8157 15.38957662 25518
KUIPER-00135            
1 65961U 25228Q   26079.88238451  .00003107  00000+0  43623-3 0  9990
2 65961  51.9022 301.1826 0000806 115.9950 244.1096 14.79949646 25027
KUIPER-00136            
1 65962U 25228R   26079.58117185 -.00000817  00000+0 -78166-4 0  9996
2 65962  51.9019 299.9852 0001102 125.9741 234.1324 14.79920629 25018
KUIPER-00137            
1 65963U 25228S   26079.31371033 -.00002643  00000+0 -31785-3 0  9996
2 65963  51.9036 298.6291 0000269  62.6034 297.4956 14.79937682 25016
KUIPER-00138            
1 65964U 25228T   26079.89036707  .00003171  00000+0  44459-3 0  9993
2 65964  51.8984 293.5626 0001114  94.9921 265.1169 14.79954023 25136
KUIPER-00140            
1 65965U 25228U   26079.88777096  .00000400  00000+0  81487-4 0  9991
2 65965  51.9005 296.1578 0000843 112.5594 247.5458 14.79929666 25093
KUIPER-00141            
1 65966U 25228V   26079.89314361  .00025616  00000+0  33779-2 0  9990
2 65966  51.9030 291.1493 0000705 106.3131 253.7909 14.79913955 25160
KUIPER-00146            
1 65967U 25228W   26079.91668981  .00049485  00000+0  65071-2 0  9994
2 65967  51.9014 293.5558 0001294  84.9038 234.7872 14.79708164  5409
KUIPER-00149            
1 65968U 25228X   26079.82825663  .00029566  00000+0  39025-2 0  9995
2 65968  51.9021 288.8505 0003680  91.5467 268.5917 14.79797789 25192
KUIPER-00154            
1 65969U 25228Y   26079.86475158  .00003105  00000+0  43638-3 0  9997
2 65969  51.8993 286.1929 0000751  93.2458 266.8590 14.79905781 25232
KUIPER-00157            
1 65970U 25228Z   26079.86163930  .00058686  00000+0  75958-2 0  9994
2 65970  51.9007 288.8132 0000884  93.7211 266.3852 14.80287228 25197
KUIPER-00144            
1 67133U 25301A   26079.91668981 -.00034279  00000+0 -11265-2 0  9996
2 67133  51.8729  10.7845 0007038  74.8087  15.1743 15.30817410  5603
KUIPER-00164            
1 67134U 25301B   26079.91668981 -.00085703  00000+0 -93674-2 0  9999
2 67134  51.8991  15.9624 0003975 114.4667 193.7958 14.87856706  4611
KUIPER-00175            
1 67135U 25301C   26079.91668981 -.01714268  00000+0 -85621-1 0  9998
2 67135  51.8805  11.5644 0001831  76.3298  11.2158 15.20581338  3209
KUIPER-00179            
1 67136U 25301D   26079.91668981 -.00083748  00000+0 -94552-2 0  9994
2 67136  51.8981  15.6555 0000557 121.8378 109.8504 14.86536612  5476
KUIPER-00181            
1 67137U 25301E   26079.81848396  .00003085  00000+0  46946-3 0  9993
2 67137  51.9052  28.1599 0001924 114.1768 245.9394 14.76474300 15374
KUIPER-00183            
1 67138U 25301F   26079.91668981 -.01836127  00000+0 -91692-1 0  9995
2 67138  51.8760  12.6754 0014331  94.3501  71.3061 15.20098490  4665
KUIPER-00184            
1 67139U 25301G   26079.91668981 -.00400525  00000+0 -20742-1 0  9992
2 67139  51.8760  12.3467 0012058  93.0295 232.4849 15.17531975  5890
KUIPER-00186            
1 67140U 25301H   26079.58528038 -.00002167  00000+0 -25522-3 0  9998
2 67140  51.9037  29.9319 0000731 104.9862 255.1181 14.79952747 15171
KUIPER-00187            
1 67141U 25301J   26079.24486398 -.00004582  00000+0 -57235-3 0  9993
2 67141  51.9047  33.9501 0001001  78.7953 281.3122 14.79939317 15085
KUIPER-00188            
1 67142U 25301K   26079.91772424  .00020621  00000+0  54655-3 0  9999
2 67142  51.8704  10.9642 0009820  90.0056 270.2057 15.38263818 15462
KUIPER-00191            
1 67143U 25301L   26079.55697394  .00004286  00000+0  59124-3 0  9997
2 67143  51.9020  25.0850 0000575 104.7201 255.3825 14.79907482 15267
KUIPER-00196            
1 67144U 25301M   26079.91668981  .00005127  00000+0  14896-3 0  9990
2 67144  51.8728  10.4532 0004595  59.0020 199.1503 15.37216509  5810
KUIPER-00204            
1 67145U 25301N   26079.53025136  .00014776  00000+0  57763-3 0  9998
2 67145  51.8847  18.7422 0002643  40.7692 319.3488 15.26064526 15431
KUIPER-00210            
1 67146U 25301P   26079.25306574  .00003328  00000+0  46545-3 0  9993
2 67146  51.9010  26.3906 0000813  96.9311 263.1744 14.79920778 15365
KUIPER-00221            
1 67147U 25301Q   26079.27876074  .00003539  00000+0  49282-3 0  9998
2 67147  51.9030  33.7823 0001045  91.9193 268.1889 14.79949516 15095
KUIPER-00232            
1 67148U 25301R   26079.91668981 -.00084907  00000+0 -94307-2 0  9993
2 67148  51.8986  15.2995 0002538 200.8458  73.9823 14.87204893  4823
KUIPER-00241            
1 67149U 25301S   26079.55429742  .00004288  00000+0  59127-3 0  9998
2 67149  51.9042  27.5723 0000638  72.1831 287.9201 14.79925769 15537
KUIPER-00245            
1 67150U 25301T   26079.61363898  .00004213  00000+0  58219-3 0  9995
2 67150  51.9039  34.8232 0001155  95.9171 264.1923 14.79870694 15103
KUIPER-00246            
1 67151U 25301U   26079.91668981 -.00042623  00000+0 -55320-2 0  9998
2 67151  51.9027  18.1430 0000814 335.3680  98.9041 14.80425797  5131
KUIPER-00247            
1 67152U 25301V   26079.91668981  .00005277  00000+0  21964-3 0  9999
2 67152  51.8712  11.9852 0013080  98.7586  99.1749 15.25307879  4996
KUIPER-00248            
1 67153U 25301W   26079.10398972  .00028237  00000+0  75406-3 0  9992
2 67153  51.8688  15.2331 0010924  84.0617 276.1614 15.37830276 15507
KUIPER-00249            
1 67154U 25301X   26079.91668981 -.00871645  00000+0 -31165-1 0  9995
2 67154  51.8708  11.0172 0009256  88.3165 209.4297 15.30917965  5878
KUIPER-00250            
1 67155U 25301Y   26079.91668981 -.00015528  00000+0 -21861-2 0  9999
2 67155  51.9008  20.3173 0001628 115.8769 320.0881 14.76450139  4500
KUIPER-00251            
1 67156U 25301Z   26079.91668981 -.00022447  00000+0 -90538-3 0  9996
2 67156  51.8750  11.6279 0011814  91.9058 257.1887 15.23840125  2771
KUIPER-00252            
1 67157U 25301AA  26079.91668981 -.00028003  00000+0 -14810-2 0  9999
2 67157  51.8788  12.4564 0009913 107.0859 236.9587 15.14697993  5660
KUIPER-00261            
1 67158U 25301AB  26079.91668981 -.00015245  00000+0 -21444-2 0  9995
2 67158  51.9031  20.6554 0001979  19.7233  80.6992 14.76470736  4958
KUIPER-00265            
1 67159U 25301AC  26079.61098146  .00004202  00000+0  57965-3 0  9990
2 67159  51.9034  37.3204 0001227  71.2523 288.8573 14.79950937 15105
KUIPER-00159            
1 67764U 26030A   26079.95296622  .00037158  00000+0  10419-2 0  9996
2 67764  51.8873 164.8287 0005201  74.4768 285.6792 15.36220611  6826
KUIPER-00160            
1 67765U 26030B   26079.95599287  .00027329  00000+0  77528-3 0  9994
2 67765  51.8806 164.8356 0005643  85.2602 274.9029 15.36010857  6820
KUIPER-00177            
1 67766U 26030C   26079.91668981 -.01172972  00000+0 -67204-1 0  9995
2 67766  51.8899 165.5671 0003570  63.5427 130.3748 15.15115872  5802
KUIPER-00178            
1 67767U 26030D   26079.91668981 -.02006531  00000+0 -90236-1 0  9995
2 67767  51.8840 165.4976 0008293  82.8962 205.9609 15.24017728  2534
KUIPER-00180            
1 67768U 26030E   26079.64865014  .00031680  00000+0  10877-2 0  9995
2 67768  51.8838 167.2490 0013005 104.3808 255.8620 15.29784155  6765
KUIPER-00197            
1 67769U 26030F   26079.93826724  .00028108  00000+0  77899-3 0  9992
2 67769  51.8825 164.7312 0002331  67.6566 292.4668 15.36733635  6820
KUIPER-00198            
1 67770U 26030G   26079.94598404  .00131461  00000+0  35916-2 0  9996
2 67770  51.8813 164.7697 0004549  74.2193 285.9295 15.36412860  6825
KUIPER-00199            
1 67771U 26030H   26079.65986248  .00018376  00000+0  54866-3 0  9997
2 67771  51.8806 166.5922 0011222  96.2109 264.0156 15.34608906  6770
KUIPER-00200            
1 67772U 26030J   26079.53260894  .00036743  00000+0  99302-3 0  9999
2 67772  51.8808 166.5082 0001572 331.5000  28.5901 15.37380373  6760
KUIPER-00203            
1 67773U 26030K   26079.91668981 -.01754720  00000+0 -17100+0 0  9998
2 67773  51.8962 168.4404 0011687 100.0771  75.9793 14.95691307  5379
KUIPER-00205            
1 67774U 26030L   26079.93838009  .00027300  00000+0  75431-3 0  9990
2 67774  51.8801 164.7236 0004206  52.3582 307.7786 15.36839654  6826
KUIPER-00208            
1 67775U 26030M   26079.91668981 -.01777663  00000+0 -66229-1 0  9999
2 67775  51.8848 165.7713 0016252  91.9454  43.4337 15.30150929  5279
KUIPER-00209            
1 67776U 26030N   26079.52947797 -.00038598  00000+0 -13381-2 0  9990
2 67776  51.8827 167.9561 0012598  99.8287 260.4119 15.29092222  6743
KUIPER-00213            
1 67777U 26030P   26079.95313898  .00023839  00000+0  76131-3 0  9990
2 67777  51.8827 165.5444 0015449  98.9025 261.3710 15.32242810  6815
KUIPER-00214            
1 67778U 26030Q   26079.92834861  .00025015  00000+0  68422-3 0  9998
2 67778  51.8842 164.6703 0001349  15.5634 344.5395 15.37208315  6827
KUIPER-00215            
1 67779U 26030R   26079.65691181  .00028577  00000+0  83951-3 0  9995
2 67779  51.8844 166.5873 0010539  94.1217 266.0974 15.34852775  6777
KUIPER-00218            
1 67780U 26030S   26079.50998644  .00012837  00000+0  37565-3 0  9997
2 67780  51.8832 167.1019 0007317  82.5607 277.6210 15.35576919  6752
KUIPER-00220            
1 67781U 26030T   26079.65057895  .00032092  00000+0  93565-3 0  9995
2 67781  51.8819 166.5347 0008745  87.4609 272.7378 15.35047328  6777
KUIPER-00222            
1 67782U 26030U   26079.50347312 -.00014251  00000+0 -43852-3 0  9999
2 67782  51.8828 167.7786 0017110 100.7520 259.5392 15.32190824  6748
KUIPER-00223            
1 67783U 26030V   26079.66385263  .00034019  00000+0  10079-2 0  9990
2 67783  51.8840 166.6248 0012558  95.0229 265.2190 15.34474439  6779
KUIPER-00225            
1 67784U 26030W   26079.94919708  .00025979  00000+0  73016-3 0  9995
2 67784  51.8846 164.7912 0005155  69.5207 290.6332 15.36332203  6820
KUIPER-00226            
1 67785U 26030X   26079.66166301 -.00013648  00000+0 -44485-3 0  9998
2 67785  51.8815 167.3321 0019422 104.6375 255.6764 15.30279661  6764
KUIPER-00259            
1 67786U 26030Y   26079.51343713  .00027629  00000+0  80056-3 0  9993
2 67786  51.8825 167.1154 0008836  82.6488 277.5502 15.35320136  6756
KUIPER-00260            
1 67787U 26030Z   26079.61045418  .00033489  00000+0  91987-3 0  9992
2 67787  51.8805 166.2711 0002098  58.7815 301.3377 15.36921630  6681
KUIPER-00262            
1 67788U 26030AA  26079.92998741  .00051252  00000+0  13889-2 0  9995
2 67788  51.8811 164.6706 0001489  52.3188 307.7934 15.37144540  6824
KUIPER-00266            
1 67789U 26030AB  26079.66575586  .00007726  00000+0  26999-3 0  9999
2 67789  51.8801 167.3544 0023461 110.3175 250.0333 15.30291015  6768
KUIPER-00268            
1 67790U 26030AC  26079.94571062  .00027735  00000+0  77639-3 0  9996
2 67790  51.8847 164.7820 0003224  64.1009 296.0309 15.36426896  6828
KUIPER-00270            
1 67791U 26030AD  26079.65313773  .00035959  00000+0  10472-2 0  9996
2 67791  51.8819 166.5483 0010319  91.3294 268.8874 15.35013798  6774
KUIPER-00274            
1 67792U 26030AE  26079.53221218  .00015707  00000+0  55212-3 0  9997
2 67792  51.8819 167.9696 0018428 109.4491 250.8486 15.29383815  6745
KUIPER-00275            
1 67793U 26030AF  26079.51926941  .00001205  00000+0  45966-4 0  9995
2 67793  51.8853 167.1649 0009563  87.1821 273.0259 15.35087646  6759
KUIPER-00276            
1 67794U 26030AG  26079.53309818  .00015130  00000+0  52425-3 0  9995
2 67794  51.8806 167.9745 0018124 102.4269 257.8744 15.29889656  6745
KUIPER-00279            
1 67795U 26030AH  26079.63663416  .00031515  00000+0  90098-3 0  9997
2 67795  51.8820 166.4405 0006323  74.7408 285.4277 15.35689178  6778
