IRIDIUM 106             
1 41917U 17003A   26031.83757180  .00000084  00000+0  22783-4 0  9991
2 41917  86.4023 145.5446 0001934  86.4557 273.6860 14.34218000473669
IRIDIUM 103             
1 41918U 17003B   26031.82489103  .00000243  00000+0  79617-4 0  9993
2 41918  86.4019 145.4503 0002460  96.4147 263.7329 14.34213627473681
IRIDIUM 109             
1 41919U 17003C   26031.83122917  .00000312  00000+0  10417-3 0  9991
2 41919  86.4022 145.5046 0002100  96.6268 263.5167 14.34218762473656
IRIDIUM 102             
1 41920U 17003D   26031.86928575  .00000066  00000+0  16551-4 0  9992
2 41920  86.4021 145.4154 0002058  98.8164 261.3265 14.34217350473744
IRIDIUM 105             
1 41921U 17003E   26031.76990563  .00000381  00000+0  12860-3 0  9996
2 41921  86.3979 113.9372 0002140  98.2918 261.8521 14.34398378475585
IRIDIUM 104             
1 41922U 17003F   26031.81220208  .00000158  00000+0  49409-4 0  9997
2 41922  86.4021 145.4797 0002399 103.5291 256.6172 14.34216987473729
IRIDIUM 114             
1 41923U 17003G   26031.81854540  .00000050  00000+0  10765-4 0  9994
2 41923  86.4025 145.4612 0002299 100.3055 259.8400 14.34217463473709
IRIDIUM 108             
1 41924U 17003H   26031.77706219  .00000200  00000+0  64288-4 0  9995
2 41924  86.3973 113.8213 0002036  99.4864 260.6562 14.34216426475554
IRIDIUM 112             
1 41925U 17003J   26031.80586017  .00000151  00000+0  46963-4 0  9997
2 41925  86.4017 145.3145 0002127 100.5872 259.5563 14.34216764473723
IRIDIUM 111             
1 41926U 17003K   26031.79317472  .00000022  00000+0  80815-6 0  9996
2 41926  86.4016 145.3870 0002156  96.0549 264.0893 14.34217629473706
IRIDIUM 113             
1 42803U 17039A   26031.91267628  .00000283  00000+0  94086-4 0  9993
2 42803  86.3966  19.1127 0002251  90.3078 269.8376 14.34216605451659
IRIDIUM 123             
1 42804U 17039B   26031.95415427  .00000054  00000+0  12231-4 0  9998
2 42804  86.3925  50.5728 0002389  86.5085 273.6384 14.34217330450420
IRIDIUM 120             
1 42805U 17039C   26031.90633152  .00000000  00000+0 -69732-5 0  9992
2 42805  86.3958  18.9155 0001837  83.2998 276.8406 14.34218115451640
IRIDIUM 115             
1 42806U 17039D   26031.95281164  .00000427  00000+0  12086-3 0  9990
2 42806  86.4498  19.0058 0002387  77.5002 282.6466 14.43275056454616
IRIDIUM 118             
1 42807U 17039E   26031.49748625  .00000074  00000+0  19352-4 0  9992
2 42807  86.3925  50.7624 0002319  93.1513 266.9948 14.34217354450352
IRIDIUM 117             
1 42808U 17039F   26032.00489427  .00000088  00000+0  24524-4 0  9995
2 42808  86.3924  50.5090 0002329  87.8602 272.2860 14.34217262450459
IRIDIUM 126             
1 42809U 17039G   26031.96049511  .00000048  00000+0  10207-4 0  9995
2 42809  86.3925  50.5768 0002368  91.1573 268.9894 14.34217249450422
IRIDIUM 124             
1 42810U 17039H   26031.95595490  .00000440  00000+0  12490-3 0  9999
2 42810  86.4527 347.3140 0002344  81.3818 278.7649 14.43280704455463
IRIDIUM 128             
1 42811U 17039J   26031.88146945  .00000241  00000+0  78942-4 0  9993
2 42811  86.3925  82.1549 0002047  89.0044 271.1387 14.34213261450441
IRIDIUM 121             
1 42812U 17039K   26031.77021719  .00000135  00000+0  41139-4 0  9993
2 42812  86.3927  50.6831 0002111  90.8093 269.3345 14.34217854450270
IRIDIUM 133             
1 42955U 17061A   26031.84341158  .00000291  00000+0  96837-4 0  9994
2 42955  86.3929  82.2854 0002232  92.3790 267.7662 14.34217080435235
IRIDIUM 100             
1 42956U 17061B   26031.83707056  .00000295  00000+0  98308-4 0  9996
2 42956  86.3927  82.2098 0002192  93.1480 266.9966 14.34216667435232
IRIDIUM 122             
1 42957U 17061C   26031.87512456  .00000089  00000+0  24834-4 0  9993
2 42957  86.3928  82.1938 0002299  93.2300 266.9159 14.34217598435245
IRIDIUM 129             
1 42958U 17061D   26031.69118943  .00000070  00000+0  17858-4 0  9995
2 42958  86.3928  82.3363 0002313 102.9412 257.2043 14.34217010435232
IRIDIUM 119             
1 42959U 17061E   26031.65947634  .00000206  00000+0  66660-4 0  9995
2 42959  86.3926  82.3446 0002380  96.0025 264.1442 14.34217367435246
IRIDIUM 107             
1 42960U 17061F   26031.88780975  .00000015  00000+0 -17102-5 0  9992
2 42960  86.3927  82.2692 0002338  86.0207 274.1257 14.34216695435287
IRIDIUM 132             
1 42961U 17061G   26031.96392075  .00000102  00000+0  29362-4 0  9998
2 42961  86.3928  82.2184 0002227  91.6897 268.4553 14.34216848435295
IRIDIUM 136             
1 42962U 17061H   26031.64679371  .00000303  00000+0  10107-3 0  9990
2 42962  86.3929  82.3569 0002360  93.6600 266.4865 14.34218329435264
IRIDIUM 139             
1 42963U 17061J   26031.65313273  .00000087  00000+0  24155-4 0  9996
2 42963  86.3931  82.4142 0002206  90.5605 269.5843 14.34216366435276
IRIDIUM 125             
1 42964U 17061K   26031.84974922  .00000203  00000+0  65466-4 0  9992
2 42964  86.3931  82.3904 0002777  90.7538 269.3977 14.34215384435312
IRIDIUM 135             
1 43070U 17083A   26031.89364838 -.00000043  00000+0 -22546-4 0  9995
2 43070  86.3964  18.9662 0002083  88.9214 271.2221 14.34216773424611
IRIDIUM 138             
1 43071U 17083B   26031.91901820  .00000038  00000+0  66078-5 0  9998
2 43071  86.3977  18.6301 0002431  93.3143 266.8331 14.34216515424606
IRIDIUM 116             
1 43072U 17083C   26031.95707042  .00000289  00000+0  96209-4 0  9999
2 43072  86.3965  18.9270 0001935  80.9078 279.2337 14.34216040424640
IRIDIUM 130             
1 43073U 17083D   26031.92536047  .00000133  00000+0  40371-4 0  9999
2 43073  86.3974  19.2023 0002153  79.8266 280.3172 14.34217744424585
IRIDIUM 151             
1 43074U 17083E   26031.89998713  .00000143  00000+0  44093-4 0  9994
2 43074  86.3963  19.0054 0002161  86.9745 273.1698 14.34217126424606
IRIDIUM 134             
1 43075U 17083F   26031.93804285 -.00000137  00000+0 -56111-4 0  9999
2 43075  86.3963  18.9962 0002124  82.6261 277.5176 14.34216183424575
IRIDIUM 137             
1 43076U 17083G   26031.88095317  .00000244  00000+0  80052-4 0  9990
2 43076  86.3970  19.1099 0001669  89.0159 271.1228 14.34220785424636
IRIDIUM 141             
1 43077U 17083H   26031.94438898  .00000014  00000+0 -19515-5 0  9996
2 43077  86.3965  18.9220 0002185  89.8508 270.2938 14.34217288424647
IRIDIUM 153             
1 43078U 17083J   26031.89656908  .00000333  00000+0  11199-3 0  9996
2 43078  86.4005 347.4455 0002468  85.9212 274.2266 14.34215937425746
IRIDIUM 131             
1 43079U 17083K   26031.93168716  .00000282  00000+0  93529-4 0  9998
2 43079  86.3968  19.1041 0002257  91.0804 269.0651 14.34210653424579
IRIDIUM 144             
1 43249U 18030A   26031.90290929  .00000137  00000+0  41796-4 0  9997
2 43249  86.4002 347.3750 0002077  82.1490 277.9941 14.34216871410600
IRIDIUM 149             
1 43250U 18030B   26031.90925183  .00000164  00000+0  51354-4 0  9997
2 43250  86.4001 347.3410 0002231  86.3285 273.8166 14.34217154410625
IRIDIUM 157             
1 43251U 18030C   26031.92827935  .00000014  00000+0 -20231-5 0  9992
2 43251  86.4008 347.3832 0002144  87.0244 273.1197 14.34216044410609
IRIDIUM 140             
1 43252U 18030D   26031.94730804  .00000012  00000+0 -26062-5 0  9999
2 43252  86.4001 347.3884 0002083  82.3027 277.8406 14.34216486410669
IRIDIUM 145             
1 43253U 18030E   26031.93462148  .00000320  00000+0  10725-3 0  9990
2 43253  86.4007 347.3664 0002061  81.2194 278.9235 14.34216213410593
IRIDIUM 146             
1 43254U 18030F   26031.91559480  .00000055  00000+0  12609-4 0  9994
2 43254  86.4005 347.3866 0002008  82.9567 277.1857 14.34217358410603
IRIDIUM 148             
1 43255U 18030G   26031.95365101 -.00000012  00000+0 -11215-4 0  9991
2 43255  86.3998 347.4120 0002022  85.9635 274.1792 14.34217381410648
IRIDIUM 142             
1 43256U 18030H   26031.92193725  .00000059  00000+0  14069-4 0  9999
2 43256  86.3998 347.3191 0001994  76.3349 283.8069 14.34215629410602
IRIDIUM 150             
1 43257U 18030J   26031.89022111 -.00000071  00000+0 -32346-4 0  9990
2 43257  86.4000 347.4442 0002076  83.1517 276.9915 14.34219598410627
IRIDIUM 143             
1 43258U 18030K   26031.94096264  .00000370  00000+0  12523-3 0  9991
2 43258  86.4010 347.5102 0002134  79.8377 280.3059 14.34216026410568
IRIDIUM 161             
1 43478U 18047C   26031.86458546  .00000435  00000+0  12333-3 0  9990
2 43478  86.4542 145.4568 0002262 101.7020 258.4435 14.43280850405479
IRIDIUM 152             
1 43479U 18047D   26031.77414713  .00000155  00000+0  48124-4 0  9996
2 43479  86.4021 145.3553 0002238  99.7527 260.3922 14.34217468402932
IRIDIUM 147             
1 43480U 18047E   26031.85025704  .00000035  00000+0  55475-5 0  9990
2 43480  86.4016 145.3260 0001969  95.3901 264.7520 14.34216204402941
IRIDIUM 110             
1 43481U 18047F   26031.85659980 -.00000018  00000+0 -13431-4 0  9998
2 43481  86.4021 145.4115 0002259 107.1007 253.0436 14.34218428402936
IRIDIUM 162             
1 43482U 18047G   26031.85825828  .00000452  00000+0  12851-3 0  9999
2 43482  86.4540 145.3522 0002384  92.6252 267.5222 14.43283298405464
IRIDIUM 160             
1 43569U 18061A   26031.94197361  .00000286  00000+0  95024-4 0  9994
2 43569  86.3975 113.7846 0002183 101.1613 258.9829 14.34217558393844
IRIDIUM 166             
1 43570U 18061B   26031.75803845  .00000052  00000+0  11510-4 0  9995
2 43570  86.3975 113.8138 0002026  95.5930 264.5497 14.34217763393847
IRIDIUM 158             
1 43571U 18061C   26031.72632569  .00000263  00000+0  86698-4 0  9999
2 43571  86.3975 113.8371 0002347  94.5125 265.6339 14.34216227393805
IRIDIUM 165             
1 43572U 18061D   26031.68192919  .00000336  00000+0  11294-3 0  9995
2 43572  86.3978 113.8994 0002038  94.9784 265.1645 14.34215848393827
IRIDIUM 155             
1 43573U 18061E   26031.71363825  .00000173  00000+0  54605-4 0  9999
2 43573  86.3975 113.7619 0002185  92.2884 267.8562 14.34216553393790
IRIDIUM 154             
1 43574U 18061F   26031.76439634  .00000279  00000+0  92394-4 0  9991
2 43574  86.3978 113.8676 0001989  95.4635 264.6788 14.34217464393852
IRIDIUM 163             
1 43575U 18061G   26031.67558692  .00000332  00000+0  11135-3 0  9991
2 43575  86.3975 113.8242 0002258  96.9805 263.1648 14.34216578393814
IRIDIUM 156             
1 43576U 18061H   26031.92928792  .00000128  00000+0  38633-4 0  9998
2 43576  86.3975 113.7254 0002167  90.5348 269.6096 14.34216597393840
IRIDIUM 164             
1 43577U 18061J   26031.70095193  .00000099  00000+0  28209-4 0  9990
2 43577  86.3978 113.8592 0001955  99.4904 260.6512 14.34217341393853
IRIDIUM 159             
1 43578U 18061K   26031.66924256  .00000211  00000+0  68271-4 0  9996
2 43578  86.3974 113.8118 0002179 100.7576 259.3865 14.34213281393815
IRIDIUM 180             
1 43922U 19002A   26031.59895874  .00000040  00000+0  73263-5 0  9998
2 43922  86.3924  50.6828 0002285  94.4059 265.7398 14.34216646369411
IRIDIUM 176             
1 43923U 19002B   26031.54389792  .00000458  00000+0  68719-4 0  9993
2 43923  86.6049  50.6689 0002457  90.3760 269.7739 14.72245179379142
IRIDIUM 168             
1 43924U 19002C   26031.59262687  .00000138  00000+0  42331-4 0  9999
2 43924  86.3926  50.7589 0002248  91.3860 268.7593 14.34217799369392
IRIDIUM 173             
1 43925U 19002D   26031.78924632  .00000046  00000+0  94437-5 0  9999
2 43925  86.3921  50.5710 0002388  90.0574 270.0896 14.34217058369407
IRIDIUM 169             
1 43926U 19002E   26031.85338205  .00000346  00000+0  10654-3 0  9993
2 43926  86.4183  82.2085 0002868  80.0723 280.0799 14.38607400370621
IRIDIUM 172             
1 43927U 19002F   26031.78290375 -.00000030  00000+0 -17618-4 0  9991
2 43927  86.3919  50.5810 0002142  95.7896 264.3544 14.34216848369417
IRIDIUM 175             
1 43928U 19002G   26031.94706916  .00001300  00000+0  20231-3 0  9996
2 43928  86.1530 350.0831 0001471  64.5053 295.6315 14.72241313379195
IRIDIUM 171             
1 43929U 19002H   26031.76387622  .00000174  00000+0  54932-4 0  9990
2 43929  86.3934  50.8807 0002091  86.9138 273.2297 14.34218318369406
IRIDIUM 170             
1 43930U 19002J   26031.48211262  .00000468  00000+0  70354-4 0  9999
2 43930  86.6047  50.6982 0002321  92.7275 267.4208 14.72243005379143
IRIDIUM 167             
1 43931U 19002K   26031.47844907  .00000178  00000+0  56351-4 0  9996
2 43931  86.3924  50.7298 0002163  80.8092 279.3348 14.34217361369369
IRIDIUM 181             
1 56726U 23068S   26031.66621553  .00000444  00000+0  12583-3 0  9994
2 56726  86.4514 113.8793 0001891 104.3715 255.7696 14.43310267142747
IRIDIUM 177             
1 56727U 23068T   26031.49692824  .00000679  00000+0  85889-4 0  9995
2 56727  86.1943  33.6854 0002400  88.1476 272.0020 14.80228337146146
IRIDIUM 174             
1 56728U 23068U   26031.94551087  .00000475  00000+0  71385-4 0  9991
2 56728  86.6056  50.6378 0002506  93.5033 266.6471 14.72242692145973
IRIDIUM 178             
1 56729U 23068V   26031.62125057  .00001383  00000+0  17860-3 0  9997
2 56729  86.6500  82.4520 0002048  80.1068 280.0385 14.80222893146167
IRIDIUM 179             
1 56730U 23068W   26031.88628244  .00001290  00000+0  16641-3 0  9996
2 56730  86.6749  90.9205 0002256  90.5030 269.6450 14.80227114146205
