EUTELSAT 139 WEST A     
1 28187U 04008A   26094.76475165  .00000142  00000+0  00000+0 0  9995
2 28187   5.6425  72.8685 0004452  24.5269  36.9130  1.00836691 80621
EUTELSAT 174A           
1 28924U 05052A   26097.77600677  .00000014  00000+0  00000+0 0  9994
2 28924   4.0408  77.3775 0006561 305.2539 266.8361  1.00275567 51623
EUTELSAT 33F            
1 29270U 06032A   26097.89075391  .00000158  00000+0  00000+0 0  9999
2 29270   1.4793  83.0013 0003598 299.0871 167.8251  1.00272788 46603
EUTELSAT HOTBIRD 13C    
1 33459U 08065A   26097.87420051 -.00000279  00000+0  00000+0 0  9991
2 33459   2.7693  79.9996 0004188 307.6914  72.8904  1.00272450 46644
EUTELSAT 36B            
1 36101U 09065A   26097.94142015  .00000114  00000+0  00000+0 0  9995
2 36101   0.3134  79.1062 0006034 304.2287 202.2930  1.00274940 60009
EUTELSAT KA-SAT 9A      
1 37258U 10069A   26097.81466027  .00000063  00000+0  00000+0 0  9996
2 37258   0.0603   2.2875 0003477 134.5164   1.5320  1.00269936 43302
EUTELSAT 7 WEST A       
1 37816U 11051A   26097.05739399 -.00000058  00000+0  00000+0 0  9994
2 37816   0.0808  34.5687 0001901  83.4244  90.6704  1.00272927 53163
EUTELSAT 16A            
1 37836U 11057A   26097.88737390  .00000106  00000+0  00000+0 0  9995
2 37836   0.0541 352.0974 0005855  33.4360 146.0806  1.00273809  6631
EUTELSAT 21B            
1 38992U 12062B   26097.88841390  .00000132  00000+0  00000+0 0  9991
2 38992   0.0720 347.6373 0002840  30.7607 159.1949  1.00273886 49121
EUTELSAT 70B            
1 39020U 12069A   26097.89812060 -.00000041  00000+0  00000+0 0  9994
2 39020   0.0650   2.4599 0001764  21.8036 205.7389  1.00272657 48808
EUTELSAT 117 WEST A     
1 39122U 13012A   26097.64712071 -.00000011  00000+0  00000+0 0  9997
2 39122   0.0537  61.4079 0003013 316.5427 294.1474  1.00275019 47722
EUTELSAT 7B             
1 39163U 13022A   26097.88269757  .00000051  00000+0  00000+0 0  9990
2 39163   0.0697   6.1575 0006170   7.4329 147.3447  1.00274091 47240
EXPRESS-AT1             
1 39612U 14010A   26097.98364994  .00000074  00000+0  00000+0 0  9992
2 39612   0.0787  80.5623 0001440   8.7843 157.6971  1.00283717 44113
EXPRESS-AT2             
1 39613U 14010B   26097.89526059  .00000081  00000+0  00000+0 0  9993
2 39613   0.0334  82.2706 0000098  79.5498  52.6286  1.00271575 43798
EUTELSAT 3B             
1 39773U 14030A   26097.88477389  .00000022  00000+0  00000+0 0  9997
2 39773   0.0653   4.2098 0001397  86.9233  66.6068  1.00271395 43365
EUTELSAT 115 WEST B     
1 40425U 15010B   26097.64746737 -.00000023  00000+0  00000+0 0  9994
2 40425   0.0105  73.1133 0000294 202.2139  38.7780  1.00271891 40685
EUTELSAT 8 WEST B       
1 40875U 15039B   26097.88260721 -.00000063  00000+0  00000+0 0  9998
2 40875   0.0701 349.1730 0003841  28.9213 127.8082  1.00272470 38958
EUTELSAT 9B             
1 41310U 16005A   26097.88598722  .00000064  00000+0  00000+0 0  9992
2 41310   0.0586  61.6716 0003833 287.8764 174.5415  1.00272108 37419
EUTELSAT 65 WEST A      
1 41382U 16014A   26097.87125384 -.00000274  00000+0  00000+0 0  9994
2 41382   0.0600 331.5276 0002303  51.5204  61.5362  1.00270379 36829
EUTELSAT 117 WEST B     
1 41589U 16038B   26097.64703404 -.00000009  00000+0  00000+0 0  9995
2 41589   0.0101  72.4855 0000324 200.1968  39.1654  1.00271484 35954
EUTELSAT 172B           
1 42741U 17029B   26097.84905602 -.00000004  00000+0  00000+0 0  9998
2 42741   0.0143 190.6678 0000153 293.8702 189.2502  1.00270766 33030
EUTELSAT 7C             
1 44334U 19034B   26097.24383521  .00000050  00000+0  00000+0 0  9990
2 44334   0.0660 181.6062 0003333 184.6444 284.0462  1.00271256  6128
EUTELSAT 5 WEST B       
1 44624U 19067A   26097.88321388 -.00000040  00000+0  00000+0 0  9991
2 44624   0.0671  16.3264 0003485  12.1224 120.6619  1.00273185 23737
EUTELSAT KONNECT        
1 45027U 20005B   26097.36919802  .00000052  00000+0  00000+0 0  9992
2 45027   0.0693  93.4093 0001291 221.2342  21.1380  1.00272756 23623
EUTELSAT QUANTUM        
1 49056U 21069B   26097.94142015  .00000128  00000+0  00000+0 0  9991
2 49056   0.0036  62.4945 0002260 314.5947 205.7136  1.00271842 17229
EUTELSAT KONNECT VHTS   
1 53765U 22110A   26097.88468722  .00000019  00000+0  00000+0 0  9999
2 53765   0.0614  98.8247 0002869 257.3985 161.1223  1.00270562  6130
EUTELSAT HOTBIRD 13F    
1 54048U 22134A   26097.88676722  .00000090  00000+0  00000+0 0  9990
2 54048   0.0605 284.2107 0002061  73.9537 170.2425  1.00275429 12678
EUTELSAT HOTBIRD 13G    
1 54225U 22146A   26097.88933733  .00000090  00000+0  00000+0 0  9998
2 54225   0.0492 238.8970 0001995 302.3429 348.0978  1.00273891  6768
EUTELSAT 10B            
1 54259U 22157A   26097.88616056  .00000070  00000+0  00000+0 0  9991
2 54259   0.0609  94.8241 0002304  14.5166  55.7965  1.00270221 12322
EUTELSAT 36D            
1 59346U 24059A   26097.89127391  .00000158  00000+0  00000+0 0  9993
2 59346   0.0167 180.9795 0000585 271.0079 100.9049  1.00271674  7442
