EUTELSAT 174A           
1 28924U 05052A   26233.23159876  .00000005  00000+0  00000+0 0  9997
2 28924   4.3779  75.6972 0006090  72.3234  78.9018  1.00274578 52980
EUTELSAT 33F            
1 29270U 06032A   26233.20369197  .00000152  00000+0  00000+0 0  9990
2 29270   1.8240  81.4618 0003444  60.3529 294.1240  1.00270398 47952
EUTELSAT HOTBIRD 13C    
1 33459U 08065A   26233.25846554 -.00000286  00000+0  00000+0 0  9993
2 33459   3.1121  78.3852 0003532  73.2530 220.6755  1.00273270 47998
EUTELSAT 36B            
1 36101U 09065A   26233.20707199  .00000110  00000+0  00000+0 0  9992
2 36101   0.6494  81.3316 0005818  66.0443 307.1803  1.00273241 61361
EUTELSAT KA-SAT 9A      
1 37258U 10069A   26233.27016560  .00000059  00000+0  00000+0 0  9996
2 37258   0.0717 343.0027 0005239 178.5912 274.2727  1.00269939 44663
EUTELSAT 7 WEST A       
1 37816U 11051A   26233.26695891 -.00000062  00000+0  00000+0 0  9992
2 37816   0.0645   4.2257 0005490 150.5290 263.6202  1.00272414 54520
EUTELSAT 16A            
1 37836U 11057A   26233.20022529  .00000102  00000+0  00000+0 0  9990
2 37836   0.0437  33.3006 0005473 116.1360 268.1489  1.00272258  7984
EUTELSAT 21B            
1 38992U 12062B   26233.20135196  .00000128  00000+0  00000+0 0  9994
2 38992   0.0691 359.5299 0002913 149.5148 274.5509  1.00271874 50476
EUTELSAT 70B            
1 39020U 12069A   26233.13979714 -.00000045  00000+0  00000+0 0  9997
2 39020   0.0655 344.3961 0003528 166.5006 299.3915  1.00271090 50164
EUTELSAT 117 WEST A     
1 39122U 13012A   26233.13031067 -.00000015  00000+0  00000+0 0  9996
2 39122   0.0111  51.8194 0002867 101.8542 105.9020  1.00273707 49089
EUTELSAT 7B             
1 39163U 13022A   26233.19849194  .00000046  00000+0  00000+0 0  9999
2 39163   0.0682 347.8246 0002173  74.7106 345.4328  1.00273128 48591
EXPRESS-AT1             
1 39612U 14010A   26233.24141760 -.00000063  00000+0  00000+0 0  9996
2 39612   0.4201  85.0164 0005043  66.3197 336.4517  1.00314864 45474
EXPRESS-AT2             
1 39613U 14010B   26233.20819866  .00000077  00000+0  00000+0 0  9996
2 39613   0.0156 223.2135 0000631 245.0170 352.2372  1.00272184 45157
EUTELSAT 3B             
1 39773U 14030A   26233.19771194  .00000018  00000+0  00000+0 0  9999
2 39773   0.0647 346.2041 0004061 163.0713 254.5251  1.00270836 44717
EUTELSAT 115 WEST B     
1 40425U 15010B   26233.24419853 -.00000027  00000+0  00000+0 0  9992
2 40425   0.0082 245.9428 0000276  19.2281  37.4119  1.00271229 42037
EUTELSAT 8 WEST B       
1 40875U 15039B   26233.26678558 -.00000068  00000+0  00000+0 0  9998
2 40875   0.0666   0.8789 0003568 146.4666 270.2844  1.00271723 40308
EUTELSAT 9B             
1 41310U 16005A   26233.27016560  .00000059  00000+0  00000+0 0  9996
2 41310   0.0233  59.9884 0001771 115.6772 260.1794  1.00270775 38769
EUTELSAT 65 WEST A      
1 41382U 16014A   26233.25543219 -.00000278  00000+0  00000+0 0  9993
2 41382   0.0523   4.9899 0002355 133.6337 217.7182  1.00271923 38172
EUTELSAT 117 WEST B     
1 41589U 16038B   26233.17396516 -.00000014  00000+0  00000+0 0  9993
2 41589   0.0096 218.0431 0000441  24.8995  32.1887  1.00272809 37311
EUTELSAT 172B           
1 42741U 17029B   26233.22420889 -.00000008  00000+0  00000+0 0  9995
2 42741   0.0261 128.3855 0000290 324.5011 129.3678  1.00271618 34399
EUTELSAT 7C             
1 44334U 19034B   26233.19849194  .00000046  00000+0  00000+0 0  9994
2 44334   0.0752 181.6829 0003493 311.2267 275.0770  1.00271466  7484
EUTELSAT 5 WEST B       
1 44624U 19067A   26233.26739226 -.00000044  00000+0  00000+0 0  9993
2 44624   0.0885 308.2761 0003311 198.7940 273.7692  1.00272789 25072
EUTELSAT KONNECT        
1 45027U 20005B   26233.19849194  .00000047  00000+0  00000+0 0  9995
2 45027   0.0647  98.9923 0002091 121.5267 187.6409  1.00270840 24983
EUTELSAT QUANTUM        
1 49056U 21069B   26233.25253007  .00000124  00000+0  00000+0 0  9997
2 49056   0.0136 272.1754 0002377 232.7589 323.2450  1.00270603 18589
EUTELSAT KONNECT VHTS   
1 53765U 22110A   26233.19762528  .00000015  00000+0  00000+0 0  9992
2 53765   0.0543 103.0485 0003183  19.5866 280.7310  1.00273069  7489
EUTELSAT HOTBIRD 13F    
1 54048U 22134A   26233.19970529  .00000085  00000+0  00000+0 0  9992
2 54048   0.0550 288.1589 0002013  80.2686  45.9697  1.00272664 14025
EUTELSAT HOTBIRD 13G    
1 54225U 22146A   26233.19970529  .00000085  00000+0  00000+0 0  9992
2 54225   0.0497 236.5393 0002047 297.0941 240.7553  1.00271818  8110
EUTELSAT 10B            
1 54259U 22157A   26233.19909861  .00000066  00000+0  00000+0 0  9991
2 54259   0.0554 100.5013 0001197 351.4926 319.2062  1.00271301 13674
EUTELSAT 36D            
1 59346U 24059A   26233.25808758  .00000154  00000+0  00000+0 0  9994
2 59346   0.0187 124.6587 0000166 325.3790   8.3073  1.00271330  8804
