EUTELSAT 139 WEST A     
1 28187U 04008A   26064.43362071 -.00000172  00000+0  00000+0 0  9991
2 28187   5.5656  73.2527 0001278  34.3937 176.3338  1.00833082 80316
EUTELSAT 174A           
1 28924U 05052A   26064.40379125  .00000003  00000+0  00000+0 0  9997
2 28924   3.9558  77.8159 0006282 270.6867 133.9801  1.00274091 51294
EUTELSAT 33F            
1 29270U 06032A   26064.58979473  .00000149  00000+0  00000+0 0  9993
2 29270   1.3940  83.4638 0003527 260.2706  64.9951  1.00269770 46265
EUTELSAT HOTBIRD 13C    
1 33459U 08065A   26064.50191434 -.00000289  00000+0  00000+0 0  9996
2 33459   2.6839  80.4357 0003809 272.4413 300.7304  1.00274207 46307
EUTELSAT 36B            
1 36101U 09065A   26064.59326142  .00000105  00000+0  00000+0 0  9995
2 36101   0.2299  77.6578 0005869 269.9759  79.7309  1.00272366 59668
EUTELSAT KA-SAT 9A      
1 37258U 10069A   26064.58476806  .00000054  00000+0  00000+0 0  9990
2 37258   0.0577 354.8090 0002367 148.9637 239.0608  1.00270594 42968
EUTELSAT 7 WEST A       
1 37816U 11051A   26064.57980477 -.00000068  00000+0  00000+0 0  9991
2 37816   0.0698  10.9041 0001082 229.5232 124.2872  1.00272059 52831
EUTELSAT 16A            
1 37836U 11057A   26064.58641472  .00000096  00000+0  00000+0 0  9999
2 37836   0.0563 355.8198 0005474 350.5935  43.9963  1.00272044  6293
EUTELSAT 21B            
1 38992U 12062B   26064.58754140  .00000123  00000+0  00000+0 0  9998
2 38992   0.0685   0.4948 0002847 341.0960  54.8206  1.00272113 48780
EUTELSAT 70B            
1 39020U 12069A   26064.55705715 -.00000051  00000+0  00000+0 0  9990
2 39020   0.0665 341.3907 0002078 342.7843 110.1540  1.00271558 48461
EUTELSAT 117 WEST A     
1 39122U 13012A   26064.56006794 -.00000020  00000+0  00000+0 0  9990
2 39122   0.0513 294.3375 0002922  52.8938 260.8702  1.00271196 47396
EUTELSAT 7B             
1 39163U 13022A   26064.58459472  .00000041  00000+0  00000+0 0  9995
2 39163   0.0691 353.9238 0006321   1.0237  25.7993  1.00272799 46909
EXPRESS-AT1             
1 39612U 14010A   26064.59430142  .00000072  00000+0  00000+0 0  9990
2 39612   0.0209 249.7224 0000543  19.9386 163.5899  1.00271748 43774
EXPRESS-AT2             
1 39613U 14010B   26064.46828752  .00000000  00000+0  00000+0 0  9996
2 39613   0.0208 154.7531 0001014 113.1024 203.7983  1.00270074 43468
EUTELSAT 3B             
1 39773U 14030A   26064.58381471  .00000012  00000+0  00000+0 0  9993
2 39773   0.0642 339.0880 0000861 297.6457  99.8491  1.00271890 43026
EUTELSAT 115 WEST B     
1 40425U 15010B   26064.27892081 -.00000033  00000+0  00000+0 0  9992
2 40425   0.0290  16.3684 0000180  73.5386  58.6084  1.00272581 40356
EUTELSAT 8 WEST B       
1 40875U 15039B   26064.58095536 -.00000073  00000+0  00000+0 0  9990
2 40875   0.0671 359.7810 0003811 344.9033  19.7666  1.00271717 38611
EUTELSAT 9B             
1 41310U 16005A   26064.58476806  .00000055  00000+0  00000+0 0  9991
2 41310   0.0285  62.5100 0004020 262.5675  57.7507  1.00277735 37079
EUTELSAT 65 WEST A      
1 41382U 16014A   26064.57029465 -.00000284  00000+0  00000+0 0  9999
2 41382   0.0729  43.1944 0002206 299.3209 320.8970  1.00271989 36495
EUTELSAT 117 WEST B     
1 41589U 16038B   26064.56006794 -.00000019  00000+0  00000+0 0  9999
2 41589   0.0193 306.2719 0000432 272.9958  28.6563  1.00271324 35627
EUTELSAT 172B           
1 42741U 17029B   26064.57475458 -.00000013  00000+0  00000+0 0  9993
2 42741   0.0205 151.0695 0000067 182.1989 208.9285  1.00272517 32706
EUTELSAT 7C             
1 44334U 19034B   26064.58459472  .00000039  00000+0  00000+0 0  9997
2 44334   0.0718 182.1059 0003530 148.9603  49.6649  1.00265066  5799
EUTELSAT 5 WEST B       
1 44624U 19067A   26064.58640891 -.00000050  00000+0  00000+0 0  9996
2 44624   0.0927 311.8257 0003206  42.8779  14.6903  1.00272887 23390
EUTELSAT KONNECT        
1 45027U 20005B   26064.58468139  .00000042  00000+0  00000+0 0  9991
2 45027   0.0665  98.0151 0001074 226.1006  56.8694  1.00271419 23299
EUTELSAT QUANTUM        
1 49056U 21069B   26064.44991411  .00000118  00000+0  00000+0 0  9991
2 49056   0.0432 315.3835 0002890  26.0728  31.3837  1.00272758 16887
EUTELSAT KONNECT VHTS   
1 53765U 22110A   26064.58372804  .00000011  00000+0  00000+0 0  9997
2 53765   0.0578 103.6287 0002697 225.5912  46.9301  1.00282119  5793
EUTELSAT HOTBIRD 13F    
1 54048U 22134A   26064.58580806  .00000080  00000+0  00000+0 0  9997
2 54048   0.0565 296.5561 0002066  64.5381  26.0962  1.00272268 12336
EUTELSAT HOTBIRD 13G    
1 54225U 22146A   26064.58580806  .00000080  00000+0  00000+0 0  9997
2 54225   0.0464 228.8942 0001946 311.5854 206.7156  1.00271904  6429
EUTELSAT 10B            
1 54259U 22157A   26064.38169781  .00000059  00000+0  00000+0 0  9995
2 54259   0.0569 103.0644 0001051 343.0358 224.3766  1.00267851 11987
EUTELSAT 36D            
1 59346U 24059A   26064.59031475  .00000148  00000+0  00000+0 0  9990
2 59346   0.0032 166.9613 0000222 206.2153  38.5009  1.00270621  7103
