QIANFAN-1               
1 60379U 24140A   26106.78611029  .00000043  00000+0  48549-4 0  9995
2 60379  88.9678 286.3163 0016643 208.2428 151.7822 13.51003113 84239
QIANFAN-2               
1 60380U 24140B   26106.81475546  .00000044  00000+0  49493-4 0  9993
2 60380  88.9664 286.1353 0012840 177.6902 182.4311 13.51002542 84291
QIANFAN-3               
1 60381U 24140C   26106.82300627  .00000055  00000+0  66229-4 0  9990
2 60381  88.9657 286.2577 0013552 190.9520 169.1338 13.51003426 84202
QIANFAN-4               
1 60382U 24140D   26106.79840591  .00000051  00000+0  60682-4 0  9999
2 60382  88.9682 286.1894 0012977 180.4921 179.6219 13.51004864 84325
QIANFAN-5               
1 60383U 24140E   26106.77368499  .00000042  00000+0  46788-4 0  9991
2 60383  88.9656 286.2880 0014458 203.3384 156.7112 13.51005311 84187
QIANFAN-6               
1 60384U 24140F   26106.79427595  .00000039  00000+0  41550-4 0  9995
2 60384  88.9683 286.0656 0012902 186.4990 173.5996 13.51005554 84381
QIANFAN-7               
1 60385U 24140G   26106.77733095  .00000188  00000+0  70168-4 0  9991
2 60385  88.9714 279.0081 0014545 358.2881   1.8261 14.27789835 88235
QIANFAN-8               
1 60386U 24140H   26106.80244648  .00000035  00000+0  35339-4 0  9999
2 60386  88.9684 286.3042 0016259 190.3857 169.6960 13.51007160 84237
QIANFAN-9               
1 60387U 24140J   26106.77790811  .00000128  00000+0  17972-3 0  9999
2 60387  88.9682 286.3796 0015974 190.0919 169.9914 13.51007811 84214
QIANFAN-10              
1 60388U 24140K   26106.78198198  .00000050  00000+0  59157-4 0  9997
2 60388  88.9693 285.7385 0015153 166.9960 193.1585 13.51000467 84348
QIANFAN-11              
1 60389U 24140L   26106.81892052  .00000045  00000+0  50574-4 0  9990
2 60389  88.9618 286.2284 0014019 188.8016 171.2892 13.51007286 84002
QIANFAN-12              
1 60390U 24140M   26106.83956385  .00000037  00000+0  39068-4 0  9990
2 60390  88.9661 286.3244 0012585 196.4389 163.6355 13.51004822 84139
QIANFAN-13              
1 60391U 24140N   26106.81072228  .00000031  00000+0  29883-4 0  9992
2 60391  88.9673 286.4426 0012329 199.1984 160.8704 13.51004992 84150
QIANFAN-14              
1 60392U 24140P   26106.83533652  .00000047  00000+0  53453-4 0  9995
2 60392  88.9652 286.3110 0015984 200.8171 159.2331 13.51005518 84169
QIANFAN-15              
1 60393U 24140Q   26106.76961751  .00000027  00000+0  22538-4 0  9991
2 60393  88.9676 286.3040 0012243 184.8078 175.2957 13.51008301 84143
QIANFAN-16              
1 60394U 24140R   26106.83131113  .00000055  00000+0  66823-4 0  9997
2 60394  88.9679 286.4214 0013820 204.0216 156.0292 13.51002120 84065
QIANFAN-17              
1 60395U 24140S   26106.82711043  .00000046  00000+0  52999-4 0  9992
2 60395  88.9690 286.4815 0014408 197.6610 162.4042 13.51008271 85028
QIANFAN-18              
1 60396U 24140T   26106.80661197  .00000041  00000+0  45390-4 0  9997
2 60396  88.9683 286.0082 0014300 179.8278 180.2881 13.51007453 84418
QIANFAN-19              
1 61552U 24185A   26106.87915970  .00000318  00000+0  15905-3 0  9994
2 61552  88.9817  63.5735 0004411 262.6173  97.4513 14.14429259 87351
QIANFAN-20              
1 61553U 24185B   26106.82748759  .00000318  00000+0  17581-3 0  9991
2 61553  88.9812  64.0288 0004204 332.1195  27.9763 14.08975232 87101
QIANFAN-21              
1 61554U 24185C   26106.87418698  .00000429  00000+0  18513-3 0  9992
2 61554  88.9736  62.2952 0009296 328.7402  31.3236 14.22786870 87763
QIANFAN-22              
1 61555U 24185D   26106.87296073  .00000261  00000+0  21439-3 0  9999
2 61555  88.9796  65.5102 0006110 356.5653   3.5475 13.86361693 86274
QIANFAN-23              
1 61556U 24185E   26106.88970183  .00000384  00000+0  18591-3 0  9993
2 61556  88.9810  63.3233 0005132 278.4622  81.5984 14.16446015 87463
QIANFAN-24              
1 61557U 24185F   26106.84145773  .00000329  00000+0  13731-3 0  9999
2 61557  88.9794  62.5299 0006537 246.4130 113.6376 14.23994937 87828
QIANFAN-25              
1 61558U 24185G   26106.83918483  .00000194  00000+0  11006-3 0  9998
2 61558  88.9802  64.0045 0008054 307.1225  52.9221 14.06031550 87087
QIANFAN-26              
1 61559U 24185H   26106.87482723  .00000137  00000+0  12392-3 0  9992
2 61559  88.9802  66.2181 0006224  15.3566 344.7788 13.77884738 85906
QIANFAN-27              
1 61560U 24185J   26106.87966213  .00000430  00000+0  16913-3 0  9994
2 61560  88.9805  62.2465 0005356 227.0999 132.9747 14.27489184 88018
QIANFAN-28              
1 61561U 24185K   26106.86585281  .00000483  00000+0  18803-3 0  9994
2 61561  88.9823  62.2567 0004951 224.4023 135.6776 14.28295906 88033
QIANFAN-29              
1 61562U 24185L   26106.82857576  .00000125  00000+0  17444-3 0  9993
2 61562  88.9772  68.3564 0011602  55.0546 305.1693 13.51061079 84686
QIANFAN-30              
1 61563U 24185M   26106.89828683  .00000097  00000+0  13401-3 0  9995
2 61563  88.9793  67.9226 0009207  44.6678 315.5213 13.50032919 84951
QIANFAN-31              
1 61564U 24185N   26106.86838742  .00000121  00000+0  15108-3 0  9994
2 61564  88.9777  67.5288 0008462  37.8705 322.3044 13.58019235 85149
QIANFAN-32              
1 61565U 24185P   26106.87176449  .00000070  00000+0  90347-4 0  9997
2 61565  88.9835  68.0978 0011815  66.2371 294.0018 13.50774793 84939
QIANFAN-33              
1 61566U 24185Q   26106.85615477  .00000202  00000+0  13591-3 0  9997
2 61566  88.9795  64.8313 0005318 310.4639  49.6073 13.96657622 86628
QIANFAN-34              
1 61567U 24185R   26106.87898506  .00000370  00000+0  23202-3 0  9992
2 61567  88.9773  64.2265 0003886 323.3615  36.7299 14.02421431 86891
QIANFAN-35              
1 61568U 24185S   26106.84019569  .00000464  00000+0  18044-3 0  9996
2 61568  88.9804  62.1675 0004347 218.3469 141.7417 14.28192082 88034
QIANFAN-36              
1 61569U 24185T   26106.85256817  .00000078  00000+0  94632-4 0  9996
2 61569  88.9769  67.9836 0007928  50.6574 309.5281 13.55621313 84873
QIANFAN-37              
1 62238U 24232B   26106.78953933  .00000113  00000+0  15712-3 0  9999
2 62238  89.0109  28.7323 0002808  79.4049 280.7418 13.51014566116051
QIANFAN-38              
1 62239U 24232C   26106.81423662  .00000139  00000+0  19711-3 0  9996
2 62239  89.0116  28.6542 0013607 186.0166 174.0824 13.51013171116110
QIANFAN-39              
1 62240U 24232D   26106.79922447  .00000370  00000+0  15040-3 0  9998
2 62240  89.0104  23.0394 0017835  35.3631 324.8741 14.25481860119205
QIANFAN-40              
1 62241U 24232E   26106.84716056  .00000138  00000+0  19452-3 0  9995
2 62241  89.0144  28.2706 0012380 193.8966 166.1846 13.51012665116486
QIANFAN-41              
1 62242U 24232F   26106.78133352  .00000123  00000+0  17172-3 0  9992
2 62242  89.0114  28.6068 0013175 181.6081 178.5030 13.51014057116136
QIANFAN-42              
1 62243U 24232G   26106.80657826  .00000357  00000+0  14734-3 0  9993
2 62243  89.0102  23.1043 0016863  41.4429 318.8039 14.24573081119176
QIANFAN-43              
1 62244U 24232H   26106.85123852  .00000127  00000+0  17866-3 0  9990
2 62244  89.0119  28.6706 0014500 187.7982 172.2946 13.51013931 84751
QIANFAN-44              
1 62245U 24232J   26106.83896881  .00000121  00000+0  16949-3 0  9993
2 62245  89.0117  28.4807 0012849 183.6845 176.4213 13.51011774116221
QIANFAN-45              
1 62246U 24232K   26106.80597035  .00000114  00000+0  15761-3 0  9993
2 62246  89.0120  28.6348 0013519 183.7992 176.3058 13.51015498116141
QIANFAN-46              
1 62247U 24232L   26106.83070191  .00000112  00000+0  15502-3 0  9997
2 62247  89.0117  28.6962 0013378 189.6512 170.4384 13.51012382116108
QIANFAN-47              
1 62248U 24232M   26106.83481950  .00000120  00000+0  16784-3 0  9999
2 62248  89.0113  28.6238 0013839 188.9578 171.1328 13.51012265116136
QIANFAN-48              
1 62249U 24232N   26106.79779157  .00000121  00000+0  16884-3 0  9996
2 62249  89.0116  28.6342 0015963 192.9176 167.1568 13.51012487116132
QIANFAN-49              
1 62250U 24232P   26106.78547830  .00000126  00000+0  17620-3 0  9992
2 62250  89.0115  28.6469 0013242 185.7132 174.3870 13.51011793 84727
QIANFAN-50              
1 62251U 24232Q   26106.81012277  .00000131  00000+0  18348-3 0  9993
2 62251  89.0121  28.6594 0014845 187.9896 172.1021 13.51012779 84757
QIANFAN-51              
1 62252U 24232R   26106.79367161  .00000115  00000+0  15880-3 0  9996
2 62252  89.0115  28.6473 0012247 190.5536 169.5359 13.51013200 84745
QIANFAN-52              
1 62253U 24232S   26106.82259801  .00000124  00000+0  17369-3 0  9996
2 62253  89.0111  28.5133 0014503 183.4085 176.6970 13.51009722 84833
QIANFAN-53              
1 62254U 24232T   26106.80190382  .00000126  00000+0  17660-3 0  9999
2 62254  89.0118  28.6291 0013351 183.9894 176.1153 13.51012499 84798
QIANFAN-54              
1 62255U 24232U   26106.84307505  .00000126  00000+0  17609-3 0  9994
2 62255  89.0110  28.2928 0000757 150.2245 209.8949 13.51012204116301
QIANFAN-55              
1 62785U 25016A   26106.86921888  .00000041  00000+0  44878-4 0  9996
2 62785  88.9693  90.2364 0017138 354.5471   5.5491 13.51007829 64084
QIANFAN-56              
1 62786U 25016B   26106.88570731  .00000018  00000+0  89619-5 0  9993
2 62786  88.9667  90.0374 0015898 357.4858   2.6210 13.51000181 64134
QIANFAN-57              
1 62787U 25016C   26106.84454752  .00000022  00000+0  14971-4 0  9997
2 62787  88.9698  90.2343 0002699 100.8072 259.3383 13.51007212 64099
QIANFAN-58              
1 62788U 25016D   26106.88979809  .00000024  00000+0  18756-4 0  9994
2 62788  88.9668  90.0227 0013516 351.1146   8.9763 13.51000966 64144
QIANFAN-59              
1 62789U 25016E   26106.84033147  .00000023  00000+0  16802-4 0  9996
2 62789  88.9692  90.1311 0014040 354.8075   5.2928 13.51009097 64137
QIANFAN-60              
1 62790U 25016F   26106.79911928  .00000025  00000+0  19808-4 0  9995
2 62790  88.9673  90.0830 0015431 350.4559   9.6297 13.51011093 64111
QIANFAN-61              
1 62791U 25016G   26106.83213674  .00000024  00000+0  18412-4 0  9993
2 62791  88.9739  90.3276 0014342 350.3193   9.7679 13.51007539 64132
QIANFAN-62              
1 62792U 25016H   26106.83632959  .00000030  00000+0  27717-4 0  9990
2 62792  88.9686  90.1281 0015723 349.9201  10.1633 13.51006078 64128
QIANFAN-63              
1 62793U 25016J   26106.78687476  .00000035  00000+0  35968-4 0  9991
2 62793  88.9693  90.0931 0016002 355.4330   4.6673 13.51008627 64151
QIANFAN-64              
1 62794U 25016K   26106.82802609  .00000019  00000+0  10907-4 0  9992
2 62794  88.9680  90.0460 0013666 349.3818  10.7042 13.51007219 64155
QIANFAN-65              
1 62795U 25016L   26106.82380375  .00000023  00000+0  16582-4 0  9994
2 62795  88.9676  90.0681 0013597 351.2187   8.8724 13.51004167 64132
QIANFAN-66              
1 62796U 25016M   26106.77869737  .00000021  00000+0  14278-4 0  9991
2 62796  88.9696  90.0675 0014503 346.2398  13.8356 13.51008637 64171
QIANFAN-67              
1 62797U 25016N   26106.78282550  .00000023  00000+0  17112-4 0  9997
2 62797  88.9686  90.0804 0014752 353.2425   6.8525 13.51008797 64144
QIANFAN-68              
1 62798U 25016P   26106.84859848  .00000025  00000+0  20684-4 0  9995
2 62798  88.9690  90.1232 0014733 351.2483   8.8409 13.51007342 64134
QIANFAN-69              
1 62799U 25016Q   26106.79099069  .00000032  00000+0  31129-4 0  9995
2 62799  88.9669  89.9718 0015529 352.0263   8.0639 13.51007582 64161
QIANFAN-70              
1 62800U 25016R   26106.88152157  .00000023  00000+0  17345-4 0  9990
2 62800  88.9689  90.1272 0014739 342.1335  17.9297 13.51008988 64134
QIANFAN-71              
1 62801U 25016S   26106.87745203  .00000024  00000+0  18718-4 0  9996
2 62801  88.9683  90.0995 0015570 355.3862   4.7143 13.51008775 64133
QIANFAN-72              
1 62802U 25016T   26106.81986602  .00000016  00000+0  66312-5 0  9996
2 62802  88.9673  90.1067 0019101   1.2848 358.8349 13.51007441 64117
QIANFAN-73              
1 63159U 25046A   26106.84687729  .00000079  00000+0  10263-3 0  9997
2 63159  88.9689 307.0776 0016566 118.5376 241.7445 13.50992850 64301
QIANFAN-74              
1 63160U 25046B   26106.83030304  .00000087  00000+0  11637-3 0  9994
2 63160  88.9689 306.9683 0001940  83.1363 277.0009 13.51007187 64366
QIANFAN-75              
1 63161U 25046C   26106.81809867  .00000024  00000+0  17573-4 0  9998
2 63161  88.9691 307.2053 0017671 121.7398 238.5478 13.51012883 64237
QIANFAN-76              
1 63162U 25046D   26106.81385382  .00000146  00000+0  20771-3 0  9998
2 63162  88.9691 307.1853 0015185 121.6613 238.6021 13.51003272 64240
QIANFAN-77              
1 63163U 25046E   26106.82164956  .00000073  00000+0  43401-4 0  9997
2 63163  88.9691 304.1608 0016569  55.0684 305.2046 13.96187056 65905
QIANFAN-78              
1 63164U 25046F   26106.85499823  .00000138  00000+0  19411-3 0  9990
2 63164  88.9690 307.0438 0016497 123.9551 236.3171 13.51002470 64321
QIANFAN-79              
1 63165U 25046G   26106.80976677  .00000086  00000+0  11468-3 0  9999
2 63165  88.9693 307.1609 0016361 122.4724 237.8011 13.51001844 64268
QIANFAN-80              
1 63166U 25046H   26106.82621282  .00000025  00000+0  19841-4 0  9998
2 63166  88.9691 306.8627 0015120 126.1409 234.1144 13.51003604 64427
QIANFAN-81              
1 63167U 25046J   26106.80530646 -.00000007  00000+0 -29239-4 0  9994
2 63167  88.9689 306.9326 0016300 116.9231 243.3587 13.50966264 64379
QIANFAN-82              
1 63168U 25046K   26106.83854696  .00000036  00000+0  36275-4 0  9990
2 63168  88.9691 306.9731 0014337 122.4338 237.8202 13.51005366 64360
QIANFAN-83              
1 63169U 25046L   26106.81009671  .00000068  00000+0  71365-4 0  9998
2 63169  88.9692 306.5062 0016034 103.4714 256.8231 13.62031240 64622
QIANFAN-84              
1 63170U 25046M   26106.79501669  .00000138  00000+0  19494-3 0  9993
2 63170  88.9690 307.1106 0017458 120.1347 240.1537 13.51020193 64287
QIANFAN-85              
1 63171U 25046N   26106.78930132 -.00000001  00000+0 -20366-4 0  9996
2 63171  88.9688 306.9817 0014734 121.8170 238.4418 13.50991067 64359
QIANFAN-86              
1 63172U 25046P   26106.79743601  .00000008  00000+0 -69301-5 0  9990
2 63172  88.9691 306.8457 0012480 124.8142 235.4185 13.50998841 64435
QIANFAN-87              
1 63173U 25046Q   26106.76862575  .00000097  00000+0  13099-3 0  9998
2 63173  88.9689 306.9558 0013285 120.9426 239.3033 13.50992127 64360
QIANFAN-88              
1 63174U 25046R   26106.78503373  .00000038  00000+0  39944-4 0  9992
2 63174  88.9691 306.9119 0013524 128.1478 232.0894 13.51003891 64390
QIANFAN-89              
1 63175U 25046S   26106.82213175  .00000001  00000+0 -18116-4 0  9995
2 63175  88.9690 307.0969 0018153 120.6954 239.5988 13.50999690 64299
QIANFAN-90              
1 63176U 25046T   26106.85090712  .00000122  00000+0  16947-3 0  9991
2 63176  88.9691 307.0666 0015217 118.7063 241.5620 13.51003187 64319
QIANFAN-91              
1 66033U 25233A   26106.58714648  .00000073  00000+0  93851-4 0  9990
2 66033  89.0001  49.4069 0002515  78.7524 281.3910 13.51010496 24860
QIANFAN-92              
1 66034U 25233B   26106.59528032  .00000064  00000+0  79793-4 0  9991
2 66034  88.9985  49.3879 0002319  80.8131 279.3282 13.51011238 24862
QIANFAN-93              
1 66035U 25233C   26106.38134505  .00000081  00000+0  10737-3 0  9998
2 66035  89.0012  49.4447 0002484  79.8714 280.2717 13.51010906 24838
QIANFAN-94              
1 66036U 25233D   26106.59126561  .00000066  00000+0  83646-4 0  9998
2 66036  89.0009  49.3289 0002334  77.4580 282.6832 13.51010370 24915
QIANFAN-95              
1 66037U 25233E   26106.59933501  .00000078  00000+0  10188-3 0  9992
2 66037  89.0006  48.8735 0002519  75.7524 284.3907 13.51004031 25164
QIANFAN-96              
1 66038U 25233F   26106.55009969  .00000074  00000+0  95524-4 0  9995
2 66038  89.0004  49.4232 0002578  78.6615 281.4826 13.51010441 24855
QIANFAN-97              
1 66039U 25233G   26106.53364819  .00000081  00000+0  10753-3 0  9990
2 66039  89.0007  49.4069 0002491  79.1353 281.0079 13.51009712 24862
QIANFAN-98              
1 66040U 25233H   26106.54179814  .00000080  00000+0  10492-3 0  9991
2 66040  88.9997  49.1438 0002087  68.6215 291.5159 13.51010633 25004
QIANFAN-99              
1 66041U 25233J   26106.76814966  .00000073  00000+0  94511-4 0  9997
2 66041  89.0007  49.3868 0002275  70.7330 289.4067 13.51010479 24897
QIANFAN-100             
1 66042U 25233K   26106.53767612  .00000085  00000+0  11236-3 0  9993
2 66042  89.0019  49.3303 0002478  79.9346 280.2085 13.51011502 24918
QIANFAN-101             
1 66043U 25233L   26106.78822024  .00000237  00000+0  91687-4 0  9998
2 66043  89.0007  47.6033 0014752 354.7692   5.3346 14.26775518 25872
QIANFAN-102             
1 66044U 25233M   26106.55834477  .00000076  00000+0  99231-4 0  9993
2 66044  89.0005  49.3192 0002346  76.4799 283.6613 13.51010003 24918
QIANFAN-103             
1 66045U 25233N   26106.56241030  .00000078  00000+0  10219-3 0  9992
2 66045  89.0008  49.4122 0002504  79.9951 280.1482 13.51012052 24866
QIANFAN-104             
1 66046U 25233P   26106.78861505  .00000092  00000+0  12400-3 0  9992
2 66046  89.0013  49.2887 0002253  77.6207 282.5196 13.51005621 24940
QIANFAN-105             
1 66047U 25233Q   26106.57474819  .00000082  00000+0  10912-3 0  9993
2 66047  89.0026  49.1453 0002477  76.5531 283.5897 13.51012817 25023
QIANFAN-106             
1 66048U 25233R   26106.79280943  .00000083  00000+0  11029-3 0  9992
2 66048  88.9995  49.3554 0002149  70.3499 289.7883 13.51010930 24905
QIANFAN-107             
1 66049U 25233S   26106.57894387  .00000076  00000+0  99376-4 0  9996
2 66049  89.0010  49.3996 0002424  79.6461 280.4963 13.51008928 24870
QIANFAN-108             
1 66050U 25233T   26106.58300196  .00000084  00000+0  11228-3 0  9997
2 66050  89.0003  49.3913 0002142  71.4817 288.6567 13.51010454 24872
QIANFAN GROUP 7 OBJECT A
1 68636U 26075A   26106.87773350  .00000263  00000+0  11425-3 0  9990
2 68636  88.9912 327.6413 0014240 183.3207 176.7892 14.21196381  1321
QIANFAN GROUP 7 OBJECT B
1 68637U 26075B   26106.87543228  .00000252  00000+0  10811-3 0  9996
2 68637  88.9919 327.6414 0014435 182.8373 177.2739 14.21657863  1327
QIANFAN GROUP 7 OBJECT C
1 68638U 26075C   26106.59223638  .00000068  00000+0  24480-4 0  9999
2 68638  88.9884 327.6762 0016036 181.6188 178.4954 14.21284201  1284
QIANFAN GROUP 7 OBJECT D
1 68639U 26075D   26106.87388950  .00000450  00000+0  20112-3 0  9992
2 68639  88.9911 327.6409 0014381 183.1926 176.9175 14.20963117  1324
QIANFAN GROUP 7 OBJECT E
1 68640U 26075E   26106.87172584  .00000344  00000+0  14925-3 0  9995
2 68640  88.9911 327.6406 0014477 183.4928 176.6164 14.21984019  1324
QIANFAN GROUP 7 OBJECT F
1 68641U 26075F   26105.60386685  .00000175  00000+0  66965-4 0  9999
2 68641  88.9914 327.7859 0014369 189.1345 170.9590 14.26051393  1142
QIANFAN GROUP 7 OBJECT G
1 68642U 26075G   26106.72786029  .00000070  00000+0  24409-4 0  9991
2 68642  88.9916 327.6570 0014984 183.1473 176.9627 14.23787133  1303
QIANFAN GROUP 7 OBJECT H
1 68643U 26075H   26106.58709707 -.00000484  00000+0 -22004-3 0  9993
2 68643  88.9909 327.6710 0014629 184.2778 175.8291 14.23339702  1285
QIANFAN GROUP 7 OBJECT J
1 68644U 26075J   26106.65673186 -.00665190  00000+0 -31162+0 0  9995
2 68644  88.9910 327.6632 0014006 189.2081 170.8857 14.23240498  1299
QIANFAN GROUP 7 OBJECT K
1 68645U 26075K   26104.89922029 -.01877882  00000+0 -84869+0 0  9999
2 68645  88.9911 327.8671 0018679 181.3174 178.7974 14.25853296  1040
QIANFAN GROUP 7 OBJECT L
1 68646U 26075L   26105.60314808  .00000237  00000+0  93013-4 0  9995
2 68646  88.9909 327.7856 0014041 188.4862 171.6097 14.26073306  1149
QIANFAN GROUP 7 OBJECT M
1 68647U 26075M   26105.60293881  .00001456  00000+0  60330-3 0  9992
2 68647  88.9914 327.7858 0014164 189.1392 170.9545 14.26073140  1146
QIANFAN GROUP 7 OBJECT N
1 68648U 26075N   26106.16414391 -.00038385  00000+0 -16175-1 0  9995
2 68648  88.9933 327.7254 0015280 197.6535 162.4130 14.26020475  1229
QIANFAN GROUP 7 OBJECT P
1 68649U 26075P   26105.60271023  .00000437  00000+0  17474-3 0  9997
2 68649  88.9915 327.7859 0014343 187.9674 172.1294 14.26625498  1142
QIANFAN GROUP 7 OBJECT Q
1 68650U 26075Q   26103.49848635  .00000277  00000+0  10849-3 0  9994
2 68650  88.9919 328.0293 0013880 195.9771 164.0987 14.26674836   841
QIANFAN GROUP 7 OBJECT R
1 68651U 26075R   26105.60266193  .00000228  00000+0  88500-4 0  9999
2 68651  88.9915 327.7857 0014311 188.0255 172.0712 14.26629177  1147
QIANFAN GROUP 7 OBJECT S
1 68652U 26075S   26105.60261769  .00001023  00000+0  41747-3 0  9999
2 68652  88.9915 327.7856 0014061 188.1261 171.9708 14.26640393  1143
QIANFAN GROUP 7 OBJECT T
1 68653U 26075T   26105.81300241  .00000248  00000+0  96406-4 0  9993
2 68653  88.9914 327.7614 0014182 188.1152 171.9815 14.26682362  1172
