KUIPER-00008            
1 63724U 25088A   26139.37213403 -.00000692  00000+0 -61987-4 0  9992
2 63724  51.8995 135.4488 0000975  84.8821 275.2252 14.79830708 58517
KUIPER-00009            
1 63725U 25088B   26139.45471904  .00001119  00000+0  17566-3 0  9990
2 63725  51.9020 152.7051 0000231 107.7877 252.3111 14.79939345 58277
KUIPER-00010            
1 63726U 25088C   26139.41142375  .00001116  00000+0  17542-3 0  9995
2 63726  51.9008 130.3710 0000472  56.7025 303.3982 14.79930012 58201
KUIPER-00011            
1 63727U 25088D   26139.36960873  .00000537  00000+0  99455-4 0  9991
2 63727  51.8995 138.1130 0000522  45.7391 314.3615 14.79929709 58226
KUIPER-00012            
1 63728U 25088E   26139.21687596 -.00005554  00000+0 -69966-3 0  9993
2 63728  51.8999 123.7159 0000630  96.5579 263.5456 14.79957555 58367
KUIPER-00013            
1 63729U 25088F   26139.41820096  .00000765  00000+0  12934-3 0  9990
2 63729  51.9007 155.3447 0000639 339.0885  21.0051 14.79941435 58047
KUIPER-00014            
1 63730U 25088G   26139.24938380  .00001020  00000+0  16272-3 0  9993
2 63730  51.9011 156.0341 0000056 108.9865 251.1103 14.79934681 57834
KUIPER-00015            
1 63731U 25088H   26139.33995214  .00000727  00000+0  12432-3 0  9990
2 63731  51.8983 165.7101 0000378  60.3587 299.7413 14.79927895 58160
KUIPER-00016            
1 63732U 25088J   26139.31436977  .00001444  00000+0  21851-3 0  9997
2 63732  51.8991 158.2710 0000211  49.7523 310.3458 14.79898355 57807
KUIPER-00018            
1 63733U 25088K   26139.29123902  .00001480  00000+0  22305-3 0  9991
2 63733  51.9024 148.3858 0000488  79.4417 280.6601 14.79944855 57948
KUIPER-00019            
1 63734U 25088L   26139.31785269  .00001384  00000+0  21064-3 0  9999
2 63734  51.8985 147.0393 0000819 158.0433 202.0564 14.79913102 57963
KUIPER-00020            
1 63735U 25088M   26139.22106037  .00000466  00000+0  90139-4 0  9990
2 63735  51.9003 151.2087 0000857 340.4132  19.6797 14.79933805 58107
KUIPER-00021            
1 63736U 25088N   26139.32232388  .00000997  00000+0  15978-3 0  9997
2 63736  51.9005 150.7224 0001189  62.5300 297.5783 14.79939773 57959
KUIPER-00023            
1 63737U 25088P   26139.42092932  .00000873  00000+0  14359-3 0  9993
2 63737  51.8999 152.7738 0000603  74.9611 285.1418 14.79910221 58232
KUIPER-00024            
1 63738U 25088Q   26139.43440036  .00000759  00000+0  12857-3 0  9991
2 63738  51.9021 140.2999 0000492  64.4268 295.6746 14.79937802 58536
KUIPER-00025            
1 63739U 25088R   26139.32499399  .00000425  00000+0  84764-4 0  9993
2 63739  51.9019 148.2637 0000463  45.2098 314.8902 14.79928525 58278
KUIPER-00027            
1 63740U 25088S   26139.29663906  .00000513  00000+0  96360-4 0  9991
2 63740  51.9004 143.3681 0000496  67.0596 293.0419 14.79926860 58079
KUIPER-00028            
1 63741U 25088T   26139.40064174  .00000390  00000+0  80215-4 0  9992
2 63741  51.8989 140.3672 0000492  69.9393 290.1622 14.79927187 58538
KUIPER-00029            
1 63742U 25088U   26139.28758873  .00001053  00000+0  17942-3 0  9998
2 63742  51.9009 139.3201 0002665  72.3484 287.7767 14.76731761 58060
KUIPER-00030            
1 63743U 25088V   26139.41540921  .00000970  00000+0  15630-3 0  9996
2 63743  51.9007 157.8029 0000633  82.9460 277.1574 14.79911191 58100
KUIPER-00031            
1 63744U 25088W   26139.31961248  .00000894  00000+0  15818-3 0  9998
2 63744  51.8998 141.7531 0001368  32.5903 327.5142 14.76365043 58037
KUIPER-00032            
1 63745U 25088X   26139.15029147  .00010449  00000+0  27337-3 0  9990
2 63745  51.8683  42.9352 0004990  28.1381 331.9875 15.39303403 60393
KUIPER-00033            
1 63746U 25088Y   26139.50062449  .00001328  00000+0  20312-3 0  9994
2 63746  51.9002 172.4528 0000353  84.9027 275.1976 14.79943822 58105
KUIPER-00034            
1 63747U 25088Z   26139.27100616  .00000387  00000+0  79705-4 0  9993
2 63747  51.9003 135.9957 0000487  70.9263 289.1752 14.79929764 58276
KUIPER-00035            
1 63748U 25088AA  26139.44660741  .00000396  00000+0  80966-4 0  9994
2 63748  51.8995 160.2037 0000508  15.2107 344.8871 14.79939441 58004
KUIPER-00037            
1 63749U 25088AB  26139.32120391  .00001384  00000+0  19386-3 0  9999
2 63749  51.9005 159.7841 0000791   9.7202 350.3777 14.83549068 58781
KUIPER-00038            
1 63750U 25088AC  26139.42910552  .00001156  00000+0  18061-3 0  9994
2 63750  51.9010 145.2944 0000526  71.6901 288.4119 14.79919425 57999
KUIPER-00039            
1 64500U 25134A   26139.13146827  .00002020  00000+0  29381-3 0  9992
2 64500  51.9021 281.6083 0000639 130.4748 229.6271 14.79947204 50504
KUIPER-00040            
1 64501U 25134B   26139.42460218  .00001981  00000+0  28877-3 0  9992
2 64501  51.8983 290.4080 0001117 143.9812 216.1225 14.79929061 50409
KUIPER-00041            
1 64502U 25134C   26139.38808558  .00000185  00000+0  53321-4 0  9999
2 64502  51.8999 292.9505 0000722 106.0284 254.0757 14.79933331 50361
KUIPER-00042            
1 64503U 25134D   26139.42722108 -.00001196  00000+0 -12789-3 0  9998
2 64503  51.9011 287.7576 0000637 126.7635 233.3386 14.79925951 50448
KUIPER-00043            
1 64504U 25134E   26139.09773306  .00002261  00000+0  32536-3 0  9992
2 64504  51.9028 281.6974 0000444 125.5943 234.5061 14.79942453 50503
KUIPER-00044            
1 64505U 25134F   26138.47641002  .00002228  00000+0  32110-3 0  9992
2 64505  51.9000 296.9611 0000836  85.8528 274.2530 14.79939922 50232
KUIPER-00046            
1 64506U 25134G   26139.39076948  .00002166  00000+0  31286-3 0  9990
2 64506  51.8988 290.3998 0000554 123.2907 236.8109 14.79951862 50400
KUIPER-00047            
1 64507U 25134H   26139.31925507  .00002092  00000+0  30340-3 0  9995
2 64507  51.8998 263.2364 0000359  92.6596 267.4408 14.79928995 50777
KUIPER-00048            
1 64508U 25134J   26139.35288797  .00002085  00000+0  30226-3 0  9998
2 64508  51.8992 263.1009 0000421 130.3218 229.7781 14.79956409 50785
KUIPER-00049            
1 64509U 25134K   26139.10307862  .00002531  00000+0  36082-3 0  9999
2 64509  51.9010 276.6641 0000435 119.1473 240.9533 14.79945915 50579
KUIPER-00050            
1 64510U 25134L   26139.32452147  .00002194  00000+0  31665-3 0  9999
2 64510  51.9005 258.2087 0000455 119.0944 241.0064 14.79944583 50851
KUIPER-00051            
1 64511U 25134M   26139.33209609  .00001769  00000+0  28145-3 0  9990
2 64511  51.9004 274.1667 0001054 294.1597  65.9253 14.76603371 50629
KUIPER-00053            
1 64513U 25134P   26139.36908649  .00001563  00000+0  22502-3 0  9998
2 64513  51.9006 270.1117 0002056 103.9946 256.1245 14.81649633 50685
KUIPER-00054            
1 64514U 25134Q   26138.74244316  .00002337  00000+0  33539-3 0  9996
2 64514  51.8990 268.2823 0000592 117.0833 243.0190 14.79933742 50658
KUIPER-00055            
1 64515U 25134R   26139.50002315 -.00013310  00000+0 -17431-2 0  9990
2 64515  51.9002 217.5456 0000717 172.1166 175.9423 14.79383210  5058
KUIPER-00056            
1 64516U 25134S   26139.37858885  .00002191  00000+0  31634-3 0  9992
2 64516  51.9036 270.5442 0000428 123.0949 237.0054 14.79936206 50681
KUIPER-00057            
1 64517U 25134T   26139.37049571  .00001612  00000+0  24043-3 0  9990
2 64517  51.8974 278.0243 0000599 117.5595 242.5428 14.79927961 50570
KUIPER-00058            
1 64518U 25134U   26139.34212108 -.00000116  00000+0  13841-4 0  9990
2 64518  51.9021 273.1143 0000635 121.5243 238.5781 14.79934889 50648
KUIPER-00059            
1 64519U 25134V   26139.34751964  .00002145  00000+0  31022-3 0  9992
2 64519  51.9007 268.1361 0000555 115.5323 244.5697 14.79938189 50710
KUIPER-00060            
1 64520U 25134W   26139.38129066  .00003554  00000+0  49402-3 0  9996
2 64520  51.8986 268.0341 0000828  97.6298 262.4758 14.80016095 50709
KUIPER-00061            
1 64521U 25134X   26139.33856918  .00002263  00000+0  32652-3 0  9990
2 64521  51.9015 275.6783 0000541 125.5897 234.5116 14.79831859 50592
KUIPER-00062            
1 64522U 25134Y   26139.33671985 -.00005607  00000+0 -70699-3 0  9990
2 64522  51.8970 278.1956 0000267 135.0926 225.0058 14.79936821 50579
KUIPER-00063            
1 64523U 25134Z   26139.39617727  .00002135  00000+0  30892-3 0  9993
2 64523  51.9030 285.4530 0000581 112.0185 248.0840 14.79938483 50477
KUIPER-00064            
1 64524U 25134AA  26139.39886213  .00002138  00000+0  30937-3 0  9995
2 64524  51.9045 282.8643 0000597 110.1470 249.9556 14.79936526 50518
KUIPER-00065            
1 64525U 25134AB  26139.46101890 -.00000625  00000+0 -52949-4 0  9994
2 64525  51.9051 287.7556 0000637 104.8016 255.3017 14.79929575 50434
KUIPER-00066            
1 64526U 25134AC  26139.49464141  .00000015  00000+0  30981-4 0  9992
2 64526  51.9017 224.8939 0000042 345.3016  14.7945 14.79927792 51332
KUIPER-00069            
1 64816U 25151A   26139.55292369  .00000395  00000+0  80825-4 0  9994
2 64816  51.9046 327.2781 0000676 110.1790 249.9245 14.79935971 47258
KUIPER-00070            
1 64817U 25151B   26139.55971128  .00001961  00000+0  28619-3 0  9994
2 64817  51.9016 352.1695 0000823 113.9246 246.1803 14.79937239 46918
KUIPER-00071            
1 64818U 25151C   26139.29229631  .00001213  00000+0  18811-3 0  9994
2 64818  51.9019 350.8836 0000873 101.3820 258.7240 14.79935845 45721
KUIPER-00072            
1 64819U 25151D   26139.55021860  .00002168  00000+0  31341-3 0  9991
2 64819  51.8981 329.7056 0000878 124.2348 235.8697 14.79926849 46044
KUIPER-00073            
1 64820U 25151E   26139.32605980  .00002007  00000+0  29221-3 0  9995
2 64820  51.9010 350.7230 0000884 115.2363 244.8691 14.79937832 46916
KUIPER-00074            
1 64821U 25151F   26139.49144907  .00283058  00000+0  14771-2 0  9991
2 64821  51.8926 293.6028 0007166 270.8482  89.1702 15.79502464 46533
KUIPER-00075            
1 64822U 25151G   26139.25822413  .00021731  00000+0  47995-3 0  9994
2 64822  51.8663 237.7733 0003393 168.6779 191.4288 15.43792239 47297
KUIPER-00076            
1 64823U 25151H   26139.53948558  .00001943  00000+0  28380-3 0  9995
2 64823  51.9022 339.7957 0001271 120.2794 239.8294 14.79937130 45902
KUIPER-00077            
1 64824U 25151J   26139.53404889  .00000583  00000+0  10550-3 0  9999
2 64824  51.9033 344.8353 0000876 115.4582 244.6471 14.79931692 45833
KUIPER-00078            
1 64825U 25151K   26139.30038424 -.00002901  00000+0 -35179-3 0  9995
2 64825  51.9056 343.3504 0001005 121.0758 239.0303 14.79926785 45833
KUIPER-00079            
1 64826U 25151L   26139.53134755  .00000011  00000+0  30494-4 0  9999
2 64826  51.8992 347.2939 0000963 110.2494 249.8572 14.79929900 46993
KUIPER-00080            
1 64827U 25151M   26139.29499169  .00002015  00000+0  29319-3 0  9995
2 64827  51.9010 348.3498 0000867 119.8109 240.2940 14.79936032 45761
KUIPER-00082            
1 64828U 25151N   26139.27469059  .00005258  00000+0  71768-3 0  9996
2 64828  51.9042 335.9845 0000536 104.2485 255.8537 14.79960524 45939
KUIPER-00083            
1 64829U 25151P   26139.53674147  .00000688  00000+0  11920-3 0  9998
2 64829  51.9026 342.3124 0001037 111.2732 248.8341 14.79934560 47055
KUIPER-00084            
1 64830U 25151Q   26138.58053117  .00002561  00000+0  36486-3 0  9998
2 64830  51.8987 356.5242 0001427  83.7224 276.3900 14.79935439 45581
KUIPER-00085            
1 64831U 25151R   26139.51107288  .00001997  00000+0  29086-3 0  9992
2 64831  51.9054 334.9771 0000827 117.6248 242.4798 14.79930146 45962
KUIPER-00086            
1 64832U 25151S   26139.29769115  .00002128  00000+0  30803-3 0  9997
2 64832  51.9035 345.8777 0000836 111.5961 248.5090 14.79936894 45793
KUIPER-00087            
1 64833U 25151T   26139.51915164 -.00001572  00000+0 -17722-3 0  9999
2 64833  51.9007 327.3683 0000908 105.3504 254.7559 14.79936998 46063
KUIPER-00089            
1 64834U 25151U   26139.51375311  .00000030  00000+0  32897-4 0  9991
2 64834  51.9025 332.4090 0001144 106.7029 253.4059 14.79938670 46007
KUIPER-00090            
1 64835U 25151V   26139.52184534  .00001431  00000+0  21663-3 0  9992
2 64835  51.8957 324.8887 0001166 119.4168 240.6911 14.79933621 46106
KUIPER-00091            
1 64836U 25151W   26139.24529191 -.00003416  00000+0 -42030-3 0  9992
2 64836  51.9019 331.0977 0000450 168.2095 191.8878 14.79836119 45992
KUIPER-00092            
1 64837U 25151X   26139.50835547  .00001603  00000+0  23920-3 0  9998
2 64837  51.9026 337.4400 0000731 114.3003 245.8036 14.79944243 47148
KUIPER-00093            
1 64838U 25151Y   26138.83051369  .00008668  00000+0  11634-2 0  9992
2 64838  51.9096 342.9188 0000350 136.9062 223.1929 14.79973159 45799
KUIPER-00094            
1 64839U 25151Z   26139.44875167 -.00003817  00000+0 -24840-3 0  9998
2 64839  51.8874 297.0649 0006551 175.6686 184.4345 15.04703851 46494
KUIPER-00081            
1 65132U 25171A   26139.42571469  .00001523  00000+0  22868-3 0  9991
2 65132  51.8999 195.2791 0000384  88.2443 271.8564 14.79936786 43514
KUIPER-00088            
1 65133U 25171B   26139.47436752 -.00000194  00000+0  35840-5 0  9992
2 65133  51.8987 212.5679 0000216  90.7433 269.3554 14.79933532 43271
KUIPER-00095            
1 65134U 25171C   26139.42841836 -.00000117  00000+0  13687-4 0  9990
2 65134  51.8965 192.8269 0000595  96.5783 263.5247 14.79926402 43548
KUIPER-00096            
1 65135U 25171D   26139.44869759  .00000439  00000+0  86604-4 0  9992
2 65135  51.8995 205.1800 0000389  99.3999 260.7007 14.79932652 43370
KUIPER-00097            
1 65136U 25171E   26139.44600889  .00001586  00000+0  23696-3 0  9995
2 65136  51.9017 207.8364 0000298 106.0095 254.0901 14.79933492 43320
KUIPER-00098            
1 65137U 25171F   26139.37577207  .00001726  00000+0  25533-3 0  9993
2 65137  51.8993 210.5180 0000359  91.0921 269.0082 14.79939139 42632
KUIPER-00099            
1 65138U 25171G   26139.42038961  .00001619  00000+0  24137-3 0  9999
2 65138  51.9018 200.3173 0000518  69.3488 290.7530 14.79923269 43439
KUIPER-00100            
1 65139U 25171H   26139.45678311 -.00000190  00000+0  41199-5 0  9995
2 65139  51.9018 197.6304 0000325 109.9765 250.1233 14.79929625 43475
KUIPER-00102            
1 65140U 25171J   26139.45408573  .00001508  00000+0  22674-3 0  9996
2 65140  51.8983 200.1461 0000362  95.6764 264.4240 14.79936502 43436
KUIPER-00103            
1 65141U 25171K   26139.46897574  .00000439  00000+0  86593-4 0  9994
2 65141  51.8980 217.5750 0000316  98.4908 261.6090 14.79929710 43195
KUIPER-00104            
1 65142U 25171L   26139.48245749 -.00000902  00000+0 -89317-4 0  9992
2 65142  51.9022 205.0003 0000321  83.3566 276.7433 14.79932693 43378
KUIPER-00105            
1 65143U 25171M   26139.50813619  .00001701  00000+0  25203-3 0  9992
2 65143  51.9004 212.4958 0000374  96.6704 263.4301 14.79937756 43270
KUIPER-00106            
1 65144U 25171N   26139.39042524  .00002412  00000+0  22922-3 0  9994
2 65144  51.8919 193.6252 0007876 339.5990  20.4664 14.97062681 43530
KUIPER-00107            
1 65145U 25171P   26139.52701007  .00004648  00000+0  63859-3 0  9995
2 65145  51.8980 194.8512 0000225  90.3721 269.7267 14.79915175 43527
KUIPER-00108            
1 65146U 25171Q   26139.47976426  .00001606  00000+0  23964-3 0  9993
2 65146  51.9022 207.5893 0000297  86.3444 273.7553 14.79937346 43343
KUIPER-00109            
1 65147U 25171R   26139.45139013  .00000474  00000+0  91120-4 0  9997
2 65147  51.9015 202.6576 0000391  82.7083 277.3923 14.79935645 43402
KUIPER-00110            
1 65148U 25171S   26139.40419977  .00001690  00000+0  25040-3 0  9991
2 65148  51.8997 215.4365 0000547 106.9106 253.1916 14.79962506 43216
KUIPER-00111            
1 65149U 25171T   26139.50002488  .00000203  00000+0  55608-4 0  9991
2 65149  51.8975 219.9051 0000340  88.5001 271.6001 14.79940928 43162
KUIPER-00112            
1 65150U 25171U   26139.48328829  .00001634  00000+0  24229-3 0  9993
2 65150  51.9020 202.5480 0000344 294.8759  65.2168 14.80110578 43406
KUIPER-00114            
1 65151U 25171V   26139.49734451  .00001970  00000+0  28725-3 0  9995
2 65151  51.8996 222.4874 0000450 115.9775 244.1234 14.79938650 43123
KUIPER-00115            
1 65152U 25171W   26139.50543369  .00001691  00000+0  25077-3 0  9991
2 65152  51.9007 214.9473 0000302  91.1579 268.9417 14.79937587 43239
KUIPER-00116            
1 65153U 25171X   26139.39876360  .00006358  00000+0  86286-3 0  9993
2 65153  51.9006 220.4542 0000919 120.1075 239.9979 14.79901782 43145
KUIPER-00118            
1 65154U 25171Y   26139.39613683  .00001775  00000+0  26194-3 0  9991
2 65154  51.9000 222.9219 0000459 107.6508 252.4505 14.79903845 43112
KUIPER-00119            
1 65155U 25171Z   26139.48641419  .00001653  00000+0  24871-3 0  9995
2 65155  51.9005 210.2060 0001014  68.8229 291.2841 14.79423513 43290
KUIPER-00120            
1 65762U 25217A   26139.30871865  .00001768  00000+0  26084-3 0  9996
2 65762  51.8982 100.7830 0000709  72.7998 287.3042 14.79939549 35192
KUIPER-00132            
1 65763U 25217B   26139.37384110  .00019733  00000+0  46709-3 0  9993
2 65763  51.8572  19.7358 0006076 211.2732 148.7895 15.41770424 36328
KUIPER-00133            
1 65764U 25217C   26139.27496803  .00001839  00000+0  27021-3 0  9990
2 65764  51.9031 101.0163 0000605  69.8520 290.2508 14.79926646 35190
KUIPER-00139            
1 65765U 25217D   26139.49633082  .00004295  00000+0  34125-3 0  9999
2 65765  51.8849  69.5059 0007845 178.7398 181.3595 15.02343410 35651
KUIPER-00142            
1 65766U 25217E   26139.53019568  .00002211  00000+0  31884-3 0  9997
2 65766  51.8993  82.3292 0000864  75.6782 284.4277 14.79945724 35471
KUIPER-00145            
1 65767U 25217F   26139.25736779  .00002060  00000+0  29912-3 0  9998
2 65767  51.9000  86.0535 0000848  86.8906 273.2153 14.79945008 35392
KUIPER-00147            
1 65768U 25217G   26139.22090241 -.00001369  00000+0 -15064-3 0  9999
2 65768  51.8975  88.7006 0001238  50.4162 309.6910 14.79931072 35357
KUIPER-00148            
1 65769U 25217H   26139.50076472  .00001777  00000+0  28773-3 0  9993
2 65769  51.9049  68.4624 0000870  95.6558 264.4502 14.75808371 35663
KUIPER-00150            
1 65770U 25217J   26139.27764837 -.00000278  00000+0 -74600-5 0  9997
2 65770  51.9004  98.4721 0000659  77.2377 282.8659 14.79926918 35228
KUIPER-00151            
1 65771U 25217K   26139.28572987  .00002010  00000+0  29251-3 0  9996
2 65771  51.9010  90.9341 0000970  56.5548 303.5507 14.79951589 35334
KUIPER-00152            
1 65772U 25217L   26139.53557080  .00000981  00000+0  15765-3 0  9992
2 65772  51.9000  77.3167 0000929  70.6958 289.4105 14.79934425 35544
KUIPER-00153            
1 65773U 25217M   26139.20334390  .00001944  00000+0  28427-3 0  9993
2 65773  51.9022  73.8512 0000901 101.0686 259.0378 14.79889422 35564
KUIPER-00155            
1 65774U 25217N   26139.43558520  .00002110  00000+0  30585-3 0  9996
2 65774  51.9028  45.2888 0001006 119.5952 240.5111 14.79917095 35981
KUIPER-00156            
1 65775U 25217P   26139.50721027  .00002310  00000+0  33189-3 0  9994
2 65775  51.9032  72.4887 0000766  96.4878 263.6172 14.79932941 35609
KUIPER-00163            
1 65777U 25217R   26139.30975133  .00086660  00000+0  45054-3 0  9997
2 65777  51.8962  55.3484 0002726 113.8508 246.2784 15.80231811 35828
KUIPER-00165            
1 65778U 25217S   26139.22629649  .00002179  00000+0  31462-3 0  9998
2 65778  51.9005  83.6876 0000962  67.6582 292.4482 14.79951805 35428
KUIPER-00166            
1 65779U 25217T   26139.20599760 -.00003764  00000+0 -46514-3 0  9994
2 65779  51.9021  71.3127 0000549  90.6988 269.4037 14.79926103 35598
KUIPER-00167            
1 65780U 25217U   26139.14796541  .00001885  00000+0  27611-3 0  9992
2 65780  51.8961  93.9682 0000756  78.2491 281.8556 14.79942089 35279
KUIPER-00168            
1 65781U 25217V   26139.50450267  .00002237  00000+0  32232-3 0  9992
2 65781  51.9013  74.9609 0000886  84.8006 275.3058 14.79936399 35571
KUIPER-00169            
1 65782U 25217W   26139.02640610  .00002080  00000+0  30176-3 0  9994
2 65782  51.9013  82.0815 0000813  81.2631 278.8423 14.79932969 35434
KUIPER-00170            
1 65783U 25217X   26139.22353933  .00044082  00000+0  57915-2 0  9993
2 65783  51.8987  86.1801 0001109 112.8646 247.2433 14.79802143 35396
KUIPER-00172            
1 65785U 25217Z   26139.52338545  .00001237  00000+0  20578-3 0  9991
2 65785  51.8990  67.1461 0001147 161.5198 198.5804 14.76645203 35689
KUIPER-00173            
1 65786U 25217AA  26139.53291227  .00002224  00000+0  32069-3 0  9993
2 65786  51.9006  79.8412 0001253  55.7722 304.3359 14.79934741 35504
KUIPER-00174            
1 65787U 25217AB  26139.53829933  .00002625  00000+0  37342-3 0  9999
2 65787  51.9029  74.8549 0001064  88.2140 271.8944 14.79915361 35573
KUIPER-00176            
1 65788U 25217AC  26139.11690028  .00001948  00000+0  28463-3 0  9996
2 65788  51.8995  91.6677 0000718  94.8515 265.2530 14.79915184 35300
KUIPER-00101            
1 65947U 25228A   26139.46663308  .00002429  00000+0  34748-3 0  9992
2 65947  51.8999  47.5893 0000906  88.8094 271.2972 14.79932508 33714
KUIPER-00113            
1 65948U 25228B   26139.43826505  .00000394  00000+0  80702-4 0  9991
2 65948  51.8994  42.7317 0000873  88.6174 271.4888 14.79932662 33773
KUIPER-00117            
1 65949U 25228C   26139.46933409  .00000216  00000+0  57302-4 0  9990
2 65949  51.8996  45.0963 0001090  91.5664 268.5423 14.79932044 33741
KUIPER-00121            
1 65950U 25228D   26139.03577809  .00002451  00000+0  35043-3 0  9993
2 65950  51.9011  42.0191 0001185  88.7254 271.3845 14.79936712 33757
KUIPER-00122            
1 65951U 25228E   26138.48481455  .00002546  00000+0  36286-3 0  9998
2 65951  51.9000  54.4316 0000985  83.7893 276.3182 14.79930758 33532
KUIPER-00123            
1 65952U 25228F   26139.46387132  .00002418  00000+0  34649-3 0  9994
2 65952  51.8997  50.1163 0000773  78.4405 281.6644 14.79887979 33678
KUIPER-00124            
1 65953U 25228G   26139.47202209  .00002499  00000+0  35671-3 0  9992
2 65953  51.8995  42.5694 0000823 100.9442 259.1613 14.79936728 33784
KUIPER-00125            
1 65954U 25228H   26139.42067507  .00001287  00000+0  19781-3 0  9996
2 65954  51.9014  27.8325 0000939 100.9028 259.2040 14.79937304 33981
KUIPER-00126            
1 65955U 25228J   26139.43286683 -.00000391  00000+0 -22262-4 0  9992
2 65955  51.9013  47.7694 0001026 101.8969 258.2109 14.79933804 33709
KUIPER-00127            
1 65956U 25228K   26139.42407113  .00000618  00000+0  11013-3 0  9996
2 65956  51.9031  40.2717 0001732  97.0252 263.0908 14.79936873 33811
KUIPER-00128            
1 65957U 25228L   26139.13707638  .00000330  00000+0  72248-4 0  9999
2 65957  51.9009  41.6064 0000917  92.3919 267.7149 14.79935774 33760
KUIPER-00129            
1 65958U 25228M   26139.44635312  .00001653  00000+0  24574-3 0  9990
2 65958  51.9014  35.2201 0000900  94.5913 265.5152 14.79934566 33880
KUIPER-00130            
1 65959U 25228N   26139.13976967 -.00000050  00000+0  22557-4 0  9992
2 65959  51.9010  39.0976 0002678 106.6817 253.4440 14.79937114 24091
KUIPER-00134            
1 65960U 25228P   26139.53113919  .00028772  00000+0  70493-3 0  9999
2 65960  51.8677 336.6424 0006055 195.9505 164.1294 15.40497704 34702
KUIPER-00135            
1 65961U 25228Q   26139.44366581  .00002304  00000+0  33118-3 0  9991
2 65961  51.9036  37.8115 0000827  95.3849 264.7207 14.79922299 33843
KUIPER-00136            
1 65962U 25228R   26139.41284992  .00002297  00000+0  33083-3 0  9996
2 65962  51.9018  35.4123 0000585  94.3498 265.7531 14.79855452 33877
KUIPER-00137            
1 65963U 25228S   26139.14517014  .00002310  00000+0  33194-3 0  9990
2 65963  51.9047  34.0736 0000818 103.4877 256.6177 14.79932811 33877
KUIPER-00138            
1 65964U 25228T   26139.38421328  .00000992  00000+0  15911-3 0  9990
2 65964  51.8981  30.4698 0001159 101.9324 258.1769 14.79932602 33940
KUIPER-00140            
1 65965U 25228U   26138.43610772 -.00001003  00000+0 -10262-3 0  9999
2 65965  51.9007  37.2503 0000889  96.8230 263.2834 14.79935773 33760
KUIPER-00141            
1 65966U 25228V   26139.38692097  .00001361  00000+0  20744-3 0  9996
2 65966  51.9041  28.0813 0000748 100.3705 259.7342 14.79934553 33975
KUIPER-00146            
1 65967U 25228W   26139.41799220  .00000951  00000+0  15371-3 0  9991
2 65967  51.9027  30.4535 0000902  98.6884 261.4180 14.79932725 33943
KUIPER-00149            
1 65968U 25228X   26139.38961330 -.00000708  00000+0 -63790-4 0  9992
2 65968  51.8982  25.4740 0001375  94.2182 265.8937 14.79931544 34018
KUIPER-00154            
1 65969U 25228Y   26138.41311068 -.00000857  00000+0 -83359-4 0  9991
2 65969  51.9006  27.2889 0001211  91.9606 268.1495 14.79942244 33906
KUIPER-00157            
1 65970U 25228Z   26139.42338696  .00002351  00000+0  33733-3 0  9990
2 65970  51.9036  25.4467 0000915 102.6431 257.4633 14.79934676 34017
KUIPER-00144            
1 67133U 25301A   26139.29958461  .00001311  00000+0  21736-3 0  9993
2 67133  51.9006 102.9614 0000862  40.6932 319.4093 14.76411630 24330
KUIPER-00164            
1 67134U 25301B   26139.32232228  .00001422  00000+0  23288-3 0  9991
2 67134  51.9022 114.3382 0001144 132.0258 228.0800 14.76484119 24354
KUIPER-00175            
1 67135U 25301C   26139.30030360 -.00003628  00000+0 -32885-3 0  9998
2 67135  51.8932 102.4038 0000793  42.3794 317.7235 14.92178256 24412
KUIPER-00179            
1 67136U 25301D   26139.32897876 -.00003186  00000+0 -38899-3 0  9994
2 67136  51.8974 113.2312 0000591  94.4003 265.7027 14.79949704 24376
KUIPER-00181            
1 67137U 25301E   26139.24803230  .00001441  00000+0  21806-3 0  9997
2 67137  51.9023 126.1056 0001432  67.0539 293.0574 14.79930051 24169
KUIPER-00183            
1 67138U 25301F   26139.27800079  .00002345  00000+0  24969-3 0  9996
2 67138  51.8943 103.3717 0008882 306.0139  54.0005 14.92543283 24491
KUIPER-00184            
1 67139U 25301G   26139.20019914  .00001226  00000+0  20517-3 0  9992
2 67139  51.8993 108.4604 0001798 108.6099 251.5057 14.76442594 24528
KUIPER-00186            
1 67140U 25301H   26139.21432979  .00014093  00000+0  18702-2 0  9993
2 67140  51.9015 126.2659 0000851 136.5529 223.5500 14.80013804 24009
KUIPER-00187            
1 67141U 25301J   26139.34656988 -.00004152  00000+0 -51581-3 0  9996
2 67141  51.9016 128.2001 0000488  77.5991 282.5026 14.79943781 23985
KUIPER-00188            
1 67142U 25301K   26138.19309701  .00030210  00000+0  43043-2 0  9992
2 67142  51.9028 100.8182 0000269  65.8111 294.2878 14.76543130 24264
KUIPER-00191            
1 67143U 25301L   26139.32098213  .00001588  00000+0  23730-3 0  9990
2 67143  51.9003 120.8136 0000609  62.6534 297.4491 14.79932726 24117
KUIPER-00196            
1 67144U 25301M   26139.50002315 -.01317343  00000+0 -47464-1 0  9999
2 67144  51.8733  82.1436 0001856 252.2499 305.1883 15.31001315  4055
KUIPER-00204            
1 67145U 25301N   26139.50002315 -.00082220  00000+0 -51386-2 0  9991
2 67145  51.8930  94.3082 0001075  77.6041 307.2847 15.09296322  5796
KUIPER-00210            
1 67146U 25301P   26139.35469632  .00001571  00000+0  23502-3 0  9992
2 67146  51.8998 120.6208 0000621  67.8910 292.2118 14.79936015 24269
KUIPER-00221            
1 67147U 25301Q   26139.24528712 -.00002764  00000+0 -33353-3 0  9998
2 67147  51.9027 128.6184 0000446  87.5213 272.5800 14.79949323 23977
KUIPER-00232            
1 67148U 25301R   26139.22750411  .00001613  00000+0  24037-3 0  9999
2 67148  51.8992 113.7324 0001415  77.1977 282.9144 14.79958283 24172
KUIPER-00241            
1 67149U 25301S   26139.25066413  .00001517  00000+0  22787-3 0  9998
2 67149  51.9025 123.6113 0000642  77.7052 282.3982 14.79937168 24373
KUIPER-00245            
1 67150U 25301T   26139.24262204  .00001377  00000+0  20966-3 0  9996
2 67150  51.9023 131.1604 0000540  54.6458 305.4555 14.79932751 23930
KUIPER-00246            
1 67151U 25301U   26139.36011818  .00001631  00000+0  24288-3 0  9997
2 67151  51.9000 115.6054 0000696  64.2233 295.8801 14.79932115 24180
KUIPER-00247            
1 67152U 25301V   26139.10087502  .00001605  00000+0  23962-3 0  9992
2 67152  51.8961 106.7470 0000685  81.2610 278.8430 14.79901875 24262
KUIPER-00248            
1 67153U 25301W   26139.50002315 -.00058163  00000+0 -62194-2 0  9998
2 67153  51.8967  87.0248 0003344 246.8081 288.7533 14.88529242  4603
KUIPER-00249            
1 67154U 25301X   26139.30603138  .00005426  00000+0  73955-3 0  9997
2 67154  51.8989 103.3784 0000571  67.9208 292.1815 14.79970200 24324
KUIPER-00250            
1 67155U 25301Y   26139.32367141  .00001773  00000+0  26168-3 0  9996
2 67155  51.8983 118.2580 0000671  61.2286 298.8744 14.79915003 24157
KUIPER-00251            
1 67156U 25301Z   26139.26954046  .00001693  00000+0  25113-3 0  9996
2 67156  51.8998 106.0550 0001870 138.3895 221.7210 14.79921364 24475
KUIPER-00252            
1 67157U 25301AA  26139.19930326  .00001569  00000+0  23478-3 0  9998
2 67157  51.8997 108.8175 0000287  74.9438 285.1556 14.79926082 24241
KUIPER-00261            
1 67158U 25301AB  26139.35736955  .00001589  00000+0  23729-3 0  9990
2 67158  51.9023 118.1627 0000524  57.6912 302.4101 14.79941655 24127
KUIPER-00265            
1 67159U 25301AC  26139.37495941  .00001408  00000+0  21369-3 0  9998
2 67159  51.9017 133.0591 0000505  65.4466 294.6549 14.79938617 23959
KUIPER-00159            
1 67764U 26030A   26138.66808293  .00021167  00000+0  57143-3 0  9992
2 67764  51.8857 241.1681 0006099 299.7579  60.2800 15.37704263 15854
KUIPER-00160            
1 67765U 26030B   26139.25724779  .00016240  00000+0  43996-3 0  9992
2 67765  51.8835 238.3345 0006372 313.1462  46.8991 15.37787376 15949
KUIPER-00177            
1 67766U 26030C   26139.32188021  .00002096  00000+0  30384-3 0  9996
2 67766  51.9009 260.7856 0000369  94.6450 265.4554 14.79939247 15639
KUIPER-00178            
1 67767U 26030D   26139.28625881  .00001253  00000+0  20898-3 0  9995
2 67767  51.9007 260.2135 0000588 108.0016 252.1009 14.76443806 15641
KUIPER-00180            
1 67768U 26030E   26139.29346954  .00001887  00000+0  27638-3 0  9990
2 67768  51.8986 255.9076 0000523 113.7748 246.3269 14.79935554 15705
KUIPER-00197            
1 67769U 26030F   26139.50002315 -.01238014  00000+0 -62605-1 0  9993
2 67769  51.8925 237.3786 0003380 325.3738 191.6439 15.19603275  3924
KUIPER-00198            
1 67770U 26030G   26138.59235351 -.00007013  00000+0 -89203-3 0  9998
2 67770  51.8984 251.5067 0000682 114.9425 245.1609 14.79927276 15706
KUIPER-00199            
1 67771U 26030H   26139.54068765  .00018968  00000+0  55086-3 0  9999
2 67771  51.8819 237.9578 0010908 308.2843  51.7161 15.35462052 15975
KUIPER-00200            
1 67772U 26030J   26139.32677832  .00005868  00000+0  29338-3 0  9993
2 67772  51.8861 242.3363 0002229 351.2336   8.8604 15.18791275 15896
KUIPER-00203            
1 67773U 26030K   26139.38401287  .00002098  00000+0  30428-3 0  9993
2 67773  51.9066 265.5240 0000706 109.4932 250.6107 14.79919773 15570
KUIPER-00205            
1 67774U 26030L   26139.53060036  .00023336  00000+0  61019-3 0  9992
2 67774  51.8795 236.4278 0003272 278.6035  81.4581 15.38639100 15992
KUIPER-00208            
1 67775U 26030M   26139.35756465  .00001233  00000+0  20591-3 0  9993
2 67775  51.8984 256.7339 0006677 306.2214  53.8129 14.76523030 15698
KUIPER-00209            
1 67776U 26030N   26139.50002315 -.00028236  00000+0 -36827-2 0  9991
2 67776  51.8995 255.0794 0001010 160.1975  41.7921 14.80019432  5668
KUIPER-00213            
1 67777U 26030P   26139.56614044  .00002291  00000+0  32986-3 0  9990
2 67777  51.8961 252.2872 0001148  56.6157 303.4915 14.79883827 15770
KUIPER-00214            
1 67778U 26030Q   26139.33266550  .00002111  00000+0  30598-3 0  9999
2 67778  51.8999 250.8085 0000665 111.7873 248.3160 14.79910966 15777
KUIPER-00215            
1 67779U 26030R   26139.50002315 -.00077867  00000+0 -37132-2 0  9998
2 67779  51.8900 239.0088 0009515 314.2700 169.6191 15.18800193  5912
KUIPER-00218            
1 67780U 26030S   26139.27309284  .00000886  00000+0  15677-3 0  9995
2 67780  51.8977 252.9082 0001008  87.7548 272.3528 14.76453759 15740
KUIPER-00220            
1 67781U 26030T   26139.50002315 -.00003824  00000+0 -10423-3 0  9998
2 67781  51.8822 237.8864 0008641 317.7409 307.6207 15.33645992  5349
KUIPER-00222            
1 67782U 26030U   26139.50002315 -.00007927  00000+0 -10116-2 0  9995
2 67782  51.8982 247.6401 0000760 182.4829 156.2418 14.79950935  4852
KUIPER-00223            
1 67783U 26030V   26139.50002315 -.00037205  00000+0 -27473-2 0  9992
2 67783  51.8940 240.4569 0007996 338.2239 178.5518 15.02709913  5042
KUIPER-00225            
1 67784U 26030W   26139.50002315 -.00027771  00000+0 -39421-2 0  9996
2 67784  51.8974 244.6119 0002622 336.8992  59.8018 14.76435465  5772
KUIPER-00226            
1 67785U 26030X   26139.54117330  .00000645  00000+0  40473-4 0  9995
2 67785  51.8857 242.3329 0018424 319.4379  40.5228 15.23759370 15918
KUIPER-00259            
1 67786U 26030Y   26139.50002315 -.00026682  00000+0 -37926-2 0  9996
2 67786  51.8980 244.4671 0001680  93.3476 147.4348 14.76360442  5678
KUIPER-00260            
1 67787U 26030Z   26139.50002315 -.00049708  00000+0 -61920-2 0  9992
2 67787  51.9006 242.0356 0002382  98.3886 137.9521 14.82207869  5805
KUIPER-00262            
1 67788U 26030AA  26139.50002315 -.00026484  00000+0 -33456-2 0  9992
2 67788  51.8995 242.5069 0000101 345.6286 141.9789 14.81320726  1698
KUIPER-00266            
1 67789U 26030AB  26139.50002315 -.00070792  00000+0 -37271-2 0  9993
2 67789  51.8848 242.4791 0022653 324.9918 184.3475 15.15104847  5526
KUIPER-00268            
1 67790U 26030AC  26139.50002315 -.00037485  00000+0 -25032-2 0  9999
2 67790  51.8923 238.7788 0001924  10.0325 172.4660 15.06486191  5168
KUIPER-00270            
1 67791U 26030AD  26139.26507800  .00015711  00000+0  44870-3 0  9990
2 67791  51.8818 239.1120 0011344 310.2608  49.7385 15.36128339 15939
KUIPER-00274            
1 67792U 26030AE  26139.32030250  .00001207  00000+0  20305-3 0  9990
2 67792  51.9017 250.3086 0003780 348.2872  11.8000 14.76341017 15787
KUIPER-00275            
1 67793U 26030AF  26139.25698679  .00013873  00000+0  39841-3 0  9995
2 67793  51.8847 239.0940 0010347 296.0770  63.9151 15.36072117 15936
KUIPER-00276            
1 67794U 26030AG  26139.27567880  .00000111  00000+0  18593-4 0  9990
2 67794  51.8863 243.5695 0018890 298.6436  61.2645 15.23996273 15876
KUIPER-00279            
1 67795U 26030AH  26139.56176948 -.00007495  00000+0 -20170-3 0  9991
2 67795  51.8798 237.3498 0007284 304.0768  55.9526 15.35692804 15987
KUIPER-00131            
1 68573U 26072A   26139.50002315 -.00035153  00000+0 -45725-2 0  9996
2 68573  51.9012 322.5016 0002386 174.2265  54.6861 14.80237611  4753
KUIPER-00189            
1 68574U 26072B   26139.50002315  .00015988  00000+0  23092-2 0  9992
2 68574  51.8980 324.3920 0000864 183.4953 190.9386 14.76318853  5767
KUIPER-00192            
1 68575U 26072C   26139.50002315 -.00006245  00000+0 -63109-3 0  9995
2 68575  51.8970 320.1744 0006222 309.9533 169.4168 14.89066788  3328
KUIPER-00193            
1 68576U 26072D   26139.50002315  .00008930  00000+0  27042-3 0  9993
2 68576  51.8779 315.5359 0004029 242.6570 302.9325 15.34922052  4251
KUIPER-00194            
1 68577U 26072E   26139.50002315  .00016849  00000+0  13378-2 0  9998
2 68577  51.8931 318.2602 0002881 261.3226  66.3010 15.00572006  5642
KUIPER-00229            
1 68578U 26072F   26139.50002315  .00018493  00000+0  23663-2 0  9994
2 68578  51.9021 321.9563 0001290  31.5859 295.3623 14.81364842  5800
KUIPER-00230            
1 68579U 26072G   26139.46136568  .00016588  00000+0  45594-3 0  9999
2 68579  51.8781 315.6561 0001212 271.4452  88.6396 15.37332525  6962
KUIPER-00231            
1 68580U 26072H   26139.50002315  .00023005  00000+0  63311-3 0  9997
2 68580  51.8752 315.4058 0001570 263.5870 342.2183 15.37067542  4677
KUIPER-00234            
1 68581U 26072J   26139.50002315 -.00056564  00000+0 -39888-2 0  9997
2 68581  51.8926 317.4503 0004790 343.4520 277.8975 15.04650654  4190
KUIPER-00236            
1 68582U 26072K   26139.20611728  .00017458  00000+0  49012-3 0  9997
2 68582  51.8770 316.9456 0002826 240.0437 120.0269 15.36632409  6927
KUIPER-00244            
1 68583U 26072L   26139.52172049  .00023792  00000+0  62105-3 0  9997
2 68583  51.8758 315.3148 0003325 265.8218  94.2389 15.38680632  6975
KUIPER-00253            
1 68584U 26072M   26139.50002315  .00031650  00000+0  98495-3 0  9997
2 68584  51.8761 315.6168 0004309 271.9735 216.0460 15.33014970  3501
KUIPER-00254            
1 68585U 26072N   26139.50002315  .00017551  00000+0  74924-3 0  9993
2 68585  51.8785 316.1694 0007013 278.0047 280.1896 15.22951271  4527
KUIPER-00263            
1 68586U 26072P   26139.45861190  .00020340  00000+0  55125-3 0  9994
2 68586  51.8760 315.6393 0000817 228.0686 132.0231 15.37622757  6968
KUIPER-00269            
1 68587U 26072Q   26139.20587036  .00019712  00000+0  52195-3 0  9997
2 68587  51.8767 316.9423 0004577 256.1018 103.9460 15.38356364  6928
KUIPER-00272            
1 68588U 26072R   26139.50002315  .00006563  00000+0  72765-3 0  9998
2 68588  51.9006 320.1746 0006630 278.7400  35.9358 14.88291587  5409
KUIPER-00285            
1 68589U 26072S   26139.47339617  .00020035  00000+0  53357-3 0  9999
2 68589  51.8757 315.7324 0005983 270.0276  90.0025 15.38161885  6968
KUIPER-00286            
1 68590U 26072T   26139.52779249  .00022081  00000+0  58084-3 0  9991
2 68590  51.8753 315.3489 0004156 259.1212 100.9308 15.38486069  6973
KUIPER-00289            
1 68591U 26072U   26139.18821870  .00024357  00000+0  67948-3 0  9999
2 68591  51.8630 317.5294 0011483 287.9533  72.0201 15.36552983  6914
KUIPER-00290            
1 68592U 26072V   26139.51440494  .00018961  00000+0  53514-3 0  9994
2 68592  51.8629 315.9610 0011485 282.0913  77.8786 15.36352137  6962
KUIPER-00293            
1 68593U 26072W   26139.50002315  .00008351  00000+0  46279-3 0  9992
2 68593  51.8773 317.0318 0012358 291.9618 180.7723 15.14534051  5161
KUIPER-00294            
1 68594U 26072X   26139.50911977  .00025524  00000+0  71418-3 0  9990
2 68594  51.8640 315.9458 0009291 281.4759  78.5184 15.36453134  6969
KUIPER-00296            
1 68595U 26072Y   26138.90835884  .00026445  00000+0  71585-3 0  9994
2 68595  51.8710 318.6789 0008690 274.7380  85.2614 15.37467582  6878
KUIPER-00297            
1 68596U 26072Z   26139.50002315  .00019282  00000+0  79638-3 0  9995
2 68596  51.8703 316.7115 0009654 288.2137  35.2279 15.23986197  3584
KUIPER-00300            
1 68597U 26072AA  26139.50002315  .00034231  00000+0  11748-2 0  9994
2 68597  51.8729 315.9272 0007944 277.1099  71.4270 15.29805237  5342
KUIPER-00301            
1 68598U 26072AB  26138.91123479  .00032885  00000+0  88679-3 0  9995
2 68598  51.8655 318.6792 0008566 278.2870  81.7145 15.37471020  6870
KUIPER-00304            
1 68599U 26072AC  26138.91530491  .00035565  00000+0  96728-3 0  9994
2 68599  51.8657 318.7089 0009517 277.4869  82.5036 15.37159570  6870
KUIPER-00317            
1 68600U 26072AD  26138.84289344  .00021506  00000+0  58426-3 0  9990
2 68600  51.8706 318.9853 0008614 268.6968  91.3032 15.37480386  6863
KUIPER-00320            
1 68601U 26072AE  26139.45533475  .00017852  00000+0  50905-3 0  9999
2 68601  51.8607 316.2982 0011216 276.0005  83.9703 15.36076807  6955
KUIPER-00299            
1 68864U 26095A   26139.50002315  .00042039  00000+0  14118-2 0  9995
2 68864  51.8776  21.4458 0009363 196.7153  58.8376 15.30402081  4022
KUIPER-00353            
1 68865U 26095B   26139.40512227  .00022903  00000+0  59775-3 0  9990
2 68865  51.8852  21.3816 0001101 135.4010 224.7066 15.38710985  3302
KUIPER-00357            
1 68866U 26095C   26139.08700041  .00021325  00000+0  56547-3 0  9999
2 68866  51.8839  23.0018 0003540 159.3181 200.7950 15.38263964  3254
KUIPER-00364            
1 68867U 26095D   26138.89502481  .00021067  00000+0  56277-3 0  9999
2 68867  51.8810  23.9636 0003743 167.3954 192.7127 15.38042984  3221
KUIPER-00375            
1 68868U 26095E   26139.40660266  .00023513  00000+0  61556-3 0  9998
2 68868  51.8847  21.3960 0001368 146.0416 214.0659 15.38600358  3304
KUIPER-00433            
1 68869U 26095F   26139.50002315  .00029930  00000+0  15326-2 0  9997
2 68869  51.8816  22.0614 0008301 202.2171 153.5221 15.16331386  3290
KUIPER-00437            
1 68870U 26095G   26138.77723258  .00029269  00000+0  80171-3 0  9999
2 68870  51.8793  24.6701 0007600 182.9768 177.1175 15.37054074  3208
KUIPER-00448            
1 68871U 26095H   26138.89418670  .00020702  00000+0  55335-3 0  9999
2 68871  51.8836  23.9574 0003543 166.8832 193.2248 15.38036995  3227
KUIPER-00459            
1 68872U 26095J   26139.37531690  .00011692  00000+0  33894-3 0  9996
2 68872  51.8710  21.9123 0011330 197.3026 162.7576 15.35936855  3297
KUIPER-00468            
1 68873U 26095K   26138.76783927  .00023649  00000+0  63693-3 0  9996
2 68873  51.8825  24.6124 0005261 170.2906 189.8183 15.37712635  3204
KUIPER-00476            
1 68874U 26095L   26138.98112724  .00022530  00000+0  63683-3 0  9999
2 68874  51.8743  23.7783 0009477 191.7231 168.3536 15.36210099  3230
KUIPER-00478            
1 68875U 26095M   26139.36668382  .00015594  00000+0  43747-3 0  9990
2 68875  51.8776  21.8668 0008614 200.2094 159.8553 15.36718472  3291
KUIPER-00480            
1 68876U 26095N   26138.96978616  .00009426  00000+0  26416-3 0  9991
2 68876  51.8777  23.7093 0006484 178.2756 181.8255 15.37287597  3236
KUIPER-00482            
1 68877U 26095P   26138.95421884  .00019305  00000+0  50948-3 0  9995
2 68877  51.8850  23.6100 0002693 151.4930 208.6205 15.38479487  3237
KUIPER-00483            
1 68878U 26095Q   26139.50002315  .00043013  00000+0  17560-2 0  9997
2 68878  51.8782  21.9161 0008965 203.0585 172.3535 15.23951451  3376
KUIPER-00488            
1 68879U 26095R   26139.37784523  .00014129  00000+0  41061-3 0  9991
2 68879  51.8684  21.9231 0012685 214.3304 145.6863 15.35656522  3296
KUIPER-00489            
1 68880U 26095S   26139.37165434  .00013137  00000+0  37622-3 0  9993
2 68880  51.8755  21.8947 0009979 198.1135 161.9497 15.36215775  3299
KUIPER-00499            
1 68881U 26095T   26139.50002315  .00048008  00000+0  13762-2 0  9990
2 68881  51.8701  21.3227 0008195 193.0350 130.8781 15.35392950  1300
KUIPER-00500            
1 68882U 26095U   26139.50002315  .00045129  00000+0  15479-2 0  9999
2 68882  51.8814  21.3434 0005311 190.1569 141.3061 15.29712538  4530
KUIPER-00502            
1 68883U 26095V   26138.77117134  .00022237  00000+0  60258-3 0  9995
2 68883  51.8799  24.6324 0006162 175.3600 184.7445 15.37556296  3209
KUIPER-00503            
1 68884U 26095W   26139.36657017  .00016602  00000+0  46450-3 0  9998
2 68884  51.8760  21.8641 0007604 188.8509 171.2344 15.36758381  3294
KUIPER-00504            
1 68885U 26095X   26139.50002315  .00030856  00000+0  21176-2 0  9994
2 68885  51.8847  23.4548 0012593 221.9620 184.2143 15.05674738  3684
KUIPER-00505            
1 68886U 26095Y   26138.96122793  .00015862  00000+0  42890-3 0  9994
2 68886  51.8826  23.6578 0004115 165.1635 194.9474 15.37874228  3230
KUIPER-00507            
1 68887U 26095Z   26139.40407347  .00017935  00000+0  46979-3 0  9991
2 68887  51.8843  21.3754 0000766  98.7817 261.3257 15.38764206  3303
KUIPER-00511            
1 68888U 26095AA  26138.90566876  .00014632  00000+0  40510-3 0  9995
2 68888  51.8788  24.0306 0007013 179.6183 180.4810 15.37194715  3220
KUIPER-00512            
1 68889U 26095AB  26139.50002315  .00049334  00000+0  14289-2 0  9996
2 68889  51.8804  21.0932 0004992 179.3503 259.3049 15.35076046  4403
KUIPER-00519            
1 68890U 26095AC  26139.40771007  .00024944  00000+0  65308-3 0  9997
2 68890  51.8831  21.3978 0002512 163.1285 196.9786 15.38561632  3307
KUIPER-00521            
1 68891U 26095AD  26139.40390444 -.00114760  00000+0 -30458-2 0  9995
2 68891  51.8845  21.3740 0001240  98.3448 261.7680 15.38119803  3300
KUIPER-00524            
1 68892U 26095AE  26138.95618615  .00023703  00000+0  62665-3 0  9998
2 68892  51.8832  23.6253 0002552 150.7351 209.3780 15.38291339  3230
KUIPER-00370            
1 68919U 26098A   26139.50002315 -.00075897  00000+0 -24872-2 0  9997
2 68919  51.8715 206.2535 0015950  54.6726  54.8370 15.31161798  3872
KUIPER-00380            
1 68920U 26098B   26139.46204081  .00011931  00000+0  37096-3 0  9998
2 68920  51.8738 206.2343 0009844  40.9290 319.2432 15.33709399  2935
KUIPER-00386            
1 68921U 26098C   26139.50851124  .00013117  00000+0  38364-3 0  9997
2 68921  51.8733 205.8005 0003533  60.0249 300.1087 15.35588709  2945
KUIPER-00388            
1 68922U 26098D   26139.49386882 -.00034885  00000+0 -11496-2 0  9993
2 68922  51.8740 206.4359 0021131  45.0805 315.1889 15.30523487  2930
KUIPER-00405            
1 68923U 26098E   26139.54162750  .00008649  00000+0  28409-3 0  9996
2 68923  51.8748 206.0180 0014207  46.1384 314.0771 15.32289401  2943
KUIPER-00408            
1 68924U 26098F   26139.48071860 -.00012255  00000+0 -37869-3 0  9991
2 68924  51.8749 206.3581 0015949  44.6266 315.5999 15.31932584  2932
KUIPER-00409            
1 68925U 26098G   26139.45535247 -.00029363  00000+0 -86344-3 0  9993
2 68925  51.8743 206.1920 0007684  48.3405 311.8237 15.34254402  2938
KUIPER-00410            
1 68926U 26098H   26139.53985207 -.00028183  00000+0 -89819-3 0  9997
2 68926  51.8731 206.0028 0013535  44.8919 315.3157 15.31621505  2947
KUIPER-00412            
1 68927U 26098J   26139.50323220  .00010654  00000+0  30876-3 0  9997
2 68927  51.8774 205.7728 0002426  96.9876 263.1386 15.36096501  2946
KUIPER-00413            
1 68928U 26098K   26139.49825823 -.00022267  00000+0 -73509-3 0  9997
2 68928  51.8747 206.4622 0024466  59.3888 300.9505 15.30137042  2934
KUIPER-00414            
1 68929U 26098L   26139.49946073 -.00018011  00000+0 -59404-3 0  9999
2 68929  51.8761 206.4757 0022257  49.9935 310.2998 15.30074988  2933
KUIPER-00415            
1 68930U 26098M   26139.46551231  .00008386  00000+0  26727-3 0  9990
2 68930  51.8768 206.2647 0011023  38.1355 322.0408 15.33336853  2935
KUIPER-00416            
1 68931U 26098N   26139.50095892  .00010571  00000+0  30393-3 0  9995
2 68931  51.8742 205.7536 0001616  85.9628 274.1543 15.36353638  2940
KUIPER-00420            
1 68932U 26098P   26139.44432948 -.00025864  00000+0 -73421-3 0  9998
2 68932  51.8766 206.1250 0003565  55.8132 304.3191 15.35312946  2936
KUIPER-00421            
1 68933U 26098Q   26139.45576839  .00009164  00000+0  28352-3 0  9994
2 68933  51.8766 206.1995 0008772  33.9126 326.2418 15.34184992  2930
KUIPER-00425            
1 68934U 26098R   26139.48175961  .00007804  00000+0  26487-3 0  9995
2 68934  51.8728 206.3595 0017728  53.8664 306.3958 15.31330391  2937
KUIPER-00430            
1 68935U 26098S   26139.49105699 -.00017868  00000+0 -57151-3 0  9993
2 68935  51.8758 206.4243 0020086  56.0691 304.2200 15.31095224  2938
KUIPER-00431            
1 68936U 26098T   26139.50002315  .00000146  00000+0  17207-4 0  9995
2 68936  51.8731 206.3106 0017617  46.6063  36.2095 15.30698362  3847
KUIPER-00432            
1 68937U 26098U   26139.53313608  .00003730  00000+0  12674-3 0  9993
2 68937  51.8735 205.9593 0011937  46.0454 314.1514 15.32984546  2942
KUIPER-00434            
1 68938U 26098V   26139.45616153 -.00009544  00000+0 -26914-3 0  9999
2 68938  51.8729 206.1946 0007838  38.4636 321.6907 15.34610605  2935
KUIPER-00436            
1 68939U 26098W   26139.46752867  .00010262  00000+0  32598-3 0  9996
2 68939  51.8734 206.2698 0010410  49.3420 310.8469 15.33186547  2934
KUIPER-00438            
1 68940U 26098X   26139.44943270  .00010178  00000+0  30747-3 0  9996
2 68940  51.8743 206.1542 0005928  51.9108 308.2411 15.34829343  2930
KUIPER-00439            
1 68941U 26098Y   26139.46011774 -.00000857  00000+0 -14280-4 0  9994
2 68941  51.8761 206.2274 0007341  47.8057 312.3550 15.33988249  2932
KUIPER-00440            
1 68942U 26098Z   26139.45256573  .00009677  00000+0  29787-3 0  9996
2 68942  51.8775 206.1803 0004568  58.7855 301.3577 15.34298274  2930
KUIPER-00442            
1 68943U 26098AA  26139.45400867  .00011134  00000+0  33931-3 0  9991
2 68943  51.8777 206.1903 0006496  46.7168 313.4359 15.34443965  2931
KUIPER-00446            
1 68944U 26098AB  26139.45209391  .00011191  00000+0  34042-3 0  9998
2 68944  51.8742 206.1709 0006212  44.2430 315.9051 15.34499334  2936
KUIPER-00451            
1 68945U 26098AC  26139.53854301 -.00038412  00000+0 -12225-2 0  9990
2 68945  51.8762 206.0019 0012968  43.5071 316.6934 15.31829978  2947
KUIPER-00452            
1 68946U 26098AD  26139.44486322  .00011320  00000+0  33217-3 0  9997
2 68946  51.8745 206.1251 0004362  37.4182 322.7107 15.35632925  2939
KUIPER-00453            
1 68947U 26098AE  26139.50344830  .00010108  00000+0  29279-3 0  9998
2 68947  51.8743 205.7697 0003116  86.0523 274.0820 15.36172257  2942
KUIPER-00454            
1 68948U 26098AF  26139.49042742 -.00046698  00000+0 -15734-2 0  9999
2 68948  51.8764 206.4225 0017436  41.4419 318.7884 15.30024715  2934
KUIPER-00455            
1 68949U 26098AG  26139.49783804 -.00030035  00000+0 -99473-3 0  9992
2 68949  51.8750 206.4621 0020200  51.5959 308.6835 15.30309127  2931
KUIPER-00458            
1 68950U 26098AH  26139.50653147  .00010903  00000+0  31869-3 0  9997
2 68950  51.8763 205.7928 0003654  48.0520 312.0777 15.35798815  2944
