IRIDIUM 7               
1 24793U 97020B   26086.28311656  .00000411  00000+0  13432-3 0  9998
2 24793  86.3932  58.2092 0001852  87.7910 272.3499 14.36198344512526
IRIDIUM 5               
1 24795U 97020D   26086.12462634  .00003893  00000+0  29593-3 0  9998
2 24795  86.3869 312.9246 0101005 198.9930 160.7525 14.97781553527765
IRIDIUM 4               
1 24796U 97020E   26086.29749034  .00000410  00000+0  13148-3 0  9990
2 24796  86.3933  54.8901 0002115  85.6607 274.4832 14.37107424513125
IRIDIUM 914             
1 24836U 97030A   26086.19981282  .00000486  00000+0  14469-3 0  9998
2 24836  86.3899  62.6965 0002871  55.2957 304.8513 14.41177094647888
IRIDIUM 16              
1 24841U 97030F   26086.23888192  .00000425  00000+0  13126-3 0  9997
2 24841  86.3969  86.3637 0001947 150.9343 209.1964 14.38996023507706
IRIDIUM 911             
1 24842U 97030G   26086.27309552  .00000565  00000+0  14662-3 0  9991
2 24842  86.4393  84.8004 0012336 227.3842 132.6322 14.48036191516044
IRIDIUM 17              
1 24870U 97034B   26086.11885381  .00000384  00000+0  12017-3 0  9999
2 24870  86.3919 115.8579 0003116 121.8777 238.2725 14.38133991504245
IRIDIUM 920             
1 24871U 97034C   26086.26804280  .00000401  00000+0  11660-3 0  9998
2 24871  86.3909  94.3369 0009970 218.9711 141.0771 14.41836846507364
IRIDIUM 26              
1 24903U 97043A   26086.26094911  .00000384  00000+0  12184-3 0  9998
2 24903  86.4011 351.6452 0002000  89.7759 270.3668 14.37432313497400
IRIDIUM 22              
1 24907U 97043E   26086.28821123  .00000333  00000+0  10736-3 0  9992
2 24907  86.4019 355.4148 0002196  90.1861 269.9588 14.36210178497409
DUMMY MASS 1            
1 24925U 97048A   26086.29674497  .00000417  00000+0  43157-4 0  9995
2 24925  86.3398   4.3183 0005245 202.8073 157.2920 14.87293154547206
DUMMY MASS 2            
1 24926U 97048B   26086.23898857  .00000421  00000+0  43817-4 0  9996
2 24926  86.3398   6.0031 0005525 220.4942 139.5872 14.87042667546962
IRIDIUM 29              
1 24944U 97051A   26086.27639665  .00000404  00000+0  13036-3 0  9994
2 24944  86.3995  25.0281 0002375  86.2206 273.9263 14.36758485493913
IRIDIUM 33              
1 24946U 97051C   26086.29668027  .00000286  00000+0  93272-4 0  9991
2 24946  86.3913  24.3122 0006170 222.8759 137.1957 14.35111539493349
IRIDIUM 28              
1 24948U 97051E   26086.28102607  .00000384  00000+0  12136-3 0  9997
2 24948  86.4004  22.3851 0001752  96.0394 264.1003 14.37652503494513
IRIDIUM 36              
1 24967U 97056C   26086.26944255  .00000430  00000+0  13605-3 0  9998
2 24967  86.3946  53.9878 0002157  94.7287 265.4158 14.37887489492890
IRIDIUM 39              
1 25042U 97069D   26086.24848790  .00000688  00000+0  17323-3 0  9998
2 25042  86.3848  89.7714 0019932  81.7095 278.6368 14.49674447489968
IRIDIUM 38              
1 25043U 97069E   26086.11956484  .00000383  00000+0  11899-3 0  9999
2 25043  86.3917 114.2061 0000860 146.3412 213.7841 14.38426869486623
IRIDIUM 42              
1 25077U 97077A   26086.19691127  .00000359  00000+0  11531-3 0  9999
2 25077  86.3933 120.7043 0001470  92.6299 267.5067 14.36635129481827
IRIDIUM 44              
1 25078U 97077B   26086.29001488  .00000339  00000+0  10037-3 0  9994
2 25078  86.3900 101.8102 0002978 129.3716 230.7748 14.40522575484459
IRIDIUM 45              
1 25104U 97082A   26086.00813258  .00025763  00000+0  61477-3 0  9997
2 25104  86.3473 269.0130 0085705 342.1174  17.7066 15.37561270495263
IRIDIUM 24              
1 25105U 97082B   26086.10086514  .00000493  00000+0  14301-3 0  9993
2 25105  86.3912 320.2938 0009856 214.5848 145.4713 14.42459494483995
IRIDIUM 57              
1 25273U 98019B   26086.28816494  .00000356  00000+0  11535-3 0  9991
2 25273  86.3996  26.5160 0002075  89.3851 270.7583 14.36138037465418
IRIDIUM 63              
1 25286U 98021B   26086.16239783  .00000329  00000+0  10480-3 0  9993
2 25286  86.3992 323.4204 0002364  86.1071 274.0397 14.36837130464471
IRIDIUM 69              
1 25319U 98026A   26086.27205901  .00000451  00000+0  13318-3 0  9991
2 25319  86.4008 335.7690 0003428 129.9576 230.1926 14.41339237463831
IRIDIUM 71              
1 25320U 98026B   26086.18284284  .00000383  00000+0  11200-3 0  9996
2 25320  86.3998 330.4733 0001185 156.0740 204.0515 14.41421678464355
IRIDIUM 73              
1 25344U 98032C   26086.04175795  .00000518  00000+0  12269-3 0  9996
2 25344  86.4357 286.6627 0002826  96.2285 263.9243 14.52139702471601
IRIDIUM 82              
1 25467U 98051A   26086.17189027  .00064796  00000+0  74283-3 0  9992
2 25467  86.3576 328.0272 0041371 284.7421  74.9261 15.60777501467600
