KUIPER-00008            
1 63724U 25088A   26046.77929297 -.00003612  00000+0 -27287-3 0  9997
2 63724  51.8915 186.8529 0008840  24.2927 335.8458 14.99021875 44772
KUIPER-00009            
1 63725U 25088B   26046.90331292 -.00005002  00000+0 -62755-3 0  9999
2 63725  51.9013 202.9730 0008697  33.3736 326.7773 14.79886502 44555
KUIPER-00010            
1 63726U 25088C   26046.69306563  .00003253  00000+0  45589-3 0  9999
2 63726  51.9003 180.3597 0000739 109.3577 250.7466 14.79891498 44477
KUIPER-00011            
1 63727U 25088D   26046.71854161  .00004147  00000+0  57153-3 0  9998
2 63727  51.8981 187.8115 0001196  89.4107 270.6993 14.80019595 44507
KUIPER-00012            
1 63728U 25088E   26047.30343441  .00004381  00000+0  65024-3 0  9995
2 63728  51.9008 170.0932 0009151  56.7461 303.4375 14.76701875 44759
KUIPER-00013            
1 63729U 25088F   26046.42960363  .00002825  00000+0  39969-3 0  9996
2 63729  51.8987 206.5269 0002474 334.7462  25.3379 14.79903392 44276
KUIPER-00014            
1 63730U 25088G   26046.96814052  .00002937  00000+0  41427-3 0  9996
2 63730  51.8991 205.1167 0000599  92.8787 267.2244 14.79912297 44152
KUIPER-00015            
1 63731U 25088H   26046.76140853  .00002749  00000+0  35930-3 0  9999
2 63731  51.8980 215.8503 0009230   7.8140 352.2966 14.83393196 44447
KUIPER-00016            
1 63732U 25088J   26047.03305949  .00005820  00000+0  79364-3 0  9992
2 63732  51.8981 207.3620 0006971   8.1649 351.9426 14.79826449 44121
KUIPER-00018            
1 63733U 25088K   26046.84292611  .00002307  00000+0  33153-3 0  9995
2 63733  51.9007 197.1694 0009191  24.2798 335.8596 14.79937409 44252
KUIPER-00019            
1 63734U 25088L   26046.84391272  .00000864  00000+0  14245-3 0  9996
2 63734  51.8988 195.6987 0001741  70.6041 289.5109 14.79925428 44272
KUIPER-00020            
1 63735U 25088M   26046.90764706  .00003748  00000+0  52063-3 0  9994
2 63735  51.8991 199.4054 0007164  22.9123 337.2158 14.79917705 44432
KUIPER-00021            
1 63736U 25088N   26046.77083504  .00003851  00000+0  53276-3 0  9992
2 63736  51.8989 201.0041 0004615  25.7047 334.4144 14.80027905 44238
KUIPER-00023            
1 63737U 25088P   26046.43214513  .00001489  00000+0  22426-3 0  9990
2 63737  51.9003 203.9659 0008895  32.0045 328.1456 14.79962972 44467
KUIPER-00024            
1 63738U 25088Q   26046.78344046  .00001342  00000+0  20505-3 0  9998
2 63738  51.9030 189.9758 0000615 109.8015 250.3014 14.79922996 44810
KUIPER-00025            
1 63739U 25088R   26046.90881177 -.00003280  00000+0 -40154-3 0  9991
2 63739  51.9013 197.9302 0001204 137.9293 222.1762 14.79920067 44578
KUIPER-00027            
1 63740U 25088S   26046.91578654  .00002041  00000+0  29669-3 0  9997
2 63740  51.9007 191.8657 0000331 117.5629 242.5367 14.79922444 44394
KUIPER-00028            
1 63741U 25088T   26046.82637729  .00002837  00000+0  37014-3 0  9993
2 63741  51.8986 189.8269 0004563 105.8955 254.2512 14.83373732 44824
KUIPER-00029            
1 63742U 25088U   26046.73628755  .00002558  00000+0  33570-3 0  9996
2 63742  51.9003 188.2034 0001011 104.1947 255.9129 14.83465394 44364
KUIPER-00030            
1 63743U 25088V   26046.69701501  .00003222  00000+0  45060-3 0  9999
2 63743  51.8991 207.7951 0011109   2.5380 357.5637 14.80001954 44375
KUIPER-00031            
1 63744U 25088W   26046.60879916  .00002682  00000+0  35067-3 0  9992
2 63744  51.8995 193.8869 0002636  90.5086 269.6180 14.83456957 44273
KUIPER-00032            
1 63745U 25088X   26047.20839738  .00015468  00000+0  44446-3 0  9995
2 63745  51.8704 128.0107 0004344  41.4762 318.6553 15.35996821 46246
KUIPER-00033            
1 63746U 25088Y   26046.92694966  .00004084  00000+0  52253-3 0  9993
2 63746  51.8982 222.6048 0000564  60.7127 299.3893 14.83213630 44386
KUIPER-00034            
1 63747U 25088Z   26046.74929355  .00005191  00000+0  65446-3 0  9995
2 63747  51.9003 185.7508 0001063 263.4627  96.6216 14.83346416 44560
KUIPER-00035            
1 63748U 25088AA  26046.76005283  .00001211  00000+0  18764-3 0  9993
2 63748  51.9009 211.0901 0001999  10.1012 349.9990 14.79990948 44260
KUIPER-00037            
1 63749U 25088AB  26046.76187607  .00003045  00000+0  42866-3 0  9992
2 63749  51.8988 210.0241 0000344 143.4737 216.6248 14.79893116 45063
KUIPER-00038            
1 63750U 25088AC  26046.91319626  .00003476  00000+0  48441-3 0  9992
2 63750  51.9002 194.3832 0001525  60.7762 299.3353 14.79961232 44298
KUIPER-00039            
1 64500U 25134A   26047.22316192  .00005926  00000+0  80468-3 0  9995
2 64500  51.9027 328.0129 0000740 326.8785  33.2131 14.79984022 36891
KUIPER-00040            
1 64501U 25134B   26047.21087763  .00005964  00000+0  80954-3 0  9996
2 64501  51.9006 339.2129 0014410 192.7840 167.2759 14.79941775 36739
KUIPER-00041            
1 64502U 25134C   26047.00406415  .00005617  00000+0  75896-3 0  9997
2 64502  51.9011 341.4464 0010400 190.3459 169.7291 14.80264231 36687
KUIPER-00042            
1 64503U 25134D   26047.01097892  .00005575  00000+0  75909-3 0  9992
2 64503  51.9008 337.4567 0008672 206.4373 153.6148 14.79959191 36749
KUIPER-00043            
1 64504U 25134E   26047.17663742  .00007040  00000+0  87133-3 0  9994
2 64504  51.9026 328.7197 0001140 235.1259 124.9598 14.83643261 36885
KUIPER-00044            
1 64505U 25134F   26047.00561195  .00012517  00000+0  16667-2 0  9994
2 64505  51.9022 342.4782 0008786 199.8385 160.2237 14.79942628 36678
KUIPER-00046            
1 64506U 25134G   26047.21252750  .00002714  00000+0  38485-3 0  9993
2 64506  51.8989 338.0235 0000826 101.2204 258.8851 14.79928964 36750
KUIPER-00047            
1 64507U 25134H   26047.12826573  .00004751  00000+0  69718-3 0  9990
2 64507  51.9003 310.7814 0002826  80.8701 279.2580 14.77042387 37127
KUIPER-00048            
1 64508U 25134J   26047.10707456  .00003810  00000+0  52886-3 0  9990
2 64508  51.9004 311.0203 0001300  64.5150 295.5946 14.79904932 37120
KUIPER-00049            
1 64509U 25134K   26046.95688890  .00005449  00000+0  74325-3 0  9995
2 64509  51.9017 325.1583 0001118  95.3342 264.7748 14.79926305 36916
KUIPER-00050            
1 64510U 25134L   26047.13384329  .00007913  00000+0  69418-3 0  9993
2 64510  51.8921 309.9265 0004635 238.6318 121.4199 14.97419691 37140
KUIPER-00051            
1 64511U 25134M   26047.13397710  .00007091  00000+0  87873-3 0  9994
2 64511  51.9028 321.6582 0000618  78.3487 281.7547 14.83579488 36979
KUIPER-00052            
1 64512U 25134N   26046.99848892  .00349562  60085-4  82877-3 0  9995
2 64512  51.8430 217.8110 0006903 278.4097  81.6132 15.96157375 38388
KUIPER-00053            
1 64513U 25134P   26046.96393947  .00003047  00000+0  42827-3 0  9991
2 64513  51.9021 319.1666 0001562  92.1428 267.9713 14.79960249 36994
KUIPER-00054            
1 64514U 25134Q   26047.17192927  .00005732  00000+0  78080-3 0  9994
2 64514  51.8999 313.2203 0000250 130.6251 229.4733 14.79901641 37093
KUIPER-00055            
1 64515U 25134R   26046.94419816  .00015287  00000+0  71696-3 0  9990
2 64515  51.8931 282.1532 0000977 140.7301 219.3750 15.19842675 37513
KUIPER-00056            
1 64516U 25134S   26047.19109999  .00006499  00000+0  81084-3 0  9994
2 64516  51.9042 318.7782 0000523  51.3755 308.7255 14.83422544 37026
KUIPER-00057            
1 64517U 25134T   26046.98667984  .00006916  00000+0  85723-3 0  9992
2 64517  51.9008 327.2179 0004726 199.4511 160.6274 14.83603548 36881
KUIPER-00058            
1 64518U 25134U   26046.96125606  .00005699  00000+0  77550-3 0  9997
2 64518  51.9024 321.6163 0000171   1.5109 358.5854 14.79953442 36964
KUIPER-00059            
1 64519U 25134V   26047.16916662  .00005806  00000+0  78945-3 0  9990
2 64519  51.9003 315.7497 0002069 105.3045 254.8146 14.79962115 37067
KUIPER-00060            
1 64520U 25134W   26047.12479052  .00006612  00000+0  82311-3 0  9993
2 64520  51.9043 316.5588 0000975  29.3419 330.7600 14.83488332 37032
KUIPER-00061            
1 64521U 25134X   26046.95726963  .00005579  00000+0  75640-3 0  9998
2 64521  51.9018 324.1758 0001317 101.1778 258.9332 14.80145715 36918
KUIPER-00062            
1 64522U 25134Y   26047.25002315  .00019523  00000+0  24387-2 0  9996
2 64522  51.8966 325.4827 0002395 208.2125 258.2357 14.82335142  4757
KUIPER-00063            
1 64523U 25134Z   26047.21310497  .00006497  00000+0  87154-3 0  9994
2 64523  51.9031 333.0140 0001747  79.3992 280.7167 14.80365880 36826
KUIPER-00064            
1 64524U 25134AA  26047.22055442 -.00000493  00000+0 -35727-4 0  9994
2 64524  51.9047 330.4513 0000611  85.3637 274.7396 14.79920529 36867
KUIPER-00065            
1 64525U 25134AB  26047.21346477  .00006042  00000+0  81472-3 0  9996
2 64525  51.9041 335.6225 0000774  69.0923 291.0122 14.80251522 36777
KUIPER-00066            
1 64526U 25134AC  26047.04670830  .00018266  00000+0  78715-3 0  9998
2 64526  51.8751 286.3807 0003136 183.4197 176.6762 15.22615400 37463
KUIPER-00069            
1 64816U 25151A   26047.10454567  .00004859  00000+0  66574-3 0  9996
2 64816  51.9018  16.0687 0000410 117.9760 242.1244 14.79945395 33567
KUIPER-00070            
1 64817U 25151B   26047.17883288  .00004978  00000+0  68101-3 0  9990
2 64817  51.9002  40.6812 0000393 135.0972 225.0023 14.79963837 33230
KUIPER-00071            
1 64818U 25151C   26047.18150718 -.00001994  00000+0 -23260-3 0  9991
2 64818  51.9014  38.1882 0001785 173.9103 186.1882 14.79936227 32081
KUIPER-00072            
1 64819U 25151D   26045.41002163  .00076401  00000+0  10619-1 0  9991
2 64819  51.8985  25.9768 0000681  53.0173 307.0850 14.77121312 32105
KUIPER-00073            
1 64820U 25151E   26045.79552442 -.00045406  00000+0 -59627-2 0  9990
2 64820  51.9008  44.2941 0002153 188.1594 171.9334 14.79963749 33065
KUIPER-00074            
1 64821U 25151F   26047.22877783 -.00001614  00000+0 -18295-3 0  9999
2 64821  51.9030  25.4949 0001028  33.8830 326.2198 14.79902985 32268
KUIPER-00075            
1 64822U 25151G   26047.18566303  .00035666  00000+0  85787-3 0  9990
2 64822  51.8733 326.3986 0003933 183.5273 176.5688 15.40956598 33082
KUIPER-00076            
1 64823U 25151H   26047.15471903  .00005075  00000+0  68875-3 0  9999
2 64823  51.9010  28.2733 0000649 230.0581 130.0325 14.80270424 32229
KUIPER-00077            
1 64824U 25151J   26047.15319359  .00005047  00000+0  69034-3 0  9993
2 64824  51.9016  33.3301 0001660 152.5371 207.5679 14.79949777 32159
KUIPER-00078            
1 64825U 25151K   26047.25719526  .00000979  00000+0  15741-3 0  9990
2 64825  51.9015  30.3593 0000196 104.5763 255.5221 14.79933397 32207
KUIPER-00079            
1 64826U 25151L   26047.15046135  .00002646  00000+0  37577-3 0  9993
2 64826  51.8996  35.8099 0000803 104.1011 256.0041 14.79948550 33319
KUIPER-00080            
1 64827U 25151M   26047.25180371  .00000777  00000+0  13093-3 0  9996
2 64827  51.9001  35.3699 0000863  65.8600 294.2453 14.79928510 32136
KUIPER-00082            
1 64828U 25151N   26047.23152637  .00005685  00000+0  77400-3 0  9994
2 64828  51.9022  22.9867 0000837 100.9286 259.1771 14.79935952 32301
KUIPER-00083            
1 64829U 25151P   26047.15589995 -.00001389  00000+0 -15325-3 0  9994
2 64829  51.9014  30.8139 0000049 110.3745 249.7222 14.79922197 33374
KUIPER-00084            
1 64830U 25151Q   26047.28012577  .00004890  00000+0  66999-3 0  9998
2 64830  51.9009  40.2446 0002237 163.9182 196.1852 14.79934941 32065
KUIPER-00085            
1 64831U 25151R   26047.13023148  .00002514  00000+0  35878-3 0  9992
2 64831  51.9043  23.4582 0000679  96.0420 264.0620 14.79917906 32281
KUIPER-00086            
1 64832U 25151S   26047.25447733  .00004998  00000+0  68376-3 0  9993
2 64832  51.9018  32.8813 0000653 140.3454 219.7557 14.79953670 32168
KUIPER-00087            
1 64833U 25151T   26047.20330668  .00005573  00000+0  75510-3 0  9995
2 64833  51.9010  15.5655 0001239  85.1460 274.9644 14.80177990 32397
KUIPER-00089            
1 64834U 25151U   26047.13229191  .00005404  00000+0  73537-3 0  9996
2 64834  51.9012  20.9087 0000785  41.2879 318.8143 14.80047148 32327
KUIPER-00090            
1 64835U 25151V   26047.27606241  .00005678  00000+0  77349-3 0  9995
2 64835  51.8988  12.8146 0000797 100.6369 259.4683 14.79915034 32440
KUIPER-00091            
1 64836U 25151W   26047.06634848  .00002864  00000+0  40692-3 0  9992
2 64836  51.9020  18.6956 0000747  88.0171 272.0877 14.79674695 32347
KUIPER-00092            
1 64837U 25151X   26047.12749485  .00000929  00000+0  15100-3 0  9990
2 64837  51.9015  25.9404 0001008  88.9599 271.1479 14.79908883 33466
KUIPER-00093            
1 64838U 25151Y   26047.12479357  .00005200  00000+0  71114-3 0  9993
2 64838  51.9006  28.4354 0000395  64.6115 295.4888 14.79902145 32212
KUIPER-00094            
1 64839U 25151Z   26047.25796860  .00012165  00000+0  85955-3 0  9995
2 64839  51.8906   0.8859 0005255 198.5917 161.4865 15.05248458 32613
KUIPER-00081            
1 65132U 25171A   26046.84230771  .00010849  00000+0  14487-2 0  9990
2 65132  51.8992 244.6843 0000907  97.1083 262.9983 14.79964076 29809
KUIPER-00088            
1 65133U 25171B   26046.01997259 -.00012308  00000+0 -14622-2 0  9996
2 65133  51.8987 265.8998 0000417 196.1551 163.9399 14.83362772 29436
KUIPER-00095            
1 65134U 25171C   26046.96037057  .00003398  00000+0  51323-3 0  9999
2 65134  51.8970 241.5391 0000465 337.1937  22.9003 14.76536992 29856
KUIPER-00096            
1 65135U 25171D   26046.93279213  .00003855  00000+0  53438-3 0  9996
2 65135  51.8974 254.2929 0001479 120.7662 239.3446 14.79935459 29675
KUIPER-00097            
1 65136U 25171E   26046.99747733  .00083170  00000+0  10928-1 0  9993
2 65136  51.9005 256.6310 0000865 106.9219 253.1838 14.79454319 29630
KUIPER-00098            
1 65137U 25171F   26046.99501035 -.00002873  00000+0 -34854-3 0  9996
2 65137  51.8987 259.0235 0003100  96.7425 263.3890 14.79863970 28954
KUIPER-00099            
1 65138U 25171G   26046.76901794  .00003654  00000+0  50713-3 0  9996
2 65138  51.9007 249.9982 0001065 134.0381 226.0670 14.80007253 29714
KUIPER-00100            
1 65139U 25171H   26046.73831079  .00005118  00000+0  69948-3 0  9999
2 65139  51.9008 247.6224 0000514  94.6042 265.4980 14.79955835 29743
KUIPER-00102            
1 65140U 25171J   26046.73552909  .00004039  00000+0  55811-3 0  9998
2 65140  51.8968 250.1626 0000917  68.2972 291.8088 14.79966175 29707
KUIPER-00103            
1 65141U 25171K   26047.02064560  .00003881  00000+0  53626-3 0  9999
2 65141  51.8977 266.3944 0003258  82.2553 277.8779 14.80056359 29507
KUIPER-00104            
1 65142U 25171L   26046.96655324  .00003669  00000+0  51018-3 0  9993
2 65142  51.9002 254.0901 0000213  91.3366 268.7621 14.79920935 29677
KUIPER-00105            
1 65143U 25171M   26043.14094460 -.00052310  00000+0 -68999-2 0  9993
2 65143  51.9001 278.6085 0002270  85.1155 275.0066 14.79846132 29001
KUIPER-00106            
1 65144U 25171N   26046.94822366 -.00021441  00000+0 -18221-2 0  9993
2 65144  51.8922 253.7500 0007305  31.9358 328.2053 14.97074862 29681
KUIPER-00107            
1 65145U 25171P   26046.74088467  .00003821  00000+0  52999-3 0  9999
2 65145  51.8989 245.1477 0000776 112.7528 247.3517 14.79930587 29787
KUIPER-00108            
1 65146U 25171Q   26046.96378318  .00003901  00000+0  54006-3 0  9991
2 65146  51.9008 256.6752 0002383 107.8456 252.2767 14.79960932 29649
KUIPER-00109            
1 65147U 25171R   26046.86795978  .00003680  00000+0  51160-3 0  9998
2 65147  51.8995 252.0434 0000822 107.5314 252.5738 14.79925274 29693
KUIPER-00110            
1 65148U 25171S   26047.02339736 -.00002245  00000+0 -26628-3 0  9993
2 65148  51.8990 263.9464 0002275 123.5519 236.5661 14.79810780 29537
KUIPER-00111            
1 65149U 25171T   26047.05167854  .00003926  00000+0  54386-3 0  9994
2 65149  51.8955 268.7386 0002376  95.7617 264.3616 14.79926755 29478
KUIPER-00112            
1 65150U 25171U   26046.96902163  .00003581  00000+0  49935-3 0  9996
2 65150  51.8996 251.6481 0000757 104.4202 255.6845 14.79858024 29707
KUIPER-00114            
1 65151U 25171V   26046.84639366  .00003801  00000+0  52732-3 0  9990
2 65151  51.8986 272.1966 0002173  91.7389 268.3822 14.79935243 29403
KUIPER-00115            
1 65152U 25171W   26046.85431851  .00003762  00000+0  52214-3 0  9992
2 65152  51.8999 264.6470 0000897 109.6904 250.4155 14.79941897 29512
KUIPER-00116            
1 65153U 25171X   26047.01784602  .00004317  00000+0  59421-3 0  9991
2 65153  51.8989 268.9629 0002682  69.9532 290.1719 14.79984314 29466
KUIPER-00118            
1 65154U 25171Y   26047.01498936  .00004277  00000+0  58886-3 0  9993
2 65154  51.8994 271.4314 0001339 120.3968 239.7127 14.79996658 29439
KUIPER-00119            
1 65155U 25171Z   26046.96158509  .00024477  00000+0  32813-2 0  9991
2 65155  51.9025 259.2526 0004378  62.7433 297.3974 14.79237632 29594
KUIPER-00120            
1 65762U 25217A   26045.30114427  .00019718  00000+0  28160-2 0  9996
2 65762  51.8988 156.4343 0001997 194.4527 165.6377 14.76670371 21270
KUIPER-00132            
1 65763U 25217B   26047.19452278  .00056378  00000+0  14328-2 0  9999
2 65763  51.8597 107.7866 0007010 251.3116 108.7110 15.39058860 22115
KUIPER-00133            
1 65764U 25217C   26047.29925785  .00005329  00000+0  72783-3 0  9999
2 65764  51.9019 147.7023 0001747 315.4235  44.6587 14.79912909 21571
KUIPER-00139            
1 65765U 25217D   26046.61630584 -.00010791  00000+0 -79565-3 0  9991
2 65765  51.8850 134.8447 0007112 246.8210 113.2012 15.01943321 21690
KUIPER-00142            
1 65766U 25217E   26047.21682544  .00004677  00000+0  64186-3 0  9999
2 65766  51.8982 130.5461 0000954  69.9409 290.1656 14.79945970 21805
KUIPER-00145            
1 65767U 25217F   26046.53876833 -.00008734  00000+0 -11188-2 0  9993
2 65767  51.8997 136.0580 0000747  98.0220 262.0827 14.79907772 21669
KUIPER-00147            
1 65768U 25217G   26047.24509680  .00005267  00000+0  72000-3 0  9993
2 65768  51.8984 135.4309 0001245  81.2658 278.8445 14.79897219 21734
KUIPER-00148            
1 65769U 25217H   26047.22521315  .00012971  00000+0  80538-3 0  9996
2 65769  51.8777 124.1410 0008357 277.7711  82.2315 15.09968179 21894
KUIPER-00150            
1 65770U 25217J   26046.69420236  .00003944  00000+0  54653-3 0  9997
2 65770  51.9005 147.8685 0000724 137.8743 222.2275 14.79893742 21517
KUIPER-00151            
1 65771U 25217K   26047.24246777  .00001859  00000+0  27286-3 0  9991
2 65771  51.9009 137.9410 0000631  62.2570 297.8456 14.79931735 21709
KUIPER-00152            
1 65772U 25217L   26045.59913906  .00073782  00000+0  10103-1 0  9995
2 65772  51.9002 132.6778 0000863  63.5406 296.5644 14.77780480 21635
KUIPER-00153            
1 65773U 25217M   26046.53748043  .00014727  00000+0  84170-3 0  9990
2 65773  51.8777 130.7226 0010931 247.8071 112.1745 15.12848351 21742
KUIPER-00155            
1 65774U 25217N   26047.20670402  .00014655  00000+0  63274-3 0  9991
2 65774  51.8801 113.1230 0005271 270.3442  89.6935 15.22713033 22047
KUIPER-00156            
1 65775U 25217P   26047.19382848  .00004398  00000+0  60506-3 0  9992
2 65775  51.9022 120.6753 0000674  82.0607 278.0432 14.79962303 21930
KUIPER-00158            
1 65776U 25217Q   26047.26986306  .00005732  00000+0  77332-3 0  9998
2 65776  51.8967 140.2605 0000268  27.6003 332.4974 14.80311647 21674
KUIPER-00163            
1 65777U 25217R   26047.24856585  .00006071  00000+0  78915-3 0  9997
2 65777  51.8965 142.6676 0000290 309.0707  51.0230 14.81797126 21636
KUIPER-00165            
1 65778U 25217S   26046.71032491 -.00002977  00000+0 -36175-3 0  9996
2 65778  51.9000 132.7904 0000617 115.3310 244.7716 14.79924452 21724
KUIPER-00166            
1 65779U 25217T   26047.16280376  .00012941  00000+0  17234-2 0  9998
2 65779  51.9006 118.3129 0001830  58.5854 301.5287 14.79929605 21965
KUIPER-00167            
1 65780U 25217U   26043.72819191 -.00000943  00000+0 -94705-4 0  9992
2 65780  51.8977 155.9468 0000627 197.7438 162.3502 14.79915091 21140
KUIPER-00168            
1 65781U 25217V   26047.19109728 -.00000211  00000+0  13537-5 0  9998
2 65781  51.9015 123.1677 0001165  51.4109 308.6958 14.79952145 21908
KUIPER-00169            
1 65782U 25217W   26047.25289404  .00005188  00000+0  70712-3 0  9999
2 65782  51.8998 127.8914 0000587  54.3180 305.7837 14.80050194 21843
KUIPER-00170            
1 65783U 25217X   26047.24786068  .00000968  00000+0  15599-3 0  9990
2 65783  51.8986 132.9076 0000689  60.7632 299.3399 14.79931426 21770
KUIPER-00172            
1 65785U 25217Z   26047.25002315 -.00003363  00000+0 -20379-3 0  9995
2 65785  51.8852 116.1138 0002103 239.3435 185.9117 15.06921102  5798
KUIPER-00173            
1 65786U 25217AA  26047.24582314  .00006232  00000+0  79497-3 0  9998
2 65786  51.9006 127.5037 0000352  62.0437 298.0562 14.82551159 21840
KUIPER-00174            
1 65787U 25217AB  26046.41461162  .00005807  00000+0  78849-3 0  9991
2 65787  51.9032 126.6218 0000700  12.6269 347.4711 14.80020716 21788
KUIPER-00176            
1 65788U 25217AC  26047.27620838  .00003394  00000+0  47390-3 0  9990
2 65788  51.8997 137.7912 0000496  76.6763 283.4255 14.79941058 21706
KUIPER-00101            
1 65947U 25228A   26047.28840767  .00004582  00000+0  63008-3 0  9999
2 65947  51.8989  95.2199 0000993  88.7274 271.3802 14.79899866 20063
KUIPER-00113            
1 65948U 25228B   26046.38204549  .00000378  00000+0  78640-4 0  9990
2 65948  51.8963  94.2422 0000884  20.1582 339.9415 14.79936443 19999
KUIPER-00117            
1 65949U 25228C   26047.29121879  .00004664  00000+0  64082-3 0  9992
2 65949  51.8978  92.7279 0000638  61.6258 298.4768 14.79906028 20095
KUIPER-00121            
1 65950U 25228D   26047.26267181  .00035992  00000+0  47307-2 0  9996
2 65950  51.8986  87.8451 0001229  56.9034 303.2046 14.79881370 20163
KUIPER-00122            
1 65951U 25228E   26046.57650439  .00004744  00000+0  65117-3 0  9993
2 65951  51.8984 100.8581 0000810  40.0373 320.0649 14.79908746 19922
KUIPER-00123            
1 65952U 25228F   26047.28562738 -.00000030  00000+0  25072-4 0  9999
2 65952  51.8992  97.7552 0001974  15.8760 344.2264 14.79936375 20029
KUIPER-00124            
1 65953U 25228G   26047.29374104  .00004607  00000+0  63304-3 0  9991
2 65953  51.8986  90.1969 0001110  81.4248 278.6840 14.79927814 20134
KUIPER-00125            
1 65954U 25228H   26047.24242481  .00003436  00000+0  47939-3 0  9994
2 65954  51.8999  75.4439 0000919 125.6529 234.4519 14.79937719 20336
KUIPER-00126            
1 65955U 25228J   26047.11953423  .00004173  00000+0  57632-3 0  9996
2 65955  51.8979  95.9893 0001056  76.9569 283.1511 14.79913614 20039
KUIPER-00127            
1 65956U 25228K   26047.25875153  .00003893  00000+0  49656-3 0  9990
2 65956  51.8995  86.5715 0001168 320.2414  39.8464 14.83446526 20182
KUIPER-00128            
1 65957U 25228L   26047.29608169  .00004449  00000+0  61089-3 0  9998
2 65957  51.9001  87.7166 0000803  80.3606 279.7447 14.80029481 20165
KUIPER-00129            
1 65958U 25228M   26047.26804472  .00004106  00000+0  56741-3 0  9990
2 65958  51.9015  82.8304 0000582  73.9694 286.1332 14.79918146 20236
KUIPER-00130            
1 65959U 25228N   26047.29917850  .00004414  00000+0  60885-3 0  9995
2 65959  51.9016  85.1945 0001071  82.7820 277.3264 14.79844789 10492
KUIPER-00134            
1 65960U 25228P   26047.27602606  .00034461  00000+0  91940-3 0  9996
2 65960  51.8756  64.0474 0005295 245.3077 114.7359 15.37800046 20493
KUIPER-00135            
1 65961U 25228Q   26047.26535012 -.00001800  00000+0 -20723-3 0  9996
2 65961  51.9016  85.4062 0000497  91.9115 268.1904 14.79919568 20193
KUIPER-00136            
1 65962U 25228R   26047.30185603  .00007903  00000+0  10640-2 0  9993
2 65962  51.9001  82.7209 0001283  37.1705 322.9346 14.79954864 20234
KUIPER-00137            
1 65963U 25228S   26047.24614627  .00003856  00000+0  57359-3 0  9992
2 65963  51.9020  80.5196 0000166 186.7770 173.3189 14.76891795 20265
KUIPER-00138            
1 65964U 25228T   26047.27345319  .00004188  00000+0  57814-3 0  9990
2 65964  51.8982  77.7985 0000597  83.5454 276.5576 14.79921189 20302
KUIPER-00140            
1 65965U 25228U   26047.27097295  .00003427  00000+0  48025-3 0  9997
2 65965  51.9005  80.3946 0001585 139.5233 220.5847 14.79764932 20268
KUIPER-00141            
1 65966U 25228V   26047.27612856  .00003548  00000+0  49461-3 0  9993
2 65966  51.9026  75.3731 0000872 107.8623 252.2435 14.79895389 20331
KUIPER-00146            
1 65967U 25228W   26046.46606441 -.00041467  00000+0 -50164-2 0  9992
2 65967  51.9030  81.1464 0001536  79.8215 280.2922 14.83334124 20183
KUIPER-00149            
1 65968U 25228X   26047.25002315 -.00050264  00000+0 -65566-2 0  9998
2 65968  51.9002  72.9108 0001263  15.5071 189.9334 14.80295546  3263
KUIPER-00154            
1 65969U 25228Y   26047.25002315 -.00096614  00000+0 -11489-1 0  9992
2 65969  51.8995  70.4585 0004319 232.5146 115.4603 14.84495568  5732
KUIPER-00157            
1 65970U 25228Z   26047.25002315 -.00051895  00000+0 -66320-2 0  9991
2 65970  51.9007  73.0330 0001350 128.2802 251.8779 14.81167676  5875
KUIPER-00144            
1 67133U 25301A   26046.75550310  .00052828  00000+0  14068-2 0  9990
2 67133  51.8687 171.2287 0007075 309.8143  50.2221 15.37650192 10363
KUIPER-00164            
1 67134U 25301B   26047.25002315  .00040703  00000+0  13188-2 0  9995
2 67134  51.8737 168.7307 0003599 305.5240 315.6211 15.31606668  5412
KUIPER-00175            
1 67135U 25301C   26047.29942210  .00054412  00000+0  14113-2 0  9998
2 67135  51.8715 168.1444 0000492 259.7515 100.3416 15.38469439 10523
KUIPER-00179            
1 67136U 25301D   26046.73221804  .00025881  00000+0  69077-3 0  9994
2 67136  51.8717 171.0881 0002008 286.3940  73.6826 15.37947812 10541
KUIPER-00181            
1 67137U 25301E   26047.25002315  .00043421  00000+0  34990-2 0  9992
2 67137  51.8873 172.6565 0014212 327.9452  75.7061 14.99418322  4892
KUIPER-00183            
1 67138U 25301F   26046.74142919  .00040990  00000+0  11335-2 0  9997
2 67138  51.8613 171.8248 0013863 332.3144  27.7103 15.36525918 10526
KUIPER-00184            
1 67139U 25301G   26046.72958542  .00037843  00000+0  10399-2 0  9995
2 67139  51.8624 171.7557 0011678 330.3365  29.6958 15.36786724 10631
KUIPER-00186            
1 67140U 25301H   26047.25002315 -.00010945  00000+0 -10788-2 0  9992
2 67140  51.8957 173.2714 0008369 321.4907 267.1167 14.90756820  5290
KUIPER-00187            
1 67141U 25301J   26047.25002315  .00023704  00000+0  29471-2 0  9997
2 67141  51.9010 175.4001 0006439 332.5984 115.8613 14.82412270  5899
KUIPER-00188            
1 67142U 25301K   26046.70884176  .00030438  00000+0  82928-3 0  9999
2 67142  51.8688 171.6562 0009147 324.7113  35.3267 15.37187388 10354
KUIPER-00191            
1 67143U 25301L   26047.25002315 -.01517506  00000+0 -97108-1 0  9991
2 67143  51.8829 170.1689 0008974 328.4458 251.4257 15.11445100  2291
KUIPER-00196            
1 67144U 25301M   26046.60837319  .00024787  00000+0  66255-3 0  9992
2 67144  51.8716 171.7545 0003219 283.4524  76.6104 15.37924280 10348
KUIPER-00204            
1 67145U 25301N   26046.78292104  .00024139  00000+0  95074-3 0  9991
2 67145  51.8818 174.3109 0002711 257.2031 102.8648 15.25475382 10431
KUIPER-00210            
1 67146U 25301P   26047.25002315 -.02264657  00000+0 -12791+0 0  9994
2 67146  51.8790 170.3963 0012027 348.8666 184.8282 15.16061616  5469
KUIPER-00221            
1 67147U 25301Q   26047.25002315  .00019192  00000+0  23495-2 0  9999
2 67147  51.9005 175.4864 0000633  30.5944 185.2304 14.83186292  5528
KUIPER-00232            
1 67148U 25301R   26047.30292994  .00039318  00000+0  10317-2 0  9991
2 67148  51.8713 168.1665 0001232 190.6994 169.3967 15.38258751 10458
KUIPER-00241            
1 67149U 25301S   26047.25002315 -.01359062  00000+0 -11537+0 0  9998
2 67149  51.8928 171.2506 0001691 356.4397 146.9646 15.00755517  5926
KUIPER-00245            
1 67150U 25301T   26047.25002315  .00019174  00000+0  24832-2 0  9999
2 67150  51.9011 177.9362 0001135  60.9835 205.1003 14.80835084  5809
KUIPER-00246            
1 67151U 25301U   26047.25002315  .00068368  00000+0  20478-2 0  9991
2 67151  51.8744 168.7258 0005109 327.5349 313.0865 15.33870661  5748
KUIPER-00247            
1 67152U 25301V   26046.55878903  .00038798  00000+0  10910-2 0  9992
2 67152  51.8631 172.8522 0013223 336.5668  23.4714 15.36039782 10323
KUIPER-00248            
1 67153U 25301W   26046.72862588  .00039819  00000+0  10992-2 0  9999
2 67153  51.8683 171.7703 0010568 321.9316  38.0923 15.36634053 10525
KUIPER-00249            
1 67154U 25301X   26046.77386145  .00093545  00000+0  24867-2 0  9997
2 67154  51.8655 171.3197 0009892 332.1601  27.8855 15.37418481 10365
KUIPER-00250            
1 67155U 25301Y   26047.25002315 -.01278401  00000+0 -54034-1 0  9993
2 67155  51.8768 169.2588 0008365 329.1118  53.6583 15.25665498  5328
KUIPER-00251            
1 67156U 25301Z   26046.59039075  .00024816  00000+0  68300-3 0  9992
2 67156  51.8661 172.3436 0010572 327.2809  32.7522 15.36971345 10529
KUIPER-00252            
1 67157U 25301AA  26046.73513304  .00027384  00000+0  75927-3 0  9997
2 67157  51.8652 171.8043 0011602 330.3748  29.6580 15.36675101 10351
KUIPER-00261            
1 67158U 25301AB  26047.25002315  .00064424  00000+0  27173-2 0  9996
2 67158  51.8766 169.2683 0010447 322.6899   9.2018 15.22651275  5777
KUIPER-00265            
1 67159U 25301AC  26046.52137916  .00002291  00000+0  32966-3 0  9993
2 67159  51.9027 183.6377 0000701  25.6441 334.4556 14.79901757 10202
