ORBCOMM FM06            
1 25118U 97084G   26136.18070786  .00000623  00000+0  20714-3 0  9997
2 25118  45.0129 206.7834 0001852 226.3787 157.3096 14.47479700489758
ORBCOMM FM04            
1 25159U 98007C   26136.13469384  .00000591  00000+0  24839-3 0  9995
2 25159 107.9627 103.4562 0040146  20.3941 339.8793 14.35673680471996
ORBCOMM FM19            
1 25415U 98046C   26136.17566031  .00000627  00000+0  24492-3 0  9999
2 25415  44.9950  35.7142 0002271 136.0768  25.7609 14.39431181452167
ORBCOMM FM20            
1 25416U 98046D   26136.05601910  .00000387  00000+0  17345-3 0  9995
2 25416  44.9949  43.8527 0000629 348.2627  11.8207 14.38015419452160
ORBCOMM FM27            
1 25481U 98053G   26136.18484422  .00000457  00000+0  19229-3 0  9997
2 25481  45.0038 127.3447 0001878 291.5267  68.5381 14.39073166445628
ORBCOMM FM32            
1 25982U 99065C   26135.89555837  .00000389  00000+0  17726-3 0  9997
2 25982  45.0163 326.0829 0005648 251.2962 108.7273 14.37083798382446
ORBCOMM FM109           
1 40086U 14040A   26136.31966882  .00000183  00000+0  74948-4 0  9995
2 40086  47.0031 242.1502 0000664  88.7450 271.3512 14.58809435629699
ORBCOMM FM114           
1 41179U 15081A   26136.20016612  .00000171  00000+0  72445-4 0  9997
2 41179  47.0031 153.2304 0001567  25.5465 334.5498 14.58819608553080
ORBCOMM FM110           
1 41182U 15081D   26136.32584621  .00000314  00000+0  10289-3 0  9990
2 41182  47.0002 152.0857 0004050 284.8527  75.1910 14.58825161552976
ORBCOMM FM118           
1 41183U 15081E   26136.08633591  .00000164  00000+0  71045-4 0  9996
2 41183  47.0027 153.5450 0004081 254.7942 105.2493 14.58844890553040
ORBCOMM FM112           
1 41184U 15081F   26136.15980505  .00000306  00000+0  10113-3 0  9991
2 41184  46.9992  61.6879 0002244  53.2241 306.8850 14.58759217554277
ORBCOMM FM113           
1 41185U 15081G   26136.20403612  .00000209  00000+0  80494-4 0  9999
2 41185  47.0011  61.8404 0001189  33.2021 326.8940 14.58820232554266
ORBCOMM FM108           
1 41187U 15081J   26135.89266227  .00000367  00000+0  11392-3 0  9999
2 41187  47.0060 334.8791 0002112  44.7555 315.3501 14.58822378555361
ORBCOMM FM117           
1 41188U 15081K   26135.92660107  .00000342  00000+0  10863-3 0  9994
2 41188  47.0023 333.3623 0002542  53.7104 306.4016 14.58820120555417
ORBCOMM FM116           
1 41189U 15081L   26136.18124635  .00000252  00000+0  89645-4 0  9990
2 41189  47.0024  61.9458 0002236 286.5148  73.5492 14.58829070554268
