EUTELSAT 174A           
1 28924U 05052A   26126.55865633  .00000018  00000+0  00000+0 0  9992
2 28924   4.1146  77.0251 0006605 326.5560 196.0077  1.00269514 51913
EUTELSAT 33F            
1 29270U 06032A   26126.55410250  .00000164  00000+0  00000+0 0  9999
2 29270   1.5540  82.6761 0003719 323.9368  50.3681  1.00272808 46899
EUTELSAT HOTBIRD 13C    
1 33459U 08065A   26126.46621900 -.00000274  00000+0  00000+0 0  9990
2 33459   2.8435  79.6628 0004464 331.2014 291.0320  1.00271553 46920
EUTELSAT 36B            
1 36101U 09065A   26126.41482767  .00000120  00000+0  00000+0 0  9998
2 36101   0.3857  80.2564 0006128 328.1757  15.6979  1.00274382 60281
EUTELSAT KA-SAT 9A      
1 37258U 10069A   26126.54924916  .00000070  00000+0  00000+0 0  9993
2 37258   0.0621   4.7563 0004107 131.2942 295.1023  1.00273213 43597
EUTELSAT 7 WEST A       
1 37816U 11051A   26126.40347429 -.00000052  00000+0  00000+0 0  9999
2 37816   0.0981  47.0027 0004259 358.5853 316.6247  1.00273008 53459
EUTELSAT 16A            
1 37836U 11057A   26126.55063582  .00000112  00000+0  00000+0 0  9994
2 37836   0.0494 345.9938 0005820  66.7459  25.9214  1.00273454  6925
EUTELSAT 21B            
1 38992U 12062B   26126.55176249  .00000138  00000+0  00000+0 0  9998
2 38992   0.0704 344.5574 0002919  65.2361  34.8717  1.00273699 49415
EUTELSAT 70B            
1 39020U 12069A   26126.56660365 -.00000036  00000+0  00000+0 0  9994
2 39020   0.0667   2.3537 0004743  36.9819  99.5558  1.00272037 49094
EUTELSAT 117 WEST A     
1 39122U 13012A   26126.62766057 -.00000005  00000+0  00000+0 0  9994
2 39122   0.0316  39.2867 0002669   6.0671 288.3003  1.00272970 48012
EUTELSAT 7B             
1 39163U 13022A   26126.54881581  .00000056  00000+0  00000+0 0  9996
2 39163   0.0721   9.7432 0005790  17.0208  42.2339  1.00270641 47531
EXPRESS-AT1             
1 39612U 14010A   26126.63036949  .00000066  00000+0  00000+0 0  9994
2 39612   0.1494  85.4332 0002731  18.2294  46.1027  1.00292956 44401
EXPRESS-AT2             
1 39613U 14010B   26126.55860919  .00000086  00000+0  00000+0 0  9990
2 39613   0.0154 273.1535 0000203  98.3662 109.9972  1.00271529 44089
EUTELSAT 3B             
1 39773U 14030A   26126.54803581  .00000028  00000+0  00000+0 0  9996
2 39773   0.0659 359.8610 0004188  48.2575  16.6791  1.00272296 43652
EUTELSAT 115 WEST B     
1 40425U 15010B   26126.62695572 -.00000017  00000+0  00000+0 0  9998
2 40425   0.0113 125.6128 0000408 164.1125  45.5647  1.00273700 40970
EUTELSAT 8 WEST B       
1 40875U 15039B   26126.40330096 -.00000058  00000+0  00000+0 0  9996
2 40875   0.0688 345.9447 0003868  58.4389 317.0784  1.00272119 39236
EUTELSAT 9B             
1 41310U 16005A   26126.54924916  .00000070  00000+0  00000+0 0  9993
2 41310   0.0671  76.6691 0003081 294.6104  59.8552  1.00272329 37693
EUTELSAT 65 WEST A      
1 41382U 16014A   26126.53460242 -.00000268  00000+0  00000+0 0  9998
2 41382   0.0727  45.0404 0002401   3.5538 303.0487  1.00269720 37107
EUTELSAT 117 WEST B     
1 41589U 16038B   26126.52437571 -.00000004  00000+0  00000+0 0  9999
2 41589   0.0092 127.6077 0000313 163.8317   4.7164  1.00270943 36249
EUTELSAT 172B           
1 42741U 17029B   26126.56389854  .00000002  00000+0  00000+0 0  9992
2 42741   0.0177 190.3231 0000175 252.3430 156.7729  1.00270315 33323
EUTELSAT 7C             
1 44334U 19034B   26126.54881581  .00000056  00000+0  00000+0 0  9991
2 44334   0.0752 181.0679 0003367 213.0090  34.9048  1.00271326  6411
EUTELSAT 5 WEST B       
1 44624U 19067A   26126.33256091 -.00000034  00000+0  00000+0 0  9995
2 44624   0.0687 337.6680 0003266  71.7032 289.5660  1.00275287 24018
EUTELSAT KONNECT        
1 45027U 20005B   26126.54890248  .00000058  00000+0  00000+0 0  9993
2 45027   0.0670  92.5463 0001228 193.2863 143.4124  1.00272111 23916
EUTELSAT QUANTUM        
1 49056U 21069B   26126.55696251  .00000134  00000+0  00000+0 0  9994
2 49056   0.0121 324.1729 0002382  79.4689  68.9910  1.00272721 17515
EUTELSAT KONNECT VHTS   
1 53765U 22110A   26126.12027282  .00000025  00000+0  00000+0 0  9998
2 53765   0.0614  94.7795 0002996 289.4398 245.7902  1.00269780  6412
EUTELSAT HOTBIRD 13F    
1 54048U 22134A   26126.55011582  .00000095  00000+0  00000+0 0  9999
2 54048   0.0536 287.9277 0001921  78.4494  69.0907  1.00270645 12951
EUTELSAT HOTBIRD 13G    
1 54225U 22146A   26126.55011582  .00000095  00000+0  00000+0 0  9999
2 54225   0.0427 241.2975 0002085 295.1945 258.9602  1.00270160  7043
EUTELSAT 10B            
1 54259U 22157A   26126.54942249  .00000077  00000+0  00000+0 0  9990
2 54259   0.0605  94.1992 0002190   9.4530 328.5500  1.00274427 12604
EUTELSAT 36D            
1 59346U 24059A   26126.55462250  .00000163  00000+0  00000+0 0  9991
2 59346   0.0161 265.9926 0000291 168.6492  25.3057  1.00271948  7735
