KUIPER-00008            
1 63724U 25088A   26234.99446635 -.00000818  00000+0 -78368-4 0  9992
2 63724  51.8998  72.6078 0000856 116.4410 243.6640 14.79926625 72678
KUIPER-00009            
1 63725U 25088B   26234.96528162  .00004240  00000+0  29241-3 0  9992
2 63725  51.9019  85.6972 0001186  62.6810 297.4285 15.07767542 72488
KUIPER-00010            
1 63726U 25088C   26234.96609746 -.00001084  00000+0 -11322-3 0  9997
2 63726  51.9016  67.8403 0000742  97.5044 262.6002 14.79924606 72351
KUIPER-00011            
1 63727U 25088D   26234.99179790  .00000987  00000+0  15849-3 0  9999
2 63727  51.9009  75.2725 0000619 132.1213 227.9802 14.79927418 72380
KUIPER-00012            
1 63728U 25088E   26235.24430560 -.00000436  00000+0 -28188-4 0  9996
2 63728  51.9018  59.0933 0000851 114.8982 245.2068 14.79922051 72587
KUIPER-00013            
1 63729U 25088F   26234.97290001 -.00001100  00000+0 -11531-3 0  9992
2 63729  51.9018  92.8143 0001166 125.2893 234.8178 14.79924517 72195
KUIPER-00014            
1 63730U 25088G   26235.00664504 -.00003454  00000+0 -42417-3 0  9993
2 63730  51.9019  92.6080 0000643 112.8289 247.2742 14.79945690 72017
KUIPER-00015            
1 63731U 25088H   26234.89455945  .00000980  00000+0  15754-3 0  9990
2 63731  51.8993 103.1554 0001040 102.3000 257.8079 14.79937827 72315
KUIPER-00016            
1 63732U 25088J   26235.00394215  .00002870  00000+0  40528-3 0  9994
2 63732  51.8998  95.1290 0000981 103.6037 256.5035 14.79942512 71971
KUIPER-00018            
1 63733U 25088K   26234.03557133 -.00000071  00000+0  19664-4 0  9997
2 63733  51.9041  89.4507 0000841 120.1012 240.0034 14.79917999 71979
KUIPER-00019            
1 63734U 25088L   26235.27777914 -.00001058  00000+0 -10975-3 0  9998
2 63734  51.8974  82.7102 0001100 117.4866 242.6208 14.79928150 72171
KUIPER-00020            
1 63735U 25088M   26234.30299466 -.00001106  00000+0 -11613-3 0  9997
2 63735  51.9015  90.7673 0000998 113.9248 246.1819 14.79925529 72185
KUIPER-00021            
1 63736U 25088N   26235.28216563 -.00000221  00000+0  46345-7 0  9993
2 63736  51.9012  86.3883 0000997 107.1387 252.9685 14.79926138 72166
KUIPER-00023            
1 63737U 25088P   26234.97557823  .00001360  00000+0  20739-3 0  9995
2 63737  51.9010  90.2344 0001000 104.7992 255.3081 14.79930076 72389
KUIPER-00024            
1 63738U 25088Q   26235.25917761  .00001145  00000+0  17916-3 0  9993
2 63738  51.9036  76.5879 0000958 119.9484 240.1574 14.79944985 72724
KUIPER-00025            
1 63739U 25088R   26235.28488177 -.00001571  00000+0 -17706-3 0  9993
2 63739  51.9039  83.9560 0001520 111.5954 248.5170 14.79928351 72489
KUIPER-00027            
1 63740U 25088S   26234.98638362  .00001239  00000+0  19161-3 0  9990
2 63740  51.9007  80.2381 0001116 116.5056 243.6021 14.79923604 72247
KUIPER-00028            
1 63741U 25088T   26235.29295384 -.00001816  00000+0 -20923-3 0  9990
2 63741  51.8990  76.3236 0001624 120.2722 239.8401 14.79925626 72738
KUIPER-00029            
1 63742U 25088U   26235.26897588  .00000918  00000+0  14945-3 0  9999
2 63742  51.9016  75.1251 0001163 102.1071 258.0022 14.79922359 72278
KUIPER-00030            
1 63743U 25088V   26234.97019922 -.00001786  00000+0 -20536-3 0  9994
2 63743  51.9022  95.2692 0000999 107.8500 252.2571 14.79927567 72252
KUIPER-00031            
1 63744U 25088W   26235.29025742  .00000655  00000+0  11500-3 0  9991
2 63744  51.9032  78.8756 0000601 136.1769 223.9241 14.79919329 72227
KUIPER-00032            
1 63745U 25088X   26234.89109936  .00011636  00000+0  27854-3 0  9995
2 63745  51.8669 297.5965 0004409 357.0334   3.0627 15.41900142 75150
KUIPER-00033            
1 63746U 25088Y   26234.92025025  .00003035  00000+0  42686-3 0  9990
2 63746  51.9005 110.5128 0000896 102.2111 257.8952 14.79937693 72237
KUIPER-00034            
1 63747U 25088Z   26234.55552788  .00000767  00000+0  12959-3 0  9990
2 63747  51.9020  74.6596 0000656 108.3109 251.7925 14.79918783 72380
KUIPER-00035            
1 63748U 25088AA  26235.00125552  .00001005  00000+0  16081-3 0  9993
2 63748  51.8999  97.6577 0000822 110.7649 249.3402 14.79940021 72158
KUIPER-00037            
1 63749U 25088AB  26234.99418386 -.00000298  00000+0 -10074-4 0  9993
2 63749  51.9002  96.5487 0000693  98.4207 261.6834 14.79920631 72950
KUIPER-00038            
1 63750U 25088AC  26234.98367976  .00000989  00000+0  15870-3 0  9995
2 63750  51.9018  82.7660 0000938 113.2393 246.8668 14.79923449 72144
KUIPER-00039            
1 64500U 25134A   26234.68612114 -.00001262  00000+0 -13662-3 0  9999
2 64500  51.8979 219.0791 0000419  51.6156 308.4844 14.79928001 64656
KUIPER-00040            
1 64501U 25134B   26235.24934997  .00001866  00000+0  27367-3 0  9994
2 64501  51.8965 226.6541 0000469  48.4808 311.6194 14.79938160 64596
KUIPER-00041            
1 64502U 25134C   26235.01028391  .00002197  00000+0  31719-3 0  9996
2 64502  51.8989 230.1017 0000532  57.9533 302.1481 14.79927065 64521
KUIPER-00042            
1 64503U 25134D   26235.25205024  .00002003  00000+0  29168-3 0  9994
2 64503  51.8981 224.0114 0000523  61.6139 298.4876 14.79936183 64636
KUIPER-00043            
1 64504U 25134E   26234.38222424  .00002236  00000+0  32224-3 0  9996
2 64504  51.9002 220.3650 0000656  44.7882 315.3133 14.79935845 64617
KUIPER-00044            
1 64505U 25134F   26235.24665901  .00002060  00000+0  29916-3 0  9993
2 64505  51.8980 229.0384 0000609  32.8779 327.2221 14.79934710 64567
KUIPER-00046            
1 64506U 25134G   26235.01296534  .00002049  00000+0  29753-3 0  9997
2 64506  51.8971 227.5439 0000592  46.5369 313.5642 14.79953257 64562
KUIPER-00047            
1 64507U 25134H   26235.21145996 -.00001939  00000+0 -22546-3 0  9997
2 64507  51.8984 199.1932 0000784  57.5827 302.5211 14.79928258 64971
KUIPER-00048            
1 64508U 25134J   26235.17771731  .00002294  00000+0  32986-3 0  9997
2 64508  51.8981 199.3552 0000672  66.6726 293.4307 14.79934211 64974
KUIPER-00049            
1 64509U 25134K   26234.65773432  .00002555  00000+0  36400-3 0  9995
2 64509  51.8988 214.1242 0000630  51.6689 308.4330 14.79937333 64724
KUIPER-00050            
1 64510U 25134L   26235.28440217  .00002699  00000+0  38307-3 0  9996
2 64510  51.8992 193.8740 0000898  55.8793 304.2255 14.79921461 65068
KUIPER-00051            
1 64511U 25134M   26234.97142798  .00002469  00000+0  35283-3 0  9990
2 64511  51.9000 211.4333 0000646  71.7567 288.3466 14.79924405 64787
KUIPER-00053            
1 64513U 25134P   26235.28247937  .00002010  00000+0  28066-3 0  9991
2 64513  51.8996 204.8141 0001795  50.2582 309.8539 14.81744227 64909
KUIPER-00054            
1 64514U 25134Q   26234.22958415  .00002580  00000+0  36732-3 0  9996
2 64514  51.8971 206.0242 0000693  50.7796 309.3228 14.79934617 64795
KUIPER-00055            
1 64515U 25134R   26235.12495741 -.00001623  00000+0 -18401-3 0  9997
2 64515  51.9012 154.7098 0001031  84.0773 276.0307 14.79925768 65597
KUIPER-00056            
1 64516U 25134S   26235.20338221 -.00003305  00000+0 -40485-3 0  9992
2 64516  51.9010 206.8269 0000727  55.6563 304.4468 14.79926709 64877
KUIPER-00057            
1 64517U 25134T   26234.38492744  .00001462  00000+0  22071-3 0  9993
2 64517  51.8990 217.8666 0000692  47.8929 312.2092 14.79944084 64648
KUIPER-00058            
1 64518U 25134U   26234.96432318  .00003766  00000+0  52280-3 0  9993
2 64518  51.9005 210.2810 0000724  44.9894 315.1127 14.79930614 64803
KUIPER-00059            
1 64519U 25134V   26234.22688744  .00002414  00000+0  34541-3 0  9998
2 64519  51.8980 208.5784 0000775  45.4772 314.6254 14.79946836 64765
KUIPER-00060            
1 64520U 25134W   26235.00350909  .00002575  00000+0  36653-3 0  9990
2 64520  51.9003 205.2171 0000783  56.1786 303.9251 14.79952165 64862
KUIPER-00061            
1 64521U 25134X   26234.96165473  .00002467  00000+0  35238-3 0  9993
2 64521  51.8988 212.8476 0000715  55.0587 305.0442 14.79944187 64756
KUIPER-00062            
1 64522U 25134Y   26234.21609038  .00002192  00000+0  31638-3 0  9997
2 64522  51.8945 218.6021 0000749  42.4852 317.6168 14.79948399 64621
KUIPER-00063            
1 64523U 25134Z   26235.22098162 -.00000971  00000+0 -98437-4 0  9996
2 64523  51.9010 221.7386 0000323  61.6676 298.4319 14.79933588 64662
KUIPER-00064            
1 64524U 25134AA  26234.68341962  .00002172  00000+0  31379-3 0  9999
2 64524  51.9010 221.5414 0000781  43.9833 316.1191 14.79931987 64622
KUIPER-00065            
1 64525U 25134AB  26235.01567992 -.00000365  00000+0 -18838-4 0  9991
2 64525  51.9029 225.2461 0001020 100.7406 259.3672 14.79938510 64587
KUIPER-00066            
1 64526U 25134AC  26234.98179646 -.00000312  00000+0 -11877-4 0  9990
2 64526  51.9015 162.6661 0001342  77.8260 282.2853 14.79933582 65477
KUIPER-00069            
1 64816U 25151A   26235.10761522  .00002100  00000+0  30445-3 0  9992
2 64816  51.9010 264.7504 0000562  87.8148 272.2878 14.79925585 61402
KUIPER-00070            
1 64817U 25151B   26234.84425006  .00002321  00000+0  33326-3 0  9993
2 64817  51.8998 290.8192 0000549  48.0497 312.0512 14.79942480 61020
KUIPER-00071            
1 64818U 25151C   26234.64439001 -.00000625  00000+0 -52984-4 0  9991
2 64818  51.8998 289.2473 0000429  32.1481 327.9507 14.79922473 59845
KUIPER-00072            
1 64819U 25151D   26234.49711116  .00001958  00000+0  28568-3 0  9993
2 64819  51.8964 269.8287 0000271  49.6904 310.4082 14.79936368 60108
KUIPER-00073            
1 64820U 25151E   26235.15085723  .00000232  00000+0  59457-4 0  9993
2 64820  51.9010 286.9861 0000217  73.6761 286.4226 14.79927428 61109
KUIPER-00075            
1 64822U 25151G   26234.92062649  .00025494  00000+0  67207-3 0  9999
2 64822  51.8649 130.4526 0003275 106.6811 253.4535 15.38336331 62076
KUIPER-00076            
1 64823U 25151H   26234.95906692  .00002134  00000+0  30880-3 0  9991
2 64823  51.9001 277.8573 0000332  48.1552 311.9439 14.79928684 60030
KUIPER-00077            
1 64824U 25151J   26234.34589382 -.00003082  00000+0 -37551-3 0  9995
2 64824  51.8993 285.5882 0000543  80.6296 279.4728 14.79926787 59870
KUIPER-00078            
1 64825U 25151K   26234.51741099 -.00000635  00000+0 -54259-4 0  9996
2 64825  51.9030 282.3056 0000137  30.4828 329.6142 14.79932907 59931
KUIPER-00079            
1 64826U 25151L   26235.15355521  .00002197  00000+0  31706-3 0  9993
2 64826  51.8996 284.4488 0000311  67.9377 292.1618 14.79927975 61150
KUIPER-00080            
1 64827U 25151M   26234.84967023 -.00001325  00000+0 -14482-3 0  9991
2 64827  51.8996 285.8047 0000360  68.8469 291.2532 14.79924351 59914
KUIPER-00082            
1 64828U 25151N   26234.82938865  .00001974  00000+0  28786-3 0  9992
2 64828  51.9002 273.4529 0000282  53.9086 306.1902 14.79929556 60084
KUIPER-00083            
1 64829U 25151P   26235.15895600  .00002059  00000+0  29893-3 0  9994
2 64829  51.9006 279.4779 0000324  45.1803 314.9186 14.79933688 61217
KUIPER-00084            
1 64830U 25151Q   26234.13522552  .00001110  00000+0  17458-3 0  9997
2 64830  51.9034 293.9914 0000330  24.0777 336.0200 14.79925081 59739
KUIPER-00085            
1 64831U 25151R   26235.06575177  .00002178  00000+0  31459-3 0  9994
2 64831  51.9020 272.4607 0000303  52.4099 307.6890 14.79928871 60111
KUIPER-00086            
1 64832U 25151S   26234.51472721 -.00000475  00000+0 -33313-4 0  9997
2 64832  51.9010 284.8352 0001501 117.2037 242.9078 14.79937414 59893
KUIPER-00087            
1 64833U 25151T   26234.39853265 -.00000231  00000+0 -12448-5 0  9997
2 64833  51.8991 267.8075 0000350  50.8824 309.2170 14.79929494 60117
KUIPER-00089            
1 64834U 25151U   26235.13598721  .00002113  00000+0  30619-3 0  9991
2 64834  51.9001 269.5705 0000401  63.5472 296.5532 14.79918511 60160
KUIPER-00090            
1 64835U 25151V   26234.80642352  .00001789  00000+0  26360-3 0  9991
2 64835  51.8976 263.5268 0000411  75.8676 284.2332 14.79923588 60210
KUIPER-00091            
1 64836U 25151W   26235.07112423  .00002132  00000+0  30843-3 0  9997
2 64836  51.9004 267.3772 0000334  44.3205 315.7784 14.79945911 60180
KUIPER-00092            
1 64837U 25151X   26235.13056018  .00002038  00000+0  29618-3 0  9995
2 64837  51.8997 274.6032 0000373  67.0745 293.0257 14.79938747 61302
KUIPER-00093            
1 64838U 25151Y   26234.85774459  .00002071  00000+0  30059-3 0  9998
2 64838  51.8996 278.2819 0000680  63.1704 296.9328 14.79926730 60015
KUIPER-00094            
1 64839U 25151Z   26235.24395166  .00002076  00000+0  30118-3 0  9998
2 64839  51.9022 231.6789 0000719  30.5600 329.5404 14.79947226 60709
KUIPER-00081            
1 65132U 25171A   26234.98038522 -.00000317  00000+0 -12544-4 0  9999
2 65132  51.9004 132.7360 0001053  88.7035 271.4048 14.79932362 57666
KUIPER-00088            
1 65133U 25171B   26235.02905465  .00003193  00000+0  44779-3 0  9992
2 65133  51.8991 150.0214 0000969  85.6094 274.4979 14.79926082 57420
KUIPER-00095            
1 65134U 25171C   26235.11813326  .00003310  00000+0  46286-3 0  9993
2 65134  51.8971 129.6681 0001118  88.3322 271.7769 14.79943254 57719
KUIPER-00096            
1 65135U 25171D   26235.13843334  .00003078  00000+0  43267-3 0  9995
2 65135  51.8990 142.0324 0000799  98.1857 261.9196 14.79927668 57547
KUIPER-00097            
1 65136U 25171E   26235.13580758  .00008602  00000+0  11562-2 0  9994
2 65136  51.9040 144.7092 0001306  83.3618 276.7493 14.79923535 57499
KUIPER-00098            
1 65137U 25171F   26235.13304364  .00003194  00000+0  44781-3 0  9993
2 65137  51.8998 147.0820 0001029  88.7416 271.3664 14.79930413 56812
KUIPER-00099            
1 65138U 25171G   26235.11005958 -.00001361  00000+0 -14956-3 0  9996
2 65138  51.9019 137.1942 0001026  94.5385 265.5695 14.79923671 57605
KUIPER-00100            
1 65139U 25171H   26235.07899038  .00003164  00000+0  44383-3 0  9990
2 65139  51.9005 134.7997 0001042  86.5396 273.5685 14.79930673 57636
KUIPER-00102            
1 65140U 25171J   26235.14382613  .00002949  00000+0  41565-3 0  9995
2 65140  51.8975 136.9877 0001078  89.1259 270.9827 14.79930678 57601
KUIPER-00103            
1 65141U 25171K   26234.95612387  .00003043  00000+0  42801-3 0  9998
2 65141  51.8985 155.3197 0000964  80.6013 279.5058 14.79925387 57332
KUIPER-00104            
1 65142U 25171L   26234.76701343  .00002704  00000+0  38353-3 0  9999
2 65142  51.9023 143.6675 0001015  84.6015 275.5063 14.79931382 57482
KUIPER-00105            
1 65143U 25171M   26235.19789340  .00003430  00000+0  47843-3 0  9992
2 65143  51.9006 149.3576 0000995  92.6141 267.4935 14.79953771 57442
KUIPER-00106            
1 65144U 25171N   26234.97598530  .00002987  00000+0  42051-3 0  9999
2 65144  51.9007 129.1045 0001065  84.5438 275.5646 14.79952461 57713
KUIPER-00107            
1 65145U 25171P   26235.08169982 -.00000779  00000+0 -73196-4 0  9992
2 65145  51.9004 132.3132 0001098 103.7100 256.3985 14.79926943 57674
KUIPER-00108            
1 65146U 25171Q   26234.76432546  .00003054  00000+0  42944-3 0  9999
2 65146  51.9008 146.2583 0000893  79.2307 280.8756 14.79927121 57454
KUIPER-00109            
1 65147U 25171R   26235.14112738 -.00000989  00000+0 -10077-3 0  9999
2 65147  51.9022 139.5363 0001079  83.5237 276.5848 14.79923270 57577
KUIPER-00110            
1 65148U 25171S   26234.75624376  .00003069  00000+0  43146-3 0  9995
2 65148  51.8984 153.7879 0001067  60.5325 299.5743 14.79924007 57336
KUIPER-00111            
1 65149U 25171T   26235.18976526 -.00004019  00000+0 -49844-3 0  9990
2 65149  51.8965 156.7402 0000899  78.9969 281.1095 14.79939882 57334
KUIPER-00112            
1 65150U 25171U   26234.97231464 -.00001904  00000+0 -22083-3 0  9999
2 65150  51.9003 140.3288 0001065  87.7576 272.3508 14.79934921 57542
KUIPER-00114            
1 65151U 25171V   26234.17414158  .00002318  00000+0  33297-3 0  9992
2 65151  51.9003 163.8174 0000994  87.5032 272.6045 14.79925949 57147
KUIPER-00115            
1 65152U 25171W   26235.06011430  .00003334  00000+0  46608-3 0  9997
2 65152  51.9001 152.4089 0000768  94.2541 265.8509 14.79935192 57380
KUIPER-00116            
1 65153U 25171X   26234.81836706  .00001725  00000+0  25514-3 0  9996
2 65153  51.8985 158.5110 0000865  89.8867 270.2195 14.79944787 57271
KUIPER-00118            
1 65154U 25171Y   26235.15331674 -.00002423  00000+0 -28892-3 0  9999
2 65154  51.8993 159.4782 0000799  82.7927 277.3126 14.79926584 57290
KUIPER-00119            
1 65155U 25171Z   26234.15386385 -.00006791  00000+0 -86260-3 0  9993
2 65155  51.9005 151.4997 0001215  67.9751 292.1341 14.79933382 57311
KUIPER-00120            
1 65762U 25217A   26234.93088502  .00006208  00000+0  84202-3 0  9999
2 65762  51.8993  37.9305 0001010 124.8231 235.2826 14.79958318 49357
KUIPER-00132            
1 65763U 25217B   26235.14406833  .00021749  00000+0  56369-3 0  9995
2 65763  51.8533 272.9952 0005721 195.7293 164.3517 15.38945526 51103
KUIPER-00133            
1 65764U 25217C   26234.62704509  .00003008  00000+0  42328-3 0  9997
2 65764  51.9040  39.4016 0000489 109.5177 250.5839 14.79943226 49319
KUIPER-00139            
1 65765U 25217D   26234.72962133  .00003093  00000+0  43448-3 0  9996
2 65765  51.8993   6.3864 0000473 114.4351 245.6660 14.79936139 49785
KUIPER-00142            
1 65766U 25217E   26234.81472328  .00003016  00000+0  42444-3 0  9999
2 65766  51.9002  20.9741 0000594 108.6537 251.4490 14.79939794 49583
KUIPER-00145            
1 65767U 25217F   26234.60944955 -.00000022  00000+0  26156-4 0  9995
2 65767  51.9014  24.4056 0000524 128.3461 231.7549 14.79925169 49513
KUIPER-00147            
1 65768U 25217G   26235.11321353  .00001473  00000+0  22217-3 0  9997
2 65768  51.8996  24.6544 0000557 139.8653 220.2350 14.79944191 49555
KUIPER-00148            
1 65769U 25217H   26234.79445526 -.00000968  00000+0 -97947-4 0  9993
2 65769  51.9058   8.5998 0000348 122.5376 237.5620 14.79930467 49753
KUIPER-00150            
1 65770U 25217J   26234.96737049  .00003097  00000+0  43496-3 0  9991
2 65770  51.9015  35.3417 0000667 124.0537 236.0489 14.79940797 49396
KUIPER-00151            
1 65771U 25217K   26234.90794879  .00003061  00000+0  43032-3 0  9997
2 65771  51.9018  28.1029 0000568  98.8135 261.2892 14.79929707 49498
KUIPER-00152            
1 65772U 25217L   26234.68505353  .00003321  00000+0  46426-3 0  9999
2 65772  51.9009  16.5697 0000495 125.7812 234.3197 14.79946395 49639
KUIPER-00153            
1 65773U 25217M   26234.42034327  .00003149  00000+0  44175-3 0  9997
2 65773  51.9033  12.8234 0000554 107.8266 252.2757 14.79940682 49660
KUIPER-00155            
1 65774U 25217N   26234.99024105 -.00003099  00000+0 -37763-3 0  9994
2 65774  51.9036 342.7674 0000471 103.0935 257.0080 14.79938107 50131
KUIPER-00156            
1 65775U 25217P   26234.79176423  .00003099  00000+0  43539-3 0  9990
2 65775  51.9038  11.1634 0000566 124.6232 235.4784 14.79926928 49712
KUIPER-00165            
1 65778U 25217S   26234.78095788  .00003088  00000+0  43385-3 0  9993
2 65778  51.9014  21.1483 0000637 116.8351 243.2677 14.79932461 49577
KUIPER-00166            
1 65779U 25217T   26234.55810380  .00003140  00000+0  44072-3 0  9995
2 65779  51.9041   9.6910 0000364  92.5347 267.5657 14.79930612 49715
KUIPER-00167            
1 65780U 25217U   26234.90521902  .00002539  00000+0  36175-3 0  9991
2 65780  51.8970  30.4904 0000590 121.6793 238.4227 14.79952309 49450
KUIPER-00168            
1 65781U 25217V   26234.85657222  .00003242  00000+0  45389-3 0  9990
2 65781  51.9015  13.3190 0000366 134.5230 225.5763 14.79945645 49692
KUIPER-00169            
1 65782U 25217W   26234.78365471  .00003134  00000+0  43967-3 0  9995
2 65782  51.9022  18.6533 0000520 119.6743 240.4272 14.79952858 49612
KUIPER-00170            
1 65783U 25217X   26235.11591540  .00000192  00000+0  54124-4 0  9991
2 65783  51.8997  22.1326 0000654 125.3663 234.7361 14.79940278 49591
KUIPER-00172            
1 65785U 25217Z   26234.89845564  .00003238  00000+0  45355-3 0  9994
2 65785  51.8998   5.6253 0000362 108.0960 252.0042 14.79926014 49808
KUIPER-00173            
1 65786U 25217AA  26234.81742955  .00003114  00000+0  43717-3 0  9990
2 65786  51.9016  18.4965 0000536 126.7008 233.4004 14.79938709 49610
KUIPER-00174            
1 65787U 25217AB  26234.41765341  .00002551  00000+0  36352-3 0  9992
2 65787  51.9029  15.3228 0000486 107.3472 252.7543 14.79934018 49629
KUIPER-00176            
1 65788U 25217AC  26234.80663136  .00003050  00000+0  42858-3 0  9998
2 65788  51.9008  28.5251 0000641 102.3270 257.7765 14.79961357 49473
KUIPER-00101            
1 65947U 25228A   26235.02129393  .00003138  00000+0  44039-3 0  9994
2 65947  51.8993 345.0273 0000400  95.1013 264.9995 14.79937472 47867
KUIPER-00113            
1 65948U 25228B   26235.26305984  .00002472  00000+0  35315-3 0  9990
2 65948  51.8996 338.9791 0000392  91.4842 268.6165 14.79926496 47961
KUIPER-00117            
1 65949U 25228C   26235.29411700  .00002773  00000+0  39257-3 0  9991
2 65949  51.8995 341.3408 0000364 121.4960 238.6038 14.79938315 47934
KUIPER-00121            
1 65950U 25228D   26234.99564449  .00002959  00000+0  41708-3 0  9998
2 65950  51.9004 337.6805 0000408 108.5694 251.5313 14.79923563 47968
KUIPER-00122            
1 65951U 25228E   26234.71472161 -.00001802  00000+0 -20748-3 0  9997
2 65951  51.9015 348.8921 0000374 110.4410 249.6593 14.79930111 47789
KUIPER-00123            
1 65952U 25228F   26235.28872696  .00000272  00000+0  64743-4 0  9990
2 65952  51.8995 346.3640 0000536  89.2607 270.8417 14.79930031 47869
KUIPER-00124            
1 65953U 25228G   26235.29682336  .00002889  00000+0  40773-3 0  9994
2 65953  51.8999 338.8180 0000358 109.3853 250.7148 14.79937289 47970
KUIPER-00125            
1 65954U 25228H   26234.63770040  .00002867  00000+0  40487-3 0  9990
2 65954  51.9015 326.7835 0000392  95.6687 264.4320 14.79931096 48081
KUIPER-00126            
1 65955U 25228J   26234.71742613 -.00000172  00000+0  64625-5 0  9995
2 65955  51.9006 346.4123 0000715  89.2393 270.8651 14.79927423 47810
KUIPER-00127            
1 65956U 25228K   26235.31640342  .00002789  00000+0  39478-3 0  9990
2 65956  51.9020 336.2410 0000314  96.0667 264.0331 14.79927784 48011
KUIPER-00128            
1 65957U 25228L   26234.69175156  .00000129  00000+0  45965-4 0  9992
2 65957  51.9027 339.0690 0000304 126.6137 233.4854 14.79927981 47918
KUIPER-00129            
1 65958U 25228M   26235.27116600  .00002828  00000+0  39979-3 0  9992
2 65958  51.9016 331.4860 0000370 121.7408 238.3591 14.79928258 48070
KUIPER-00130            
1 65959U 25228N   26235.23468580  .00002494  00000+0  35594-3 0  9994
2 65959  51.9039 334.1888 0000295 162.6485 197.4487 14.79936247 38324
KUIPER-00134            
1 65960U 25228P   26235.25983352  .00037233  00000+0  99996-3 0  9992
2 65960  51.8707 231.2745 0004463 173.1840 186.9208 15.37561574 49462
KUIPER-00135            
1 65961U 25228Q   26235.26845651  .00002963  00000+0  41742-3 0  9991
2 65961  51.9031 334.0915 0000314 104.9475 255.1522 14.79938923 48033
KUIPER-00136            
1 65962U 25228R   26235.30492142 -.00000684  00000+0 -60751-4 0  9992
2 65962  51.9027 331.3809 0000914 129.7653 230.3390 14.79926360 48074
KUIPER-00137            
1 65963U 25228S   26234.69985589 -.00000881  00000+0 -86550-4 0  9990
2 65963  51.9035 331.5599 0000075 131.5214 228.5755 14.79927384 48020
KUIPER-00138            
1 65964U 25228T   26235.27653463 -.00001659  00000+0 -18875-3 0  9997
2 65964  51.8974 326.4186 0000433  78.4464 281.6546 14.79927097 48143
KUIPER-00140            
1 65965U 25228U   26235.27384976  .00004927  00000+0  67503-3 0  9999
2 65965  51.9015 329.0234 0000320 111.8419 248.2577 14.79922231 48105
KUIPER-00141            
1 65966U 25228V   26235.27925571  .00002624  00000+0  37308-3 0  9994
2 65966  51.9038 324.0688 0000499 105.8418 254.2600 14.79929346 48173
KUIPER-00146            
1 65967U 25228W   26234.63501663  .00002974  00000+0  41892-3 0  9997
2 65967  51.9034 329.4287 0000310 105.2345 254.8652 14.79936938 48043
KUIPER-00149            
1 65968U 25228X   26235.21441296  .00002385  00000+0  34182-3 0  9998
2 65968  51.9020 321.7454 0000284  89.5228 270.5767 14.79925874 48201
KUIPER-00154            
1 65969U 25228Y   26235.25086380  .00002540  00000+0  36203-3 0  9991
2 65969  51.9010 319.0700 0000323  92.7158 267.3841 14.79936051 48247
KUIPER-00157            
1 65970U 25228Z   26235.27298733  .00001755  00000+0  25148-3 0  9995
2 65970  51.9033 321.1808 0001042 148.1875 211.9151 14.81255655 48211
KUIPER-00144            
1 67133U 25301A   26235.16457907  .00002821  00000+0  39880-3 0  9991
2 67133  51.9013  39.4695 0000682 114.1395 245.9639 14.79946045 38522
KUIPER-00164            
1 67134U 25301B   26234.67839709  .00002697  00000+0  38260-3 0  9993
2 67134  51.9029  54.1331 0000725 119.2292 240.8743 14.79932190 38459
KUIPER-00175            
1 67135U 25301C   26234.46090869  .00002790  00000+0  39470-3 0  9995
2 67135  51.9003  37.5368 0000580 118.2808 241.8213 14.79939451 38560
KUIPER-00179            
1 67136U 25301D   26234.54602315  .00002797  00000+0  39573-3 0  9991
2 67136  51.8985  52.1638 0000672 120.2018 239.9011 14.79936290 38472
KUIPER-00181            
1 67137U 25301E   26235.20783471 -.00005585  00000+0 -70413-3 0  9997
2 67137  51.9019  61.7919 0000877 119.9925 240.1124 14.79934426 38376
KUIPER-00183            
1 67138U 25301F   26234.93627461  .00002173  00000+0  31401-3 0  9995
2 67138  51.9027  32.9988 0000684  86.4084 273.6956 14.79924715 38769
KUIPER-00184            
1 67139U 25301G   26235.19293146 -.00003157  00000+0 -38533-3 0  9992
2 67139  51.8996  44.3114 0000808 117.8839 242.2205 14.79924928 38739
KUIPER-00186            
1 67140U 25301H   26235.24160621 -.00000474  00000+0 -33218-4 0  9996
2 67140  51.9034  61.6528 0000636 118.5085 241.5941 14.79927580 38226
KUIPER-00187            
1 67141U 25301J   26235.23890921  .00002711  00000+0  38435-3 0  9998
2 67141  51.9027  64.1898 0000772 123.6099 236.4937 14.79949168 38189
KUIPER-00188            
1 67142U 25301K   26234.76750992  .00001954  00000+0  28525-3 0  9996
2 67142  51.9030  33.8592 0000427 126.2326 233.8676 14.79922246 38568
KUIPER-00191            
1 67143U 25301L   26234.87557737  .00003088  00000+0  43374-3 0  9990
2 67143  51.9007  58.2763 0000693 116.5155 243.5878 14.79944931 38265
KUIPER-00196            
1 67144U 25301M   26234.90881616  .00002737  00000+0  42031-3 0  9990
2 67144  51.8993  15.4574 0002006 109.1866 250.9312 14.76446826 38836
KUIPER-00204            
1 67145U 25301N   26235.14159241  .00002911  00000+0  41068-3 0  9993
2 67145  51.9020  29.5863 0000568 122.3391 237.7627 14.79931828 38776
KUIPER-00210            
1 67146U 25301P   26235.24701266  .00002821  00000+0  39895-3 0  9990
2 67146  51.8999  56.5817 0000808 120.4804 239.6239 14.79923809 38461
KUIPER-00221            
1 67147U 25301Q   26233.98961205  .00002758  00000+0  39063-3 0  9997
2 67147  51.9011  69.6740 0000754 114.4922 245.6119 14.79937741 38006
KUIPER-00232            
1 67148U 25301R   26234.91744419  .00002982  00000+0  41990-3 0  9999
2 67148  51.8993  50.5861 0000677 120.0562 240.0467 14.79939887 38340
KUIPER-00241            
1 67149U 25301S   26234.80537037  .00002822  00000+0  39906-3 0  9991
2 67149  51.9030  61.0954 0000661 120.5339 239.5689 14.79927560 38528
KUIPER-00245            
1 67150U 25301T   26234.93232743  .00002531  00000+0  36074-3 0  9993
2 67150  51.9003  68.0434 0000555 124.6396 235.4619 14.79943601 38106
KUIPER-00246            
1 67151U 25301U   26234.84720995  .00002990  00000+0  42111-3 0  9993
2 67151  51.9006  53.3633 0000655 102.9704 257.1331 14.79928440 38321
KUIPER-00247            
1 67152U 25301V   26235.19562960 -.00003980  00000+0 -49331-3 0  9992
2 67152  51.8967  41.7773 0000549 137.9646 222.1358 14.79940779 38496
KUIPER-00248            
1 67153U 25301W   26234.47170183  .00003128  00000+0  43916-3 0  9990
2 67153  51.8995  27.6176 0000516 113.5027 246.5990 14.79933434 38790
KUIPER-00249            
1 67154U 25301X   26234.79316469 -.00002327  00000+0 -27637-3 0  9999
2 67154  51.8987  41.1273 0000608 110.5101 249.5926 14.79924319 38461
KUIPER-00250            
1 67155U 25301Y   26235.21595217  .00002742  00000+0  38854-3 0  9990
2 67155  51.8985  54.2109 0000832 119.7332 240.3713 14.79925945 38356
KUIPER-00251            
1 67156U 25301Z   26235.16188140  .00002945  00000+0  41506-3 0  9991
2 67156  51.9009  42.0237 0000799 136.2613 223.8413 14.79947530 38672
KUIPER-00252            
1 67157U 25301AA  26235.15918793  .00002856  00000+0  40332-3 0  9993
2 67157  51.9004  44.4863 0000721 123.7915 236.3116 14.79943474 38458
KUIPER-00261            
1 67158U 25301AB  26234.50687322 -.00001020  00000+0 -10478-3 0  9995
2 67158  51.9022  57.4308 0001076 128.4427 231.6632 14.79927191 38214
KUIPER-00265            
1 67159U 25301AC  26235.26727998 -.00000382  00000+0 -21144-4 0  9997
2 67159  51.9018  69.0462 0000768 103.7166 256.3882 14.79929947 38158
KUIPER-00159            
1 67764U 26030A   26235.13989777  .00001766  00000+0  28102-3 0  9995
2 67764  51.9011 147.6520 0000594 167.8088 192.2888 14.76603535 30517
KUIPER-00160            
1 67765U 26030B   26235.25003472 -.01621945  00000+0 -56530-1 0  9992
2 67765  51.8842 133.9741 0006027 283.6257  95.5980 15.32153995  5102
KUIPER-00177            
1 67766U 26030C   26235.28169991  .00002572  00000+0  36631-3 0  9993
2 67766  51.8993 196.4561 0000771  55.9772 304.1263 14.79934022 29844
KUIPER-00178            
1 67767U 26030D   26234.91029145  .00002521  00000+0  35948-3 0  9993
2 67767  51.8999 198.0800 0000712  67.1136 292.9902 14.79946751 29799
KUIPER-00180            
1 67768U 26030E   26235.25332392 -.00004068  00000+0 -50527-3 0  9993
2 67768  51.8983 191.5599 0000571 118.9047 241.1972 14.79906906 29910
KUIPER-00197            
1 67769U 26030F   26235.20737296  .00000032  00000+0  33275-4 0  9998
2 67769  51.8977 171.7789 0000891  66.4682 293.6374 14.79926311 30183
KUIPER-00198            
1 67770U 26030G   26234.89001915  .00002849  00000+0  40246-3 0  9999
2 67770  51.8973 185.6589 0000894  62.2450 297.8603 14.79950540 29969
KUIPER-00199            
1 67771U 26030H   26235.08263564  .00020412  00000+0  55753-3 0  9997
2 67771  51.8801 136.6170 0008785 287.9782  72.0247 15.37346828 30662
KUIPER-00200            
1 67772U 26030J   26234.83864920 -.00000291  00000+0 -91970-5 0  9991
2 67772  51.8976 170.9292 0000774  85.0363 275.0687 14.79927803 30165
KUIPER-00203            
1 67773U 26030K   26235.00619466 -.00000099  00000+0  15978-4 0  9993
2 67773  51.9044 202.7401 0000873  37.8030 322.2994 14.79932623 29738
KUIPER-00205            
1 67774U 26030L   26234.84134500  .00002882  00000+0  40668-3 0  9990
2 67774  51.9002 168.3780 0000842  55.2844 304.8197 14.79948906 30209
KUIPER-00208            
1 67775U 26030M   26235.25063814 -.00001229  00000+0 -13221-3 0  9997
2 67775  51.8962 194.0697 0001284  45.4846 314.6221 14.79926381 29872
KUIPER-00209            
1 67776U 26030N   26235.28708128 -.00000252  00000+0 -40802-5 0  9997
2 67776  51.8996 191.5043 0000521  63.1364 296.9652 14.79935952 29911
KUIPER-00213            
1 67777U 26030P   26235.25601790  .00002785  00000+0  39389-3 0  9999
2 67777  51.8951 189.1098 0001130  72.6836 287.4249 14.79962585 29944
KUIPER-00214            
1 67778U 26030Q   26235.15744856  .00002668  00000+0  37890-3 0  9995
2 67778  51.8994 187.0716 0000670  86.6343 273.4696 14.79925281 29967
KUIPER-00215            
1 67779U 26030R   26235.27220625  .00003136  00000+0  44015-3 0  9990
2 67779  51.8978 173.9222 0001040  65.6884 294.4187 14.79930480 30164
KUIPER-00218            
1 67780U 26030S   26235.15473396 -.00000740  00000+0 -68020-4 0  9997
2 67780  51.8955 189.4805 0000857  82.8952 277.2108 14.79927128 29932
KUIPER-00220            
1 67781U 26030T   26234.97911571  .00003181  00000+0  44617-3 0  9994
2 67781  51.8945 165.2892 0000858  94.6393 265.4667 14.79928855 30255
KUIPER-00222            
1 67782U 26030U   26234.18096986  .00001712  00000+0  25355-3 0  9998
2 67782  51.8976 188.9481 0000862  56.4611 303.6434 14.79918995 29855
KUIPER-00223            
1 67783U 26030V   26235.23575734  .00002899  00000+0  40916-3 0  9996
2 67783  51.8998 176.5869 0000847  64.3485 295.7565 14.79923934 30120
KUIPER-00225            
1 67784U 26030W   26235.23036622  .00002885  00000+0  40740-3 0  9995
2 67784  51.8976 181.7639 0000903  67.2501 292.8557 14.79925155 30041
KUIPER-00226            
1 67785U 26030X   26235.23700829  .00001714  00000+0  27499-3 0  9999
2 67785  51.8996 168.6963 0002802 301.0257  59.0429 14.76406013 30231
KUIPER-00259            
1 67786U 26030Y   26234.85893141 -.00001673  00000+0 -19046-3 0  9992
2 67786  51.8980 183.3094 0000880  72.2591 287.8468 14.79926625 29990
KUIPER-00260            
1 67787U 26030Z   26234.86165342  .00002665  00000+0  37850-3 0  9992
2 67787  51.8994 180.9009 0000798  64.3415 295.7629 14.79925064 29937
KUIPER-00262            
1 67788U 26030AA  26234.96292856 -.00000776  00000+0 -72709-4 0  9991
2 67788  51.8983 180.3702 0000992  41.0325 319.0712 14.79937884 30048
KUIPER-00266            
1 67789U 26030AB  26234.79681162  .00002880  00000+0  40646-3 0  9995
2 67789  51.8986 178.5990 0001155  10.9008 349.1980 14.79953351 30054
KUIPER-00268            
1 67790U 26030AC  26235.23845356 -.00000763  00000+0 -71138-4 0  9995
2 67790  51.9031 174.1769 0000858  78.2837 281.8222 14.79934239 30156
KUIPER-00270            
1 67791U 26030AD  26235.01288129  .00000010  00000+0  30276-4 0  9992
2 67791  51.8989 165.1404 0000703  83.1117 276.9925 14.79928628 30261
KUIPER-00274            
1 67792U 26030AE  26234.58341949  .00000680  00000+0  11820-3 0  9990
2 67792  51.9005 189.5452 0001135  41.1948 318.9100 14.79936832 29885
KUIPER-00275            
1 67793U 26030AF  26234.80757665  .00003100  00000+0  43538-3 0  9993
2 67793  51.8986 168.5537 0001070  63.2155 296.8917 14.79936355 30193
KUIPER-00276            
1 67794U 26030AG  26235.24112992  .00003020  00000+0  42486-3 0  9993
2 67794  51.8978 171.6158 0000936 345.0438  15.0496 14.79950697 30192
KUIPER-00279            
1 67795U 26030AH  26235.15063004  .00003108  00000+0  43651-3 0  9995
2 67795  51.9016 162.0562 0001195  40.4446 319.6606 14.79937127 30316
KUIPER-00131            
1 68573U 26072A   26234.80912113  .00001770  00000+0  26117-3 0  9992
2 68573  51.8998 261.0501 0000389  77.4792 282.6214 14.79921543 20981
KUIPER-00189            
1 68574U 26072B   26235.11028933  .00000268  00000+0  64148-4 0  9994
2 68574  51.8988 262.1973 0000311  14.8710 345.2261 14.79927846 20997
KUIPER-00192            
1 68575U 26072C   26234.33909966  .00002032  00000+0  29539-3 0  9997
2 68575  51.8990 260.6238 0000643  41.1919 318.9092 14.79938100 20950
KUIPER-00193            
1 68576U 26072D   26235.02519900  .00002083  00000+0  30223-3 0  9998
2 68576  51.9042 247.6258 0000908  59.5178 300.5874 14.79922465 21190
KUIPER-00194            
1 68577U 26072E   26234.51061284  .00001782  00000+0  26264-3 0  9994
2 68577  51.9015 257.3867 0000679  21.1881 338.9109 14.79940178 21014
KUIPER-00229            
1 68578U 26072F   26234.57279062  .00001894  00000+0  27734-3 0  9993
2 68578  51.9003 262.0955 0000475  30.5414 329.5576 14.79929631 20950
KUIPER-00230            
1 68579U 26072G   26235.25003472  .00006331  00000+0  19138-3 0  9990
2 68579  51.8748 212.0259 0000978 313.2802 134.5656 15.35517974  4443
KUIPER-00231            
1 68580U 26072H   26235.00761463  .00002006  00000+0  29221-3 0  9995
2 68580  51.8970 232.7510 0001685  44.1249 315.9848 14.79921832 21392
KUIPER-00234            
1 68581U 26072J   26234.54437491  .00004797  00000+0  65739-3 0  9998
2 68581  51.8991 257.2070 0000922 324.3594  35.7307 14.79960660 21016
KUIPER-00236            
1 68582U 26072K   26235.25003472  .00012190  00000+0  44874-3 0  9999
2 68582  51.8790 212.6326 0001297 300.8500 228.5548 15.28233893  4088
KUIPER-00244            
1 68583U 26072L   26234.99412429 -.00000926  00000+0 -92468-4 0  9995
2 68583  51.9005 245.2424 0000954 341.5381  18.5546 14.79925904 21224
KUIPER-00253            
1 68584U 26072M   26234.51869209  .00001868  00000+0  27383-3 0  9993
2 68584  51.9023 249.8609 0000445  48.1761 311.9239 14.79945633 21115
KUIPER-00254            
1 68585U 26072N   26235.02249829  .00002009  00000+0  29245-3 0  9998
2 68585  51.9021 250.1312 0000603 313.8074  46.2838 14.79932523 21156
KUIPER-00263            
1 68586U 26072P   26235.30879256  .00000696  00000+0  12028-3 0  9994
2 68586  51.9003 233.9355 0000558  76.8341 283.2683 14.79927709 21404
KUIPER-00269            
1 68587U 26072Q   26235.03598618  .00002040  00000+0  29655-3 0  9994
2 68587  51.8985 237.5532 0000686  34.1200 325.9806 14.79931926 21332
KUIPER-00272            
1 68588U 26072R   26235.31827258 -.00001726  00000+0 -19755-3 0  9993
2 68588  51.8948 256.2749 0000462  41.8346 318.2651 14.79927127 21092
KUIPER-00285            
1 68589U 26072S   26235.00220709  .00002094  00000+0  30357-3 0  9996
2 68589  51.9037 237.7742 0001124 323.7010  36.3876 14.79941857 21325
KUIPER-00286            
1 68590U 26072T   26234.39713915  .00002076  00000+0  30113-3 0  9995
2 68590  51.9000 237.8853 0000451  64.9054 295.1955 14.79938660 21270
KUIPER-00289            
1 68591U 26072U   26234.38903589  .00001982  00000+0  28891-3 0  9998
2 68591  51.8976 245.4046 0000452  64.4804 295.6205 14.79927120 21160
KUIPER-00290            
1 68592U 26072V   26234.29978380  .00001512  00000+0  24584-3 0  9994
2 68592  51.9010 245.2283 0000706 323.4532  36.6381 14.76451561 21166
KUIPER-00293            
1 68593U 26072W   26235.32365661  .00001958  00000+0  28572-3 0  9997
2 68593  51.8969 251.2533 0001294 297.4620  62.6210 14.79942967 21163
KUIPER-00294            
1 68594U 26072X   26234.72939145  .00002136  00000+0  30914-3 0  9997
2 68594  51.8983 241.3999 0000511  76.6085 283.4934 14.79931746 21258
KUIPER-00296            
1 68595U 26072Y   26235.25468069  .00002116  00000+0  30658-3 0  9992
2 68595  51.8994 221.5907 0000517 279.1305  80.9599 14.79916553 21572
KUIPER-00297            
1 68596U 26072Z   26235.08732954  .00002026  00000+0  29477-3 0  9998
2 68596  51.8988 252.2943 0001439  47.7343 312.3741 14.79928362 21136
KUIPER-00300            
1 68597U 26072AA  26234.78630740  .00014665  00000+0  19455-2 0  9991
2 68597  51.9016 251.1546 0000993 113.4379 246.6688 14.79997146 21125
KUIPER-00301            
1 68598U 26072AB  26235.25003472 -.00045886  00000+0 -57596-2 0  9990
2 68598  51.9007 218.0431 0001516  47.3926 107.8586 14.81854533  5498
KUIPER-00304            
1 68599U 26072AC  26235.00002315  .00001813  00000+0  28786-3 0  9999
2 68599  51.8987 221.0464 0000767 203.7239 290.1117 14.76583365  5118
KUIPER-00317            
1 68600U 26072AD  26235.03326154  .00002040  00000+0  29642-3 0  9990
2 68600  51.8971 240.0641 0000433  44.6325 315.4672 14.79942426 21294
KUIPER-00320            
1 68601U 26072AE  26235.23046424  .00001966  00000+0  28673-3 0  9991
2 68601  51.9013 244.1987 0000349  50.2081 309.8912 14.79936373 21253
KUIPER-00299            
1 68864U 26095A   26234.94017151  .00001349  00000+0  22268-3 0  9998
2 68864  51.9009 314.9776 0002108  39.6613 320.4502 14.76464911 17506
KUIPER-00353            
1 68865U 26095B   26234.90101537 -.00000231  00000+0 -12591-5 0  9998
2 68865  51.8998 300.6520 0000102  73.5308 286.5666 14.79929656 17702
KUIPER-00357            
1 68866U 26095C   26234.65657690  .00002479  00000+0  35401-3 0  9994
2 68866  51.9017 309.2382 0000037  99.8430 260.2536 14.79931806 17560
KUIPER-00364            
1 68867U 26095D   26235.16034106  .00003075  00000+0  43205-3 0  9997
2 68867  51.9048 309.5277 0000329 301.4203  58.6727 14.79945566 17609
KUIPER-00375            
1 68868U 26095E   26234.45936420  .00002498  00000+0  35651-3 0  9993
2 68868  51.9021 305.1080 0000581  93.3989 266.7040 14.79945792 17604
KUIPER-00433            
1 68869U 26095F   26235.25356993  .00002431  00000+0  34779-3 0  9991
2 68869  51.9019 316.5913 0000072  70.0424 290.0546 14.79927189 17515
KUIPER-00437            
1 68870U 26095G   26234.10911002  .00031565  00000+0  84659-3 0  9996
2 68870  51.8752 283.4142 0007082 166.6128 193.5049 15.37671341 17872
KUIPER-00448            
1 68871U 26095H   26235.22475887  .00001282  00000+0  21395-3 0  9998
2 68871  51.9042 305.9617 0002038 328.1702  31.9136 14.76295141 17652
KUIPER-00459            
1 68872U 26095J   26235.21030374  .00002147  00000+0  31060-3 0  9997
2 68872  51.9021 294.3470 0000653  77.5332 282.5704 14.79916750 17815
KUIPER-00468            
1 68873U 26095K   26235.14890387  .00001506  00000+0  24430-3 0  9999
2 68873  51.8988 291.5161 0001860 124.9450 235.1686 14.76588017 17857
KUIPER-00476            
1 68874U 26095L   26235.29688759  .00003905  00000+0  14925-3 0  9997
2 68874  51.8731 280.7372 0009892 164.4628 195.6661 15.28957479 18019
KUIPER-00478            
1 68875U 26095M   26234.19463593  .00001255  00000+0  19356-3 0  9992
2 68875  51.8976 301.2807 0001505  91.8710 268.2425 14.79935395 17631
KUIPER-00480            
1 68876U 26095N   26234.90650005  .00002342  00000+0  33563-3 0  9992
2 68876  51.9037 295.6377 0001299 146.8276 213.2768 14.80004087 17779
KUIPER-00482            
1 68877U 26095P   26234.62551207 -.00001363  00000+0 -14981-3 0  9993
2 68877  51.9019 306.8716 0000942 249.6890 110.3971 14.79926356 17593
KUIPER-00483            
1 68878U 26095Q   26235.21978660 -.00000578  00000+0 -46820-4 0  9991
2 68878  51.9005 316.7133 0001589 212.3900 147.6965 14.79934651 17503
KUIPER-00488            
1 68879U 26095R   26235.13737985  .00002438  00000+0  34872-3 0  9994
2 68879  51.9004 299.6183 0000227  66.0549 294.0438 14.79932924 17736
KUIPER-00489            
1 68880U 26095S   26234.47011418  .00002343  00000+0  33631-3 0  9995
2 68880  51.8970 295.0569 0000763  34.9454 325.1559 14.79921709 17741
KUIPER-00499            
1 68881U 26095T   26234.49855035 -.00000305  00000+0 -11036-4 0  9993
2 68881  51.8996 299.9859 0000164 306.2759  53.8188 14.79921609 17677
KUIPER-00500            
1 68882U 26095U   26235.22249073 -.00000658  00000+0 -57324-4 0  9996
2 68882  51.8988 314.2274 0001161 116.5190 243.5891 14.79932130 17546
KUIPER-00502            
1 68883U 26095V   26235.25003472 -.00019844  00000+0 -25857-2 0  9992
2 68883  51.9007 290.3652 0000591 308.6446 105.9699 14.79867540  3902
KUIPER-00503            
1 68884U 26095W   26234.92130156 -.00001241  00000+0 -13385-3 0  9992
2 68884  51.8983 313.0429 0000417 122.1394 237.9609 14.79930829 17530
KUIPER-00504            
1 68885U 26095X   26235.21710243  .00000060  00000+0  36829-4 0  9992
2 68885  51.9035 319.2584 0000661  83.8558 276.2480 14.79931608 17478
KUIPER-00505            
1 68886U 26095Y   26234.92399777  .00000132  00000+0  46313-4 0  9994
2 68886  51.9003 310.5544 0000448  72.2190 287.8821 14.79931733 17567
KUIPER-00507            
1 68887U 26095Z   26234.91792608 -.00008672  00000+0 -11095-2 0  9990
2 68887  51.9011 300.5712 0000403  88.3577 271.7432 14.79951813 17708
KUIPER-00511            
1 68888U 26095AA  26234.36888834  .00002476  00000+0  35368-3 0  9991
2 68888  51.8993 295.6143 0000597 260.4808  99.6086 14.79930958 17724
KUIPER-00512            
1 68889U 26095AB  26235.22519321  .00002348  00000+0  33689-3 0  9992
2 68889  51.9028 311.7258 0000284  78.8893 281.2102 14.79932192 17573
KUIPER-00519            
1 68890U 26095AC  26234.49315590  .00002620  00000+0  37262-3 0  9998
2 68890  51.9023 305.0241 0001370 124.5415 235.5677 14.79934530 17605
KUIPER-00521            
1 68891U 26095AD  26234.89661236  .00002205  00000+0  31823-3 0  9990
2 68891  51.9035 296.9351 0000650  72.6240 287.4793 14.79922437 17752
KUIPER-00524            
1 68892U 26095AE  26234.63470037  .00001236  00000+0  20651-3 0  9990
2 68892  51.8995 306.5665 0001677 231.4550 128.6260 14.76473880 17599
KUIPER-00370            
1 68919U 26098A   26234.95741320 -.00000778  00000+0 -72990-4 0  9990
2 68919  51.8985 122.7697 0001516  91.1169 268.9967 14.79938613 17371
KUIPER-00380            
1 68920U 26098B   26235.16735156  .00030136  00000+0  41397-2 0  9990
2 68920  51.8987 114.4741 0002090 125.1945 234.9213 14.78101318 17506
KUIPER-00386            
1 68921U 26098C   26235.04700993 -.00013604  00000+0 -17604-2 0  9996
2 68921  51.8987 117.5035 0000867 126.7549 233.3494 14.79901253 17459
KUIPER-00388            
1 68922U 26098D   26235.08710805 -.00000623  00000+0 -52710-4 0  9990
2 68922  51.9006 127.4853 0000767  91.3107 268.7943 14.79926779 17313
KUIPER-00405            
1 68923U 26098E   26234.97166294 -.00001374  00000+0 -15113-3 0  9994
2 68923  51.9011 125.3476 0001299 134.2277 225.8792 14.79963013 17334
KUIPER-00408            
1 68924U 26098F   26235.00002315  .00000683  00000+0  11842-3 0  9998
2 68924  51.8982 117.6441 0001208  97.4021 100.5631 14.79989979  5702
KUIPER-00409            
1 68925U 26098G   26235.00806394  .00003007  00000+0  42322-3 0  9998
2 68925  51.9016 122.6840 0001176 127.1806 232.9264 14.79933753 17374
KUIPER-00410            
1 68926U 26098H   26235.01078764  .00003108  00000+0  43635-3 0  9992
2 68926  51.8965 120.1601 0002163  72.2876 287.8323 14.79951270 17413
KUIPER-00412            
1 68927U 26098J   26234.93451276  .00002707  00000+0  38370-3 0  9990
2 68927  51.9024 113.0178 0001344  62.9097 297.2002 14.79965555 17502
KUIPER-00413            
1 68928U 26098K   26234.95472399 -.00000560  00000+0 -44460-4 0  9997
2 68928  51.8987 125.4102 0001931  91.5087 268.6097 14.79925450 17330
KUIPER-00414            
1 68929U 26098L   26234.97771583  .00002378  00000+0  34084-3 0  9994
2 68929  51.8948 135.3953 0002437  50.4276 309.6901 14.79931931 17193
KUIPER-00415            
1 68930U 26098M   26234.99659795  .00003029  00000+0  42598-3 0  9991
2 68930  51.9009 117.7360 0000740  86.3175 273.7872 14.79949050 17448
KUIPER-00416            
1 68931U 26098N   26235.25003472 -.00063199  00000+0 -76348-2 0  9992
2 68931  51.9018 108.0140 0004944  52.7139  99.4433 14.83591062  4066
KUIPER-00420            
1 68932U 26098P   26235.25003472 -.00062222  00000+0 -79966-2 0  9998
2 68932  51.8990 109.0873 0001815  32.1046 192.1531 14.81025642  5236
KUIPER-00421            
1 68933U 26098Q   26235.06673214 -.00006367  00000+0 -80600-3 0  9991
2 68933  51.9010 114.8696 0001095  91.8125 268.2963 14.79979753 17491
KUIPER-00425            
1 68934U 26098R   26235.12624754  .00003074  00000+0  43208-3 0  9997
2 68934  51.8985 122.1594 0000679 116.0707 244.0326 14.79930853 17396
KUIPER-00430            
1 68935U 26098S   26234.92094761 -.00000109  00000+0  14767-4 0  9990
2 68935  51.9034 125.4553 0001776  84.8196 275.2969 14.79928328 17334
KUIPER-00431            
1 68936U 26098T   26235.12085239  .00000309  00000+0  69613-4 0  9995
2 68936  51.8985 127.1699 0001110 104.3072 255.8013 14.79927137 17322
KUIPER-00432            
1 68937U 26098U   26234.99386846  .00002928  00000+0  41272-3 0  9997
2 68937  51.8992 120.1297 0000859 113.9173 246.1879 14.79948547 17416
KUIPER-00434            
1 68938U 26098V   26234.97909041 -.00001743  00000+0 -21740-3 0  9998
2 68938  51.8999 123.5918 0001976  53.2991 306.8152 14.76518290 17363
KUIPER-00436            
1 68939U 26098W   26235.10936553  .00003007  00000+0  42325-3 0  9998
2 68939  51.8987 122.2328 0000835 105.9314 254.1740 14.79939043 17396
KUIPER-00438            
1 68940U 26098X   26234.97700112 -.00001057  00000+0 -10972-3 0  9992
2 68940  51.9033 120.3319 0000979  85.9052 274.2022 14.79929022 17409
KUIPER-00439            
1 68941U 26098Y   26234.95971880  .00003052  00000+0  42810-3 0  9994
2 68941  51.9024 120.3961 0000624 127.8450 232.2569 14.80040432 17409
KUIPER-00440            
1 68942U 26098Z   26235.25003472 -.00060857  00000+0 -77669-2 0  9999
2 68942  51.9020 111.6266 0003503 164.6948 163.1899 14.81300136  5492
KUIPER-00442            
1 68943U 26098AA  26234.93223395  .00001497  00000+0  24350-3 0  9995
2 68943  51.9013 115.0274 0001696  60.8922 299.2208 14.76496430 17475
KUIPER-00446            
1 68944U 26098AB  26234.94583866  .00000350  00000+0  74940-4 0  9997
2 68944  51.8990 117.9706 0001662 167.0166 193.0839 14.79904833 17434
KUIPER-00451            
1 68945U 26098AC  26235.00268191 -.00001250  00000+0 -13500-3 0  9993
2 68945  51.8989 127.7015 0001025  83.8658 276.2421 14.79927667 17306
KUIPER-00452            
1 68946U 26098AD  26235.08363000  .00003054  00000+0  42956-3 0  9996
2 68946  51.9011 114.8528 0000933  29.4972 330.6043 14.79923500 17499
KUIPER-00453            
1 68947U 26098AE  26234.96813013 -.00009930  00000+0 -12751-2 0  9997
2 68947  51.8986 112.7911 0002762  54.9813 305.1408 14.79937852 17512
KUIPER-00454            
1 68948U 26098AF  26234.96871401  .00002241  00000+0  34902-3 0  9992
2 68948  51.8995 129.8446 0002067 273.6375  86.4350 14.76521428 17279
KUIPER-00455            
1 68949U 26098AG  26234.96890289  .00003113  00000+0  43707-3 0  9990
2 68949  51.8994 127.8530 0002718  56.6268 303.4954 14.79942308 17307
KUIPER-00458            
1 68950U 26098AH  26234.00535708  .00025637  00000+0  35174-2 0  9992
2 68950  51.9004 117.1279 0001194 348.6962  11.3973 14.78235451 17361
KUIPER-00282            
1 69267U 26118A   26234.95940895 -.00000194  00000+0  35682-5 0  9997
2 69267  51.8965 105.3828 0001584 107.3809 252.7327 14.79926080 14042
KUIPER-00383            
1 69268U 26118B   26235.04657532  .00002694  00000+0  38223-3 0  9990
2 69268  51.8974 102.5156 0000519  94.2791 265.8231 14.79940426 14091
KUIPER-00527            
1 69269U 26118C   26234.33746794  .00001513  00000+0  22747-3 0  9994
2 69269  51.8970 105.7812 0000370  55.9118 304.1880 14.79934633 13981
KUIPER-00562            
1 69270U 26118D   26235.25003472 -.00059228  00000+0 -68907-2 0  9992
2 69270  51.8993  94.1391 0003949 321.5521 310.4297 14.85108115  4635
KUIPER-00570            
1 69271U 26118E   26234.66973621 -.00001472  00000+0 -16408-3 0  9997
2 69271  51.9001 109.2812 0000791  79.2986 280.8066 14.79926394 13956
KUIPER-00572            
1 69272U 26118F   26233.84514480  .00038923  00000+0  55041-2 0  9995
2 69272  51.8997 107.7878 0002291 108.2484 251.8727 14.76741427 13915
KUIPER-00581            
1 69273U 26118G   26234.92295163 -.00001212  00000+0 -12997-3 0  9997
2 69273  51.9015 108.0568 0003094  96.9003 263.2311 14.79929950 14098
KUIPER-00584            
1 69274U 26118H   26235.10597060 -.00003166  00000+0 -38637-3 0  9999
2 69274  51.9002 109.8608 0000907 106.1393 253.9669 14.79938103 13995
KUIPER-00587            
1 69275U 26118J   26234.65810350  .00017672  00000+0  25291-2 0  9995
2 69275  51.8999 101.7009 0000200  53.7361 306.3618 14.76646937 14079
KUIPER-00590            
1 69276U 26118K   26234.92563410  .00002911  00000+0  41083-3 0  9996
2 69276  51.9014 105.5532 0001618  83.1172 276.9974 14.79925622 14041
KUIPER-00592            
1 69277U 26118L   26234.62626393  .00001566  00000+0  25333-3 0  9999
2 69277  51.9028 106.6269 0001804  18.0310 342.0714 14.76484533 14005
KUIPER-00593            
1 69278U 26118M   26235.25003472 -.02474293  00000+0 -13230+0 0  9991
2 69278  51.8799  89.2237 0002531  34.9884  26.5927 15.18405143  5313
KUIPER-00594            
1 69279U 26118N   26235.25003472 -.00059407  00000+0 -61454-2 0  9990
2 69279  51.8965  91.7739 0003834 297.6091 293.0585 14.89870267  5400
KUIPER-00595            
1 69280U 26118P   26235.25003472 -.00030424  00000+0 -14352-2 0  9995
2 69280  51.8763  89.3279 0000353 290.1494 132.7035 15.18775661  5851
KUIPER-00596            
1 69281U 26118Q   26234.95400983 -.00001896  00000+0 -21978-3 0  9994
2 69281  51.9010 110.4244 0000675 110.6936 249.4099 14.79929188 13979
KUIPER-00597            
1 69282U 26118R   26235.25003472 -.02008645  00000+0 -14143+0 0  9994
2 69282  51.8823  90.1613 0007643  42.2864 263.1698 15.08450018  5486
KUIPER-00599            
1 69283U 26118S   26234.64402755 -.00001645  00000+0 -18688-3 0  9997
2 69283  51.9005 101.7098 0001317 110.8240 249.2863 14.79926226 14078
KUIPER-00600            
1 69284U 26118T   26235.25003472 -.01246540  00000+0 -83171-1 0  9992
2 69284  51.8836  90.6939 0007223  51.4349  55.3384 15.09853272  5564
KUIPER-00601            
1 69285U 26118U   26235.01000850  .00002823  00000+0  39847-3 0  9998
2 69285  51.9010 105.1721 0000466  50.5158 309.5845 14.80012577 14054
KUIPER-00602            
1 69286U 26118V   26234.88301925  .00001920  00000+0  28066-3 0  9998
2 69286  51.9007  98.1488 0002057 123.9907 236.1252 14.79965417 14142
KUIPER-00603            
1 69287U 26118W   26234.62726445  .00005957  00000+0  81015-3 0  9996
2 69287  51.9034 101.8661 0000674  43.1608 316.9408 14.79913339 14069
KUIPER-00605            
1 69288U 26118X   26234.95670879  .00002886  00000+0  40730-3 0  9999
2 69288  51.8978 107.8989 0000534 123.2752 236.8262 14.79940341 14016
KUIPER-00606            
1 69289U 26118Y   26234.06990409 -.00004638  00000+0 -58008-3 0  9992
2 69289  51.9006 104.3305 0000913 108.7186 251.3875 14.79912258 13987
KUIPER-00607            
1 69290U 26118Z   26235.25003472 -.01628925  00000+0 -11968+0 0  9993
2 69290  51.8845  90.3660 0006429  29.5556 230.5451 15.06165668  5667
KUIPER-00608            
1 69291U 26118AA  26235.25003472 -.01476600  00000+0 -11236+0 0  9993
2 69291  51.8791  92.6468 0010036  53.6690 149.4895 15.05042513  4543
KUIPER-00610            
1 69292U 26118AB  26235.18444695  .00075100  00000+0  10511-1 0  9996
2 69292  51.9011  96.8749 0001517 107.5997 252.5130 14.76836773 14186
KUIPER-00613            
1 69293U 26118AC  26235.04114211  .00002881  00000+0  40687-3 0  9995
2 69293  51.8994 107.5381 0000867 111.9483 248.1571 14.79924394 14027
KUIPER-00618            
1 69294U 26118AD  26235.25003472 -.00068285  00000+0 -84568-2 0  9992
2 69294  51.9020  94.0826 0002322  42.8936 116.9589 14.82614488  4569
KUIPER-00620            
1 69295U 26118AE  26235.25003472 -.00033892  00000+0 -44363-2 0  9998
2 69295  51.9023  96.6204 0000592  95.7724 330.3546 14.79959962  2603
KUIPER-00423            
1 69592U 26140A   26235.25003472 -.01118644  00000+0 -38463-1 0  9996
2 69592  51.8827  74.0341 0012073  47.7612  41.0490 15.32355407  5685
KUIPER-00428            
1 69593U 26140B   26234.96869789  .00037044  00000+0  10009-2 0  9993
2 69593  51.8797  76.0835 0006450 163.7371 196.3824 15.37367435 11507
KUIPER-00481            
1 69594U 26140C   26235.25003472 -.02444223  00000+0 -14505+0 0  9993
2 69594  51.8853  75.2479 0011081  52.6521 179.8182 15.14631787  5735
KUIPER-00490            
1 69595U 26140D   26235.25003472 -.00601279  00000+0 -68747-1 0  9997
2 69595  51.9613  79.2102 0005585  71.0631  77.4729 14.88152700  5864
KUIPER-00493            
1 69596U 26140E   26234.96411629  .00002706  00000+0  38371-3 0  9992
2 69596  51.9027  85.3770 0001722 170.1984 189.9013 14.79950487 11370
KUIPER-00496            
1 69597U 26140F   26235.18144606  .00027154  00000+0  90492-3 0  9992
2 69597  51.8779  76.7000 0011789 179.1639 180.9367 15.30843901 11513
KUIPER-00513            
1 69598U 26140G   26235.25003472 -.00060864  00000+0 -67821-2 0  9992
2 69598  51.8991  79.1306 0005947 108.0283 303.1997 14.86872932  5383
KUIPER-00516            
1 69599U 26140H   26235.00176123  .00033133  00000+0  87145-3 0  9999
2 69599  51.8786  75.5497 0007688 129.1130 231.0542 15.38244835 11516
KUIPER-00517            
1 69600U 26140J   26234.92318949  .00019775  00000+0  54796-3 0  9998
2 69600  51.8768  75.7668 0010841  71.8177 288.3989 15.36903475 11509
KUIPER-00520            
1 69601U 26140K   26235.25003472 -.00068700  00000+0 -81733-2 0  9992
2 69601  51.9005  80.7490 0004936 151.9439 183.5569 14.84266016  5130
KUIPER-00522            
1 69602U 26140L   26235.25003472 -.01392911  00000+0 -47126-1 0  9995
2 69602  51.8788  74.2739 0014282  45.7348 288.0259 15.32989169  5880
KUIPER-00528            
1 69603U 26140M   26235.25003472 -.00073646  00000+0 -96389-2 0  9992
2 69603  51.9016  81.6266 0000980  53.6840 106.6260 14.80359319  4963
KUIPER-00532            
1 69604U 26140N   26234.98064669  .00023066  00000+0  63329-3 0  9995
2 69604  51.8785  76.1457 0005088 169.7493 190.3598 15.37131091 11504
KUIPER-00533            
1 69605U 26140P   26235.25003472 -.00114811  00000+0 -10057-1 0  9991
2 69605  51.9198  77.0764 0006177  74.6817 280.5205 14.96808464  5362
KUIPER-00534            
1 69606U 26140Q   26235.07741510 -.00008883  00000+0 -25448-3 0  9997
2 69606  51.8813  75.3199 0010217  59.1466 301.0523 15.33992247 11529
KUIPER-00537            
1 69607U 26140R   26234.97773324  .00002401  00000+0  37193-3 0  9992
2 69607  51.8998  85.0350 0002741 113.8094 246.3154 14.76505698 11380
KUIPER-00538            
1 69608U 26140S   26235.25003472 -.00069952  00000+0 -99622-2 0  9995
2 69608  51.9000  81.4455 0003243 179.6102 309.5061 14.76762290  5420
KUIPER-00540            
1 69609U 26140T   26235.28801307  .00022258  00000+0  60005-3 0  9992
2 69609  51.8814  74.4814 0006055 160.5156 199.6064 15.37716060 11550
KUIPER-00541            
1 69610U 26140U   26234.97850335  .00029147  00000+0  79028-3 0  9993
2 69610  51.8810  75.4244 0008173  94.5046 265.6874 15.37368587 11519
KUIPER-00542            
1 69611U 26140V   26234.97760949  .00030793  00000+0  83881-3 0  9996
2 69611  51.8780  75.3932 0008407  81.1187 279.0751 15.37192720 11514
KUIPER-00543            
1 69612U 26140W   26235.17477380  .00036983  00000+0  10130-2 0  9997
2 69612  51.8778  75.1932 0007204 161.1440 198.9815 15.36940250 11535
KUIPER-00544            
1 69613U 26140X   26234.00730093  .00025109  00000+0  68375-3 0  9995
2 69613  51.8781  80.1407 0006533  87.9696 272.2039 15.37328575 11361
KUIPER-00546            
1 69614U 26140Y   26235.25003472 -.01238889  00000+0 -42722-1 0  9998
2 69614  51.8808  74.0519 0015123  39.6808  54.8859 15.32512061  4638
KUIPER-00547            
1 69615U 26140Z   26234.98131891  .00023441  00000+0  61465-3 0  9995
2 69615  51.8802  75.4390 0010592  60.9346 299.2701 15.38505120 11514
KUIPER-00549            
1 69616U 26140AA  26234.56568340  .00025491  00000+0  68600-3 0  9998
2 69616  51.8777  77.8695 0007866 149.2860 210.8589 15.37676403 11449
KUIPER-00550            
1 69617U 26140AB  26235.25647548  .00014033  00000+0  50813-3 0  9991
2 69617  51.8779  77.1830 0009023 192.2201 167.8564 15.28622172 11516
KUIPER-00551            
1 69618U 26140AC  26234.96572502  .00023344  00000+0  62230-3 0  9997
2 69618  51.8785  75.3148 0012534  56.1623 304.0556 15.37977342 11511
KUIPER-00554            
1 69619U 26140AD  26234.97518335  .00029725  00000+0  77350-3 0  9991
2 69619  51.8772  75.3763 0010960  67.3987 292.8159 15.38601049 11511
KUIPER-00555            
1 69620U 26140AE  26234.97689300  .00048196  00000+0  12466-2 0  9993
2 69620  51.8808  75.4103 0010566  53.4246 306.7712 15.38559624 11519
KUIPER-00556            
1 69621U 26140AF  26235.25003472 -.01216857  00000+0 -58852-1 0  9998
2 69621  51.8879  74.6582 0014056  41.6049 143.6524 15.20927138  4788
KUIPER-00557            
1 69622U 26140AG  26235.00002315  .00062190  00000+0  16255-2 0  9995
2 69622  51.8794  75.4755 0010045  73.1909 325.6553 15.38128891  5632
KUIPER-00560            
1 69623U 26140AH  26234.93944691  .00021533  00000+0  59801-3 0  9990
2 69623  51.8782  75.8805 0010326  88.2553 271.9616 15.36782271 11506
KUIPER-00561            
1 69624U 26140AJ  26235.25003472 -.01220386  00000+0 -10437+0 0  9998
2 69624  51.9123  77.0984 0007649  59.5920  45.5457 15.00092461  5789
KUIPER-00564            
1 69625U 26140AK  26235.25003472 -.00025671  00000+0 -13838-2 0  9999
2 69625  51.8893  75.7111 0008420  68.0789 332.0965 15.13993276  5502
KUIPER-00567            
1 69626U 26140AL  26235.25003472 -.01286834  00000+0 -59269-1 0  9998
2 69626  51.8868  74.5284 0012067  37.6093 152.4723 15.22774644  3505
KUIPER-00573            
1 69627U 26140AM  26235.25003472 -.01712257  00000+0 -11754+0 0  9997
2 69627  51.8935  75.6970 0011310  42.1386 282.2783 15.08747182  4501
KUIPER-00258            
1 69763U 26151A   26235.22669114  .00006942  00000+0  22658-3 0  9991
2 69763  51.8685 352.7805 0011607 318.8924  41.1185 15.32858585  8004
KUIPER-00526            
1 69764U 26151B   26235.00002315 -.00033089  00000+0 -43336-2 0  9991
2 69764  51.8996   0.2958 0001072 118.8952  34.6252 14.79924274  5253
KUIPER-00558            
1 69765U 26151C   26235.25003472 -.00005194  00000+0 -64452-3 0  9993
2 69765  51.8985 359.1157 0003650  83.4097 140.7571 14.80453468  5011
KUIPER-00569            
1 69766U 26151D   26235.25003472  .00009157  00000+0  10775-2 0  9993
2 69766  51.8990 356.6882 0003644   1.4424  65.6990 14.85422863  4213
KUIPER-00589            
1 69767U 26151E   26235.00002315 -.00035365  00000+0 -50251-2 0  9997
2 69767  51.9013   0.1027 0001941 356.3536 344.6341 14.76514051  5769
KUIPER-00598            
1 69768U 26151F   26235.25003472 -.02260451  00000+0 -13225+0 0  9995
2 69768  51.8765 353.5188 0007432 314.6840 127.6722 15.14891143  5734
KUIPER-00604            
1 69769U 26151G   26235.25003472 -.00041377  00000+0 -38664-2 0  9995
2 69769  51.8979 354.1761 0000640  10.5637  74.1781 14.93738540  5318
KUIPER-00609            
1 69770U 26151H   26235.25003472 -.02039737  00000+0 -12632+0 0  9990
2 69770  51.8925 352.6716 0000882 338.6691 146.7996 15.13178281  5874
KUIPER-00611            
1 69771U 26151J   26235.25003472 -.00033173  00000+0 -28693-2 0  9994
2 69771  51.8955 354.6868 0004121   4.7617 312.7917 14.96639536  5083
KUIPER-00612            
1 69772U 26151K   26235.25003472  .00015151  00000+0  15829-2 0  9996
2 69772  51.8974 356.5349 0002034  24.0983  41.7781 14.89842977  5357
KUIPER-00614            
1 69773U 26151L   26235.25003472  .00015865  00000+0  14778-2 0  9991
2 69773  51.8961 354.7055 0003577 337.2304 151.5405 14.94394334  5456
KUIPER-00615            
1 69774U 26151M   26235.25003472  .00032754  00000+0  46598-2 0  9993
2 69774  51.9021 358.5525 0001398 146.1366  66.3601 14.76567735  5484
KUIPER-00616            
1 69775U 26151N   26235.29051728  .00020190  00000+0  55189-3 0  9993
2 69775  51.8816 351.0439 0001982 295.5182  64.5600 15.37361792  8038
KUIPER-00617            
1 69776U 26151P   26235.25003472 -.01242832  00000+0 -60307-1 0  9991
2 69776  51.8863 351.8426 0005051 290.2478 249.3617 15.21004927  5851
KUIPER-00619            
1 69777U 26151Q   26235.25003472  .00042972  00000+0  27271-2 0  9996
2 69777  51.8885 352.9974 0002284 330.3087 315.5986 15.08468030  4974
KUIPER-00621            
1 69778U 26151R   26235.25003472 -.00032737  00000+0 -30330-2 0  9997
2 69778  51.8968 354.5451 0003704  45.2404 284.9790 14.93955573  4897
KUIPER-00622            
1 69779U 26151S   26235.25003472 -.00009217  00000+0 -12388-2 0  9998
2 69779  51.9000 357.4302 0001852 293.2953 346.7838 14.77957606  5419
KUIPER-00623            
1 69780U 26151T   26235.25003472  .00001081  00000+0  16525-3 0  9997
2 69780  51.8980 356.3108 0001992 353.7664  24.4546 14.81424891  5882
KUIPER-00626            
1 69781U 26151U   26235.25003472 -.01218528  00000+0 -75376-1 0  9994
2 69781  51.8849 353.5720 0006368 331.0198 129.3836 15.12499442  5661
KUIPER-00627            
1 69782U 26151V   26235.31669319  .00015703  00000+0  53276-3 0  9994
2 69782  51.8726 352.6346 0008821 327.1830  32.8605 15.30656318  8016
KUIPER-00629            
1 69783U 26151W   26234.74922957  .00003146  00000+0  44127-3 0  9994
2 69783  51.9026   3.7649 0001103  51.2321 308.8740 14.79949491  7819
KUIPER-00631            
1 69784U 26151X   26235.30640526  .00011979  00000+0  15973-2 0  9996
2 69784  51.9022   1.3633 0000670 146.3980 213.7025 14.79941235  7894
KUIPER-00634            
1 69785U 26151Y   26235.25003472  .00000735  00000+0  11558-3 0  9998
2 69785  51.8993 356.6887 0007360 349.4376 275.8613 14.83725753  4604
KUIPER-00639            
1 69786U 26151Z   26234.82176002 -.00055332  00000+0 -17148-2 0  9996
2 69786  51.8700 354.5789 0009728 309.5288  50.4837 15.32880807  7940
KUIPER-00641            
1 69787U 26151AA  26235.25003472  .00042746  00000+0  15249-2 0  9998
2 69787  51.8729 352.9988 0012220 318.5673  10.7953 15.28399836  5199
KUIPER-00644            
1 69788U 26151AB  26234.69306855  .00024006  00000+0  66057-3 0  9990
2 69788  51.8765 354.5087 0008716 308.7870  51.2338 15.37015083  7922
KUIPER-00646            
1 69789U 26151AC  26235.25003472 -.01162189  00000+0 -50571-1 0  9993
2 69789  51.8782 352.9029 0010060 317.5939  45.9309 15.24409205  5441
KUIPER-00647            
1 69790U 26151AD  26235.25003472 -.01374836  00000+0 -58172-1 0  9994
2 69790  51.8723 353.0234 0009766 321.8716 359.5410 15.25835000  5141
KUIPER-00662            
1 69791U 26151AE  26235.00002315 -.00031743  00000+0 -45067-2 0  9999
2 69791  51.9019   2.2055 0000890 282.3034 328.2079 14.76498519  4595
