EUTELSAT 139 WEST A     
1 28187U 04008A   26072.85177510 -.00000044  00000+0  00000+0 0  9996
2 28187   5.5854  73.1440 0002256  26.9590 359.7007  1.00831635 80400
EUTELSAT 174A           
1 28924U 05052A   26072.88982194  .00000010  00000+0  00000+0 0  9992
2 28924   3.9758  77.7014 0006282 277.8928 310.2637  1.00270233 51372
EUTELSAT 33F            
1 29270U 06032A   26072.94419696  .00000156  00000+0  00000+0 0  9996
2 29270   1.4140  83.3473 0003469 276.4976 184.7161  1.00274138 46355
EUTELSAT HOTBIRD 13C    
1 33459U 08065A   26072.91677539 -.00000282  00000+0  00000+0 0  9998
2 33459   2.7041  80.3245 0003864 286.3068  84.6507  1.00271085 46392
EUTELSAT 36B            
1 36101U 09065A   26072.93670881  .00000112  00000+0  00000+0 0  9992
2 36101   0.2494  78.1274 0005792 277.8575 203.2830  1.00270049 59752
EUTELSAT KA-SAT 9A      
1 37258U 10069A   26072.78582148  .00000061  00000+0  00000+0 0  9996
2 37258   0.0572 357.3624 0002536 148.4127 317.5124  1.00270252 43058
EUTELSAT 7 WEST A       
1 37816U 11051A   26072.91839465 -.00000061  00000+0  00000+0 0  9991
2 37816   0.0641 344.2428 0000852 201.9387 308.6613  1.00271348 52921
EUTELSAT 16A            
1 37836U 11057A   26072.85853514  .00000103  00000+0  00000+0 0  9999
2 37836   0.0545   2.5377 0005564 358.9978 135.0113  1.00269711  6384
EUTELSAT 21B            
1 38992U 12062B   26072.83701901  .00000129  00000+0  00000+0 0  9998
2 38992   0.0689 350.3533 0002954 355.1971 148.8278  1.00269306 48871
EUTELSAT 70B            
1 39020U 12069A   26072.93308604 -.00000043  00000+0  00000+0 0  9998
2 39020   0.0649 359.5246 0001973 338.3125 240.1006  1.00271629 48557
EUTELSAT 117 WEST A     
1 39122U 13012A   26072.90342868 -.00000013  00000+0  00000+0 0  9994
2 39122   0.0355 294.9168 0002900  68.2354  16.7927  1.00272653 47470
EUTELSAT 7B             
1 39163U 13022A   26072.96155966  .00000047  00000+0  00000+0 0  9993
2 39163   0.0669 350.3988 0006267   8.9786 165.3542  1.00271190 46995
EXPRESS-AT1             
1 39612U 14010A   26072.94411067  .00000077  00000+0  00000+0 0  9998
2 39612   0.0222 139.5211 0000336 299.9849 127.9727  1.00275274 43867
EXPRESS-AT2             
1 39613U 14010B   26070.51237429 -.00000280  00000+0  00000+0 0  9995
2 39613   0.0166 193.7113 0001308  80.7943 218.9521  1.00271550 43528
EUTELSAT 3B             
1 39773U 14030A   26072.92726211  .00000019  00000+0  00000+0 0  9992
2 39773   0.0627 354.6465 0000314 306.0812 207.7145  1.00272466 43110
EUTELSAT 115 WEST B     
1 40425U 15010B   26072.88127890 -.00000026  00000+0  00000+0 0  9999
2 40425   0.0319  22.2232 0000181 270.7939  80.8523  1.00271931 40431
EUTELSAT 8 WEST B       
1 40875U 15039B   26072.91973263 -.00000066  00000+0  00000+0 0  9990
2 40875   0.0672 351.1979 0003823   1.2281 142.2070  1.00271636 38706
EUTELSAT 9B             
1 41310U 16005A   26072.92847544  .00000061  00000+0  00000+0 0  9996
2 41310   0.0452  68.9595 0004155 263.4951 182.3223  1.00272777 37160
EUTELSAT 65 WEST A      
1 41382U 16014A   26072.91374205 -.00000277  00000+0  00000+0 0  9993
2 41382   0.0589  17.0078 0002210 335.1663  83.0918  1.00274284 36575
EUTELSAT 117 WEST B     
1 41589U 16038B   26072.90334201 -.00000012  00000+0  00000+0 0  9996
2 41589   0.0335  22.1748 0000228 267.7549  89.8086  1.00271893 35701
EUTELSAT 172B           
1 42741U 17029B   26072.46154478 -.00000006  00000+0  00000+0 0  9998
2 42741   0.0192 153.9860 0000202 290.3649  64.8792  1.00270786 32788
EUTELSAT 7C             
1 44334U 19034B   26072.96155966  .00000047  00000+0  00000+0 0  9998
2 44334   0.0712 178.1495 0003265 165.9462 180.6048  1.00272070  5881
EUTELSAT 5 WEST B       
1 44624U 19067A   26072.92128124 -.00000043  00000+0  00000+0 0  9995
2 44624   0.0800 322.5633 0003184  41.9676 133.6651  1.00271722 23487
EUTELSAT KONNECT        
1 45027U 20005B   26072.96155966  .00000049  00000+0  00000+0 0  9990
2 45027   0.0658  97.6221 0001038 220.1566 207.1733  1.00272605 23382
EUTELSAT QUANTUM        
1 49056U 21069B   26072.93610214  .00000125  00000+0  00000+0 0  9991
2 49056   0.0285 283.6750 0002587  70.8343 201.7378  1.00272043 16979
EUTELSAT KONNECT VHTS   
1 53765U 22110A   26072.28543735  .00000017  00000+0  00000+0 0  9992
2 53765   0.0582 103.6406 0002797 226.3283 306.3955  1.00270242  5873
EUTELSAT HOTBIRD 13F    
1 54048U 22134A   26072.90322635  .00000086  00000+0  00000+0 0  9992
2 54048   0.0591 293.6376 0002062  73.4907 142.5494  1.00271959 12426
EUTELSAT HOTBIRD 13G    
1 54225U 22146A   26072.57249891  .00000087  00000+0  00000+0 0  9998
2 54225   0.0468 234.1470 0001988 299.5378 216.5991  1.00270467  6509
EUTELSAT 10B            
1 54259U 22157A   26072.90322635  .00000068  00000+0  00000+0 0  9991
2 54259   0.0573 103.3974 0002130 341.8391  61.4342  1.00275389 12079
EUTELSAT 36D            
1 59346U 24059A   26072.29202405  .00000156  00000+0  00000+0 0  9998
2 59346   0.0140 161.5418 0000326 288.7298 221.6173  1.00272109  7185
