ORBCOMM FM06            
1 25118U 97084G   26123.85253350  .00001415  00000+0  42093-3 0  9991
2 25118  45.0138 266.1227 0000787 164.0752 356.0255 14.47452313487967
ORBCOMM FM04            
1 25159U 98007C   26123.73207034  .00001186  00000+0  45216-3 0  9992
2 25159 107.9621  77.9353 0039561  42.2865 318.1315 14.35651734470210
ORBCOMM FM19            
1 25415U 98046C   26123.93493506  .00001043  00000+0  37737-3 0  9994
2 25415  44.9931  93.8911 0001961  47.6899 342.0799 14.39407734450409
ORBCOMM FM20            
1 25416U 98046D   26123.96768453  .00000721  00000+0  28283-3 0  9992
2 25416  44.9932 101.1742 0001557 304.7403  55.3298 14.37999248450429
ORBCOMM FM27            
1 25481U 98053G   26123.89713181  .00000828  00000+0  31128-3 0  9992
2 25481  45.0042 185.7017 0001834 254.5896 105.4750 14.39056149443859
ORBCOMM FM32            
1 25982U 99065C   26123.72985682  .00000812  00000+0  31860-3 0  9997
2 25982  45.0171  23.6613 0004923 200.7474 159.3175 14.37068137380696
ORBCOMM FM109           
1 40086U 14040A   26123.92307978  .00000432  00000+0  12773-3 0  9997
2 40086  47.0039 300.7566 0001297   2.3720 357.7171 14.58798171627886
ORBCOMM FM114           
1 41179U 15081A   26123.94064273  .00000433  00000+0  12796-3 0  9993
2 41179  47.0042 211.1883 0002241 331.5872  28.4892 14.58809349551299
ORBCOMM FM110           
1 41182U 15081D   26123.72391943  .00000779  00000+0  20128-3 0  9991
2 41182  47.0013 211.6663 0003860 236.5625 123.4892 14.58811598551138
ORBCOMM FM118           
1 41183U 15081E   26123.62156934  .00000771  00000+0  19954-3 0  9997
2 41183  47.0035 212.4762 0003569 204.2978 155.7740 14.58832879551226
ORBCOMM FM112           
1 41184U 15081F   26123.96774854  .00000659  00000+0  17680-3 0  9991
2 41184  46.9976 119.3222 0002216   2.1916 357.8979 14.58557458552496
ORBCOMM FM113           
1 41185U 15081G   26123.67055810  .00000431  00000+0  12754-3 0  9999
2 41185  46.9994 121.0984 0001906 331.9165  28.1617 14.58808440552437
ORBCOMM FM108           
1 41187U 15081J   26123.77011492  .00000787  00000+0  20305-3 0  9995
2 41187  47.0063  32.1874 0002889 343.2274  16.8516 14.58805233553593
ORBCOMM FM117           
1 41188U 15081K   26123.80403938  .00000771  00000+0  19966-3 0  9994
2 41188  47.0029  30.6746 0003262 350.9081   9.1745 14.58803820553649
ORBCOMM FM116           
1 41189U 15081L   26123.44237684  .00000331  00000+0  10639-3 0  9998
2 41189  47.0009 122.1739 0002372 244.4043 115.6598 14.58817487552409
