KUIPER-00008            
1 63724U 25088A   26228.03889723  .00001214  00000+0  18826-3 0  9990
2 63724  51.9006 103.3659 0000920 108.6040 251.5022 14.79934562 71647
KUIPER-00009            
1 63725U 25088B   26228.07178072  .00004245  00000+0  29331-3 0  9993
2 63725  51.9013 117.5313 0001010  40.4434 319.6616 15.07695214 71444
KUIPER-00010            
1 63726U 25088C   26228.07802940  .00003490  00000+0  48641-3 0  9998
2 63726  51.9015  98.2993 0000789 101.0678 259.0373 14.79944683 71332
KUIPER-00011            
1 63727U 25088D   26228.03611435 -.00005925  00000+0 -74922-3 0  9990
2 63727  51.8971 106.0321 0000605  82.3846 277.7185 14.79917814 71357
KUIPER-00012            
1 63728U 25088E   26228.01860065  .00000830  00000+0  13787-3 0  9994
2 63728  51.9018  91.0453 0000810 108.7136 251.3914 14.79939562 71513
KUIPER-00013            
1 63729U 25088F   26228.08483411 -.00002741  00000+0 -33068-3 0  9997
2 63729  51.9026 123.2713 0000915 107.5605 252.5457 14.79932733 71174
KUIPER-00014            
1 63730U 25088G   26227.91603293  .00000675  00000+0  11752-3 0  9990
2 63730  51.9018 123.9626 0000971  99.1881 260.9191 14.79924343 70963
KUIPER-00015            
1 63731U 25088H   26227.93901346  .00000115  00000+0  44080-4 0  9993
2 63731  51.8992 133.9141 0001061  85.9396 274.1687 14.79931007 71280
KUIPER-00016            
1 63732U 25088J   26228.11591138  .00000228  00000+0  58909-4 0  9999
2 63732  51.9003 125.5876 0000962  98.8970 261.2101 14.79932880 70958
KUIPER-00018            
1 63733U 25088K   26228.09294987  .00000762  00000+0  12902-3 0  9994
2 63733  51.9031 115.7283 0000783 106.4806 253.6242 14.79924218 71091
KUIPER-00019            
1 63734U 25088L   26227.98459323  .00000907  00000+0  14790-3 0  9997
2 63734  51.9009 114.9592 0001274 104.3439 255.7665 14.79969646 71092
KUIPER-00020            
1 63735U 25088M   26227.88764132  .00001046  00000+0  16617-3 0  9999
2 63735  51.9018 119.1351 0001133  94.2691 265.8401 14.79938455 71234
KUIPER-00021            
1 63736U 25088N   26227.98895079  .00000787  00000+0  13227-3 0  9991
2 63736  51.9008 118.6399 0001045  97.6049 262.5032 14.79940148 71085
KUIPER-00023            
1 63737U 25088P   26228.08753497 -.00000862  00000+0 -84073-4 0  9995
2 63737  51.9013 120.6937 0001060  89.8403 270.2680 14.79926297 71362
KUIPER-00024            
1 63738U 25088Q   26227.96597174  .00000693  00000+0  11989-3 0  9995
2 63738  51.9032 108.8374 0001112 102.2284 257.8803 14.79940911 71640
KUIPER-00025            
1 63739U 25088R   26227.99165096 -.00001890  00000+0 -21895-3 0  9992
2 63739  51.9044 116.2052 0001126 103.3954 256.7133 14.79930956 71407
KUIPER-00027            
1 63740U 25088S   26227.89573812 -.00000706  00000+0 -63558-4 0  9990
2 63740  51.9026 111.5933 0001195  96.1033 264.0065 14.79925629 71191
KUIPER-00028            
1 63741U 25088T   26227.99971712  .00000515  00000+0  96582-4 0  9992
2 63741  51.8995 108.5782 0001076  95.4974 264.6111 14.79939693 71653
KUIPER-00029            
1 63742U 25088U   26228.04327971  .00000778  00000+0  13110-3 0  9998
2 63742  51.9021 107.0767 0001284  83.4879 276.6230 14.79923518 71209
KUIPER-00030            
1 63743U 25088V   26228.01462369 -.00001634  00000+0 -18534-3 0  9996
2 63743  51.9019 126.0262 0001056  93.8579 266.2504 14.79927690 71223
KUIPER-00031            
1 63744U 25088W   26228.06455662 -.00000350  00000+0 -16907-4 0  9997
2 63744  51.9004 110.8281 0000863  84.3235 275.7826 14.79924991 71154
KUIPER-00032            
1 63745U 25088X   26227.76117219  .00011770  00000+0  28338-3 0  9993
2 63745  51.8680 332.3104 0003849 332.0045  28.0736 15.41714168 74052
KUIPER-00033            
1 63746U 25088Y   26227.96468412  .00001836  00000+0  26978-3 0  9990
2 63746  51.9010 141.2697 0000834  89.9094 270.1964 14.79927268 71202
KUIPER-00034            
1 63747U 25088Z   26227.87006169 -.00000941  00000+0 -94405-4 0  9997
2 63747  51.9028 104.2229 0000874  96.0929 264.0133 14.79926117 71394
KUIPER-00035            
1 63748U 25088AA  26227.91064523  .00000634  00000+0  11213-3 0  9993
2 63748  51.9003 129.0132 0000844  98.9868 261.1190 14.79933964 71104
KUIPER-00037            
1 63749U 25088AB  26228.10616078  .00000716  00000+0  12298-3 0  9999
2 63749  51.9006 127.0073 0001061  92.4631 267.6453 14.79933864 71932
KUIPER-00038            
1 63750U 25088AC  26227.89304926  .00000792  00000+0  13289-3 0  9997
2 63750  51.9019 114.1194 0001049 107.5821 252.5256 14.79921972 71092
KUIPER-00039            
1 64500U 25134A   26227.79808920  .00001102  00000+0  17357-3 0  9991
2 64500  51.9010 249.5380 0000308  76.5773 283.5224 14.79929968 63638
KUIPER-00040            
1 64501U 25134B   26228.09117391 -.00000369  00000+0 -19470-4 0  9996
2 64501  51.8995 258.3124 0000482  61.0206 299.0805 14.79926148 63530
KUIPER-00041            
1 64502U 25134C   26228.12223866  .00001231  00000+0  19043-3 0  9998
2 64502  51.8990 260.5617 0000400  74.7006 285.4000 14.79928925 63505
KUIPER-00042            
1 64503U 25134D   26228.09385916 -.00000352  00000+0 -17195-4 0  9992
2 64503  51.8971 255.6650 0000489  90.6736 269.4282 14.79923319 63574
KUIPER-00043            
1 64504U 25134E   26227.35912731  .00001172  00000+0  18264-3 0  9998
2 64504  51.9019 251.4208 0000396  41.6396 318.4596 14.79942448 63574
KUIPER-00044            
1 64505U 25134F   26228.08846763 -.00000836  00000+0 -80743-4 0  9991
2 64505  51.8984 260.6940 0000284  51.7208 308.3780 14.79931018 63507
KUIPER-00046            
1 64506U 25134G   26228.12497564  .00001274  00000+0  19603-3 0  9999
2 64506  51.8982 258.0053 0000380  62.1035 297.9966 14.79933627 63544
KUIPER-00047            
1 64507U 25134H   26227.98578407  .00001251  00000+0  19304-3 0  9992
2 64507  51.8985 231.1461 0000465  55.3210 304.7796 14.79927866 63902
KUIPER-00048            
1 64508U 25134J   26227.20918256  .00001082  00000+0  17093-3 0  9993
2 64508  51.8987 234.5940 0000447  57.6856 302.4150 14.79940453 63798
KUIPER-00049            
1 64509U 25134K   26228.03980532  .00001152  00000+0  18013-3 0  9993
2 64509  51.9005 243.3889 0000411  54.9208 305.1792 14.79937065 63745
KUIPER-00050            
1 64510U 25134L   26227.31588291  .00001080  00000+0  17069-3 0  9991
2 64510  51.8994 229.1112 0000553  40.5623 319.5380 14.79933373 63888
KUIPER-00051            
1 64511U 25134M   26228.01586977  .00001240  00000+0  19163-3 0  9994
2 64511  51.8987 242.1912 0000464  66.4282 293.6729 14.79938165 63752
KUIPER-00053            
1 64513U 25134P   26228.06559360  .00001299  00000+0  19147-3 0  9993
2 64513  51.9008 236.8186 0001427  33.3356 326.7697 14.81732234 63830
KUIPER-00054            
1 64514U 25134Q   26227.34153203  .00001127  00000+0  17681-3 0  9991
2 64514  51.8982 236.4848 0000383  34.2642 325.8345 14.79936498 63778
KUIPER-00055            
1 64515U 25134R   26228.03433115  .00001537  00000+0  23058-3 0  9992
2 64515  51.9013 186.0629 0000829  55.3668 304.7372 14.79934976 64540
KUIPER-00056            
1 64516U 25134S   26228.18031589  .00001280  00000+0  19685-3 0  9994
2 64516  51.9014 237.8820 0000459  49.5057 310.5945 14.79934563 63830
KUIPER-00057            
1 64517U 25134T   26227.76702021  .00000660  00000+0  11556-3 0  9994
2 64517  51.8993 247.1322 0000431  56.2160 303.8843 14.79925046 63666
KUIPER-00058            
1 64518U 25134U   26227.73864292  .00000969  00000+0  15614-3 0  9992
2 64518  51.9004 242.2325 0000429  43.5029 316.5967 14.79934083 63737
KUIPER-00059            
1 64519U 25134V   26228.01415851  .00001311  00000+0  20092-3 0  9996
2 64519  51.8992 236.0519 0000449  47.5786 312.5214 14.79926895 63840
KUIPER-00060            
1 64520U 25134W   26228.04796750  .00001232  00000+0  19061-3 0  9997
2 64520  51.9016 235.9743 0000467  58.5776 301.5232 14.79928225 63834
KUIPER-00061            
1 64521U 25134X   26228.07361213  .00001243  00000+0  19210-3 0  9991
2 64521  51.9005 243.3065 0000489  74.8352 285.2664 14.79922235 63739
KUIPER-00062            
1 64522U 25134Y   26228.07090654  .00001257  00000+0  19384-3 0  9997
2 64522  51.8960 245.7794 0000491  48.6444 311.4560 14.79930962 63719
KUIPER-00063            
1 64523U 25134Z   26227.38749426  .00001113  00000+0  17492-3 0  9998
2 64523  51.9022 256.3769 0000325  62.4793 297.6202 14.79943926 63506
KUIPER-00064            
1 64524U 25134AA  26228.06549742  .00001149  00000+0  17967-3 0  9990
2 64524  51.9023 250.8044 0000542  32.6834 327.4162 14.79941587 63642
KUIPER-00065            
1 64525U 25134AB  26228.12766729  .00001144  00000+0  17903-3 0  9999
2 64525  51.9032 255.7025 0000459  82.9373 277.1642 14.79931563 63567
KUIPER-00066            
1 64526U 25134AC  26227.89115632  .00001481  00000+0  22314-3 0  9990
2 64526  51.9017 194.0199 0000747  60.6786 299.4251 14.79945649 64428
KUIPER-00069            
1 64816U 25151A   26228.21958634  .00001496  00000+0  22511-3 0  9990
2 64816  51.9028 295.2086 0000656 110.7982 249.3051 14.79941517 60388
KUIPER-00070            
1 64817U 25151B   26227.68612934  .00001377  00000+0  20960-3 0  9995
2 64817  51.9016 322.4723 0000311  97.3032 262.7966 14.79940915 59968
KUIPER-00071            
1 64818U 25151C   26227.55374124  .00001452  00000+0  21929-3 0  9998
2 64818  51.9029 320.6003 0000279 113.1215 246.9777 14.79950277 58793
KUIPER-00072            
1 64819U 25151D   26228.21684428  .00001507  00000+0  22668-3 0  9996
2 64819  51.8984 297.6018 0000235 101.3102 258.7887 14.79929288 59172
KUIPER-00073            
1 64820U 25151E   26227.52000451  .00001529  00000+0  22951-3 0  9998
2 64820  51.9015 320.7297 0000250 100.8052 259.2938 14.79934434 59972
KUIPER-00075            
1 64822U 25151G   26228.03407598  .00017124  00000+0  45749-3 0  9998
2 64822  51.8664 163.7992 0003546 106.0012 254.1366 15.38187787 61019
KUIPER-00076            
1 64823U 25151H   26228.20610170  .00001691  00000+0  25071-3 0  9998
2 64823  51.9020 307.7189 0000257  81.8708 278.2284 14.79935440 59039
KUIPER-00077            
1 64824U 25151J   26227.45787545  .00001339  00000+0  20462-3 0  9994
2 64824  51.9032 316.0469 0000386 106.5568 253.5437 14.79922399 58853
KUIPER-00078            
1 64825U 25151K   26227.62937748  .00001296  00000+0  19898-3 0  9999
2 64825  51.9018 312.7631 0000337 108.8840 251.2159 14.79923174 58911
KUIPER-00079            
1 64826U 25151L   26228.19797435 -.00000554  00000+0 -43732-4 0  9993
2 64826  51.8990 315.2059 0000254  84.0112 276.0879 14.79936767 60129
KUIPER-00080            
1 64827U 25151M   26228.23177749  .00001692  00000+0  25084-3 0  9990
2 64827  51.9015 315.0688 0000316 107.1829 252.9168 14.79934785 58934
KUIPER-00082            
1 64828U 25151N   26227.73876153  .00001268  00000+0  19520-3 0  9997
2 64828  51.9024 304.8062 0000238  89.4098 270.6891 14.79943225 59031
KUIPER-00083            
1 64829U 25151P   26228.20339288  .00001665  00000+0  24731-3 0  9995
2 64829  51.9024 310.2347 0000253  76.9188 283.1803 14.79938199 60181
KUIPER-00084            
1 64830U 25151Q   26227.51729916  .00000155  00000+0  49351-4 0  9990
2 64830  51.9033 323.2523 0000395  67.4851 292.6154 14.79929361 58757
KUIPER-00085            
1 64831U 25151R   26227.43490058  .00001292  00000+0  19850-3 0  9997
2 64831  51.9044 306.2018 0000393 120.2235 239.8767 14.79934501 58982
KUIPER-00086            
1 64832U 25151S   26227.62671935  .00001154  00000+0  18031-3 0  9991
2 64832  51.9030 315.2949 0000306  80.1323 279.9674 14.79927084 58875
KUIPER-00087            
1 64833U 25151T   26228.18579102  .00001271  00000+0  19567-3 0  9992
2 64833  51.9011 295.2809 0000258  84.1300 275.9692 14.79924148 59192
KUIPER-00089            
1 64834U 25151U   26228.18041363  .00001414  00000+0  21444-3 0  9992
2 64834  51.9008 300.3278 0000265  72.3023 287.7968 14.79928289 59137
KUIPER-00090            
1 64835U 25151V   26228.18851429  .00001379  00000+0  20986-3 0  9995
2 64835  51.8992 292.7927 0000285  86.3545 273.7450 14.79938416 59235
KUIPER-00091            
1 64836U 25151W   26228.18309350 -.00000443  00000+0 -29184-4 0  9990
2 64836  51.8987 297.8337 0000366  63.6096 296.4904 14.79933990 59160
KUIPER-00092            
1 64837U 25151X   26227.49968899  .00001252  00000+0  19321-3 0  9991
2 64837  51.9014 308.3468 0000427  92.3016 267.7996 14.79923745 60177
KUIPER-00093            
1 64838U 25151Y   26227.69960414  .00001308  00000+0  20047-3 0  9998
2 64838  51.9012 309.9349 0000287 107.7208 252.3786 14.79936177 58952
KUIPER-00094            
1 64839U 25151Z   26227.41051007  .00001306  00000+0  20037-3 0  9995
2 64839  51.9035 266.3161 0000331  35.3369 324.7616 14.79924864 59542
KUIPER-00081            
1 65132U 25171A   26228.02481566 -.00000764  00000+0 -71256-4 0  9998
2 65132  51.8992 163.4935 0001134  60.4721 299.6355 14.79928813 56634
KUIPER-00088            
1 65133U 25171B   26228.14099738 -.00000300  00000+0 -10351-4 0  9993
2 65133  51.8997 180.4815 0000842  75.1114 284.9942 14.79929693 56401
KUIPER-00095            
1 65134U 25171C   26228.02748715  .00000904  00000+0  14758-3 0  9999
2 65134  51.8973 161.0240 0001071  57.5494 302.5572 14.79948772 56666
KUIPER-00096            
1 65135U 25171D   26228.04778789 -.00004332  00000+0 -53940-3 0  9993
2 65135  51.8992 173.3874 0000835  97.9230 262.1827 14.79947576 56496
KUIPER-00097            
1 65136U 25171E   26228.11265192  .00001615  00000+0  24085-3 0  9998
2 65136  51.9017 175.7640 0000885  65.3104 294.7951 14.79930008 56454
KUIPER-00098            
1 65137U 25171F   26228.04242950  .00001813  00000+0  26678-3 0  9998
2 65137  51.9004 178.4368 0000888  66.9650 293.1405 14.79930820 55766
KUIPER-00099            
1 65138U 25171G   26228.01942638  .00001638  00000+0  24379-3 0  9997
2 65138  51.9024 168.5480 0000898  79.0223 281.0840 14.79935186 56553
KUIPER-00100            
1 65139U 25171H   26228.05591433  .00001806  00000+0  26583-3 0  9991
2 65139  51.9011 165.8547 0000930  69.1915 290.9146 14.79932431 56591
KUIPER-00102            
1 65140U 25171J   26228.12070596  .00001590  00000+0  23739-3 0  9993
2 65140  51.8986 168.0462 0001057  64.5285 295.5787 14.79951717 56561
KUIPER-00103            
1 65141U 25171K   26228.13562223  .00001509  00000+0  22692-3 0  9995
2 65141  51.8982 185.4805 0000868  63.0348 297.0703 14.79931332 56325
KUIPER-00104            
1 65142U 25171L   26228.14910699  .00001672  00000+0  24826-3 0  9993
2 65142  51.9021 172.9305 0000895  65.7302 294.3754 14.79928637 56506
KUIPER-00105            
1 65143U 25171M   26228.03986889  .00006888  00000+0  93151-3 0  9997
2 65143  51.8989 181.0111 0001029  65.5150 294.5919 14.79938669 56381
KUIPER-00106            
1 65144U 25171N   26228.08796839  .00001666  00000+0  24737-3 0  9990
2 65144  51.9010 159.5624 0001011  68.2621 291.8448 14.79948174 56694
KUIPER-00107            
1 65145U 25171P   26228.19365020 -.00002402  00000+0 -28619-3 0  9991
2 65145  51.9016 162.7718 0000919  91.4881 268.6186 14.79934123 56659
KUIPER-00108            
1 65146U 25171Q   26228.14642720  .00001660  00000+0  24676-3 0  9994
2 65146  51.9016 175.5230 0000846  63.0611 297.0438 14.79933484 56471
KUIPER-00109            
1 65147U 25171R   26228.05052280  .00001746  00000+0  25794-3 0  9998
2 65147  51.9021 170.8894 0000892  66.2656 293.8400 14.79939870 56521
KUIPER-00110            
1 65148U 25171S   26228.07077453 -.00000606  00000+0 -50539-4 0  9992
2 65148  51.9002 183.3516 0001033  53.0151 307.0905 14.79930355 56340
KUIPER-00111            
1 65149U 25171T   26227.62642467  .00001521  00000+0  22843-3 0  9997
2 65149  51.8974 190.1851 0000747  44.0198 316.0824 14.79947515 56210
KUIPER-00112            
1 65150U 25171U   26228.15181816  .00001517  00000+0  22809-3 0  9991
2 65150  51.9008 170.4868 0000919  60.0276 300.0777 14.79915496 56534
KUIPER-00114            
1 65151U 25171V   26227.89388914  .00001581  00000+0  23639-3 0  9993
2 65151  51.8991 191.5922 0000946  54.2246 305.8804 14.79932616 56214
KUIPER-00115            
1 65152U 25171W   26228.03702501  .00001601  00000+0  23891-3 0  9996
2 65152  51.9010 183.4642 0000620  80.3187 279.7845 14.79937887 56343
KUIPER-00116            
1 65153U 25171X   26228.20043471  .00001717  00000+0  25416-3 0  9993
2 65153  51.9008 187.7743 0000818  64.2601 295.8446 14.79944160 56293
KUIPER-00118            
1 65154U 25171Y   26228.06266468  .00000872  00000+0  14336-3 0  9991
2 65154  51.9002 190.8271 0000775  66.6585 293.4459 14.79936513 56244
KUIPER-00119            
1 65155U 25171Z   26228.07621905  .00001718  00000+0  25429-3 0  9999
2 65155  51.9008 178.3733 0000809  58.8062 301.2980 14.79928796 56416
KUIPER-00120            
1 65762U 25217A   26227.77270862 -.00002179  00000+0 -25691-3 0  9997
2 65762  51.8997  69.5857 0000761 106.2827 253.8219 14.79927155 48290
KUIPER-00132            
1 65763U 25217B   26227.48097907  .00007115  00000+0  19259-3 0  9999
2 65763  51.8545 310.1504 0006029 168.1435 191.9695 15.38790902 49924
KUIPER-00133            
1 65764U 25217C   26227.87403787  .00001596  00000+0  23822-3 0  9998
2 65764  51.9041  69.2614 0000640 113.0251 247.0779 14.79942443 48310
KUIPER-00139            
1 65765U 25217D   26228.17925093  .00001787  00000+0  26328-3 0  9998
2 65765  51.8998  35.3533 0000628 123.2280 236.8742 14.79944112 48812
KUIPER-00142            
1 65766U 25217E   26228.19681822  .00001809  00000+0  26615-3 0  9994
2 65766  51.9006  50.2391 0000715 108.8999 251.2040 14.79937145 48602
KUIPER-00145            
1 65767U 25217F   26227.78892512  .00001403  00000+0  21304-3 0  9999
2 65767  51.9014  54.5659 0000723 121.9789 238.1244 14.79939324 48508
KUIPER-00147            
1 65768U 25217G   26227.81998690  .00001666  00000+0  24747-3 0  9993
2 65768  51.8995  56.9058 0000892 125.5382 234.5663 14.79944254 48470
KUIPER-00148            
1 65769U 25217H   26227.77138555  .00001387  00000+0  21090-3 0  9993
2 65769  51.9055  39.6526 0000623 124.0275 236.0747 14.79929410 48718
KUIPER-00150            
1 65770U 25217J   26227.94429437  .00001634  00000+0  24331-3 0  9992
2 65770  51.9015  66.3977 0000820 118.4918 241.6127 14.79938310 48356
KUIPER-00151            
1 65771U 25217K   26227.95236765  .00001601  00000+0  23893-3 0  9990
2 65771  51.9026  58.8597 0000667 114.5016 245.6016 14.79938303 48463
KUIPER-00152            
1 65772U 25217L   26227.79701372  .00001762  00000+0  26006-3 0  9991
2 65772  51.9015  47.0288 0000721 124.7740 235.3291 14.79942961 48610
KUIPER-00153            
1 65773U 25217M   26228.20760000  .00001688  00000+0  25029-3 0  9993
2 65773  51.9034  40.2949 0000631 116.1158 243.9869 14.79938826 48744
KUIPER-00155            
1 65774U 25217N   26227.83207597  .00001876  00000+0  27487-3 0  9998
2 65774  51.9042  14.4190 0000517 116.1556 243.9460 14.79948022 49073
KUIPER-00156            
1 65775U 25217P   26227.76865579  .00001432  00000+0  21680-3 0  9998
2 65775  51.9037  42.2181 0000744  89.1142 270.9906 14.79925006 48676
KUIPER-00165            
1 65778U 25217S   26227.96040486  .00006736  00000+0  91076-3 0  9993
2 65778  51.9014  51.3089 0000779 125.7635 234.3399 14.79978317 48565
KUIPER-00166            
1 65779U 25217T   26227.87265410  .00001709  00000+0  25311-3 0  9994
2 65779  51.9038  39.2522 0000643 126.5025 233.5996 14.79927046 48726
KUIPER-00167            
1 65780U 25217U   26227.94966301 -.00000978  00000+0 -99350-4 0  9995
2 65780  51.8978  61.2524 0000823 113.4833 246.6215 14.79929050 48422
KUIPER-00168            
1 65781U 25217V   26227.96856132  .00001720  00000+0  25460-3 0  9992
2 65781  51.9018  43.7778 0000710 130.1019 230.0006 14.79936374 48671
KUIPER-00169            
1 65782U 25217W   26227.76055514 -.00000209  00000+0  15956-5 0  9999
2 65782  51.9018  49.7117 0001338 109.5043 250.6064 14.79935506 48576
KUIPER-00170            
1 65783U 25217X   26227.95773942  .00001636  00000+0  24349-3 0  9991
2 65783  51.9003  53.7870 0000856 125.8599 234.2443 14.79948234 48530
KUIPER-00172            
1 65785U 25217Z   26227.94285441  .00001434  00000+0  21708-3 0  9996
2 65785  51.9024  36.3839 0000482 173.6518 186.4450 14.79928920 48776
KUIPER-00173            
1 65786U 25217AA  26227.86188058  .00001678  00000+0  24901-3 0  9992
2 65786  51.9014  49.2542 0000764 125.3213 234.7821 14.79938861 48582
KUIPER-00174            
1 65787U 25217AB  26228.20492352  .00002195  00000+0  31679-3 0  9992
2 65787  51.9029  42.7936 0000674 115.7056 244.3976 14.79939564 48705
KUIPER-00176            
1 65788U 25217AC  26227.78372101  .00003225  00000+0  45246-3 0  9994
2 65788  51.9004  59.5804 0000400 144.2056 215.8933 14.79874303 48438
KUIPER-00101            
1 65947U 25228A   26227.86317015  .00001926  00000+0  28157-3 0  9993
2 65947  51.9007  16.6808 0000533 113.3115 246.7903 14.79936144 46807
KUIPER-00113            
1 65948U 25228B   26228.10488716 -.00001607  00000+0 -18190-3 0  9993
2 65948  51.9022  10.6329 0000677 134.4312 225.6706 14.79931156 46905
KUIPER-00117            
1 65949U 25228C   26227.79834589  .00001712  00000+0  25345-3 0  9996
2 65949  51.8997  14.4880 0000554 130.4801 229.6209 14.79934918 46825
KUIPER-00121            
1 65950U 25228D   26227.83746467 -.00007135  00000+0 -90739-3 0  9996
2 65950  51.9010   9.3330 0000700 107.0507 253.0532 14.79954440 46904
KUIPER-00122            
1 65951U 25228E   26227.62413586  .00001480  00000+0  22304-3 0  9995
2 65951  51.9004  20.2482 0000583 111.1679 248.9346 14.79931187 46733
KUIPER-00123            
1 65952U 25228F   26227.72538143  .00001571  00000+0  23502-3 0  9996
2 65952  51.9000  19.8099 0000564 116.5103 243.5918 14.79924728 46748
KUIPER-00124            
1 65953U 25228G   26227.80104711  .00001697  00000+0  25148-3 0  9993
2 65953  51.8999  11.9640 0000381 106.5534 253.5470 14.79934334 46865
KUIPER-00125            
1 65954U 25228H   26228.08733216  .00001642  00000+0  24426-3 0  9991
2 65954  51.9023 355.7479 0000577 127.7367 232.3648 14.79934699 47115
KUIPER-00126            
1 65955U 25228J   26227.82938707  .00001619  00000+0  24129-3 0  9999
2 65955  51.9009  16.8703 0000562 129.1332 230.9681 14.79937855 46798
KUIPER-00127            
1 65956U 25228K   26227.61799346  .00001524  00000+0  22882-3 0  9990
2 65956  51.9028  10.2820 0000525 121.9339 238.1675 14.79931196 46878
KUIPER-00128            
1 65957U 25228L   26228.00629889  .00001759  00000+0  25959-3 0  9997
2 65957  51.9029   8.6306 0000606 121.3936 238.7086 14.79940320 46924
KUIPER-00129            
1 65958U 25228M   26228.11298759  .00001522  00000+0  22871-3 0  9996
2 65958  51.9033   3.1391 0000465 113.8482 246.2529 14.79923448 47018
KUIPER-00130            
1 65959U 25228N   26228.07651282  .00001133  00000+0  17752-3 0  9996
2 65959  51.9030   5.8390 0000423 141.1073 218.9920 14.79944153 37261
KUIPER-00134            
1 65960U 25228P   26227.32971910  .00014067  00000+0  38755-3 0  9994
2 65960  51.8701 269.6263 0004849 143.9459 216.1856 15.37394003 48246
KUIPER-00135            
1 65961U 25228Q   26227.84020780  .00001873  00000+0  27469-3 0  9993
2 65961  51.9039   6.9367 0000549 130.1334 229.9677 14.79933012 46933
KUIPER-00136            
1 65962U 25228R   26228.07922076  .00001726  00000+0  25520-3 0  9992
2 65962  51.9025   3.3312 0000417 131.0187 229.0812 14.79948297 47002
KUIPER-00137            
1 65963U 25228S   26228.08192120 -.00001559  00000+0 -17550-3 0  9993
2 65963  51.9075   0.8228 0000819 162.1870 197.9121 14.79931134 47048
KUIPER-00138            
1 65964U 25228T   26228.05089280  .00001938  00000+0  28302-3 0  9999
2 65964  51.9006 358.3719 0000322  83.4119 276.6880 14.79953644 47079
KUIPER-00140            
1 65965U 25228U   26227.77802425  .00001677  00000+0  24891-3 0  9991
2 65965  51.9012   2.1708 0000472 129.7786 230.3218 14.79946045 46998
KUIPER-00141            
1 65966U 25228V   26228.05357079  .00001811  00000+0  26639-3 0  9996
2 65966  51.9044 356.0183 0000621 116.8658 243.2368 14.79942277 47109
KUIPER-00146            
1 65967U 25228W   26227.81453882  .00001809  00000+0  26626-3 0  9992
2 65967  51.9050 359.5865 0000481 126.5624 233.5382 14.79934447 47037
KUIPER-00149            
1 65968U 25228X   26228.05624413 -.00000979  00000+0 -99493-4 0  9992
2 65968  51.9026 353.3969 0000320 137.8669 222.2318 14.79931955 47141
KUIPER-00154            
1 65969U 25228Y   26227.61998650  .00001097  00000+0  17286-3 0  9990
2 65969  51.9020 352.8136 0000406 110.6917 249.4089 14.79938391 47110
KUIPER-00157            
1 65970U 25228Z   26227.78385025  .00001151  00000+0  17474-3 0  9996
2 65970  51.9043 354.3639 0001213 127.1348 232.9726 14.81244371 47105
KUIPER-00144            
1 67133U 25301A   26227.87133685  .00001594  00000+0  23800-3 0  9995
2 67133  51.9013  71.7201 0000866  99.9076 260.1984 14.79937026 37445
KUIPER-00164            
1 67134U 25301B   26227.99293130  .00001637  00000+0  24369-3 0  9990
2 67134  51.9036  83.6951 0000816 116.4436 243.6611 14.79939424 37464
KUIPER-00175            
1 67135U 25301C   26227.77544603  .00001503  00000+0  22609-3 0  9998
2 67135  51.9015  67.1008 0000804 117.3057 242.7987 14.79942535 37573
KUIPER-00179            
1 67136U 25301D   26227.79303841  .00001560  00000+0  23364-3 0  9990
2 67136  51.8989  82.0273 0000823 113.0634 247.0415 14.79935293 37474
KUIPER-00181            
1 67137U 25301E   26228.04967208 -.00002387  00000+0 -28416-3 0  9996
2 67137  51.9029  93.4440 0000816 110.4740 249.6310 14.79939159 37314
KUIPER-00183            
1 67138U 25301F   26228.16670139 -.00069077  00000+0 -89686-2 0  9998
2 67138  51.9010  62.9378 0001237 221.0580  48.0670 14.80657694  4974
KUIPER-00184            
1 67139U 25301G   26227.83219211 -.00000832  00000+0 -80139-4 0  9992
2 67139  51.8997  76.8602 0000958 109.0695 251.0371 14.79930155 37641
KUIPER-00186            
1 67140U 25301H   26228.01590780 -.00000595  00000+0 -49086-4 0  9990
2 67140  51.9049  93.6034 0001168 119.0790 241.0289 14.79933610 37151
KUIPER-00187            
1 67141U 25301J   26228.08074109  .00001708  00000+0  25286-3 0  9990
2 67141  51.9031  95.8420 0000909 109.1449 250.9612 14.79951304 37125
KUIPER-00188            
1 67142U 25301K   26227.94699325 -.00000678  00000+0 -59918-4 0  9995
2 67142  51.9010  64.0177 0000854 120.9981 239.1065 14.79928980 37553
KUIPER-00191            
1 67143U 25301L   26227.98753861  .00001787  00000+0  26332-3 0  9999
2 67143  51.9013  88.7346 0000866 113.4714 246.6339 14.79948379 37249
KUIPER-00196            
1 67144U 25301M   26228.20749858  .00001411  00000+0  23172-3 0  9990
2 67144  51.8992  44.9286 0002164  92.4707 267.6502 14.76415548 37848
KUIPER-00204            
1 67145U 25301N   26227.98344109  .00001695  00000+0  25134-3 0  9999
2 67145  51.9021  61.2394 0000863 120.2327 239.8721 14.79935302 37715
KUIPER-00210            
1 67146U 25301P   26227.88625161  .00001568  00000+0  23472-3 0  9991
2 67146  51.9002  89.1317 0000937 112.5829 247.5233 14.79927410 37379
KUIPER-00221            
1 67147U 25301Q   26228.04697231  .00001716  00000+0  25399-3 0  9993
2 67147  51.9021  95.9519 0000702 114.6291 245.4744 14.79936774 37126
KUIPER-00232            
1 67148U 25301R   26228.02941117  .00001719  00000+0  25436-3 0  9992
2 67148  51.9002  81.0463 0000852 112.6693 247.4359 14.79943738 37324
KUIPER-00241            
1 67149U 25301S   26228.05238894  .00001681  00000+0  24943-3 0  9997
2 67149  51.9036  90.9561 0000867 110.0510 250.0546 14.79927808 37526
KUIPER-00245            
1 67150U 25301T   26228.04428773  .00001764  00000+0  26027-3 0  9992
2 67150  51.9031  98.5020 0000702  97.1603 262.9439 14.79947981 37081
KUIPER-00246            
1 67151U 25301U   26227.95915562 -.00000431  00000+0 -27557-4 0  9991
2 67151  51.9007  83.8226 0000808 101.4705 258.6348 14.79932850 37304
KUIPER-00247            
1 67152U 25301V   26227.96994814 -.00001781  00000+0 -20470-3 0  9995
2 67152  51.8973  73.7334 0001032  98.7980 261.3099 14.79926394 37420
KUIPER-00248            
1 67153U 25301W   26227.92133653  .00001578  00000+0  23586-3 0  9991
2 67153  51.8994  56.5853 0000787 124.0601 236.0436 14.79938278 37820
KUIPER-00249            
1 67154U 25301X   26227.77005528  .00001534  00000+0  23004-3 0  9991
2 67154  51.9004  72.1851 0000809 115.7377 244.3668 14.79948812 37428
KUIPER-00250            
1 67155U 25301Y   26227.99031691  .00001662  00000+0  24687-3 0  9996
2 67155  51.8999  86.1652 0001079 100.0032 260.1052 14.79949765 37285
KUIPER-00251            
1 67156U 25301Z   26227.93617539  .00001683  00000+0  24967-3 0  9996
2 67156  51.9012  73.9760 0001043 115.7550 244.3520 14.79952204 37608
KUIPER-00252            
1 67157U 25301AA  26227.79843407  .00001586  00000+0  23697-3 0  9997
2 67157  51.9007  77.0361 0000801 114.4810 245.6236 14.79941634 37367
KUIPER-00261            
1 67158U 25301AB  26228.02402206  .00001717  00000+0  25416-3 0  9990
2 67158  51.9026  86.0983 0000822 108.8817 251.2234 14.79924947 37253
KUIPER-00265            
1 67159U 25301AC  26228.04159297  .00001731  00000+0  25592-3 0  9993
2 67159  51.9026 100.9961 0000837 111.4935 248.6116 14.79946269 37084
KUIPER-00159            
1 67764U 26030A   26228.03323669  .00001103  00000+0  18710-3 0  9997
2 67764  51.9013 178.9124 0000706 158.6458 201.4532 14.76591701 29462
KUIPER-00160            
1 67765U 26030B   26228.02586772  .00014392  00000+0  39190-3 0  9992
2 67765  51.8804 168.8540 0004694 247.5992 112.4498 15.37735657 29607
KUIPER-00177            
1 67766U 26030C   26227.71836427  .00000975  00000+0  15681-3 0  9994
2 67766  51.9002 229.9017 0000452  40.8753 319.2243 14.79935168 28725
KUIPER-00178            
1 67767U 26030D   26228.02225316  .00001251  00000+0  19313-3 0  9993
2 67767  51.8999 228.5392 0000516  71.7100 288.3918 14.79921580 28774
KUIPER-00180            
1 67768U 26030E   26228.02766458  .00001306  00000+0  20021-3 0  9990
2 67768  51.8979 223.5140 0000522  41.1213 318.9789 14.79936076 28842
KUIPER-00197            
1 67769U 26030F   26228.18427366  .00002374  00000+0  34017-3 0  9996
2 67769  51.8972 202.8356 0000835  20.0639 340.0356 14.79946297 29146
KUIPER-00198            
1 67770U 26030G   26228.00198477  .00001355  00000+0  20681-3 0  9997
2 67770  51.8973 216.1191 0000575  62.2670 297.8350 14.79918727 28945
KUIPER-00199            
1 67771U 26030H   26228.06158293  .00017544  00000+0  48329-3 0  9992
2 67771  51.8800 170.5543 0008737 265.4194  94.5795 15.37192170 29582
KUIPER-00200            
1 67772U 26030J   26228.08567542  .00001602  00000+0  23899-3 0  9999
2 67772  51.8981 200.7928 0000836  63.3908 296.7140 14.79942631 29160
KUIPER-00203            
1 67773U 26030K   26228.05062866  .00001257  00000+0  19389-3 0  9991
2 67773  51.9056 233.4948 0000457  54.6921 305.4084 14.79926176 28707
KUIPER-00205            
1 67774U 26030L   26228.22341331  .00001545  00000+0  23161-3 0  9991
2 67774  51.9006 197.6429 0000651  34.1804 325.9200 14.79943054 29226
KUIPER-00208            
1 67775U 26030M   26228.02497237  .00001333  00000+0  20383-3 0  9995
2 67775  51.8975 226.0240 0001094  17.7419 342.3581 14.79934513 28808
KUIPER-00209            
1 67776U 26030N   26228.19646705  .00001164  00000+0  18172-3 0  9995
2 67776  51.8991 222.8613 0000393  65.4183 294.6820 14.79926028 28867
KUIPER-00213            
1 67777U 26030P   26227.49016063 -.00003146  00000+0 -38373-3 0  9995
2 67777  51.8954 223.4543 0000766  70.4551 289.6494 14.79951717 28791
KUIPER-00214            
1 67778U 26030Q   26227.99927389  .00003264  00000+0  45687-3 0  9998
2 67778  51.9004 218.7263 0000379  22.8583 337.2396 14.79935940 28905
KUIPER-00215            
1 67779U 26030R   26227.64132253 -.00000262  00000+0 -53033-5 0  9992
2 67779  51.8983 207.6671 0000827  37.7883 322.3137 14.79929761 29034
KUIPER-00218            
1 67780U 26030S   26227.99657110  .00001344  00000+0  20532-3 0  9992
2 67780  51.8972 221.1380 0000751  54.5396 305.5636 14.79926013 28879
KUIPER-00220            
1 67781U 26030T   26227.88847657  .00002247  00000+0  32366-3 0  9999
2 67781  51.8908 196.6492 0001240  77.5679 282.5422 14.79936335 29205
KUIPER-00222            
1 67782U 26030U   26227.29294673  .00001048  00000+0  16642-3 0  9996
2 67782  51.8979 219.4077 0000403  74.3787 285.7220 14.79934172 28838
KUIPER-00223            
1 67783U 26030V   26227.67243020  .00001226  00000+0  18976-3 0  9999
2 67783  51.9008 210.0314 0000647  44.5841 315.5173 14.79935278 29001
KUIPER-00225            
1 67784U 26030W   26227.66704460  .00001143  00000+0  17896-3 0  9997
2 67784  51.8979 215.2109 0000650  42.9177 317.1836 14.79936470 28924
KUIPER-00226            
1 67785U 26030X   26227.65554742  .00000949  00000+0  16593-3 0  9999
2 67785  51.8996 202.0349 0002846 271.0370  89.0265 14.76390849 29117
KUIPER-00259            
1 67786U 26030Y   26227.22806097  .00001155  00000+0  18043-3 0  9998
2 67786  51.8978 217.0531 0000609  42.7380 317.3630 14.79944149 28861
KUIPER-00260            
1 67787U 26030Z   26227.97362737  .00001404  00000+0  21310-3 0  9997
2 67787  51.9004 211.3604 0000674  40.8462 319.2551 14.79936180 28918
KUIPER-00262            
1 67788U 26030AA  26227.66972746  .00001153  00000+0  18027-3 0  9993
2 67788  51.9000 212.6216 0000962  14.7273 345.3717 14.79923379 28963
KUIPER-00266            
1 67789U 26030AB  26227.97631392  .00001584  00000+0  23682-3 0  9998
2 67789  51.8998 208.7592 0000838 339.8875  20.2054 14.79918382 29044
KUIPER-00268            
1 67790U 26030AC  26228.21538958  .00001169  00000+0  18239-3 0  9993
2 67790  51.9043 205.2317 0000613  39.9130 320.1877 14.79931190 29113
KUIPER-00270            
1 67791U 26030AD  26227.65214540  .00001350  00000+0  20616-3 0  9993
2 67791  51.8976 197.6883 0000571  83.4942 276.6085 14.79922990 29178
KUIPER-00274            
1 67792U 26030AE  26227.69536491  .00000270  00000+0  64382-4 0  9999
2 67792  51.9016 220.0027 0000784  19.6170 340.4823 14.79932293 28868
KUIPER-00275            
1 67793U 26030AF  26228.18967337  .00001555  00000+0  23287-3 0  9997
2 67793  51.8989 197.8187 0000809  40.7410 319.3613 14.79938878 29212
KUIPER-00276            
1 67794U 26030AG  26228.08296729  .00001420  00000+0  21512-3 0  9997
2 67794  51.8977 203.2702 0000993 298.0518  62.0344 14.79946128 29137
KUIPER-00279            
1 67795U 26030AH  26228.19507529  .00001596  00000+0  23831-3 0  9993
2 67795  51.9016 192.8130 0001129  12.5434 347.5556 14.79939664 29288
KUIPER-00131            
1 68573U 26072A   26228.19122395  .00001443  00000+0  21826-3 0  9991
2 68573  51.9014 290.3143 0000372  90.8062 269.2943 14.79935856 20004
KUIPER-00189            
1 68574U 26072B   26228.15471654  .00000026  00000+0  32417-4 0  9998
2 68574  51.8986 292.9560 0000252 105.8318 254.2672 14.79935613 19968
KUIPER-00192            
1 68575U 26072C   26227.45103758 -.00000240  00000+0 -25140-5 0  9994
2 68575  51.9007 291.0828 0000518  64.7215 295.3801 14.79920229 19939
KUIPER-00193            
1 68576U 26072D   26228.13712961  .00001243  00000+0  19204-3 0  9997
2 68576  51.9055 278.0811 0001058  52.6633 307.4425 14.79938607 20174
KUIPER-00194            
1 68577U 26072E   26227.69009585  .00000397  00000+0  81041-4 0  9997
2 68577  51.9027 287.5473 0000737   6.0115 354.0856 14.79928603 20007
KUIPER-00229            
1 68578U 26072F   26227.48209016  .00001141  00000+0  17879-3 0  9991
2 68578  51.9021 293.4493 0000268  74.8870 285.2122 14.79902666 19909
KUIPER-00230            
1 68579U 26072G   26228.08494031  .00011459  00000+0  30778-3 0  9998
2 68579  51.8741 246.6684 0000697 290.0936  69.9976 15.38390821 20604
KUIPER-00231            
1 68580U 26072H   26228.11967796  .00005161  00000+0  70448-3 0  9998
2 68580  51.8982 263.2137 0001856  33.1208 326.9871 14.79992651 20374
KUIPER-00234            
1 68581U 26072J   26228.19660234  .00001396  00000+0  21210-3 0  9993
2 68581  51.9003 285.2775 0000397  19.3268 340.7710 14.79924773 20076
KUIPER-00236            
1 68582U 26072K   26228.16670139 -.01257109  00000+0 -38050-1 0  9992
2 68582  51.8764 246.5630 0001344 222.5387  95.2549 15.36820307  5632
KUIPER-00244            
1 68583U 26072L   26228.10609137  .00001223  00000+0  18936-3 0  9991
2 68583  51.8998 275.7002 0000240 271.3458  88.7477 14.79930979 20204
KUIPER-00253            
1 68584U 26072M   26228.17090639  .00001341  00000+0  20495-3 0  9994
2 68584  51.9039 277.9289 0000397  82.9900 277.1107 14.79925843 20178
KUIPER-00254            
1 68585U 26072N   26228.13444289  .00001364  00000+0  20781-3 0  9998
2 68585  51.9035 280.5884 0000543 250.6121 109.4783 14.79941641 20135
KUIPER-00263            
1 68586U 26072P   26227.40783487  .00001143  00000+0  17892-3 0  9998
2 68586  51.9016 268.8732 0000330  68.8163 291.2834 14.79929758 20238
KUIPER-00269            
1 68587U 26072Q   26228.14790377  .00001330  00000+0  20341-3 0  9998
2 68587  51.8998 268.0119 0000370  32.8785 327.2200 14.79934916 20311
KUIPER-00272            
1 68588U 26072R   26228.16014368  .00001336  00000+0  20424-3 0  9998
2 68588  51.8989 287.9319 0000201  63.9485 296.1498 14.79932744 20038
KUIPER-00285            
1 68589U 26072S   26227.64145494 -.00001118  00000+0 -11762-3 0  9991
2 68589  51.9056 270.3210 0000658 269.0282  91.0605 14.79931018 20238
KUIPER-00286            
1 68590U 26072T   26228.11685543  .00001227  00000+0  19003-3 0  9995
2 68590  51.9022 265.6568 0000477  60.0721 300.0288 14.79920155 20344
KUIPER-00289            
1 68591U 26072U   26228.10876566  .00001211  00000+0  18782-3 0  9998
2 68591  51.8988 273.1777 0000283  52.8998 307.1990 14.79934430 20238
KUIPER-00290            
1 68592U 26072V   26228.20774263  .00000896  00000+0  15817-3 0  9995
2 68592  51.9025 272.0189 0000467 271.3067  88.7840 14.76444103 20265
KUIPER-00293            
1 68593U 26072W   26228.16550172 -.00000309  00000+0 -11503-4 0  9992
2 68593  51.8974 282.9086 0001351 251.4391 108.6425 14.79935685 20103
KUIPER-00294            
1 68594U 26072X   26228.11144697  .00001211  00000+0  18773-3 0  9995
2 68594  51.8994 270.6652 0000383  96.2781 263.8225 14.79938716 20279
KUIPER-00296            
1 68595U 26072Y   26228.16670139 -.00074167  00000+0 -94613-2 0  9994
2 68595  51.9000 252.9439 0002107 139.7356 229.2262 14.81431923  5745
KUIPER-00297            
1 68596U 26072Z   26227.45645821  .00001118  00000+0  17568-3 0  9995
2 68596  51.9007 286.0388 0001350  39.3574 320.7487 14.79938118 20007
KUIPER-00300            
1 68597U 26072AA  26228.16670139  .00009225  00000+0  12395-2 0  9994
2 68597  51.9019 280.4243 0001233 115.0175 236.6713 14.79860717  5265
KUIPER-00301            
1 68598U 26072AB  26228.16670139 -.00052241  00000+0 -49597-2 0  9997
2 68598  51.8949 249.8206 0003805 201.3641 141.7896 14.93217283  5357
KUIPER-00304            
1 68599U 26072AC  26228.16670139 -.00070786  00000+0 -85664-2 0  9997
2 68599  51.8989 251.2150 0008063 244.3379 203.7147 14.83563065  5903
KUIPER-00317            
1 68600U 26072AD  26228.14523498  .00001270  00000+0  19549-3 0  9993
2 68600  51.8986 270.5243 0000268  66.2987 293.8003 14.79941315 20276
KUIPER-00320            
1 68601U 26072AE  26228.13987314  .00001255  00000+0  19365-3 0  9993
2 68601  51.9031 275.5525 0000308  87.5664 272.5333 14.79933899 20201
KUIPER-00299            
1 68864U 26095A   26227.62978637  .00000827  00000+0  14839-3 0  9995
2 68864  51.9016 347.1271 0002070  24.6726 335.4334 14.76457412 16426
KUIPER-00353            
1 68865U 26095B   26227.81040266  .00001746  00000+0  25796-3 0  9990
2 68865  51.9022 332.0042 0000202 180.3632 179.7330 14.79936558 16650
KUIPER-00357            
1 68866U 26095C   26227.70100575  .00001348  00000+0  20572-3 0  9994
2 68866  51.9041 339.9943 0000295 166.5660 193.5310 14.79943458 16533
KUIPER-00364            
1 68867U 26095D   26227.73210019  .00001462  00000+0  22073-3 0  9998
2 68867  51.9062 342.3719 0000401 238.8892 121.2031 14.79934342 16502
KUIPER-00375            
1 68868U 26095E   26228.00004630 -.00028213  00000+0 -36864-2 0  9997
2 68868  51.9020 333.6703 0000881  87.6878  37.9238 14.79943019  5500
KUIPER-00433            
1 68869U 26095F   26228.02789079  .00001727  00000+0  25556-3 0  9993
2 68869  51.9025 348.5421 0000451 139.2762 220.8234 14.79923907 16445
KUIPER-00437            
1 68870U 26095G   26227.54454852  .00010731  00000+0  29703-3 0  9992
2 68870  51.8795 315.1659 0006315 155.1001 205.0291 15.37517397 16862
KUIPER-00448            
1 68871U 26095H   26228.04892525  .00000988  00000+0  17185-3 0  9996
2 68871  51.9055 337.5082 0001778 303.4601  56.6189 14.76289059 16592
KUIPER-00459            
1 68872U 26095J   26228.00004630 -.00021219  00000+0 -27607-2 0  9996
2 68872  51.9027 326.2291 0000923  77.2695   5.3270 14.79968490  5731
KUIPER-00468            
1 68873U 26095K   26227.70376900  .00000681  00000+0  12725-3 0  9999
2 68873  51.9000 324.2663 0002084 105.5326 254.5866 14.76581628 16754
KUIPER-00476            
1 68874U 26095L   26227.71636840 -.00028988  00000+0 -98611-3 0  9993
2 68874  51.8750 316.9431 0009460 143.0824 217.0812 15.29599774 16858
KUIPER-00478            
1 68875U 26095M   26227.71177262  .00000700  00000+0  12081-3 0  9999
2 68875  51.9016 329.9475 0000551 350.9763   9.1190 14.79929911 16673
KUIPER-00480            
1 68876U 26095N   26227.00240347  .00012530  00000+0  18027-2 0  9996
2 68876  51.9049 330.5544 0002614 268.4345  91.6316 14.76664799 16602
KUIPER-00482            
1 68877U 26095P   26227.60242243  .00001626  00000+0  24231-3 0  9999
2 68877  51.9027 337.9260 0001010 209.0603 151.0303 14.79922598 16550
KUIPER-00483            
1 68878U 26095Q   26228.06165140  .00001799  00000+0  26490-3 0  9991
2 68878  51.9017 348.3651 0002210 184.8555 175.2386 14.79943075 16449
KUIPER-00488            
1 68879U 26095R   26227.70908768  .00001302  00000+0  19965-3 0  9992
2 68879  51.9016 332.4653 0000217 123.6202 236.4782 14.79941008 16635
KUIPER-00489            
1 68880U 26095S   26228.16670139  .00080975  00000+0  10553-1 0  9998
2 68880  51.8957 322.9330 0000781  46.3799 190.2106 14.79813583  5837
KUIPER-00499            
1 68881U 26095T   26227.54299013  .00001356  00000+0  20681-3 0  9999
2 68881  51.9015 330.7419 0000359 202.8372 157.2574 14.79933341 16644
KUIPER-00500            
1 68882U 26095U   26227.72669287  .00001459  00000+0  22027-3 0  9994
2 68882  51.9031 347.3755 0000364 131.0784 229.0210 14.79936491 16437
KUIPER-00502            
1 68883U 26095V   26227.46642240  .00000716  00000+0  13222-3 0  9998
2 68883  51.9025 324.7057 0002778  94.1862 265.9416 14.76574981 16720
KUIPER-00503            
1 68884U 26095W   26228.03327514  .00001768  00000+0  26073-3 0  9993
2 68884  51.9000 343.5022 0000483 122.4120 237.6889 14.79946246 16515
KUIPER-00504            
1 68885U 26095X   26228.05895593  .00001770  00000+0  26113-3 0  9991
2 68885  51.9034 350.9091 0000372 130.6368 229.4626 14.79934128 16416
KUIPER-00505            
1 68886U 26095Y   26227.76586860  .00001776  00000+0  26182-3 0  9995
2 68886  51.9032 342.2074 0000376 165.5760 194.5213 14.79942407 16500
KUIPER-00507            
1 68887U 26095Z   26227.69235514  .00001399  00000+0  21243-3 0  9999
2 68887  51.9022 332.5223 0000730  82.9942 277.1104 14.79943724 16630
KUIPER-00511            
1 68888U 26095AA  26228.22365036  .00001810  00000+0  26650-3 0  9998
2 68888  51.9012 322.7887 0000621 212.3386 147.7539 14.79919745 16817
KUIPER-00512            
1 68889U 26095AB  26227.72937952  .00000525  00000+0  97908-4 0  9992
2 68889  51.9041 344.8697 0000360 109.7474 250.3527 14.79927362 16464
KUIPER-00519            
1 68890U 26095AC  26227.67264840 -.00001081  00000+0 -11274-3 0  9998
2 68890  51.9049 335.1822 0001882 111.9478 248.1685 14.79932097 16591
KUIPER-00521            
1 68891U 26095AD  26227.67093982  .00001292  00000+0  19833-3 0  9997
2 68891  51.9047 328.8835 0000562 124.4005 235.7011 14.79950066 16683
KUIPER-00524            
1 68892U 26095AE  26227.73049588  .00000758  00000+0  13852-3 0  9999
2 68892  51.9002 336.9305 0001797 201.6835 158.4050 14.76466772 16572
KUIPER-00370            
1 68919U 26098A   26228.20443953  .00001822  00000+0  26809-3 0  9998
2 68919  51.8990 152.6315 0000748  95.0828 265.0219 14.79913684 16375
KUIPER-00380            
1 68920U 26098B   26228.16670139 -.00011576  00000+0 -13986-2 0  9993
2 68920  51.8976 145.3992 0004418  25.1491 113.5419 14.82604264  5067
KUIPER-00386            
1 68921U 26098C   26228.16670139  .00026743  00000+0  35206-2 0  9993
2 68921  51.8980 147.9324 0001237 112.9678 287.3140 14.79962152  5316
KUIPER-00388            
1 68922U 26098D   26228.19908582  .00001835  00000+0  26964-3 0  9990
2 68922  51.9004 157.9431 0000668  89.0507 271.0531 14.79933212 16295
KUIPER-00405            
1 68923U 26098E   26228.01621301  .00001753  00000+0  25893-3 0  9992
2 68923  51.9019 156.1056 0001893 106.4403 253.6767 14.79934833 16305
KUIPER-00408            
1 68924U 26098F   26228.16670139 -.00010275  00000+0 -12032-2 0  9993
2 68924  51.8983 147.9113 0014128 351.2049 111.3342 14.83695810  4667
KUIPER-00409            
1 68925U 26098G   26227.98497159 -.00009047  00000+0 -11581-2 0  9995
2 68925  51.9021 153.7399 0001625 123.0352 237.0766 14.79971671 16333
KUIPER-00410            
1 68926U 26098H   26227.98766425  .00001810  00000+0  26666-3 0  9990
2 68926  51.8970 151.2181 0001856  51.7256 308.3873 14.79900229 16370
KUIPER-00412            
1 68927U 26098J   26228.16670139  .00000970  00000+0  15615-3 0  9996
2 68927  51.9020 142.9445 0001897   9.4505 271.7840 14.79946801  5269
KUIPER-00413            
1 68928U 26098K   26228.06667816 -.00000575  00000+0 -46412-4 0  9997
2 68928  51.8976 155.8658 0001650  77.7896 282.3251 14.79932096 16319
KUIPER-00414            
1 68929U 26098L   26228.02218272  .00001793  00000+0  26419-3 0  9997
2 68929  51.8968 166.1567 0002249  36.3974 323.7140 14.79931391 16165
KUIPER-00415            
1 68930U 26098M   26228.17625169  .00004764  00000+0  65479-3 0  9992
2 68930  51.9001 147.8964 0001058  64.9045 295.2027 14.79846430 16432
KUIPER-00416            
1 68931U 26098N   26228.16670139  .00011112  00000+0  10275-2 0  9997
2 68931  51.8954 139.8495 0002570  55.4921 257.5080 14.94973804  5887
KUIPER-00420            
1 68932U 26098P   26228.16670139 -.00040865  00000+0 -37011-2 0  9994
2 68932  51.8915 140.7429 0002838   7.8774  58.2130 14.94952956  4962
KUIPER-00421            
1 68933U 26098Q   26228.16670139 -.00002466  00000+0 -26201-3 0  9990
2 68933  51.8988 145.4575 0011512 337.9998 277.6094 14.84520409  5792
KUIPER-00425            
1 68934U 26098R   26228.17069148  .00001957  00000+0  28539-3 0  9992
2 68934  51.8987 152.9176 0000907 137.1445 222.9588 14.79973457 16360
KUIPER-00430            
1 68935U 26098S   26228.16794737  .00002001  00000+0  29148-3 0  9999
2 68935  51.9035 155.3154 0001708  63.8767 296.2371 14.79926938 16334
KUIPER-00431            
1 68936U 26098T   26228.09775051  .00001779  00000+0  26234-3 0  9994
2 68936  51.8992 158.2281 0001068  75.2397 284.8684 14.79932561 16287
KUIPER-00432            
1 68937U 26098U   26228.17341984  .00001817  00000+0  26709-3 0  9998
2 68937  51.8996 150.2905 0000984 104.3049 255.8023 14.79961017 16408
KUIPER-00434            
1 68938U 26098V   26228.07530858  .00001510  00000+0  24461-3 0  9991
2 68938  51.9003 153.9580 0001625  42.4581 317.6506 14.76620571 16344
KUIPER-00436            
1 68939U 26098W   26228.01875736  .00001797  00000+0  26472-3 0  9994
2 68939  51.8997 153.5892 0000881  98.3179 261.7883 14.79933776 16348
KUIPER-00438            
1 68940U 26098X   26228.02145984  .00001821  00000+0  26769-3 0  9999
2 68940  51.9031 151.0907 0000287  90.6018 269.4977 14.79948618 16370
KUIPER-00439            
1 68941U 26098Y   26228.00459003  .00012779  00000+0  17009-2 0  9998
2 68941  51.9037 151.1545 0000521 139.5542 220.5459 14.79962514 16376
KUIPER-00440            
1 68942U 26098Z   26228.16670139  .00004293  00000+0  43749-3 0  9994
2 68942  51.8959 143.2522 0004205   1.2228 204.2349 14.92511544  5851
KUIPER-00442            
1 68943U 26098AA  26228.16670139  .00029274  00000+0  41789-2 0  9992
2 68943  51.9014 144.7836 0001666  44.2509 332.8791 14.76476333  5651
KUIPER-00446            
1 68944U 26098AB  26226.23459685  .00002163  00000+0  31414-3 0  9993
2 68944  51.8963 156.4916 0003385 150.2304 209.8852 14.79730366 16143
KUIPER-00451            
1 68945U 26098AC  26228.18217174 -.00001848  00000+0 -21344-3 0  9997
2 68945  51.8993 157.8611 0000996  70.2468 289.8601 14.79934927 16296
KUIPER-00452            
1 68946U 26098AD  26228.16670139  .00029247  00000+0  38477-2 0  9995
2 68946  51.9009 145.4399 0001041 344.3245 221.6956 14.79944650  5460
KUIPER-00453            
1 68947U 26098AE  26228.16670139 -.00007147  00000+0 -84935-3 0  9994
2 68947  51.8965 142.9035 0001443 328.0610 116.9793 14.82751248  4918
KUIPER-00454            
1 68948U 26098AF  26228.20005537  .00001606  00000+0  25900-3 0  9993
2 68948  51.8999 159.6140 0002301 247.9671 112.1046 14.76489741 16278
KUIPER-00455            
1 68949U 26098AG  26228.08090235  .00001814  00000+0  26685-3 0  9991
2 68949  51.8999 158.3114 0002613  33.0288 327.0837 14.79941467 16287
KUIPER-00458            
1 68950U 26098AH  26228.16670139 -.00019275  00000+0 -24423-2 0  9998
2 68950  51.9014 142.8997 0002939  67.0920 152.5341 14.81012457  3767
KUIPER-00282            
1 69267U 26118A   26228.13890477  .00001913  00000+0  27993-3 0  9993
2 69267  51.8970 135.5456 0001565  89.8882 270.2260 14.79929668 13038
KUIPER-00383            
1 69268U 26118B   26228.15842063  .00013275  00000+0  17730-2 0  9995
2 69268  51.8978 132.9750 0000963 160.6555 199.4444 14.79787663 13078
KUIPER-00527            
1 69269U 26118C   26227.98964767  .00001702  00000+0  25233-3 0  9992
2 69269  51.8978 133.8535 0000102  36.9127 323.1842 14.79918906 13046
KUIPER-00562            
1 69270U 26118D   26228.16670139  .00021152  00000+0  18084-2 0  9998
2 69270  51.8899 126.0062 0002532 349.3101  16.1154 14.97570724  5409
KUIPER-00570            
1 69271U 26118E   26228.11933480  .00001996  00000+0  29054-3 0  9999
2 69271  51.9002 138.2457 0000724  46.5326 313.5697 14.79965429 12983
KUIPER-00572            
1 69272U 26118F   26228.15979625  .00001068  00000+0  18221-3 0  9999
2 69272  51.9005 132.7964 0001249  39.0905 321.0146 14.76562602 13079
KUIPER-00581            
1 69273U 26118G   26227.96738634  .00001734  00000+0  25636-3 0  9999
2 69273  51.9012 138.8118 0002942  78.1795 281.9498 14.79944533 13061
KUIPER-00584            
1 69274U 26118H   26228.15041211  .00001947  00000+0  28427-3 0  9997
2 69274  51.9004 140.6176 0001222  96.3836 263.7265 14.79950967 12962
KUIPER-00587            
1 69275U 26118J   26228.16670139  .00038055  00000+0  54093-2 0  9993
2 69275  51.8990 130.2561 0000336 168.1624 225.0572 14.76531536  5741
KUIPER-00590            
1 69276U 26118K   26228.17257825  .00001901  00000+0  27838-3 0  9996
2 69276  51.9022 135.4132 0001572  63.9998 296.1126 14.79918789 13047
KUIPER-00592            
1 69277U 26118L   26228.12822558  .00001029  00000+0  17698-3 0  9997
2 69277  51.9034 135.2031 0001585 353.3468   6.7471 14.76476401 13044
KUIPER-00593            
1 69278U 26118M   26228.16670139 -.00912208  00000+0 -31587-1 0  9991
2 69278  51.8746 122.9104 0002786  37.3979 324.1201 15.32134712  5529
KUIPER-00594            
1 69279U 26118N   26228.16670139 -.01851261  00000+0 -12474+0 0  9996
2 69279  51.8865 124.1288 0001296 244.5830 226.6050 15.09795088  4319
KUIPER-00595            
1 69280U 26118P   26228.16670139  .00041194  00000+0  13148-2 0  9993
2 69280  51.8721 122.9639 0000653 125.7433 222.7698 15.32085058  4773
KUIPER-00596            
1 69281U 26118Q   26228.13351872  .00001904  00000+0  27860-3 0  9993
2 69281  51.9019 140.5834 0000789 105.7229 254.3821 14.79948675 12961
KUIPER-00597            
1 69282U 26118R   26228.16670139 -.01167661  00000+0 -46940-1 0  9991
2 69282  51.8694 123.4210 0007065  29.1251  62.6506 15.27546488  5429
KUIPER-00599            
1 69283U 26118S   26228.16670139 -.00007301  00000+0 -90611-3 0  9991
2 69283  51.8993 130.3587 0001679  98.8853 287.5117 14.80996764  5826
KUIPER-00600            
1 69284U 26118T   26228.16670139 -.01672232  00000+0 -77146-1 0  9990
2 69284  51.8733 123.8053 0007695  35.5674 258.5638 15.23106758  5670
KUIPER-00601            
1 69285U 26118U   26228.16670139  .00089332  00000+0  11671-1 0  9992
2 69285  51.9003 135.4332 0001135  68.2190 170.3559 14.79645818  5342
KUIPER-00602            
1 69286U 26118V   26228.16670139  .00005418  00000+0  68765-3 0  9994
2 69286  51.8999 127.8862 0004153  37.9391 139.1488 14.82989247  5130
KUIPER-00603            
1 69287U 26118W   26228.14167205  .00031827  00000+0  44961-2 0  9992
2 69287  51.9029 130.5151 0001175 130.3231 229.7833 14.76883057 13101
KUIPER-00605            
1 69288U 26118X   26228.13622764  .00001861  00000+0  27307-3 0  9999
2 69288  51.8990 138.0603 0000448 134.6431 225.4568 14.79936127 13001
KUIPER-00606            
1 69289U 26118Y   26228.16670139  .00044494  00000+0  58204-2 0  9990
2 69289  51.9000 130.4374 0001088 122.6167  86.8881 14.79979241  4371
KUIPER-00607            
1 69290U 26118Z   26228.16670139 -.01159147  00000+0 -50967-1 0  9994
2 69290  51.8721 123.4218 0006039  17.6531 104.1340 15.24105614  4932
KUIPER-00608            
1 69291U 26118AA  26228.16670139 -.01149003  00000+0 -60701-1 0  9992
2 69291  51.8717 125.5082 0010721  46.5794 112.8655 15.17797344  5570
KUIPER-00610            
1 69292U 26118AB  26228.16670139 -.00005860  00000+0 -72733-3 0  9994
2 69292  51.9000 127.7885 0000379 141.3808 309.8648 14.80664399  3772
KUIPER-00613            
1 69293U 26118AC  26228.15312794  .00001935  00000+0  28274-3 0  9992
2 69293  51.9012 137.9965 0001030 106.5711 253.5365 14.79936681 13001
KUIPER-00618            
1 69294U 26118AD  26228.16670139  .00046227  00000+0  39551-2 0  9996
2 69294  51.8918 125.9395 0001295 346.9655 304.4335 14.97145685  5897
KUIPER-00620            
1 69295U 26118AE  26228.16670139 -.00005205  00000+0 -58200-3 0  9993
2 69295  51.9002 128.0246 0005148 312.8534 108.1235 14.84696761  5161
KUIPER-00423            
1 69592U 26140A   26228.07647979  .00020046  00000+0  53431-3 0  9993
2 69592  51.8802 108.6508 0012861  25.7066 334.4558 15.38076607 10454
KUIPER-00428            
1 69593U 26140B   26228.20791623 -.00007812  00000+0 -20012-3 0  9992
2 69593  51.8792 108.7653 0006810 137.5026 222.6489 15.37263595 10465
KUIPER-00481            
1 69594U 26140C   26228.16670139 -.00977977  00000+0 -37181-1 0  9997
2 69594  51.8803 108.7059 0011482  33.3042 227.4957 15.28786991  5547
KUIPER-00490            
1 69595U 26140D   26228.16670139  .00018057  00000+0  14464-2 0  9991
2 69595  51.8885 111.2072 0003035  54.0696 121.3573 15.00185629  5415
KUIPER-00493            
1 69596U 26140E   26228.16670139  .00001153  00000+0  17710-3 0  9999
2 69596  51.9014 115.4375 0001312 250.7961 230.3959 14.80721099  4185
KUIPER-00496            
1 69597U 26140F   26228.06652977  .00011682  00000+0  39101-3 0  9995
2 69597  51.8793 110.7704 0010221 151.9880 208.1656 15.31356980 10425
KUIPER-00513            
1 69598U 26140G   26228.16670139  .00017656  00000+0  14979-2 0  9999
2 69598  51.8949 111.1460 0005321 108.1399 356.0841 14.97976763  5901
KUIPER-00516            
1 69599U 26140H   26228.04983484  .00013561  00000+0  36508-3 0  9991
2 69599  51.8780 109.2005 0007637 108.5100 251.6717 15.38131895 10446
KUIPER-00517            
1 69600U 26140J   26227.90166330  .00018454  00000+0  50369-3 0  9998
2 69600  51.8764 109.7053 0010729  48.9973 311.1940 15.37423192 10421
KUIPER-00520            
1 69601U 26140K   26228.16670139  .00015476  00000+0  14740-2 0  9998
2 69601  51.8952 112.5657 0005738 126.3576 357.0027 14.93524599  5453
KUIPER-00522            
1 69602U 26140L   26227.90148931  .00013895  00000+0  39638-3 0  9997
2 69602  51.8771 109.7118 0014344  21.5082 338.6504 15.36236247 10420
KUIPER-00528            
1 69603U 26140M   26228.16670139  .00007717  00000+0  85377-3 0  9994
2 69603  51.8986 113.1600 0006125 106.5000 355.6191 14.88160175  3881
KUIPER-00532            
1 69604U 26140N   26227.95868779  .00015361  00000+0  42777-3 0  9991
2 69604  51.8777 110.0789 0005199 141.8158 218.3198 15.36980716 10425
KUIPER-00533            
1 69605U 26140P   26228.16670139 -.01254988  00000+0 -76707-1 0  9998
2 69605  51.8933 109.7127 0007359  62.0369  36.0849 15.13008378  4273
KUIPER-00534            
1 69606U 26140Q   26228.10799949  .00020195  00000+0  60163-3 0  9993
2 69606  51.8801 108.8591 0013263  17.2327 342.9107 15.34589736 10458
KUIPER-00537            
1 69607U 26140R   26228.16670139 -.00010019  00000+0 -12201-2 0  9994
2 69607  51.8974 115.0699 0000407 205.3691 250.0396 14.82154435  4974
KUIPER-00538            
1 69608U 26140S   26228.16670139  .00009370  00000+0  10177-2 0  9991
2 69608  51.8947 112.8909 0004507  91.8754   0.0224 14.88687704  5540
KUIPER-00540            
1 69609U 26140T   26227.94364973  .00011313  00000+0  31240-3 0  9998
2 69609  51.8807 110.0015 0006547 129.6569 230.4996 15.37530549 10421
KUIPER-00541            
1 69610U 26140U   26227.95873876  .00011062  00000+0  29301-3 0  9994
2 69610  51.8808 109.3697 0008413  72.9271 287.2638 15.38838155 10434
KUIPER-00542            
1 69611U 26140V   26228.08728118  .00013288  00000+0  34978-3 0  9996
2 69611  51.8773 108.7095 0008191  59.8199 300.3599 15.38842442 10456
KUIPER-00543            
1 69612U 26140W   26228.08718949  .00015109  00000+0  42246-3 0  9999
2 69612  51.8768 109.4383 0007558 136.7668 223.3913 15.36857050 10443
KUIPER-00544            
1 69613U 26140X   26227.89813325  .00010401  00000+0  27647-3 0  9990
2 69613  51.8773 109.6899 0007283  70.5250 289.6524 15.38808553 10428
KUIPER-00546            
1 69614U 26140Y   26227.88256198  .00018993  00000+0  50320-3 0  9997
2 69614  51.8773 109.5890 0015103  15.3102 344.8339 15.38268510 10423
KUIPER-00547            
1 69615U 26140Z   26228.09569684  .00022291  00000+0  58692-3 0  9995
2 69615  51.8807 108.7830 0011030  41.2761 318.9058 15.38404228 10452
KUIPER-00549            
1 69616U 26140AA  26227.93613663  .00011065  00000+0  30589-3 0  9997
2 69616  51.8788 109.9346 0007874 126.4440 233.7273 15.37513754 10421
KUIPER-00550            
1 69617U 26140AB  26228.13118566  .00010223  00000+0  36875-3 0  9992
2 69617  51.8802 111.1856 0008295 166.8728 193.2472 15.29074734 10427
KUIPER-00551            
1 69618U 26140AC  26227.94907346  .00019841  00000+0  51674-3 0  9992
2 69618  51.8782 109.2823 0012175  34.5169 325.6606 15.38805103 10432
KUIPER-00554            
1 69619U 26140AD  26227.89507227  .00010760  00000+0  28778-3 0  9991
2 69619  51.8772 109.6687 0011283  44.3676 315.8213 15.38548918 10427
KUIPER-00555            
1 69620U 26140AE  26227.89632730  .00010391  00000+0  27996-3 0  9992
2 69620  51.8804 109.6976 0011188  32.6260 327.5417 15.38362168 10426
KUIPER-00556            
1 69621U 26140AF  26228.16670139  .00029206  00000+0  91088-3 0  9997
2 69621  51.8797 108.3488 0012958  16.0352  69.3594 15.32918606  5380
KUIPER-00557            
1 69622U 26140AG  26228.04075073  .00013123  00000+0  35416-3 0  9995
2 69622  51.8796 109.1557 0009960  51.8012 308.3871 15.38068169 10448
KUIPER-00560            
1 69623U 26140AH  26228.04606130  .00007899  00000+0  22542-3 0  9999
2 69623  51.8775 109.1773 0009449  65.2159 294.9810 15.36952107 10444
KUIPER-00561            
1 69624U 26140AJ  26228.16670139 -.01160350  00000+0 -68329-1 0  9999
2 69624  51.8893 109.6742 0007623  43.4589 152.1567 15.14079293  5703
KUIPER-00564            
1 69625U 26140AK  26228.16670139 -.01355819  00000+0 -55448-1 0  9994
2 69625  51.8825 108.9574 0008230  47.1696 111.7455 15.26929393  4882
KUIPER-00567            
1 69626U 26140AL  26228.16670139 -.01016481  00000+0 -33230-1 0  9999
2 69626  51.8780 108.3154 0012357  16.8513  62.7627 15.33678826  2410
KUIPER-00573            
1 69627U 26140AM  26228.16670139 -.01296168  00000+0 -54621-1 0  9999
2 69627  51.8842 108.8943 0010908  29.8272 120.2780 15.25768308  5078
KUIPER-00258            
1 69763U 26151A   26227.73008400  .00013972  00000+0  43762-3 0  9993
2 69763  51.8689  28.7954 0011527 287.0826  72.8896 15.33304677  6852
KUIPER-00526            
1 69764U 26151B   26228.16670139 -.01137566  00000+0 -13990+0 0  9991
2 69764  51.9186  30.6006 0006673 291.8203 110.5417 14.85605003  4214
KUIPER-00558            
1 69765U 26151C   26228.16670139 -.00048245  00000+0 -49247-2 0  9993
2 69765  51.8978  30.6820 0002345 273.4299 215.5664 14.90304825  5529
KUIPER-00569            
1 69766U 26151D   26228.16670139 -.01212448  00000+0 -10495+0 0  9993
2 69766  51.9164  28.6041 0004400 300.0556 191.0981 14.99642412  5770
KUIPER-00589            
1 69767U 26151E   26228.16670139 -.00062712  00000+0 -76177-2 0  9992
2 69767  51.9012  30.2777 0001456 295.9783 357.1042 14.83370693  5584
KUIPER-00598            
1 69768U 26151F   26228.16670139 -.00005286  00000+0 -17767-3 0  9997
2 69768  51.8677  26.9057 0008063 285.7285 221.8625 15.28041505  5861
KUIPER-00604            
1 69769U 26151G   26228.16670139 -.02003059  00000+0 -12818+0 0  9994
2 69769  51.8945  26.6969 0002963 314.5197 293.4770 15.11926387  4222
KUIPER-00609            
1 69770U 26151H   26228.16670139 -.01311534  00000+0 -59512-1 0  9999
2 69770  51.8886  25.9064 0001000  20.5404 266.0182 15.23462061  4783
KUIPER-00611            
1 69771U 26151J   26228.16670139 -.01442724  00000+0 -94595-1 0  9996
2 69771  51.8927  27.1524 0002206 284.9445 179.1490 15.10475143  3994
KUIPER-00612            
1 69772U 26151K   26228.16670139 -.00041721  00000+0 -35905-2 0  9999
2 69772  51.8971  28.5302 0001356 282.5774 193.2615 14.96953164  4261
KUIPER-00614            
1 69773U 26151L   26228.16670139 -.01424980  00000+0 -10002+0 0  9991
2 69773  51.8916  27.1578 0003684 301.6893  37.4718 15.07956495  4369
KUIPER-00615            
1 69774U 26151M   26228.16670139 -.00052229  00000+0 -58261-2 0  9996
2 69774  51.8991  29.9154 0007257 298.6876 283.0695 14.86745360  5760
KUIPER-00616            
1 69775U 26151N   26227.87960762  .00017958  00000+0  49425-3 0  9999
2 69775  51.8807  26.8680 0001994 259.5017 100.5745 15.37231005  6899
KUIPER-00617            
1 69776U 26151P   26228.16670139  .00003154  00000+0  10732-3 0  9991
2 69776  51.8836  25.6486 0004863 260.4034 163.0195 15.33496407  4910
KUIPER-00619            
1 69777U 26151Q   26228.16670139 -.02323855  00000+0 -11367+0 0  9990
2 69777  51.8860  26.0775 0002208 301.6765 240.1223 15.21212620  3888
KUIPER-00621            
1 69778U 26151R   26228.16670139 -.00071453  00000+0 -45782-2 0  9994
2 69778  51.8950  27.0052 0000882 315.6046 183.1136 15.08315624  4840
KUIPER-00622            
1 69779U 26151S   26228.16670139 -.00050822  00000+0 -49986-2 0  9992
2 69779  51.8953  28.9979 0008943 281.8344 267.4731 14.91776390  4325
KUIPER-00623            
1 69780U 26151T   26228.16670139 -.00099745  00000+0 -86304-2 0  9996
2 69780  51.8973  28.1691 0007769 290.9976 244.4260 14.97177124  5531
KUIPER-00626            
1 69781U 26151U   26228.16670139 -.00315683  00000+0 -13035-1 0  9999
2 69781  51.8777  26.8090 0008033 294.3875 288.5035 15.24876436  5344
KUIPER-00627            
1 69782U 26151V   26228.20192441  .00015802  00000+0  52058-3 0  9998
2 69782  51.8702  26.7104 0008721 292.8709  67.1354 15.31603424  6924
KUIPER-00629            
1 69783U 26151W   26228.16670139 -.00066957  00000+0 -86473-2 0  9995
2 69783  51.9025  32.8751 0002367  59.6425 126.7478 14.80860470  5426
KUIPER-00631            
1 69784U 26151X   26228.16670139 -.00068401  00000+0 -90442-2 0  9993
2 69784  51.9017  32.9279 0002104  86.9189  15.0966 14.79887519  4627
KUIPER-00634            
1 69785U 26151Y   26228.16670139 -.00095743  00000+0 -83482-2 0  9999
2 69785  51.8960  28.5901 0004198 336.9786  42.2560 14.96873126  5376
KUIPER-00639            
1 69786U 26151Z   26228.17383457 -.00068980  00000+0 -20962-2 0  9992
2 69786  51.8712  26.5294 0008226 278.9917  81.0137 15.33615564  6927
KUIPER-00641            
1 69787U 26151AA  26227.88042062  .00007023  00000+0  23396-3 0  9998
2 69787  51.8697  28.2984 0011721 288.6910  71.2801 15.32173525  6878
KUIPER-00644            
1 69788U 26151AB  26227.93051193  .00011663  00000+0  32923-3 0  9991
2 69788  51.8752  27.1808 0008856 286.7311  73.2703 15.36796756  6888
KUIPER-00646            
1 69789U 26151AC  26227.86496841  .00017326  00000+0  56684-3 0  9999
2 69789  51.8717  28.2097 0009643 287.4722  72.5208 15.31748461  6877
KUIPER-00647            
1 69790U 26151AD  26228.20187023  .00011111  00000+0  37422-3 0  9994
2 69790  51.8674  26.6985 0009989 282.3506  77.6360 15.31208961  6923
KUIPER-00662            
1 69791U 26151AE  26228.16670139 -.00026297  00000+0 -33182-2 0  9996
2 69791  51.9010  32.3477 0002265 336.7122 243.0949 14.81360809  5708
