ORBCOMM FM06            
1 25118U 97084G   26129.27803352  .00001063  00000+0  32594-3 0  9990
2 25118  45.0139 240.0084 0001276 198.1606 181.1395 14.47468806488754
ORBCOMM FM04            
1 25159U 98007C   26129.79405004  .00000723  00000+0  29353-3 0  9991
2 25159 107.9622  90.4086 0039848  31.5548 328.7971 14.35664152471080
ORBCOMM FM19            
1 25415U 98046C   26129.83580206  .00000759  00000+0  28698-3 0  9992
2 25415  44.9941  65.8458 0001914  91.6719 305.4976 14.39420823451251
ORBCOMM FM20            
1 25416U 98046D   26129.87292091  .00000476  00000+0  20242-3 0  9992
2 25416  44.9942  73.1720 0001171 323.4517  36.6251 14.38008506451274
ORBCOMM FM27            
1 25481U 98053G   26129.79802654  .00000518  00000+0  21182-3 0  9996
2 25481  45.0035 157.6777 0001973 272.2394  87.8228 14.39065751444703
ORBCOMM FM32            
1 25982U 99065C   26129.91699898  .00000484  00000+0  20886-3 0  9996
2 25982  45.0169 354.3792 0005356 227.1703 132.8695 14.37077783381583
ORBCOMM FM109           
1 40086U 14040A   26129.67620426  .00000266  00000+0  92488-4 0  9998
2 40086  47.0037 273.5577 0000920  33.0984 326.9959 14.58804495628721
ORBCOMM FM114           
1 41179U 15081A   26129.48825786  .00000221  00000+0  82961-4 0  9999
2 41179  47.0036 184.9621 0001941 353.3263   6.7597 14.58815118552104
ORBCOMM FM110           
1 41182U 15081D   26129.61396219  .00000313  00000+0  10259-3 0  9994
2 41182  47.0006 183.8193 0004019 259.1160 100.9274 14.58819110551996
ORBCOMM FM118           
1 41183U 15081E   26129.85396266  .00000302  00000+0  10020-3 0  9997
2 41183  47.0031 183.0113 0003891 230.3863 129.6680 14.58841051552132
ORBCOMM FM112           
1 41184U 15081F   26129.92705818  .00000488  00000+0  13968-3 0  9992
2 41184  46.9976  91.1526 0002444  17.2745 342.8223 14.58752978553367
ORBCOMM FM113           
1 41185U 15081G   26129.90306419  .00000280  00000+0  95568-4 0  9992
2 41185  47.0000  91.6307 0001546 358.1361   1.9518 14.58815355553340
ORBCOMM FM108           
1 41187U 15081J   26129.93413789  .00000481  00000+0  13810-3 0  9998
2 41187  47.0064   3.0482 0002462  12.1529 347.9416 14.58816059554493
ORBCOMM FM117           
1 41188U 15081K   26129.89958012  .00000461  00000+0  13396-3 0  9994
2 41188  47.0029   1.8571 0002861  20.1683 339.9315 14.58814001554532
ORBCOMM FM116           
1 41189U 15081L   26129.88031219  .00000195  00000+0  77489-4 0  9993
2 41189  47.0017  91.7355 0002430 265.6161  94.4447 14.58823097553349
