KUIPER-00008            
1 63724U 25088A   26213.24985295  .00000566  00000+0  10323-3 0  9991
2 63724  51.8998 168.7627 0000667  72.8458 287.2577 14.79936351 69454
KUIPER-00009            
1 63725U 25088B   26213.58335648  .00002399  00000+0  21184-3 0  9993
2 63725  51.9019 184.3237 0002210  68.6436 139.0605 15.00011737  1309
KUIPER-00010            
1 63726U 25088C   26213.22150721  .00001217  00000+0  18863-3 0  9990
2 63726  51.9013 163.9933 0000735  78.1371 281.9674 14.79925655 69130
KUIPER-00011            
1 63727U 25088D   26213.24717863  .00000878  00000+0  14416-3 0  9991
2 63727  51.9000 171.4273 0000734  66.4687 293.6353 14.79936181 69160
KUIPER-00012            
1 63728U 25088E   26213.22957852  .00001676  00000+0  24879-3 0  9995
2 63728  51.9011 156.4412 0000731  83.7331 276.3714 14.79932268 69325
KUIPER-00013            
1 63729U 25088F   26213.29580541  .00001127  00000+0  17680-3 0  9993
2 63729  51.9008 188.6672 0000611  49.2343 310.8672 14.79938155 68983
KUIPER-00014            
1 63730U 25088G   26213.32957530  .00000938  00000+0  15203-3 0  9993
2 63730  51.9010 188.4614 0000616  65.5674 294.5352 14.79928996 68801
KUIPER-00015            
1 63731U 25088H   26213.14996554  .00000571  00000+0  10393-3 0  9991
2 63731  51.8983 199.3129 0000532  43.9217 316.1788 14.79939566 69093
KUIPER-00016            
1 63732U 25088J   26213.32689739  .00002408  00000+0  34472-3 0  9991
2 63732  51.8986 190.9851 0000662  63.8460 296.2570 14.79934707 68763
KUIPER-00018            
1 63733U 25088K   26213.64154783  .00001055  00000+0  16733-3 0  9990
2 63733  51.9024 179.6287 0000747  64.8976 295.2064 14.79932719 68951
KUIPER-00019            
1 63734U 25088L   26213.60059443  .00001515  00000+0  22750-3 0  9991
2 63734  51.9005 178.5628 0000696  49.6429 310.4594 14.79971805 68963
KUIPER-00020            
1 63735U 25088M   26213.63886634  .00001403  00000+0  21286-3 0  9994
2 63735  51.9005 182.1419 0000851  54.6932 305.4110 14.79961471 69126
KUIPER-00021            
1 63736U 25088N   26213.60508728 -.00000083  00000+0  18094-4 0  9995
2 63736  51.8974 182.2434 0000414  75.5058 284.5950 14.79933593 68958
KUIPER-00023            
1 63737U 25088P   26213.63617229  .00002068  00000+0  29999-3 0  9995
2 63737  51.9007 184.5968 0000725  49.3876 310.7149 14.79956144 69226
KUIPER-00024            
1 63738U 25088Q   26213.58209391  .00001095  00000+0  17261-3 0  9995
2 63738  51.9031 172.4387 0000842  71.0273 289.0781 14.79928290 69511
KUIPER-00025            
1 63739U 25088R   26213.60780458  .00001816  00000+0  26711-3 0  9998
2 63739  51.9024 179.8064 0000799  58.6870 301.4171 14.79931556 69276
KUIPER-00027            
1 63740U 25088S   26213.30912818  .00000792  00000+0  13272-3 0  9994
2 63740  51.9015 176.0938 0000629  22.3875 337.7115 14.79971413 69032
KUIPER-00028            
1 63741U 25088T   26213.61585608 -.00000173  00000+0  62592-5 0  9997
2 63741  51.8991 172.1851 0000834  73.3903 286.7151 14.79909270 69521
KUIPER-00029            
1 63742U 25088U   26213.25425142  .00001202  00000+0  18670-3 0  9993
2 63742  51.9016 172.4720 0000965  29.9354 330.1664 14.79922236 69015
KUIPER-00030            
1 63743U 25088V   26213.63076845  .00000937  00000+0  15186-3 0  9991
2 63743  51.9009 189.6307 0000565  54.8052 305.2964 14.79931082 69090
KUIPER-00031            
1 63744U 25088W   26213.34306364  .00002379  00000+0  34105-3 0  9996
2 63744  51.9001 175.9259 0001126 105.4635 254.6451 14.79923447 68971
KUIPER-00032            
1 63745U 25088X   26213.49919333  .00012885  00000+0  31245-3 0  9994
2 63745  51.8665  41.7226 0003094 274.1197  85.9438 15.41405609 71850
KUIPER-00033            
1 63746U 25088Y   26213.24310189 -.00002151  00000+0 -25328-3 0  9994
2 63746  51.8992 206.3670 0000555  52.8038 307.2975 14.79931674 69028
KUIPER-00034            
1 63747U 25088Z   26213.28363587  .00001011  00000+0  16154-3 0  9998
2 63747  51.9016 168.7219 0000814  76.0734 284.0319 14.79932447 69232
KUIPER-00035            
1 63748U 25088AA  26213.32418291  .00000691  00000+0  11966-3 0  9996
2 63748  51.8994 193.5148 0000594  51.5771 308.5244 14.79924414 68949
KUIPER-00037            
1 63749U 25088AB  26213.31710572 -.00001753  00000+0 -20102-3 0  9997
2 63749  51.8991 192.4027 0000680  64.4751 295.6281 14.79921575 69749
KUIPER-00038            
1 63750U 25088AC  26213.17153244  .00001106  00000+0  17411-3 0  9999
2 63750  51.9016 179.2160 0000818  75.7210 284.3843 14.79919142 68913
KUIPER-00039            
1 64500U 25134A   26213.48174551  .00009393  00000+0  12585-2 0  9995
2 64500  51.9034 312.8437 0001271 122.3449 237.7636 14.79962629 61515
KUIPER-00040            
1 64501U 25134B   26213.30206295  .00003314  00000+0  46293-3 0  9999
2 64501  51.9001 323.7098 0000190 106.0299 254.0684 14.79979997 61347
KUIPER-00041            
1 64502U 25134C   26213.60332981  .00003847  00000+0  53333-3 0  9999
2 64502  51.9007 324.7661 0000592  98.6424 261.4606 14.79928828 61357
KUIPER-00042            
1 64503U 25134D   26213.57494970  .00003781  00000+0  52458-3 0  9997
2 64503  51.9005 319.8692 0000463  99.7463 260.3552 14.79946121 61429
KUIPER-00043            
1 64504U 25134E   26213.44799869  .00003524  00000+0  49095-3 0  9997
2 64504  51.9028 312.9340 0000386 102.6675 257.4331 14.79938658 61510
KUIPER-00044            
1 64505U 25134F   26213.50202987 -.00000890  00000+0 -87770-4 0  9993
2 64505  51.9007 325.1943 0001402 122.9914 237.1184 14.79932022 61345
KUIPER-00046            
1 64506U 25134G   26213.60602921 -.00000631  00000+0 -53780-4 0  9994
2 64506  51.9015 322.2114 0000686 109.9710 250.1326 14.79922148 61391
KUIPER-00047            
1 64507U 25134H   26213.60191937 -.00001279  00000+0 -13885-3 0  9995
2 64507  51.9004 294.7544 0000538  99.6168 260.4855 14.79925057 61773
KUIPER-00048            
1 64508U 25134J   26213.43309786  .00003003  00000+0  42283-3 0  9999
2 64508  51.8999 295.5140 0000565  88.3404 271.7623 14.79927426 61753
KUIPER-00049            
1 64509U 25134K   26213.45337487  .00003377  00000+0  47163-3 0  9997
2 64509  51.9012 307.8908 0000394  88.9351 271.1657 14.79944732 61588
KUIPER-00050            
1 64510U 25134L   26213.47225999  .00003033  00000+0  42678-3 0  9990
2 64510  51.9002 290.3291 0000354  72.9437 287.1564 14.79921039 61831
KUIPER-00051            
1 64511U 25134M   26213.56460893  .00003513  00000+0  49060-3 0  9990
2 64511  51.9017 306.0956 0000743  58.3053 301.7982 14.79846676 61611
KUIPER-00053            
1 64513U 25134P   26213.49681410  .00002369  00000+0  32588-3 0  9999
2 64513  51.9012 301.4230 0000897  14.3280 345.7708 14.81717874 61676
KUIPER-00054            
1 64514U 25134Q   26213.49792415 -.00003291  00000+0 -40286-3 0  9999
2 64514  51.8989 297.7040 0000328 113.2968 246.8029 14.79935404 61727
KUIPER-00055            
1 64515U 25134R   26213.44787826 -.00000137  00000+0  11027-4 0  9992
2 64515  51.8990 250.5628 0000401  76.0258 284.0749 14.79927962 62385
KUIPER-00056            
1 64516U 25134S   26213.45879372  .00003296  00000+0  46117-3 0  9997
2 64516  51.9034 302.9789 0000480  93.9981 266.1036 14.79924978 61657
KUIPER-00057            
1 64517U 25134T   26213.45068329  .00003768  00000+0  52292-3 0  9995
2 64517  51.9003 310.4403 0000439  90.9082 269.1930 14.79939743 61544
KUIPER-00058            
1 64518U 25134U   26213.55736784 -.00002022  00000+0 -23640-3 0  9993
2 64518  51.9021 304.9418 0000411  97.5636 262.5373 14.79928921 61631
KUIPER-00059            
1 64519U 25134V   26213.42770253  .00003249  00000+0  45484-3 0  9999
2 64519  51.9010 300.5544 0000351  96.9729 263.1273 14.79939540 61681
KUIPER-00060            
1 64520U 25134W   26213.52901776  .00003585  00000+0  49918-3 0  9997
2 64520  51.9032 300.1742 0000547  95.3490 264.7535 14.79918008 61682
KUIPER-00061            
1 64521U 25134X   26213.55467817  .00003614  00000+0  50275-3 0  9995
2 64521  51.9010 307.5089 0000475  86.7935 273.3082 14.79938997 61583
KUIPER-00062            
1 64522U 25134Y   26213.55192427 -.00005329  00000+0 -67077-3 0  9993
2 64522  51.8985 309.9891 0000283  80.1840 279.9155 14.79922812 61561
KUIPER-00063            
1 64523U 25134Z   26213.54390296  .00000908  00000+0  14813-3 0  9993
2 64523  51.9005 317.5872 0000586 114.4056 245.6967 14.79931477 61452
KUIPER-00064            
1 64524U 25134AA  26213.54658304  .00003769  00000+0  52294-3 0  9994
2 64524  51.9038 315.0036 0000410  97.4523 262.6486 14.79942601 61499
KUIPER-00065            
1 64525U 25134AB  26213.60874443  .00001702  00000+0  25221-3 0  9991
2 64525  51.9056 319.9010 0000503  95.1447 264.9573 14.79923269 61411
KUIPER-00066            
1 64526U 25134AC  26213.50729929  .00002600  00000+0  36986-3 0  9997
2 64526  51.9010 257.6246 0000372  75.4312 284.6691 14.79946072 62291
KUIPER-00069            
1 64816U 25151A   26213.63312492  .00003884  00000+0  53813-3 0  9998
2 64816  51.9032 359.7064 0000596  99.6574 260.4456 14.79937763 58221
KUIPER-00070            
1 64817U 25151B   26213.63989534 -.00001158  00000+0 -12297-3 0  9991
2 64817  51.8977  24.5814 0000897 112.4545 247.6512 14.79931584 57881
KUIPER-00071            
1 64818U 25151C   26213.64261861  .00003501  00000+0  48809-3 0  9999
2 64818  51.9022  22.1133 0000531 109.5412 250.5608 14.79926480 56738
KUIPER-00072            
1 64819U 25151D   26213.63039808 -.00002272  00000+0 -26911-3 0  9999
2 64819  51.8990   2.1054 0000508 107.6778 252.4240 14.79929561 57018
KUIPER-00073            
1 64820U 25151E   26212.86601738  .00003595  00000+0  50033-3 0  9991
2 64820  51.9006  25.5286 0000630 108.1229 251.9802 14.79930617 57807
KUIPER-00075            
1 64822U 25151G   26213.39431116  .00014633  00000+0  30430-3 0  9997
2 64822  51.8646 235.1836 0004427  60.1737 299.9693 15.45872474 58752
KUIPER-00076            
1 64823U 25151H   26213.61963165  .00003654  00000+0  50790-3 0  9999
2 64823  51.9034  12.2189 0000598 117.8549 242.2474 14.79943210 56878
KUIPER-00077            
1 64824U 25151J   26213.61423957  .00003590  00000+0  49981-3 0  9999
2 64824  51.9023  17.2605 0000582  95.3991 264.7037 14.79926188 56801
KUIPER-00078            
1 64825U 25151K   26213.65069266  .00003665  00000+0  50961-3 0  9996
2 64825  51.9010  14.5750 0000568 116.1185 243.9835 14.79928535 56847
KUIPER-00079            
1 64826U 25151L   26213.61153958  .00003685  00000+0  51209-3 0  9993
2 64826  51.8999  19.7069 0000651 102.9353 257.1682 14.79936605 57964
KUIPER-00080            
1 64827U 25151M   26213.64530133  .00003634  00000+0  50531-3 0  9992
2 64827  51.9003  19.5691 0000556 105.7844 254.3180 14.79939365 56777
KUIPER-00082            
1 64828U 25151N   26213.62501280  .00003728  00000+0  51752-3 0  9992
2 64828  51.9021   7.2142 0000552 115.2459 244.8561 14.79946728 56944
KUIPER-00083            
1 64829U 25151P   26213.61693462  .00003624  00000+0  50398-3 0  9996
2 64829  51.9014  14.7331 0000637 108.3771 251.7261 14.79943794 58029
KUIPER-00084            
1 64830U 25151Q   26213.47108783  .00002715  00000+0  38508-3 0  9998
2 64830  51.9022  25.3637 0000635 105.9232 254.1801 14.79923936 56672
KUIPER-00085            
1 64831U 25151R   26213.65879556  .00003912  00000+0  54184-3 0  9990
2 64831  51.9034   7.1149 0000581  98.9421 261.1607 14.79938615 56945
KUIPER-00086            
1 64832U 25151S   26213.64799522  .00003807  00000+0  52796-3 0  9994
2 64832  51.9013  17.1052 0000532 108.3771 251.7249 14.79943681 56808
KUIPER-00087            
1 64833U 25151T   26213.59934118  .00003852  00000+0  53389-3 0  9990
2 64833  51.9000 359.7807 0000435 104.2806 255.8204 14.79937254 57035
KUIPER-00089            
1 64834U 25151U   26213.59395104  .00003752  00000+0  52079-3 0  9991
2 64834  51.9014   4.8275 0000510  97.3087 262.7934 14.79938396 56972
KUIPER-00090            
1 64835U 25151V   26213.66957633 -.00003338  00000+0 -40918-3 0  9992
2 64835  51.9000 356.9966 0000592 102.8373 257.2656 14.79921523 57083
KUIPER-00091            
1 64836U 25151W   26213.59665125  .00000416  00000+0  83520-4 0  9996
2 64836  51.9030   2.3353 0000539  88.4810 271.6214 14.79925308 57002
KUIPER-00092            
1 64837U 25151X   26213.65606902  .00003685  00000+0  51187-3 0  9996
2 64837  51.9019   9.5613 0000560 104.8502 255.2522 14.79953927 58125
KUIPER-00093            
1 64838U 25151Y   26213.65337895  .00003814  00000+0  52884-3 0  9998
2 64838  51.9009  12.0458 0000652 113.5966 246.5065 14.79948321 56871
KUIPER-00094            
1 64839U 25151Z   26213.56678793  .00003761  00000+0  52140-3 0  9990
2 64839  51.9054 327.5270 0000490 144.1492 215.9504 14.79987784 57495
KUIPER-00081            
1 65132U 25171A   26213.43835456  .00000384  00000+0  79413-4 0  9997
2 65132  51.8977 227.9951 0000441  50.4391 309.6610 14.79931197 54478
KUIPER-00088            
1 65133U 25171B   26213.28445042  .00002149  00000+0  31083-3 0  9990
2 65133  51.8979 246.1779 0000405  71.7739 288.3268 14.79919770 54200
KUIPER-00095            
1 65134U 25171C   26213.44106557  .00002084  00000+0  30218-3 0  9991
2 65134  51.8963 225.5291 0000452  39.3941 320.7054 14.79942939 54501
KUIPER-00096            
1 65135U 25171D   26213.32630402  .00001988  00000+0  28974-3 0  9998
2 65135  51.8979 238.4885 0000358  63.1994 296.9005 14.79920860 54317
KUIPER-00097            
1 65136U 25171E   26213.39113964 -.00000537  00000+0 -41417-4 0  9994
2 65136  51.8996 240.8616 0000363  69.1976 290.9025 14.79925366 54275
KUIPER-00098            
1 65137U 25171F   26213.38843294  .00002083  00000+0  30225-3 0  9990
2 65137  51.8989 243.2372 0000417  68.8227 291.2780 14.79926139 53594
KUIPER-00099            
1 65138U 25171G   26213.43302411  .00002027  00000+0  29479-3 0  9995
2 65138  51.9002 233.0477 0000481  77.6445 282.4571 14.79931293 54392
KUIPER-00100            
1 65139U 25171H   26213.53695813  .00002378  00000+0  34069-3 0  9998
2 65139  51.8996 230.0563 0000462  46.3265 313.7735 14.79946692 54444
KUIPER-00102            
1 65140U 25171J   26213.53426494 -.00002462  00000+0 -29413-3 0  9990
2 65140  51.8954 232.5493 0000552  80.1730 279.9295 14.79923727 54406
KUIPER-00103            
1 65141U 25171K   26213.41410721  .00002250  00000+0  32399-3 0  9994
2 65141  51.8969 250.5825 0000375  54.0696 306.0301 14.79930764 54146
KUIPER-00104            
1 65142U 25171L   26213.29251247 -.00001393  00000+0 -15373-3 0  9999
2 65142  51.9005 238.6239 0000270  67.8227 292.2764 14.79930235 54301
KUIPER-00105            
1 65143U 25171M   26213.38569056  .00002242  00000+0  32287-3 0  9995
2 65143  51.8989 245.8110 0000320  50.9129 309.1861 14.79956076 54217
KUIPER-00106            
1 65144U 25171N   26213.43398278  .00002052  00000+0  29799-3 0  9991
2 65144  51.8997 224.3612 0000381  45.3888 314.7105 14.79938866 54527
KUIPER-00107            
1 65145U 25171P   26213.33706550  .00002037  00000+0  29601-3 0  9992
2 65145  51.8986 228.4668 0000368  46.0319 314.0674 14.79946361 54459
KUIPER-00108            
1 65146U 25171Q   26213.42491126  .00002289  00000+0  32910-3 0  9999
2 65146  51.9004 240.6193 0000348  57.5491 302.5505 14.79930997 54292
KUIPER-00109            
1 65147U 25171R   26213.05887518  .00002201  00000+0  31762-3 0  9991
2 65147  51.9006 237.1802 0000360  51.3756 308.7239 14.79935058 54300
KUIPER-00110            
1 65148U 25171S   26213.28173976 -.00001831  00000+0 -21132-3 0  9993
2 65148  51.8990 248.7502 0000469  57.7403 302.3604 14.79928579 54155
KUIPER-00111            
1 65149U 25171T   26213.51269676 -.00001449  00000+0 -16114-3 0  9992
2 65149  51.8961 252.6016 0000418  79.7276 280.3733 14.79925379 54124
KUIPER-00112            
1 65150U 25171U   26213.36274880 -.00000804  00000+0 -76519-4 0  9990
2 65150  51.8994 235.8830 0000336  48.0020 312.0971 14.79931962 54340
KUIPER-00114            
1 65151U 25171V   26213.37491908  .00002242  00000+0  32307-3 0  9996
2 65151  51.8979 255.7972 0000508  47.0828 313.0177 14.79920224 54065
KUIPER-00115            
1 65152U 25171W   26213.31551329 -.00000809  00000+0 -77200-4 0  9996
2 65152  51.9001 248.5660 0000593  32.9012 327.1987 14.79922609 54164
KUIPER-00116            
1 65153U 25171X   26213.41140700  .00002226  00000+0  32091-3 0  9996
2 65153  51.8989 253.1732 0000475  81.5961 278.5056 14.79937562 54107
KUIPER-00118            
1 65154U 25171Y   26213.40871772  .00002243  00000+0  32306-3 0  9994
2 65154  51.8986 255.6353 0000395  92.0495 268.0512 14.79933625 54074
KUIPER-00119            
1 65155U 25171Z   26213.28713397  .00002169  00000+0  31336-3 0  9998
2 65155  51.8996 243.7693 0000425   6.9500 353.1468 14.79947629 54228
KUIPER-00120            
1 65762U 25217A   26213.18631307  .00000049  00000+0  35389-4 0  9990
2 65762  51.8984 134.0889 0000723  90.1625 269.9420 14.79931969 46135
KUIPER-00132            
1 65763U 25217B   26213.47679377  .00030108  00000+0  65911-3 0  9994
2 65763  51.8542  18.3085 0006129 124.2911 235.8660 15.43852371 47760
KUIPER-00133            
1 65764U 25217C   26213.49019316 -.00001913  00000+0 -22204-3 0  9990
2 65764  51.9032 132.8612 0000986  99.5435 260.5639 14.79934451 46188
KUIPER-00139            
1 65765U 25217D   26213.39019106  .00002363  00000+0  33891-3 0  9999
2 65765  51.8963 100.7550 0000676 103.6221 256.4817 14.79921627 46624
KUIPER-00142            
1 65766U 25217E   26213.00259041 -.00000531  00000+0 -40713-4 0  9991
2 65766  51.8995 117.4303 0000750 104.3264 255.7781 14.79925331 46357
KUIPER-00145            
1 65767U 25217F   26213.13496116  .00002906  00000+0  41008-3 0  9995
2 65767  51.8994 119.3675 0000782 104.1403 255.9647 14.79934709 46338
KUIPER-00147            
1 65768U 25217G   26213.09849920  .00003964  00000+0  54861-3 0  9992
2 65768  51.8983 122.0077 0000645  97.9379 262.1657 14.79936274 46298
KUIPER-00148            
1 65769U 25217H   26213.38749577 -.00001674  00000+0 -19066-3 0  9998
2 65769  51.9040 103.2534 0000855 107.1027 253.0029 14.79927095 46585
KUIPER-00150            
1 65770U 25217J   26213.49287450 -.00003633  00000+0 -44779-3 0  9995
2 65770  51.9002 130.3017 0001304  85.7777 274.3334 14.79933615 46215
KUIPER-00151            
1 65771U 25217K   26213.16334170 -.00001782  00000+0 -20490-3 0  9999
2 65771  51.9010 124.2571 0000929  98.8058 261.3009 14.79924726 46275
KUIPER-00152            
1 65772U 25217L   26213.41313923 -.00002880  00000+0 -34890-3 0  9990
2 65772  51.9010 110.6338 0000892 126.5826 233.5219 14.79930544 46489
KUIPER-00153            
1 65773U 25217M   26213.14845472  .00003623  00000+0  50388-3 0  9994
2 65773  51.9020 106.8847 0000824 105.5540 254.5514 14.79943112 46518
KUIPER-00155            
1 65774U 25217N   26213.65082283  .00000239  00000+0  60373-4 0  9990
2 65774  51.9039  77.1260 0000873 115.4925 244.6128 14.79930555 46977
KUIPER-00156            
1 65775U 25217P   26213.11468617  .00003880  00000+0  53751-3 0  9997
2 65775  51.9026 107.0158 0000823 103.9558 256.1496 14.79942750 46507
KUIPER-00165            
1 65778U 25217S   26213.17142567 -.00000287  00000+0 -86314-5 0  9992
2 65778  51.9002 116.7065 0000676 101.9148 258.1890 14.79928916 46370
KUIPER-00166            
1 65779U 25217T   26213.08359871 -.00002910  00000+0 -35291-3 0  9992
2 65779  51.9017 104.6475 0000653 103.7452 256.3583 14.79927755 46538
KUIPER-00167            
1 65780U 25217U   26213.16062015 -.00004433  00000+0 -55282-3 0  9998
2 65780  51.8950 126.6555 0000536  84.8813 275.2210 14.79931680 46234
KUIPER-00168            
1 65781U 25217V   26213.11197274  .00007508  00000+0  10123-2 0  9998
2 65781  51.8971 109.4764 0001381  79.0141 281.0977 14.79950769 46478
KUIPER-00169            
1 65782U 25217W   26213.44425062  .00002088  00000+0  30282-3 0  9991
2 65782  51.9010 113.0163 0000682  97.7313 262.3727 14.79923296 46457
KUIPER-00170            
1 65783U 25217X   26213.43883889  .00002017  00000+0  29345-3 0  9996
2 65783  51.8984 117.9931 0000742  94.2740 265.8308 14.79932724 46387
KUIPER-00172            
1 65785U 25217Z   26212.88372015  .00000462  00000+0  89612-4 0  9996
2 65785  51.8987 102.9781 0001054 120.9982 239.1084 14.79929788 46540
KUIPER-00173            
1 65786U 25217AA  26213.14036417 -.00000061  00000+0  21068-4 0  9997
2 65786  51.9008 114.3540 0000797 101.2834 258.8218 14.79933502 46408
KUIPER-00174            
1 65787U 25217AB  26213.14573820  .00002057  00000+0  29880-3 0  9997
2 65787  51.9022 109.3830 0000729  99.4998 260.6047 14.79934844 46473
KUIPER-00176            
1 65788U 25217AC  26213.12952002  .00003993  00000+0  55204-3 0  9998
2 65788  51.8994 124.3831 0000914  94.3135 265.7932 14.79967886 46260
KUIPER-00101            
1 65947U 25228A   26213.07410708  .00003627  00000+0  50443-3 0  9997
2 65947  51.8975  82.0827 0000677 105.6933 254.4104 14.79938990 44616
KUIPER-00113            
1 65948U 25228B   26213.31586164  .00001452  00000+0  21949-3 0  9998
2 65948  51.8976  76.0347 0000646 100.0508 260.0527 14.79931290 44710
KUIPER-00117            
1 65949U 25228C   26213.34691353  .00000983  00000+0  15788-3 0  9991
2 65949  51.8981  78.3953 0000687 105.3422 254.7617 14.79934488 44681
KUIPER-00121            
1 65950U 25228D   26213.04843815 -.00000227  00000+0 -71062-6 0  9995
2 65950  51.8994  74.7322 0000932 116.8455 243.2602 14.79927555 44711
KUIPER-00122            
1 65951U 25228E   26213.03763805  .00003564  00000+0  49616-3 0  9997
2 65951  51.8983  84.7519 0000693 106.6065 253.4973 14.79942575 44574
KUIPER-00123            
1 65952U 25228F   26212.93636023 -.00000200  00000+0  27769-5 0  9999
2 65952  51.8981  85.2116 0000823  99.4179 260.6877 14.79927977 44552
KUIPER-00124            
1 65953U 25228G   26213.01196318  .00003672  00000+0  51026-3 0  9994
2 65953  51.8979  77.3652 0000755 114.9277 245.1763 14.79944879 44678
KUIPER-00125            
1 65954U 25228H   26213.02814040  .00003586  00000+0  49893-3 0  9998
2 65954  51.8999  62.3401 0000756 111.9582 248.1460 14.79950919 44886
KUIPER-00126            
1 65955U 25228J   26213.04034127  .00003647  00000+0  50705-3 0  9993
2 65955  51.8986  82.2711 0000748 109.2079 250.8964 14.79943885 44603
KUIPER-00127            
1 65956U 25228K   26213.63931192  .00003550  00000+0  49430-3 0  9993
2 65956  51.9000  72.0955 0000753 110.1973 249.9071 14.79945536 44804
KUIPER-00128            
1 65957U 25228L   26212.81207976 -.00004221  00000+0 -52509-3 0  9998
2 65957  51.8999  75.8205 0000756 100.1003 260.0045 14.79923293 44672
KUIPER-00129            
1 65958U 25228M   26213.32395097  .00001521  00000+0  22844-3 0  9995
2 65958  51.9001  68.5363 0000599 105.8155 254.2874 14.79927568 44828
KUIPER-00130            
1 65959U 25228N   26213.01737429 -.00001870  00000+0 -21637-3 0  9999
2 65959  51.9041  72.4267 0000667 109.5904 250.5130 14.79928941 35032
KUIPER-00134            
1 65960U 25228P   26213.63667989  .00021754  00000+0  50563-3 0  9993
2 65960  51.8718 336.1006 0005962 106.6297 253.5346 15.42255339 46131
KUIPER-00135            
1 65961U 25228Q   26212.98360741  .00003657  00000+0  50833-3 0  9999
2 65961  51.9012  72.6315 0000685 103.2184 256.8855 14.79944140 44739
KUIPER-00136            
1 65962U 25228R   26213.02007404 -.00002083  00000+0 -24440-3 0  9999
2 65962  51.9008  69.9221 0000771 107.0256 253.0791 14.79927411 44772
KUIPER-00137            
1 65963U 25228S   26213.02276407 -.00000492  00000+0 -35559-4 0  9997
2 65963  51.9043  67.4088 0000688 129.9449 230.1574 14.79938547 44812
KUIPER-00138            
1 65964U 25228T   26212.99170694  .00003507  00000+0  48895-3 0  9998
2 65964  51.8983  64.9667 0000659  96.8440 263.2597 14.79923685 44843
KUIPER-00140            
1 65965U 25228U   26212.98902738  .00003460  00000+0  48275-3 0  9990
2 65965  51.8985  67.5695 0000843 101.1217 258.9841 14.79924212 44809
KUIPER-00141            
1 65966U 25228V   26213.26451855  .00003369  00000+0  47062-3 0  9993
2 65966  51.9014  61.4127 0000716 113.5769 246.5269 14.79942720 44918
KUIPER-00146            
1 65967U 25228W   26213.29559172  .00003261  00000+0  45652-3 0  9992
2 65967  51.9025  63.7863 0000674 110.8552 249.2483 14.79941047 44881
KUIPER-00149            
1 65968U 25228X   26212.99709645  .00003473  00000+0  48440-3 0  9994
2 65968  51.9008  59.9881 0000673 115.1787 244.9245 14.79926874 44910
KUIPER-00154            
1 65969U 25228Y   26213.57374208  .00002992  00000+0  42110-3 0  9996
2 65969  51.8999  54.9258 0001203 128.0780 232.0291 14.79961491 45035
KUIPER-00157            
1 65970U 25228Z   26213.00785546  .00002091  00000+0  29427-3 0  9993
2 65970  51.9018  59.8350 0001490  90.8297 269.2836 14.81227491 44915
KUIPER-00144            
1 67133U 25301A   26213.14984028  .00003586  00000+0  49890-3 0  9995
2 67133  51.9005 136.8176 0000866  85.8373 274.2688 14.79954173 35261
KUIPER-00164            
1 67134U 25301B   26213.20388950  .00001301  00000+0  19968-3 0  9991
2 67134  51.9026 149.0879 0000866 105.8705 254.2353 14.79917175 35272
KUIPER-00175            
1 67135U 25301C   26213.45912418  .00003684  00000+0  51194-3 0  9994
2 67135  51.8999 130.4082 0000693 107.0215 253.0823 14.79935539 35452
KUIPER-00179            
1 67136U 25301D   26213.20659997  .00003373  00000+0  47128-3 0  9995
2 67136  51.8974 146.5316 0000728  94.3092 265.7953 14.79931304 35319
KUIPER-00181            
1 67137U 25301E   26213.26065804  .00003253  00000+0  45544-3 0  9997
2 67137  51.9015 158.8376 0001150  88.1295 271.9799 14.79942786 35127
KUIPER-00183            
1 67138U 25301F   26213.19182184  .00003982  00000+0  40398-3 0  9992
2 67138  51.8944 129.8641 0009176 177.0895 183.0128 14.92852001 35530
KUIPER-00184            
1 67139U 25301G   26213.11069044  .00003737  00000+0  51890-3 0  9991
2 67139  51.8989 141.9623 0000752  87.8730 272.2319 14.79934016 35469
KUIPER-00186            
1 67140U 25301H   26213.22690371  .00003288  00000+0  46015-3 0  9992
2 67140  51.9016 158.9974 0000810  76.8632 283.2421 14.79933897 34960
KUIPER-00187            
1 67141U 25301J   26213.56184910  .00001064  00000+0  16853-3 0  9994
2 67141  51.9025 160.0407 0000688  92.0718 268.0323 14.79923596 34972
KUIPER-00188            
1 67142U 25301K   26213.15793028  .00003593  00000+0  49973-3 0  9994
2 67142  51.9016 129.4131 0000883  91.7952 268.3111 14.79964701 35364
KUIPER-00191            
1 67143U 25301L   26213.19851949 -.00000065  00000+0  20524-4 0  9990
2 67143  51.9008 154.1282 0000667 108.2396 251.8639 14.79931547 35054
KUIPER-00196            
1 67144U 25301M   26213.11223676  .00003072  00000+0  46884-3 0  9999
2 67144  51.8982 111.3120 0001924  46.5901 313.5220 14.76359218 35614
KUIPER-00204            
1 67145U 25301N   26213.46452101  .00003777  00000+0  52408-3 0  9996
2 67145  51.9008 125.4407 0000878  77.9788 282.1273 14.79938847 35564
KUIPER-00210            
1 67146U 25301P   26213.56992297  .00003694  00000+0  51338-3 0  9992
2 67146  51.8993 152.4392 0000838  85.0091 275.0967 14.79930410 35258
KUIPER-00221            
1 67147U 25301Q   26213.25793209  .00003222  00000+0  45126-3 0  9996
2 67147  51.9006 161.3469 0000810  74.4011 285.7041 14.79952652 34930
KUIPER-00232            
1 67148U 25301R   26213.51048079 -.00000540  00000+0 -41798-4 0  9998
2 67148  51.8984 145.2501 0001231  78.9714 281.1387 14.79931492 35179
KUIPER-00241            
1 67149U 25301S   26213.26334968  .00003299  00000+0  46165-3 0  9990
2 67149  51.9023 156.3489 0000805  81.0365 279.0688 14.79925386 35339
KUIPER-00245            
1 67150U 25301T   26213.12022095  .00003176  00000+0  44536-3 0  9996
2 67150  51.9018 164.4926 0000716  74.2263 285.8779 14.79932441 34877
KUIPER-00246            
1 67151U 25301U   26213.64282742  .00000071  00000+0  38363-4 0  9994
2 67151  51.8997 147.1288 0000736  99.7561 260.3485 14.79935745 35184
KUIPER-00247            
1 67152U 25301V   26213.18092679 -.00001489  00000+0 -16630-3 0  9990
2 67152  51.8960 139.1370 0000902  92.5628 267.5438 14.79930423 35239
KUIPER-00248            
1 67153U 25301W   26213.46993398  .00002545  00000+0  36279-3 0  9993
2 67153  51.8986 120.4925 0000964 104.8825 255.2244 14.79926159 35680
KUIPER-00249            
1 67154U 25301X   26212.98102851 -.00002978  00000+0 -36181-3 0  9990
2 67154  51.9003 137.5849 0000808  88.2482 271.8573 14.79928172 35234
KUIPER-00250            
1 67155U 25301Y   26213.20122300  .00003575  00000+0  49770-3 0  9998
2 67155  51.8984 151.5638 0000763  88.6811 271.4238 14.79936783 35099
KUIPER-00251            
1 67156U 25301Z   26213.48482099  .00001755  00000+0  25916-3 0  9997
2 67156  51.8999 137.8805 0000829 110.5420 249.5632 14.79925130 35462
KUIPER-00252            
1 67157U 25301AA  26213.21199650  .00003538  00000+0  49280-3 0  9998
2 67157  51.8996 141.5381 0000845  88.1600 271.9459 14.79939909 35206
KUIPER-00261            
1 67158U 25301AB  26213.03239825  .00003339  00000+0  46684-3 0  9992
2 67158  51.9017 152.3884 0000750  83.2265 276.8783 14.79930072 35035
KUIPER-00265            
1 67159U 25301AC  26213.25256887  .00003202  00000+0  44890-3 0  9990
2 67159  51.9014 166.3901 0000620  95.3913 264.7120 14.79923582 34890
KUIPER-00159            
1 67764U 26030A   26213.58335648 -.00004576  00000+0 -48197-3 0  9992
2 67764  51.8989 242.8810 0004751 149.7567 181.0300 14.86841687  5262
KUIPER-00160            
1 67765U 26030B   26213.33776890  .00021376  00000+0  57739-3 0  9991
2 67765  51.8802 239.8999 0005227 204.2970 155.7772 15.37684210 27343
KUIPER-00177            
1 67766U 26030C   26213.46956301 -.00002309  00000+0 -27404-3 0  9996
2 67766  51.9009 292.9101 0000482 105.8054 254.2962 14.79927803 26614
KUIPER-00178            
1 67767U 26030D   26213.50332381 -.00000987  00000+0 -10054-3 0  9991
2 67767  51.8989 292.7408 0001140 104.4958 255.6131 14.79926361 26621
KUIPER-00180            
1 67768U 26030E   26213.50874705  .00003006  00000+0  42311-3 0  9997
2 67768  51.8983 287.7196 0000430  78.2654 281.8357 14.79935471 26696
KUIPER-00197            
1 67769U 26030F   26213.53029976  .00002660  00000+0  37779-3 0  9990
2 67769  51.8981 267.6385 0000357 350.5156   9.5799 14.79934812 26977
KUIPER-00198            
1 67770U 26030G   26213.55058288  .00002904  00000+0  40976-3 0  9996
2 67770  51.8973 280.0284 0000421  82.4602 277.6408 14.79927379 26803
KUIPER-00199            
1 67771U 26030H   26213.36794156  .00018327  00000+0  50642-3 0  9994
2 67771  51.8785 241.5642 0009085 214.6094 145.4302 15.37059612 27328
KUIPER-00200            
1 67772U 26030J   26213.43167178 -.00003960  00000+0 -49064-3 0  9996
2 67772  51.8985 265.5971 0000594  92.1407 267.9624 14.79936621 26993
KUIPER-00203            
1 67773U 26030K   26213.53170497  .00003149  00000+0  44170-3 0  9996
2 67773  51.9068 297.6902 0000388  92.9911 267.1096 14.79947309 26558
KUIPER-00205            
1 67774U 26030L   26213.43439307  .00002433  00000+0  34796-3 0  9992
2 67774  51.8993 263.0409 0000154 102.7752 257.3228 14.79937413 27035
KUIPER-00208            
1 67775U 26030M   26213.50602471  .00003281  00000+0  45922-3 0  9990
2 67775  51.8982 290.2312 0000459 347.0572  13.0378 14.79927381 26654
KUIPER-00209            
1 67776U 26030N   26213.40740851  .00002851  00000+0  40290-3 0  9990
2 67776  51.8998 288.2600 0000355  85.0000 275.1003 14.79916334 26673
KUIPER-00213            
1 67777U 26030P   26213.64642248  .00002981  00000+0  42029-3 0  9994
2 67777  51.8962 284.6776 0000596  56.2692 303.8327 14.79882994 26743
KUIPER-00214            
1 67778U 26030Q   26213.48036978 -.00000784  00000+0 -73918-4 0  9997
2 67778  51.9011 282.9291 0000390  98.1298 261.9709 14.79927446 26753
KUIPER-00215            
1 67779U 26030R   26213.46007253 -.00001851  00000+0 -21387-3 0  9998
2 67779  51.8983 270.3810 0000354  69.0272 291.0728 14.79925700 26934
KUIPER-00218            
1 67780U 26030S   26213.41011450  .00002871  00000+0  40540-3 0  9992
2 67780  51.8977 285.6441 0000344  69.3841 290.7158 14.79942346 26716
KUIPER-00220            
1 67781U 26030T   26213.43709318  .00002478  00000+0  35401-3 0  9995
2 67781  51.8942 260.5585 0000591  83.0867 277.0163 14.79925770 27060
KUIPER-00222            
1 67782U 26030U   26213.38177980  .00002849  00000+0  40244-3 0  9997
2 67782  51.8985 280.9266 0000340  87.7965 272.3037 14.79938836 26774
KUIPER-00223            
1 67783U 26030V   26213.35607350  .00002669  00000+0  37897-3 0  9994
2 67783  51.9007 273.3380 0000347  91.9474 268.1528 14.79934053 26880
KUIPER-00225            
1 67784U 26030W   26213.48575940  .00002643  00000+0  37553-3 0  9999
2 67784  51.8978 277.9240 0000344  89.9035 270.1967 14.79935029 26827
KUIPER-00226            
1 67785U 26030X   26213.44019431  .00001680  00000+0  27031-3 0  9994
2 67785  51.8987 264.5457 0003139 211.0446 149.0330 14.76378610 27013
KUIPER-00259            
1 67786U 26030Y   26213.58703917 -.00001865  00000+0 -21573-3 0  9991
2 67786  51.8981 277.3780 0000324 100.9390 259.1609 14.79925920 26843
KUIPER-00260            
1 67787U 26030Z   26213.45469547  .00002650  00000+0  37647-3 0  9996
2 67787  51.9002 275.5631 0000338  90.0352 270.0649 14.79931747 26767
KUIPER-00262            
1 67788U 26030AA  26213.42090226  .00003068  00000+0  43123-3 0  9998
2 67788  51.8995 275.6299 0000762 319.0686  41.0219 14.79941309 26858
KUIPER-00266            
1 67789U 26030AB  26213.45735812  .00000201  00000+0  55430-4 0  9990
2 67789  51.8981 272.9639 0000880 245.3688 114.7183 14.79919239 26895
KUIPER-00268            
1 67790U 26030AC  26213.35879467  .00002519  00000+0  35928-3 0  9999
2 67790  51.9033 270.9232 0000252  70.2823 289.8167 14.79932925 26918
KUIPER-00270            
1 67791U 26030AD  26213.53839894 -.00001937  00000+0 -22511-3 0  9999
2 67791  51.8973 260.1044 0000531 118.1354 241.9662 14.79937292 27084
KUIPER-00274            
1 67792U 26030AE  26213.44658537  .00002881  00000+0  40672-3 0  9998
2 67792  51.9020 283.0101 0000180 344.1133  15.9823 14.79937278 26758
KUIPER-00275            
1 67793U 26030AF  26213.53569072  .00002544  00000+0  36258-3 0  9995
2 67793  51.8989 262.6207 0000241  41.8892 318.2089 14.79934129 27041
KUIPER-00276            
1 67794U 26030AG  26213.49652446 -.00001253  00000+0 -13538-3 0  9993
2 67794  51.8978 267.7758 0001259 208.7880 151.3013 14.79930892 26975
KUIPER-00279            
1 67795U 26030AH  26213.54108792  .00002501  00000+0  35688-3 0  9995
2 67795  51.9015 257.6112 0000467 290.9038  69.1874 14.79936367 27110
KUIPER-00131            
1 68573U 26072A   26213.67227450  .00000101  00000+0  42337-4 0  9997
2 68573  51.9011 354.5141 0001226 107.7698 252.3399 14.79931589 17850
KUIPER-00189            
1 68574U 26072B   26213.63581472  .00002361  00000+0  33869-3 0  9990
2 68574  51.9018 357.1598 0000754 108.6038 251.5007 14.79924045 17818
KUIPER-00192            
1 68575U 26072C   26213.67496868 -.00002349  00000+0 -27932-3 0  9991
2 68575  51.9018 351.9999 0000785 106.6023 253.5026 14.79924955 17893
KUIPER-00193            
1 68576U 26072D   26213.55069159  .00003815  00000+0  52892-3 0  9998
2 68576  51.9068 342.5748 0001330  32.5863 327.5181 14.79954639 18014
KUIPER-00194            
1 68577U 26072E   26213.64389140  .00003768  00000+0  52286-3 0  9998
2 68577  51.9029 349.6538 0000264 119.1285 240.9704 14.79944178 17927
KUIPER-00229            
1 68578U 26072F   26213.57098300  .00003820  00000+0  52967-3 0  9991
2 68578  51.9028 354.9616 0000471 107.6014 252.5000 14.79939411 17848
KUIPER-00230            
1 68579U 26072G   26213.59775604  .00031693  00000+0  83166-3 0  9997
2 68579  51.8771 316.8176 0000993 189.3449 170.7520 15.38362852 18371
KUIPER-00231            
1 68580U 26072H   26213.52609711  .00002177  00000+0  34057-3 0  9997
2 68580  51.8989 327.6726 0004884  75.6610 284.4892 14.76448658 18213
KUIPER-00234            
1 68581U 26072J   26213.61014775  .00004019  00000+0  55581-3 0  9990
2 68581  51.9012 349.7774 0000112  49.5798 310.5174 14.79934347 17915
KUIPER-00236            
1 68582U 26072K   26213.55737860  .00024375  00000+0  64435-3 0  9996
2 68582  51.8777 317.2965 0001755 176.9606 183.1393 15.38279129 18365
KUIPER-00244            
1 68583U 26072L   26213.65469689  .00004058  00000+0  56087-3 0  9999
2 68583  51.9012 339.6039 0000743 162.7602 197.3386 14.79941077 18062
KUIPER-00253            
1 68584U 26072M   26213.65199575  .00003738  00000+0  51907-3 0  9994
2 68584  51.9055 342.1258 0000478  84.8719 275.2298 14.79931098 18026
KUIPER-00254            
1 68585U 26072N   26213.54800456  .00003820  00000+0  52964-3 0  9996
2 68585  51.9046 345.0838 0001072 161.2310 198.8692 14.79945348 17975
KUIPER-00263            
1 68586U 26072P   26213.63173000  .00003988  00000+0  55157-3 0  9997
2 68586  51.9029 329.7879 0000321  99.4238 260.6761 14.79954141 18199
KUIPER-00269            
1 68587U 26072Q   26213.62912208  .00003859  00000+0  53519-3 0  9995
2 68587  51.9012 332.2154 0000340  70.2631 289.8368 14.79913989 18160
KUIPER-00272            
1 68588U 26072R   26213.64120498  .00003936  00000+0  54482-3 0  9996
2 68588  51.8994 352.1355 0000474 122.4358 237.6650 14.79943998 17883
KUIPER-00285            
1 68589U 26072S   26213.59526678  .00004017  00000+0  55574-3 0  9995
2 68589  51.9057 332.4262 0000970 200.6105 159.4818 14.79926030 18159
KUIPER-00286            
1 68590U 26072T   26213.59676083  .00188478  00000+0  25530-1 0  9994
2 68590  51.9036 329.8498 0000317 151.6478 208.4501 14.77431234 18195
KUIPER-00289            
1 68591U 26072U   26213.65738200 -.00000435  00000+0 -28116-4 0  9996
2 68591  51.9017 337.0820 0000473 101.1608 258.9408 14.79927729 18099
KUIPER-00290            
1 68592U 26072V   26213.65448369  .00002279  00000+0  35516-3 0  9998
2 68592  51.9034 336.0159 0000694 170.5857 189.5117 14.76438043 18116
KUIPER-00293            
1 68593U 26072W   26213.64660562  .00003795  00000+0  52650-3 0  9991
2 68593  51.8997 347.1137 0001580 182.3789 177.7166 14.79937634 17950
KUIPER-00294            
1 68594U 26072X   26213.52501245  .00003562  00000+0  49588-3 0  9999
2 68594  51.9002 335.1667 0001206  88.3646 271.7454 14.79939934 18115
KUIPER-00296            
1 68595U 26072Y   26213.58335648 -.01494969  00000+0 -10577+0 0  9998
2 68595  51.8864 318.8322 0008328 165.0624 219.7104 15.07780120  5302
KUIPER-00297            
1 68596U 26072Z   26213.61290816  .00004042  00000+0  55904-3 0  9993
2 68596  51.9009 347.2545 0001402  13.2798 346.8202 14.79926861 17957
KUIPER-00300            
1 68597U 26072AA  26213.62332407  .00002373  00000+0  36782-3 0  9996
2 68597  51.9041 344.4628 0001455 190.0879 170.0053 14.76517311 17995
KUIPER-00301            
1 68598U 26072AB  26213.58335648 -.00342554  00000+0 -15296-1 0  9997
2 68598  51.8789 317.6039 0007098 182.8104  13.1415 15.22387153  4054
KUIPER-00304            
1 68599U 26072AC  26213.58335648 -.02099845  00000+0 -99607-1 0  9990
2 68599  51.8753 318.1255 0009422 184.5056 144.6134 15.22381713  4773
KUIPER-00317            
1 68600U 26072AD  26213.55878758  .00000468  00000+0  90383-4 0  9998
2 68600  51.8989 335.0273 0000463  88.8807 271.2209 14.79924796 18119
KUIPER-00320            
1 68601U 26072AE  26213.62091488  .00004024  00000+0  55641-3 0  9993
2 68601  51.9047 339.7511 0000431 102.2562 257.8449 14.79944556 18051
KUIPER-00299            
1 68864U 26095A   26213.00895269  .00002327  00000+0  36192-3 0  9994
2 68864  51.8998  51.4274 0001812 342.5330  17.5568 14.76443630 14262
KUIPER-00353            
1 68865U 26095B   26213.49406723 -.00000603  00000+0 -50038-4 0  9994
2 68865  51.9004  35.3105 0000955 127.2992 232.8058 14.79933211 14533
KUIPER-00357            
1 68866U 26095C   26213.24963130  .00002505  00000+0  35758-3 0  9990
2 68866  51.9018  43.8951 0000903 141.7900 218.3127 14.79925565 14398
KUIPER-00364            
1 68867U 26095D   26213.48327691 -.00001112  00000+0 -11683-3 0  9999
2 68867  51.9024  45.3745 0000725 186.6335 173.4618 14.79936962 14395
KUIPER-00375            
1 68868U 26095E   26213.50289992  .00002161  00000+0  33834-3 0  9999
2 68868  51.9013  37.5446 0003245 145.9479 214.1691 14.76437039 14507
KUIPER-00433            
1 68869U 26095F   26213.57644978  .00003535  00000+0  49269-3 0  9991
2 68869  51.9002  52.4447 0000875 114.4155 245.6898 14.79916833 14304
KUIPER-00437            
1 68870U 26095G   26213.63384829  .00014133  00000+0  39094-3 0  9997
2 68870  51.8792  22.4253 0007069 109.9849 250.1900 15.37253461 14721
KUIPER-00448            
1 68871U 26095H   26213.49527403  .00002103  00000+0  32984-3 0  9994
2 68871  51.9030  41.5010 0001175 217.0586 143.0294 14.76468428 14440
KUIPER-00459            
1 68872U 26095J   26213.58335648 -.00054503  00000+0 -70609-2 0  9991
2 68872  51.9029  29.7711 0001266 189.6911 182.3000 14.80623126  3826
KUIPER-00468            
1 68873U 26095K   26213.58335648 -.00096443  00000+0 -89424-2 0  9996
2 68873  51.8957  26.8901 0004785  50.6720 156.4198 14.94478777  5286
KUIPER-00476            
1 68874U 26095L   26213.48097895  .00017555  00000+0  58171-3 0  9996
2 68874  51.8741  25.0522 0009854  99.3426 260.8673 15.31325676 14675
KUIPER-00478            
1 68875U 26095M   26213.58335648 -.00017988  00000+0 -23334-2 0  9993
2 68875  51.8996  32.4232 0000558 261.7150  20.2138 14.79993673  4503
KUIPER-00480            
1 68876U 26095N   26213.58335648 -.00020676  00000+0 -29148-2 0  9991
2 68876  51.9031  29.5758 0000972 315.0039 310.6145 14.76572322  5397
KUIPER-00482            
1 68877U 26095P   26213.55612877  .00003362  00000+0  46981-3 0  9997
2 68877  51.9007  40.0359 0001580 147.6700 212.4359 14.79929971 14470
KUIPER-00483            
1 68878U 26095Q   26213.00240512 -.00007275  00000+0 -92623-3 0  9994
2 68878  51.8988  54.9588 0002629 133.5955 226.5226 14.79930483 14218
KUIPER-00488            
1 68879U 26095R   26213.66291073 -.00001441  00000+0 -16009-3 0  9998
2 68879  51.8999  34.5768 0000561 107.7225 252.3799 14.79928136 14552
KUIPER-00489            
1 68880U 26095S   26213.58335648 -.00100881  00000+0 -10638-1 0  9996
2 68880  51.8967  27.4364 0010732  89.5851 152.3146 14.89364273  4602
KUIPER-00499            
1 68881U 26095T   26213.49669612  .00003279  00000+0  45839-3 0  9992
2 68881  51.8999  32.8535 0001093 141.9917 218.1122 14.79977208 14562
KUIPER-00500            
1 68882U 26095U   26213.00517220  .00003505  00000+0  48845-3 0  9999
2 68882  51.9009  52.4726 0001004 104.6896 255.4177 14.79941071 14259
KUIPER-00502            
1 68883U 26095V   26213.58335648 -.00021926  00000+0 -19843-2 0  9999
2 68883  51.8972  26.4091 0005973  83.6072 273.8082 14.94653435  4782
KUIPER-00503            
1 68884U 26095W   26212.97411261 -.00001424  00000+0 -15782-3 0  9998
2 68884  51.8979  50.0969 0000961 110.9935 249.1130 14.79924661 14282
KUIPER-00504            
1 68885U 26095X   26213.54003220  .00003366  00000+0  47019-3 0  9998
2 68885  51.9016  55.1092 0000772 106.8398 253.2649 14.79939982 14267
KUIPER-00505            
1 68886U 26095Y   26212.84174056 -.00001768  00000+0 -20302-3 0  9999
2 68886  51.9003  48.1990 0000786 108.9429 251.1619 14.79926949 14292
KUIPER-00507            
1 68887U 26095Z   26213.58335648  .00023885  00000+0  31634-2 0  9999
2 68887  51.9005  34.9091 0000363 133.4280 252.8324 14.79766129  5236
KUIPER-00511            
1 68888U 26095AA  26213.58335648 -.00042685  00000+0 -49498-2 0  9998
2 68888  51.9003  27.6310 0006052  44.6958 337.8475 14.85071773  4156
KUIPER-00512            
1 68889U 26095AB  26213.54811987  .00003161  00000+0  44337-3 0  9992
2 68889  51.9010  47.5755 0000611 110.0147 250.0881 14.79934894 14368
KUIPER-00519            
1 68890U 26095AC  26213.55891314  .00000817  00000+0  13630-3 0  9994
2 68890  51.9012  37.5883 0002459  68.5836 291.5388 14.79927858 14507
KUIPER-00521            
1 68891U 26095AD  26213.48944971  .00002495  00000+0  35761-3 0  9998
2 68891  51.9030  31.5874 0001454 123.9358 236.1742 14.79753291 14586
KUIPER-00524            
1 68892U 26095AE  26213.24514997  .00002323  00000+0  36135-3 0  9990
2 68892  51.8982  40.6372 0002224 150.5415 209.5671 14.76454196 14430
KUIPER-00370            
1 68919U 26098A   26213.58335648 -.00046483  00000+0 -60491-2 0  9992
2 68919  51.8975 217.2539 0003648  42.5760 151.0783 14.80350303  2390
KUIPER-00380            
1 68920U 26098B   26213.58335648 -.01087580  00000+0 -68425-1 0  9992
2 68920  51.8853 211.8689 0004225 327.2167 279.6128 15.11575463  4190
KUIPER-00386            
1 68921U 26098C   26213.58335648 -.00046961  00000+0 -53630-2 0  9993
2 68921  51.8974 212.3483 0002828  63.4629  26.6679 14.85755734  5308
KUIPER-00388            
1 68922U 26098D   26213.40510266  .00001507  00000+0  24530-3 0  9999
2 68922  51.8991 223.3108 0001455  83.5741 276.5385 14.76432923 14107
KUIPER-00405            
1 68923U 26098E   26213.58335648 -.00010991  00000+0 -14158-2 0  9991
2 68923  51.8991 219.9246 0001595  76.3489  23.5590 14.79908970  4915
KUIPER-00408            
1 68924U 26098F   26213.58335648 -.01097635  00000+0 -73179-1 0  9990
2 68924  51.8829 213.9799 0014143 315.1391  22.2597 15.09392955  2445
KUIPER-00409            
1 68925U 26098G   26213.58335648 -.00015220  00000+0 -21369-2 0  9995
2 68925  51.8993 217.3493 0002698  33.6503 268.9103 14.76548413  5110
KUIPER-00410            
1 68926U 26098H   26213.58335648 -.00091212  00000+0 -87158-2 0  9999
2 68926  51.8939 215.2442 0014556 303.6263 128.0248 14.93177830  4914
KUIPER-00412            
1 68927U 26098J   26213.58335648 -.01328837  00000+0 -84725-1 0  9993
2 68927  51.8921 208.8369 0005087  53.7794 260.0724 15.11200545  4910
KUIPER-00413            
1 68928U 26098K   26213.58335648 -.00021004  00000+0 -27305-2 0  9991
2 68928  51.8969 219.9163 0001614  32.0925 157.8025 14.79996181  5803
KUIPER-00414            
1 68929U 26098L   26213.30062929  .00000062  00000+0  37235-4 0  9995
2 68929  51.8943 231.2609 0001548 341.3573  18.7332 14.79929383 13983
KUIPER-00415            
1 68930U 26098M   26213.58335648 -.00034996  00000+0 -29698-2 0  9995
2 68930  51.8939 213.0970 0006400 317.0745  39.6608 14.97391984  4957
KUIPER-00416            
1 68931U 26098N   26213.58335648 -.00011288  00000+0 -38208-3 0  9993
2 68931  51.8785 207.8739 0002322  54.1643 358.9554 15.29095565  3640
KUIPER-00420            
1 68932U 26098P   26213.58335648 -.00016410  00000+0 -57290-3 0  9998
2 68932  51.8784 208.5602 0003873 359.0877 124.6114 15.28438939  3763
KUIPER-00421            
1 68933U 26098Q   26213.58335648 -.01177503  00000+0 -75402-1 0  9994
2 68933  51.8843 211.6902 0007527 297.8931 105.4462 15.11145160  4484
KUIPER-00425            
1 68934U 26098R   26213.58335648 -.00051991  00000+0 -66432-2 0  9990
2 68934  51.8979 217.4319 0002823 302.5730  48.9434 14.81172077  4917
KUIPER-00430            
1 68935U 26098S   26213.37889949  .00028621  00000+0  37676-2 0  9996
2 68935  51.9015 220.7087 0001363  24.3103 335.7923 14.79929962 14146
KUIPER-00431            
1 68936U 26098T   26213.44377303  .00001924  00000+0  28130-3 0  9994
2 68936  51.8967 223.0298 0000718  52.6693 307.4335 14.79925103 14116
KUIPER-00432            
1 68937U 26098U   26213.58335648 -.00034478  00000+0 -34866-2 0  9990
2 68937  51.8945 215.0556 0011807 307.4356 247.9201 14.90461535  5835
KUIPER-00434            
1 68938U 26098V   26213.52361593  .00001844  00000+0  29227-3 0  9998
2 68938  51.8978 217.9689 0000854 348.7923  11.3019 14.76585455 14199
KUIPER-00436            
1 68939U 26098W   26213.58335648 -.00012259  00000+0 -15969-2 0  9998
2 68939  51.8972 217.4160 0001459 143.7547 305.8293 14.79537580  4991
KUIPER-00438            
1 68940U 26098X   26213.58335648 -.00057410  00000+0 -70481-2 0  9998
2 68940  51.9006 214.9680 0001606 343.2506  69.6863 14.82884943  5202
KUIPER-00439            
1 68941U 26098Y   26213.58335648 -.00035907  00000+0 -43633-2 0  9995
2 68941  51.9015 214.9606 0002028 359.1139 142.2175 14.83078551  4572
KUIPER-00440            
1 68942U 26098Z   26213.58335648 -.02544408  00000+0 -11921+0 0  9991
2 68942  51.8820 210.4664 0003771   7.9373 247.6492 15.22981594  4481
KUIPER-00442            
1 68943U 26098AA  26213.58335648 -.01550230  00000+0 -10752+0 0  9992
2 68943  51.8906 210.5812 0001917 351.1152 149.6956 15.08693518  3421
KUIPER-00446            
1 68944U 26098AB  26213.58335648 -.00031417  00000+0 -31031-2 0  9999
2 68944  51.8965 212.7478 0002252 346.8157 107.2107 14.91410351  5634
KUIPER-00451            
1 68945U 26098AC  26213.32554859 -.00003653  00000+0 -45074-3 0  9993
2 68945  51.8980 223.5590 0000368  19.1090 340.9886 14.79900121 14094
KUIPER-00452            
1 68946U 26098AD  26213.58335648 -.00027294  00000+0 -21288-2 0  9992
2 68946  51.8914 210.7668 0003774 301.3681 186.2316 15.00512022  3723
KUIPER-00453            
1 68947U 26098AE  26213.58335648 -.01239986  00000+0 -74831-1 0  9998
2 68947  51.8929 209.0162 0003714  13.8409 269.9065 15.13457312  5374
KUIPER-00454            
1 68948U 26098AF  26213.44402350  .00001747  00000+0  27936-3 0  9994
2 68948  51.8983 224.5109 0003072 195.2978 164.7891 14.76456993 14091
KUIPER-00455            
1 68949U 26098AG  26213.22432891  .00001981  00000+0  28881-3 0  9994
2 68949  51.8983 224.0089 0002078 336.8352  23.2516 14.79942219 14084
KUIPER-00458            
1 68950U 26098AH  26213.58335648 -.01071790  00000+0 -67598-1 0  9991
2 68950  51.8840 209.2087 0002590  59.2245  30.1562 15.11458209  1551
KUIPER-00282            
1 69267U 26118A   26213.58335648 -.00048655  00000+0 -58810-2 0  9997
2 69267  51.8977 199.9689 0013167  10.0801 127.1240 14.83375341  5627
KUIPER-00383            
1 69268U 26118B   26213.58335648 -.00042309  00000+0 -38339-2 0  9992
2 69268  51.8905 197.9015 0011485 345.6515 188.0753 14.94894927  4666
KUIPER-00527            
1 69269U 26118C   26213.58335648 -.00050379  00000+0 -48463-2 0  9998
2 69269  51.8938 197.9922 0006684  25.7132  14.3912 14.92666118  4616
KUIPER-00562            
1 69270U 26118D   26213.58335648 -.01831952  00000+0 -76576-1 0  9990
2 69270  51.8779 193.6784 0001260 337.4711 167.5817 15.26764295  4956
KUIPER-00570            
1 69271U 26118E   26213.58335648 -.00028197  00000+0 -36860-2 0  9992
2 69271  51.8979 202.5251 0000201 314.1013 314.7018 14.79924160  5573
KUIPER-00572            
1 69272U 26118F   26213.58335648 -.00108026  00000+0 -99250-2 0  9995
2 69272  51.8911 197.5881 0005504   0.3517 269.4788 14.94910200  5326
KUIPER-00581            
1 69273U 26118G   26213.38096467 -.00004789  00000+0 -59905-3 0  9992
2 69273  51.9000 203.3126 0003386  31.4401 328.6764 14.79957474 10907
KUIPER-00584            
1 69274U 26118H   26213.42891000 -.00001274  00000+0 -13806-3 0  9990
2 69274  51.8986 205.7161 0000941  68.0708 292.0354 14.79962571 10784
KUIPER-00587            
1 69275U 26118J   26213.58335648 -.01708578  00000+0 -12474+0 0  9997
2 69275  51.8845 195.6049 0008875 354.4947 289.2867 15.06525951  3509
KUIPER-00590            
1 69276U 26118K   26213.58335648 -.00070954  00000+0 -88899-2 0  9994
2 69276  51.9007 199.9073 0001479 215.1055 138.6261 14.82156613  5528
KUIPER-00592            
1 69277U 26118L   26213.58335648 -.00080720  00000+0 -96390-2 0  9992
2 69277  51.9006 199.3072 0005184 350.2194 337.3812 14.84205516  4172
KUIPER-00593            
1 69278U 26118M   26213.21018657  .00012176  00000+0  33715-3 0  9992
2 69278  51.8703 195.1818 0003284 349.7548  10.3372 15.37378234 10974
KUIPER-00594            
1 69279U 26118N   26213.53997215  .00020379  00000+0  56062-3 0  9998
2 69279  51.8695 193.6400 0001841  88.6357 271.4840 15.37156688 10965
KUIPER-00595            
1 69280U 26118P   26213.34717431  .00021223  00000+0  57071-3 0  9999
2 69280  51.8702 194.5979 0001749  44.8753 315.2375 15.37835480 10962
KUIPER-00596            
1 69281U 26118Q   26213.41198286 -.00002684  00000+0 -32322-3 0  9993
2 69281  51.8992 205.6791 0000381 151.4072 208.6911 14.79939071 10787
KUIPER-00597            
1 69282U 26118R   26213.24067032  .00013806  00000+0  37205-3 0  9990
2 69282  51.8636 195.3473 0006601 354.8007   5.2910 15.38088625 10914
KUIPER-00599            
1 69283U 26118S   26213.58335648 -.00204209  00000+0 -14958-1 0  9998
2 69283  51.8886 195.9860 0007313 312.5133 180.3946 15.04122241  4597
KUIPER-00600            
1 69284U 26118T   26213.64454275  .00026470  00000+0  70924-3 0  9991
2 69284  51.8627 193.5442 0008485 355.8811   4.2104 15.37785601 10975
KUIPER-00601            
1 69285U 26118U   26213.58335648 -.00074940  00000+0 -10096-1 0  9996
2 69285  51.9004 199.6224 0004730  72.7898 334.9190 14.79146703  3148
KUIPER-00602            
1 69286U 26118V   26213.58335648 -.01228657  00000+0 -64266-1 0  9992
2 69286  51.8861 194.3578 0003993 336.2670 209.4391 15.18416838  4502
KUIPER-00603            
1 69287U 26118W   26213.58335648 -.01834214  00000+0 -14763+0 0  9990
2 69287  51.8882 195.6086 0002521 352.4596 187.5591 15.03232803  4776
KUIPER-00605            
1 69288U 26118X   26213.27967269  .00002308  00000+0  33170-3 0  9992
2 69288  51.8969 203.7584 0000875 166.0198 194.0789 14.79925581 10801
KUIPER-00606            
1 69289U 26118Y   26213.58335648 -.00090271  00000+0 -70033-2 0  9993
2 69289  51.8912 195.8691 0000672  32.6447  76.4680 15.01323532  5126
KUIPER-00607            
1 69290U 26118Z   26213.42305372  .00015728  00000+0  41869-3 0  9997
2 69290  51.8663 194.3395 0005417 342.8675  17.2128 15.38359692 10949
KUIPER-00608            
1 69291U 26118AA  26213.36095155  .00009720  00000+0  32195-3 0  9993
2 69291  51.8604 196.0925 0010491   3.4446 356.6608 15.31902783 10915
KUIPER-00610            
1 69292U 26118AB  26213.58335648 -.00069865  00000+0 -36742-2 0  9991
2 69292  51.8827 194.1396 0001588  21.1046 226.3515 15.15384630  4868
KUIPER-00613            
1 69293U 26118AC  26213.36416540  .00007955  00000+0  10714-2 0  9990
2 69293  51.8984 203.3933 0001062  98.4408 261.6674 14.79927210 10815
KUIPER-00618            
1 69294U 26118AD  26213.58335648 -.01848425  00000+0 -72490-1 0  9990
2 69294  51.8752 193.6979 0000819  95.7213   9.7698 15.28874266  4461
KUIPER-00620            
1 69295U 26118AE  26213.58335648 -.02400489  00000+0 -14563+0 0  9991
2 69295  51.8865 194.3929 0002577 346.1649 173.4899 15.13892347  4117
KUIPER-00423            
1 69592U 26140A   26213.33019280  .00034528  00000+0  89310-3 0  9999
2 69592  51.8791 180.0565 0013124 335.5039  24.5323 15.38682733  8180
KUIPER-00428            
1 69593U 26140B   26213.38562428  .00013405  00000+0  37346-3 0  9995
2 69593  51.8797 180.4126 0007708  84.8972 275.2894 15.37076638  8183
KUIPER-00481            
1 69594U 26140C   26213.08626923  .00188317  00000+0  47028-2 0  9996
2 69594  51.8768 181.4080 0010749   6.1206 353.9911 15.38885712  8140
KUIPER-00490            
1 69595U 26140D   26213.58335648 -.00316414  00000+0 -10772-1 0  9991
2 69595  51.8804 179.2936 0007133  33.9050  69.0974 15.31181608  4084
KUIPER-00493            
1 69596U 26140E   26213.58335648 -.00076587  00000+0 -53956-2 0  9998
2 69596  51.8926 181.1878 0009217  97.2077 128.0382 15.04809071  4275
KUIPER-00496            
1 69597U 26140F   26213.38854640 -.00001032  00000+0 -20235-4 0  9994
2 69597  51.8779 181.1546 0010796 105.9955 254.2220 15.32912811  8174
KUIPER-00513            
1 69598U 26140G   26213.58335648 -.01325654  00000+0 -48861-1 0  9991
2 69598  51.8833 179.2135 0007214  40.6788  89.3126 15.30239432  3871
KUIPER-00516            
1 69599U 26140H   26213.30048201  .00022570  00000+0  60287-3 0  9994
2 69599  51.8783 180.5871 0006945  53.7539 306.4089 15.37987228  8176
KUIPER-00517            
1 69600U 26140J   26213.40529810  .00012398  00000+0  34368-3 0  9996
2 69600  51.8757 179.7920 0010704 358.2752   1.8196 15.37283756  8195
KUIPER-00520            
1 69601U 26140K   26213.58335648 -.02445175  00000+0 -13003+0 0  9996
2 69601  51.8860 179.9074 0006151  63.4813  80.9967 15.18510367  3848
KUIPER-00522            
1 69602U 26140L   26213.58335648 -.00020821  00000+0 -55836-3 0  9996
2 69602  51.8768 178.8451 0013138 330.4763 340.9421 15.36840530  4817
KUIPER-00528            
1 69603U 26140M   26213.58335648 -.01185134  00000+0 -66836-1 0  9997
2 69603  51.8916 180.0994 0007239  63.4745 304.4368 15.15663912  5650
KUIPER-00532            
1 69604U 26140N   26213.32794269  .00014415  00000+0  40473-3 0  9999
2 69604  51.8775 180.7640 0005833  91.4159 268.7496 15.36776756  8175
KUIPER-00533            
1 69605U 26140P   26213.21615798  .00026932  00000+0  70238-3 0  9996
2 69605  51.8771 180.7781 0008109  27.2183 332.9228 15.38611620  8167
KUIPER-00534            
1 69606U 26140Q   26213.20578334  .00007454  00000+0  21698-3 0  9994
2 69606  51.8788 180.7234 0012569 329.9647  30.0618 15.36390040  8168
KUIPER-00537            
1 69607U 26140R   26213.58335648 -.01155561  00000+0 -69866-1 0  9998
2 69607  51.8900 181.3945 0010799 124.8488  64.0575 15.13093045  5839
KUIPER-00538            
1 69608U 26140S   26213.58335648 -.01686239  00000+0 -81271-1 0  9994
2 69608  51.8848 179.9301 0007131  46.2645 133.0320 15.21673942  4909
KUIPER-00540            
1 69609U 26140T   26213.38296552  .00014024  00000+0  38797-3 0  9994
2 69609  51.8804 180.4010 0006690  79.5588 280.6152 15.37259430  8185
KUIPER-00541            
1 69610U 26140U   26213.34567212  .00021618  00000+0  56614-3 0  9991
2 69610  51.8809 180.1625 0008261  20.2253 339.9060 15.38615245  8186
KUIPER-00542            
1 69611U 26140V   26213.60390683  .00022865  00000+0  59931-3 0  9997
2 69611  51.8785 178.8763 0008036  10.9573 349.1588 15.38555830  8224
KUIPER-00543            
1 69612U 26140W   26213.32607824  .00028480  00000+0  78862-3 0  9998
2 69612  51.8771 180.7482 0008104  90.1467 270.0448 15.36727344  8178
KUIPER-00544            
1 69613U 26140X   26213.28456820  .00021951  00000+0  57545-3 0  9993
2 69613  51.8777 180.4855 0007402  21.6054 338.5244 15.38580738  8177
KUIPER-00546            
1 69614U 26140Y   26213.33004096  .00029496  00000+0  77400-3 0  9998
2 69614  51.8778 180.0455 0014275 325.8879  34.1190 15.38305117  8187
KUIPER-00547            
1 69615U 26140Z   26213.60811804  .00021434  00000+0  57010-3 0  9991
2 69615  51.8809 178.9191 0010799 351.9130   8.1682 15.38118621  8227
KUIPER-00549            
1 69616U 26140AA  26213.18037777  .00023779  00000+0  64719-3 0  9992
2 69616  51.8785 181.2801 0007123  74.4887 285.6886 15.37373023  8157
KUIPER-00550            
1 69617U 26140AB  26213.16821539 -.00006522  00000+0 -20840-3 0  9994
2 69617  51.8799 182.6653 0009126 116.6659 243.5260 15.30074680  8131
KUIPER-00551            
1 69618U 26140AC  26213.20556336  .00024285  00000+0  63455-3 0  9993
2 69618  51.8769 180.7081 0012319 342.0518  18.0033 15.38572735  8168
KUIPER-00554            
1 69619U 26140AD  26213.34444987  .00014367  00000+0  38348-3 0  9990
2 69619  51.8779 180.1375 0011359 352.6360   7.4459 15.38311302  8182
KUIPER-00555            
1 69620U 26140AE  26213.34349374  .00012652  00000+0  34160-3 0  9999
2 69620  51.8803 180.1467 0011051 341.5583  18.5002 15.38080420  8188
KUIPER-00556            
1 69621U 26140AF  26213.20722308  .00027469  00000+0  71577-3 0  9992
2 69621  51.8797 180.7311 0012401 329.4603  30.5661 15.38584316  8169
KUIPER-00557            
1 69622U 26140AG  26213.61566715  .00023670  00000+0  63380-3 0  9999
2 69622  51.8802 178.9630 0009942   4.4556 355.6517 15.37858422  8222
KUIPER-00560            
1 69623U 26140AH  26213.41784134  .00012092  00000+0  33618-3 0  9992
2 69623  51.8778 179.8776 0009905  14.1986 345.9277 15.37226751  8195
KUIPER-00561            
1 69624U 26140AJ  26213.28055703  .00022124  00000+0  60538-3 0  9999
2 69624  51.8800 180.4757 0008117   6.5234 353.5857 15.37244020  8170
KUIPER-00564            
1 69625U 26140AK  26213.42155691  .00022757  00000+0  61900-3 0  9999
2 69625  51.8800 179.9123 0009550   5.6149 354.4943 15.37400287  8195
KUIPER-00567            
1 69626U 26140AL  26213.20515981  .00001595  00000+0  51945-4 0  9994
2 69626  51.8757 180.7023 0012421 331.7283  28.3029 15.38322920  8166
KUIPER-00573            
1 69627U 26140AM  26213.61947229  .00012174  00000+0  33195-3 0  9995
2 69627  51.8791 178.9751 0009574 348.6671  11.4099 15.37827329  8224
KUIPER-00258            
1 69763U 26151A   26213.39464540  .00027757  00000+0  83703-3 0  9996
2 69763  51.8685  97.7365 0011631 232.5278 127.4650 15.34030287  4657
KUIPER-00526            
1 69764U 26151B   26213.58335648 -.02285719  00000+0 -12964+0 0  9999
2 69764  51.8895  97.1909 0004727 229.5726 265.0385 15.16048961  4811
KUIPER-00558            
1 69765U 26151C   26213.58335648 -.00885032  00000+0 -45394-1 0  9997
2 69765  51.8853  97.6570 0007285 214.7119  66.9327 15.18595402  5295
KUIPER-00569            
1 69766U 26151D   26213.58335648 -.00282895  00000+0 -10645-1 0  9997
2 69766  51.8809  96.5424 0005698 224.6496 270.5273 15.27811075  3789
KUIPER-00589            
1 69767U 26151E   26213.58335648 -.01159667  00000+0 -56544-1 0  9997
2 69767  51.8865  96.9704 0004399 232.3421   0.6415 15.20645088  5322
KUIPER-00598            
1 69768U 26151F   26213.65945586  .00020048  00000+0  62357-3 0  9992
2 69768  51.8659  96.5020 0008632 220.7479 139.2861 15.33271568  4694
KUIPER-00604            
1 69769U 26151G   26213.26590169 -.00301901  00000+0 -83033-2 0  9998
2 69769  51.8811  97.6617 0003082 180.8500 179.2483 15.37832163  4641
KUIPER-00609            
1 69770U 26151H   26213.33337963 -.00012930  00000+0 -32858-3 0  9990
2 69770  51.8805  97.2712 0000887  76.2719 330.0391 15.38199685  3996
KUIPER-00611            
1 69771U 26151J   26212.09065502  .00037361  00000+0  96150-3 0  9998
2 69771  51.8818 103.2841 0001225 155.6022 204.5024 15.38880315  4466
KUIPER-00612            
1 69772U 26151K   26213.58335648  .00057143  00000+0  19860-2 0  9997
2 69772  51.8820  96.3902 0002576 195.7455   0.7791 15.29183613  2029
KUIPER-00614            
1 69773U 26151L   26213.58335648  .00066741  00000+0  19608-2 0  9992
2 69773  51.8818  96.1466 0001936 205.8446  96.0459 15.34501120  5229
KUIPER-00615            
1 69774U 26151M   26213.58335648 -.01763069  00000+0 -79238-1 0  9997
2 69774  51.8808  96.9154 0006877 223.2417  98.2974 15.24174950  3525
KUIPER-00616            
1 69775U 26151N   26213.06714992  .00022643  00000+0  58950-3 0  9997
2 69775  51.8797  98.5831 0002517 193.1161 166.9761 15.38792487  4615
KUIPER-00617            
1 69776U 26151P   26213.66261846  .00022555  00000+0  59898-3 0  9993
2 69776  51.8810  95.8217 0004060 198.4643 161.6197 15.38180818  4702
KUIPER-00619            
1 69777U 26151Q   26213.65253592  .00022689  00000+0  61985-3 0  9990
2 69777  51.8814  95.7554 0001748 134.2459 225.8671 15.37303597  4703
KUIPER-00621            
1 69778U 26151R   26213.06773411  .00028495  00000+0  74057-3 0  9998
2 69778  51.8801  98.5844 0002073 176.8521 183.2480 15.38714678  4619
KUIPER-00622            
1 69779U 26151S   26213.58335648 -.02021516  00000+0 -82723-1 0  9990
2 69779  51.8772  96.7771 0007104 221.2831 141.0365 15.27168113  5323
KUIPER-00623            
1 69780U 26151T   26213.58335648  .00052086  00000+0  18093-2 0  9994
2 69780  51.8821  96.4676 0004093 211.0658 281.8997 15.29238987  5445
KUIPER-00626            
1 69781U 26151U   26213.39058460 -.00012164  00000+0 -34837-3 0  9998
2 69781  51.8727  97.7206 0009290 228.4087 131.6102 15.34402886  4655
KUIPER-00627            
1 69782U 26151V   26213.58335648  .00059006  00000+0  18169-2 0  9999
2 69782  51.8696  96.8366 0009100 236.1117  84.6101 15.33034417  1987
KUIPER-00629            
1 69783U 26151W   26213.58335648 -.01645118  00000+0 -12555+0 0  9998
2 69783  51.8902  98.4949 0007060 264.3365  34.2571 15.04786829  5013
KUIPER-00631            
1 69784U 26151X   26213.58335648 -.00023488  00000+0 -17170-2 0  9999
2 69784  51.8879  98.4591 0007590 237.5717  44.2049 15.02855819  2417
KUIPER-00634            
1 69785U 26151Y   26213.58335648 -.01190051  00000+0 -46570-1 0  9997
2 69785  51.8833  96.4604 0003239 231.7063 275.2785 15.28039819  4414
KUIPER-00639            
1 69786U 26151Z   26213.06107096  .00021061  00000+0  62972-3 0  9992
2 69786  51.8696  99.2579 0009412 222.5460 137.4797 15.34486374  4604
KUIPER-00641            
1 69787U 26151AA  26213.40200873 -.00048581  00000+0 -14979-2 0  9999
2 69787  51.8702  97.7830 0011229 227.4608 132.5430 15.32966845  4652
KUIPER-00644            
1 69788U 26151AB  26213.10358295  .00031510  00000+0  87248-3 0  9991
2 69788  51.8741  98.8116 0008052 225.7626 134.2700 15.36675653  4608
KUIPER-00646            
1 69789U 26151AC  26213.05915077 -.00080898  00000+0 -24741-2 0  9996
2 69789  51.8720  99.2454 0009724 230.7713 129.2410 15.33473704  4608
KUIPER-00647            
1 69790U 26151AD  26213.65418277  .00013419  00000+0  41748-3 0  9994
2 69790  51.8671  96.4730 0011771 225.7409 134.2611 15.33555767  4690
KUIPER-00662            
1 69791U 26151AE  26213.58335648 -.00017409  00000+0 -12313-2 0  9997
2 69791  51.8928  98.1281 0007702 235.7158 106.1677 15.03898713  3694
