GLOBALSTAR M001         
1 25162U 98008A   26095.49653267 -.00000050  00000+0  35453-3 0  9993
2 25162  52.0026 202.4176 0002049 146.8361 295.9254 12.38230690279928
GLOBALSTAR M004         
1 25163U 98008B   26095.72080598 -.00000073  00000+0  16832-3 0  9996
2 25163  51.9997 241.6860 0003082 205.3593 258.7105 12.63418075298662
GLOBALSTAR M002         
1 25164U 98008C   26095.67350161 -.00000056  00000+0  39978-3 0  9994
2 25164  52.0005 226.8379 0000628 333.8512  26.2276 11.61515704218052
GLOBALSTAR M003         
1 25165U 98008D   26095.95353258 -.00000201  00000+0 -11908-2 0  9991
2 25165  51.9840  77.6063 0008032 158.4269 236.4279 12.12018889268723
GLOBALSTAR M014         
1 25306U 98023A   26095.86206760 -.00000051  00000+0  49995-3 0  9990
2 25306  51.9817 143.4346 0001249 175.1408 357.8267 11.65485936225292
GLOBALSTAR M006         
1 25307U 98023B   26095.60565460 -.00000088  00000+0 -25713-3 0  9991
2 25307  51.9934 207.4868 0002775 270.6421 102.5171 11.58178841250714
GLOBALSTAR M015         
1 25308U 98023C   26095.89764520 -.00000065  00000+0  19174-3 0  9999
2 25308  51.9843 318.6514 0012089 235.6952 135.4255 11.48860926227720
GLOBALSTAR M008         
1 25309U 98023D   26095.95175253 -.00000089  00000+0  55697-4 0  9993
2 25309  51.9969  69.2400 0002956  70.6364 323.7619 12.36082374274054
GLOBALSTAR M023         
1 25621U 99004A   26095.82587197 -.00000020  00000+0  46534-3 0  9994
2 25621  52.0096 242.3359 0010295  56.7559  94.2256 12.62521841252696
GLOBALSTAR M040         
1 25622U 99004B   26095.58181826 -.00000062  00000+0  23136-3 0  9996
2 25622  51.9910 247.6637 0000307  19.3602  60.1359 12.62032217252177
GLOBALSTAR M036         
1 25623U 99004C   26095.58124050  .00000046  00000+0  18688-2 0  9999
2 25623  51.9961 189.6141 0010214 249.8842 123.3510 11.86623993213690
GLOBALSTAR M038         
1 25624U 99004D   26095.77319940 -.00000066  00000+0  24154-3 0  9994
2 25624  51.9986 308.9465 0001134 328.8755 111.2561 12.32543221238455
GLOBALSTAR M022         
1 25649U 99012A   26095.65204645 -.00000053  00000+0  40890-3 0  9993
2 25649  52.0033 215.8382 0002601  43.4112 330.7840 12.02511881211563
GLOBALSTAR M041         
1 25650U 99012B   26095.39407695 -.00000079  00000+0  80725-4 0  9996
2 25650  52.0001 106.8990 0001295 177.9294 182.1548 11.96682733213266
GLOBALSTAR M046         
1 25651U 99012C   26095.93917708 -.00000076  00000+0  13744-3 0  9991
2 25651  52.0039 154.5072 0002198 120.0964  53.1148 12.09422589219080
GLOBALSTAR M037         
1 25652U 99012D   26095.96019143 -.00000064  00000+0  22362-3 0  9994
2 25652  52.0034  12.4347 0002459 103.8256 336.9533 12.62464004248254
GLOBALSTAR M045         
1 25676U 99019A   26095.52190483 -.00000143  00000+0 -43698-3 0  9990
2 25676  51.9965 192.0420 0000573 138.2640 236.5535 12.27073398229284
GLOBALSTAR M019         
1 25677U 99019B   26095.98221743 -.00000011  00000+0  82086-3 0  9992
2 25677  51.9908 341.7045 0001291 153.1070 218.7197 12.13882931220709
GLOBALSTAR M044         
1 25678U 99019C   26095.93654309 -.00000037  00000+0  65155-3 0  9992
2 25678  51.9995 329.8140 0005494 241.3296 223.4630 11.90264849206185
GLOBALSTAR M042         
1 25679U 99019D   26095.87669428 -.00000059  00000+0  31076-3 0  9993
2 25679  52.0022 304.6743 0002885 166.6170 295.1454 12.22095644221043
GLOBALSTAR M025         
1 25770U 99031A   26095.53912794 -.00000070  00000+0 -69256-4 0  9995
2 25770  51.9805 202.0132 0001929 247.7040 125.1045 11.22560700514547
GLOBALSTAR M049         
1 25771U 99031B   26095.73287047 -.00000105  00000+0 -13643-2 0  9990
2 25771  51.9863 251.0277 0003330 142.8418 217.2609 11.12123840149977
GLOBALSTAR M047         
1 25772U 99031C   26095.62356945 -.00000055  00000+0  40942-3 0  9999
2 25772  51.9821 220.3053 0016410  47.9962 312.2239 11.31933096504226
GLOBALSTAR M052         
1 25773U 99031D   26095.92114513 -.00000041  00000+0  84789-3 0  9998
2 25773  51.9911 355.1604 0002102 308.8642 133.6132 11.15063826511168
GLOBALSTAR M035         
1 25851U 99037A   26095.82192171 -.00000040  00000+0  91087-3 0  9994
2 25851  51.9924 122.3559 0013553  97.4900  73.3202 11.04541469128593
GLOBALSTAR M032         
1 25852U 99037B   26095.77599896 -.00000079  00000+0 -39732-3 0  9996
2 25852  51.9957 287.4756 0012006 300.7017  59.2600 11.19069283167541
GLOBALSTAR M051         
1 25853U 99037C   26095.60981561 -.00000074  00000+0 -39045-4 0  9996
2 25853  51.9807  55.4536 0000271 105.1292 254.9549 11.42201268165808
GLOBALSTAR M030         
1 25854U 99037D   26095.57023021  .00000011  00000+0  18321-2 0  9992
2 25854  51.9868 203.0623 0003843 192.1937 167.8787 11.55108067183830
GLOBALSTAR M048         
1 25872U 99041A   26095.88918414 -.00000059  00000+0  29420-3 0  9996
2 25872  51.9413   1.1310 0013203 334.4150 103.2210 11.33862940158183
GLOBALSTAR M026         
1 25873U 99041B   26095.65096679 -.00000036  00000+0  10411-2 0  9996
2 25873  51.9997 237.6128 0001818  54.4004 318.5699 11.06842922180871
GLOBALSTAR M043         
1 25874U 99041C   26095.78998573 -.00000036  00000+0  97328-3 0  9998
2 25874  51.9370 120.6655 0013433  91.7308  79.2654 11.25699670155820
GLOBALSTAR M028         
1 25875U 99041D   26095.59372416 -.00000096  00000+0  28080-4 0  9996
2 25875  51.9645  41.1454 0063570 346.9516  12.9699 12.50598518226766
GLOBALSTAR M024         
1 25883U 99043A   26095.67224201 -.00000144  00000+0 -27973-2 0  9997
2 25883  52.0011  80.6661 0001434 218.3626 312.7040 11.10171630147341
GLOBALSTAR M027         
1 25884U 99043B   26095.94159590 -.00000086  00000+0 -85851-3 0  9991
2 25884  52.0186 166.3392 0021691 105.1012 255.2183 11.04373390173581
GLOBALSTAR M054         
1 25885U 99043C   26095.75764722 -.00000040  00000+0  79833-3 0  9992
2 25885  52.0129 244.9461 0004124 328.8810 140.2372 11.39226016152390
GLOBALSTAR M053         
1 25886U 99043D   26095.57765503 -.00000049  00000+0  56696-3 0  9992
2 25886  51.9972 208.6952 0003681 206.9302 166.1876 11.27671193152434
GLOBALSTAR M058         
1 25907U 99049A   26095.58284465 -.00000046  00000+0  52368-3 0  9995
2 25907  51.9959  48.3885 0002316 110.1851 249.9233 11.93209943576447
GLOBALSTAR M050         
1 25908U 99049B   26095.53787868 -.00000131  00000+0 -48936-3 0  9998
2 25908  52.0015  34.3428 0008601 255.3572 276.4571 12.07466453183504
GLOBALSTAR M033         
1 25909U 99049C   26095.68378438 -.00000024  00000+0  64964-3 0  9993
2 25909  51.9900 245.5756 0015082 143.9175 216.2693 12.20305583571451
GLOBALSTAR M055         
1 25910U 99049D   26095.69289541 -.00000080  00000+0  12351-3 0  9997
2 25910  52.0009 242.0515 0006905  26.5350 333.5854 12.29442534204266
GLOBALSTAR M057         
1 25943U 99058A   26095.67117106 -.00000048  00000+0  40860-3 0  9998
2 25943  51.9976 238.1246 0001873 244.1657 115.9000 12.24837460202777
GLOBALSTAR M059         
1 25944U 99058B   26095.81982609 -.00000023  00000+0  78283-3 0  9996
2 25944  51.9996 135.4942 0000644 183.8650 346.9438 11.99996704609173
GLOBALSTAR M056         
1 25945U 99058C   26095.81577093 -.00000088  00000+0 -64234-5 0  9999
2 25945  51.9942 129.9665 0001073  51.4307 120.0188 12.04788693197898
GLOBALSTAR M031         
1 25946U 99058D   26095.95103811 -.00000100  00000+0 -10027-3 0  9992
2 25946  52.0002   4.3858 0002007  61.2945  21.3304 12.16051675200167
GLOBALSTAR M039         
1 25961U 99062A   26095.73371928 -.00000086  00000+0  97888-4 0  9999
2 25961  51.9832  97.6580 0002480 278.2556  81.8029 12.62344654217169
GLOBALSTAR M034         
1 25962U 99062B   26095.90919052 -.00000060  00000+0  33451-3 0  9992
2 25962  51.9899 330.4735 0013466 232.8928 138.7544 11.79456488172933
GLOBALSTAR M029         
1 25963U 99062C   26095.51606521 -.00000074  00000+0  15612-3 0  9998
2 25963  51.9836  24.1002 0002522 342.2047 188.7384 11.99909512204215
GLOBALSTAR M061         
1 25964U 99062D   26095.47549557 -.00000080  00000+0  44517-5 0  9994
2 25964  51.9778 159.5160 0006378 155.1568 218.4623 11.76777313155591
GLOBALSTAR M063         
1 26081U 00008A   26095.89073927 -.00000085  00000+0 -36195-4 0  9994
2 26081  51.9961  60.6820 0004528 151.0287 227.3750 11.86182690192319
GLOBALSTAR M062         
1 26082U 00008B   26095.86024981 -.00000070  00000+0  20265-3 0  9991
2 26082  51.9864 315.1061 0007709  23.9796 347.3321 12.43483986533034
GLOBALSTAR M060         
1 26083U 00008C   26095.78635057 -.00000036  00000+0  54737-3 0  9998
2 26083  52.0034 316.7302 0003379  14.8812  64.6896 12.17679398188013
GLOBALSTAR M064         
1 26084U 00008D   26095.47241877 -.00000067  00000+0  23606-3 0  9993
2 26084  52.0015 157.1723 0001467 244.1126 115.9556 11.88543466201853
GLOBALSTAR M065         
1 31571U 07020A   26095.65565131 -.00000033  00000+0  39376-3 0  9997
2 31571  51.9904  56.0683 0009399 235.9119 294.8235 12.62024528870331
GLOBALSTAR M069         
1 31573U 07020C   26095.96104730 -.00000097  00000+0 -38728-4 0  9999
2 31573  52.0016  96.5520 0001794   1.6103  14.4292 12.23470073869963
GLOBALSTAR M072         
1 31574U 07020D   26095.82036944 -.00000062  00000+0  29763-3 0  9995
2 31574  51.9936 292.9088 0001599 140.8000 232.4903 11.91657088866357
GLOBALSTAR M071         
1 31576U 07020F   26095.81225972 -.00000129  00000+0 -37324-3 0  9994
2 31576  52.0042 130.8415 0000638 337.9560 193.1813 12.18267994530608
GLOBALSTAR M067         
1 32263U 07048A   26095.76448647 -.00000060  00000+0  27364-3 0  9994
2 32263  51.9722 259.8133 0000766 198.0448 175.5252 12.40686674845804
GLOBALSTAR M070         
1 32264U 07048B   26095.95436501 -.00000063  00000+0  22850-3 0  9990
2 32264  51.9762 316.6045 0001004  86.5409  22.6698 12.62332759850647
GLOBALSTAR M066         
1 32265U 07048C   26095.96252547 -.00000100  00000+0 -46247-4 0  9998
2 32265  51.9579 265.2499 0004048 244.1578 286.9796 12.30387961851337
GLOBALSTAR M068         
1 32266U 07048D   26095.35678139 -.00000057  00000+0  26115-3 0  9992
2 32266  51.9867 131.6092 0001121  71.9855 302.1293 12.62844103854478
GLOBALSTAR M079         
1 37188U 10054A   26095.90935833 -.00000078  00000+0  14297-3 0  9990
2 37188  52.0056 328.6960 0000695 107.5032 263.8739 12.62264765713425
GLOBALSTAR M074         
1 37189U 10054B   26095.79176651 -.00000073  00000+0  17312-3 0  9999
2 37189  52.0037 328.3313 0000647  77.9400 358.3852 12.62267136714017
GLOBALSTAR M076         
1 37190U 10054C   26095.96192060 -.00000082  00000+0  11974-3 0  9990
2 37190  52.0051 328.0095 0000454  91.5489 278.8821 12.62271253713751
GLOBALSTAR M077         
1 37191U 10054D   26095.95793040 -.00000083  00000+0 -87789-4 0  9995
2 37191  52.0018   2.6404 0000637 144.6981 298.2855 11.68156264712700
GLOBALSTAR M075         
1 37192U 10054E   26095.91044290 -.00000081  00000+0  12876-3 0  9999
2 37192  51.9974  10.2586 0000656  76.9153 359.1933 12.62265490712818
GLOBALSTAR M073         
1 37193U 10054F   26095.92594039 -.00000094  00000+0  56379-4 0  9993
2 37193  52.0059 284.2580 0000673 114.9429  30.6226 12.62266155714806
GLOBALSTAR M083         
1 37739U 11033A   26095.67212559 -.00000084  00000+0  10835-3 0  9998
2 37739  51.9848 233.3556 0000691 133.1131 240.3443 12.62262229683799
GLOBALSTAR M088         
1 37740U 11033B   26095.40844794 -.00000073  00000+0  17124-3 0  9999
2 37740  52.0200 140.4124 0000302 112.6237 260.1254 12.62262896679304
GLOBALSTAR M091         
1 37741U 11033C   26095.77354082 -.00000109  00000+0 -30241-4 0  9993
2 37741  51.9982 102.3709 0000390 102.7293  71.0625 12.62270841680138
GLOBALSTAR M085         
1 37742U 11033D   26095.60136131 -.00000111  00000+0 -37790-4 0  9998
2 37742  52.0135  54.1215 0000554  94.6860  76.4820 12.62269985680625
GLOBALSTAR M081         
1 37743U 11033E   26095.62789354 -.00000116  00000+0 -66679-4 0  9995
2 37743  51.9964  56.5603 0000315  78.8501  92.3616 12.62263323680778
GLOBALSTAR M089         
1 37744U 11033F   26095.50944035 -.00000080  00000+0  13287-3 0  9997
2 37744  51.9959  11.0964 0000533  45.8483 127.0770 12.62265469681607
GLOBALSTAR M084         
1 38040U 11080A   26095.83746162 -.00000091  00000+0  69601-4 0  9990
2 38040  51.9999 237.5406 0000449 100.4079  63.7083 12.62266102659627
GLOBALSTAR M080         
1 38041U 11080B   26095.71656770 -.00000088  00000+0  87587-4 0  9992
2 38041  52.0051 239.6023 0001148 108.2746 355.8450 12.62268062659733
GLOBALSTAR M082         
1 38042U 11080C   26095.57334568 -.00000074  00000+0  16689-3 0  9994
2 38042  52.0069 195.5313 0000887 121.7955 341.2132 12.62268772660428
GLOBALSTAR M092         
1 38043U 11080D   26095.86489578 -.00000072  00000+0  17511-3 0  9992
2 38043  52.0083 285.0383 0000753  93.8773  14.2205 12.62265820658916
GLOBALSTAR M090         
1 38044U 11080E   26095.58015840 -.00000077  00000+0  14835-3 0  9990
2 38044  52.0122 189.4429 0000585 132.1501 241.0594 12.62267641660544
GLOBALSTAR M086         
1 38045U 11080F   26095.52393119 -.00000063  00000+0  22826-3 0  9997
2 38045  51.9892 189.6630 0000816 221.7619 151.8969 12.62284913660483
GLOBALSTAR M097         
1 39072U 13005A   26095.39199738 -.00000114  00000+0 -55054-4 0  9991
2 39072  52.0030 104.9259 0000342 122.6818 237.4082 12.62260188607713
GLOBALSTAR M093         
1 39073U 13005B   26095.44499713 -.00000109  00000+0 -29676-4 0  9999
2 39073  52.0093  98.0857 0000386 143.9467 216.1426 12.62264409607675
GLOBALSTAR M094         
1 39074U 13005C   26095.92022351 -.00000092  00000+0  65221-4 0  9999
2 39074  51.9992  10.8304 0000570  98.4445 261.6487 12.62267242609342
GLOBALSTAR M096         
1 39075U 13005D   26095.61673316 -.00000116  00000+0 -66618-4 0  9998
2 39075  52.0078  60.4956 0000439  96.8954 263.1963 12.62263940608228
GLOBALSTAR M078         
1 39076U 13005E   26095.43143371 -.00000029  00000+0  41582-3 0  9996
2 39076  51.9857 145.1712 0001244 108.6082 251.4920 12.62276961606826
GLOBALSTAR M095         
1 39077U 13005F   26095.37896797 -.00000076  00000+0  15258-3 0  9990
2 39077  52.0065 142.8329 0000771 131.3052 228.7881 12.62267183606674
GLOBALSTAR M087         
1 52888U 22064A   26095.78836233 -.00000101  00000+0  13655-4 0  9993
2 52888  51.9996 282.8698 0000911 114.5579 245.5383 12.62267952181998
