IRIDIUM 7               
1 24793U 97020B   26099.31178967  .00000418  00000+0  13661-3 0  9993
2 24793  86.3956  52.7419 0001943  94.4036 265.7383 14.36211432514398
IRIDIUM 5               
1 24795U 97020D   26099.01851445  .00003294  00000+0  24795-3 0  9996
2 24795  86.3845 306.9403 0102697 152.5266 208.1449 14.97928648529697
IRIDIUM 4               
1 24796U 97020E   26099.24829689  .00000422  00000+0  13539-3 0  9991
2 24796  86.3957  49.4479 0002064  87.7209 272.4225 14.37121089514987
IRIDIUM 914             
1 24836U 97030A   26099.25292699  .00000496  00000+0  14776-3 0  9998
2 24836  86.3922  57.1696 0001817  43.1997 316.9345 14.41193440649763
IRIDIUM 16              
1 24841U 97030F   26098.96409832  .00000400  00000+0  12327-3 0  9995
2 24841  86.3981  81.0047 0003198 131.0201 229.1274 14.39009851509534
IRIDIUM 911             
1 24842U 97030G   26098.98803873  .00000512  00000+0  13219-3 0  9996
2 24842  86.4407  79.4309 0013811 181.8034 178.3122 14.48054120517884
IRIDIUM 17              
1 24870U 97034B   26098.99085758  .00000360  00000+0  11225-3 0  9992
2 24870  86.3907 110.4361 0003713 104.7442 255.4167 14.38145821506095
IRIDIUM 920             
1 24871U 97034C   26098.96822517  .00000370  00000+0  10700-3 0  9990
2 24871  86.3916  88.9548 0011474 174.5173 185.6155 14.41849735509195
IRIDIUM 26              
1 24903U 97043A   26099.20884028  .00000356  00000+0  11247-3 0  9990
2 24903  86.3994 346.2091 0002142  92.2067 267.9376 14.37444460499266
IRIDIUM 22              
1 24907U 97043E   26099.17744836  .00000304  00000+0  97567-4 0  9995
2 24907  86.4006 350.0154 0002258  89.0273 271.1182 14.36220342499250
DUMMY MASS 1            
1 24925U 97048A   26099.21461458  .00000388  00000+0  39911-4 0  9992
2 24925  86.3392 358.3478 0007131 156.9069 203.2478 14.87306587549127
DUMMY MASS 2            
1 24926U 97048B   26099.15903245  .00000386  00000+0  39935-4 0  9995
2 24926  86.3393   0.0340 0007361 170.0332 190.1040 14.87056016548883
IRIDIUM 29              
1 24944U 97051A   26099.29999447  .00000388  00000+0  12489-3 0  9999
2 24944  86.4003  19.5659 0002307  83.0041 277.1419 14.36771466495788
IRIDIUM 33              
1 24946U 97051C   26099.26551592  .00000286  00000+0  93157-4 0  9992
2 24946  86.3921  18.8749 0007611 175.7579 184.3683 14.35120589495200
IRIDIUM 28              
1 24948U 97051E   26099.29653479  .00000370  00000+0  11675-3 0  9992
2 24948  86.4011  16.9197 0002081 100.9986 259.1446 14.37665118496389
IRIDIUM 36              
1 24967U 97056C   26099.28282426  .00000425  00000+0  13448-3 0  9998
2 24967  86.3970  48.5140 0002343  92.7551 267.3916 14.37900488494764
IRIDIUM 39              
1 25042U 97069D   26099.01803955  .00000751  00000+0  18956-3 0  9995
2 25042  86.3858  84.2819 0019177  43.3102 316.9606 14.49697552491819
IRIDIUM 38              
1 25043U 97069E   26098.98894800  .00000372  00000+0  11560-3 0  9993
2 25043  86.3906 108.7824 0002176 141.6496 218.4858 14.38439175488477
IRIDIUM 42              
1 25077U 97077A   26099.08233331  .00000335  00000+0  10706-3 0  9997
2 25077  86.3919 115.2920 0001761 108.2308 251.9081 14.36646504483679
IRIDIUM 44              
1 25078U 97077B   26099.00176996  .00000337  00000+0  99545-4 0  9994
2 25078  86.3899  96.4328 0003778 110.6362 249.5243 14.40533671486284
IRIDIUM 45              
1 25104U 97082A   26098.95626142  .00019182  00000+0  44881-3 0  9996
2 25104  86.3482 262.5559 0083405 291.4922  67.7452 15.38335679497256
IRIDIUM 24              
1 25105U 97082B   26099.07304446  .00000354  00000+0  10076-3 0  9991
2 25105  86.3890 314.7873 0011408 169.3166 190.8279 14.42473221485865
IRIDIUM 57              
1 25273U 98019B   26099.17804257  .00000346  00000+0  11216-3 0  9992
2 25273  86.4007  21.1158 0002163  90.5170 269.6275 14.36149402467264
IRIDIUM 63              
1 25286U 98021B   26099.04601392  .00000282  00000+0  88799-4 0  9990
2 25286  86.3968 318.0129 0002275  83.3796 276.7660 14.36847355466322
IRIDIUM 69              
1 25319U 98026A   26099.18487530  .00000434  00000+0  12812-3 0  9994
2 25319  86.3987 330.3123 0004285 107.4504 252.7164 14.41353593465693
IRIDIUM 71              
1 25320U 98026B   26099.09494282  .00000226  00000+0  63455-4 0  9997
2 25320  86.3976 325.0144 0002603 138.0589 222.0810 14.41430670466211
IRIDIUM 73              
1 25344U 98032C   26098.99641713  .00000486  00000+0  11485-3 0  9994
2 25344  86.4355 281.1480 0002872  86.4872 273.6663 14.52157031473487
IRIDIUM 82              
1 25467U 98051A   26099.04983493  .00058418  00000+0  61441-3 0  9997
2 25467  86.3541 321.3839 0040710 229.9372 129.8322 15.63020951469613
