ORBCOMM-X               
1 21576U 91050C   26036.44081464  .00000455  00000+0  14723-3 0  9997
2 21576  98.3137 102.9543 0003483 182.1751 177.9425 14.43491752815763
ORBCOMM FM01            
1 23545U 95017A   26036.47005150  .00013966  00000+0  13105-2 0  9996
2 23545  69.9605 210.8050 0006041 297.0395  63.0145 14.94079448647307
ORBCOMM FM02            
1 23546U 95017B   26035.94619134  .00013435  00000+0  12018-2 0  9994
2 23546  69.9606 230.3855 0007202 300.6445  59.4002 14.95970247646900
ORBCOMM FM08            
1 25112U 97084A   26036.17389913  .00002428  00000+0  70229-3 0  9995
2 25112  45.0144 328.5975 0007593 347.4952  12.5711 14.46855184475108
ORBCOMM FM10            
1 25113U 97084B   26036.19272870  .00002467  00000+0  71716-3 0  9996
2 25113  45.0157 331.3333 0006152 318.5851  41.4534 14.46586092650243
ORBCOMM FM11            
1 25114U 97084C   26036.23840521  .00002334  00000+0  68439-3 0  9997
2 25114  45.0142 332.1791 0007003 319.4662  40.5667 14.46324216475207
ORBCOMM FM12            
1 25115U 97084D   26036.19749869  .00002448  00000+0  71540-3 0  9999
2 25115  45.0150 332.1005 0006068 317.4944  42.5437 14.46351981474997
ORBCOMM FM09            
1 25116U 97084E   26036.25288381  .00002452  00000+0  71900-3 0  9999
2 25116  45.0155 333.0336 0007187 307.5145  52.5053 14.46181596475209
ORBCOMM FM05            
1 25117U 97084F   26036.19074536  .00002567  00000+0  73886-3 0  9990
2 25117  45.0153 328.5076 0003667 321.7442  38.3149 14.46966114474344
ORBCOMM FM06            
1 25118U 97084G   26036.53606919  .00002709  00000+0  77472-3 0  9998
2 25118  45.0146 326.2969 0002548 324.8172 205.0425 14.47142173475314
ORBCOMM FM07            
1 25119U 97084H   26036.23926678  .00002564  00000+0  73522-3 0  9994
2 25119  45.0139 328.4673 0004442 318.1997  41.8515 14.47145808475267
ORBCOMM FM03            
1 25158U 98007B   26036.05625085  .00001520  00000+0  57004-3 0  9999
2 25158 107.9664 254.1925 0045086 203.6238 156.2831 14.35226846457442
ORBCOMM FM04            
1 25159U 98007C   26036.34932118  .00001497  00000+0  56059-3 0  9992
2 25159 107.9650 258.1747 0040778 200.5939 159.3558 14.35458309457677
ORBCOMM FM17            
1 25413U 98046A   26034.89425445  .00000787  00000+0  31881-3 0  9993
2 25413  44.9930 243.6072 0002261 304.9473  55.1162 14.35672199436461
ORBCOMM FM18            
1 25414U 98046B   26036.35597512  .00002218  00000+0  75232-3 0  9991
2 25414  44.9913 147.7020 0002902   7.1960 352.8930 14.39352400437831
ORBCOMM FM19            
1 25415U 98046C   26036.33834539  .00002175  00000+0  74114-3 0  9993
2 25415  44.9926 150.1390 0001842 349.6177  39.4662 14.39174335437783
ORBCOMM FM20            
1 25416U 98046D   26036.35642967  .00001518  00000+0  54583-3 0  9996
2 25416  44.9932 156.5583 0000722 201.6028 158.4790 14.37818843437818
ORBCOMM FM16            
1 25417U 98046E   26036.47696246  .00002325  00000+0  78034-3 0  9993
2 25417  44.9921 144.3180 0002550  32.9530 327.1477 14.39737945437866
ORBCOMM FM15            
1 25418U 98046F   26036.37366237  .00001983  00000+0  67736-3 0  9993
2 25418  44.9953 150.6711 0002305  35.0166 325.0834 14.39359554437836
ORBCOMM FM14            
1 25419U 98046G   26036.32770146  .00002010  00000+0  68008-3 0  9992
2 25419  44.9940 148.3982 0001099  18.2693 341.8195 14.39790626437806
ORBCOMM FM13            
1 25420U 98046H   26036.37874612  .00001676  00000+0  59116-3 0  9999
2 25420  44.9961 158.5404 0003544   4.0203 356.0673 14.38364203436805
ORBCOMM FM21            
1 25475U 98053A   26036.30613651  .00001103  00000+0  40831-3 0  9993
2 25475  45.0070 245.0540 0001294 339.5779  20.5018 14.37940714430799
ORBCOMM FM22            
1 25476U 98053B   26036.50878409  .00001407  00000+0  49578-3 0  9994
2 25476  45.0059 236.9222 0002755 326.1479  33.9194 14.39152160430879
ORBCOMM FM23            
1 25477U 98053C   26035.99404058  .00001089  00000+0  40192-3 0  9991
2 25477  45.0070 248.2703 0002193 322.9893  37.0804 14.38195291430901
ORBCOMM FM24            
1 25478U 98053D   26036.52960193  .00001337  00000+0  47660-3 0  9992
2 25478  45.0065 242.1294 0001941 335.5136  24.5620 14.38832687431044
ORBCOMM FM25            
1 25479U 98053E   26036.01979394  .00001171  00000+0  42341-3 0  9997
2 25479  45.0057 242.8574 0004275 340.2875  19.7808 14.38799472431262
ORBCOMM FM26            
1 25480U 98053F   26035.28860946  .00000865  00000+0  33161-3 0  9998
2 25480  45.0056 244.5477 0006269 351.2381   8.8357 14.37740823431042
ORBCOMM FM27            
1 25481U 98053G   26035.93260237  .00001265  00000+0  45323-3 0  9996
2 25481  45.0040 243.3821 0000756  17.5402 342.5473 14.38838974431185
ORBCOMM FM28            
1 25482U 98053H   26036.43164876  .00001611  00000+0  56330-3 0  9990
2 25482  45.0039 178.2397 0003373  38.7387 321.3703 14.38949344431942
ORBCOMM FM30            
1 25980U 99065A   26036.50279770  .00001273  00000+0  46438-3 0  9997
2 25980  45.0316  64.8647 0004231 105.1065 255.0251 14.37909243368029
ORBCOMM FM31            
1 25981U 99065B   26036.48723298  .00001322  00000+0  48117-3 0  9995
2 25981  45.0232  58.3837 0002440 157.0369 203.0589 14.37832394367577
ORBCOMM FM32            
1 25982U 99065C   26036.47883808  .00001267  00000+0  47186-3 0  9992
2 25982  45.0157  76.5578 0004607 137.0465 223.0744 14.36896709368148
ORBCOMM FM33            
1 25983U 99065D   26036.49688614  .00001488  00000+0  50569-3 0  9997
2 25983  45.0298 329.1692 0006734 159.9650 200.1465 14.40713204369703
ORBCOMM FM36            
1 25984U 99065E   26036.48342603  .00001714  00000+0  59738-3 0  9991
2 25984  45.0393  64.6846 0002392 344.3455  15.7320 14.38890251368019
ORBCOMM FM35            
1 25985U 99065F   26036.49714580  .00001294  00000+0  47269-3 0  9999
2 25985  45.0394  71.5683 0002528 160.5503 199.5442 14.37791510368350
ORBCOMM FM34            
1 25986U 99065G   26036.46611843  .00001203  00000+0  44331-3 0  9992
2 25986  45.0390  72.2073 0001651  64.1217 295.9802 14.37714397368466
ORBCOMM FM38            
1 33060U 08031A   26036.37676793  .00002862  00000+0  37841-3 0  9992
2 33060  48.4389 282.9788 0004789 323.5829  36.4761 14.82581057949330
ORBCOMM FM41            
1 33061U 08031B   26036.14000727  .00002469  00000+0  33378-3 0  9990
2 33061  48.4430 292.7238 0004131 306.6138 206.8706 14.82117606948777
ORBCOMM FM29            
1 33062U 08031C   26036.10226005  .00002836  00000+0  37790-3 0  9996
2 33062  48.4386 300.3853 0005756 307.1344 196.0779 14.82285494948687
ORBCOMM FM39            
1 33063U 08031D   26036.47950968  .00002686  00000+0  37292-3 0  9999
2 33063  48.4407 325.5331 0006846 279.9099  80.1043 14.80688257948359
ORBCOMM FM37            
1 33064U 08031E   26036.51688052  .00002605  00000+0  36093-3 0  9996
2 33064  48.4399 313.5148 0005380 298.6647 231.5452 14.80881916948614
ORBCOMM FM40            
1 33065U 08031F   26036.11683712  .00003123  00000+0  40187-3 0  9996
2 33065  48.4410 295.3030 0006190 313.2934 208.9383 14.83477981948728
VESSELSAT 1             
1 37840U 11058C   26036.47890296  .00000416  00000+0  82056-4 0  9994
2 37840  19.9614 122.1710 0013469 232.8408 127.0766 14.11413134739302
ORBCOMM FM109           
1 40086U 14040A   26036.32111396  .00001157  00000+0  28213-3 0  9992
2 40086  47.0048 354.8611 0002317 319.0498  41.0213 14.58669233615097
ORBCOMM FM107           
1 40087U 14040B   26036.26904153  .00001271  00000+0  30581-3 0  9995
2 40087  47.0066 355.9730 0001836 277.6940  82.3737 14.58747173615165
ORBCOMM FM106           
1 40088U 14040C   26036.39411421  .00001691  00000+0  30845-3 0  9990
2 40088  47.0593 158.5940 0015556  70.8562 289.4012 14.70218052617787
ORBCOMM FM111           
1 40089U 14040D   26036.21149217  .00004761  00000+0  53046-3 0  9992
2 40089  47.0017 337.3134 0028946 230.6541 129.1791 14.88138948624912
ORBCOMM FM104           
1 40090U 14040E   26036.37817054  .00000902  00000+0  23543-3 0  9994
2 40090  47.0060  31.8934 0016208 194.3713 165.6713 14.57115275614621
ORBCOMM FM103           
1 40091U 14040F   26036.39167265  .00001114  00000+0  27310-3 0  9991
2 40091  47.0068 356.0902 0002468 276.0095  84.0509 14.58654124598148
ORBCOMM FM114           
1 41179U 15081A   26036.06514661  .00000706  00000+0  18628-3 0  9993
2 41179  47.0043 266.5812 0002629 309.2973  50.7679 14.58672640538467
ORBCOMM FM119           
1 41180U 15081B   26036.33717934  .00001043  00000+0  25799-3 0  9995
2 41180  46.9992 174.6518 0000545 353.1561   6.9317 14.58616609539756
ORBCOMM FM105           
1 41181U 15081C   26036.53108664  .00000397  00000+0  15601-3 0  9994
2 41181  46.9998 201.5338 0002135 278.4493  81.6145 14.45464773534509
ORBCOMM FM110           
1 41182U 15081D   26036.05429026  .00000898  00000+0  22705-3 0  9999
2 41182  47.0015 266.1120 0002770 193.6356 166.4455 14.58662842538331
ORBCOMM FM118           
1 41183U 15081E   26036.36281019  .00000915  00000+0  23076-3 0  9994
2 41183  47.0032 264.9617 0002605 152.8390 207.2632 14.58666772538483
ORBCOMM FM112           
1 41184U 15081F   26036.43433056  .00001384  00000+0  33024-3 0  9998
2 41184  46.9980 173.1372 0002074 299.4338  60.6340 14.58663833539712
ORBCOMM FM113           
1 41185U 15081G   26036.41158750  .00001420  00000+0  33793-3 0  9996
2 41185  46.9994 173.6083 0001697 303.6048  56.4675 14.58667621539698
ORBCOMM FM115           
1 41186U 15081H   26036.31031115  .00001278  00000+0  28055-3 0  9997
2 41186  46.9998  10.3831 0000756 350.0356  10.0517 14.63053922541901
ORBCOMM FM108           
1 41187U 15081J   26036.51129951  .00001427  00000+0  33938-3 0  9998
2 41187  47.0049  84.6657 0003415 297.3049  62.7489 14.58671061540857
ORBCOMM FM117           
1 41188U 15081K   26036.47669679  .00001371  00000+0  32754-3 0  9993
2 41188  47.0012  83.5054 0003684 304.4927  55.5611 14.58664344540897
ORBCOMM FM116           
1 41189U 15081L   26036.38887036  .00000958  00000+0  23996-3 0  9991
2 41189  47.0012 173.7001 0002020 193.0593 167.0241 14.58645260539696
