GLOBALSTAR M069         
1 31573U 07020C   26217.15078000 -.00000055  00000+0  34896-3 0  9990
2 31573  52.0027 113.5399 0001178 258.1201 266.4993 12.23473172884791
GLOBALSTAR M072         
1 31574U 07020D   26217.27841970 -.00000071  00000+0  17915-3 0  9999
2 31574  51.9961 329.5532 0001578  69.1125 310.3337 11.91659005880831
GLOBALSTAR M066         
1 32265U 07048C   26216.92418098 -.00000089  00000+0  45992-4 0  9995
2 32265  51.9585 278.0055 0005182 144.1370  27.2221 12.30390361866224
GLOBALSTAR M079         
1 37188U 10054A   26217.01697044 -.00000087  00000+0  95096-4 0  9994
2 37188  52.0061 320.0271 0000954 108.6590  62.2159 12.62266686728710
GLOBALSTAR M074         
1 37189U 10054B   26216.72530434 -.00000096  00000+0  43397-4 0  9998
2 37189  52.0037 320.1731 0000635 122.3678  42.1429 12.62262056729289
GLOBALSTAR M076         
1 37190U 10054C   26217.06987603 -.00000093  00000+0  59217-4 0  9997
2 37190  52.0052 319.3319 0000876 123.4536  47.5496 12.62262880729044
GLOBALSTAR M077         
1 37191U 10054D   26216.57219709 -.00000070  00000+0  15404-3 0  9992
2 37191  51.9964  56.4869 0002055 265.0953 127.9864 11.67547821726797
GLOBALSTAR M075         
1 37192U 10054E   26216.84116670 -.00000099  00000+0  27848-4 0  9993
2 37192  51.9971   2.0520 0000772  92.5787  59.5793 12.62268014728084
GLOBALSTAR M073         
1 37193U 10054F   26216.92483009 -.00000095  00000+0  51360-4 0  9998
2 37193  52.0057 275.9386 0000726 124.3834  46.3522 12.62267289730089
GLOBALSTAR M083         
1 37739U 11033A   26217.06723939 -.00000108  00000+0 -23420-4 0  9999
2 37739  51.9838 223.6648 0000476 114.8941 284.1346 12.62258490699125
GLOBALSTAR M088         
1 37740U 11033B   26217.14358965 -.00000089  00000+0  81640-4 0  9998
2 37740  52.0209 129.9773 0000513  50.9754  94.4304 12.62269656694679
GLOBALSTAR M091         
1 37741U 11033C   26217.07826767 -.00000102  00000+0  99621-5 0  9996
2 37741  51.9994  93.0704 0000860  61.0301  87.7019 12.62264506695454
GLOBALSTAR M085         
1 37742U 11033D   26216.98820186 -.00000114  00000+0 -57634-4 0  9996
2 37742  52.0132  44.6780 0001040  77.1684  82.0639 12.62264639695958
GLOBALSTAR M081         
1 37743U 11033E   26216.93651229 -.00000104  00000+0 -97775-6 0  9993
2 37743  51.9964  47.2158 0000887  86.1624  78.0572 12.62265672696095
GLOBALSTAR M089         
1 37744U 11033F   26216.81750639 -.00000103  00000+0  50731-5 0  9994
2 37744  51.9955   1.7275 0000628 116.8904  47.5589 12.62267752696928
GLOBALSTAR M084         
1 38040U 11080A   26216.75311698 -.00000102  00000+0  96125-5 0  9993
2 38040  51.9981 229.4319 0000344 162.8893   8.4007 12.62269764674896
GLOBALSTAR M080         
1 38041U 11080B   26217.09076728 -.00000095  00000+0  49586-4 0  9993
2 38041  52.0035 230.1405 0000445  42.8385 352.7907 12.62258044675062
GLOBALSTAR M082         
1 38042U 11080C   26217.11608150 -.00000093  00000+0  59420-4 0  9993
2 38042  52.0055 185.5660 0000479  46.0925  35.4768 12.62274973675771
GLOBALSTAR M092         
1 38043U 11080D   26217.15692676 -.00000095  00000+0  51526-4 0  9995
2 38043  52.0081 275.8453 0000454 123.7752 262.6928 12.62268417674236
GLOBALSTAR M090         
1 38044U 11080E   26217.06278917 -.00000094  00000+0  55764-4 0  9991
2 38044  52.0102 179.6999 0000529  68.9667   9.0561 12.62269776675882
GLOBALSTAR M086         
1 38045U 11080F   26217.08420815 -.00000076  00000+0  15665-3 0  9995
2 38045  51.9879 179.4833 0001205 138.6431 301.9446 12.62288409675838
GLOBALSTAR M097         
1 39072U 13005A   26217.01938225 -.00000108  00000+0 -21109-4 0  9995
2 39072  52.0044  94.6859 0000837  68.9514 291.1443 12.62271301623077
GLOBALSTAR M093         
1 39073U 13005B   26217.07188569 -.00000104  00000+0 -26085-5 0  9995
2 39073  52.0103  87.8924 0001028  76.2139 283.8842 12.62266654623031
GLOBALSTAR M094         
1 39074U 13005C   26216.67584141 -.00000110  00000+0 -36821-4 0  9992
2 39074  51.9979   3.1653 0001013  97.6779 262.4203 12.62264304624598
GLOBALSTAR M096         
1 39075U 13005D   26216.92685707 -.00000114  00000+0 -57533-4 0  9998
2 39075  52.0076  51.2406 0001054  76.2758 283.8226 12.62275973623544
GLOBALSTAR M078         
1 39076U 13005E   26217.13765956  .00000001  00000+0  58638-3 0  9997
2 39076  51.9867 134.5432 0001344  30.7716 329.3230 12.62261295622199
GLOBALSTAR M095         
1 39077U 13005F   26217.08511070 -.00000089  00000+0  82768-4 0  9997
2 39077  52.0074 132.3757 0000961  50.1421 309.9530 12.62264145622049
GLOBALSTAR M087         
1 52888U 22064A   26217.09819794 -.00000092  00000+0  64639-4 0  9993
2 52888  51.9991 273.5490 0000638 106.0356 254.0581 12.62262432197311
