IRIDIUM 106             
1 41917U 17003A   26219.93349925 -.00000008  00000+0 -99539-5 0  9996
2 41917  86.3915  66.9104 0002364  87.6181 272.5285 14.34217317500625
IRIDIUM 103             
1 41918U 17003B   26219.92080888  .00000068  00000+0  17368-4 0  9999
2 41918  86.3916  66.8154 0002120  92.6637 267.4802 14.34216756500649
IRIDIUM 109             
1 41919U 17003C   26219.92715527 -.00000038  00000+0 -20532-4 0  9991
2 41919  86.3916  66.8730 0002057  89.3000 270.8432 14.34216940500615
IRIDIUM 102             
1 41920U 17003D   26219.96521142  .00000128  00000+0  38773-4 0  9999
2 41920  86.3917  66.7796 0002199  86.8882 273.2565 14.34217507500700
IRIDIUM 105             
1 41921U 17003E   26219.92380785 -.00000001  00000+0 -72960-5 0  9991
2 41921  86.3945  35.2268 0001778  90.4622 269.6778 14.34217472502553
IRIDIUM 104             
1 41922U 17003F   26219.97791314  .00000129  00000+0  38932-4 0  9990
2 41922  86.3916  66.8178 0001915  92.9298 267.2117 14.34217858500693
IRIDIUM 114             
1 41923U 17003G   26219.91446648  .00000124  00000+0  37383-4 0  9996
2 41923  86.3916  66.8273 0002103  90.4151 269.7286 14.34217129500663
IRIDIUM 108             
1 41924U 17003H   26219.94275872  .00000045  00000+0  89267-5 0  9990
2 41924  86.3942  35.1054 0002112  88.2262 271.9175 14.34217889502529
IRIDIUM 112             
1 41925U 17003J   26219.97155377  .00000008  00000+0 -43366-5 0  9991
2 41925  86.3911  66.6426 0001980  88.2643 271.8780 14.34217470500696
IRIDIUM 111             
1 41926U 17003K   26219.95886883  .00000017  00000+0 -86195-6 0  9991
2 41926  86.3913  66.7199 0002057  88.6312 271.5120 14.34217493500678
IRIDIUM 113             
1 42803U 17039A   26219.93883361  .00000002  00000+0 -63481-5 0  9997
2 42803  86.3981 300.5530 0002073  96.8115 263.3316 14.34217420478609
IRIDIUM 123             
1 42804U 17039B   26219.84077523  .00000034  00000+0  49692-5 0  9995
2 42804  86.4013 332.0524 0002340  96.4558 263.6904 14.34217768477356
IRIDIUM 120             
1 42805U 17039C   26219.93249148 -.00000011  00000+0 -10841-4 0  9990
2 42805  86.3969 300.3314 0002304  93.2729 266.8731 14.34217354478597
IRIDIUM 115             
1 42806U 17039D   26219.77004833  .00000177  00000+0  46694-4 0  9999
2 42806  86.4508 300.5353 0002489  97.3409 262.8075 14.43281112481704
IRIDIUM 118             
1 42807U 17039E   26219.80271737  .00000134  00000+0  40872-4 0  9998
2 42807  86.4012 332.0659 0002154  93.7406 266.4036 14.34216179477343
IRIDIUM 117             
1 42808U 17039F   26219.82174730  .00000025  00000+0  18991-5 0  9993
2 42808  86.4012 332.0155 0002248  95.9353 264.2099 14.34217768477377
IRIDIUM 126             
1 42809U 17039G   26219.84711768  .00000061  00000+0  14581-4 0  9994
2 42809  86.4012 332.0567 0002139  97.6884 262.4555 14.34217295477352
IRIDIUM 124             
1 42810U 17039H   26219.84252768  .00000201  00000+0  53846-4 0  9999
2 42810  86.4453 268.7592 0002395  96.7416 263.4058 14.43278810482569
IRIDIUM 128             
1 42811U 17039J   26219.90762433  .00000019  00000+0 -28942-6 0  9991
2 42811  86.3992   3.5249 0002205  92.2637 267.8812 14.34217572477396
IRIDIUM 121             
1 42812U 17039K   26219.79637705  .00000010  00000+0 -36589-5 0  9998
2 42812  86.4013 332.1064 0002117  92.4981 267.6457 14.34217533477226
IRIDIUM 133             
1 42955U 17061A   26219.93933722 -.00000061  00000+0 -28799-4 0  9995
2 42955  86.3993   3.6304 0002121  92.2634 267.8805 14.34217293462197
IRIDIUM 100             
1 42956U 17061B   26219.93299479  .00000024  00000+0  16740-5 0  9991
2 42956  86.3996   3.5504 0002191  91.3050 268.8397 14.34217599462197
IRIDIUM 122             
1 42957U 17061C   26219.90128159  .00000076  00000+0  20055-4 0  9995
2 42957  86.3994   3.5639 0002184  94.1403 266.0042 14.34217951462199
IRIDIUM 129             
1 42958U 17061D   26219.92665123  .00000009  00000+0 -38370-5 0  9992
2 42958  86.3993   3.6212 0001866  93.5335 266.6074 14.34217640462219
IRIDIUM 119             
1 42959U 17061E   26219.89493863 -.00000016  00000+0 -12730-4 0  9999
2 42959  86.3993   3.6304 0002043  94.8901 265.2528 14.34217475462229
IRIDIUM 107             
1 42960U 17061F   26219.91396742 -.00000167  00000+0 -66754-4 0  9994
2 42960  86.3994   3.6440 0002278  96.0383 264.1073 14.34216964462237
IRIDIUM 132             
1 42961U 17061G   26219.92030807  .00000092  00000+0  25639-4 0  9995
2 42961  86.3995   3.6203 0002206  93.4977 266.6471 14.34218421462236
IRIDIUM 136             
1 42962U 17061H   26219.95202239  .00000049  00000+0  10534-4 0  9999
2 42962  86.3996   3.6138 0002202  90.5889 269.5560 14.34217783462254
IRIDIUM 139             
1 42963U 17061J   26219.95836358  .00000037  00000+0  63258-5 0  9994
2 42963  86.3999   3.6740 0002245  92.2686 267.8767 14.34217006462267
IRIDIUM 125             
1 42964U 17061K   26219.94567985  .00000032  00000+0  43135-5 0  9998
2 42964  86.4000   3.7410 0002200 106.8462 253.2975 14.34217228462279
IRIDIUM 135             
1 43070U 17083A   26219.78026697 -.00000148  00000+0 -59817-4 0  9996
2 43070  86.3975 300.4528 0002126  94.9501 265.1937 14.34216433451548
IRIDIUM 138             
1 43071U 17083B   26219.94517587  .00000127  00000+0  38459-4 0  9992
2 43071  86.3988 300.0874 0002150  98.6618 261.4821 14.34217621451552
IRIDIUM 116             
1 43072U 17083C   26219.70415846  .00000117  00000+0  34786-4 0  9990
2 43072  86.3974 300.4701 0002487  91.4134 268.7347 14.34217103451556
IRIDIUM 130             
1 43073U 17083D   26219.74221380 -.00000017  00000+0 -13093-4 0  9992
2 43073  86.3984 300.7343 0002387  95.4904 264.6565 14.34217420451505
IRIDIUM 151             
1 43074U 17083E   26219.92614842 -.00000016  00000+0 -12712-4 0  9998
2 43074  86.3975 300.4360 0002177  93.7209 266.4236 14.34217408451554
IRIDIUM 134             
1 43075U 17083F   26219.96420396  .00000013  00000+0 -23007-5 0  9998
2 43075  86.3978 300.4290 0002319  95.3036 264.8424 14.34217643451523
IRIDIUM 137             
1 43076U 17083G   26219.90712088 -.00000023  00000+0 -15285-4 0  9995
2 43076  86.3979 300.5466 0002224  84.7093 275.4357 14.34217320451582
IRIDIUM 141             
1 43077U 17083H   26219.76124083 -.00000017  00000+0 -13089-4 0  9995
2 43077  86.3974 300.4352 0002108  95.9587 264.1849 14.34217382451561
IRIDIUM 153             
1 43078U 17083J   26219.85295657  .00000022  00000+0  68306-6 0  9990
2 43078  86.3931 268.8689 0002228  96.9726 263.1724 14.34217598452688
IRIDIUM 131             
1 43079U 17083K   26219.95786097 -.00000009  00000+0 -10316-4 0  9998
2 43079  86.3980 300.5425 0002089  94.9824 265.1610 14.34217476451520
IRIDIUM 144             
1 43249U 18030A   26219.85929960 -.00000009  00000+0 -10241-4 0  9994
2 43249  86.3930 268.7938 0002282  91.6022 268.5435 14.34217353437549
IRIDIUM 149             
1 43250U 18030B   26219.65633668  .00000098  00000+0  28041-4 0  9994
2 43250  86.3928 268.8455 0002233  94.5669 265.5782 14.34217152437536
IRIDIUM 157             
1 43251U 18030C   26219.88466967  .00000016  00000+0 -15173-5 0  9990
2 43251  86.3930 268.8042 0002188  94.4800 265.6646 14.34217539437547
IRIDIUM 140             
1 43252U 18030D   26219.83392881  .00000019  00000+0 -42148-6 0  9995
2 43252  86.3931 268.8377 0002192  94.5051 265.6395 14.34217554437597
IRIDIUM 145             
1 43253U 18030E   26219.89101303  .00000012  00000+0 -26260-5 0  9998
2 43253  86.3930 268.7860 0002467  90.3487 269.7992 14.34217450437532
IRIDIUM 146             
1 43254U 18030F   26219.66267921  .00000002  00000+0 -64890-5 0  9993
2 43254  86.3931 268.8936 0002276  92.4411 267.7045 14.34217419437517
IRIDIUM 148             
1 43255U 18030G   26219.84027182 -.00000012  00000+0 -11406-4 0  9993
2 43255  86.3930 268.8631 0002119  91.1949 268.9490 14.34217277437572
IRIDIUM 142             
1 43256U 18030H   26219.87832748  .00000008  00000+0 -40337-5 0  9999
2 43256  86.3928 268.7344 0002308  90.5330 269.6131 14.34217453437540
IRIDIUM 150             
1 43257U 18030J   26219.84661448  .00000002  00000+0 -61936-5 0  9996
2 43257  86.3931 268.8656 0002260  93.8668 266.2787 14.34217381437561
IRIDIUM 143             
1 43258U 18030K   26219.61828833  .00000055  00000+0  12650-4 0  9990
2 43258  86.3934 269.0560 0002394  93.4295 266.7174 14.34213225437469
IRIDIUM 161             
1 43478U 18047C   26219.95912882  .00000187  00000+0  49503-4 0  9990
2 43478  86.4438  66.8112 0002014  87.0386 273.1045 14.43279277432607
IRIDIUM 152             
1 43479U 18047D   26219.93984069  .00000015  00000+0 -17837-5 0  9992
2 43479  86.3910  66.6809 0001994  89.0014 271.1410 14.34217473429902
IRIDIUM 147             
1 43480U 18047E   26219.94618386  .00000010  00000+0 -34713-5 0  9998
2 43480  86.3913  66.6844 0002153  85.3779 274.7663 14.34217463429909
IRIDIUM 110             
1 43481U 18047F   26219.95252543  .00000008  00000+0 -41357-5 0  9998
2 43481  86.3914  66.7748 0001743  88.4418 271.6977 14.34217460429892
IRIDIUM 162             
1 43482U 18047G   26219.95283304  .00000173  00000+0  45413-4 0  9996
2 43482  86.4436  66.7043 0002251  88.3822 271.7637 14.43280320432594
IRIDIUM 160             
1 43569U 18061A   26219.96813227  .00000040  00000+0  73520-5 0  9996
2 43569  86.3945  35.1338 0002124  88.4516 271.6923 14.34217675420790
IRIDIUM 166             
1 43570U 18061B   26219.92373450  .00000040  00000+0  72326-5 0  9996
2 43570  86.3944  35.1021 0002242  88.3294 271.8159 14.34217832420814
IRIDIUM 158             
1 43571U 18061C   26219.96178756 -.00000039  00000+0 -21088-4 0  9991
2 43571  86.3941  35.0963 0002047  91.7613 268.3818 14.34217112420782
IRIDIUM 165             
1 43572U 18061D   26219.91739061  .00000043  00000+0  83725-5 0  9999
2 43572  86.3945  35.1620 0002271  88.1748 271.9708 14.34217935420800
IRIDIUM 155             
1 43573U 18061E   26219.94910327  .00000045  00000+0  88570-5 0  9994
2 43573  86.3941  35.0153 0002229  91.1506 268.9945 14.34217393420779
IRIDIUM 154             
1 43574U 18061F   26219.93007453  .00000062  00000+0  14908-4 0  9993
2 43574  86.3946  35.1593 0002256  89.0709 271.0746 14.34217157420823
IRIDIUM 163             
1 43575U 18061G   26219.91104926  .00000045  00000+0  90065-5 0  9995
2 43575  86.3943  35.0810 0002112  90.7685 269.3753 14.34217751420799
IRIDIUM 156             
1 43576U 18061H   26219.95544511  .00000039  00000+0  67250-5 0  9991
2 43576  86.3943  35.0699 0002300  92.6839 267.4620 14.34217426420797
IRIDIUM 164             
1 43577U 18061J   26219.93641910  .00000045  00000+0  91209-5 0  9999
2 43577  86.3944  35.1190 0002248  86.9606 273.1847 14.34217832420836
IRIDIUM 159             
1 43578U 18061K   26219.97447327  .00000137  00000+0  41904-4 0  9998
2 43578  86.3943  35.0386 0002101  91.1494 268.9943 14.34217078420801
IRIDIUM 180             
1 43922U 19002A   26219.83443222  .00000008  00000+0 -41465-5 0  9993
2 43922  86.4010 332.0151 0002035  94.2242 265.9186 14.34217611396396
IRIDIUM 176             
1 43923U 19002B   26219.81447447  .00000324  00000+0  47503-4 0  9993
2 43923  86.6132 331.9597 0002335  93.8454 266.3030 14.72260603406845
IRIDIUM 168             
1 43924U 19002C   26219.82809053  .00000162  00000+0  50773-4 0  9993
2 43924  86.4014 332.0962 0002156  94.7200 265.4243 14.34217119396375
IRIDIUM 173             
1 43925U 19002D   26219.81540370  .00000015  00000+0 -17303-5 0  9998
2 43925  86.4009 331.9884 0002079  95.0768 265.0666 14.34216688396351
IRIDIUM 169             
1 43926U 19002E   26219.93219554  .00000162  00000+0  46294-4 0  9991
2 43926  86.4251   3.5577 0002532 101.5264 258.6219 14.38606498397663
IRIDIUM 172             
1 43927U 19002F   26219.80906204 -.00000041  00000+0 -21719-4 0  9996
2 43927  86.4010 331.9993 0002040  94.2425 265.9004 14.34217357396365
IRIDIUM 175             
1 43928U 19002G   26219.63771177  .00000160  00000+0  41173-4 0  9993
2 43928  86.4484 269.0130 0005257  69.6724 290.5041 14.43636882406406
IRIDIUM 171             
1 43929U 19002H   26219.85980275  .00000018  00000+0 -81268-6 0  9993
2 43929  86.4020 332.2897 0002275  93.6438 266.5018 14.34217785396369
IRIDIUM 170             
1 43930U 19002J   26219.75266081  .00000347  00000+0  51105-4 0  9995
2 43930  86.6131 331.9872 0002228  94.9206 265.2266 14.72258193406846
IRIDIUM 167             
1 43931U 19002K   26219.78369153  .00000051  00000+0  11059-4 0  9999
2 43931  86.4012 332.0325 0002517  93.8395 266.3088 14.34218125396353
IRIDIUM 181             
1 56726U 23068S   26219.96484026  .00000053  00000+0  96200-5 0  9993
2 56726  86.4481  35.1333 0002125  84.3731 275.7712 14.43310500169900
IRIDIUM 177             
1 56727U 23068T   26219.77307766  .00000681  00000+0  86473-4 0  9995
2 56727  86.1979 304.3060 0002387  96.6941 263.4551 14.80035507173998
IRIDIUM 174             
1 56728U 23068U   26219.80826493  .00000204  00000+0  28443-4 0  9997
2 56728  86.6140 332.1166 0002210 101.8958 258.2507 14.72247684173616
IRIDIUM 178             
1 56729U 23068V   26219.89741291  .00000571  00000+0  71998-4 0  9999
2 56729  86.6565   3.7525 0002386  95.9306 264.2187 14.80046243174015
IRIDIUM 179             
1 56730U 23068W   26219.95964886  .00000578  00000+0  72953-4 0  9994
2 56730  86.6790  12.8561 0002544  93.4143 266.7369 14.80038637174024
