QIANFAN-1               
1 60379U 24140A   26031.46378488  .00000164  00000+0  23510-3 0  9990
2 60379  88.9768 294.1425 0019295  71.7371 288.5878 13.50992465 74069
QIANFAN-2               
1 60380U 24140B   26031.49259961  .00000170  00000+0  24446-3 0  9995
2 60380  88.9754 293.9719 0014342  47.3010 312.9346 13.50996521 74122
QIANFAN-3               
1 60381U 24140C   26031.42669512  .00000175  00000+0  25252-3 0  9997
2 60381  88.9746 294.1076 0015624  58.4097 301.8577 13.50997067 74023
QIANFAN-4               
1 60382U 24140D   26031.47608506  .00000152  00000+0  21671-3 0  9995
2 60382  88.9771 294.0127 0014610  49.6089 310.6335 13.50992633 74153
QIANFAN-5               
1 60383U 24140E   26031.45147855  .00000162  00000+0  23173-3 0  9999
2 60383  88.9746 294.1304 0016963  68.3095 291.9860 13.50994772 74017
QIANFAN-6               
1 60384U 24140F   26031.47204622  .00000149  00000+0  21231-3 0  9996
2 60384  88.9773 293.8878 0014792  54.9088 305.3448 13.50994695 74219
QIANFAN-7               
1 60385U 24140G   26031.43695170  .00000710  00000+0  28184-3 0  9993
2 60385  88.9781 287.8923 0012979 234.5701 125.4282 14.27740591 77484
QIANFAN-8               
1 60386U 24140H   26031.48031185  .00000154  00000+0  22018-3 0  9991
2 60386  88.9774 294.1252 0018272  56.3892 303.9000 13.50996053 74069
QIANFAN-9               
1 60387U 24140J   26031.45549083  .00000168  00000+0  24084-3 0  9990
2 60387  88.9772 294.2021 0017973  56.2219 304.0641 13.50990828 74047
QIANFAN-10              
1 60388U 24140K   26031.45958968  .00000165  00000+0  23626-3 0  9995
2 60388  88.9781 293.5538 0016082  35.9625 324.2605 13.50996683 74171
QIANFAN-11              
1 60389U 24140L   26031.42272109  .00000164  00000+0  23461-3 0  9995
2 60389  88.9708 294.1077 0015993  56.3316 303.9358 13.50996130 73827
QIANFAN-12              
1 60390U 24140M   26031.44323566  .00000155  00000+0  22101-3 0  9993
2 60390  88.9751 294.1706 0014888  63.6855 296.5823 13.50993754 73954
QIANFAN-13              
1 60391U 24140N   26031.48847946  .00000172  00000+0  24672-3 0  9995
2 60391  88.9763 294.2719 0014717  65.9275 294.3415 13.50994245 73987
QIANFAN-14              
1 60392U 24140P   26031.43904108  .00000151  00000+0  21501-3 0  9990
2 60392  88.9742 294.1641 0018413  65.7349 294.5723 13.50993811 73987
QIANFAN-15              
1 60393U 24140Q   26031.44735633  .00000147  00000+0  20825-3 0  9990
2 60393  88.9766 294.1315 0014092  54.0348 306.2108 13.50992077 73971
QIANFAN-16              
1 60394U 24140R   26031.43495004  .00000160  00000+0  22946-3 0  9996
2 60394  88.9769 294.2543 0016360  69.4078 290.8826 13.50997727 73881
QIANFAN-17              
1 60395U 24140S   26031.43098250  .00000207  00000+0  30168-3 0  9996
2 60395  88.9779 294.3064 0016704  63.7582 296.5284 13.50995044 74849
QIANFAN-18              
1 60396U 24140T   26031.48444949  .00000153  00000+0  21772-3 0  9993
2 60396  88.9772 293.8306 0015868  48.1341 312.1161 13.50991033 74243
QIANFAN-19              
1 61552U 24185A   26031.46347029  .00000498  00000+0  25296-3 0  9993
2 61552  88.9770  72.2416 0008631 133.2918 226.8990 14.14354725 76697
QIANFAN-20              
1 61553U 24185B   26031.47521990  .00000603  00000+0  34096-3 0  9992
2 61553  88.9767  72.6144 0006313 164.6879 195.4497 14.08901033 76499
QIANFAN-21              
1 61554U 24185C   26031.47838594  .00000652  00000+0  28485-3 0  9993
2 61554  88.9685  71.1512 0010228 188.7714 171.3300 14.22685458 77041
QIANFAN-22              
1 61555U 24185D   26031.44833972  .00000149  00000+0  11727-3 0  9998
2 61555  88.9754  73.7990 0006159 185.2779 174.8328 13.86324008 75820
QIANFAN-23              
1 61556U 24185E   26031.43949444  .00000597  00000+0  29358-3 0  9996
2 61556  88.9762  72.0305 0008988 143.6574 216.5226 14.16353806 76784
QIANFAN-24              
1 61557U 24185F   26031.50944873  .00000692  00000+0  29583-3 0  9992
2 61557  88.9744  71.3459 0011354 128.3274 231.8940 14.23885146 77100
QIANFAN-25              
1 61558U 24185G   26031.47185190  .00000601  00000+0  35844-3 0  9995
2 61558  88.9754  72.5587 0011506 152.6662 207.5128 14.05961619 76496
QIANFAN-26              
1 61559U 24185H   26031.49484212  .00000184  00000+0  17095-3 0  9999
2 61559  88.9761  74.3802 0004877 199.6326 160.4653 13.77845451 75522
QIANFAN-27              
1 61560U 24185J   26031.45218969  .00000459  00000+0  18111-3 0  9996
2 61560  88.9756  71.1131 0009809 119.1421 241.0756 14.27404863 77257
QIANFAN-28              
1 61561U 24185K   26031.47927894  .00000902  00000+0  35695-3 0  9992
2 61561  88.9772  71.1162 0009317 118.3122 241.9014 14.28150578 77273
QIANFAN-29              
1 61562U 24185L   26031.43468580  .00000205  00000+0  29883-3 0  9999
2 61562  88.9737  76.1752 0007893 264.5398  95.4853 13.51030643 74502
QIANFAN-30              
1 61563U 24185M   26031.44718466  .00000136  00000+0  19541-3 0  9995
2 61563  88.9757  75.7186 0005817 243.7073 116.3480 13.50007309 74774
QIANFAN-31              
1 61564U 24185N   26031.41847966  .00000215  00000+0  28088-3 0  9995
2 61564  88.9741  75.4442 0005375 233.4140 126.6521 13.57989710 74907
QIANFAN-32              
1 61565U 24185P   26031.46222126  .00000166  00000+0  23986-3 0  9993
2 61565  88.9802  75.8661 0007564 280.6534  79.3765 13.50754666 74756
QIANFAN-33              
1 61566U 24185Q   26031.48502266  .00000367  00000+0  25525-3 0  9996
2 61566  88.9750  73.2609 0007988 155.6445 204.5111 13.96595207 76107
QIANFAN-34              
1 61567U 24185R   26031.46046473  .00000471  00000+0  29800-3 0  9994
2 61567  88.9726  72.7611 0006695 151.3692 208.7857 14.02354933 76323
QIANFAN-35              
1 61568U 24185S   26031.44863558  .00000770  00000+0  30412-3 0  9997
2 61568  88.9753  71.0426 0008695 115.5975 244.6119 14.28064938 77274
QIANFAN-36              
1 61569U 24185T   26031.49112548  .00000118  00000+0  15281-3 0  9992
2 61569  88.9735  75.8620 0004174 248.7746 111.2962 13.55605619 74667
QIANFAN-37              
1 62238U 24232B   26031.46743971  .00000037  00000+0  39514-4 0  9992
2 62238  88.9998  36.3022 0001570  71.8387 288.2935 13.50983550105885
QIANFAN-38              
1 62239U 24232C   26031.49217292  .00000060  00000+0  73928-4 0  9991
2 62239  89.0005  36.2189 0016176  55.9123 304.3561 13.50996434105946
QIANFAN-39              
1 62240U 24232D   26031.47630119  .00000174  00000+0  67551-4 0  9999
2 62240  89.0004  31.6132 0013841 277.2285  82.7335 14.25418438108471
QIANFAN-40              
1 62241U 24232E   26031.45103216  .00000063  00000+0  78511-4 0  9996
2 62241  89.0034  35.8213 0015352  63.3930 296.8792 13.50995392106302
QIANFAN-41              
1 62242U 24232F   26031.45923330  .00000046  00000+0  53044-4 0  9999
2 62242  89.0003  36.1729 0015520  52.6753 307.5809 13.50983893105969
QIANFAN-42              
1 62243U 24232G   26031.43575674  .00000170  00000+0  67193-4 0  9990
2 62243  89.0001  31.6726 0012743 284.6607  75.3173 14.24513004108449
QIANFAN-43              
1 62244U 24232H   26031.45511655  .00000042  00000+0  45640-4 0  9993
2 62244  89.0008  36.2409 0017159  56.9595 303.3201 13.50982834 74579
QIANFAN-44              
1 62245U 24232J   26031.51680328  .00000052  00000+0  62488-4 0  9995
2 62245  89.0006  36.0445 0015307  54.6353 305.6226 13.50985126106054
QIANFAN-45              
1 62246U 24232K   26031.48394144  .00000057  00000+0  69101-4 0  9994
2 62246  89.0010  36.1961 0015960  54.1883 306.0749 13.50994567105976
QIANFAN-46              
1 62247U 24232L   26031.43454942  .00000052  00000+0  62057-4 0  9991
2 62247  89.0006  36.2681 0016119  59.2788 300.9949 13.50983206105927
QIANFAN-47              
1 62248U 24232M   26031.43869108  .00000082  00000+0  10780-3 0  9994
2 62248  89.0003  36.1987 0016552  58.3449 301.9314 13.50995415105953
QIANFAN-48              
1 62249U 24232N   26031.47566677  .00000039  00000+0  41889-4 0  9991
2 62249  89.0006  36.1987 0018819  60.2024 300.0995 13.50984329105964
QIANFAN-49              
1 62250U 24232P   26031.46332395  .00000041  00000+0  45005-4 0  9997
2 62250  89.0005  36.2121 0015806  55.9641 304.3008 13.50984620 74551
QIANFAN-50              
1 62251U 24232Q   26031.48807083  .00000053  00000+0  63814-4 0  9992
2 62251  89.0010  36.2205 0017487  56.7145 303.5678 13.50995357 74582
QIANFAN-51              
1 62252U 24232R   26031.47157950  .00000046  00000+0  52433-4 0  9990
2 62252  89.0004  36.2130 0015041  60.6908 299.5743 13.50984024 74573
QIANFAN-52              
1 62253U 24232S   26031.42633762  .00000039  00000+0  41316-4 0  9996
2 62253  89.0000  36.0891 0016896  53.3407 306.9295 13.50994548 74650
QIANFAN-53              
1 62254U 24232T   26031.47977298  .00000052  00000+0  61773-4 0  9991
2 62254  89.0008  36.1920 0015806  54.4912 305.7711 13.50984776 74625
QIANFAN-54              
1 62255U 24232U   26031.44683808  .00000057  00000+0  69925-4 0  9992
2 62255  89.0000  35.8693 0004096  90.5728 269.5892 13.50985301106129
QIANFAN-55              
1 62785U 25016A   26031.47275622  .00000129  00000+0  18085-3 0  9995
2 62785  88.9746  98.0762 0017163 198.0531 162.0012 13.50992025 53904
QIANFAN-56              
1 62786U 25016B   26031.41511896  .00000120  00000+0  16787-3 0  9994
2 62786  88.9718  97.9052 0015733 200.0135 160.0401 13.50994276 53943
QIANFAN-57              
1 62787U 25016C   26031.44811788  .00000122  00000+0  16991-3 0  9990
2 62787  88.9750  98.0705 0002108  85.4442 274.6950 13.50992723 53918
QIANFAN-58              
1 62788U 25016D   26031.41924913  .00000125  00000+0  17413-3 0  9996
2 62788  88.9719  97.8898 0013926 191.3301 168.7539 13.50994558 53953
QIANFAN-59              
1 62789U 25016E   26031.44398862  .00000113  00000+0  15563-3 0  9999
2 62789  88.9743  97.9728 0014152 195.2168 164.8559 13.50990646 53953
QIANFAN-60              
1 62790U 25016F   26031.47686675  .00000118  00000+0  16444-3 0  9990
2 62790  88.9724  97.9313 0015821 192.3967 167.6797 13.50988763 53944
QIANFAN-61              
1 62791U 25016G   26031.43575760  .00000123  00000+0  17169-3 0  9990
2 62791  88.9792  98.1324 0014764 191.3961 168.6858 13.50990052 53957
QIANFAN-62              
1 62792U 25016H   26031.43986450  .00000121  00000+0  16814-3 0  9997
2 62792  88.9738  97.9735 0016124 192.4117 167.6639 13.50992711 53947
QIANFAN-63              
1 62793U 25016J   26031.46454490  .00000128  00000+0  17886-3 0  9992
2 62793  88.9744  97.9258 0016011 197.7248 162.3346 13.50990956 53983
QIANFAN-64              
1 62794U 25016K   26031.43163427  .00000118  00000+0  16378-3 0  9991
2 62794  88.9731  97.8965 0014196 189.7314 170.3565 13.50989360 53979
QIANFAN-65              
1 62795U 25016L   26031.42758413  .00000124  00000+0  17396-3 0  9994
2 62795  88.9728  97.9212 0013991 191.3254 168.7585 13.50988104 53952
QIANFAN-66              
1 62796U 25016M   26031.45630301  .00000115  00000+0  15889-3 0  9998
2 62796  88.9747  97.8981 0015238 187.5667 172.5256 13.50992926 54009
QIANFAN-67              
1 62797U 25016N   26031.46039357  .00000120  00000+0  16785-3 0  9996
2 62797  88.9737  97.9184 0014968 194.3362 165.7367 13.50997204 53978
QIANFAN-68              
1 62798U 25016P   26031.45222567  .00000114  00000+0  15787-3 0  9997
2 62798  88.9741  97.9663 0015082 192.6325 167.4450 13.50989151 53956
QIANFAN-69              
1 62799U 25016Q   26031.46867259  .00000123  00000+0  17238-3 0  9995
2 62799  88.9720  97.8232 0015785 194.0372 166.0342 13.50989485 53992
QIANFAN-70              
1 62800U 25016R   26031.48516196  .00000110  00000+0  15157-3 0  9995
2 62800  88.9741  97.9706 0015725 184.3316 175.7701 13.50993267 53954
QIANFAN-71              
1 62801U 25016S   26031.48097134  .00000115  00000+0  15884-3 0  9994
2 62801  88.9735  97.9475 0015571 197.4965 162.5652 13.50992660 53950
QIANFAN-72              
1 62802U 25016T   26031.42335735  .00000119  00000+0  16528-3 0  9991
2 62802  88.9725  97.9620 0018557 206.2322 153.7891 13.50992514 53938
QIANFAN-73              
1 63159U 25046A   26031.45043298  .00000205  00000+0  29949-3 0  9990
2 63159  88.9796 314.8880 0015099 347.7458  12.3323 13.50997243 54126
QIANFAN-74              
1 63160U 25046B   26031.43395342  .00000214  00000+0  31225-3 0  9990
2 63160  88.9795 314.7785 0001799  69.8587 290.2757 13.50994656 54186
QIANFAN-75              
1 63161U 25046C   26031.49515131  .00000207  00000+0  30205-3 0  9996
2 63161  88.9797 315.0065 0016408 350.0719  10.0105 13.50993649 54062
QIANFAN-76              
1 63162U 25046D   26031.49174450  .00000197  00000+0  28688-3 0  9992
2 63162  88.9795 314.9872 0013998 351.8630   8.2292 13.51000189 54073
QIANFAN-77              
1 63163U 25046E   26031.49763881  .00000509  00000+0  36094-3 0  9992
2 63163  88.9794 312.5857 0013114 290.6455  69.3315 13.96145384 55391
QIANFAN-78              
1 63164U 25046F   26031.45860144  .00000197  00000+0  28653-3 0  9994
2 63164  88.9795 314.8541 0015439 353.4212   6.6734 13.50999356 54146
QIANFAN-79              
1 63165U 25046G   26031.48738425  .00000105  00000+0  14407-3 0  9995
2 63165  88.9799 314.9605 0015102 352.5512   7.5412 13.50966547 54096
QIANFAN-80              
1 63166U 25046H   26031.42973968  .00000131  00000+0  18386-3 0  9992
2 63166  88.9796 314.6721 0014208 356.7498   3.3558 13.50989630 54245
QIANFAN-81              
1 63167U 25046J   26031.48152015  .00000180  00000+0  26030-3 0  9990
2 63167  88.9796 314.7346 0014861 345.5773  14.4952 13.50971262 54206
QIANFAN-82              
1 63168U 25046K   26031.44221079  .00000220  00000+0  32135-3 0  9992
2 63168  88.9796 314.7827 0013234 353.4997   6.5981 13.50998577 54189
QIANFAN-83              
1 63169U 25046L   26031.43552392  .00000258  00000+0  31944-3 0  9995
2 63169  88.9796 314.4623 0013866 335.7422  24.3080 13.62003127 54367
QIANFAN-84              
1 63170U 25046M   26031.46963817  .00000207  00000+0  30165-3 0  9996
2 63170  88.9796 314.9122 0016063 348.4807  11.5974 13.51007388 54112
QIANFAN-85              
1 63171U 25046N   26031.46680266  .00000191  00000+0  27740-3 0  9998
2 63171  88.9796 314.7841 0013561 352.2390   7.8549 13.50989273 54183
QIANFAN-86              
1 63172U 25046P   26031.47508459  .00000222  00000+0  32577-3 0  9992
2 63172  88.9798 314.6467 0011598 357.6483   2.4612 13.50999268 54265
QIANFAN-87              
1 63173U 25046Q   26031.44649721  .00000215  00000+0  31457-3 0  9996
2 63173  88.9794 314.7593 0012081 352.7435   7.3539 13.50996722 54190
QIANFAN-88              
1 63174U 25046R   26031.46266008  .00000195  00000+0  28396-3 0  9997
2 63174  88.9797 314.7135 0012750   0.2238 359.8916 13.50991327 54229
QIANFAN-89              
1 63175U 25046S   26031.49977118  .00000210  00000+0  30593-3 0  9992
2 63175  88.9797 314.8988 0016777 348.9374  11.1406 13.50968662 54120
QIANFAN-90              
1 63176U 25046T   26031.45444642  .00000205  00000+0  29955-3 0  9994
2 63176  88.9796 314.8758 0013681 348.9949  11.0901 13.50969866 54131
QIANFAN-91              
1 66033U 25233A   26031.48707235  .00000058  00000+0  71389-4 0  9995
2 66033  88.9909  57.0387 0001810  89.6104 270.5255 13.50991576 14727
QIANFAN-92              
1 66034U 25233B   26031.49529172  .00000050  00000+0  58063-4 0  9995
2 66034  88.9892  57.0319 0002035  90.6876 269.4508 13.50995168 14721
QIANFAN-93              
1 66035U 25233C   26031.50351641  .00000059  00000+0  72800-4 0  9996
2 66035  88.9919  57.0460 0001875  89.1097 271.0269 13.50994376 14721
QIANFAN-94              
1 66036U 25233D   26031.48804688  .00000038  00000+0  41044-4 0  9991
2 66036  88.9916  56.9547 0015076 242.9776 116.9836 13.50141572 14778
QIANFAN-95              
1 66037U 25233E   26029.54403073 -.02095269  00000+0 -21664+1 0  9995
2 66037  88.9913  56.7467 0007158 248.1647 111.8759 13.80080385 14733
QIANFAN-96              
1 66038U 25233F   26031.45003446  .00000050  00000+0  59012-4 0  9991
2 66038  88.9911  57.0533 0001749  89.4316 270.7035 13.50992051 14718
QIANFAN-97              
1 66039U 25233G   26031.50764897  .00000057  00000+0  70189-4 0  9997
2 66039  88.9914  57.0270 0001832  89.7850 270.3511 13.50993391 14734
QIANFAN-98              
1 66040U 25233H   26029.44540616 -.02103883  00000+0 -31549+1 0  9998
2 66040  88.9899  56.9844 0016100 241.5227 118.4306 13.57256651 14599
QIANFAN-99              
1 66041U 25233J   26031.44592030  .00000041  00000+0  45151-4 0  9995
2 66041  88.9915  57.0364 0001943 101.6905 258.4464 13.50993228 14722
QIANFAN-100             
1 66042U 25233K   26031.51174372  .00000053  00000+0  63699-4 0  9999
2 66042  88.9926  56.9414 0001861  88.9536 271.1828 13.50994561 14788
QIANFAN-101             
1 66043U 25233L   26031.46356240  .00000288  00000+0  11297-3 0  9996
2 66043  88.9914  56.2888 0013146 225.9839 134.0272 14.26705275 15138
QIANFAN-102             
1 66044U 25233M   26029.54511530 -.02135583  00000+0 -33684+1 0  9990
2 66044  88.9909  57.1465 0009130 260.8246  99.1875 13.54164043 14515
QIANFAN-103             
1 66045U 25233N   26031.46231469  .00000053  00000+0  64121-4 0  9998
2 66045  88.9915  57.0389 0001859  89.0507 271.0858 13.50988097 14722
QIANFAN-104             
1 66046U 25233P   26029.98513979 -.02109389  00000+0 -36286+1 0  9995
2 66046  88.9979  57.0837 0013317 244.9177 115.0591 13.48552455 14585
QIANFAN-105             
1 66047U 25233Q   26030.04093143 -.02127620  00000+0 -31488+1 0  9998
2 66047  88.9954  56.9198 0017443 234.9071 125.0449 13.58123824 14682
QIANFAN-106             
1 66048U 25233R   26031.47061443  .00000059  00000+0  73362-4 0  9998
2 66048  88.9902  57.0147 0002069 102.7963 257.3419 13.50993851 14731
QIANFAN-107             
1 66049U 25233S   26031.47881053  .00000053  00000+0  63130-4 0  9992
2 66049  88.9918  57.0247 0001882  89.6203 270.5163 13.50991135 14738
QIANFAN-108             
1 66050U 25233T   26031.48295946  .00000053  00000+0  63473-4 0  9995
2 66050  88.9911  57.0217 0002079 101.2732 258.8652 13.50993267 14737
