KUIPER-00008            
1 63724U 25088A   26244.44863772 -.00000209  00000+0  16245-5 0  9998
2 63724  51.9013  30.7998 0000651 132.5053 227.5964 14.79928770 74077
KUIPER-00009            
1 63725U 25088B   26244.17820325  .00004880  00000+0  33289-3 0  9999
2 63725  51.9031  43.1458 0001077  91.4090 268.7008 15.07860529 73876
KUIPER-00010            
1 63726U 25088C   26244.42027170  .00000477  00000+0  91515-4 0  9990
2 63726  51.9037  26.0342 0000308  94.9154 265.1844 14.79931703 73757
KUIPER-00011            
1 63727U 25088D   26244.44595900 -.00000455  00000+0 -30671-4 0  9998
2 63727  51.8991  33.4626 0000560 118.3920 241.7099 14.79928601 73783
KUIPER-00012            
1 63728U 25088E   26244.42834548  .00000907  00000+0  14797-3 0  9991
2 63728  51.9029  18.4819 0000345 106.0221 254.0779 14.79920394 73944
KUIPER-00013            
1 63729U 25088F   26243.68424204  .00000398  00000+0  81259-4 0  9995
2 63729  51.9022  54.2927 0000294  89.4776 270.6220 14.79927877 73485
KUIPER-00014            
1 63730U 25088G   26243.85298249 -.00002603  00000+0 -31249-3 0  9990
2 63730  51.9026  53.4894 0000547 109.1552 250.9469 14.79935227 73325
KUIPER-00015            
1 63731U 25088H   26244.48381941  .00000793  00000+0  13307-3 0  9994
2 63731  51.8995  60.7501 0000766 118.8529 241.2511 14.79929194 73732
KUIPER-00016            
1 63732U 25088J   26243.78283388  .00002519  00000+0  35946-3 0  9994
2 63732  51.8998  56.3074 0000776 112.6287 247.4757 14.79919919 73279
KUIPER-00018            
1 63733U 25088K   26244.43515217 -.00001540  00000+0 -17307-3 0  9993
2 63733  51.9045  43.4668 0000566  97.5587 262.5440 14.79935540 73513
KUIPER-00019            
1 63734U 25088L   26244.46182643  .00001070  00000+0  16930-3 0  9997
2 63734  51.9008  42.0950 0000710 138.3011 221.8005 14.79936000 73538
KUIPER-00020            
1 63735U 25088M   26244.43246430  .00000790  00000+0  13256-3 0  9996
2 63735  51.9025  45.9746 0000582 110.2303 249.8722 14.79933863 73689
KUIPER-00021            
1 63736U 25088N   26243.85845901 -.00000188  00000+0  42800-5 0  9991
2 63736  51.9012  48.4643 0000492 114.2087 245.8927 14.79927993 73436
KUIPER-00023            
1 63737U 25088P   26244.42976683  .00000439  00000+0  86541-4 0  9995
2 63737  51.9012  48.4278 0000760 117.0734 243.0306 14.79928267 73783
KUIPER-00024            
1 63738U 25088Q   26244.44325313  .00001019  00000+0  16263-3 0  9994
2 63738  51.9042  35.9779 0000664 130.2406 229.8615 14.79933411 74086
KUIPER-00025            
1 63739U 25088R   26244.46893366  .00001681  00000+0  24942-3 0  9993
2 63739  51.9042  43.3462 0000526 107.3884 252.7136 14.79928362 73846
KUIPER-00027            
1 63740U 25088S   26244.44053996 -.00001063  00000+0 -11044-3 0  9995
2 63740  51.9018  38.4312 0000626  98.9757 261.1276 14.79929230 73647
KUIPER-00028            
1 63741U 25088T   26244.13937292  .00000675  00000+0  11752-3 0  9994
2 63741  51.9007  37.2072 0000641 130.8508 229.2510 14.79931871 74048
KUIPER-00029            
1 63742U 25088U   26244.45300497  .00000954  00000+0  15412-3 0  9998
2 63742  51.9038  34.5144 0000914 125.8718 234.2329 14.79944152 73637
KUIPER-00030            
1 63743U 25088V   26243.88413759  .00001180  00000+0  18380-3 0  9990
2 63743  51.9026  55.8535 0000743 104.8688 255.2357 14.79932500 73579
KUIPER-00031            
1 63744U 25088W   26244.47431298  .00001288  00000+0  19790-3 0  9990
2 63744  51.9018  38.2642 0000553 114.7562 245.3458 14.79927167 73581
KUIPER-00032            
1 63745U 25088X   26244.48274782  .00010170  00000+0  24273-3 0  9997
2 63745  51.8658 250.8813 0004974  28.2630 331.8628 15.42141901 76633
KUIPER-00033            
1 63746U 25088Y   26244.23937359  .00002017  00000+0  29355-3 0  9994
2 63746  51.9007  69.3033 0000721 113.0613 247.0425 14.79934867 73618
KUIPER-00034            
1 63747U 25088Z   26244.41488432 -.00000311  00000+0 -11837-4 0  9992
2 63747  51.9024  31.0627 0000646 110.0290 250.0742 14.79929678 73842
KUIPER-00035            
1 63748U 25088AA  26244.52298145  .00000804  00000+0  13441-3 0  9992
2 63748  51.9003  55.5515 0000667 109.4079 250.6956 14.79936691 73562
KUIPER-00037            
1 63749U 25088AB  26244.51589748 -.00000555  00000+0 -43751-4 0  9997
2 63749  51.9014  54.4431 0000754 109.5042 250.6002 14.79923820 74369
KUIPER-00038            
1 63750U 25088AC  26243.69503104  .00001005  00000+0  16084-3 0  9996
2 63750  51.9033  44.2453 0000654 131.5469 228.5549 14.79929744 73438
KUIPER-00039            
1 64500U 25134A   26244.54546575 -.00004465  00000+0 -55698-3 0  9995
2 64500  51.9011 175.4815 0000810  84.9955 275.1099 14.79935835 66115
KUIPER-00040            
1 64501U 25134B   26244.56848003  .00001496  00000+0  22523-3 0  9999
2 64501  51.8976 185.4447 0000951  67.3888 292.7175 14.79932130 65971
KUIPER-00041            
1 64502U 25134C   26244.53197487  .00002362  00000+0  33888-3 0  9999
2 64502  51.8987 187.9958 0000835  79.3315 280.7741 14.79920810 65931
KUIPER-00042            
1 64503U 25134D   26244.03092130  .00002684  00000+0  38091-3 0  9992
2 64503  51.8983 185.1886 0000782  86.6750 273.4301 14.79933698 65932
KUIPER-00043            
1 64504U 25134E   26244.51171944  .00001807  00000+0  26602-3 0  9998
2 64504  51.9007 175.5735 0000935  66.0437 294.0623 14.79934630 66115
KUIPER-00044            
1 64505U 25134F   26244.16058720  .00000704  00000+0  12133-3 0  9995
2 64505  51.8984 189.6195 0000739  83.6975 276.4071 14.79927971 65883
KUIPER-00046            
1 64506U 25134G   26244.12952343  .00002444  00000+0  34943-3 0  9992
2 64506  51.8979 187.2298 0000897  69.3013 290.8046 14.79933796 65913
KUIPER-00047            
1 64507U 25134H   26243.99032229 -.00004530  00000+0 -56570-3 0  9999
2 64507  51.9019 160.3735 0000555  75.6083 284.4941 14.79923720 66275
KUIPER-00048            
1 64508U 25134J   26244.49667152 -.00009798  00000+0 -12581-2 0  9999
2 64508  51.8987 158.1444 0000975  85.8348 274.2726 14.79929893 66358
KUIPER-00049            
1 64509U 25134K   26244.51709228  .00000734  00000+0  12531-3 0  9999
2 64509  51.9023 170.5257 0000839  92.1344 267.9715 14.79932382 66182
KUIPER-00050            
1 64510U 25134L   26244.06328274  .00001213  00000+0  18808-3 0  9995
2 64510  51.8993 155.0548 0001061  90.7960 269.3124 14.79932235 66363
KUIPER-00051            
1 64511U 25134M   26244.08795721  .00000821  00000+0  13671-3 0  9990
2 64511  51.8999 171.1230 0000924  94.6523 265.4545 14.79927480 66137
KUIPER-00053            
1 64513U 25134P   26243.98313048  .00001561  00000+0  22426-3 0  9998
2 64513  51.9005 166.2309 0002097  75.7156 284.4040 14.81757088 66190
KUIPER-00054            
1 64514U 25134Q   26244.08895138  .00000495  00000+0  93915-4 0  9993
2 64514  51.8976 162.4248 0000866  73.4948 286.6110 14.79926790 66257
KUIPER-00055            
1 64515U 25134R   26244.37655964  .00000746  00000+0  12685-3 0  9990
2 64515  51.9032 113.8021 0001115 102.6156 257.4931 14.79932161 66969
KUIPER-00056            
1 64516U 25134S   26243.98228911  .00000208  00000+0  56321-4 0  9994
2 64516  51.9033 168.0072 0001109  77.6590 282.4497 14.79930266 66177
KUIPER-00057            
1 64517U 25134T   26244.51440594 -.00001849  00000+0 -21369-3 0  9995
2 64517  51.9017 173.0723 0000720  84.6624 275.4421 14.79926709 66146
KUIPER-00058            
1 64518U 25134U   26244.48602800  .00002255  00000+0  32473-3 0  9990
2 64518  51.9001 168.1757 0000679  94.2724 265.8316 14.79932023 66213
KUIPER-00059            
1 64519U 25134V   26244.49144437  .00000854  00000+0  14109-3 0  9998
2 64519  51.8977 163.1907 0000999  81.5077 278.5999 14.79931114 66287
KUIPER-00060            
1 64520U 25134W   26243.98498478 -.00000668  00000+0 -58618-4 0  9999
2 64520  51.9022 165.5032 0001019  90.2426 269.8653 14.79924940 66194
KUIPER-00061            
1 64521U 25134X   26244.48335194  .00002685  00000+0  38102-3 0  9995
2 64521  51.8999 170.7442 0000806  84.3126 275.7928 14.79933966 66160
KUIPER-00062            
1 64522U 25134Y   26244.07545736  .00001610  00000+0  24021-3 0  9998
2 64522  51.8949 174.9981 0000645 105.3186 254.7848 14.79928700 66080
KUIPER-00063            
1 64523U 25134Z   26244.54007529  .00002474  00000+0  35348-3 0  9997
2 64523  51.9026 180.5314 0000777  97.6418 262.4633 14.79926801 66042
KUIPER-00064            
1 64524U 25134AA  26244.54278794  .00002649  00000+0  37631-3 0  9993
2 64524  51.9031 177.9463 0001037  68.9776 291.1298 14.79932986 66083
KUIPER-00065            
1 64525U 25134AB  26244.13223531  .00000211  00000+0  56718-4 0  9999
2 64525  51.9028 184.9347 0000727  82.6721 277.4324 14.79928055 65939
KUIPER-00066            
1 64526U 25134AC  26244.63856170  .00000592  00000+0  10661-3 0  9994
2 64526  51.9014 119.9666 0000948 102.6127 257.4942 14.79930190 66900
KUIPER-00069            
1 64816U 25151A   26244.42673309 -.00000320  00000+0 -13031-4 0  9999
2 64816  51.9004 223.5419 0000654  88.2064 271.8973 14.79927343 62784
KUIPER-00070            
1 64817U 25151B   26244.43350933  .00001460  00000+0  22051-3 0  9991
2 64817  51.8986 248.4144 0000720  47.3175 312.7848 14.79939158 62443
KUIPER-00071            
1 64818U 25151C   26244.30116755  .00001212  00000+0  18793-3 0  9993
2 64818  51.8998 246.5449 0000613 101.5385 258.5647 14.79932332 61272
KUIPER-00072            
1 64819U 25151D   26244.15390480  .00001751  00000+0  25871-3 0  9999
2 64819  51.8967 227.1233 0000614  48.6392 311.4623 14.79927418 61536
KUIPER-00073            
1 64820U 25151E   26244.40245147  .00001378  00000+0  20974-3 0  9992
2 64820  51.8996 246.0756 0000463  44.1551 315.9448 14.79933828 62470
KUIPER-00075            
1 64822U 25151G   26244.59979759  .00021495  00000+0  56587-3 0  9998
2 64822  51.8648  83.5660 0003278 164.6043 195.5045 15.38482650 63569
KUIPER-00076            
1 64823U 25151H   26244.27816495  .00001561  00000+0  23368-3 0  9994
2 64823  51.8997 236.6480 0000616  46.1323 313.9690 14.79929665 61416
KUIPER-00077            
1 64824U 25151J   26244.40785717  .00000362  00000+0  76469-4 0  9991
2 64824  51.8999 241.0960 0000880  30.1154 329.9859 14.79930507 61365
KUIPER-00078            
1 64825U 25151K   26244.17418646  .00001737  00000+0  25682-3 0  9997
2 64825  51.8991 239.6018 0000525  43.1889 316.9114 14.79933071 61369
KUIPER-00079            
1 64826U 25151L   26244.20254846  .00001615  00000+0  24075-3 0  9992
2 64826  51.8979 244.4322 0000577  38.6624 321.4379 14.79931338 62494
KUIPER-00080            
1 64827U 25151M   26244.30385101 -.00000660  00000+0 -57531-4 0  9998
2 64827  51.8989 243.9979 0000450  93.7826 266.3188 14.79935547 61315
KUIPER-00082            
1 64828U 25151N   26244.48615962  .00001671  00000+0  24822-3 0  9996
2 64828  51.8998 230.7496 0000435  55.8946 304.2058 14.79922150 61515
KUIPER-00083            
1 64829U 25151P   26244.20794652  .00001664  00000+0  24723-3 0  9993
2 64829  51.8996 239.4629 0000681  39.4275 320.6737 14.79934554 62556
KUIPER-00084            
1 64830U 25151Q   26244.26471844 -.00001325  00000+0 -14488-3 0  9999
2 64830  51.8988 249.1961 0000465  74.1288 285.9725 14.79939361 61231
KUIPER-00085            
1 64831U 25151R   26244.24981389  .00001605  00000+0  23949-3 0  9999
2 64831  51.9009 231.8497 0000604  46.1237 313.9776 14.79931544 61476
KUIPER-00086            
1 64832U 25151S   26244.44161122  .00001673  00000+0  24838-3 0  9990
2 64832  51.8996 240.9396 0000532  67.0539 293.0480 14.79926711 61365
KUIPER-00087            
1 64833U 25151T   26244.25790410  .00001822  00000+0  26800-3 0  9995
2 64833  51.8982 224.2076 0000637  48.9219 311.1799 14.79929149 61576
KUIPER-00089            
1 64834U 25151U   26244.25250716  .00002780  00000+0  39340-3 0  9993
2 64834  51.8975 229.2559 0000703  50.5304 309.5720 14.79945097 61517
KUIPER-00090            
1 64835U 25151V   26244.12551355 -.00000818  00000+0 -78372-4 0  9994
2 64835  51.8962 222.3151 0000678  80.0151 280.0888 14.79929764 61594
KUIPER-00091            
1 64836U 25151W   26244.39026480 -.00000253  00000+0 -41396-5 0  9990
2 64836  51.8995 226.1688 0000669  50.1727 309.9294 14.79929786 61568
KUIPER-00092            
1 64837U 25151X   26244.17957788  .00001627  00000+0  24235-3 0  9996
2 64837  51.8990 234.5884 0000611  54.0098 306.0921 14.79930547 62648
KUIPER-00093            
1 64838U 25151Y   26244.24442316  .00001572  00000+0  23513-3 0  9998
2 64838  51.8987 236.7729 0000750  62.9760 297.1279 14.79928123 61401
KUIPER-00094            
1 64839U 25151Z   26244.56308666  .00002240  00000+0  32274-3 0  9990
2 64839  51.9030 190.4726 0000968  60.7532 299.3527 14.79934911 62086
KUIPER-00081            
1 65132U 25171A   26244.56962972 -.00000263  00000+0 -54803-5 0  9994
2 65132  51.8998  90.3320 0000949 107.1979 252.9088 14.79929859 59081
KUIPER-00088            
1 65133U 25171B   26244.61828495  .00000235  00000+0  59826-4 0  9998
2 65133  51.8984 107.6180 0000953 104.2089 255.8979 14.79930113 58847
KUIPER-00095            
1 65134U 25171C   26244.57233179  .00002024  00000+0  29446-3 0  9995
2 65134  51.8968  87.8586 0000923 110.8648 249.2414 14.79935692 59119
KUIPER-00096            
1 65135U 25171D   26243.98484202  .00002303  00000+0  33096-3 0  9991
2 65135  51.8985 102.9129 0000776 106.0544 254.0504 14.79932632 58854
KUIPER-00097            
1 65136U 25171E   26244.31979003 -.00003001  00000+0 -36478-3 0  9993
2 65136  51.9016 104.0955 0000506  87.3265 272.7756 14.79943192 58852
KUIPER-00098            
1 65137U 25171F   26243.97945103 -.00000563  00000+0 -44897-4 0  9994
2 65137  51.9004 107.9646 0000837 103.1294 256.9762 14.79930108 58129
KUIPER-00099            
1 65138U 25171G   26244.63177110 -.00000910  00000+0 -90377-4 0  9994
2 65138  51.9018  95.0919 0000853 108.6846 251.4209 14.79926699 59011
KUIPER-00100            
1 65139U 25171H   26244.60067913  .00007917  00000+0  10655-2 0  9992
2 65139  51.9006  92.6947 0001379  99.5742 260.5376 14.79967426 59042
KUIPER-00102            
1 65140U 25171J   26244.59800283  .00001889  00000+0  27666-3 0  9990
2 65140  51.8973  95.1797 0000970 105.8490 254.2580 14.79936213 59007
KUIPER-00103            
1 65141U 25171K   26244.61289137  .00002031  00000+0  29540-3 0  9996
2 65141  51.8974 112.6161 0001018 103.7713 256.3362 14.79933176 58766
KUIPER-00104            
1 65142U 25171L   26244.55882640 -.00001371  00000+0 -15090-3 0  9991
2 65142  51.9013 100.3666 0000986 133.3089 226.7956 14.79931740 58938
KUIPER-00105            
1 65143U 25171M   26244.58453123  .00002068  00000+0  30024-3 0  9991
2 65143  51.8997 107.8503 0000679 102.7730 257.3309 14.79930776 58832
KUIPER-00106            
1 65144U 25171N   26243.95711289  .00002391  00000+0  34187-3 0  9995
2 65144  51.9007  89.3870 0001271 107.5304 252.5797 14.80012810 59040
KUIPER-00107            
1 65145U 25171P   26244.60339945  .00002007  00000+0  29224-3 0  9994
2 65145  51.8996  90.2075 0000952 107.9701 252.1366 14.79933643 59081
KUIPER-00108            
1 65146U 25171Q   26243.81331740  .00002395  00000+0  34302-3 0  9995
2 65146  51.9005 106.2460 0000744 107.5714 252.5330 14.79932951 58792
KUIPER-00109            
1 65147U 25171R   26244.59529797  .00001955  00000+0  28548-3 0  9999
2 65147  51.9013  97.7307 0000851  99.9769 260.1290 14.79924678 58976
KUIPER-00110            
1 65148U 25171S   26244.61559771  .00002080  00000+0  30179-3 0  9991
2 65148  51.8985 110.1898 0000984 100.2657 259.8416 14.79934684 58791
KUIPER-00111            
1 65149U 25171T   26243.90111985  .00001969  00000+0  28722-3 0  9990
2 65149  51.8956 118.2142 0000825 104.7771 255.3283 14.79923150 58622
KUIPER-00112            
1 65150U 25171U   26243.81867658 -.00004531  00000+0 -56563-3 0  9991
2 65150  51.9000 101.2086 0000868 113.9531 246.1522 14.79940594 58857
KUIPER-00114            
1 65151U 25171V   26244.64126089  .00000347  00000+0  74551-4 0  9997
2 65151  51.8985 117.5341 0000764 107.2101 252.8945 14.79925929 58697
KUIPER-00115            
1 65152U 25171W   26243.90651700 -.00001276  00000+0 -13845-3 0  9991
2 65152  51.9000 113.2911 0000809 101.5814 258.5239 14.79928413 58691
KUIPER-00116            
1 65153U 25171X   26244.61021402  .00000016  00000+0  31105-4 0  9990
2 65153  51.8998 115.2119 0000737 101.7253 258.3792 14.79929684 58725
KUIPER-00118            
1 65154U 25171Y   26244.60750358  .00002145  00000+0  31030-3 0  9990
2 65154  51.8990 117.6717 0000862 102.8048 257.3011 14.79931090 58694
KUIPER-00119            
1 65155U 25171Z   26244.62096025  .00002029  00000+0  29509-3 0  9996
2 65155  51.8992 105.2119 0000869  94.0524 266.0537 14.79926688 58860
KUIPER-00120            
1 65762U 25217A   26243.70979100  .00000207  00000+0  56220-4 0  9990
2 65762  51.9008 359.1093 0000632  87.5160 272.5874 14.79923295 50651
KUIPER-00132            
1 65763U 25217B   26244.17029352  .00016974  00000+0  44061-3 0  9995
2 65763  51.8516 229.2229 0004363 232.6474 127.4116 15.39078042 52498
KUIPER-00133            
1 65764U 25217C   26244.48641370 -.00000837  00000+0 -80858-4 0  9998
2 65764  51.9056 355.8079 0000427  90.0297 270.0714 14.79929291 50776
KUIPER-00139            
1 65765U 25217D   26244.52141439  .00001905  00000+0  27887-3 0  9992
2 65765  51.8997 323.0856 0000417  55.2994 304.8008 14.79927888 51230
KUIPER-00142            
1 65766U 25217E   26244.53898739  .00002192  00000+0  31645-3 0  9992
2 65766  51.9000 337.9733 0000562  93.4292 266.6735 14.79922244 51021
KUIPER-00145            
1 65767U 25217F   26244.53634234  .00002296  00000+0  33000-3 0  9993
2 65767  51.9012 340.5104 0000355  97.8505 262.2497 14.79932900 50983
KUIPER-00147            
1 65768U 25217G   26244.49987898  .00000862  00000+0  14209-3 0  9993
2 65768  51.8983 343.1455 0000327 109.3336 250.7661 14.79928740 50946
KUIPER-00148            
1 65769U 25217H   26244.45122950  .00000524  00000+0  97793-4 0  9995
2 65769  51.9045 325.9029 0000356  83.1790 276.9213 14.79927646 51181
KUIPER-00150            
1 65770U 25217J   26244.48910365  .00000515  00000+0  96540-4 0  9994
2 65770  51.9015 353.2383 0000533 105.3265 254.7756 14.79932075 50804
KUIPER-00151            
1 65771U 25217K   26244.56471798  .00000527  00000+0  98136-4 0  9992
2 65771  51.9023 345.4035 0000657  82.7473 277.3564 14.79926515 50920
KUIPER-00152            
1 65772U 25217L   26244.61196531  .00000582  00000+0  10528-3 0  9997
2 65772  51.9014 332.6759 0000368  72.4384 287.6619 14.79929683 51103
KUIPER-00153            
1 65773U 25217M   26244.61737197  .00000219  00000+0  57746-4 0  9998
2 65773  51.9041 327.7363 0000439  88.0097 272.0915 14.79934055 51176
KUIPER-00155            
1 65774U 25217N   26244.37689143  .00000114  00000+0  43990-4 0  9999
2 65774  51.9023 301.2631 0000555  84.2058 275.8967 14.79923869 51524
KUIPER-00156            
1 65775U 25217P   26244.51604849 -.00000198  00000+0  30847-5 0  9997
2 65775  51.9036 328.1672 0000653  90.0692 270.0346 14.79933490 51158
KUIPER-00165            
1 65778U 25217S   26244.50527192 -.00000084  00000+0  17956-4 0  9993
2 65778  51.9029 338.1501 0000432  87.6824 272.4188 14.79929358 51012
KUIPER-00166            
1 65779U 25217T   26244.62006257 -.00000697  00000+0 -62494-4 0  9999
2 65779  51.9040 325.1996 0000440  95.9644 264.1369 14.79928215 51202
KUIPER-00167            
1 65780U 25217U   26244.56196301  .00001689  00000+0  25057-3 0  9997
2 65780  51.8976 347.7856 0000593  95.2532 264.8498 14.79927591 50883
KUIPER-00168            
1 65781U 25217V   26244.44582578  .00000994  00000+0  15942-3 0  9990
2 65781  51.9003 330.9188 0000557  95.1594 264.9432 14.79926842 51119
KUIPER-00169            
1 65782U 25217W   26244.50797758 -.00000737  00000+0 -67676-4 0  9995
2 65782  51.9023 335.6544 0000640  91.9219 268.1816 14.79930889 51052
KUIPER-00170            
1 65783U 25217X   26244.57007648  .00001175  00000+0  18317-3 0  9997
2 65783  51.8988 340.3245 0000673 111.4124 248.6910 14.79925217 50991
KUIPER-00172            
1 65785U 25217Z   26244.42012312  .00002140  00000+0  30944-3 0  9990
2 65785  51.9000 323.5215 0000228  74.6896 285.4092 14.79949445 51216
KUIPER-00173            
1 65786U 25217AA  26244.54174018 -.00000192  00000+0  37761-5 0  9998
2 65786  51.9011 335.4973 0000221  96.3275 263.7713 14.79930858 51056
KUIPER-00174            
1 65787U 25217AB  26244.61461011  .00000876  00000+0  14401-3 0  9991
2 65787  51.9028 330.2363 0000464  70.6345 289.4667 14.79910824 51136
KUIPER-00176            
1 65788U 25217AC  26244.46339546  .00002700  00000+0  38306-3 0  9990
2 65788  51.9013 345.8234 0000538  97.6606 262.4417 14.79923426 50901
KUIPER-00101            
1 65947U 25228A   26244.54301207  .00001716  00000+0  25397-3 0  9993
2 65947  51.8977 302.9221 0000362  72.5229 287.5773 14.79938384 49274
KUIPER-00113            
1 65948U 25228B   26244.58217268  .00000138  00000+0  47066-4 0  9996
2 65948  51.8974 297.7708 0000519  80.5958 279.5063 14.79926364 49341
KUIPER-00117            
1 65949U 25228C   26244.34311204  .00001836  00000+0  26982-3 0  9995
2 65949  51.8982 301.3261 0000368  65.2138 294.8862 14.79919311 49272
KUIPER-00121            
1 65950U 25228D   26244.58485460  .00001622  00000+0  24172-3 0  9991
2 65950  51.8993 295.2779 0000471  51.1481 308.9523 14.79930918 49380
KUIPER-00122            
1 65951U 25228E   26244.37149680  .00001976  00000+0  28813-3 0  9998
2 65951  51.8992 306.1906 0000425  84.7480 275.3531 14.79929304 49219
KUIPER-00123            
1 65952U 25228F   26244.47278260  .00001728  00000+0  25564-3 0  9992
2 65952  51.8986 305.7517 0000294  70.6969 289.4025 14.79925460 49220
KUIPER-00124            
1 65953U 25228G   26244.54841221  .00000188  00000+0  53655-4 0  9996
2 65953  51.8975 297.9068 0000350  73.8657 286.2344 14.79928745 49345
KUIPER-00125            
1 65954U 25228H   26244.29447289  .00001626  00000+0  24221-3 0  9999
2 65954  51.9000 284.0816 0000575  76.8199 283.2828 14.79927691 49519
KUIPER-00126            
1 65955U 25228J   26244.57678843 -.00000688  00000+0 -61217-4 0  9999
2 65955  51.8983 302.8159 0000381  95.5884 264.5121 14.79928263 49279
KUIPER-00127            
1 65956U 25228K   26244.56799218  .00000528  00000+0  98209-4 0  9991
2 65956  51.8993 295.3341 0000431  51.5632 308.5369 14.79930303 49382
KUIPER-00128            
1 65957U 25228L   26244.55112395 -.00000441  00000+0 -28863-4 0  9991
2 65957  51.8998 295.4730 0000391  78.6821 281.4185 14.79927805 49373
KUIPER-00129            
1 65958U 25228M   26244.52274634  .00001836  00000+0  26978-3 0  9995
2 65958  51.9004 290.5770 0000390  86.4658 273.6349 14.79929820 49449
KUIPER-00130            
1 65959U 25228N   26244.55381813  .00001622  00000+0  24174-3 0  9996
2 65959  51.9022 292.9837 0000484  91.0824 269.0194 14.79935523 39703
KUIPER-00134            
1 65960U 25228P   26244.09927089  .00015712  00000+0  42860-3 0  9995
2 65960  51.8705 188.5155 0004123 199.1049 160.9784 15.37607210 50822
KUIPER-00135            
1 65961U 25228Q   26244.52005445  .00001662  00000+0  24693-3 0  9990
2 65961  51.9013 293.1842 0000332  64.7481 295.3516 14.79935102 49404
KUIPER-00136            
1 65962U 25228R   26244.55650150  .00001507  00000+0  22660-3 0  9993
2 65962  51.9003 290.4715 0000335  58.6871 301.4124 14.79938896 49442
KUIPER-00137            
1 65963U 25228S   26244.49167651  .00001663  00000+0  24700-3 0  9996
2 65963  51.9028 288.2656 0000270  32.5592 327.5387 14.79935716 49479
KUIPER-00138            
1 65964U 25228T   26244.39307077  .00001612  00000+0  24030-3 0  9994
2 65964  51.8977 286.1062 0000382  72.1436 287.9569 14.79938484 49499
KUIPER-00140            
1 65965U 25228U   26244.52541679 -.00001073  00000+0 -11174-3 0  9996
2 65965  51.8994 288.1166 0000615  19.1921 340.9065 14.79941603 49471
KUIPER-00141            
1 65966U 25228V   26244.53084299  .00000515  00000+0  96529-4 0  9994
2 65966  51.9031 283.1612 0000422  79.4949 280.6061 14.79930762 49549
KUIPER-00146            
1 65967U 25228W   26244.49437965  .00001648  00000+0  24510-3 0  9990
2 65967  51.9020 285.8345 0000351  64.2986 295.8012 14.79936356 49509
KUIPER-00149            
1 65968U 25228X   26244.46599888  .00000359  00000+0  76101-4 0  9993
2 65968  51.9007 280.8352 0000354  62.6262 297.4737 14.79927415 49575
KUIPER-00154            
1 65969U 25228Y   26244.50244243  .00001515  00000+0  22767-3 0  9994
2 65969  51.8988 278.1595 0000640  84.7090 275.3945 14.79933075 49614
KUIPER-00157            
1 65970U 25228Z   26244.44878886  .00000996  00000+0  15491-3 0  9993
2 65970  51.9016 280.5227 0000530 181.8471 178.2490 14.81267338 49574
KUIPER-00144            
1 67133U 25301A   26244.48370046  .00002386  00000+0  34187-3 0  9995
2 67133  51.9024 358.2624 0000491 103.7227 256.3790 14.79937414 39901
KUIPER-00164            
1 67134U 25301B   26244.06504650  .00002317  00000+0  33278-3 0  9994
2 67134  51.9042  12.6293 0000536 105.9635 254.1387 14.79935000 39842
KUIPER-00175            
1 67135U 25301C   26244.59037964  .00002528  00000+0  36046-3 0  9992
2 67135  51.9012 352.7450 0000340  96.8289 263.2712 14.79933450 40065
KUIPER-00179            
1 67136U 25301D   26243.73005539 -.00002714  00000+0 -32717-3 0  9991
2 67136  51.8992  11.5502 0000670  95.8468 264.2571 14.79932874 39830
KUIPER-00181            
1 67137U 25301E   26244.12177296  .00002611  00000+0  37146-3 0  9991
2 67137  51.9034  22.3758 0000515 110.4649 249.6368 14.79929321 39693
KUIPER-00183            
1 67138U 25301F   26244.59308654  .00002608  00000+0  37093-3 0  9994
2 67138  51.9033 350.2992 0000478  99.2637 260.8379 14.79942777 40199
KUIPER-00184            
1 67139U 25301G   26244.51206877  .00002531  00000+0  36082-3 0  9993
2 67139  51.9004   3.1016 0000579  96.8501 263.2527 14.79934874 40117
KUIPER-00186            
1 67140U 25301H   26244.42565223  .00002325  00000+0  33404-3 0  9994
2 67140  51.9031  21.0410 0000492 115.3146 244.7868 14.79919174 39589
KUIPER-00187            
1 67141U 25301J   26244.42298456  .00002320  00000+0  33318-3 0  9995
2 67141  51.9038  23.5802 0000543 117.9924 242.1094 14.79940630 39548
KUIPER-00188            
1 67142U 25301K   26244.55927583  .00000371  00000+0  77739-4 0  9990
2 67142  51.9032 350.5633 0000552  87.7698 272.3328 14.79916450 40012
KUIPER-00191            
1 67143U 25301L   26243.85706433  .00001989  00000+0  28974-3 0  9994
2 67143  51.9020  18.5596 0000533  97.2123 262.8900 14.79938865 39592
KUIPER-00196            
1 67144U 25301M   26244.58335648  .00007083  00000+0  95729-3 0  9995
2 67144  51.8985 332.8086 0000337  21.8738   5.4543 14.79923485  5572
KUIPER-00204            
1 67145U 25301N   26244.59578104 -.00000141  00000+0  10454-4 0  9995
2 67145  51.9018 347.7813 0000370 105.2804 254.8200 14.79929282 40178
KUIPER-00210            
1 67146U 25301P   26244.09341410  .00001859  00000+0  27272-3 0  9990
2 67146  51.9012  17.4620 0000602 113.1947 246.9079 14.79934075 39770
KUIPER-00221            
1 67147U 25301Q   26244.11909381  .00000082  00000+0  39803-4 0  9992
2 67147  51.9021  24.8826 0000635 105.8563 254.2469 14.79927975 39506
KUIPER-00232            
1 67148U 25301R   26244.50668782  .00000682  00000+0  11845-3 0  9994
2 67148  51.9003   8.1824 0000464 107.0646 253.0367 14.79927525 39769
KUIPER-00241            
1 67149U 25301S   26244.12447302 -.00000435  00000+0 -28014-4 0  9991
2 67149  51.9053  19.8878 0000484 144.6704 215.4290 14.79927758 39908
KUIPER-00245            
1 67150U 25301T   26244.11639512  .00001440  00000+0  21787-3 0  9992
2 67150  51.9029  27.4342 0000582 106.8841 253.2186 14.79933668 39467
KUIPER-00246            
1 67151U 25301U   26244.50397593  .00002308  00000+0  33155-3 0  9992
2 67151  51.9015  10.6597 0000549 101.1637 258.9388 14.79939155 39758
KUIPER-00247            
1 67152U 25301V   26244.58229399  .00000120  00000+0  44809-4 0  9998
2 67152  51.8976   0.2660 0000572 102.9615 257.1412 14.79928577 39880
KUIPER-00248            
1 67153U 25301W   26243.65576628  .00003062  00000+0  43047-3 0  9996
2 67153  51.8992 347.0059 0000430  94.7978 265.3034 14.79937604 40150
KUIPER-00249            
1 67154U 25301X   26244.58500895  .00000740  00000+0  12601-3 0  9995
2 67154  51.8999 357.8286 0000437 101.0656 259.0355 14.79930373 39915
KUIPER-00250            
1 67155U 25301Y   26244.06231519 -.00003314  00000+0 -40591-3 0  9994
2 67155  51.8995  15.0920 0000653  97.0496 263.0541 14.79931276 39663
KUIPER-00251            
1 67156U 25301Z   26244.48101591  .00003869  00000+0  53602-3 0  9997
2 67156  51.9044   0.8160 0000466 111.7345 248.3667 14.79945495 40055
KUIPER-00252            
1 67157U 25301AA  26244.61338217  .00005109  00000+0  69879-3 0  9992
2 67157  51.9011   2.6779 0000419  69.3885 290.7123 14.79921621 39850
KUIPER-00261            
1 67158U 25301AB  26243.62340285  .00000508  00000+0  95625-4 0  9998
2 67158  51.9027  17.1193 0000566 110.0063 250.0961 14.79924629 39562
KUIPER-00265            
1 67159U 25301AC  26244.11369650  .00001067  00000+0  16894-3 0  9992
2 67159  51.9029  29.9282 0000491 104.3144 255.7873 14.79936116 39465
KUIPER-00159            
1 67764U 26030A   26244.61534827  .00001001  00000+0  17240-3 0  9993
2 67764  51.9006 105.9712 0000433 175.5314 184.5651 14.76618595 31910
KUIPER-00160            
1 67765U 26030B   26244.58335648 -.01891825  00000+0 -11703+0 0  9998
2 67765  51.8881  89.7533 0007397 313.1519 164.5519 15.12870748  5467
KUIPER-00177            
1 67766U 26030C   26244.06058629  .00002688  00000+0  38155-3 0  9995
2 67766  51.8985 157.6365 0001006  72.1882 287.9190 14.79930494 31143
KUIPER-00178            
1 67767U 26030D   26243.95929642  .00000099  00000+0  41998-4 0  9999
2 67767  51.8997 158.0672 0000918  89.3630 270.7438 14.79926272 31138
KUIPER-00180            
1 67768U 26030E   26244.43738877  .00001395  00000+0  21193-3 0  9996
2 67768  51.8980 150.9477 0000729 101.2026 258.9018 14.79927655 31271
KUIPER-00197            
1 67769U 26030F   26243.98624014  .00002618  00000+0  37226-3 0  9996
2 67769  51.8987 132.9580 0001154  86.8406 273.2688 14.79943638 31482
KUIPER-00198            
1 67770U 26030G   26244.00653824  .00002497  00000+0  35635-3 0  9990
2 67770  51.8969 145.3441 0000988  89.9083 270.1992 14.79936397 31317
KUIPER-00199            
1 67771U 26030H   26243.98788952  .00026882  00000+0  72712-3 0  9999
2 67771  51.8806  93.5580 0009351 319.4558  40.5732 15.37477288 32032
KUIPER-00200            
1 67772U 26030J   26243.88764903 -.00001002  00000+0 -10250-3 0  9997
2 67772  51.8983 130.9150 0000786  96.6888 263.4164 14.79930971 31505
KUIPER-00203            
1 67773U 26030K   26243.98767166  .00002479  00000+0  35410-3 0  9995
2 67773  51.9052 163.0281 0000871  80.9745 279.1316 14.79935775 31060
KUIPER-00205            
1 67774U 26030L   26244.36303936  .00005042  00000+0  68969-3 0  9994
2 67774  51.8994 126.2738 0000757  98.0354 262.0695 14.79946286 31613
KUIPER-00208            
1 67775U 26030M   26244.02950510 -.00000325  00000+0 -13535-4 0  9995
2 67775  51.8981 155.2487 0001336  73.5205 286.5904 14.79935103 31171
KUIPER-00209            
1 67776U 26030N   26244.47115949  .00001046  00000+0  16620-3 0  9990
2 67776  51.8993 150.8941 0001011  94.0141 266.0937 14.79933854 31279
KUIPER-00213            
1 67777U 26030P   26244.44009218  .00001927  00000+0  28171-3 0  9991
2 67777  51.8963 148.4958 0001078 102.8264 257.2819 14.79941962 31309
KUIPER-00214            
1 67778U 26030Q   26244.00384807 -.00001236  00000+0 -13322-3 0  9991
2 67778  51.9000 147.9547 0000889  95.7843 264.3221 14.79925894 31271
KUIPER-00215            
1 67779U 26030R   26243.98355011  .00002516  00000+0  35895-3 0  9992
2 67779  51.8978 135.3999 0001105  90.6509 269.4580 14.79931908 31459
KUIPER-00218            
1 67780U 26030S   26243.93361936 -.00000678  00000+0 -59990-4 0  9994
2 67780  51.8970 150.6617 0001149  79.5894 280.5198 14.79925381 31234
KUIPER-00220            
1 67781U 26030T   26244.36575780  .00002437  00000+0  34862-3 0  9990
2 67781  51.8945 123.7774 0000728 106.6361 253.4681 14.79933418 31646
KUIPER-00222            
1 67782U 26030U   26244.44543072 -.00002843  00000+0 -34420-3 0  9992
2 67782  51.8968 143.5575 0000808  80.5975 279.5078 14.79922757 31374
KUIPER-00223            
1 67783U 26030V   26244.41973682  .00002373  00000+0  34033-3 0  9990
2 67783  51.9001 135.9761 0000885  90.4909 269.6155 14.79906398 31489
KUIPER-00225            
1 67784U 26030W   26244.00924836  .00000220  00000+0  57942-4 0  9997
2 67784  51.8972 142.9435 0001083  89.0329 271.0758 14.79930020 31343
KUIPER-00226            
1 67785U 26030X   26243.90144515  .00001216  00000+0  20395-3 0  9991
2 67785  51.8990 130.5933 0002756 335.4852  24.5978 14.76419658 31517
KUIPER-00259            
1 67786U 26030Y   26244.44818231  .00006212  00000+0  84311-3 0  9994
2 67786  51.8973 140.9042 0000729  91.7981 268.3065 14.79935085 31412
KUIPER-00260            
1 67787U 26030Z   26244.45089824  .00000492  00000+0  93563-4 0  9998
2 67787  51.9004 138.4989 0001086  82.8331 277.2755 14.79928198 31353
KUIPER-00262            
1 67788U 26030AA  26244.01192742  .00002728  00000+0  38673-3 0  9999
2 67788  51.9005 140.3578 0001344  72.6442 287.4667 14.79936546 31382
KUIPER-00266            
1 67789U 26030AB  26243.91334063  .00002620  00000+0  37250-3 0  9993
2 67789  51.8990 138.2861 0001078  68.1439 291.9638 14.79936454 31405
KUIPER-00268            
1 67790U 26030AC  26243.94978827  .00002446  00000+0  34974-3 0  9996
2 67790  51.9039 135.6618 0001064  68.3322 291.7754 14.79927470 31440
KUIPER-00270            
1 67791U 26030AD  26243.85928782  .00002469  00000+0  35275-3 0  9992
2 67791  51.8978 126.0179 0000770 104.4521 255.6527 14.79927880 31570
KUIPER-00274            
1 67792U 26030AE  26244.44279557  .00000391  00000+0  80287-4 0  9994
2 67792  51.8996 145.9489 0001092  80.1113 279.9973 14.79931149 31342
KUIPER-00275            
1 67793U 26030AF  26244.39679645  .00001000  00000+0  16021-3 0  9993
2 67793  51.9004 126.1490 0000900 112.2007 247.9051 14.79921974 31610
KUIPER-00276            
1 67794U 26030AG  26244.42519922 -.00000053  00000+0  22083-4 0  9993
2 67794  51.8979 131.0031 0001097  35.0709 325.0326 14.79930394 31558
KUIPER-00279            
1 67795U 26030AH  26244.40222637  .00001980  00000+0  28863-3 0  9996
2 67795  51.9017 121.1487 0001398  73.4851 286.6265 14.79936920 31685
KUIPER-00131            
1 68573U 26072A   26244.12824726  .00001843  00000+0  27065-3 0  9994
2 68573  51.8995 219.8403 0000647  56.7639 303.3385 14.79932579 22362
KUIPER-00189            
1 68574U 26072B   26244.22683131  .00001929  00000+0  28190-3 0  9994
2 68574  51.8976 221.8822 0000602  62.1925 297.9098 14.79932991 22345
KUIPER-00192            
1 68575U 26072C   26244.13094042  .00001976  00000+0  28810-3 0  9993
2 68575  51.8985 217.3239 0000923  55.4026 304.7023 14.79938324 22409
KUIPER-00193            
1 68576U 26072D   26244.20925130  .00002194  00000+0  31674-3 0  9998
2 68576  51.9038 207.0167 0000952  75.2712 284.8356 14.79934422 22558
KUIPER-00194            
1 68577U 26072E   26244.16740955  .00001862  00000+0  27319-3 0  9996
2 68577  51.9002 214.6842 0000948  46.2306 313.8735 14.79927030 22445
KUIPER-00229            
1 68578U 26072F   26244.22954223  .00001275  00000+0  19617-3 0  9999
2 68578  51.8998 219.3925 0000530  97.6129 262.4894 14.79932890 22381
KUIPER-00230            
1 68579U 26072G   26244.58335648 -.02210080  00000+0 -11343+0 0  9997
2 68579  51.8842 167.5608 0002221 288.6533  76.2389 15.20006021  5872
KUIPER-00231            
1 68580U 26072H   26244.05662340  .00002434  00000+0  34824-3 0  9994
2 68580  51.8960 192.7322 0001904  70.9819 289.1350 14.79931262 22738
KUIPER-00234            
1 68581U 26072J   26244.40371494  .00001876  00000+0  27502-3 0  9995
2 68581  51.8988 213.6078 0000887  49.5174 310.5866 14.79924540 22478
KUIPER-00236            
1 68582U 26072K   26244.58335648 -.00742935  00000+0 -51184-1 0  9997
2 68582  51.8974 168.8478 0003711 284.5703 195.5016 15.08145272  5522
KUIPER-00244            
1 68583U 26072L   26244.58337429  .00001702  00000+0  25220-3 0  9999
2 68583  51.8990 202.8375 0000774  49.7701 310.3329 14.79936711 22640
KUIPER-00253            
1 68584U 26072M   26244.58065615 -.00000280  00000+0 -76635-5 0  9995
2 68584  51.9026 205.3696 0000747  60.7761 299.3276 14.79925574 22603
KUIPER-00254            
1 68585U 26072N   26244.61172490  .00000666  00000+0  11638-3 0  9996
2 68585  51.9023 207.7302 0000878   5.1965 354.9007 14.79932562 22576
KUIPER-00263            
1 68586U 26072P   26244.15521184 -.00000044  00000+0  23227-4 0  9993
2 68586  51.9015 194.8178 0000846  88.0186 272.0874 14.79926595 22712
KUIPER-00269            
1 68587U 26072Q   26244.55768682 -.00000121  00000+0  13178-4 0  9994
2 68587  51.8976 195.4468 0000971  51.2922 308.8127 14.79926796 22741
KUIPER-00272            
1 68588U 26072R   26244.23221714  .00000021  00000+0  31751-4 0  9995
2 68588  51.8983 216.8567 0000714  52.6170 307.4857 14.79929069 22418
KUIPER-00285            
1 68589U 26072S   26244.59146211  .00002354  00000+0  33765-3 0  9990
2 68589  51.9029 195.3738 0001326  11.8021 348.2972 14.79931005 22744
KUIPER-00286            
1 68590U 26072T   26244.12144488  .00002254  00000+0  32468-3 0  9993
2 68590  51.9001 194.8847 0000734  74.7880 285.3164 14.79927036 22714
KUIPER-00289            
1 68591U 26072U   26244.58604826  .00002104  00000+0  30495-3 0  9993
2 68591  51.8980 200.3117 0000788  62.8792 297.2250 14.79931241 22678
KUIPER-00290            
1 68592U 26072V   26244.58846241  .00001192  00000+0  20025-3 0  9997
2 68592  51.9008 199.9811 0001241   8.5687 351.5294 14.76471535 22685
KUIPER-00293            
1 68593U 26072W   26244.10255218  .00001992  00000+0  29021-3 0  9997
2 68593  51.8962 212.4294 0001461 341.5083  18.5826 14.79932819 22461
KUIPER-00294            
1 68594U 26072X   26244.58876454  .00001013  00000+0  16183-3 0  9990
2 68594  51.8990 197.8019 0000713  82.9693 277.1350 14.79933544 22715
KUIPER-00296            
1 68595U 26072Y   26244.03361819 -.00001021  00000+0 -10493-3 0  9994
2 68595  51.8999 182.7697 0000379   1.5905 358.5058 14.79923606 22875
KUIPER-00297            
1 68596U 26072Z   26244.60902869  .00002075  00000+0  30111-3 0  9991
2 68596  51.8982 210.1873 0001504  67.6402 292.4720 14.79933225 22540
KUIPER-00300            
1 68597U 26072AA  26244.17278960 -.00000026  00000+0  25613-4 0  9999
2 68597  51.9003 209.6470 0000875  69.3286 290.7770 14.79925067 22519
KUIPER-00301            
1 68598U 26072AB  26244.55456640 -.00001603  00000+0 -19733-3 0  9993
2 68598  51.9013 177.0483 0002164 142.7717 217.3395 14.76532402 22995
KUIPER-00304            
1 68599U 26072AC  26244.51814532  .00001339  00000+0  22046-3 0  9993
2 68599  51.8995 179.1781 0000397 282.2124  77.8792 14.76600122 22968
KUIPER-00317            
1 68600U 26072AD  26244.08227863  .00000158  00000+0  49708-4 0  9996
2 68600  51.8938 200.0449 0000654  76.4976 283.6060 14.79931170 22639
KUIPER-00320            
1 68601U 26072AE  26244.14441956 -.00001092  00000+0 -11431-3 0  9996
2 68601  51.9024 204.7834 0000694  59.6996 300.4034 14.79924551 22572
KUIPER-00299            
1 68864U 26095A   26244.28115209  .00000970  00000+0  16859-3 0  9997
2 68864  51.8992 273.8968 0002386  60.6713 299.4486 14.76476121 18889
KUIPER-00353            
1 68865U 26095B   26244.42274729  .00001744  00000+0  25771-3 0  9990
2 68865  51.8989 258.5472 0000357  32.0644 328.0340 14.79932454 19112
KUIPER-00357            
1 68866U 26095C   26244.44839823  .00001449  00000+0  21899-3 0  9994
2 68866  51.9003 265.9403 0000495   4.1758 355.9209 14.79942436 19019
KUIPER-00364            
1 68867U 26095D   26244.47949572  .00001515  00000+0  22768-3 0  9991
2 68867  51.9030 268.3221 0000831 356.1408   3.9548 14.79929594 18982
KUIPER-00375            
1 68868U 26095E   26244.25121721  .00004112  00000+0  56784-3 0  9997
2 68868  51.9005 261.8109 0000602  79.0767 281.0263 14.79944990 19052
KUIPER-00433            
1 68869U 26095F   26244.30256241  .00001576  00000+0  23561-3 0  9998
2 68869  51.8994 276.5770 0000297  22.9486 337.1489 14.79936602 18852
KUIPER-00437            
1 68870U 26095G   26244.58335648 -.01195820  00000+0 -38699-1 0  9994
2 68870  51.8790 232.8207 0005633 220.4430 171.1806 15.34550622  5683
KUIPER-00448            
1 68871U 26095H   26244.49911677  .00001162  00000+0  19675-3 0  9994
2 68871  51.9033 265.1883 0002527 358.3698   1.7254 14.76307030 19026
KUIPER-00459            
1 68872U 26095J   26244.32684907  .00001541  00000+0  23103-3 0  9992
2 68872  51.9008 254.0402 0000535  88.3689 271.7335 14.79933852 19164
KUIPER-00468            
1 68873U 26095K   26244.21836155  .00001116  00000+0  18881-3 0  9990
2 68873  51.8960 251.6191 0001446 143.6758 216.4302 14.76600265 19192
KUIPER-00476            
1 68874U 26095L   26244.58335648 -.00053984  00000+0 -19830-2 0  9998
2 68874  51.8746 236.4424 0009894 200.6019 170.3273 15.27396054  4862
KUIPER-00478            
1 68875U 26095M   26244.25661233  .00001487  00000+0  22399-3 0  9999
2 68875  51.8975 256.7864 0000768  26.0954 334.0047 14.79934699 19121
KUIPER-00480            
1 68876U 26095N   26244.42812417 -.00009411  00000+0 -12068-2 0  9999
2 68876  51.9016 253.5343 0000370  52.6797 307.4199 14.79947783 19181
KUIPER-00482            
1 68877U 26095P   26244.34980782  .00001583  00000+0  23660-3 0  9993
2 68877  51.8999 263.8717 0000778 315.6620  44.4280 14.79929310 19038
KUIPER-00483            
1 68878U 26095Q   26244.33633194  .00001436  00000+0  21740-3 0  9999
2 68878  51.8986 276.3989 0001452 261.7305  98.3493 14.79933977 18853
KUIPER-00488            
1 68879U 26095R   26244.45650637  .00001245  00000+0  19235-3 0  9998
2 68879  51.8984 258.4088 0000652  54.4686 305.6337 14.79927442 19114
KUIPER-00489            
1 68880U 26095S   26244.39706771  .00001441  00000+0  21798-3 0  9999
2 68880  51.8951 251.1572 0001086  41.7042 318.4003 14.79935355 19210
KUIPER-00499            
1 68881U 26095T   26244.42543319  .00002623  00000+0  37289-3 0  9996
2 68881  51.8989 256.0873 0000418  25.3374 334.7609 14.79942577 19143
KUIPER-00500            
1 68882U 26095U   26244.27150804  .00001535  00000+0  23035-3 0  9998
2 68882  51.9000 274.2173 0000466  75.6201 284.4813 14.79935503 18883
KUIPER-00502            
1 68883U 26095V   26244.42373659  .00001431  00000+0  21665-3 0  9993
2 68883  51.8992 249.7967 0000840  17.8801 342.2190 14.79932158 19235
KUIPER-00503            
1 68884U 26095W   26244.37549351  .00001650  00000+0  24543-3 0  9993
2 68884  51.8969 271.2346 0000439  63.9347 296.1661 14.79931929 18933
KUIPER-00504            
1 68885U 26095X   26244.40116481  .00001360  00000+0  20736-3 0  9990
2 68885  51.9014 278.6482 0000338  99.1260 260.9741 14.79939941 18830
KUIPER-00505            
1 68886U 26095Y   26244.44570605 -.00001065  00000+0 -11076-3 0  9998
2 68886  51.9014 268.4525 0000463  65.4018 294.6993 14.79932953 18976
KUIPER-00507            
1 68887U 26095Z   26244.43961797  .00000687  00000+0  11917-3 0  9995
2 68887  51.9000 258.4641 0000437 105.5216 254.5795 14.79929640 19118
KUIPER-00511            
1 68888U 26095AA  26244.43082836  .00000028  00000+0  32726-4 0  9995
2 68888  51.8983 251.1196 0000575 340.7776  19.3165 14.79923523 19213
KUIPER-00512            
1 68889U 26095AB  26244.47679264  .00001494  00000+0  22495-3 0  9996
2 68889  51.9009 270.8170 0000479  46.0833 314.0169 14.79928362 18941
KUIPER-00519            
1 68890U 26095AC  26244.35250875  .00002263  00000+0  32564-3 0  9991
2 68890  51.9001 261.4283 0000507 140.3969 219.7031 14.79942013 19068
KUIPER-00521            
1 68891U 26095AD  26244.28330368  .00006445  00000+0  87496-3 0  9990
2 68891  51.9021 255.4300 0000357 151.5798 208.5183 14.79869541 19148
KUIPER-00524            
1 68892U 26095AE  26243.50180137  .00001078  00000+0  18389-3 0  9994
2 68892  51.8965 267.5674 0001703 276.2707  83.8060 14.76486092 18908
KUIPER-00370            
1 68919U 26098A   26244.54659584 -.00000855  00000+0 -83176-4 0  9990
2 68919  51.8991  80.3643 0000661 125.0005 235.1019 14.79940129 18790
KUIPER-00380            
1 68920U 26098B   26244.55475070  .00001793  00000+0  26412-3 0  9998
2 68920  51.8974  72.9671 0000506  65.9351 294.1664 14.79927063 18899
KUIPER-00386            
1 68921U 26098C   26243.96118159  .00002218  00000+0  31979-3 0  9992
2 68921  51.8982  78.0846 0000663 105.1095 254.9940 14.79941619 18777
KUIPER-00388            
1 68922U 26098D   26244.54128519  .00001872  00000+0  27448-3 0  9990
2 68922  51.8997  85.6782 0000714 105.0742 255.0300 14.79926709 18711
KUIPER-00405            
1 68923U 26098E   26243.81803325  .00002247  00000+0  32372-3 0  9994
2 68923  51.9006  86.2295 0001507 142.8616 217.2451 14.79935459 18641
KUIPER-00408            
1 68924U 26098F   26244.55205231  .00001998  00000+0  29098-3 0  9992
2 68924  51.8983  75.4003 0000800 118.2053 241.8990 14.79937339 18863
KUIPER-00409            
1 68925U 26098G   26244.25965824  .00002067  00000+0  30008-3 0  9992
2 68925  51.9016  81.7745 0001081 139.7595 220.3447 14.79934008 18742
KUIPER-00410            
1 68926U 26098H   26244.53247704  .00001842  00000+0  27059-3 0  9996
2 68926  51.8968  78.0511 0002059 102.4238 257.6955 14.79939611 18826
KUIPER-00412            
1 68927U 26098J   26244.52369281  .00001918  00000+0  28053-3 0  9990
2 68927  51.9026  70.6154 0001245  94.5816 265.5289 14.79937703 18922
KUIPER-00413            
1 68928U 26098K   26244.54396704  .00001820  00000+0  26774-3 0  9993
2 68928  51.8983  83.0034 0001293 124.2844 235.8241 14.79927618 18757
KUIPER-00414            
1 68929U 26098L   26244.56694433 -.00000249  00000+0 -35676-5 0  9995
2 68929  51.8950  92.9894 0002146  86.9479 273.1729 14.79930367 18617
KUIPER-00415            
1 68930U 26098M   26244.51829896  .00001908  00000+0  27928-3 0  9995
2 68930  51.9002  75.6306 0000657 105.9076 254.1959 14.79926972 18851
KUIPER-00416            
1 68931U 26098N   26244.53577087  .00001905  00000+0  27801-3 0  9997
2 68931  51.9013  66.8998 0002483  90.6297 269.4950 14.80063290 18977
KUIPER-00420            
1 68932U 26098P   26244.52638790  .00001294  00000+0  19866-3 0  9999
2 68932  51.9007  68.0603 0000939  80.7695 279.3374 14.79943386 18964
KUIPER-00421            
1 68933U 26098Q   26243.98072121  .00000998  00000+0  15986-3 0  9998
2 68933  51.9012  75.4527 0000835 111.2860 248.8192 14.79935599 18817
KUIPER-00425            
1 68934U 26098R   26244.58042663  .00000139  00000+0  47240-4 0  9990
2 68934  51.8973  80.3519 0000578 100.1087 259.9941 14.79925597 18790
KUIPER-00430            
1 68935U 26098S   26244.57771885  .00001947  00000+0  28431-3 0  9993
2 68935  51.9022  82.7559 0001663 109.1514 250.9628 14.79930456 18767
KUIPER-00431            
1 68936U 26098T   26244.57502914  .00000030  00000+0  32981-4 0  9997
2 68936  51.8976  85.3621 0001090 108.9682 251.1398 14.79926592 18720
KUIPER-00432            
1 68937U 26098U   26244.58311444  .00001996  00000+0  29065-3 0  9995
2 68937  51.8986  77.7244 0000727 108.7537 251.3504 14.79937976 18832
KUIPER-00434            
1 68938U 26098V   26244.52279001  .00001360  00000+0  22383-3 0  9993
2 68938  51.8996  81.6145 0002225  81.2774 278.8439 14.76537995 18779
KUIPER-00436            
1 68939U 26098W   26244.56353759  .00001821  00000+0  26774-3 0  9991
2 68939  51.8983  80.4246 0000693 120.8803 239.2228 14.79936706 18790
KUIPER-00438            
1 68940U 26098X   26244.56624174  .00002029  00000+0  29515-3 0  9992
2 68940  51.9017  77.9320 0000785 104.9864 255.1185 14.79932079 18829
KUIPER-00439            
1 68941U 26098Y   26243.26514340 -.00006377  00000+0 -80596-3 0  9990
2 68941  51.9023  83.6636 0000208  23.9188 336.1784 14.80050045 18630
KUIPER-00440            
1 68942U 26098Z   26244.57433791 -.00001528  00000+0 -17132-3 0  9995
2 68942  51.9015  70.3854 0000538 278.5567  81.5334 14.79963536 18933
KUIPER-00442            
1 68943U 26098AA  26244.54373404  .00001259  00000+0  20956-3 0  9994
2 68943  51.9008  72.7546 0001860  85.1309 274.9865 14.76515021 18896
KUIPER-00446            
1 68944U 26098AB  26243.92738220 -.00001389  00000+0 -15321-3 0  9993
2 68944  51.8998  78.2528 0001119 167.9965 192.1024 14.79926222 18765
KUIPER-00451            
1 68945U 26098AC  26243.98414450  .00000475  00000+0  91350-4 0  9996
2 68945  51.8984  87.9837 0001075 104.9457 255.1624 14.79928583 18633
KUIPER-00452            
1 68946U 26098AD  26244.53786311 -.00000342  00000+0 -15797-4 0  9993
2 68946  51.9012  73.0468 0001082  68.1432 291.9645 14.79925337 18898
KUIPER-00453            
1 68947U 26098AE  26244.55743584  .00001889  00000+0  27677-3 0  9995
2 68947  51.8984  70.3851 0002923  90.2036 269.9261 14.79933408 18935
KUIPER-00454            
1 68948U 26098AF  26243.97120146  .00001706  00000+0  27332-3 0  9990
2 68948  51.8992  90.2512 0002186 303.7187  56.3565 14.76484730 18605
KUIPER-00455            
1 68949U 26098AG  26243.88284476  .00002262  00000+0  32563-3 0  9998
2 68949  51.8990  88.4345 0002692  84.2434 275.8836 14.79938326 18624
KUIPER-00458            
1 68950U 26098AH  26244.54049865  .00001832  00000+0  26924-3 0  9991
2 68950  51.9005  70.5467 0000519 101.9749 258.1272 14.79930826 18921
KUIPER-00282            
1 69267U 26118A   26244.21100086  .00000490  00000+0  93231-4 0  9998
2 69267  51.8959  64.4679 0001136 124.4448 235.6622 14.79931683 15411
KUIPER-00383            
1 69268U 26118B   26243.89294094  .00001629  00000+0  24257-3 0  9991
2 69268  51.8971  63.3919 0000677 120.7140 239.3889 14.79932675 15405
KUIPER-00527            
1 69269U 26118C   26244.53448421  .00000440  00000+0  86761-4 0  9998
2 69269  51.8972  60.6874 0000948 115.6436 244.4624 14.79929888 15494
KUIPER-00562            
1 69270U 26118D   26243.69847870  .00002267  00000+0  32631-3 0  9992
2 69270  51.9026  56.6906 0000841 112.1745 247.9307 14.79931361 15489
KUIPER-00570            
1 69271U 26118E   26244.46154884  .00001914  00000+0  28010-3 0  9999
2 69271  51.8993  65.9786 0000689 119.3139 240.7892 14.79927135 15403
KUIPER-00572            
1 69272U 26118F   26244.51753205 -.00001363  00000+0 -14999-3 0  9999
2 69272  51.9046  60.6234 0000583 123.9200 236.1818 14.79891625 15497
KUIPER-00581            
1 69273U 26118G   26243.83688257  .00000181  00000+0  52781-4 0  9995
2 69273  51.9013  68.6393 0002390 125.9714 234.1470 14.79932988 15418
KUIPER-00584            
1 69274U 26118H   26244.22250586  .00002095  00000+0  30374-3 0  9999
2 69274  51.9000  69.5460 0000861 124.8113 235.2930 14.79935481 15348
KUIPER-00587            
1 69275U 26118J   26244.52027021  .00024619  00000+0  32517-2 0  9995
2 69275  51.9014  58.1186 0000731  76.2848 283.8196 14.79866237 15530
KUIPER-00590            
1 69276U 26118K   26244.51489657  .00001976  00000+0  28819-3 0  9994
2 69276  51.9019  63.1502 0001455 110.7274 249.3845 14.79934496 15468
KUIPER-00592            
1 69277U 26118L   26244.58335648 -.00016649  00000+0 -21576-2 0  9999
2 69277  51.9025  62.7249 0001062 110.8458 344.5995 14.79985742  5416
KUIPER-00593            
1 69278U 26118M   26244.58335648 -.00053097  00000+0 -44594-2 0  9993
2 69278  51.8919  46.0661 0004431  34.7078 323.9613 14.98000662  3973
KUIPER-00594            
1 69279U 26118N   26244.44321898  .00001507  00000+0  23074-3 0  9999
2 69279  51.9027  50.9625 0001505  99.1360 260.9773 14.79146565 15621
KUIPER-00595            
1 69280U 26118P   26244.58335648 -.00047745  00000+0 -37555-2 0  9998
2 69280  51.8898  46.1398 0003453  89.5874 338.7595 15.00462402  5787
KUIPER-00596            
1 69281U 26118Q   26244.54325577  .00003212  00000+0  45006-3 0  9995
2 69281  51.9019  68.0206 0000583 110.1933 249.9093 14.79940878 15390
KUIPER-00597            
1 69282U 26118R   26244.58335648 -.00400756  00000+0 -48352-1 0  9991
2 69282  51.9482  47.7901 0007723  62.8836 154.3427 14.85400984  5608
KUIPER-00599            
1 69283U 26118S   26243.76055337  .00000495  00000+0  93993-4 0  9993
2 69283  51.9007  61.3943 0000807 133.7899 226.3130 14.79931375 15421
KUIPER-00600            
1 69284U 26118T   26244.58335648 -.00058699  00000+0 -57019-2 0  9999
2 69284  51.8967  48.0773 0006918  80.5285 101.5028 14.92354528  5306
KUIPER-00601            
1 69285U 26118U   26243.72137635  .00002572  00000+0  36637-3 0  9992
2 69285  51.9014  66.6512 0000638  92.6098 267.4938 14.79911691 15349
KUIPER-00602            
1 69286U 26118V   26244.20221919 -.00000203  00000+0  24317-5 0  9990
2 69286  51.9004  56.9395 0001591 148.3144 211.7915 14.79933830 15526
KUIPER-00603            
1 69287U 26118W   26244.21640491 -.00000563  00000+0 -44818-4 0  9999
2 69287  51.9023  59.4649 0000922  99.1440 260.9627 14.79930644 15488
KUIPER-00605            
1 69288U 26118X   26244.54594234  .00002076  00000+0  30131-3 0  9990
2 69288  51.8983  65.4913 0000570 108.0201 252.0824 14.79929581 15432
KUIPER-00606            
1 69289U 26118Y   26243.86185460  .00002286  00000+0  32885-3 0  9993
2 69289  51.9006  61.0315 0000751 123.6912 236.4122 14.79924967 15431
KUIPER-00607            
1 69290U 26118Z   26244.58335648 -.00066867  00000+0 -73281-2 0  9991
2 69290  51.8988  48.0053 0005926  71.8453 120.7621 14.87597601  5740
KUIPER-00608            
1 69291U 26118AA  26244.58335648 -.00052803  00000+0 -57526-2 0  9991
2 69291  51.8981  50.3547 0011076  79.9209  37.3445 14.87679949  5618
KUIPER-00610            
1 69292U 26118AB  26244.50611351  .00012798  00000+0  17006-2 0  9998
2 69292  51.9012  55.6812 0000958 107.7076 252.3991 14.80032673 15567
KUIPER-00613            
1 69293U 26118AC  26243.88754450  .00002146  00000+0  31047-3 0  9995
2 69293  51.9000  68.4180 0000651 103.3858 256.7177 14.79927200 15331
KUIPER-00618            
1 69294U 26118AD  26244.58335648 -.00023875  00000+0 -31005-2 0  9995
2 69294  51.9024  52.8502 0003346 123.7501  91.1623 14.80106664  5755
KUIPER-00620            
1 69295U 26118AE  26244.48920946  .00000010  00000+0  30353-4 0  9997
2 69295  51.9034  55.7619 0001082 139.1034 221.0009 14.79937609 15566
KUIPER-00423            
1 69592U 26140A   26244.58335648 -.00715119  00000+0 -36004-1 0  9993
2 69592  51.8959  29.8344 0012767  73.4455 111.8817 15.19034841  5593
KUIPER-00428            
1 69593U 26140B   26244.33335648  .00057026  00000+0  15234-2 0  9994
2 69593  51.8813  30.7966 0006101 192.0609 193.7718 15.37526445  5841
KUIPER-00481            
1 69594U 26140C   26244.58335648 -.00059738  00000+0 -61978-2 0  9992
2 69594  51.8982  32.5466 0014898  74.5205 264.2420 14.89668213  4919
KUIPER-00490            
1 69595U 26140D   26244.58335648 -.00030200  00000+0 -40213-2 0  9995
2 69595  51.9034  37.7810 0003120 132.2478 185.1058 14.79180321  5860
KUIPER-00493            
1 69596U 26140E   26244.41828620  .00001642  00000+0  24433-3 0  9998
2 69596  51.9037  43.5723 0001021 192.9595 167.1341 14.79933028 12776
KUIPER-00496            
1 69597U 26140F   26244.45406152 -.00004158  00000+0 -12783-3 0  9997
2 69597  51.8800  32.3410 0010161 216.0650 143.9649 15.30188509 12933
KUIPER-00513            
1 69598U 26140G   26244.42193365  .00031002  00000+0  43468-2 0  9993
2 69598  51.9003  38.5370 0001201 147.0237 213.0799 14.77216372 12847
KUIPER-00516            
1 69599U 26140H   26244.61658420 -.00014213  00000+0 -36438-3 0  9990
2 69599  51.8804  28.9939 0007651 183.7905 176.3025 15.37979604 12994
KUIPER-00517            
1 69600U 26140J   26244.41660435  .00020073  00000+0  55439-3 0  9991
2 69600  51.8781  29.8929 0010779 106.2921 253.9253 15.36996422 12961
KUIPER-00520            
1 69601U 26140K   26244.58335648 -.00029759  00000+0 -40271-2 0  9994
2 69601  51.9017  39.4007 0001978 133.3352 316.8741 14.78496688  5461
KUIPER-00522            
1 69602U 26140L   26244.58335648 -.01906039  00000+0 -11093+0 0  9998
2 69602  51.8889  30.0679 0014233  73.6279  24.3486 15.14942094  5388
KUIPER-00528            
1 69603U 26140M   26244.47158155  .00006568  00000+0  88964-3 0  9993
2 69603  51.9039  40.8473 0001223 117.9260 242.1827 14.79935287 12816
KUIPER-00532            
1 69604U 26140N   26244.58335648 -.01578346  00000+0 -60114-1 0  9996
2 69604  51.8835  29.8883 0004307 191.6940 359.3065 15.29254433  5935
KUIPER-00533            
1 69605U 26140P   26244.58335648 -.00079148  00000+0 -10750-1 0  9993
2 69605  51.9019  35.3078 0003411 101.3689 217.4931 14.78842058  4385
KUIPER-00534            
1 69606U 26140Q   26243.67915459 -.00032747  00000+0 -99936-3 0  9996
2 69606  51.8837  33.9682 0011374  64.5742 295.6419 15.33103770 12847
KUIPER-00537            
1 69607U 26140R   26243.97864497  .00240435  00000+0  31900-1 0  9993
2 69607  51.8996  45.4321 0001198 171.1404 188.9579 14.77968850 12717
KUIPER-00538            
1 69608U 26140S   26244.58335648 -.00029976  00000+0 -39146-2 0  9991
2 69608  51.9019  40.2873 0000962  79.9725  65.7675 14.79997134  4819
KUIPER-00540            
1 69609U 26140T   26243.93112886  .00024358  00000+0  65086-3 0  9997
2 69609  51.8829  32.6654 0005730 191.5795 168.5061 15.37936670 12886
KUIPER-00541            
1 69610U 26140U   26244.14392375  .00019955  00000+0  54229-3 0  9990
2 69610  51.8829  31.1095 0007524 123.8731 236.2973 15.37530567 12927
KUIPER-00542            
1 69611U 26140V   26244.14376889  .00019801  00000+0  54023-3 0  9995
2 69611  51.8791  31.0797 0008251 109.0137 251.1744 15.37408238 12929
KUIPER-00543            
1 69612U 26140W   26244.58335648 -.00008232  00000+0 -27069-3 0  9990
2 69612  51.8820  29.8376 0007309 200.9796 348.1397 15.29580265  5752
KUIPER-00544            
1 69613U 26140X   26243.69257107  .00018025  00000+0  49066-3 0  9995
2 69613  51.8790  33.3048 0005447 112.3413 247.8152 15.37561334 12856
KUIPER-00546            
1 69614U 26140Y   26244.58335648 -.01382001  00000+0 -81267-1 0  9990
2 69614  51.8913  29.9853 0016176  66.2932 112.4969 15.14032546  5570
KUIPER-00547            
1 69615U 26140Z   26244.13979251  .00022152  00000+0  57803-3 0  9992
2 69615  51.8839  31.0789 0009990  94.8119 265.4009 15.38697183 12921
KUIPER-00549            
1 69616U 26140AA  26244.11881101  .00022913  00000+0  61446-3 0  9990
2 69616  51.8786  31.6508 0006852 190.1659 169.9191 15.37855647 12910
KUIPER-00550            
1 69617U 26140AB  26243.69181709  .00012088  00000+0  44560-3 0  9990
2 69617  51.8815  36.9568 0008983 228.6680 131.3530 15.28171337 12801
KUIPER-00551            
1 69618U 26140AC  26244.12726089  .00021136  00000+0  56143-3 0  9990
2 69618  51.8802  30.9716 0012527  85.0416 275.2001 15.38151084 12920
KUIPER-00554            
1 69619U 26140AD  26244.58335648 -.00004296  00000+0 -10505-3 0  9990
2 69619  51.8792  28.8287 0010742 100.9837 234.6617 15.37253639  5785
KUIPER-00555            
1 69620U 26140AE  26244.13520554  .00028115  00000+0  73116-3 0  9996
2 69620  51.8816  31.0471 0011388  86.2440 273.9850 15.38644571 12927
KUIPER-00556            
1 69621U 26140AF  26244.58335648 -.00042286  00000+0 -31476-2 0  9993
2 69621  51.8947  31.3528 0014149  72.5819 179.1644 15.02409188  4658
KUIPER-00557            
1 69622U 26140AG  26244.41326377  .00031036  00000+0  81407-3 0  9994
2 69622  51.8788  29.8987 0009331 102.2529 257.9504 15.38349503 12965
KUIPER-00560            
1 69623U 26140AH  26244.43326190  .00017954  00000+0  49827-3 0  9993
2 69623  51.8804  30.0126 0009131 123.6907 236.4951 15.36939756 12960
KUIPER-00561            
1 69624U 26140AJ  26244.58335648 -.00077125  00000+0 -10120-1 0  9998
2 69624  51.9036  35.2729 0003106   9.2514 130.4635 14.80274646  5168
KUIPER-00564            
1 69625U 26140AK  26244.58335648 -.00052181  00000+0 -49011-2 0  9996
2 69625  51.8966  32.8533 0009562  88.4849 157.6627 14.93605226  5919
KUIPER-00567            
1 69626U 26140AL  26244.58335648 -.00046919  00000+0 -37754-2 0  9990
2 69626  51.8950  31.1734 0011984  59.8424 161.4214 14.99527841  4949
KUIPER-00573            
1 69627U 26140AM  26244.58335648 -.00062704  00000+0 -64645-2 0  9990
2 69627  51.8994  33.1052 0011044  56.7344 279.5779 14.89987173  5784
KUIPER-00258            
1 69763U 26151A   26244.55376800 -.00052236  00000+0 -16735-2 0  9991
2 69763  51.8686 308.0304 0012534 350.4560   9.6185 15.31765677  9436
KUIPER-00526            
1 69764U 26151B   26244.49302357 -.00000149  00000+0  95411-5 0  9997
2 69764  51.8987 318.3166 0001400  97.5824 262.5297 14.79937258  9287
KUIPER-00558            
1 69765U 26151C   26244.45932617  .00001740  00000+0  25711-3 0  9993
2 69765  51.8994 318.3907 0000529  99.3156 260.7867 14.79939962  9285
KUIPER-00569            
1 69766U 26151D   26244.61396367  .00001502  00000+0  22596-3 0  9992
2 69766  51.9026 315.1921 0000446  46.9579 313.1421 14.79939301  9342
KUIPER-00589            
1 69767U 26151E   26244.61511626  .00001137  00000+0  19221-3 0  9995
2 69767  51.9018 317.8156 0002204  22.5648 337.5409 14.76510853  9300
KUIPER-00598            
1 69768U 26151F   26244.58335648 -.00010020  00000+0 -91695-3 0  9998
2 69768  51.8894 310.7355 0008446   6.5334 220.3869 14.93585500  5892
KUIPER-00604            
1 69769U 26151G   26244.58335648  .00016476  00000+0  23643-2 0  9995
2 69769  51.9022 312.5884 0002481 297.8181  17.5906 14.76577111  5632
KUIPER-00609            
1 69770U 26151H   26244.58335648 -.00016771  00000+0 -18151-2 0  9995
2 69770  51.8990 309.9815 0004313 105.2958  74.1205 14.87383991  4870
KUIPER-00611            
1 69771U 26151J   26244.58335648 -.00028070  00000+0 -34630-2 0  9991
2 69771  51.8979 312.8575 0002185 358.1518 352.2860 14.82330252  5763
KUIPER-00612            
1 69772U 26151K   26244.58335648 -.00039200  00000+0 -55210-2 0  9996
2 69772  51.9009 314.9717 0003281 309.9630 353.7881 14.76936204  3283
KUIPER-00614            
1 69773U 26151L   26244.58335648 -.00039276  00000+0 -50344-2 0  9993
2 69773  51.8978 312.9084 0002848  99.7714 350.1418 14.80903634  5654
KUIPER-00615            
1 69774U 26151M   26244.48262460  .00000723  00000+0  13317-3 0  9997
2 69774  51.9020 317.9437 0000923 175.5761 184.5208 14.76598073  9290
KUIPER-00616            
1 69775U 26151N   26244.58335648 -.02242944  00000+0 -10282+0 0  9999
2 69775  51.8857 306.4725 0002555  47.9223 102.8022 15.23862111  4516
KUIPER-00617            
1 69776U 26151P   26244.58335648  .00003105  00000+0  28190-3 0  9991
2 69776  51.8957 308.5799 0004938 326.2052 192.8264 14.97999447  5850
KUIPER-00619            
1 69777U 26151Q   26244.58335648 -.00010613  00000+0 -97403-3 0  9999
2 69777  51.8955 310.2266 0005767  33.2198 341.3104 14.93552258  4938
KUIPER-00621            
1 69778U 26151R   26244.58335648 -.00034435  00000+0 -43836-2 0  9998
2 69778  51.8999 312.7488 0002955 109.3459 213.1643 14.81127149  2342
KUIPER-00622            
1 69779U 26151S   26244.46923066  .00000477  00000+0  98197-4 0  9992
2 69779  51.9006 316.8720 0000972  58.8595 301.2461 14.76607425  9307
KUIPER-00623            
1 69780U 26151T   26244.58092800  .00001123  00000+0  19008-3 0  9992
2 69780  51.8989 315.2046 0001217   2.0828 358.0138 14.76556359  9338
KUIPER-00626            
1 69781U 26151U   26244.58335648 -.00003889  00000+0 -32842-3 0  9997
2 69781  51.8899 310.7884 0008142  27.8009 236.2308 14.95034817  5220
KUIPER-00627            
1 69782U 26151V   26244.58335648 -.01355677  00000+0 -68399-1 0  9998
2 69782  51.8769 308.4667 0008817   5.7397 225.2315 15.19909822  4560
KUIPER-00629            
1 69783U 26151W   26244.60856655 -.00000456  00000+0 -30842-4 0  9994
2 69783  51.9025 320.1713 0000786  56.5262 303.5775 14.79931421  9270
KUIPER-00631            
1 69784U 26151X   26244.42287757  .00000092  00000+0  41027-4 0  9997
2 69784  51.9011 321.0524 0000571 100.8827 259.2200 14.79932426  9241
KUIPER-00634            
1 69785U 26151Y   26244.58021431 -.00001038  00000+0 -10708-3 0  9994
2 69785  51.9011 315.3628 0002026  82.1825 277.9367 14.79939142  9333
KUIPER-00639            
1 69786U 26151Z   26244.58335648 -.01165100  00000+0 -56347-1 0  9992
2 69786  51.8756 308.0573 0010212 347.5266 122.2845 15.20867254  3192
KUIPER-00641            
1 69787U 26151AA  26244.58335648  .00017606  00000+0  11943-2 0  9991
2 69787  51.8858 309.2137 0013430 357.7034 253.2717 15.06425144  5698
KUIPER-00644            
1 69788U 26151AB  26244.57579374  .00009210  00000+0  26004-3 0  9994
2 69788  51.8758 306.7467 0010013 352.0057   8.0769 15.37062235  9445
KUIPER-00646            
1 69789U 26151AC  26244.58335648  .00011076  00000+0  80750-3 0  9991
2 69789  51.8918 309.2825 0007230 357.5798 147.5595 15.04152175  5459
KUIPER-00647            
1 69790U 26151AD  26244.58335648 -.00916118  00000+0 -62235-1 0  9992
2 69790  51.8843 309.3428 0012093   8.5411 203.3931 15.08693226  3944
KUIPER-00662            
1 69791U 26151AE  26244.56454974 -.00005205  00000+0 -71094-3 0  9996
2 69791  51.9025 320.1422 0002391 339.3836  20.7028 14.76468234  9261
