IRIDIUM 7               
1 24793U 97020B   26096.94294872  .00000489  00000+0  16083-3 0  9992
2 24793  86.3953  53.7357 0001908  93.4154 266.7261 14.36209543514057
IRIDIUM 5               
1 24795U 97020D   26096.61354163  .00005369  00000+0  40639-3 0  9994
2 24795  86.3847 308.0568 0102354 161.1475 199.3592 14.97911593529334
IRIDIUM 4               
1 24796U 97020E   26096.88095423  .00000518  00000+0  16774-3 0  9999
2 24796  86.3955  50.4425 0002061  87.0513 273.0920 14.37119198514646
IRIDIUM 914             
1 24836U 97030A   26096.89226820  .00000603  00000+0  18095-3 0  9996
2 24836  86.3920  58.1689 0002027  44.6329 315.5033 14.41191199649424
IRIDIUM 16              
1 24841U 97030F   26096.94754222  .00000535  00000+0  16711-3 0  9997
2 24841  86.3979  81.8538 0003026 134.3383 225.8064 14.39008421509241
IRIDIUM 911             
1 24842U 97030G   26096.91496057  .00000691  00000+0  18038-3 0  9991
2 24842  86.4405  80.3063 0013537 188.8807 171.2159 14.48052173517585
IRIDIUM 17              
1 24870U 97034B   26096.76435692  .00000508  00000+0  16120-3 0  9994
2 24870  86.3908 111.3739 0003641 107.8533 252.3063 14.38144475505779
IRIDIUM 920             
1 24871U 97034C   26096.95563539  .00000491  00000+0  14418-3 0  9997
2 24871  86.3915  89.8077 0011222 181.1007 179.0171 14.41848362508900
IRIDIUM 26              
1 24903U 97043A   26096.98125415  .00000465  00000+0  14903-3 0  9993
2 24903  86.3998 347.1445 0002097  91.8989 268.2449 14.37442923498941
IRIDIUM 22              
1 24907U 97043E   26096.94796549  .00000372  00000+0  12096-3 0  9993
2 24907  86.4008 350.9495 0002256  89.1798 270.9657 14.36218924498931
DUMMY MASS 1            
1 24925U 97048A   26096.92708352  .00000475  00000+0  49486-4 0  9999
2 24925  86.3395 359.4052 0006797 164.0467 196.0974 14.87304720548787
DUMMY MASS 2            
1 24926U 97048B   26096.66924106  .00000527  00000+0  55681-4 0  9990
2 24926  86.3395   1.1844 0006973 178.5461 181.5785 14.87054255548513
IRIDIUM 29              
1 24944U 97051A   26096.86243167  .00000483  00000+0  15721-3 0  9998
2 24944  86.4004  20.5882 0002305  83.6193 276.5266 14.36769573495432
IRIDIUM 33              
1 24946U 97051C   26096.82514965  .00000344  00000+0  11377-3 0  9992
2 24946  86.3920  19.8980 0007309 183.8120 176.3021 14.35119185494850
IRIDIUM 28              
1 24948U 97051E   26096.86048585  .00000470  00000+0  15000-3 0  9995
2 24948  86.4012  17.9426 0002003 100.7152 259.4271 14.37663279496030
IRIDIUM 36              
1 24967U 97056C   26096.91676356  .00000488  00000+0  15519-3 0  9994
2 24967  86.3967  49.5090 0002318  93.2072 266.9391 14.37898539494429
IRIDIUM 39              
1 25042U 97069D   26096.94731633  .00000870  00000+0  22036-3 0  9993
2 25042  86.3857  85.1720 0019359  49.6314 310.6576 14.49694572491518
IRIDIUM 38              
1 25043U 97069E   26096.97159290  .00000485  00000+0  15254-3 0  9996
2 25043  86.3905 109.6326 0001978 143.8761 216.2572 14.38437761488187
IRIDIUM 42              
1 25077U 97077A   26096.78386054  .00000480  00000+0  15637-3 0  9991
2 25077  86.3920 116.2575 0001682 106.7840 253.3542 14.36645124483343
IRIDIUM 44              
1 25078U 97077B   26096.91788254  .00000451  00000+0  13547-3 0  9991
2 25078  86.3899  97.3143 0003681 113.8516 246.3070 14.40532510485988
IRIDIUM 45              
1 25104U 97082A   26096.87459543  .00029022  00000+0  68066-3 0  9999
2 25104  86.3481 263.5941 0083675 299.6510  59.6428 15.38239447496936
IRIDIUM 24              
1 25105U 97082B   26096.85321481  .00000498  00000+0  14428-3 0  9996
2 25105  86.3892 315.7298 0011123 176.5850 183.5428 14.42471749485546
IRIDIUM 57              
1 25273U 98019B   26096.87877452  .00000426  00000+0  13956-3 0  9995
2 25273  86.4007  22.0790 0002137  90.5437 269.6005 14.36147860466933
IRIDIUM 63              
1 25286U 98021B   26096.88714435  .00000385  00000+0  12363-3 0  9999
2 25286  86.3973 318.9194 0002291  83.5988 276.5471 14.36846182466013
IRIDIUM 69              
1 25319U 98026A   26096.89390139  .00000539  00000+0  16035-3 0  9994
2 25319  86.3989 331.2807 0004187 111.4218 248.7428 14.41351635465369
IRIDIUM 71              
1 25320U 98026B   26096.87351178  .00000323  00000+0  93588-4 0  9994
2 25320  86.3979 325.9539 0002369 141.7578 218.3790 14.41429719465899
IRIDIUM 73              
1 25344U 98032C   26096.92919512  .00000650  00000+0  15537-3 0  9995
2 25344  86.4353 282.0280 0002882  87.9648 272.1888 14.52155111473188
IRIDIUM 82              
1 25467U 98051A   26096.87279822  .00083616  00000+0  88837-3 0  9995
2 25467  86.3544 322.5092 0040626 238.9941 120.7333 15.62709230469275
