IRIDIUM 106             
1 41917U 17003A   26229.91039834  .00000022  00000+0  66725-6 0  9996
2 41917  86.3912  62.7333 0002320  83.6482 276.4978 14.34217364502055
IRIDIUM 103             
1 41918U 17003B   26229.89770985  .00000013  00000+0 -23589-5 0  9994
2 41918  86.3915  62.6382 0002230  93.4654 266.6797 14.34217208502071
IRIDIUM 109             
1 41919U 17003C   26229.90405629  .00000016  00000+0 -12882-5 0  9994
2 41919  86.3916  62.6960 0002185  90.3656 269.7791 14.34217271502047
IRIDIUM 102             
1 41920U 17003D   26229.80257181  .00000007  00000+0 -46401-5 0  9997
2 41920  86.3915  62.6608 0002164  87.3610 272.7834 14.34217668502110
IRIDIUM 105             
1 41921U 17003E   26229.90070558  .00000085  00000+0  23462-4 0  9996
2 41921  86.3961  31.0532 0001955  95.9710 264.1709 14.34218242503982
IRIDIUM 104             
1 41922U 17003F   26229.60596616  .00000014  00000+0 -19455-5 0  9993
2 41922  86.3916  62.7866 0002041  96.4403 263.7025 14.34218065502074
IRIDIUM 114             
1 41923U 17003G   26229.89136553  .00000023  00000+0  10312-5 0  9997
2 41923  86.3916  62.6501 0002181  92.0364 268.1081 14.34217566502091
IRIDIUM 108             
1 41924U 17003H   26229.84988709 -.00000021  00000+0 -14465-4 0  9993
2 41924  86.3951  30.9607 0001994  90.3846 269.7578 14.34217435503941
IRIDIUM 112             
1 41925U 17003J   26229.80891535  .00000010  00000+0 -35563-5 0  9990
2 41925  86.3912  62.5237 0002114  90.1749 269.9689 14.34217590502108
IRIDIUM 111             
1 41926U 17003K   26229.93576764  .00000022  00000+0  85598-6 0  9995
2 41926  86.3914  62.5427 0002201  89.4252 270.7197 14.34217530502107
IRIDIUM 113             
1 42803U 17039A   26229.91573212 -.00000063  00000+0 -29587-4 0  9993
2 42803  86.3968 296.3833 0002142  97.3182 262.8257 14.34216892480039
IRIDIUM 123             
1 42804U 17039B   26229.88744192  .00000042  00000+0  78816-5 0  9992
2 42804  86.4013 327.8572 0002383  94.4373 265.7095 14.34217902478794
IRIDIUM 120             
1 42805U 17039C   26229.70008350 -.00000016  00000+0 -12902-4 0  9999
2 42805  86.3957 296.2478 0002245  91.4334 268.7119 14.34217374479992
IRIDIUM 115             
1 42806U 17039D   26229.89234893  .00000188  00000+0  49812-4 0  9991
2 42806  86.4494 296.3051 0002560  94.8992 265.2501 14.43280831483164
IRIDIUM 118             
1 42807U 17039E   26229.70985027  .00000148  00000+0  45686-4 0  9995
2 42807  86.4014 327.9294 0002204  94.9756 265.1691 14.34218366478760
IRIDIUM 117             
1 42808U 17039F   26229.72887712  .00000076  00000+0  20014-4 0  9998
2 42808  86.4013 327.8788 0002272  94.4108 265.7348 14.34217989478796
IRIDIUM 126             
1 42809U 17039G   26229.68447881  .00000043  00000+0  83448-5 0  9998
2 42809  86.4015 327.9492 0002271  97.8799 262.2655 14.34217841478761
IRIDIUM 124             
1 42810U 17039H   26229.54884311  .00000176  00000+0  46213-4 0  9993
2 42810  86.4441 264.6975 0002447  93.8582 266.2899 14.43281732483962
IRIDIUM 128             
1 42811U 17039J   26229.39614297  .00000006  00000+0 -48232-5 0  9998
2 42811  86.4004 359.5611 0002193  91.4907 268.6540 14.34217541478759
IRIDIUM 121             
1 42812U 17039K   26229.70350608  .00000020  00000+0  37875-7 0  9995
2 42812  86.4012 327.9693 0002078  94.3077 265.8356 14.34218218478644
IRIDIUM 133             
1 42955U 17061A   26229.42785564  .00000061  00000+0  14834-4 0  9992
2 42955  86.4010 359.6667 0002222  92.8852 267.2598 14.34217936463552
IRIDIUM 100             
1 42956U 17061B   26229.35174413  .00000112  00000+0  32841-4 0  9995
2 42956  86.4009 359.6156 0002189  92.2450 267.8996 14.34218109463544
IRIDIUM 122             
1 42957U 17061C   26229.87817947  .00000149  00000+0  46100-4 0  9992
2 42957  86.4010 359.3963 0002232  94.9704 265.1747 14.34218408463626
IRIDIUM 129             
1 42958U 17061D   26229.90354993  .00000092  00000+0  25733-4 0  9990
2 42958  86.4011 359.4533 0002010  97.5699 262.5726 14.34217993463646
IRIDIUM 119             
1 42959U 17061E   26229.87183713  .00000151  00000+0  46924-4 0  9998
2 42959  86.4011 359.4628 0002223  96.2363 263.9087 14.34218437463652
IRIDIUM 107             
1 42960U 17061F   26229.89086514  .00000566  00000+0  19516-3 0  9999
2 42960  86.4010 359.4761 0002425  94.0029 266.1444 14.34218835463665
IRIDIUM 132             
1 42961U 17061G   26229.89720743  .00000109  00000+0  31901-4 0  9995
2 42961  86.4010 359.4525 0002227  93.3432 266.8018 14.34217955463660
IRIDIUM 136             
1 42962U 17061H   26229.78938310  .00000084  00000+0  23099-4 0  9996
2 42962  86.4012 359.5047 0002154  92.1552 267.9891 14.34218066463667
IRIDIUM 139             
1 42963U 17061J   26229.30734594  .00000075  00000+0  19787-4 0  9992
2 42963  86.4013 359.7689 0002239  92.9143 267.2309 14.34218092463601
IRIDIUM 125             
1 42964U 17061K   26229.92257806  .00000143  00000+0  43954-4 0  9996
2 42964  86.4014 359.5741 0002499 104.4745 255.6729 14.34218534463704
IRIDIUM 135             
1 43070U 17083A   26229.89670344  .00000173  00000+0  54647-4 0  9995
2 43070  86.3963 296.2244 0002265  95.7592 264.3862 14.34218087452990
IRIDIUM 138             
1 43071U 17083B   26229.22438873  .00000027  00000+0  25978-5 0  9996
2 43071  86.3976 296.2102 0002268  98.4454 261.6999 14.34217731452882
IRIDIUM 116             
1 43072U 17083C   26229.26244471  .00000064  00000+0  15769-4 0  9997
2 43072  86.3962 296.4747 0002378  88.3807 271.7661 14.34217687452920
IRIDIUM 130             
1 43073U 17083D   26229.92841708 -.00000017  00000+0 -13249-4 0  9998
2 43073  86.3970 296.4774 0002394  91.9014 268.2457 14.34217421452962
IRIDIUM 151             
1 43074U 17083E   26229.76350929 -.00000004  00000+0 -84138-5 0  9993
2 43074  86.3964 296.3242 0002185  93.1947 266.9499 14.34217502452963
IRIDIUM 134             
1 43075U 17083F   26229.80156468  .00000007  00000+0 -44729-5 0  9995
2 43075  86.3965 296.3172 0002227  94.3847 265.7603 14.34217552452932
IRIDIUM 137             
1 43076U 17083G   26229.25610141  .00000056  00000+0  12872-4 0  9994
2 43076  86.3967 296.6394 0002159  84.7843 275.3599 14.34217985452927
IRIDIUM 141             
1 43077U 17083H   26229.59860133  .00000060  00000+0  14429-4 0  9995
2 43077  86.3962 296.3233 0002259  95.8323 264.3130 14.34218027452971
IRIDIUM 153             
1 43078U 17083J   26229.13216914  .00000023  00000+0  12224-5 0  9999
2 43078  86.3920 264.9865 0002330  96.4327 263.7134 14.34217686454013
IRIDIUM 131             
1 43079U 17083K   26229.93475943 -.00000007  00000+0 -95342-5 0  9993
2 43079  86.3968 296.3728 0002149  95.2607 264.8834 14.34217329452953
IRIDIUM 144             
1 43249U 18030A   26229.13851173  .00000074  00000+0  19457-4 0  9994
2 43249  86.3918 264.9113 0002364  89.8041 270.3426 14.34218083438878
IRIDIUM 149             
1 43250U 18030B   26229.84253946 -.00000042  00000+0 -22157-4 0  9996
2 43250  86.3918 264.5829 0002190  94.1091 266.0355 14.34217329438999
IRIDIUM 157             
1 43251U 18030C   26229.86156710  .00000114  00000+0  33662-4 0  9991
2 43251  86.3918 264.6298 0002317  92.8823 267.2638 14.34218327438974
IRIDIUM 140             
1 43252U 18030D   26229.67128978 -.00000015  00000+0 -12373-4 0  9994
2 43252  86.3920 264.7217 0002231  92.8607 267.2845 14.34217402439003
IRIDIUM 145             
1 43253U 18030E   26229.17022540 -.00000013  00000+0 -11649-4 0  9991
2 43253  86.3922 264.9034 0002359  86.5210 273.6256 14.34217322438867
IRIDIUM 146             
1 43254U 18030F   26229.15119703 -.00000032  00000+0 -18444-4 0  9999
2 43254  86.3920 264.9233 0002254  90.1537 269.9917 14.34217410438875
IRIDIUM 148             
1 43255U 18030G   26229.81716845 -.00000002  00000+0 -76269-5 0  9990
2 43255  86.3921 264.6889 0002122  91.3158 268.8281 14.34217881439007
IRIDIUM 142             
1 43256U 18030H   26229.85522552 -.00000040  00000+0 -21498-4 0  9990
2 43256  86.3917 264.5595 0002260  88.3263 271.8192 14.34217140438970
IRIDIUM 150             
1 43257U 18030J   26229.82351186 -.00000026  00000+0 -16457-4 0  9994
2 43257  86.3920 264.6911 0002268  91.9551 268.1904 14.34217343438993
IRIDIUM 143             
1 43258U 18030K   26229.66496770  .00000115  00000+0  33825-4 0  9991
2 43258  86.3921 264.8528 0002396  91.0438 269.1032 14.34218507438905
IRIDIUM 161             
1 43478U 18047C   26229.80411002  .00000028  00000+0  24570-5 0  9995
2 43478  86.4436  62.6886 0002050  91.0993 269.0443 14.43279723434026
IRIDIUM 152             
1 43479U 18047D   26229.91673905  .00000022  00000+0  69365-6 0  9996
2 43479  86.3910  62.5032 0002139  90.2869 269.8572 14.34217707431332
IRIDIUM 147             
1 43480U 18047E   26229.92308250  .00000023  00000+0  10225-5 0  9998
2 43480  86.3912  62.5068 0002211  85.8704 274.2744 14.34217656431338
IRIDIUM 110             
1 43481U 18047F   26229.92942586  .00000022  00000+0  77060-6 0  9995
2 43481  86.3914  62.5977 0001946  94.1583 265.9836 14.34217132431329
IRIDIUM 162             
1 43482U 18047G   26229.52048340  .00000032  00000+0  34709-5 0  9990
2 43482  86.4434  62.6977 0002273  88.7110 271.4351 14.43280899433975
IRIDIUM 160             
1 43569U 18061A   26229.73572325  .00000116  00000+0  34285-4 0  9991
2 43569  86.3959  31.0476 0002104  90.5063 269.6374 14.34218547422194
IRIDIUM 166             
1 43570U 18061B   26229.90063034  .00000100  00000+0  28692-4 0  9992
2 43570  86.3958  30.9283 0002212  89.0284 271.1165 14.34218517422246
IRIDIUM 158             
1 43571U 18061C   26229.45030687  .00000104  00000+0  30081-4 0  9990
2 43571  86.3957  31.1268 0002197  92.6540 267.4908 14.34218192422140
IRIDIUM 165             
1 43572U 18061D   26229.89429110  .00000131  00000+0  39706-4 0  9995
2 43572  86.3960  30.9886 0002215  88.3553 271.7897 14.34217980422234
IRIDIUM 155             
1 43573U 18061E   26229.92600128  .00000129  00000+0  39094-4 0  9997
2 43573  86.3955  30.8412 0002239  91.5339 268.6113 14.34218452422205
IRIDIUM 154             
1 43574U 18061F   26229.90697454  .00000133  00000+0  40392-4 0  9992
2 43574  86.3959  30.9860 0002184  87.8611 272.2835 14.34218163422254
IRIDIUM 163             
1 43575U 18061G   26229.88794511  .00000135  00000+0  40993-4 0  9991
2 43575  86.3956  30.9072 0002127  92.6304 267.5136 14.34218778422227
IRIDIUM 156             
1 43576U 18061H   26229.93234931  .00000124  00000+0  37272-4 0  9997
2 43576  86.3957  30.8960 0002335  91.7887 268.3576 14.34217433422225
IRIDIUM 164             
1 43577U 18061J   26229.91331559  .00000047  00000+0  97570-5 0  9992
2 43577  86.3959  30.9452 0002192  87.7074 272.4372 14.34218055422264
IRIDIUM 159             
1 43578U 18061K   26229.88160564  .00000134  00000+0  40811-4 0  9997
2 43578  86.3956  30.8941 0002118  92.8055 267.3383 14.34218050422224
IRIDIUM 180             
1 43922U 19002A   26229.74157332 -.00000015  00000+0 -12262-4 0  9999
2 43922  86.4010 327.8781 0002041  95.2527 264.8902 14.34212162397819
IRIDIUM 176             
1 43923U 19002B   26229.73772626  .00000467  00000+0  70086-4 0  9995
2 43923  86.6134 327.8147 0002387  93.6495 266.4995 14.72250845408303
IRIDIUM 168             
1 43924U 19002C   26229.73521880 -.00000003  00000+0 -82932-5 0  9992
2 43924  86.4013 327.9597 0002096  95.8390 264.3045 14.34217865397799
IRIDIUM 173             
1 43925U 19002D   26229.51322859  .00000000  00000+0 -70723-5 0  9995
2 43925  86.4010 327.9389 0002141  95.8750 264.2690 14.34217611397746
IRIDIUM 169             
1 43926U 19002E   26229.87867594  .00000199  00000+0  58691-4 0  9992
2 43926  86.4267 359.4030 0002703  97.4260 262.7246 14.38609202399097
IRIDIUM 172             
1 43927U 19002F   26229.78595976 -.00000020  00000+0 -14123-4 0  9992
2 43927  86.4010 327.8331 0002067  95.9614 264.1818 14.34217520397796
IRIDIUM 175             
1 43928U 19002G   26229.61887349  .00000161  00000+0  41399-4 0  9992
2 43928  86.4472 264.8375 0004540  49.5873 310.5723 14.43639673407843
IRIDIUM 171             
1 43929U 19002H   26229.34831885  .00000140  00000+0  42872-4 0  9991
2 43929  86.4023 328.3288 0002302  93.0675 267.0784 14.34217735397722
IRIDIUM 170             
1 43930U 19002J   26229.33610657  .00000463  00000+0  69542-4 0  9995
2 43930  86.6132 327.9843 0002302  96.2668 263.8812 14.72251295408254
IRIDIUM 167             
1 43931U 19002K   26229.34197996  .00000159  00000+0  49848-4 0  9992
2 43931  86.4013 328.0413 0002477  91.2767 268.8713 14.34218185397727
IRIDIUM 181             
1 56726U 23068S   26229.87894048  .00000055  00000+0  10212-4 0  9993
2 56726  86.4495  30.9870 0002022  87.6092 272.5341 14.43309999171339
IRIDIUM 177             
1 56727U 23068T   26229.91461555  .00000627  00000+0  79304-4 0  9994
2 56727  86.1967 299.4925 0002475  95.3127 264.8376 14.80041428175495
IRIDIUM 174             
1 56728U 23068U   26229.73155506  .00000467  00000+0  70195-4 0  9992
2 56728  86.6141 327.9728 0002486 102.6810 257.4685 14.72256052175073
IRIDIUM 178             
1 56729U 23068V   26229.43046504  .00000683  00000+0  86828-4 0  9997
2 56729  86.6579 359.7730 0002480  94.3645 265.7860 14.80043834175429
IRIDIUM 179             
1 56730U 23068W   26229.89835683  .00000688  00000+0  87427-4 0  9994
2 56730  86.6808   8.7359 0002556  92.0228 268.1286 14.80049531175496
