IRIDIUM 7               
1 24793U 97020B   26099.86916357  .00000392  00000+0  12765-3 0  9991
2 24793  86.3956  52.5081 0001950  94.5951 265.5468 14.36211768514479
IRIDIUM 5               
1 24795U 97020D   26100.02057750  .00004091  00000+0  30852-3 0  9994
2 24795  86.3844 306.4751 0102786 148.9397 211.7968 14.97937854529842
IRIDIUM 4               
1 24796U 97020E   26100.15345640  .00000394  00000+0  12619-3 0  9990
2 24796  86.3959  49.0676 0002075  87.7849 272.3586 14.37121755515111
IRIDIUM 914             
1 24836U 97030A   26100.15553090  .00000454  00000+0  13467-3 0  9995
2 24836  86.3924  56.7876 0001748  43.0493 317.0843 14.41194129649897
IRIDIUM 16              
1 24841U 97030F   26100.21575264  .00000444  00000+0  13752-3 0  9991
2 24841  86.3983  80.4777 0003303 128.8925 231.2568 14.39011210509716
IRIDIUM 911             
1 24842U 97030G   26100.02457654  .00000557  00000+0  14425-3 0  9996
2 24842  86.4408  78.9933 0013949 178.3466 181.7787 14.48055621518034
IRIDIUM 17              
1 24870U 97034B   26100.03452877  .00000393  00000+0  12302-3 0  9994
2 24870  86.3906 109.9964 0003737 103.3443 256.8172 14.38146869506249
IRIDIUM 920             
1 24871U 97034C   26100.00921910  .00000399  00000+0  11602-3 0  9999
2 24871  86.3916  88.5137 0011611 171.1296 189.0111 14.41850773509348
IRIDIUM 26              
1 24903U 97043A   26100.11379647  .00000325  00000+0  10208-3 0  9991
2 24903  86.3993 345.8291 0002150  92.2135 267.9309 14.37444989499393
IRIDIUM 22              
1 24907U 97043E   26100.15284645  .00000296  00000+0  94767-4 0  9992
2 24907  86.4004 349.6067 0002255  88.9025 271.2430 14.36220948499399
DUMMY MASS 1            
1 24925U 97048A   26100.15653837  .00000383  00000+0  39247-4 0  9999
2 24925  86.3391 357.9124 0007267 154.0143 206.1449 14.87307293549261
DUMMY MASS 2            
1 24926U 97048B   26100.16840646  .00000371  00000+0  38232-4 0  9997
2 24926  86.3393 359.5677 0007511 166.6490 193.4935 14.87056748549030
IRIDIUM 29              
1 24944U 97051A   26100.13572950  .00000359  00000+0  11522-3 0  9996
2 24944  86.4003  19.2155 0002294  82.8655 277.2803 14.36772016495903
IRIDIUM 33              
1 24946U 97051C   26100.17193716  .00000273  00000+0  88673-4 0  9998
2 24946  86.3921  18.4950 0007722 172.7928 187.3381 14.35121056495330
IRIDIUM 28              
1 24948U 97051E   26100.20135221  .00000354  00000+0  11123-3 0  9996
2 24948  86.4011  16.5398 0002104 101.1364 259.0070 14.37665754496510
IRIDIUM 36              
1 24967U 97056C   26099.83954390  .00000405  00000+0  12769-3 0  9998
2 24967  86.3971  48.2800 0002353  92.5451 267.6016 14.37900894494847
IRIDIUM 39              
1 25042U 97069D   26100.19144727  .00000730  00000+0  18393-3 0  9994
2 25042  86.3859  83.7775 0019064  39.7019 320.5577 14.49699220491986
IRIDIUM 38              
1 25043U 97069E   26100.03240667  .00000401  00000+0  12508-3 0  9995
2 25043  86.3905 108.3426 0002280 140.4348 219.7017 14.38440230488621
IRIDIUM 42              
1 25077U 97077A   26100.05744219  .00000368  00000+0  11857-3 0  9993
2 25077  86.3918 114.8824 0001800 108.7832 251.3560 14.36647452483812
IRIDIUM 44              
1 25078U 97077B   26100.04371277  .00000368  00000+0  10928-3 0  9991
2 25078  86.3899  95.9920 0003824 109.1523 251.0091 14.40534623486434
IRIDIUM 45              
1 25104U 97082A   26099.86695177  .00023237  00000+0  54305-3 0  9999
2 25104  86.3482 262.1014 0083335 287.9172  71.3007 15.38377349497399
IRIDIUM 24              
1 25105U 97082B   26100.04421912  .00000383  00000+0  10971-3 0  9995
2 25105  86.3888 314.3748 0011521 166.2188 193.9329 14.42474172486008
IRIDIUM 57              
1 25273U 98019B   26100.15348876  .00000337  00000+0  10890-3 0  9990
2 25273  86.4008  20.7072 0002169  90.5474 269.5972 14.36150086467407
IRIDIUM 63              
1 25286U 98021B   26100.16026844  .00000316  00000+0  10030-3 0  9999
2 25286  86.3968 317.5451 0002260  82.9789 277.1666 14.36848253466481
IRIDIUM 69              
1 25319U 98026A   26100.15680259  .00000429  00000+0  12638-3 0  9997
2 25319  86.3985 329.9014 0004323 105.8251 254.3425 14.41354462465838
IRIDIUM 71              
1 25320U 98026B   26100.13623795  .00000243  00000+0  68863-4 0  9995
2 25320  86.3975 324.5741 0002696 136.5107 223.6306 14.41431340466366
IRIDIUM 73              
1 25344U 98032C   26100.03002701  .00000533  00000+0  12646-3 0  9994
2 25344  86.4355 280.7079 0002866  85.7315 274.4218 14.52158456473637
IRIDIUM 82              
1 25467U 98051A   26100.07417821  .00070764  00000+0  73924-3 0  9997
2 25467  86.3538 320.8541 0040717 225.7293 134.0631 15.63162373469779
