IRIDIUM 106             
1 41917U 17003A   26048.72155067  .00000154  00000+0  47926-4 0  9997
2 41917  86.4014 138.4991 0001815  97.8358 262.3044 14.34219182476088
IRIDIUM 103             
1 41918U 17003B   26049.19724895  .00000026  00000+0  22578-5 0  9996
2 41918  86.4013 138.2008 0002372  89.1435 271.0032 14.34217946476174
IRIDIUM 109             
1 41919U 17003C   26049.20359085  .00000016  00000+0 -12369-5 0  9991
2 41919  86.4015 138.2556 0002085  97.2093 262.9340 14.34217690476140
IRIDIUM 102             
1 41920U 17003D   26049.17187835  .00000087  00000+0  23918-4 0  9999
2 41920  86.4012 138.1955 0002200  99.1988 260.9456 14.34217888476228
IRIDIUM 105             
1 41921U 17003E   26049.14006901  .00000280  00000+0  92682-4 0  9990
2 41921  86.3949 106.6744 0002243  95.1265 265.0187 14.34391121478079
IRIDIUM 104             
1 41922U 17003F   26049.18456473  .00000055  00000+0  12699-4 0  9998
2 41922  86.4014 138.2303 0002544  97.4557 262.6928 14.34217465476217
IRIDIUM 114             
1 41923U 17003G   26049.19090282  .00000260  00000+0  85774-4 0  9994
2 41923  86.4015 138.2119 0002360  94.1890 265.9575 14.34216532476199
IRIDIUM 108             
1 41924U 17003H   26049.14942719  .00000080  00000+0  21357-4 0  9998
2 41924  86.3944 106.5590 0002217  98.9787 261.1659 14.34217674478044
IRIDIUM 112             
1 41925U 17003J   26049.17821942  .00000322  00000+0  10795-3 0  9998
2 41925  86.4011 138.0647 0002291  96.5033 263.6423 14.34216938476219
IRIDIUM 111             
1 41926U 17003K   26049.16553498  .00000022  00000+0  91664-6 0  9990
2 41926  86.4012 138.1377 0002076  96.0175 264.1257 14.34217848476194
IRIDIUM 113             
1 42803U 17039A   26048.44781452  .00000010  00000+0 -36569-5 0  9997
2 42803  86.3994  12.2024 0002227  86.0530 274.0921 14.34217743454020
IRIDIUM 123             
1 42804U 17039B   26049.04744109 -.00000004  00000+0 -84976-5 0  9992
2 42804  86.3936  43.4188 0002074  80.9795 279.1635 14.34217474452870
IRIDIUM 120             
1 42805U 17039C   26048.44147153  .00000022  00000+0  68159-6 0  9996
2 42805  86.3988  12.0029 0001988  86.0862 274.0561 14.34217650454015
IRIDIUM 115             
1 42806U 17039D   26048.38421245  .00000408  00000+0  11519-3 0  9990
2 42806  86.4526  12.1390 0002033  76.5473 283.5955 14.43281575456988
IRIDIUM 118             
1 42807U 17039E   26049.00937990  .00000146  00000+0  44972-4 0  9999
2 42807  86.3938  43.4332 0002344  88.5195 271.6270 14.34219804452864
IRIDIUM 117             
1 42808U 17039F   26049.02841110  .00000104  00000+0  30087-4 0  9996
2 42808  86.3938  43.3838 0002197  85.6542 274.4904 14.34218764452897
IRIDIUM 126             
1 42809U 17039G   26048.98401441 -.00000018  00000+0 -13594-4 0  9990
2 42809  86.3935  43.4519 0002192  82.8197 277.3248 14.34217176452868
IRIDIUM 124             
1 42810U 17039H   26048.73408769  .00000449  00000+0  12744-3 0  9996
2 42810  86.4543 340.3076 0002227  80.5356 279.6097 14.43256294457882
IRIDIUM 128             
1 42811U 17039J   26049.11428921  .00000100  00000+0  28559-4 0  9998
2 42811  86.3910  74.9407 0001951  91.5820 268.5599 14.34218252452914
IRIDIUM 121             
1 42812U 17039K   26049.07280972 -.00000012  00000+0 -11439-4 0  9999
2 42812  86.3937  43.4414 0002022  91.0556 269.0871 14.34217051452751
IRIDIUM 133             
1 42955U 17061A   26049.14600271 -.00000011  00000+0 -11152-4 0  9999
2 42955  86.3911  75.0426 0002019  90.2857 269.8570 14.34217560437714
IRIDIUM 100             
1 42956U 17061B   26049.13965919 -.00000018  00000+0 -13644-4 0  9997
2 42956  86.3909  74.9667 0002075  91.1856 268.9578 14.34217779437718
IRIDIUM 122             
1 42957U 17061C   26049.10794002  .00000066  00000+0  16488-4 0  9998
2 42957  86.3909  74.9797 0002229  89.0462 271.0989 14.34217225437710
IRIDIUM 129             
1 42958U 17061D   26049.13331884 -.00000016  00000+0 -12740-4 0  9991
2 42958  86.3911  75.0348 0002455  94.0754 266.0722 14.34217453437733
IRIDIUM 119             
1 42959U 17061E   26049.10160603  .00000029  00000+0  32274-5 0  9995
2 42959  86.3912  75.0432 0002253  89.2222 270.9232 14.34217201437743
IRIDIUM 107             
1 42960U 17061F   26049.12063303  .00000229  00000+0  74664-4 0  9998
2 42960  86.3912  75.0559 0002108  84.3344 275.8092 14.34217576437759
IRIDIUM 132             
1 42961U 17061G   26049.12697501 -.00000010  00000+0 -10528-4 0  9991
2 42961  86.3911  75.0335 0002021  89.7313 270.4114 14.34217565437754
IRIDIUM 136             
1 42962U 17061H   26049.15868885 -.00000041  00000+0 -21831-4 0  9993
2 42962  86.3912  75.0263 0002166  88.4184 271.7260 14.34217251437778
IRIDIUM 139             
1 42963U 17061J   26049.16503129  .00000040  00000+0  71450-5 0  9992
2 42963  86.3913  75.0836 0002114  90.6389 269.5049 14.34217368437781
IRIDIUM 125             
1 42964U 17061K   26049.15234637 -.00000012  00000+0 -11275-4 0  9996
2 42964  86.3914  75.1479 0002379  78.6409 281.5054 14.34217407437794
IRIDIUM 135             
1 43070U 17083A   26048.98692623  .00000262  00000+0  86403-4 0  9992
2 43070  86.3995  11.8214 0002224  87.2063 272.9387 14.34221327427065
IRIDIUM 138             
1 43071U 17083B   26048.87276884  .00000168  00000+0  52872-4 0  9996
2 43071  86.4008  11.5461 0002587  82.7801 277.3689 14.34217410427034
IRIDIUM 116             
1 43072U 17083C   26048.98059100  .00000026  00000+0  23236-5 0  9995
2 43072  86.3991  11.8112 0001855  89.7209 270.4199 14.34217952427083
IRIDIUM 130             
1 43073U 17083D   26048.39072964  .00000083  00000+0  22480-4 0  9996
2 43073  86.4001  12.3211 0001923  80.8022 279.3391 14.34218383426949
IRIDIUM 151             
1 43074U 17083E   26048.85374071 -.00000018  00000+0 -13390-4 0  9992
2 43074  86.3991  11.9199 0002089  87.6666 272.4769 14.34217369427037
IRIDIUM 134             
1 43075U 17083F   26048.40341635 -.00000016  00000+0 -12702-4 0  9998
2 43075  86.3991  12.1144 0001978  82.4980 277.6441 14.34217399426934
IRIDIUM 137             
1 43076U 17083G   26048.97424926  .00000013  00000+0 -23949-5 0  9998
2 43076  86.3993  11.9659 0001881  99.7795 260.3613 14.34217568427088
IRIDIUM 141             
1 43077U 17083H   26048.40975922  .00000009  00000+0 -38232-5 0  9990
2 43077  86.3989  12.0394 0002192  84.8416 275.3030 14.34217609427000
IRIDIUM 153             
1 43078U 17083J   26048.78054953  .00000012  00000+0 -26884-5 0  9998
2 43078  86.4016 340.3954 0002262  79.2740 280.8710 14.34217599428160
IRIDIUM 131             
1 43079U 17083K   26048.39707461  .00000010  00000+0 -34566-5 0  9999
2 43079  86.3997  12.2225 0002326  86.4398 273.7063 14.34217999426933
IRIDIUM 144             
1 43249U 18030A   26048.78689124  .00000014  00000+0 -19325-5 0  9999
2 43249  86.4020 340.3246 0002008  84.8748 275.2677 14.34217655413029
IRIDIUM 149             
1 43250U 18030B   26048.79323322  .00000319  00000+0  10701-3 0  9991
2 43250  86.4018 340.2903 0002248  82.5840 277.5611 14.34218228413043
IRIDIUM 157             
1 43251U 18030C   26048.95179881  .00000041  00000+0  75111-5 0  9999
2 43251  86.4022 340.2746 0002183  86.1911 273.9534 14.34217834413047
IRIDIUM 140             
1 43252U 18030D   26048.76152046 -.00000012  00000+0 -11271-4 0  9999
2 43252  86.4019 340.3677 0001980  81.3569 278.7851 14.34217555413076
IRIDIUM 145             
1 43253U 18030E   26048.74882557  .00000287  00000+0  95477-4 0  9997
2 43253  86.4018 340.3446 0001833  86.1010 274.0395 14.34221417413008
IRIDIUM 146             
1 43254U 18030F   26048.72980672  .00000004  00000+0 -54686-5 0  9999
2 43254  86.4014 340.3656 0001902  85.7020 274.4393 14.34217820413017
IRIDIUM 148             
1 43255U 18030G   26048.76786002  .00000223  00000+0  72475-4 0  9992
2 43255  86.4021 340.3904 0002159  85.2161 274.9281 14.34216308413053
IRIDIUM 142             
1 43256U 18030H   26048.73615011  .00000036  00000+0  57607-5 0  9994
2 43256  86.4017 340.2974 0001825  84.6947 275.4457 14.34217779413019
IRIDIUM 150             
1 43257U 18030J   26048.77420609  .00000034  00000+0  52073-5 0  9996
2 43257  86.4020 340.3939 0002086  83.3043 276.8390 14.34217402413046
IRIDIUM 143             
1 43258U 18030K   26048.75517798  .00000043  00000+0  83022-5 0  9999
2 43258  86.4023 340.4896 0001960  84.7850 275.3569 14.34217750412973
IRIDIUM 161             
1 43478U 18047C   26049.19727271  .00000363  00000+0  10182-3 0  9999
2 43478  86.4533 138.2233 0002485  98.4247 261.7235 14.43282820407979
IRIDIUM 152             
1 43479U 18047D   26049.14650823  .00000039  00000+0  68022-5 0  9991
2 43479  86.4008 138.1050 0002313  95.0208 265.1252 14.34217743405420
IRIDIUM 147             
1 43480U 18047E   26049.15285031  .00000050  00000+0  10648-4 0  9992
2 43480  86.4007 138.1052 0002073  99.1869 260.9562 14.34217772405423
IRIDIUM 110             
1 43481U 18047F   26049.15919404  .00000067  00000+0  16800-4 0  9995
2 43481  86.4010 138.1914 0002627  97.8496 262.2998 14.34217965405412
IRIDIUM 162             
1 43482U 18047G   26049.19096380  .00000360  00000+0  10101-3 0  9992
2 43482  86.4532 138.1185 0002181  90.8861 269.2590 14.43283797407969
IRIDIUM 160             
1 43569U 18061A   26049.10502961  .00000052  00000+0  11406-4 0  9990
2 43569  86.3947 106.6103 0002413  99.2754 260.8715 14.34217198396309
IRIDIUM 166             
1 43570U 18061B   26049.13039898  .00000056  00000+0  12862-4 0  9990
2 43570  86.3946 106.5514 0002117  97.0013 263.1423 14.34217765396335
IRIDIUM 158             
1 43571U 18061C   26049.16845330  .00000237  00000+0  77510-4 0  9992
2 43571  86.3940 106.5449 0002272  94.6104 265.5351 14.34216675396305
IRIDIUM 165             
1 43572U 18061D   26049.12405595  .00000229  00000+0  74867-4 0  9997
2 43572  86.3947 106.6082 0002082  98.7829 261.3603 14.34218647396322
IRIDIUM 155             
1 43573U 18061E   26049.15576935  .00000086  00000+0  23794-4 0  9992
2 43573  86.3942 106.4700 0002105  91.9297 268.2140 14.34217769396295
IRIDIUM 154             
1 43574U 18061F   26049.13675858  .00000260  00000+0  85937-4 0  9996
2 43574  86.3947 106.6057 0002035  98.0223 262.1204 14.34215112396347
IRIDIUM 163             
1 43575U 18061G   26049.11771385  .00000091  00000+0  25559-4 0  9993
2 43575  86.3944 106.5330 0002289  94.6341 265.5116 14.34217990396314
IRIDIUM 156             
1 43576U 18061H   26049.16211153  .00000005  00000+0 -51119-5 0  9999
2 43576  86.3946 106.5210 0001958  92.7297 267.4123 14.34217649396315
IRIDIUM 164             
1 43577U 18061J   26049.14308389  .00000017  00000+0 -11579-5 0  9995
2 43577  86.3946 106.5674 0002060 101.5581 258.5846 14.34217717396353
IRIDIUM 159             
1 43578U 18061K   26049.18115330  .00000257  00000+0  84803-4 0  9996
2 43578  86.3945 106.4911 0002352  96.9600 263.1863 14.34219699396328
IRIDIUM 180             
1 43922U 19002A   26048.48294664  .00000060  00000+0  14357-4 0  9994
2 43922  86.3936  43.6160 0002350  89.2405 270.9060 14.34217166371836
IRIDIUM 176             
1 43923U 19002B   26049.01158448  .00000403  00000+0  60034-4 0  9998
2 43923  86.6060  43.3550 0002433  87.4096 272.7400 14.72261273381712
IRIDIUM 168             
1 43924U 19002C   26048.47660778 -.00000002  00000+0 -77665-5 0  9998
2 43924  86.3937  43.6930 0002134  87.7615 272.3825 14.34217541371810
IRIDIUM 173             
1 43925U 19002D   26049.02206976  .00000070  00000+0  17803-4 0  9997
2 43925  86.3935  43.3582 0002250  85.1635 274.9818 14.34218076371872
IRIDIUM 169             
1 43926U 19002E   26049.10320288  .00000202  00000+0  59561-4 0  9994
2 43926  86.4166  74.9875 0002177  69.3487 290.7945 14.38611115373102
IRIDIUM 172             
1 43927U 19002F   26049.01572571  .00000089  00000+0  24843-4 0  9997
2 43927  86.3936  43.3685 0002359  90.7220 269.4246 14.34218770371887
IRIDIUM 175             
1 43928U 19002G   26048.80307367  .00001012  00000+0  15649-3 0  9993
2 43928  86.1549 342.0895 0001488 104.2677 255.8705 14.72254598381674
IRIDIUM 171             
1 43929U 19002H   26049.06646405  .00000057  00000+0  13129-4 0  9992
2 43929  86.3945  43.6405 0001982  87.0543 273.0879 14.34218477371887
IRIDIUM 170             
1 43930U 19002J   26049.01779208  .00000403  00000+0  59954-4 0  9998
2 43930  86.6058  43.3557 0002451  91.9773 268.1724 14.72259206381728
IRIDIUM 167             
1 43931U 19002K   26049.06012877  .00000145  00000+0  44767-4 0  9995
2 43931  86.3937  43.3711 0001879  83.5363 276.6046 14.34217338371884
IRIDIUM 181             
1 56726U 23068S   26049.13721365  .00000324  00000+0  90280-4 0  9995
2 56726  86.4482 106.5781 0002388 104.9641 255.1824 14.43313101145260
IRIDIUM 177             
1 56727U 23068T   26049.00573812  .00001402  00000+0  18094-3 0  9994
2 56727  86.1967  25.3662 0002526  87.0595 273.0914 14.80234367148736
IRIDIUM 174             
1 56728U 23068U   26049.00541109  .00000441  00000+0  66051-4 0  9998
2 56728  86.6067  43.4963 0002589  89.4804 270.6709 14.72260106148484
IRIDIUM 178             
1 56729U 23068V   26049.13005207  .00000485  00000+0  60332-4 0  9991
2 56729  86.6483  75.1251 0001980  97.5038 262.6409 14.80228101148758
IRIDIUM 179             
1 56730U 23068W   26049.12467162  .00001095  00000+0  14068-3 0  9996
2 56730  86.6727  83.7602 0002306  91.9703 268.1783 14.80238854148758
