ORBCOMM FM06            
1 25118U 97084G   26248.14598269  .00000608  00000+0  20228-3 0  9991
2 25118  45.0146  27.7326 0001119 213.3371 317.0700 14.47727064505974
ORBCOMM FM04            
1 25159U 98007C   26248.16811710  .00000396  00000+0  18072-3 0  9991
2 25159 107.9604 334.0349 0041099 188.9146 171.1268 14.35849962488071
ORBCOMM FM19            
1 25415U 98046C   26248.32402163  .00000477  00000+0  19637-3 0  9993
2 25415  44.9926 222.6006 0005258 330.7375 184.7162 14.39620342468325
ORBCOMM FM20            
1 25416U 98046D   26247.97067418  .00000295  00000+0  14271-3 0  9991
2 25416  44.9926 233.0926 0002863 303.8771  56.1804 14.38159052468276
ORBCOMM FM27            
1 25481U 98053G   26248.22350537  .00000389  00000+0  16997-3 0  9998
2 25481  45.0060 315.1682 0002772 249.6250 110.4301 14.39263193461764
ORBCOMM FM32            
1 25982U 99065C   26248.09172158  .00000325  00000+0  15538-3 0  9994
2 25982  45.0149 154.9907 0005566  81.8526 278.2954 14.37227402398580
ORBCOMM FM109           
1 40086U 14040A   26247.54202399  .00000143  00000+0  66393-4 0  9990
2 40086  47.0028  76.2833 0001840 232.5651 127.5068 14.58908947645938
ORBCOMM FM110           
1 41182U 15081D   26248.29798730  .00000225  00000+0  83578-4 0  9991
2 41182  47.0034 342.6237 0001916  93.9276 266.1829 14.58978514569327
ORBCOMM FM118           
1 41183U 15081E   26248.26452671  .00000227  00000+0  84138-4 0  9995
2 41183  47.0056 343.1370 0002039  29.0414 331.0585 14.58961647569428
ORBCOMM FM112           
1 41184U 15081F   26248.06229346  .00000160  00000+0  69991-4 0  9991
2 41184  46.9978 252.5145 0003482 231.9944 128.0628 14.58946435570611
ORBCOMM FM113           
1 41185U 15081G   26248.04171635  .00000117  00000+0  60924-4 0  9996
2 41185  46.9994 253.0305 0002296 239.6526 120.4133 14.58923369570592
ORBCOMM FM108           
1 41187U 15081J   26248.13938487  .00000244  00000+0  87649-4 0  9998
2 41187  47.0044 164.1544 0002302 223.7078 136.3626 14.58967969571759
ORBCOMM FM117           
1 41188U 15081K   26248.10563325  .00000219  00000+0  82512-4 0  9997
2 41188  47.0009 162.9300 0002824 228.1703 131.8942 14.58950311571798
ORBCOMM FM116           
1 41189U 15081L   26248.01755472  .00000132  00000+0  64043-4 0  9997
2 41189  47.0012 253.1440 0000659  15.5511 344.5395 14.58950255570599
