QIANFAN-1               
1 60379U 24140A   26097.23195504  .00000043  00000+0  48510-4 0  9997
2 60379  88.9677 287.3129 0015912 238.2225 121.7377 13.51002393 82944
QIANFAN-2               
1 60380U 24140B   26097.26060790  .00000054  00000+0  65166-4 0  9998
2 60380  88.9664 287.1331 0011872 206.1606 153.8947 13.51006586 83008
QIANFAN-3               
1 60381U 24140C   26097.19478979  .00000048  00000+0  55826-4 0  9998
2 60381  88.9657 287.2640 0012656 220.6083 139.4125 13.51002701 82907
QIANFAN-4               
1 60382U 24140D   26097.24426157  .00000066  00000+0  83217-4 0  9991
2 60382  88.9681 287.1856 0012021 209.1642 150.8839 13.51003818 83036
QIANFAN-5               
1 60383U 24140E   26097.21954646  .00000053  00000+0  63207-4 0  9991
2 60383  88.9656 287.2866 0013677 233.3798 126.6096 13.51004619 82899
QIANFAN-6               
1 60384U 24140F   26097.24013789  .00000044  00000+0  49476-4 0  9991
2 60384  88.9683 287.0617 0011968 215.6758 144.3594 13.51004757 83098
QIANFAN-7               
1 60385U 24140G   26097.24602829  .00000205  00000+0  76893-4 0  9993
2 60385  88.9710 280.1349 0015847  28.7555 331.4510 14.27786444 86874
QIANFAN-8               
1 60386U 24140H   26097.24831678  .00000056  00000+0  67776-4 0  9994
2 60386  88.9684 287.3001 0015357 219.4672 140.5361 13.51006358 82946
QIANFAN-9               
1 60387U 24140J   26097.22375343  .00000054  00000+0  65670-4 0  9994
2 60387  88.9682 287.3758 0015063 219.1673 140.8389 13.51000836 82922
QIANFAN-10              
1 60388U 24140K   26097.22780455  .00000051  00000+0  60861-4 0  9993
2 60388  88.9692 286.7336 0014164 194.6034 165.4710 13.50999641 83054
QIANFAN-11              
1 60389U 24140L   26097.26479404  .00000049  00000+0  57102-4 0  9998
2 60389  88.9618 287.2308 0013101 217.9993 142.0235 13.51006480 82717
QIANFAN-12              
1 60390U 24140M   26097.21135906  .00000049  00000+0  58010-4 0  9990
2 60390  88.9661 287.3302 0011739 226.6511 133.3663 13.51004019 82837
QIANFAN-13              
1 60391U 24140N   26097.18251976  .00000047  00000+0  54493-4 0  9992
2 60391  88.9674 287.4472 0011504 229.6603 130.3544 13.51004277 82859
QIANFAN-14              
1 60392U 24140P   26097.20713356  .00000047  00000+0  54632-4 0  9996
2 60392  88.9652 287.3177 0015182 230.7495 129.2309 13.51004620 82864
QIANFAN-15              
1 60393U 24140Q   26097.21550045  .00000039  00000+0  42343-4 0  9999
2 60393  88.9676 287.3007 0011307 213.9565 146.0863 13.51007691 82851
QIANFAN-16              
1 60394U 24140R   26097.20308631  .00000042  00000+0  46128-4 0  9990
2 60394  88.9679 287.4257 0013046 234.4965 125.4969 13.51001202 82767
QIANFAN-17              
1 60395U 24140S   26097.19892835  .00000041  00000+0  44540-4 0  9998
2 60395  88.9690 287.4846 0013571 227.6114 132.3889 13.51007514 83725
QIANFAN-18              
1 60396U 24140T   26097.25248542  .00000050  00000+0  58998-4 0  9998
2 60396  88.9683 287.0041 0013334 208.3362 151.7066 13.51006601 83121
QIANFAN-19              
1 61552U 24185A   26097.25787579  .00000594  00000+0  30305-3 0  9994
2 61552  88.9803  64.6752 0004906 308.1563  51.9182 14.14422345 85999
QIANFAN-20              
1 61553U 24185B   26097.16899610  .00000554  00000+0  31235-3 0  9994
2 61553  88.9799  65.1252 0005457   2.1747 357.9460 14.08968767 85749
QIANFAN-21              
1 61554U 24185C   26097.16871420  .00000806  00000+0  35322-3 0  9995
2 61554  88.9722  63.4309 0010630   1.3391 358.7827 14.22777033 86382
QIANFAN-22              
1 61555U 24185D   26097.20141351  .00000236  00000+0  19223-3 0  9993
2 61555  88.9782  66.5693 0007203  22.2081 337.9401 13.86358156 84935
QIANFAN-23              
1 61556U 24185E   26097.21145611  .00000730  00000+0  36041-3 0  9994
2 61556  88.9795  64.4361 0005914 320.2910  39.7845 14.16436883 86094
QIANFAN-24              
1 61557U 24185F   26097.21447717  .00000724  00000+0  30925-3 0  9995
2 61557  88.9779  63.6524 0006645 288.9587  71.0885 14.23987415 86454
QIANFAN-25              
1 61558U 24185G   26097.23166377  .00000489  00000+0  29004-3 0  9992
2 61558  88.9790  65.0910 0009430 339.7253  20.3553 14.06026449 85734
QIANFAN-26              
1 61559U 24185H   26097.21645048  .00000325  00000+0  31146-3 0  9997
2 61559  88.9787  67.2602 0007126  39.1346 321.0334 13.77880324 84573
QIANFAN-27              
1 61560U 24185J   26097.20612482  .00000757  00000+0  30271-3 0  9991
2 61560  88.9791  63.3795 0005065 273.2970  86.7644 14.27482308 86638
QIANFAN-28              
1 61561U 24185K   26097.19776442  .00001040  00000+0  41142-3 0  9992
2 61561  88.9809  63.3886 0004639 272.2539  87.8124 14.28283652 86655
QIANFAN-29              
1 61562U 24185L   26097.20078131  .00000211  00000+0  30822-3 0  9997
2 61562  88.9757  69.3514 0011902  78.3444 281.9042 13.51057879 83381
QIANFAN-30              
1 61563U 24185M   26097.18905253  .00000207  00000+0  30651-3 0  9994
2 61563  88.9777  68.9223 0009639  67.3305 292.8864 13.50030605 83643
QIANFAN-31              
1 61564U 24185N   26097.21620939  .00000237  00000+0  31168-3 0  9991
2 61564  88.9763  68.5380 0008993  60.1101 300.0947 13.58017363 83835
QIANFAN-32              
1 61565U 24185P   26097.16785761  .00000127  00000+0  17787-3 0  9990
2 61565  88.9821  69.0941 0011833  89.3771 270.8736 13.50773239 83623
QIANFAN-33              
1 61566U 24185Q   26097.18420253  .00000480  00000+0  33711-3 0  9992
2 61566  88.9780  65.9090 0006380 345.3835  14.7156 13.96652524 85272
QIANFAN-34              
1 61567U 24185R   26097.17539089  .00000514  00000+0  32589-3 0  9990
2 61567  88.9757  65.3208 0004862 355.2718   4.8416 14.02414345 85538
QIANFAN-35              
1 61568U 24185S   26097.17140725  .00000916  00000+0  36220-3 0  9998
2 61568  88.9790  63.3014 0003888 268.0504  92.0245 14.28181346 86653
QIANFAN-36              
1 61569U 24185T   26097.18332787  .00000136  00000+0  17814-3 0  9993
2 61569  88.9755  68.9912 0008266  71.9758 288.2296 13.55619865 83563
QIANFAN-37              
1 62238U 24232B   26097.23547264  .00000167  00000+0  24066-3 0  9995
2 62238  89.0103  29.6877 0002682  85.9703 274.1755 13.51012246114768
QIANFAN-38              
1 62239U 24232C   26097.26014501  .00000181  00000+0  26112-3 0  9992
2 62239  89.0109  29.6089 0012783 216.1439 143.8849 13.51010758114826
QIANFAN-39              
1 62240U 24232D   26097.25248577  .00000663  00000+0  27425-3 0  9998
2 62240  89.0100  24.1214 0018505  62.9986 297.3094 14.25473936117846
QIANFAN-40              
1 62241U 24232E   26097.14494205  .00000195  00000+0  28310-3 0  9992
2 62241  89.0137  29.2374 0011637 225.3280 134.6924 13.51010320115172
QIANFAN-41              
1 62242U 24232F   26097.15318598  .00000184  00000+0  26655-3 0  9992
2 62242  89.0107  29.5691 0012301 211.7501 148.2909 13.51011721114831
QIANFAN-42              
1 62243U 24232G   26097.25375307  .00000635  00000+0  26716-3 0  9994
2 62243  89.0098  24.1856 0017417  68.6679 291.6371 14.24565534117817
QIANFAN-43              
1 62244U 24232H   26097.14902647  .00000180  00000+0  26077-3 0  9991
2 62244  89.0112  29.6398 0013688 218.3158 141.7022 13.51011591 83445
QIANFAN-44              
1 62245U 24232J   26097.13674331  .00000180  00000+0  26031-3 0  9997
2 62245  89.0111  29.4501 0011987 214.2879 145.7500 13.51009498114919
QIANFAN-45              
1 62246U 24232K   26097.25189634  .00000182  00000+0  26393-3 0  9991
2 62246  89.0114  29.5891 0012666 213.8045 146.2300 13.51013348114857
QIANFAN-46              
1 62247U 24232L   26097.20254357  .00000169  00000+0  24265-3 0  9993
2 62247  89.0110  29.6582 0012588 220.2347 139.7874 13.51010081114801
QIANFAN-47              
1 62248U 24232M   26097.13259685  .00000179  00000+0  25800-3 0  9992
2 62248  89.0106  29.5936 0013035 219.6566 140.3633 13.51009902114825
QIANFAN-48              
1 62249U 24232N   26097.24369410  .00000194  00000+0  28198-3 0  9993
2 62249  89.0109  29.5888 0015215 222.9835 137.0128 13.51010126114847
QIANFAN-49              
1 62250U 24232P   26097.23137751  .00000181  00000+0  26233-3 0  9999
2 62250  89.0109  29.6017 0012418 215.8927 144.1391 13.51009424 83439
QIANFAN-50              
1 62251U 24232Q   26097.25602767  .00000172  00000+0  24751-3 0  9999
2 62251  89.0114  29.6136 0014037 218.0011 142.0151 13.51010424 83462
QIANFAN-51              
1 62252U 24232R   26097.23958297  .00000193  00000+0  27978-3 0  9997
2 62252  89.0108  29.6021 0011471 221.2194 138.8092 13.51010953 83459
QIANFAN-52              
1 62253U 24232S   26097.26848117  .00000186  00000+0  26929-3 0  9997
2 62253  89.0105  29.4684 0013649 213.2034 146.8262 13.51007413 83548
QIANFAN-53              
1 62254U 24232T   26097.24780844  .00000176  00000+0  25324-3 0  9995
2 62254  89.0112  29.5836 0012500 214.0202 146.0149 13.51010228 83508
QIANFAN-54              
1 62255U 24232U   26097.21492840  .00000179  00000+0  25939-3 0  9994
2 62255  89.0103  29.2554 0000273   5.5681 354.5473 13.51009924115009
QIANFAN-55              
1 62785U 25016A   26097.24106735  .00000039  00000+0  40970-4 0  9999
2 62785  88.9685  91.2382 0018118  21.6002 338.5910 13.51007257 62782
QIANFAN-56              
1 62786U 25016B   26097.25750035  .00000025  00000+0  20511-4 0  9993
2 62786  88.9659  91.0417 0016851  24.3398 335.8546 13.50999675 62835
QIANFAN-57              
1 62787U 25016C   26097.21637129  .00000028  00000+0  24812-4 0  9999
2 62787  88.9690  91.2356 0002365 107.2985 252.8425 13.51006666 62792
QIANFAN-58              
1 62788U 25016D   26097.26159420  .00000028  00000+0  24177-4 0  9992
2 62788  88.9660  91.0269 0014507  18.1966 341.9701 13.51000387 62848
QIANFAN-59              
1 62789U 25016E   26097.21218595  .00000029  00000+0  25707-4 0  9998
2 62789  88.9683  91.1332 0015007  21.7032 338.4752 13.51008676 62831
QIANFAN-60              
1 62790U 25016F   26097.24505253  .00000017  00000+0  72790-5 0  9995
2 62790  88.9665  91.0792 0016421  17.4725 342.6988 13.51010683 62822
QIANFAN-61              
1 62791U 25016G   26097.27804361  .00000027  00000+0  22716-4 0  9994
2 62791  88.9731  91.3173 0015327  17.3218 342.8453 13.51007158 62847
QIANFAN-62              
1 62792U 25016H   26097.28222740  .00000026  00000+0  21518-4 0  9999
2 62792  88.9678  91.1229 0016707  16.9884 343.1823 13.51005635 62837
QIANFAN-63              
1 62793U 25016J   26097.23279055  .00000050  00000+0  59126-4 0  9999
2 62793  88.9685  91.0873 0016962  22.2146 337.9736 13.51008076 62863
QIANFAN-64              
1 62794U 25016K   26097.27393025  .00000025  00000+0  19369-4 0  9995
2 62794  88.9671  91.0415 0014650  16.3954 343.7668 13.51006835 62864
QIANFAN-65              
1 62795U 25016L   26097.26968608  .00000048  00000+0  55488-4 0  9997
2 62795  88.9668  91.0638 0014576  18.1440 342.0228 13.51003755 62845
QIANFAN-66              
1 62796U 25016M   26097.22461208  .00000027  00000+0  22798-4 0  9993
2 62796  88.9687  91.0614 0015494  13.5151 346.6412 13.51008123 62882
QIANFAN-67              
1 62797U 25016N   26097.22874157  .00000057  00000+0  69780-4 0  9990
2 62797  88.9678  91.0753 0015719  20.0990 340.0777 13.51008354 62856
QIANFAN-68              
1 62798U 25016P   26097.22044128  .00000027  00000+0  23475-4 0  9996
2 62798  88.9681  91.1255 0015711  18.4297 341.7421 13.51006819 62838
QIANFAN-69              
1 62799U 25016Q   26097.16283623  .00000042  00000+0  46942-4 0  9996
2 62799  88.9660  90.9761 0016509  19.1582 341.0186 13.51007100 62864
QIANFAN-70              
1 62800U 25016R   26097.25337627  .00000022  00000+0  15914-4 0  9996
2 62800  88.9681  91.1293 0015734   9.8904 350.2554 13.51008514 62834
QIANFAN-71              
1 62801U 25016S   26097.17524327  .00000036  00000+0  36401-4 0  9992
2 62801  88.9675  91.1101 0016537  22.5423 337.6451 13.51008345 62822
QIANFAN-72              
1 62802U 25016T   26097.26577723  .00000038  00000+0  39614-4 0  9992
2 62802  88.9665  91.1028 0020031  27.9235 332.2987 13.51007095 62820
QIANFAN-73              
1 63159U 25046A   26097.21861578  .00000059  00000+0  72076-4 0  9992
2 63159  88.9701 308.0805 0015829 144.0440 216.1780 13.50998973 63003
QIANFAN-74              
1 63160U 25046B   26097.20212454  .00000092  00000+0  12434-3 0  9994
2 63160  88.9701 307.9711 0001977  81.0695 279.0680 13.51005746 63061
QIANFAN-75              
1 63161U 25046C   26097.18995039  .00000018  00000+0  82326-5 0  9996
2 63161  88.9703 308.2080 0016884 147.4367 212.7829 13.51012508 62931
QIANFAN-76              
1 63162U 25046D   26096.96343760  .00000166  00000+0  23863-3 0  9993
2 63162  88.9703 308.2112 0014383 147.6029 212.6008 13.51004871 62917
QIANFAN-77              
1 63163U 25046E   26097.21812161  .00000106  00000+0  67132-4 0  9991
2 63163  88.9701 305.2405 0016934  81.1645 279.1448 13.96185987 64564
QIANFAN-78              
1 63164U 25046F   26097.22677125  .00000170  00000+0  24467-3 0  9996
2 63164  88.9702 308.0466 0015679 149.7690 210.4370 13.51009325 63024
QIANFAN-79              
1 63165U 25046G   26097.18153700  .00000069  00000+0  88559-4 0  9990
2 63165  88.9705 308.1634 0015563 148.0433 212.1666 13.51000473 62969
QIANFAN-80              
1 63166U 25046H   26097.19799975  .00000027  00000+0  22910-4 0  9995
2 63166  88.9702 307.8653 0014298 151.7172 208.4758 13.51003230 63122
QIANFAN-81              
1 63167U 25046J   26097.25089837  .00000015  00000+0  46828-5 0  9994
2 63167  88.9702 307.9276 0015615 142.1241 218.1012 13.50967365 63083
QIANFAN-82              
1 63168U 25046K   26097.21034758  .00000041  00000+0  44573-4 0  9996
2 63168  88.9702 307.9759 0013548 147.6216 212.5770 13.51004976 63063
QIANFAN-83              
1 63169U 25046L   26097.18631388  .00000080  00000+0  88008-4 0  9999
2 63169  88.9703 307.5275 0015482 128.6084 231.6463 13.62030031 63317
QIANFAN-84              
1 63170U 25046M   26097.24097550  .00000151  00000+0  21508-3 0  9995
2 63170  88.9702 308.1057 0016696 145.5080 214.7158 13.51017482 62994
QIANFAN-85              
1 63171U 25046N   26097.23507910  .00000013  00000+0  83950-6 0  9990
2 63171  88.9701 307.9770 0014028 146.6443 213.5595 13.50994441 63064
QIANFAN-86              
1 63172U 25046P   26097.24325607  .00000031  00000+0  29263-4 0  9998
2 63172  88.9704 307.8409 0011744 149.2806 210.9035 13.50998698 63147
QIANFAN-87              
1 63173U 25046Q   26097.14037130  .00000065  00000+0  81580-4 0  9996
2 63173  88.9701 307.9587 0012533 145.5855 214.6110 13.51002757 63062
QIANFAN-88              
1 63174U 25046R   26097.23088620  .00000038  00000+0  40263-4 0  9990
2 63174  88.9703 307.9068 0012689 153.3572 206.8234 13.51003407 63102
QIANFAN-89              
1 63175U 25046S   26097.19389087  .00000019  00000+0  10360-4 0  9991
2 63175  88.9703 308.0999 0017457 146.2430 213.9836 13.50999602 62993
QIANFAN-90              
1 63176U 25046T   26097.22268631  .00000101  00000+0  13674-3 0  9999
2 63176  88.9703 308.0693 0014472 143.9155 216.2976 13.51001161 63017
QIANFAN-91              
1 66033U 25233A   26097.18117913  .00000119  00000+0  16575-3 0  9995
2 66033  88.9987  50.3576 0002459  83.0360 277.1071 13.51008842 23591
QIANFAN-92              
1 66034U 25233B   26097.18931879  .00000110  00000+0  15190-3 0  9994
2 66034  88.9971  50.3402 0002229  82.8396 277.3008 13.51009712 23593
QIANFAN-93              
1 66035U 25233C   26097.19756875  .00000143  00000+0  20235-3 0  9999
2 66035  88.9998  50.3720 0002405  83.6003 276.5422 13.51009356 23591
QIANFAN-94              
1 66036U 25233D   26097.18529784  .00000112  00000+0  15422-3 0  9994
2 66036  88.9995  50.2790 0002304  79.9896 280.1515 13.51008783 23644
QIANFAN-95              
1 66037U 25233E   26097.19332261 -.00000195  00000+0 -32035-3 0  9990
2 66037  88.9991  49.8240 0002433  79.4340 280.7085 13.51002923 23892
QIANFAN-96              
1 66038U 25233F   26097.21819484  .00000108  00000+0  14888-3 0  9999
2 66038  88.9990  50.3661 0002516  83.3137 276.8301 13.51008827 23599
QIANFAN-97              
1 66039U 25233G   26097.20173841  .00000131  00000+0  18473-3 0  9999
2 66039  88.9993  50.3495 0002438  83.3446 276.7982 13.51008205 23600
QIANFAN-98              
1 66040U 25233H   26097.20989495  .00000120  00000+0  16681-3 0  9998
2 66040  88.9983  50.0874 0002244  69.7337 290.4055 13.51009054 23743
QIANFAN-99              
1 66041U 25233J   26097.21405716  .00000110  00000+0  15172-3 0  9992
2 66041  88.9994  50.3519 0002376  73.4201 286.7211 13.51008894 23601
QIANFAN-100             
1 66042U 25233K   26097.20577837  .00000128  00000+0  17976-3 0  9999
2 66042  89.0005  50.2718 0002407  83.8569 276.2857 13.51009965 23659
QIANFAN-101             
1 66043U 25233L   26097.18001040  .00000397  00000+0  15801-3 0  9998
2 66043  88.9993  48.7054 0015996  25.1059 335.0909 14.26770727 24500
QIANFAN-102             
1 66044U 25233M   26097.22643709  .00000127  00000+0  17748-3 0  9991
2 66044  88.9991  50.2620 0002329  78.8952 281.2461 13.51008414 23653
QIANFAN-103             
1 66045U 25233N   26097.23051661  .00000119  00000+0  16579-3 0  9995
2 66045  88.9994  50.3547 0002416  83.8837 276.2589 13.51010388 23604
QIANFAN-104             
1 66046U 25233P   26097.16042440  .00000123  00000+0  17270-3 0  9997
2 66046  88.9999  50.2608 0002233  79.0671 281.0731 13.51003906 23642
QIANFAN-105             
1 66047U 25233Q   26097.16879709  .00000106  00000+0  14514-3 0  9993
2 66047  89.0012  50.0936 0002459  80.5606 279.5823 13.51011243 23757
QIANFAN-106             
1 66048U 25233R   26097.16465739  .00000107  00000+0  14766-3 0  9998
2 66048  88.9981  50.3291 0002266  71.8700 288.2698 13.51009348 23606
QIANFAN-107             
1 66049U 25233S   26097.17296578  .00000100  00000+0  13705-3 0  9998
2 66049  88.9996  50.3495 0002380  83.3779 276.7643 13.51007363 23607
QIANFAN-108             
1 66050U 25233T   26097.17703421  .00000117  00000+0  16256-3 0  9992
2 66050  88.9989  50.3419 0002238  72.9200 287.2196 13.51008819 23609
