EUTELSAT 139 WEST A     
1 28187U 04008A   26085.76363495  .00000102  00000+0  00000+0 0  9993
2 28187   5.6199  72.9767 0003060  26.3536   7.4762  1.00832112 80530
EUTELSAT 174A           
1 28924U 05052A   26085.86784409 -.00000006  00000+0  00000+0 0  9999
2 28924   4.0110  77.5250 0006299 288.1484 305.0258  1.00272047 51507
EUTELSAT 33F            
1 29270U 06032A   26085.83993729  .00000139  00000+0  00000+0 0  9993
2 29270   1.4491  83.1445 0003447 280.5831 156.0041  1.00272890 46489
EUTELSAT HOTBIRD 13C    
1 33459U 08065A   26085.89471087 -.00000298  00000+0  00000+0 0  9996
2 33459   2.7393  80.1444 0003890 290.7657  85.2267  1.00270898 46529
EUTELSAT 36B            
1 36101U 09065A   26085.91467057  .00000095  00000+0  00000+0 0  9993
2 36101   0.2841  78.5741 0005876 284.6853 200.8687  1.00270004 59887
EUTELSAT KA-SAT 9A      
1 37258U 10069A   26085.90649757  .00000045  00000+0  00000+0 0  9996
2 37258   0.0577 357.2226 0003190 148.1804  14.2952  1.00276192 43189
EUTELSAT 7 WEST A       
1 37816U 11051A   26085.90329089 -.00000078  00000+0  00000+0 0  9998
2 37816   0.0670  13.4308 0000841 140.8218 347.9221  1.00271259 53054
EUTELSAT 16A            
1 37836U 11057A   26085.90788425  .00000085  00000+0  00000+0 0  9996
2 37836   0.0558   0.1694 0005750  18.4870 148.5181  1.00255361  6515
EUTELSAT 21B            
1 38992U 12062B   26085.83768396  .00000113  00000+0  00000+0 0  9996
2 38992   0.0695 352.2576 0002873  11.4990 143.6891  1.00267065 49009
EUTELSAT 70B            
1 39020U 12069A   26085.91865726 -.00000060  00000+0  00000+0 0  9992
2 39020   0.0651   4.0706 0001819   2.0481 219.4350  1.00272008 48689
EUTELSAT 117 WEST A     
1 39122U 13012A   26085.66760550 -.00000029  00000+0  00000+0 0  9990
2 39122   0.0347  41.2189 0002874 322.2487 304.1580  1.00271341 47604
EUTELSAT 7B             
1 39163U 13022A   26085.90606424  .00000030  00000+0  00000+0 0  9993
2 39163   0.0678   1.0661 0006247 359.7934 156.6479  1.00270236 47121
EXPRESS-AT1             
1 39612U 14010A   26085.91588391  .00000059  00000+0  00000+0 0  9994
2 39612   0.0486  83.2777 0000326 359.1818 127.8733  1.00278473 43999
EXPRESS-AT2             
1 39613U 14010B   26070.51237429 -.00000280  00000+0  00000+0 0  9995
2 39613   0.0166 193.7113 0001308  80.7943 218.9521  1.00271550 43528
EUTELSAT 3B             
1 39773U 14030A   26085.90528424  .00000003  00000+0  00000+0 0  9993
2 39773   0.0631   4.8708 0000161 357.5244 150.9227  1.00271846 43244
EUTELSAT 115 WEST B     
1 40425U 15010B   26085.66803884 -.00000042  00000+0  00000+0 0  9991
2 40425   0.0171  32.8549 0000374  41.0373 235.8110  1.00273839 40567
EUTELSAT 8 WEST B       
1 40875U 15039B   26085.90311756 -.00000083  00000+0  00000+0 0  9995
2 40875   0.0682 352.0472 0003829  16.1494 133.2631  1.00271870 38839
EUTELSAT 9B             
1 41310U 16005A   26085.90649757  .00000044  00000+0  00000+0 0  9995
2 41310   0.0559  64.5552 0004197 271.9613 183.1367  1.00271931 37291
EUTELSAT 65 WEST A      
1 41382U 16014A   26085.89176419 -.00000293  00000+0  00000+0 0  9999
2 41382   0.0781 310.5679 0002237  45.8392  83.7291  1.00270232 36705
EUTELSAT 117 WEST B     
1 41589U 16038B   26085.66760550 -.00000028  00000+0  00000+0 0  9990
2 41589   0.0185  33.0254 0000553  67.1677 207.2583  1.00273069 35831
EUTELSAT 172B           
1 42741U 17029B   26085.84419972 -.00000023  00000+0  00000+0 0  9996
2 42741   0.0174 167.2087 0000248 102.5321  30.4343  1.00269549 32919
EUTELSAT 7C             
1 44334U 19034B   26085.90606424  .00000031  00000+0  00000+0 0  9999
2 44334   0.0653 180.5168 0003456 166.1378 170.8786  1.00272095  6013
EUTELSAT 5 WEST B       
1 44624U 19067A   26085.90372423 -.00000060  00000+0  00000+0 0  9999
2 44624   0.0667 350.3956 0003229  17.4066 136.8636  1.00270965 23617
EUTELSAT KONNECT        
1 45027U 20005B   26085.90615090  .00000033  00000+0  00000+0 0  9990
2 45027   0.0659  97.0084 0001965 214.9420 205.8187  1.00274555 23512
EUTELSAT QUANTUM        
1 49056U 21069B   26085.84279730  .00000109  00000+0  00000+0 0  9991
2 49056   0.0364  47.8928 0002313 312.0647 175.4048  1.00272190 17109
EUTELSAT KONNECT VHTS   
1 53765U 22110A   26085.90519757 -.00000001  00000+0  00000+0 0  9996
2 53765   0.0604 102.4519 0002936 231.8714 178.5583  1.00269794  6018
EUTELSAT HOTBIRD 13F    
1 54048U 22134A   26085.90727758  .00000070  00000+0  00000+0 0  9994
2 54048   0.0576 287.2513 0001941  65.8744 170.8263  1.00270795 12559
EUTELSAT HOTBIRD 13G    
1 54225U 22146A   26085.90727758  .00000070  00000+0  00000+0 0  9994
2 54225   0.0456 233.0179 0002063 313.3269 337.5999  1.00271175  6643
EUTELSAT 10B            
1 54259U 22157A   26085.90667090  .00000050  00000+0  00000+0 0  9993
2 54259   0.0602  98.6965 0000806  38.9903  23.0257  1.00266895 12205
EUTELSAT 36D            
1 59346U 24059A   26085.84045730  .00000000  00000+0  00000+0 0  9997
2 59346   0.0225 164.8596 0000189  50.4841 307.3656  1.00270579  7320
