QIANFAN-1               
1 60379U 24140A   26198.62373927  .00000102  00000+0  14009-3 0  9990
2 60379  88.9732 276.7748 0015457 312.6451  47.3396 13.51020635 96631
QIANFAN-2               
1 60380U 24140B   26198.57856880  .00000115  00000+0  15939-3 0  9997
2 60380  88.9718 276.5894 0010383 281.0825  78.9159 13.51016457 96683
QIANFAN-3               
1 60381U 24140C   26198.58675820  .00000111  00000+0  15301-3 0  9991
2 60381  88.9711 276.7047 0011589 296.1698  63.8260 13.51017494 96591
QIANFAN-4               
1 60382U 24140D   26198.63605070  .00000103  00000+0  14175-3 0  9997
2 60382  88.9736 276.6519 0010616 284.0590  75.9381 13.51020525 96721
QIANFAN-5               
1 60383U 24140E   26198.61144503  .00000103  00000+0  14039-3 0  9994
2 60383  88.9710 276.7268 0013026 309.1091  50.8901 13.51011116 96589
QIANFAN-6               
1 60384U 24140F   26198.63195085  .00000098  00000+0  13291-3 0  9990
2 60384  88.9737 276.5297 0010783 291.3294  68.6705 13.51019299 96784
QIANFAN-7               
1 60385U 24140G   26198.58407747  .00000272  00000+0  10394-3 0  9991
2 60385  88.9766 268.2036 0016809  54.6455 305.6308 14.27865817101330
QIANFAN-8               
1 60386U 24140H   26198.56617508  .00000093  00000+0  12513-3 0  9994
2 60386  88.9738 276.7767 0014255 293.5968  66.3686 13.51015603 96622
QIANFAN-9               
1 60387U 24140J   26198.61544653  .00000105  00000+0  14423-3 0  9997
2 60387  88.9736 276.8426 0013938 293.1988  66.7695 13.51021315 96619
QIANFAN-10              
1 60388U 24140K   26198.61956873  .00000112  00000+0  15444-3 0  9991
2 60388  88.9747 276.2119 0012389 266.4528  93.5206 13.51022557 96746
QIANFAN-11              
1 60389U 24140L   26198.58259690  .00000118  00000+0  16430-3 0  9993
2 60389  88.9672 276.6398 0011979 293.3553  66.6338 13.51016469 96391
QIANFAN-12              
1 60390U 24140M   26198.60323188  .00000094  00000+0  12681-3 0  9999
2 60390  88.9715 276.7755 0010908 303.3828  56.6279 13.51018595 96527
QIANFAN-13              
1 60391U 24140N   26198.57438912  .00000108  00000+0  14942-3 0  9996
2 60391  88.9727 276.9046 0010773 306.7824  53.2338 13.51018677 96541
QIANFAN-14              
1 60392U 24140P   26198.59916050  .00000095  00000+0  12847-3 0  9990
2 60392  88.9706 276.7539 0014445 305.3152  54.6648 13.51012217 96557
QIANFAN-15              
1 60393U 24140Q   26198.60732550  .00000090  00000+0  12071-3 0  9998
2 60393  88.9730 276.7611 0010072 290.0241  69.9825 13.51012617 96546
QIANFAN-16              
1 60394U 24140R   26198.59499949  .00000095  00000+0  12932-3 0  9990
2 60394  88.9733 276.8886 0012484 310.5341  49.4722 13.51020633 96459
QIANFAN-17              
1 60395U 24140S   26198.59083466  .00000100  00000+0  13666-3 0  9996
2 60395  88.9743 276.9587 0012749 303.0205  56.9721 13.51016638 97419
QIANFAN-18              
1 60396U 24140T   26198.57023872  .00000098  00000+0  13260-3 0  9996
2 60396  88.9737 276.4800 0011908 282.5992  77.3827 13.51016069 96800
QIANFAN-19              
1 61552U 24185A   26198.56191515  .00000213  00000+0  10365-3 0  9991
2 61552  88.9812  53.0976 0006130 348.0094  12.0946 14.14495130100314
QIANFAN-20              
1 61553U 24185B   26198.58086586  .00000206  00000+0  11101-3 0  9996
2 61553  88.9807  53.6343 0006654  32.4823 327.6769 14.09036903100027
QIANFAN-21              
1 61554U 24185C   26198.58050278  .00000273  00000+0  11486-3 0  9996
2 61554  88.9728  51.5843 0011664  28.2038 331.9783 14.22882636100807
QIANFAN-22              
1 61555U 24185D   26198.60658667  .00000128  00000+0  98685-4 0  9992
2 61555  88.9792  55.4882 0008381  60.4642 299.7364 13.86408107 98983
QIANFAN-23              
1 61556U 24185E   26198.58289842  .00000206  00000+0  96264-4 0  9993
2 61556  88.9805  52.8030 0007070 356.1343   3.9789 14.16519262100442
QIANFAN-24              
1 61557U 24185F   26198.61016807  .00000286  00000+0  11822-3 0  9991
2 61557  88.9786  51.8523 0007895 323.1848  36.8801 14.24099849100887
QIANFAN-25              
1 61558U 24185G   26198.57106248  .00000177  00000+0  99045-4 0  9999
2 61558  88.9801  53.6527 0012580  27.4978 332.6868 14.06096226 99978
QIANFAN-26              
1 61559U 24185H   26198.59164197  .00000135  00000+0  12224-3 0  9996
2 61559  88.9799  56.3464 0007887  78.3465 281.8586 13.77924512 98533
QIANFAN-27              
1 61560U 24185J   26198.56546597  .00000172  00000+0  64053-4 0  9992
2 61560  88.9798  51.5283 0005397 311.4918  48.5813 14.27557518101099
QIANFAN-28              
1 61561U 24185K   26198.56800683  .00000307  00000+0  11694-3 0  9994
2 61561  88.9816  51.5413 0005208 309.2374  50.8358 14.28420221101123
QIANFAN-29              
1 61562U 24185L   26198.58815488  .00000086  00000+0  11409-3 0  9994
2 61562  88.9773  58.8984 0011074 135.0444 225.1606 13.51079106 97078
QIANFAN-30              
1 61563U 24185M   26198.57910577  .00000010  00000+0 -40323-5 0  9996
2 61563  88.9792  58.5075 0009037 121.1384 239.0654 13.50061401 97326
QIANFAN-31              
1 61564U 24185N   26198.59990738  .00000112  00000+0  13812-3 0  9999
2 61564  88.9777  57.9631 0008832 109.2755 250.9357 13.58047389 97590
QIANFAN-32              
1 61565U 24185P   26198.57671364  .00000100  00000+0  13675-3 0  9993
2 61565  88.9833  58.7066 0010334 149.2010 210.9749 13.50793011 97316
QIANFAN-33              
1 61566U 24185Q   26198.55820015  .00000156  00000+0  10295-3 0  9997
2 61566  88.9792  54.6370 0008414  24.8079 335.3501 13.96720452 99424
QIANFAN-34              
1 61567U 24185R   26198.56121245  .00000078  00000+0  41608-4 0  9994
2 61567  88.9769  53.9134 0006496  24.8844 335.2648 14.02484187 99743
QIANFAN-35              
1 61568U 24185S   26198.61964539  .00000302  00000+0  11505-3 0  9994
2 61568  88.9797  51.4248 0004327 307.5366  52.5435 14.28299385101137
QIANFAN-36              
1 61569U 24185T   26198.59891171  .00000111  00000+0  14219-3 0  9996
2 61569  88.9770  58.4481 0007799 121.7544 238.4370 13.55640763 97300
QIANFAN-37              
1 62238U 24232B   26198.55338255  .00000019  00000+0  10928-4 0  9999
2 62238  89.0069  19.5337 0002064 108.2069 251.9307 13.51011355128442
QIANFAN-38              
1 62239U 24232C   26198.57806563  .00000022  00000+0  15653-4 0  9998
2 62239  89.0076  19.4617 0012592 291.8465  68.1347 13.51022181128505
QIANFAN-39              
1 62240U 24232D   26198.61424056  .00000072  00000+0  24037-4 0  9999
2 62240  89.0064  12.5999 0018527  88.8382 271.4934 14.25532683132283
QIANFAN-40              
1 62241U 24232E   26198.61095287  .00000024  00000+0  19550-4 0  9991
2 62241  89.0103  19.1033 0011754 301.2741  58.7258 13.51009507128873
QIANFAN-41              
1 62242U 24232F   26198.61916624  .00000021  00000+0  13523-4 0  9990
2 62242  89.0074  19.4050 0011942 287.2938  72.6906 13.51012403128530
QIANFAN-42              
1 62243U 24232G   26198.60997417  .00000065  00000+0  21663-4 0  9991
2 62243  89.0062  12.6796 0017369  94.8017 265.5160 14.24621178132243
QIANFAN-43              
1 62244U 24232H   26198.61504721  .00000020  00000+0  12582-4 0  9996
2 62244  89.0078  19.4804 0013548 293.0821  66.8902 13.51011779 97141
QIANFAN-44              
1 62245U 24232J   26198.60264693  .00000020  00000+0  13092-4 0  9994
2 62245  89.0076  19.2887 0011720 290.0354  69.9535 13.51013641128610
QIANFAN-45              
1 62246U 24232K   26198.56982821  .00000019  00000+0  10945-4 0  9992
2 62246  89.0080  19.4463 0012390 289.5732  70.4081 13.51011081128535
QIANFAN-46              
1 62247U 24232L   26198.59448099  .00000013  00000+0  13252-5 0  9999
2 62247  89.0076  19.5040 0012515 295.9033  64.0828 13.51011709128497
QIANFAN-47              
1 62248U 24232M   26198.59861187  .00000024  00000+0  19270-4 0  9994
2 62248  89.0071  19.4278 0012915 294.7732  65.2075 13.51011238128520
QIANFAN-48              
1 62249U 24232N   26198.56142417  .00000031  00000+0  29505-4 0  9990
2 62249  89.0076  19.4418 0015223 297.2903  62.6698 13.51015926128525
QIANFAN-49              
1 62250U 24232P   26198.54914273  .00000016  00000+0  65434-5 0  9992
2 62250  89.0075  19.4538 0012226 291.8105  68.1746 13.51014205 97117
QIANFAN-50              
1 62251U 24232Q   26198.57393640  .00000024  00000+0  19606-4 0  9993
2 62251  89.0080  19.4714 0013897 292.8888  67.0795 13.51010983 97148
QIANFAN-51              
1 62252U 24232R   26198.55751536  .00000005  00000+0 -10171-4 0  9992
2 62252  89.0074  19.4535 0011429 298.1584  61.8412 13.51022262 97134
QIANFAN-52              
1 62253U 24232S   26198.58618613  .00000023  00000+0  17606-4 0  9993
2 62253  89.0070  19.3158 0013338 288.3251  71.6448 13.51013941 97226
QIANFAN-53              
1 62254U 24232T   26198.56568157  .00000017  00000+0  85509-5 0  9990
2 62254  89.0078  19.4388 0012239 289.8848  70.0984 13.51009919 97181
QIANFAN-54              
1 62255U 24232U   26198.60677510  .00000025  00000+0  19634-4 0  9994
2 62255  89.0069  19.0939 0002075  29.1948 330.9319 13.51013733128693
QIANFAN-55              
1 62785U 25016A   26198.63294776  .00000095  00000+0  12724-3 0  9994
2 62785  88.9713  80.7193 0019405  81.3405 278.9944 13.51011385 76479
QIANFAN-56              
1 62786U 25016B   26198.64944067  .00000079  00000+0  10257-3 0  9992
2 62786  88.9687  80.4961 0018038  83.3828 276.9375 13.51009966 76526
QIANFAN-57              
1 62787U 25016C   26198.60822666  .00000087  00000+0  11550-3 0  9995
2 62787  88.9718  80.7214 0001316  84.1309 275.9993 13.51010024 76487
QIANFAN-58              
1 62788U 25016D   26198.65336338  .00000076  00000+0  99460-4 0  9992
2 62788  88.9688  80.4821 0015956  76.6736 283.6193 13.51014482 76536
QIANFAN-59              
1 62789U 25016E   26198.60401320  .00000084  00000+0  11178-3 0  9990
2 62789  88.9711  80.6122 0016325  80.1246 280.1747 13.51018738 76521
QIANFAN-60              
1 62790U 25016F   26198.63708999  .00000094  00000+0  12580-3 0  9996
2 62790  88.9692  80.5389 0017871  76.8705 283.4439 13.51021645 76518
QIANFAN-61              
1 62791U 25016G   26198.52187634  .00000096  00000+0  12917-3 0  9998
2 62791  88.9759  80.8608 0016840  76.8348 283.4681 13.51002182 76512
QIANFAN-62              
1 62792U 25016H   26198.59985666  .00000066  00000+0  83139-4 0  9999
2 62792  88.9706  80.6044 0018179  76.7665 283.5512 13.51014128 76512
QIANFAN-63              
1 62793U 25016J   26198.62462641  .00000093  00000+0  12487-3 0  9994
2 62793  88.9713  80.5680 0018234  81.4681 278.8536 13.51017381 76550
QIANFAN-64              
1 62794U 25016K   26198.66583099  .00000104  00000+0  14147-3 0  9998
2 62794  88.9699  80.5088 0016167  75.1577 285.1364 13.51013898 76552
QIANFAN-65              
1 62795U 25016L   26198.66165128  .00000096  00000+0  12946-3 0  9993
2 62795  88.9696  80.5274 0016026  76.6555 283.6382 13.51030435 76530
QIANFAN-66              
1 62796U 25016M   26198.61650586  .00000084  00000+0  11111-3 0  9996
2 62796  88.9715  80.5449 0017114  72.9063 287.3961 13.51023568 76576
QIANFAN-67              
1 62797U 25016N   26198.62062400  .00000085  00000+0  11186-3 0  9993
2 62797  88.9706  80.5487 0017093  78.9572 281.3500 13.51012218 76546
QIANFAN-68              
1 62798U 25016P   26198.61220692  .00000081  00000+0  10579-3 0  9993
2 62798  88.9709  80.6025 0017168  77.0853 283.2215 13.51024924 76523
QIANFAN-69              
1 62799U 25016Q   26198.62866583  .00000099  00000+0  13399-3 0  9992
2 62799  88.9688  80.4240 0017907  78.3275 281.9884 13.51018801 76568
QIANFAN-70              
1 62800U 25016R   26198.64519965  .00000084  00000+0  11061-3 0  9994
2 62800  88.9709  80.6061 0017479  69.7677 290.5351 13.51017166 76526
QIANFAN-71              
1 62801U 25016S   26198.64121001  .00000094  00000+0  12709-3 0  9996
2 62801  88.9703  80.5729 0017812  81.4472 278.8696 13.51021177 76524
QIANFAN-72              
1 62802U 25016T   26198.65750273  .00000091  00000+0  12100-3 0  9999
2 62802  88.9693  80.5633 0021047  87.9594 272.3967 13.51014660 76516
QIANFAN-73              
1 63159U 25046A   26198.61042058  .00000121  00000+0  16821-3 0  9997
2 63159  88.9724 297.5228 0014317 208.2656 151.7720 13.51015355 76694
QIANFAN-74              
1 63160U 25046B   26198.59414054  .00000115  00000+0  15876-3 0  9997
2 63160  88.9724 297.4142 0002532 105.2878 254.8553 13.51023197 76757
QIANFAN-75              
1 63161U 25046C   26198.58173446  .00000103  00000+0  14096-3 0  9994
2 63161  88.9725 297.6520 0015296 212.1973 147.8246 13.51015653 76620
QIANFAN-76              
1 63162U 25046D   26198.57757135  .00000123  00000+0  17127-3 0  9997
2 63162  88.9725 297.6324 0012828 211.2524 148.7866 13.51014643 76630
QIANFAN-77              
1 63163U 25046E   26198.55604921  .00000225  00000+0  15345-3 0  9993
2 63163  88.9727 293.8558 0017227 121.1376 239.1493 13.96222609 78705
QIANFAN-78              
1 63164U 25046F   26198.54471112  .00000112  00000+0  15429-3 0  9995
2 63164  88.9724 297.4977 0014108 214.4196 145.6042 13.51009904 76700
QIANFAN-79              
1 63165U 25046G   26198.57345135  .00000115  00000+0  15901-3 0  9992
2 63165  88.9727 297.6101 0013966 212.6706 147.3583 13.51020041 76651
QIANFAN-80              
1 63166U 25046H   26198.59000573  .00000117  00000+0  16311-3 0  9997
2 63166  88.9724 297.3094 0012649 216.5683 143.4606 13.51017118 76813
QIANFAN-81              
1 63167U 25046J   26198.56925256  .00000120  00000+0  16648-3 0  9996
2 63167  88.9724 297.3790 0014330 206.2940 153.7486 13.51024569 76760
QIANFAN-82              
1 63168U 25046K   26198.60221257  .00000125  00000+0  17485-3 0  9997
2 63168  88.9724 297.4197 0011942 211.7927 148.2504 13.51019063 76757
QIANFAN-83              
1 63169U 25046L   26198.56590652  .00000134  00000+0  15754-3 0  9998
2 63169  88.9725 296.7728 0014327 185.6425 174.4573 13.62051651 77112
QIANFAN-84              
1 63170U 25046M   26198.55713503  .00000049  00000+0  57002-4 0  9999
2 63170  88.9725 297.5571 0015126 210.2141 149.8140 13.51044819 76679
QIANFAN-85              
1 63171U 25046N   26198.55282790  .00000111  00000+0  15294-3 0  9995
2 63171  88.9724 297.4276 0012485 211.1047 148.9366 13.51016753 76744
QIANFAN-86              
1 63172U 25046P   26198.56107039  .00000121  00000+0  16891-3 0  9994
2 63172  88.9726 297.2940 0010186 213.5340 146.5168 13.51024276 76823
QIANFAN-87              
1 63173U 25046Q   26198.60642588  .00000127  00000+0  17820-3 0  9992
2 63173  88.9722 297.3928 0010915 208.7882 151.2668 13.51009898 76768
QIANFAN-88              
1 63174U 25046R   26198.54880460  .00000109  00000+0  15039-3 0  9999
2 63174  88.9725 297.3587 0011012 218.3694 141.6675 13.51017482 76781
QIANFAN-89              
1 63175U 25046S   26198.58571794  .00000112  00000+0  15516-3 0  9995
2 63175  88.9725 297.5438 0015922 211.0511 148.9700 13.51024689 76686
QIANFAN-90              
1 63176U 25046T   26198.54046652  .00000122  00000+0  17083-3 0  9994
2 63176  88.9725 297.5214 0012929 207.9105 152.1354 13.51017094 76691
QIANFAN-91              
1 66033U 25233A   26198.49887337  .00000025  00000+0  20336-4 0  9992
2 66033  88.9981  40.1226 0002098  95.5486 264.5904 13.51015170 37277
QIANFAN-92              
1 66034U 25233B   26198.06269210  .00000041  00000+0  45220-4 0  9997
2 66034  88.9964  40.1336 0001973  89.4131 270.7246 13.51013504 37212
QIANFAN-93              
1 66035U 25233C   26198.51528331  .00000038  00000+0  40598-4 0  9999
2 66035  88.9992  40.1478 0002035  93.5686 266.5698 13.51016923 37270
QIANFAN-94              
1 66036U 25233D   26198.28078240  .00000034  00000+0  33308-4 0  9990
2 66036  88.9988  40.0736 0002101  89.9370 270.2022 13.51015815 37299
QIANFAN-95              
1 66037U 25233E   26198.51121044  .00000039  00000+0  42473-4 0  9996
2 66037  88.9985  39.5932 0002218  94.0549 266.0856 13.51016803 37579
QIANFAN-96              
1 66038U 25233F   26198.53590740  .00000024  00000+0  19149-4 0  9990
2 66038  88.9983  40.1334 0002107  96.0526 264.0866 13.51015687 37271
QIANFAN-97              
1 66039U 25233G   26198.51942772  .00000036  00000+0  37788-4 0  9997
2 66039  88.9986  40.1202 0002071  94.3247 265.8141 13.51015821 37286
QIANFAN-98              
1 66040U 25233H   26198.52763426  .00000025  00000+0  20822-4 0  9996
2 66040  88.9975  39.8469 0002419  82.4002 277.7424 13.51015647 37427
QIANFAN-99              
1 66041U 25233J   26198.53173527  .00000027  00000+0  22584-4 0  9994
2 66041  88.9987  40.1231 0002357  86.8005 273.3416 13.51015734 37289
QIANFAN-100             
1 66042U 25233K   26198.07908373  .00000033  00000+0  31922-4 0  9992
2 66042  88.9997  40.0992 0002019  92.9311 267.2071 13.51015732 37273
QIANFAN-101             
1 66043U 25233L   26198.09983056  .00000161  00000+0  60181-4 0  9997
2 66043  88.9984  37.1319 0017025  51.8963 308.3763 14.26823150 38898
QIANFAN-102             
1 66044U 25233M   26198.54410630  .00000024  00000+0  18851-4 0  9996
2 66044  88.9984  40.0308 0002150  89.3643 270.7755 13.51015567 37337
QIANFAN-103             
1 66045U 25233N   26198.54821323  .00000029  00000+0  26188-4 0  9999
2 66045  88.9987  40.1264 0002040  94.3813 265.7572 13.51016494 37281
QIANFAN-104             
1 66046U 25233P   26198.10809141  .00000027  00000+0  23729-4 0  9992
2 66046  88.9991  40.0746 0002096  87.1363 273.0028 13.51021972 37276
QIANFAN-105             
1 66047U 25233Q   26198.56071521  .00000035  00000+0  35063-4 0  9999
2 66047  89.0004  39.8757 0002186  93.4255 266.7147 13.51021221 37449
QIANFAN-106             
1 66048U 25233R   26198.26023718  .00000040  00000+0  43508-4 0  9991
2 66048  88.9973  40.1096 0002365  84.4420 275.7000 13.51015607 37244
QIANFAN-107             
1 66049U 25233S   26198.56469969  .00000025  00000+0  20134-4 0  9990
2 66049  88.9989  40.1161 0002030  93.1440 266.9943 13.51015075 37295
QIANFAN-108             
1 66050U 25233T   26198.56879578  .00000023  00000+0  17720-4 0  9998
2 66050  88.9981  40.1011 0002311  84.2689 275.8726 13.51016289 37297
QIANFAN-109             
1 68636U 26075A   26198.58292648  .00000038  00000+0  39866-4 0  9995
2 68636  88.9918 317.9088 0002341 115.6005 244.5388 13.51024152 13897
QIANFAN-110             
1 68637U 26075B   26198.59114066  .00000091  00000+0  12290-3 0  9994
2 68637  88.9918 317.9294 0002042 104.1594 255.9784 13.51015921 13891
QIANFAN-111             
1 68638U 26075C   26198.57877023  .00000089  00000+0  11926-3 0  9994
2 68638  88.9917 317.8901 0002014 102.9478 257.1899 13.51022806 13915
QIANFAN-112             
1 68639U 26075D   26198.61568150  .00000091  00000+0  12175-3 0  9998
2 68639  88.9916 317.8951 0002132 118.0072 242.1295 13.51013305 13917
QIANFAN-113             
1 68640U 26075E   26198.58696236  .00000081  00000+0  10739-3 0  9996
2 68640  88.9921 317.8933 0002002 107.5605 252.5765 13.51018698 13913
QIANFAN-114             
1 68641U 26075F   26198.59515744  .00000084  00000+0  11195-3 0  9992
2 68641  88.9916 317.9102 0002059 104.4140 255.7240 13.51017496 13906
QIANFAN-115             
1 68642U 26075G   26198.62388452  .00000085  00000+0  11234-3 0  9996
2 68642  88.9916 317.9145 0002210 107.0420 253.0973 13.51014230 13900
QIANFAN-116             
1 68643U 26075H   26198.61154401  .00000083  00000+0  10922-3 0  9992
2 68643  88.9910 317.8736 0002019 114.3822 245.7540 13.51014776 13918
QIANFAN-117             
1 68644U 26075J   26198.59919199  .00000018  00000+0  98826-5 0  9992
2 68644  88.9914 317.8919 0002176 110.9572 249.1812 13.51012594 13910
QIANFAN-118             
1 68645U 26075K   26198.63211709  .00000080  00000+0  10471-3 0  9997
2 68645  88.9919 317.8981 0001970 102.3345 257.8027 13.51014554 13911
QIANFAN-119             
1 68646U 26075L   26198.60746599  .00000075  00000+0  97215-4 0  9991
2 68646  88.9919 317.8962 0002283 112.3213 247.8181 13.51020833 13911
QIANFAN-120             
1 68647U 26075M   26198.61992167  .00000088  00000+0  11790-3 0  9994
2 68647  88.9921 317.8805 0002435 112.0741 248.0669 13.51021309 13927
QIANFAN-121             
1 68648U 26075N   26198.57043286  .00000077  00000+0  10022-3 0  9994
2 68648  88.9918 317.8898 0002046 102.7526 257.3854 13.51013367 13914
QIANFAN-122             
1 68649U 26075P   26198.56231761  .00000073  00000+0  94103-4 0  9990
2 68649  88.9917 317.8884 0002204 112.7357 247.4027 13.51017039 13909
QIANFAN-123             
1 68650U 26075Q   26198.60350714  .00000084  00000+0  11074-3 0  9994
2 68650  88.9914 317.8732 0002332 117.3886 242.7503 13.51015466 13897
QIANFAN-124             
1 68651U 26075R   26198.62815740  .00000093  00000+0  12476-3 0  9999
2 68651  88.9917 317.8805 0002222 114.6263 245.5120 13.51016689 13927
QIANFAN-125             
1 68652U 26075S   26198.56632481  .00000071  00000+0  90736-4 0  9994
2 68652  88.9916 317.8889 0002020 103.1671 256.9705 13.51013574 13915
QIANFAN-126             
1 68653U 26075T   26198.57462245  .00000082  00000+0  10870-3 0  9997
2 68653  88.9920 317.8549 0002343 116.7731 243.3661 13.51018649 13930
QIANFAN-127             
1 69073U 26104A   26198.30462387 -.02039649  00000+0 -31608+1 0  9999
2 69073  88.9910 338.3923 0011739  14.3320 345.8164 13.55075569  9227
QIANFAN-128             
1 69074U 26104B   26197.92296615 -.01684447  00000+0 -27924+1 0  9993
2 69074  88.9893 338.4647 0011444  15.6912 344.4592 13.50671529  9151
QIANFAN-129             
1 69075U 26104C   26197.98845330 -.02104666  00000+0 -32343+1 0  9996
2 69075  88.9899 338.3977 0011886   5.8221 354.3068 13.55738429  9197
QIANFAN-130             
1 69076U 26104D   26198.57573791 -.02119386  00000+0 -36185+1 0  9995
2 69076  88.9892 338.3931 0003132 171.8608 188.2594 13.49087758  9248
QIANFAN-131             
1 69077U 26104E   26198.39710455 -.01890496  00000+0 -30750+1 0  9995
2 69077  88.9885 338.3837 0012552   6.4978 353.6334 13.52370831  9235
QIANFAN-132             
1 69078U 26104F   26197.76923328 -.02119527  00000+0 -35975+1 0  9995
2 69078  88.9896 338.4968 0006725 332.5006  27.5787 13.49459190  9123
QIANFAN-133             
1 69079U 26104G   26197.90935841 -.01924534  00000+0 -30211+1 0  9994
2 69079  88.9895 338.4446 0009167  32.1803 327.9908 13.54726397  9152
QIANFAN-134             
1 69080U 26104H   26197.90546329 -.02118774  00000+0 -32454+1 0  9998
2 69080  88.9890 338.4655 0012488   3.3773 356.7463 13.55969421  9151
QIANFAN-135             
1 69081U 26104J   26198.38441113 -.01877100  00000+0 -30337+1 0  9999
2 69081  88.9896 338.4026 0010989  25.8797 334.2903 13.52755744  9225
QIANFAN-136             
1 69082U 26104K   26197.95621734 -.01854614  00000+0 -29187+1 0  9997
2 69082  88.9894 338.4496 0009270  28.4385 331.7272 13.54399634  9166
QIANFAN-137             
1 69083U 26104L   26197.92857829 -.02024146  00000+0 -30374+1 0  9991
2 69083  88.9907 338.3370 0010677  12.6872 347.4549 13.57081913  9220
QIANFAN-138             
1 69084U 26104M   26198.33333360 -.02057917  00000+0 -34290+1 0  9990
2 69084  88.9895 338.4144 0011623  12.2010 347.9421 13.50498825  9219
QIANFAN-139             
1 69085U 26104N   26197.96813152 -.01934040  00000+0 -30492+1 0  9991
2 69085  88.9891 338.4339 0008533  40.4691 319.7096 13.54477489  9173
QIANFAN-140             
1 69086U 26104P   26198.62590066 -.01852001  00000+0 -30954+1 0  9991
2 69086  88.9901 338.3654 0008839 359.8503   0.2643 13.50559480  9261
QIANFAN-141             
1 69087U 26104Q   26197.85567752 -.01971909  00000+0 -30535+1 0  9996
2 69087  88.9896 338.4188 0005911  45.5593 314.6043 13.55007618  9176
QIANFAN-142             
1 69088U 26104R   26197.98522843 -.01579918  00000+0 -25380+1 0  9999
2 69088  88.9890 338.3994 0008277  37.7638 322.4093 13.52439543  9193
QIANFAN-143             
1 69089U 26104S   26198.45248869 -.02012512  00000+0 -31347+1 0  9999
2 69089  88.9899 338.3579 0011855  20.9930 339.1707 13.54697022  9251
QIANFAN-144             
1 69090U 26104T   26198.34815795 -.01918283  00000+0 -33475+1 0  9990
2 69090  88.9898 338.3784 0008173 325.1689  34.8924 13.47951595  9238
QIANFAN-145             
1 69104U 26108A   26197.97428264 -.02111627  00000+0 -29084+1 0  9998
2 69104  89.0099  19.0778 0019159   7.5915 352.5529 13.62574115  8454
QIANFAN-146             
1 69105U 26108B   26198.04654726 -.02019095  00000+0 -20093+1 0  9999
2 69105  89.0106  18.9663 0023855  31.0854 329.1721 13.82081361  8527
QIANFAN-147             
1 69106U 26108C   26198.04804274 -.02118578  00000+0 -32334+1 0  9992
2 69106  89.0102  19.0713 0020522  18.5469 341.6428 13.56143393  8452
QIANFAN-148             
1 69107U 26108D   26198.55250891  .00000066  00000+0  68876-4 0  9991
2 69107  89.0101  19.0143 0021962  21.6282 338.5798 13.62077404  8525
QIANFAN-149             
1 69108U 26108E   26198.00743176 -.02086491  00000+0 -31654+1 0  9995
2 69108  89.0095  19.0811 0021923  24.4157 335.8031 13.56445039  8457
QIANFAN-150             
1 69109U 26108F   26198.38465586 -.00000067  00000+0 -98672-4 0  9993
2 69109  89.0101  19.0120 0020841  17.5652 342.6223 13.64591658  8514
QIANFAN-151             
1 69110U 26108G   26198.06233203 -.02082706  00000+0 -29381+1 0  9998
2 69110  89.0098  19.0554 0018938   8.5196 351.6279 13.61024408  8465
QIANFAN-152             
1 69111U 26108H   26198.03451026 -.02054796  00000+0 -29166+1 0  9990
2 69111  89.0091  19.0507 0015330  12.5346 347.6188 13.60608079  8478
QIANFAN-153             
1 69112U 26108J   26197.90260741 -.02054895  00000+0 -25814+1 0  9994
2 69112  89.0087  19.0651 0020320  38.0835 322.1758 13.68137441  8441
QIANFAN-154             
1 69113U 26108K   26198.01299974 -.02066124  00000+0 -31726+1 0  9995
2 69113  89.0103  19.0674 0022249  23.1533 337.0618 13.55636621  8460
QIANFAN-155             
1 69114U 26108L   26198.32081853  .00000015  00000+0  37370-5 0  9994
2 69114  89.0102  19.0237 0021065  21.5540 338.6501 13.63984726  8504
QIANFAN-156             
1 69115U 26108M   26198.03175863 -.01874169  00000+0 -25949+1 0  9994
2 69115  89.0115  19.0390 0023194  10.0196 350.1419 13.62401465  8481
QIANFAN-157             
1 69116U 26108N   26198.60039581  .00000012  00000+0 -58454-6 0  9993
2 69116  89.0101  18.9324 0020157  25.5445 334.6711 13.72883316  8589
QIANFAN-158             
1 69117U 26108P   26198.03861579 -.02033420  00000+0 -26850+1 0  9992
2 69117  89.0100  19.0154 0022980  27.3313 332.9050 13.64997653  8490
QIANFAN-159             
1 69118U 26108Q   26198.09918678  .00000015  00000+0  33511-5 0  9999
2 69118  89.0094  19.0196 0020816  20.4321 339.7666 13.64261157  8499
QIANFAN-160             
1 69119U 26108R   26198.06208754 -.02083630  00000+0 -31065+1 0  9999
2 69119  89.0103  19.0384 0021273  18.0939 342.0968 13.57541942  8482
QIANFAN-161             
1 69120U 26108S   26197.86713985 -.00000057  00000+0 -72480-4 0  9995
2 69120  89.0107  19.0118 0019019  23.3295 336.8729 13.75476828  8488
QIANFAN-162             
1 69121U 26108T   26198.01489842 -.02068819  00000+0 -27135+1 0  9991
2 69121  89.0099  19.0125 0023262  26.4371 333.7970 13.65481531  8481
QIANFAN-163             
1 69325U 26121A   26189.97247712  .00000008  00000+0 -66399-5 0  9998
2 69325  89.0049 298.3591 0020480 118.5630 241.7588 13.53894414  5116
QIANFAN-164             
1 69326U 26121B   26194.67164071  .00000062  00000+0  78132-4 0  9994
2 69326  89.0183 297.8725 0022845 112.6356 247.7213 13.49695561  5743
QIANFAN-165             
1 69382U 26124A   26198.51584424 -.01744556  00000+0 -16361+1 0  9992
2 69382  89.0000 358.6540 0005199 103.8990 256.2760 13.85773760  6081
QIANFAN-166             
1 69383U 26124B   26198.47853729 -.01977534  00000+0 -17659+1 0  9990
2 69383  89.0002 358.6490 0002020 244.5287 115.5676 13.88494882  6081
QIANFAN-167             
1 69384U 26124C   26198.58565863 -.01759244  00000+0 -17147+1 0  9990
2 69384  89.0000 358.6469 0010078  74.0311 286.1969 13.83522368  6099
QIANFAN-168             
1 69385U 26124D   26198.55226801  .00000027  00000+0  11337-4 0  9998
2 69385  89.0003 358.6404 0008303  58.7974 301.4011 13.88977713  6096
QIANFAN-169             
1 69386U 26124E   26198.46228324 -.02052251  00000+0 -19058+1 0  9995
2 69386  88.9995 358.6460 0007292  89.9290 270.2716 13.86347357  6087
QIANFAN-170             
1 69387U 26124F   26198.57433851 -.01701886  00000+0 -14922+1 0  9990
2 69387  88.9995 358.6253 0005818  18.8934 341.2454 13.89604017  6109
QIANFAN-171             
1 69388U 26124G   26198.41759261 -.02117885  00000+0 -18288+1 0  9990
2 69388  89.0001 358.6393 0008644  98.7042 261.5111 13.90717225  6081
QIANFAN-172             
1 69389U 26124H   26198.56009787 -.01921406  00000+0 -16280+1 0  9999
2 69389  88.9997 358.6245 0001100 131.3591 228.7678 13.91433834  6101
QIANFAN-173             
1 69390U 26124J   26198.40144140 -.02125944  00000+0 -18021+1 0  9996
2 69390  88.9998 358.6368 0006854  84.6497 275.5459 13.91815047  6080
QIANFAN-174             
1 69391U 26124K   26198.58626796 -.01621111  00000+0 -13377+1 0  9993
2 69391  88.9998 358.6091 0008052  55.8383 304.3555 13.92914251  6109
QIANFAN-175             
1 69392U 26124L   26198.59436388 -.01680722  00000+0 -14510+1 0  9994
2 69392  89.0005 358.6099 0010004 134.7468 225.4522 13.90436962  6114
QIANFAN-176             
1 69393U 26124M   26198.59522086 -.01937125  00000+0 -17216+1 0  9994
2 69393  88.9996 358.6096 0005417 156.8867 203.2550 13.88684944  6105
QIANFAN-177             
1 69394U 26124N   26198.56698914 -.01968588  00000+0 -16417+1 0  9995
2 69394  88.9997 358.6058 0007265  75.4218 284.7762 13.92435296  6113
QIANFAN-178             
1 69395U 26124P   26198.41439269 -.01957052  00000+0 -15768+1 0  9998
2 69395  88.9986 358.6203 0010185  63.4714 296.7505 13.94382566  6095
QIANFAN-179             
1 69396U 26124Q   26198.40080934 -.02106109  00000+0 -16800+1 0  9997
2 69396  88.9993 358.6181 0012032  54.7129 305.5171 13.95249484  6095
QIANFAN-180             
1 69397U 26124R   26198.40486788 -.01741687  00000+0 -14831+1 0  9992
2 69397  88.9994 358.6189 0005909  63.8664 296.3118 13.91397997  6092
QIANFAN-181             
1 69398U 26124S   26198.59103830 -.02066066  00000+0 -19038+1 0  9993
2 69398  89.0007 358.6651 0048161  61.1536 299.4454 13.83024246  6092
QIANFAN-182             
1 69399U 26124T   26198.60962067 -.01957376  00000+0 -18875+1 0  9991
2 69399  88.9990 358.6309 0011180  65.2987 294.9345 13.83919881  6095
QIANFAN-183             
1 69401U 26125A   26198.55590905  .00000045  00000+0  24406-4 0  9998
2 69401  88.9945 277.0428 0018176  79.7295 280.5929 13.93012355  5986
QIANFAN-184             
1 69402U 26125B   26198.62034003 -.02033139  00000+0 -18365+1 0  9996
2 69402  88.9944 277.0349 0014982  70.3289 289.9499 13.87890071  5997
QIANFAN-185             
1 69403U 26125C   26198.59632251 -.01487006  00000+0 -11082+1 0  9996
2 69403  88.9941 277.0305 0016723  94.7012 265.6076 13.98364415  5998
QIANFAN-186             
1 69404U 26125D   26198.60698601 -.02049983  00000+0 -18466+1 0  9992
2 69404  88.9942 277.0328 0015360  83.7600 276.5321 13.88082009  5991
QIANFAN-187             
1 69405U 26125E   26198.50834378 -.02013469  00000+0 -17571+1 0  9991
2 69405  88.9945 277.0364 0015547  73.2400 287.0478 13.89851627  5984
QIANFAN-188             
1 69406U 26125F   26198.62066685 -.02101926  00000+0 -17565+1 0  9992
2 69406  88.9940 277.0156 0020763  80.8984 279.4539 13.92498676  6008
QIANFAN-189             
1 69407U 26125G   26198.63694998 -.02050411  00000+0 -17606+1 0  9996
2 69407  88.9938 277.0187 0016757  80.8384 279.4684 13.90857137  5999
QIANFAN-190             
1 69408U 26125H   26198.63133089 -.02042874  00000+0 -17208+1 0  9998
2 69408  88.9942 277.0179 0019244  77.5240 282.8086 13.91931709  6000
QIANFAN-191             
1 69409U 26125J   26198.54132161 -.02064616  00000+0 -17661+1 0  9990
2 69409  88.9943 277.0225 0016199  79.1035 281.1960 13.91112483  5990
QIANFAN-192             
1 69410U 26125K   26198.52928078 -.02083729  00000+0 -18029+1 0  9995
2 69410  88.9942 277.0207 0016065  73.9602 286.3340 13.90488954  5992
QIANFAN-193             
1 69411U 26125L   26198.52262232 -.02064690  00000+0 -17467+1 0  9990
2 69411  88.9944 277.0192 0018180  76.9351 283.3851 13.91736790  5991
QIANFAN-194             
1 69412U 26125M   26198.23217476 -.00000047  00000+0 -44020-4 0  9992
2 69412  88.9948 277.0496 0018604  76.1681 284.1564 13.96422367  5944
QIANFAN-195             
1 69413U 26125N   26198.55755538  .00000041  00000+0  19585-4 0  9994
2 69413  88.9949 277.0061 0020137  75.8238 284.5175 13.97298914  6002
QIANFAN-196             
1 69414U 26125P   26198.63148027 -.02051345  00000+0 -16959+1 0  9998
2 69414  88.9941 276.9978 0023005  75.8376 284.5353 13.92992370  6011
QIANFAN-197             
1 69415U 26125Q   26198.62240664 -.01778965  00000+0 -14412+1 0  9993
2 69415  88.9942 276.9973 0020084  81.4761 278.8690 13.94270495  6001
QIANFAN-198             
1 69416U 26125R   26198.63404067 -.02042696  00000+0 -16490+1 0  9998
2 69416  88.9932 276.9989 0022623  80.3030 280.0700 13.94348612  6011
QIANFAN-199             
1 69417U 26125S   26198.57902605 -.02105969  00000+0 -15743+1 0  9996
2 69417  88.9950 276.9906 0020238  66.6288 293.7016 13.98886000  6016
QIANFAN-200             
1 69418U 26125T   26198.62081313 -.02052279  00000+0 -17886+1 0  9992
2 69418  88.9940 277.0153 0015847  83.8441 276.4537 13.90006718  6001
QIANFAN-201             
1 69800U 26153A   26198.55783221 -.01906102  00000+0 -92719+0 0  9996
2 69800  88.9920 358.7749 0005567 173.5666 186.5598 14.22128396  1888
QIANFAN-202             
1 69801U 26153B   26198.57869230 -.01912647  00000+0 -10595+1 0  9998
2 69801  88.9919 358.7779 0009129 182.6103 177.5039 14.15174896  1883
QIANFAN-203             
1 69802U 26153C   26198.57201780 -.01647307  00000+0 -87656+0 0  9998
2 69802  88.9919 358.7768 0009505 206.0254 154.0458 14.17390799  1887
QIANFAN-204             
1 69803U 26153D   26198.57495206 -.01864155  00000+0 -10119+1 0  9990
2 69803  88.9919 358.7773 0010346 191.9966 168.0977 14.16163053  1882
QIANFAN-205             
1 69804U 26153E   26198.50493592  .00000096  00000+0  36816-4 0  9999
2 69804  88.9924 358.7850 0007757 174.9248 185.2023 14.22264655  1870
QIANFAN-206             
1 69805U 26153F   26198.49592066  .00000045  00000+0  13436-4 0  9991
2 69805  88.9924 358.7838 0008239 175.6152 184.5114 14.24034597  1870
QIANFAN-207             
1 69806U 26153G   26198.49433467  .00000138  00000+0  53613-4 0  9995
2 69806  88.9924 358.7836 0007678 175.6336 184.4925 14.24250821  1878
QIANFAN-208             
1 69807U 26153H   26198.49194665  .00000147  00000+0  55986-4 0  9995
2 69807  88.9924 358.7832 0008470 176.4000 183.7256 14.25462468  1875
QIANFAN-209             
1 69808U 26153J   26198.49613273  .00000114  00000+0  43967-4 0  9997
2 69808  88.9924 358.7838 0007598 172.8471 187.2831 14.23086442  1874
QIANFAN-210             
1 69809U 26153K   26198.56155593 -.01869847  00000+0 -96175+0 0  9995
2 69809  88.9919 358.7752 0011870 192.1121 167.9785 14.19057192  1888
QIANFAN-211             
1 69810U 26153L   26198.56085725 -.01853369  00000+0 -94680+0 0  9997
2 69810  88.9919 358.7751 0008848 197.6643 162.4241 14.19404257  1884
QIANFAN-212             
1 69811U 26153M   26198.55680841 -.01812966  00000+0 -88345+0 0  9996
2 69811  88.9920 358.7744 0007528 169.0889 191.0467 14.21837100  1886
QIANFAN-213             
1 69812U 26153N   26198.48676247 -.01819392  00000+0 -89107+0 0  9991
2 69812  88.9919 358.7827 0006785 174.7343 185.3920 14.21585762  1872
QIANFAN-214             
1 69813U 26153P   26198.55645765 -.01577245  00000+0 -78044+0 0  9997
2 69813  88.9920 358.7745 0005886 182.8776 177.2382 14.21118816  1880
QIANFAN-215             
1 69814U 26153Q   26198.48795940  .00000122  00000+0  44291-4 0  9995
2 69814  88.9923 358.7824 0008145 178.0107 182.1121 14.26718733  1872
QIANFAN-216             
1 69815U 26153R   26198.55645066 -.01842159  00000+0 -88568+0 0  9994
2 69815  88.9920 358.7746 0008268 161.0807 199.0693 14.22605331  1885
QIANFAN-217             
1 69816U 26153S   26198.55589935 -.01678810  00000+0 -82613+0 0  9993
2 69816  88.9919 358.7741 0006024 176.9690 183.1538 14.21654994  1882
QIANFAN-218             
1 69817U 26153T   26198.55550965 -.01678278  00000+0 -82509+0 0  9997
2 69817  88.9922 358.7746 0005765 176.5582 183.5649 14.21704449  1887
QIANFAN-219             
1 69848U 26155A   26198.53745340 -.01898484  00000+0 -91273+0 0  9995
2 69848  89.0059  60.6797 0028070 212.6325 147.3133 14.22527695  1715
QIANFAN-220             
1 69849U 26155B   26198.55409522 -.02080533  00000+0 -11423+1 0  9996
2 69849  89.0064  60.6826 0032363 204.9039 155.0589 14.15744704  1716
QIANFAN-221             
1 69850U 26155C   26198.53798914  .00000201  00000+0  76683-4 0  9995
2 69850  89.0064  60.6794 0030526 215.5843 144.3316 14.26647476  1711
QIANFAN-222             
1 69851U 26155D   26198.54944561 -.01925978  00000+0 -10089+1 0  9992
2 69851  89.0059  60.6812 0035207 211.5649 148.3428 14.17901638  1719
QIANFAN-223             
1 69852U 26155E   26198.61697401 -.01559901  00000+0 -83586+0 0  9999
2 69852  89.0060  60.6731 0034015 216.0636 143.8258 14.16525436  1723
QIANFAN-224             
1 69853U 26155F   26198.61424741 -.01811940  00000+0 -92389+0 0  9990
2 69853  89.0052  60.6717 0035084 216.7126 143.1661 14.19114061  1729
QIANFAN-225             
1 69854U 26155G   26198.61264166 -.01882661  00000+0 -97539+0 0  9994
2 69854  89.0058  60.6721 0034751 213.7006 146.1974 14.18412858  1729
QIANFAN-226             
1 69855U 26155H   26198.54239089  .00000051  00000+0  16302-4 0  9999
2 69855  89.0063  60.6800 0030266 215.6062 144.3110 14.22558689  1713
QIANFAN-227             
1 69856U 26155J   26198.53831164 -.02080548  00000+0 -10290+1 0  9990
2 69856  89.0057  60.6795 0028222 218.9645 140.9512 14.21399203  1714
QIANFAN-228             
1 69857U 26155K   26198.53749359 -.02002181  00000+0 -98694+0 0  9995
2 69857  89.0055  60.6803 0029210 218.7333 141.1764 14.21400385  1719
QIANFAN-229             
1 69858U 26155L   26198.53632181 -.01941522  00000+0 -92626+0 0  9999
2 69858  89.0058  60.6795 0026434 218.9241 141.0048 14.23045739  1712
QIANFAN-230             
1 69859U 26155M   26198.62214099 -.01973941  00000+0 -10560+1 0  9992
2 69859  89.0054  60.6730 0035444 218.8831 140.9807 14.16870886  1726
QIANFAN-231             
1 69860U 26155N   26198.60945985 -.01839640  00000+0 -89435+0 0  9990
2 69860  89.0060  60.6720 0029938 217.6602 142.2494 14.21789463  1721
QIANFAN-232             
1 69861U 26155P   26198.53598775 -.01422852  00000+0 -70358+0 0  9991
2 69861  89.0059  60.6791 0029111 225.5723 134.3086 14.20565832  1712
QIANFAN-233             
1 69862U 26155Q   26198.53593349 -.01910031  00000+0 -91228+0 0  9994
2 69862  89.0058  60.6794 0026923 219.4666 140.4566 14.22914198  1717
QIANFAN-234             
1 69863U 26155R   26198.60581220 -.01855389  00000+0 -89031+0 0  9991
2 69863  89.0059  60.6715 0028308 212.5440 147.4007 14.22536672  1720
QIANFAN-235             
1 69864U 26155S   26198.60585473 -.01883680  00000+0 -90184+0 0  9992
2 69864  89.0059  60.6713 0027763 211.6556 148.2967 14.22722244  1727
QIANFAN-236             
1 69865U 26155T   26198.60600575 -.01928470  00000+0 -92042+0 0  9996
2 69865  89.0058  60.6714 0026672 211.5422 148.4172 14.22993751  1720
QIANFAN-237             
1 69866U 26155U   26198.53550165 -.01853486  00000+0 -88841+0 0  9994
2 69866  89.0059  60.6793 0027578 217.6815 142.2445 14.22602425  1706
QIANFAN-238             
1 69867U 26155V   26198.53560933 -.01899706  00000+0 -90756+0 0  9992
2 69867  89.0059  60.6794 0026757 218.1494 141.7804 14.22882723  1710
