EUTELSAT 174A           
1 28924U 05052A   26185.89827029  .00000019  00000+0  00000+0 0  9992
2 28924   4.2605  76.3124 0006062  28.8012 315.1611  1.00269498 52501
EUTELSAT 33F            
1 29270U 06032A   26186.15551037  .00000168  00000+0  00000+0 0  9994
2 29270   1.7050  82.0553 0003573  22.3138 267.8578  1.00273828 47482
EUTELSAT HOTBIRD 13C    
1 33459U 08065A   26186.21030027 -.00000271  00000+0  00000+0 0  9990
2 33459   2.9935  78.9853 0003303  27.2475 202.3671  1.00269617 47521
EUTELSAT 36B            
1 36101U 09065A   26186.15897706  .00000125  00000+0  00000+0 0  9993
2 36101   0.5333  81.2861 0006017  22.8227 286.7699  1.00270387 60887
EUTELSAT KA-SAT 9A      
1 37258U 10069A   26183.58434090  .00000072  00000+0  00000+0 0  9991
2 37258   0.0605  12.7072 0003862 123.3444   3.9181  1.00271458 44162
EUTELSAT 7 WEST A       
1 37816U 11051A   26186.21879365 -.00000047  00000+0  00000+0 0  9997
2 37816   0.0616  12.6074 0004650 102.6103 239.4506  1.00271406 54052
EUTELSAT 16A            
1 37836U 11057A   26186.22338700  .00000117  00000+0  00000+0 0  9996
2 37836   0.0392 347.1872 0005799 113.4791 278.9659  1.00269939  7519
EUTELSAT 21B            
1 38992U 12062B   26186.22451367  .00000143  00000+0  00000+0 0  9991
2 38992   0.0651 352.7148 0003226 110.7378 282.1908  1.00269524 50009
EUTELSAT 70B            
1 39020U 12069A   26186.16296375 -.00000030  00000+0  00000+0 0  9996
2 39020   0.0625  12.6124 0003493  90.0229 309.6774  1.00271320 49685
EUTELSAT 117 WEST A     
1 39122U 13012A   26186.19713727  .00000000  00000+0  00000+0 0  9992
2 39122   0.0116 351.1598 0002869 115.6669 130.5262  1.00271640 48617
EUTELSAT 7B             
1 39163U 13022A   26186.22165366  .00000061  00000+0  00000+0 0  9999
2 39163   0.0646 351.0417 0004079  56.1394 322.8303  1.00270990 48123
EXPRESS-AT1             
1 39612U 14010A   26186.16175041  .00000017  00000+0  00000+0 0  9991
2 39612   0.3015  85.4839 0004586  46.9222 273.5421  1.00308287 44996
EXPRESS-AT2             
1 39613U 14010B   26185.51848843  .00000000  00000+0  00000+0 0  9999
2 39613   0.0194  31.2706 0000219  97.2986  36.6114  1.00270819 44670
EUTELSAT 3B             
1 39773U 14030A   26186.22087366  .00000033  00000+0  00000+0 0  9998
2 39773   0.0616  11.4294 0004076  90.3355 264.0574  1.00272227 44242
EUTELSAT 115 WEST B     
1 40425U 15010B   26183.63115325 -.00000015  00000+0  00000+0 0  9993
2 40425   0.0049 195.2860 0000186  57.4934 140.1926  1.00274403 41535
EUTELSAT 8 WEST B       
1 40875U 15039B   26186.17961221 -.00000053  00000+0  00000+0 0  9991
2 40875   0.0628 351.9703 0003775 107.1884 240.6762  1.00271406 39832
EUTELSAT 9B             
1 41310U 16005A   26186.22200032  .00000075  00000+0  00000+0 0  9995
2 41310   0.0630  71.7978 0001383  10.7777 289.5544  1.00272250 38291
EUTELSAT 65 WEST A      
1 41382U 16014A   26186.20735359 -.00000263  00000+0  00000+0 0  9997
2 41382   0.0783 305.4532 0002337 156.2704 190.9378  1.00273653 37701
EUTELSAT 117 WEST B     
1 41589U 16038B   26186.19705060  .00000002  00000+0  00000+0 0  9996
2 41589   0.0092 155.1834 0000124  41.2322  40.7132  1.00271115 36844
EUTELSAT 172B           
1 42741U 17029B   26185.89792362  .00000007  00000+0  00000+0 0  9990
2 42741   0.0293 124.9412 0000105 315.6737 337.5407  1.00271604 33911
EUTELSAT 7C             
1 44334U 19034B   26186.22165366  .00000062  00000+0  00000+0 0  9995
2 44334   0.0756 181.8076 0003499 270.7186 277.5108  1.00273376  7012
EUTELSAT 5 WEST B       
1 44624U 19067A   26186.21914031 -.00000029  00000+0  00000+0 0  9997
2 44624   0.0675 335.7417 0003294 128.8884 252.4776  1.00271462 24616
EUTELSAT KONNECT        
1 45027U 20005B   26186.00785081  .00000063  00000+0  00000+0 0  9994
2 45027   0.0675  93.9671 0002415 128.1308  70.9622  1.00271893 24517
EUTELSAT QUANTUM        
1 49056U 21069B   26186.15845706  .00000139  00000+0  00000+0 0  9992
2 49056   0.0134  35.0441 0002511  70.5675 282.2961  1.00273490 18106
EUTELSAT KONNECT VHTS   
1 53765U 22110A   26186.22078699  .00000030  00000+0  00000+0 0  9999
2 53765   0.0588  99.0456 0003028 341.6214 284.7551  1.00269123  7010
EUTELSAT HOTBIRD 13F    
1 54048U 22134A   26186.00897749  .00000100  00000+0  00000+0 0  9999
2 54048   0.0533 288.1902 0001787  76.8239 294.2402  1.00271750 13552
EUTELSAT HOTBIRD 13G    
1 54225U 22146A   26186.00897749  .00000100  00000+0  00000+0 0  9999
2 54225   0.0485 213.2648 0002302 325.0620 120.9202  1.00271116  7640
EUTELSAT 10B            
1 54259U 22157A   26186.22226032  .00000082  00000+0  00000+0 0  9992
2 54259   0.0607  96.1782 0002222  15.0652 261.9980  1.00272375 13208
EUTELSAT 36D            
1 59346U 24059A   26186.15603038  .00000000  00000+0  00000+0 0  9994
2 59346   0.0212  47.1801 0000271 130.0019 197.9931  1.00270926  8328
