ORBCOMM-X               
1 21576U 91050C   26052.17567723  .00000262  00000+0  90080-4 0  9999
2 21576  98.3105 118.3160 0004383 140.3997 219.7515 14.43503273818032
ORBCOMM FM01            
1 23545U 95017A   26051.73303451  .00006425  00000+0  60379-3 0  9995
2 23545  69.9623 172.4953 0006971 287.7163  72.3233 14.94353173649586
ORBCOMM FM02            
1 23546U 95017B   26051.79114763  .00009317  00000+0  82844-3 0  9992
2 23546  69.9632 190.4964 0008053 288.6507  71.3776 14.96340722649279
ORBCOMM FM08            
1 25112U 97084A   26051.01893474  .00001113  00000+0  34331-3 0  9991
2 25112  45.0128 257.2111 0006546  69.6603 290.4952 14.46903882477254
ORBCOMM FM10            
1 25113U 97084B   26051.52395898  .00001080  00000+0  33625-3 0  9993
2 25113  45.0140 257.6432 0004782  39.3008 320.8190 14.46633729652462
ORBCOMM FM11            
1 25114U 97084C   26051.98683872  .00001159  00000+0  35965-3 0  9992
2 25114  45.0126 256.5139 0005619  42.1056 318.0227 14.46373965477484
ORBCOMM FM12            
1 25115U 97084D   26051.53120368  .00001014  00000+0  31965-3 0  9996
2 25115  45.0131 258.4253 0004665  38.4386 321.6798 14.46400289477217
ORBCOMM FM09            
1 25116U 97084E   26051.93379990  .00001069  00000+0  33588-3 0  9991
2 25116  45.0136 257.7113 0005767  26.7775 333.3374 14.46229869477477
ORBCOMM FM05            
1 25117U 97084F   26052.00121566  .00001204  00000+0  36738-3 0  9996
2 25117  45.0135 252.4665 0002291  50.6045 309.5010 14.47016771476632
ORBCOMM FM06            
1 25118U 97084G   26051.55827857  .00001180  00000+0  35946-3 0  9995
2 25118  45.0126 254.0254 0001237  61.1595 328.1230 14.47192901477497
ORBCOMM FM07            
1 25119U 97084H   26051.97872678  .00001224  00000+0  37151-3 0  9992
2 25119  45.0122 252.7441 0003027  42.5189 317.5896 14.47198613477540
ORBCOMM FM03            
1 25158U 98007B   26052.08686612  .00000869  00000+0  34572-3 0  9993
2 25158 107.9652 287.1626 0043932 175.4528 184.7019 14.35262538459746
ORBCOMM FM04            
1 25159U 98007C   26052.09861192  .00000762  00000+0  30791-3 0  9994
2 25159 107.9637 290.5753 0039649 172.8131 187.3585 14.35491767459936
ORBCOMM FM17            
1 25413U 98046A   26051.31642515  .00000729  00000+0  29861-3 0  9999
2 25413  44.9931 166.0254 0001129 356.3682   3.7157 14.35707262438822
ORBCOMM FM18            
1 25414U 98046B   26052.11141188  .00000945  00000+0  34629-3 0  9997
2 25414  44.9923  72.8231 0002154 101.2582 258.8509 14.39392164440101
ORBCOMM FM19            
1 25415U 98046C   26052.09733985  .00001005  00000+0  36681-3 0  9995
2 25415  44.9936  75.2664 0000908  84.8821 312.6142 14.39216343440050
ORBCOMM FM20            
1 25416U 98046D   26052.12870424  .00000768  00000+0  29892-3 0  9991
2 25416  44.9937  81.7878 0001628 253.3815 106.6854 14.37854661440080
ORBCOMM FM16            
1 25417U 98046E   26052.15876688  .00001073  00000+0  38429-3 0  9999
2 25417  44.9935  69.7440 0002239 133.6107 226.4928 14.39780829440127
ORBCOMM FM15            
1 25418U 98046F   26052.12898804  .00000553  00000+0  22147-3 0  9993
2 25418  44.9966  75.7973 0002022 136.8987 223.2020 14.39401938440108
ORBCOMM FM14            
1 25419U 98046G   26052.07827688  .00000934  00000+0  33983-3 0  9993
2 25419  44.9952  73.4928 0000764 157.0310 203.0573 14.39837129440075
ORBCOMM FM13            
1 25420U 98046H   26052.14503633  .00000840  00000+0  31918-3 0  9996
2 25420  44.9969  83.7366 0002662  94.4818 265.6334 14.38401782439079
ORBCOMM FM21            
1 25475U 98053A   26051.38236087  .00000782  00000+0  30288-3 0  9999
2 25475  45.0072 173.5856 0000187 149.8348 210.2511 14.37973633432963
ORBCOMM FM22            
1 25476U 98053B   26051.36402054  .00000914  00000+0  33781-3 0  9995
2 25476  45.0061 166.3612 0001389  31.7725 328.3208 14.39190986433010
ORBCOMM FM23            
1 25477U 98053C   26051.34544003  .00000899  00000+0  33972-3 0  9999
2 25477  45.0070 175.4666 0000828  28.5658 331.5236 14.38230394433112
ORBCOMM FM24            
1 25478U 98053D   26051.38812931  .00000945  00000+0  34995-3 0  9990
2 25478  45.0067 171.5900 0000566  56.8306 303.2597 14.38872451433189
ORBCOMM FM25            
1 25479U 98053E   26051.36471160  .00000864  00000+0  32407-3 0  9990
2 25479  45.0059 170.0113 0002934  62.5783 297.5363 14.38838355433478
ORBCOMM FM26            
1 25480U 98053F   26051.33969659  .00000860  00000+0  32990-3 0  9997
2 25480  45.0053 168.4798 0005022  78.0369 282.1042 14.37779590433352
ORBCOMM FM27            
1 25481U 98053G   26050.72163040  .00001036  00000+0  37917-3 0  9990
2 25481  45.0041 173.1688 0000955 193.6459 166.4364 14.38878526433312
ORBCOMM FM28            
1 25482U 98053H   26052.19152998  .00000778  00000+0  29563-3 0  9994
2 25482  45.0047 103.4059 0002945 137.0330 223.0749 14.38985487434210
ORBCOMM FM30            
1 25980U 99065A   26051.23197203  .00000792  00000+0  30639-3 0  9995
2 25980  45.0329 355.0759 0004993 184.0816 175.9993 14.37942225370143
ORBCOMM FM31            
1 25981U 99065B   26051.14770788  .00000809  00000+0  31252-3 0  9992
2 25981  45.0243 348.9190 0003319 224.5825 135.4757 14.37865822369683
ORBCOMM FM32            
1 25982U 99065C   26051.91366475  .00000775  00000+0  30690-3 0  9999
2 25982  45.0169   3.5248 0005515 214.1508 145.8986 14.36927809370361
ORBCOMM FM33            
1 25983U 99065D   26051.96011561  .00000675  00000+0  25338-3 0  9990
2 25983  45.0276 255.5649 0007949 232.9474 127.0650 14.40743895371938
ORBCOMM FM36            
1 25984U 99065E   26052.17453225  .00001121  00000+0  40635-3 0  9996
2 25984  45.0406 350.2294 0001613  81.2878 278.8153 14.38934057370276
ORBCOMM FM35            
1 25985U 99065F   26051.22753762  .00000803  00000+0  31088-3 0  9999
2 25985  45.0409   1.7967 0003339 228.3852 131.6711 14.37826815370477
ORBCOMM FM34            
1 25986U 99065G   26052.17012364  .00000734  00000+0  28861-3 0  9999
2 25986  45.0405 357.8329 0002165 167.4050 192.6853 14.37746783370727
ORBCOMM FM38            
1 33060U 08031A   26051.40564149  .00001578  00000+0  22038-3 0  9999
2 33060  48.4377 211.2079 0004112  27.3960 332.7172 14.82643195951568
ORBCOMM FM41            
1 33061U 08031B   26051.48846589  .00001566  00000+0  22135-3 0  9994
2 33061  48.4422 219.4856 0003493   8.6390  26.4676 14.82180667951053
ORBCOMM FM29            
1 33062U 08031C   26051.73197205  .00001536  00000+0  21674-3 0  9991
2 33062  48.4373 225.7784 0005127  11.8590  84.5122 14.82351512951008
ORBCOMM FM39            
1 33063U 08031D   26050.98779576  .00001161  00000+0  17681-3 0  9992
2 33063  48.4393 256.4574 0006381 338.3585  21.7060 14.80741360950503
ORBCOMM FM37            
1 33064U 08031E   26050.74033781  .00001298  00000+0  19342-3 0  9995
2 33064  48.4387 245.7732 0004826 356.4039 104.1605 14.80933063950729
ORBCOMM FM40            
1 33065U 08031F   26051.51793315  .00001769  00000+0  23878-3 0  9990
2 33065  48.4389 221.6522 0005500  17.5513  23.2853 14.83552280951014
VESSELSAT 1             
1 37840U 11058C   26052.17387748  .00000357  00000+0  50418-4 0  9993
2 37840  19.9631  27.1935 0013757  46.2060 313.9480 14.11416444741528
ORBCOMM FM109           
1 40086U 14040A   26052.07499903  .00000436  00000+0  12892-3 0  9990
2 40086  47.0029 280.3993 0001386  33.6362 326.4611 14.58695294617399
ORBCOMM FM107           
1 40087U 14040B   26052.02206938  .00000488  00000+0  13961-3 0  9995
2 40087  47.0046 281.5080 0001269 323.1225  36.9574 14.58775394617463
ORBCOMM FM106           
1 40088U 14040C   26052.09203493  .00000782  00000+0  15947-3 0  9999
2 40088  47.0596  83.0964 0015784 146.9267 213.2615 14.70255399620095
ORBCOMM FM111           
1 40089U 14040D   26050.98132147  .00002078  00000+0  24477-3 0  9991
2 40089  46.9996 264.1608 0028980 299.4257  60.3749 14.88226078627110
ORBCOMM FM104           
1 40090U 14040E   26052.14885888  .00000460  00000+0  13849-3 0  9994
2 40090  47.0062 317.5398 0016705 264.0220  95.8761 14.57139985616927
ORBCOMM FM103           
1 40091U 14040F   26052.00873424  .00000446  00000+0  13108-3 0  9995
2 40091  47.0049 282.2798 0001882 329.0401  31.0373 14.58679628600421
ORBCOMM FM114           
1 41179U 15081A   26051.40803739  .00000529  00000+0  14867-3 0  9999
2 41179  47.0033 194.0593 0001747   9.6440 350.4479 14.58697703540702
ORBCOMM FM119           
1 41180U 15081B   26052.16012482  .00000480  00000+0  13826-3 0  9992
2 41180  46.9999  99.8637 0000455 188.9268 171.1610 14.58642617542068
ORBCOMM FM105           
1 41181U 15081C   26051.25405095  .00000192  00000+0  98328-4 0  9999
2 41181  47.0009 133.4014 0001897 322.5003  37.5744 14.45478003536632
ORBCOMM FM110           
1 41182U 15081D   26051.39724647  .00000670  00000+0  17854-3 0  9997
2 41182  47.0006 193.5867 0003498 253.4460 106.6041 14.58692823540579
ORBCOMM FM118           
1 41183U 15081E   26051.43179658  .00000497  00000+0  14192-3 0  9998
2 41183  47.0028 193.7349 0003558 221.4323 138.6293 14.58688215540687
ORBCOMM FM112           
1 41184U 15081F   26052.18823126  .00000736  00000+0  19257-3 0  9991
2 41184  46.9984  98.6675 0001469 354.6641   5.4228 14.58698090542013
ORBCOMM FM113           
1 41185U 15081G   26052.16545578  .00000674  00000+0  17928-3 0  9996
2 41185  47.0002  99.1410 0000981 355.7107   4.3770 14.58700080541996
ORBCOMM FM115           
1 41186U 15081H   26052.08518205  .00000554  00000+0  14081-3 0  9999
2 41186  46.9987 295.2915 0000497 154.6755 205.4157 14.63084848544217
ORBCOMM FM108           
1 41187U 15081J   26051.92267794  .00000775  00000+0  20074-3 0  9990
2 41187  47.0063  11.8223 0002702   0.1539 359.9347 14.58702032543104
ORBCOMM FM117           
1 41188U 15081K   26051.27169374  .00000704  00000+0  18575-3 0  9999
2 41188  47.0023  13.5713 0002985   7.7352 352.3579 14.58693461543056
ORBCOMM FM116           
1 41189U 15081L   26052.14284718  .00000750  00000+0  19555-3 0  9997
2 41189  47.0019  99.2356 0002742 254.6177 105.4406 14.58691151541996
