QIANFAN-1               
1 60379U 24140A   26242.76471744  .00000031  00000+0  29601-4 0  9997
2 60379  88.9677 272.1881 0017770 173.9911 186.1457 13.51025215102598
QIANFAN-2               
1 60380U 24140B   26242.79360284  .00000037  00000+0  38835-4 0  9993
2 60380  88.9664 271.9891 0013982 145.7948 214.4107 13.51034016102655
QIANFAN-3               
1 60381U 24140C   26242.80190333  .00000030  00000+0  28131-4 0  9993
2 60381  88.9656 272.1010 0014750 157.8360 202.3432 13.51022290102567
QIANFAN-4               
1 60382U 24140D   26242.85112856  .00000030  00000+0  26933-4 0  9991
2 60382  88.9681 272.0593 0014168 148.0125 212.1890 13.51020720102692
QIANFAN-5               
1 60383U 24140E   26242.75241510  .00000043  00000+0  47688-4 0  9995
2 60383  88.9656 272.1306 0015579 169.3420 190.8064 13.51030512102548
QIANFAN-6               
1 60384U 24140F   26242.84704479  .00000030  00000+0  28322-4 0  9994
2 60384  88.9683 271.9378 0014100 153.5242 206.6633 13.51023595102755
QIANFAN-7               
1 60385U 24140G   26242.80372134  .00000163  00000+0  60091-4 0  9996
2 60385  88.9722 262.9961 0012516 259.4105 100.5680 14.27888908107649
QIANFAN-8               
1 60386U 24140H   26242.85542551  .00000034  00000+0  34136-4 0  9992
2 60386  88.9684 272.1777 0017457 157.1204 203.0728 13.51025568102602
QIANFAN-9               
1 60387U 24140J   26242.75653062  .00000020  00000+0  12520-4 0  9990
2 60387  88.9682 272.2580 0017154 157.0096 203.1826 13.51020897102572
QIANFAN-10              
1 60388U 24140K   26242.76064985  .00000026  00000+0  21383-4 0  9995
2 60388  88.9693 271.6323 0016271 135.5947 224.6511 13.51021111102702
QIANFAN-11              
1 60389U 24140L   26242.79778786  .00000022  00000+0  15181-4 0  9995
2 60389  88.9618 272.0190 0015203 155.8400 204.3467 13.51020610102360
QIANFAN-12              
1 60390U 24140M   26242.74427713  .00000042  00000+0  46388-4 0  9998
2 60390  88.9661 272.1816 0013774 163.0414 197.1200 13.51023040102480
QIANFAN-13              
1 60391U 24140N   26242.78949519  .00000045  00000+0  50687-4 0  9996
2 60391  88.9921 272.3670 0013526 165.0070 195.1485 13.51023022102512
QIANFAN-14              
1 60392U 24140P   26242.74016269  .00000032  00000+0  30344-4 0  9994
2 60392  88.9652 272.1560 0017151 167.3451 192.8134 13.51018416102512
QIANFAN-15              
1 60393U 24140Q   26242.74839654  .00000053  00000+0  63920-4 0  9995
2 60393  88.9676 272.1737 0013434 152.2193 207.9679 13.51026974102500
QIANFAN-16              
1 60394U 24140R   26242.73597875  .00000027  00000+0  23082-4 0  9997
2 60394  88.9678 272.3024 0014971 170.0649 190.0801 13.51024805102415
QIANFAN-17              
1 60395U 24140S   26242.80601249  .00000029  00000+0  25451-4 0  9991
2 60395  88.9689 272.3696 0015586 164.0221 196.1425 13.51020979103389
QIANFAN-18              
1 60396U 24140T   26242.78544498  .00000035  00000+0  35323-4 0  9997
2 60396  88.9683 271.8883 0015472 147.5915 212.6189 13.51020472102777
QIANFAN-19              
1 61552U 24185A   26242.84558366  .00000296  00000+0  14713-3 0  9995
2 61552  88.9824  48.0210 0006996 167.7829 192.3529 14.14520372106574
QIANFAN-20              
1 61553U 24185B   26242.82288515  .00000354  00000+0  19619-3 0  9995
2 61553  88.9818  48.6055 0004267 213.2664 146.8252 14.09060979106252
QIANFAN-21              
1 61554U 24185C   26242.81413904  .00000460  00000+0  19802-3 0  9999
2 61554  88.9744  46.4019 0008912 223.7533 136.2953 14.22917299107094
QIANFAN-22              
1 61555U 24185D   26242.77634105  .00000159  00000+0  12603-3 0  9990
2 61555  88.9799  50.6452 0004310 280.0581  80.0104 13.86423346105108
QIANFAN-23              
1 61556U 24185E   26242.80336528  .00000299  00000+0  14314-3 0  9999
2 61556  88.9818  47.7137 0007258 176.7101 183.4137 14.16542483106700
QIANFAN-24              
1 61557U 24185F   26242.80596373  .00000497  00000+0  20970-3 0  9991
2 61557  88.9802  46.6931 0010264 154.6296 205.5402 14.24141399107178
QIANFAN-25              
1 61558U 24185G   26242.76324284  .00000290  00000+0  16801-3 0  9996
2 61558  88.9805  48.6493 0010246 234.3824 125.6404 14.06117336106188
QIANFAN-26              
1 61559U 24185H   26242.81527826  .00000173  00000+0  16008-3 0  9999
2 61559  88.9804  51.5693 0004093 317.8529  42.2322 13.77938557104628
QIANFAN-27              
1 61560U 24185J   26242.79468524  .00000421  00000+0  16532-3 0  9995
2 61560  88.9814  46.3425 0008678 138.6841 221.5012 14.27588691107408
QIANFAN-28              
1 61561U 24185K   26242.77028442  .00000574  00000+0  22349-3 0  9997
2 61561  88.9831  46.3597 0008583 137.1447 223.0418 14.28466875107439
QIANFAN-29              
1 61562U 24185L   26242.80116683  .00000125  00000+0  17489-3 0  9998
2 61562  88.9771  54.3233 0010512  26.1954 333.9727 13.51089470103048
QIANFAN-30              
1 61563U 24185M   26242.75131264  .00000114  00000+0  15967-3 0  9992
2 61563  88.9792  53.9538 0007914  16.2215 343.9188 13.50071322103281
QIANFAN-31              
1 61564U 24185N   26242.80724669  .00000133  00000+0  16694-3 0  9995
2 61564  88.9777  53.3355 0006902   3.9241 356.1967 13.58058754103591
QIANFAN-32              
1 61565U 24185P   26242.79908733  .00000101  00000+0  13849-3 0  9994
2 61565  88.9832  54.1596 0010880  42.0646 318.1338 13.50802585103280
QIANFAN-33              
1 61566U 24185Q   26242.83184166  .00000265  00000+0  18144-3 0  9990
2 61566  88.9800  49.6981 0006174 218.4895 141.5842 13.96743112105605
QIANFAN-34              
1 61567U 24185R   26242.79575072  .00000300  00000+0  18584-3 0  9994
2 61567  88.9777  48.9206 0004810 209.4127 150.6783 14.02507351105947
QIANFAN-35              
1 61568U 24185S   26242.82573382  .00000507  00000+0  19742-3 0  9997
2 61568  88.9813  46.2344 0007862 133.2825 226.9027 14.28340788107444
QIANFAN-36              
1 61569U 24185T   26242.81097832  .00000057  00000+0  64181-4 0  9996
2 61569  88.9768  53.8358 0006776  22.0827 338.0617 13.55644969103299
QIANFAN-37              
1 62238U 24232B   26242.84244656  .00000079  00000+0  10441-3 0  9997
2 62238  89.0131  15.0974 0002441  91.7870 268.3560 13.51027444134429
QIANFAN-38              
1 62239U 24232C   26242.79310907  .00000073  00000+0  93931-4 0  9995
2 62239  89.0137  15.0358 0015597 155.0199 205.1711 13.51025852134479
QIANFAN-39              
1 62240U 24232D   26242.76600243  .00000321  00000+0  12977-3 0  9995
2 62240  89.0123   7.5873 0014039 307.7947  52.1974 14.25549784138574
QIANFAN-40              
1 62241U 24232E   26242.82603086  .00000057  00000+0  69460-4 0  9997
2 62241  89.0165  14.6899 0014423 161.7852 198.3819 13.51025981134841
QIANFAN-41              
1 62242U 24232F   26242.83425477  .00000072  00000+0  92072-4 0  9997
2 62242  89.0136  14.9784 0015106 151.0547 209.1445 13.51027154134501
QIANFAN-42              
1 62243U 24232G   26242.78997977  .00000302  00000+0  12362-3 0  9990
2 62243  89.0122   7.6704 0013060 316.2323  43.7834 14.24637419138535
QIANFAN-43              
1 62244U 24232H   26242.83013448  .00000069  00000+0  87307-4 0  9991
2 62244  89.0140  15.0556 0016501 156.4736 203.7173 13.51026745103112
QIANFAN-44              
1 62245U 24232J   26242.81782333  .00000073  00000+0  94865-4 0  9998
2 62245  89.0138  14.8633 0014797 153.0546 207.1376 13.51027083134584
QIANFAN-45              
1 62246U 24232K   26242.78490516  .00000068  00000+0  87101-4 0  9993
2 62246  89.0142  15.0225 0015466 153.0662 207.1295 13.51025873134500
QIANFAN-46              
1 62247U 24232L   26242.80954160  .00000079  00000+0  10356-3 0  9996
2 62247  89.0138  15.0783 0015367 158.1676 202.0133 13.51026966134460
QIANFAN-47              
1 62248U 24232M   26242.81368825  .00000083  00000+0  10965-3 0  9996
2 62248  89.0134  15.0003 0015809 157.5205 202.6642 13.51026061134494
QIANFAN-48              
1 62249U 24232N   26242.85072414  .00000078  00000+0  10219-3 0  9993
2 62249  89.0138  15.0087 0017996 160.6564 199.5274 13.51020308134508
QIANFAN-49              
1 62250U 24232P   26242.83840014  .00000071  00000+0  91510-4 0  9999
2 62250  89.0137  15.0203 0015238 154.6180 205.5723 13.51027499103098
QIANFAN-50              
1 62251U 24232Q   26242.78897740  .00000073  00000+0  93547-4 0  9996
2 62251  89.0142  15.0477 0016853 156.5900 203.6022 13.51026962103111
QIANFAN-51              
1 62252U 24232R   26242.84660779  .00000079  00000+0  10318-3 0  9994
2 62252  89.0136  15.0197 0014223 159.0013 201.1725 13.51026057103114
QIANFAN-52              
1 62253U 24232S   26242.80135319  .00000086  00000+0  11466-3 0  9991
2 62253  89.0132  14.8876 0016451 152.5686 207.6337 13.51027949103190
QIANFAN-53              
1 62254U 24232T   26242.78080740  .00000073  00000+0  94126-4 0  9997
2 62254  89.0140  15.0140 0015306 153.2555 206.9389 13.51024904103151
QIANFAN-54              
1 62255U 24232U   26242.82193071  .00000065  00000+0  81399-4 0  9994
2 62255  89.0131  14.6653 0002578 155.1903 204.9372 13.51026602134668
QIANFAN-55              
1 62785U 25016A   26242.84799536  .00000023  00000+0  16788-4 0  9997
2 62785  88.9667  76.1124 0016122 319.0192  40.9746 13.51023626 82449
QIANFAN-56              
1 62786U 25016B   26242.86433245  .00000043  00000+0  47906-4 0  9990
2 62786  88.9641  75.8775 0014794 322.3123  37.6991 13.51026772 82499
QIANFAN-57              
1 62787U 25016C   26242.82333878  .00000040  00000+0  43841-4 0  9999
2 62787  88.9671  76.1166 0002535  93.5743 266.5698 13.51026493 82459
QIANFAN-58              
1 62788U 25016D   26242.86851367  .00000042  00000+0  46620-4 0  9992
2 62788  88.9642  75.8640 0012504 314.9734  45.0403 13.51018926 82500
QIANFAN-59              
1 62789U 25016E   26242.81902508  .00000035  00000+0  36175-4 0  9998
2 62789  88.9665  76.0045 0012974 319.0833  40.9343 13.51023198 82497
QIANFAN-60              
1 62790U 25016F   26242.85199355  .00000034  00000+0  33486-4 0  9993
2 62790  88.9646  75.9228 0014419 314.4537  45.5433 13.51026470 82481
QIANFAN-61              
1 62791U 25016G   26242.81088627  .00000033  00000+0  32061-4 0  9996
2 62791  88.9712  76.2667 0013377 314.4683  45.5374 13.51026191 82496
QIANFAN-62              
1 62792U 25016H   26242.81500860  .00000032  00000+0  30988-4 0  9990
2 62792  88.9660  75.9944 0014719 314.1700  45.8241 13.51018643 82489
QIANFAN-63              
1 62793U 25016J   26242.76561306  .00000032  00000+0  30641-4 0  9993
2 62793  88.9666  75.9687 0014925 320.1192  39.8861 13.51021800 82515
QIANFAN-64              
1 62794U 25016K   26242.80679610  .00000034  00000+0  34351-4 0  9991
2 62794  88.9653  75.9035 0012677 313.1574  46.8516 13.51026185 82513
QIANFAN-65              
1 62795U 25016L   26242.80252356  .00000035  00000+0  34974-4 0  9998
2 62795  88.9650  75.9206 0012585 315.1262  44.8871 13.51022367 82492
QIANFAN-66              
1 62796U 25016M   26242.83135233  .00000040  00000+0  43423-4 0  9991
2 62796  88.9669  75.9391 0013556 309.7365  50.2591 13.51028101 82548
QIANFAN-67              
1 62797U 25016N   26242.83551081  .00000040  00000+0  43440-4 0  9994
2 62797  88.9659  75.9386 0013707 317.3059  42.7026 13.51027894 82519
QIANFAN-68              
1 62798U 25016P   26242.82727778  .00000038  00000+0  40506-4 0  9999
2 62798  88.9663  75.9939 0013722 314.9701  45.0337 13.51020607 82496
QIANFAN-69              
1 62799U 25016Q   26242.84366992  .00000020  00000+0  12522-4 0  9997
2 62799  88.9642  75.8060 0014492 316.1459  43.8540 13.51023103 82538
QIANFAN-70              
1 62800U 25016R   26242.86024772  .00000046  00000+0  52351-4 0  9991
2 62800  88.9662  75.9972 0013850 305.6767  54.3094 13.51022202 82493
QIANFAN-71              
1 62801U 25016S   26242.85613700  .00000034  00000+0  33790-4 0  9999
2 62801  88.9656  75.9614 0014499 320.0091  39.9991 13.51025572 82499
QIANFAN-72              
1 62802U 25016T   26242.79856539  .00000042  00000+0  47018-4 0  9999
2 62802  88.9647  75.9553 0017969 326.7393  33.2628 13.51019424 82476
QIANFAN-73              
1 63159U 25046A   26242.82558216  .00000080  00000+0  10441-3 0  9994
2 63159  88.9675 292.9252 0017198  90.2560 270.0562 13.51024225 82667
QIANFAN-74              
1 63160U 25046B   26242.80905394  .00000087  00000+0  11677-3 0  9996
2 63160  88.9676 292.8167 0002044  93.5578 266.5807 13.51018602 82724
QIANFAN-75              
1 63161U 25046C   26242.79691685  .00000116  00000+0  16091-3 0  9998
2 63161  88.9677 293.0552 0018367  93.4146 266.9107 13.51028137 82598
QIANFAN-76              
1 63162U 25046D   26242.79275623  .00000056  00000+0  68194-4 0  9994
2 63162  88.9677 293.0355 0015841  93.9786 266.3176 13.51022755 82601
QIANFAN-77              
1 63163U 25046E   26242.84542622  .00000204  00000+0  13853-3 0  9993
2 63163  88.9677 288.8848 0014159 354.8021   5.3006 13.96243637 84881
QIANFAN-78              
1 63164U 25046F   26242.83421851  .00000035  00000+0  35395-4 0  9991
2 63164  88.9676 292.8929 0017310  95.5071 264.8055 13.51011399 82683
QIANFAN-79              
1 63165U 25046G   26242.78850044  .00000097  00000+0  13131-3 0  9997
2 63165  88.9679 293.0142 0016966  94.3701 265.9389 13.51020352 82625
QIANFAN-80              
1 63166U 25046H   26242.80507874  .00000112  00000+0  15482-3 0  9990
2 63166  88.9676 292.7123 0015867  98.2297 262.0654 13.51027701 82785
QIANFAN-81              
1 63167U 25046J   26242.78436609  .00000110  00000+0  15142-3 0  9996
2 63167  88.9676 292.7818 0017068  89.1794 271.1313 13.51023546 82734
QIANFAN-82              
1 63168U 25046K   26242.81733185  .00000092  00000+0  12283-3 0  9992
2 63168  88.9676 292.8226 0014944  94.9489 265.3369 13.51018674 82725
QIANFAN-83              
1 63169U 25046L   26242.79034127  .00000106  00000+0  12100-3 0  9994
2 63169  88.9678 292.0873 0016052  69.4775 290.8103 13.62062718 83130
QIANFAN-84              
1 63170U 25046M   26242.84611515  .00000073  00000+0  93571-4 0  9999
2 63170  88.9676 292.9523 0017938  91.9176 268.4030 13.51018602 82657
QIANFAN-85              
1 63171U 25046N   26242.84197124  .00000111  00000+0  15293-3 0  9992
2 63171  88.9675 292.8224 0015488  93.8801 266.4121 13.51027420 82723
QIANFAN-86              
1 63172U 25046P   26242.77618003  .00000107  00000+0  14669-3 0  9990
2 63172  88.9678 292.6975 0013376  97.5929 262.6742 13.51023321 82794
QIANFAN-87              
1 63173U 25046Q   26242.82153543  .00000084  00000+0  11092-3 0  9991
2 63173  88.9674 292.7947 0013880  93.2331 267.0409 13.51031277 82733
QIANFAN-88              
1 63174U 25046R   26242.83793167  .00000107  00000+0  14666-3 0  9991
2 63174  88.9676 292.7540 0014321 100.5211 259.7554 13.51027634 82769
QIANFAN-89              
1 63175U 25046S   26242.80085037  .00000110  00000+0  15102-3 0  9999
2 63175  88.9677 292.9467 0018850  92.2244 268.1066 13.51022908 82654
QIANFAN-90              
1 63176U 25046T   26242.82966047  .00000091  00000+0  12123-3 0  9999
2 63176  88.9677 292.9169 0015761  90.9599 269.3358 13.51018982 82676
QIANFAN-91              
1 66033U 25233A   26242.49186723  .00000047  00000+0  54028-4 0  9992
2 66033  89.0018  35.6699 0002122  89.8990 270.2405 13.51027064 43213
QIANFAN-92              
1 66034U 25233B   26242.79634385  .00000054  00000+0  65469-4 0  9997
2 66034  89.0002  35.5986 0002030  95.7295 264.4088 13.51027394 43259
QIANFAN-93              
1 66035U 25233C   26242.80452674  .00000031  00000+0  30145-4 0  9997
2 66035  89.0029  35.6699 0002107  91.8334 268.3059 13.51019385 43259
QIANFAN-94              
1 66036U 25233D   26242.79223426  .00000054  00000+0  64337-4 0  9992
2 66036  89.0027  35.5718 0001949  92.8142 267.3232 13.51019143 43300
QIANFAN-95              
1 66037U 25233E   26242.80044626  .00000040  00000+0  42707-4 0  9990
2 66037  89.0025  35.1129 0002006  87.7909 272.3472 13.51019893 43551
QIANFAN-96              
1 66038U 25233F   26242.82515250  .00000052  00000+0  61935-4 0  9996
2 66038  89.0020  35.6517 0002133  88.4410 271.6986 13.51026680 43250
QIANFAN-97              
1 66039U 25233G   26242.80869720  .00000035  00000+0  35272-4 0  9995
2 66039  89.0024  35.6400 0002093  90.2464 269.8927 13.51018839 43263
QIANFAN-98              
1 66040U 25233H   26242.44660516  .00000036  00000+0  36485-4 0  9997
2 66040  89.0013  35.3994 0001515  91.2343 268.8981 13.51018134 43350
QIANFAN-99              
1 66041U 25233J   26242.45070155  .00000039  00000+0  41734-4 0  9999
2 66041  89.0024  35.6805 0001712  87.9187 272.2160 13.51018356 43213
QIANFAN-100             
1 66042U 25233K   26242.81274350  .00000030  00000+0  27767-4 0  9994
2 66042  89.0036  35.5795 0002123  91.0167 269.1227 13.51017998 43316
QIANFAN-101             
1 66043U 25233L   26242.70245042  .00000430  00000+0  17124-3 0  9998
2 66043  89.0026  32.0092 0012875 257.9500 102.0251 14.26850105 45252
QIANFAN-102             
1 66044U 25233M   26242.68526419  .00000044  00000+0  49817-4 0  9992
2 66044  89.0023  35.5649 0001916  91.6716 268.4654 13.51018274 43298
QIANFAN-103             
1 66045U 25233N   26242.46715660  .00000032  00000+0  30493-4 0  9994
2 66045  89.0024  35.6840 0002139  91.0018 269.1378 13.51019034 43219
QIANFAN-104             
1 66046U 25233P   26242.84154256  .00000031  00000+0  29992-4 0  9996
2 66046  89.0030  35.5519 0001882  94.9529 265.1837 13.51024280 43318
QIANFAN-105             
1 66047U 25233Q   26242.70168735  .00000035  00000+0  34966-4 0  9990
2 66047  89.0044  35.4189 0002010  88.2045 271.9336 13.51024045 43407
QIANFAN-106             
1 66048U 25233R   26242.84571890  .00000040  00000+0  42886-4 0  9992
2 66048  89.0012  35.5940 0001597  91.1985 268.9349 13.51027913 43265
QIANFAN-107             
1 66049U 25233S   26242.70582921  .00000045  00000+0  51322-4 0  9995
2 66049  89.0027  35.6523 0002093  91.5534 268.5857 13.51027084 43254
QIANFAN-108             
1 66050U 25233T   26242.70992505  .00000046  00000+0  52792-4 0  9993
2 66050  89.0020  35.6343 0001649  92.4323 267.7017 13.51019258 43254
QIANFAN-109             
1 68636U 26075A   26242.79780780  .00000089  00000+0  11911-3 0  9993
2 68636  88.9899 313.4030 0002592  91.9234 268.2214 13.51018789 19864
QIANFAN-110             
1 68637U 26075B   26242.80612677  .00000087  00000+0  11539-3 0  9999
2 68637  88.9899 313.4237 0002314 102.5950 257.5460 13.51029855 19860
QIANFAN-111             
1 68638U 26075C   26242.79390318  .00000096  00000+0  12985-3 0  9999
2 68638  88.9898 313.3840 0002312 101.8913 258.2497 13.51019230 19884
QIANFAN-112             
1 68639U 26075D   26242.83087338  .00000094  00000+0  12673-3 0  9992
2 68639  88.9897 313.3883 0002727  95.9538 264.1924 13.51021714 19888
QIANFAN-113             
1 68640U 26075E   26242.80196664  .00000089  00000+0  11907-3 0  9997
2 68640  88.9902 313.3891 0002434 101.6634 258.4791 13.51027686 19885
QIANFAN-114             
1 68641U 26075F   26242.81021215  .00000087  00000+0  11590-3 0  9994
2 68641  88.9898 313.4040 0002309 101.6289 258.5121 13.51025901 19879
QIANFAN-115             
1 68642U 26075G   26242.76498527  .00000088  00000+0  11702-3 0  9999
2 68642  88.9898 313.4158 0002314  97.6485 262.4929 13.51022512 19862
QIANFAN-116             
1 68643U 26075H   26242.82668670  .00000099  00000+0  13513-3 0  9999
2 68643  88.9891 313.3643 0002644  98.5296 261.6155 13.51023265 19880
QIANFAN-117             
1 68644U 26075J   26242.81440450  .00000092  00000+0  12438-3 0  9991
2 68644  88.9895 313.3847 0002462  96.5779 263.5652 13.51021015 19887
QIANFAN-118             
1 68645U 26075K   26242.55102028  .00000091  00000+0  12170-3 0  9991
2 68645  88.9901 313.4232 0002304 105.0513 255.0893 13.51022802 19846
QIANFAN-119             
1 68646U 26075L   26242.52627994  .00000100  00000+0  13636-3 0  9992
2 68646  88.9901 313.4214 0002476  93.6706 266.4728 13.51020822 19846
QIANFAN-120             
1 68647U 26075M   26242.53859830  .00000093  00000+0  12461-3 0  9996
2 68647  88.9903 313.4063 0002422  90.6971 269.4458 13.51030017 19854
QIANFAN-121             
1 68648U 26075N   26242.56343390  .00000099  00000+0  13523-3 0  9995
2 68648  88.9900 313.4071 0002265 102.8696 257.2708 13.51021863 19858
QIANFAN-122             
1 68649U 26075P   26242.55520442  .00000098  00000+0  13292-3 0  9992
2 68649  88.9899 313.4052 0002520  95.2599 264.8840 13.51025289 19842
QIANFAN-123             
1 68650U 26075Q   26242.59626429  .00000100  00000+0  13685-3 0  9990
2 68650  88.9896 313.3886 0002660  91.3780 268.7677 13.51030580 19839
QIANFAN-124             
1 68651U 26075R   26242.54699366  .00000088  00000+0  11714-3 0  9992
2 68651  88.9898 313.4046 0002585  94.9254 265.2193 13.51024910 19859
QIANFAN-125             
1 68652U 26075S   26242.55932126  .00000100  00000+0  13654-3 0  9998
2 68652  88.9898 313.4054 0002295 103.1282 257.0126 13.51021929 19853
QIANFAN-126             
1 68653U 26075T   26242.56745040  .00000100  00000+0  13697-3 0  9994
2 68653  88.9902 313.3731 0002640  91.4806 268.6647 13.51027199 19879
QIANFAN-127             
1 69073U 26104A   26242.79332191 -.01870947  00000+0 -32653+1 0  9995
2 69073  88.9938 333.8607 0002818 337.6358  22.4668 13.47842240 15230
QIANFAN-128             
1 69074U 26104B   26242.80157488 -.01872587  00000+0 -32721+1 0  9990
2 69074  88.9916 333.8881 0008185 264.1739  95.8477 13.47755757 15217
QIANFAN-129             
1 69075U 26104C   26242.75217185 -.01886055  00000+0 -32945+1 0  9999
2 69075  88.9920 333.8271 0004487 246.1725 113.8954 13.47821153 15240
QIANFAN-130             
1 69076U 26104D   26242.78919472 -.01870910  00000+0 -32649+1 0  9995
2 69076  88.9922 333.8887 0002606 340.5779  19.5271 13.47847767 15215
QIANFAN-131             
1 69077U 26104E   26242.81146008  .00000124  00000+0  17325-3 0  9993
2 69077  88.9919 333.8484 0001937 104.7537 255.3828 13.51022522 15232
QIANFAN-132             
1 69078U 26104F   26242.79733490 -.01869408  00000+0 -32629+1 0  9990
2 69078  88.9917 333.9058 0002808 335.3869  24.7146 13.47833309 15203
QIANFAN-133             
1 69079U 26104G   26242.80595623 -.01894953  00000+0 -33151+1 0  9991
2 69079  88.9920 333.8546 0002866 297.3529  62.7328 13.47745698 15222
QIANFAN-134             
1 69080U 26104H   26242.76055198 -.01882199  00000+0 -32875+1 0  9997
2 69080  88.9925 333.8848 0003348 277.5397  82.5372 13.47817856 15217
QIANFAN-135             
1 69081U 26104J   26242.81540536  .00000120  00000+0  16731-3 0  9998
2 69081  88.9922 333.8712 0001974 117.0659 243.0694 13.51029085 15223
QIANFAN-136             
1 69082U 26104K   26242.74817109 -.01880802  00000+0 -32803+1 0  9995
2 69082  88.9921 333.8806 0001345 273.8592  86.2404 13.47910345 15214
QIANFAN-137             
1 69083U 26104L   26242.74558720  .00000121  00000+0  16922-3 0  9999
2 69083  88.9934 333.7557 0002296 105.9278 254.2126 13.51028646 15287
QIANFAN-138             
1 69084U 26104M   26242.76870826 -.01884702  00000+0 -32941+1 0  9990
2 69084  88.9914 333.8797 0002378   0.7159 359.3994 13.47780800 15219
QIANFAN-139             
1 69085U 26104N   26242.75805458  .00000127  00000+0  17742-3 0  9992
2 69085  88.9920 333.8622 0002395 110.0261 250.1148 13.51027007 15220
QIANFAN-140             
1 69086U 26104P   26242.76600468  .00000130  00000+0  18228-3 0  9992
2 69086  88.9921 333.8647 0002083 118.1061 242.0300 13.51019273 15226
QIANFAN-141             
1 69087U 26104Q   26241.88441182 -.01912928  00000+0 -33638+1 0  9990
2 69087  88.9913 333.9193 0005143 243.8587 116.2034 13.47453067 15127
QIANFAN-142             
1 69088U 26104R   26242.78106758 -.01884361  00000+0 -32964+1 0  9998
2 69088  88.9912 333.8276 0002841 345.0253  15.0812 13.47723265 15248
QIANFAN-143             
1 69089U 26104S   26242.77703123 -.01884449  00000+0 -32959+1 0  9998
2 69089  88.9923 333.8325 0003418 347.0251  13.0810 13.47736433 15244
QIANFAN-144             
1 69090U 26104T   26242.78517326 -.01883492  00000+0 -32955+1 0  9992
2 69090  88.9922 333.8502 0002678 334.2886  25.8130 13.47709969 15230
QIANFAN-145             
1 69104U 26108A   26242.78928066 -.01858726  00000+0 -32345+1 0  9994
2 69104  89.0165  14.5897 0009435 224.1566 135.8831 13.47985014 14514
QIANFAN-146             
1 69105U 26108B   26242.82251932 -.01884843  00000+0 -32946+1 0  9997
2 69105  89.0166  14.4229 0008530 256.7334 103.2864 13.47762995 14610
QIANFAN-147             
1 69106U 26108C   26242.79766971 -.01864992  00000+0 -32523+1 0  9992
2 69106  89.0167  14.5929 0004701  63.0064 297.1565 13.47876808 14503
QIANFAN-148             
1 69107U 26108D   26242.78567580 -.01953574  00000+0 -33843+1 0  9998
2 69107  89.0160  14.5854 0002739 328.6433  31.4553 13.48517788 14509
QIANFAN-149             
1 69108U 26108E   26242.79333061 -.01857615  00000+0 -32341+1 0  9996
2 69108  89.0160  14.6057 0003589 353.5850   6.5252 13.47966304 14500
QIANFAN-150             
1 69109U 26108F   26242.80164265 -.01865861  00000+0 -32580+1 0  9994
2 69109  89.0165  14.5572 0004560  55.7258 304.4322 13.47796665 14521
QIANFAN-151             
1 69110U 26108G   26242.83073725 -.01884150  00000+0 -32934+1 0  9994
2 69110  89.0164  14.5779 0004475 318.9844  41.0968 13.47772956 14517
QIANFAN-152             
1 69111U 26108H   26242.80996384 -.01875898  00000+0 -32754+1 0  9996
2 69111  89.0161  14.5726 0003266  57.0106 303.1357 13.47825156 14522
QIANFAN-153             
1 69112U 26108J   26242.80583003 -.01883121  00000+0 -32860+1 0  9993
2 69112  89.0156  14.5503 0001501  96.6686 263.4634 13.47883411 14526
QIANFAN-154             
1 69113U 26108K   26242.81420399 -.01876341  00000+0 -32774+1 0  9993
2 69113  89.0167  14.5960 0002943 348.8710  11.2374 13.47801484 14516
QIANFAN-155             
1 69114U 26108L   26242.15312936 -.00000074  00000+0 -13273-3 0  9995
2 69114  89.0167  14.6270 0002061 108.9163 251.2212 13.51033841 14437
QIANFAN-156             
1 69115U 26108M   26242.84026484  .00000080  00000+0  10559-3 0  9991
2 69115  89.0183  14.5570 0001819 100.9825 259.1531 13.51034092 14547
QIANFAN-157             
1 69116U 26108N   26242.82666120 -.01884095  00000+0 -32914+1 0  9992
2 69116  89.0160  14.4853 0009596 122.6736 237.5340 13.47795466 14573
QIANFAN-158             
1 69117U 26108P   26242.84443953  .00000081  00000+0  10740-3 0  9990
2 69117  89.0166  14.5246 0001848  98.7618 261.3743 13.51032335 14555
QIANFAN-159             
1 69118U 26108Q   26242.83467464 -.01884691  00000+0 -32950+1 0  9997
2 69118  89.0153  14.5334 0003944  14.0336 346.0922 13.47761517 14542
QIANFAN-160             
1 69119U 26108R   26242.77869424  .00000081  00000+0  10667-3 0  9997
2 69119  89.0172  14.5736 0002153 111.2397 248.8984 13.51020638 14520
QIANFAN-161             
1 69120U 26108S   26242.78278175  .00000070  00000+0  89913-4 0  9996
2 69120  89.0180  14.4885 0001876  97.7839 262.3525 13.51035588 14572
QIANFAN-162             
1 69121U 26108T   26242.84754683 -.02002159  00000+0 -34510+1 0  9990
2 69121  89.0165  14.5097 0001573  58.0958 302.0345 13.48239570 14551
QIANFAN-163             
1 69325U 26121A   26242.66501885  .00000113  00000+0  15722-3 0  9996
2 69325  89.0132 293.1055 0001607 123.1650 236.9656 13.51021543 12226
QIANFAN-164             
1 69326U 26121B   26242.70615749  .00000114  00000+0  15815-3 0  9991
2 69326  89.0131 293.0922 0001690 105.9216 254.2121 13.51020106 12231
QIANFAN-165             
1 69382U 26124A   26242.78989615  .00000134  00000+0  18863-3 0  9998
2 69382  89.0067 354.1019 0001457 107.2970 252.8341 13.51017937 12113
QIANFAN-166             
1 69383U 26124B   26242.79405262  .00000142  00000+0  20208-3 0  9996
2 69383  89.0085 354.1085 0001926  97.2491 262.8879 13.51018367 12119
QIANFAN-167             
1 69384U 26124C   26242.79818127  .00000133  00000+0  18720-3 0  9991
2 69384  89.0059 354.1192 0002036 108.2344 251.9029 13.51027522 12101
QIANFAN-168             
1 69385U 26124D   26242.80214959  .00000127  00000+0  17829-3 0  9999
2 69385  89.0055 354.0993 0001749  93.3643 266.7709 13.51029545 12119
QIANFAN-169             
1 69386U 26124E   26242.80553468 -.02024867  00000+0 -34681+1 0  9994
2 69386  89.0048 354.1001 0006141 225.6442 134.4205 13.48686145 12114
QIANFAN-170             
1 69387U 26124F   26242.73491872 -.02013938  00000+0 -34600+1 0  9995
2 69387  89.0068 354.0752 0013468 306.4431  53.5477 13.48438138 12125
QIANFAN-171             
1 69388U 26124G   26242.74383547 -.02022598  00000+0 -34444+1 0  9994
2 69388  89.0083 354.0842 0010628 314.1736  45.8540 13.49035533 12120
QIANFAN-172             
1 69389U 26124H   26242.81464021  .00000126  00000+0  17582-3 0  9996
2 69389  89.0069 354.0697 0001527 102.3144 257.8178 13.51025520 12132
QIANFAN-173             
1 69390U 26124J   26242.74868461  .00000147  00000+0  20919-3 0  9997
2 69390  89.0058 354.0751 0001866  91.3287 268.8078 13.51039436 12125
QIANFAN-174             
1 69391U 26124K   26242.75960229 -.01884352  00000+0 -32918+1 0  9994
2 69391  89.0035 354.0353 0002833 341.0102  19.0941 13.47812623 12133
QIANFAN-175             
1 69392U 26124L   26242.76519942  .00000122  00000+0  17049-3 0  9991
2 69392  89.0091 354.0692 0001972  96.2190 263.9185 13.51016411 12137
QIANFAN-176             
1 69393U 26124M   26242.76930640  .00000116  00000+0  16098-3 0  9990
2 69393  89.0052 354.0565 0001973  96.7724 263.3651 13.51017235 12129
QIANFAN-177             
1 69394U 26124N   26242.77760751  .00000126  00000+0  17640-3 0  9991
2 69394  89.0062 354.0422 0001897 107.6212 252.5146 13.51016009 12141
QIANFAN-178             
1 69395U 26124P   26242.77341875  .00000124  00000+0  17297-3 0  9990
2 69395  89.0008 354.0095 0001987  96.6609 263.4769 13.51022234 12155
QIANFAN-179             
1 69396U 26124Q   26242.78172242  .00000126  00000+0  17722-3 0  9997
2 69396  89.0040 354.0202 0001994  95.9659 264.1720 13.51016542 12157
QIANFAN-180             
1 69397U 26124R   26242.78569823  .00000131  00000+0  18407-3 0  9990
2 69397  89.0046 354.0395 0010849 315.2321  44.7954 13.51008876 12141
QIANFAN-181             
1 69398U 26124S   26242.75282314  .00000043  00000+0  47922-4 0  9992
2 69398  89.0069 354.1318 0008158 280.6679  79.3553 13.51113321 12099
QIANFAN-182             
1 69399U 26124T   26242.75698689  .00000135  00000+0  19037-3 0  9996
2 69399  89.0044 354.1068 0001928  97.5519 262.5851 13.51024356 12097
QIANFAN-183             
1 69401U 26125A   26242.79162183  .00000034  00000+0  33661-4 0  9998
2 69401  88.9845 272.4283 0001796  97.2955 262.8400 13.51027026 12015
QIANFAN-184             
1 69402U 26125B   26242.79916659 -.02043809  00000+0 -34954+1 0  9997
2 69402  88.9891 272.4445 0002598 257.3585 102.7274 13.48825191 12012
QIANFAN-185             
1 69403U 26125C   26242.82313786 -.01914823  00000+0 -33394+1 0  9993
2 69403  88.9908 272.3787 0003994  38.8300 321.3136 13.47992327 12053
QIANFAN-186             
1 69404U 26125D   26242.79553812  .00000015  00000+0  51458-5 0  9998
2 69404  88.9898 272.4442 0001957  94.4412 265.6962 13.51007811 12013
QIANFAN-187             
1 69405U 26125E   26242.72910037 -.02057615  00000+0 -35288+1 0  9998
2 69405  88.9895 272.4336 0003945 183.6823 176.4298 13.48673820 12015
QIANFAN-188             
1 69406U 26125F   26242.81060852 -.01873960  00000+0 -32737+1 0  9994
2 69406  88.9893 272.4253 0002508 326.2435  33.8554 13.47788028 12028
QIANFAN-189             
1 69407U 26125G   26242.81881160 -.01886491  00000+0 -32937+1 0  9993
2 69407  88.9875 272.4228 0003663 292.4502  67.6259 13.47853085 12015
QIANFAN-190             
1 69408U 26125H   26242.80646110 -.01871230  00000+0 -32675+1 0  9991
2 69408  88.9877 272.4217 0003786  54.1507 305.9994 13.47808158 12026
QIANFAN-191             
1 69409U 26125J   26242.83129861 -.01883324  00000+0 -32915+1 0  9998
2 69409  88.9891 272.4283 0001520 336.6606  23.4474 13.47783323 12029
QIANFAN-192             
1 69410U 26125K   26242.81462771 -.01871455  00000+0 -32698+1 0  9998
2 69410  88.9897 272.4291 0004593  26.8823 333.2564 13.47770177 12023
QIANFAN-193             
1 69411U 26125L   26242.76550451 -.01883348  00000+0 -32916+1 0  9993
2 69411  88.9875 272.4148 0006289 162.6812 197.4553 13.47774582 12024
QIANFAN-194             
1 69412U 26125M   26242.83538844 -.01883526  00000+0 -32933+1 0  9991
2 69412  88.9908 272.4158 0002894 270.0723  90.0095 13.47753890 12024
QIANFAN-195             
1 69413U 26125N   26242.76910530 -.01883109  00000+0 -33305+1 0  9991
2 69413  88.9909 272.4070 0027578 309.4113  50.4594 13.46866990 12035
QIANFAN-196             
1 69414U 26125P   26242.77786007 -.01883455  00000+0 -32937+1 0  9997
2 69414  88.9913 272.4092 0001909 337.3911  22.7154 13.47744589 12035
QIANFAN-197             
1 69415U 26125Q   26242.78604113 -.01883681  00000+0 -32964+1 0  9997
2 69415  88.9888 272.3850 0003373 284.9887  75.0888 13.47698081 12034
QIANFAN-198             
1 69416U 26125R   26242.77370213 -.01884836  00000+0 -32957+1 0  9993
2 69416  88.9882 272.4002 0004640  46.7149 313.4386 13.47751861 12030
QIANFAN-199             
1 69417U 26125S   26242.70899100 -.02087809  00000+0 -35579+1 0  9997
2 69417  88.9881 272.3578 0012771 295.6158  64.3672 13.49113977 12050
QIANFAN-200             
1 69418U 26125T   26242.82714338 -.01884598  00000+0 -32933+1 0  9990
2 69418  88.9894 272.4282 0004673  41.2599 318.8903 13.47790878 12024
QIANFAN-201             
1 69800U 26153A   26242.84371192 -.01931718  00000+0 -11902+1 0  9995
2 69800  88.9969 353.7492 0011069  76.6328 283.6089 14.09400180  8153
QIANFAN-202             
1 69801U 26153B   26242.81644663 -.01910279  00000+0 -11511+1 0  9994
2 69801  88.9970 353.7450 0013796  66.1963 294.0667 14.10559054  8142
QIANFAN-203             
1 69802U 26153C   26242.78936845 -.01935228  00000+0 -12296+1 0  9999
2 69802  88.9967 353.7787 0010583  66.7048 293.5248 14.07713386  8137
QIANFAN-204             
1 69803U 26153D   26242.75661209 -.01903244  00000+0 -11776+1 0  9991
2 69803  88.9970 353.7741 0009316  80.9623 279.2615 14.09118714  8136
QIANFAN-205             
1 69804U 26153E   26242.75068174  .00000372  00000+0  20266-3 0  9998
2 69804  88.9975 353.7905 0009259  46.6343 313.5611 14.10090805  8127
QIANFAN-206             
1 69805U 26153F   26242.76222523  .00000387  00000+0  18904-3 0  9992
2 69805  88.9975 353.7553 0009069  52.7932 307.4082 14.15962716  8148
QIANFAN-207             
1 69806U 26153G   26242.76884201 -.01916890  00000+0 -12187+1 0  9992
2 69806  88.9969 353.7753 0009485  60.2377 299.9748 14.07646816  8137
QIANFAN-208             
1 69807U 26153H   26242.79657321 -.01960328  00000+0 -11686+1 0  9995
2 69807  88.9967 353.7609 0010720  91.2280 269.0134 14.11273651  8154
QIANFAN-209             
1 69808U 26153J   26242.78466405  .00000049  00000+0  19465-4 0  9995
2 69808  88.9976 353.7775 0009202  45.0599 315.1331 14.10888149  8135
QIANFAN-210             
1 69809U 26153K   26242.76394676 -.01917791  00000+0 -12142+1 0  9999
2 69809  88.9970 353.7751 0010330  64.9893 295.2361 14.07874987  8137
QIANFAN-211             
1 69810U 26153L   26242.77735411  .00000311  00000+0  15493-3 0  9991
2 69810  88.9976 353.7577 0009167  48.8815 311.3162 14.14530864  8143
QIANFAN-212             
1 69811U 26153M   26242.79168985  .00000399  00000+0  20640-3 0  9996
2 69811  88.9975 353.7596 0010524  50.5381 309.6735 14.13085745  8149
QIANFAN-213             
1 69812U 26153N   26242.79416071 -.01942082  00000+0 -12092+1 0  9995
2 69812  88.9969 353.7601 0010350  79.8214 280.4137 14.08848503  8141
QIANFAN-214             
1 69813U 26153P   26242.80627778 -.01914568  00000+0 -10982+1 0  9990
2 69813  88.9969 353.7248 0008743  69.1731 291.0391 14.13287685  8164
QIANFAN-215             
1 69814U 26153Q   26242.83720701  .00000462  00000+0  20327-3 0  9997
2 69814  88.9974 353.6909 0009619  56.2046 304.0060 14.21799776  8181
QIANFAN-216             
1 69815U 26153R   26242.76849469 -.01916355  00000+0 -10771+1 0  9992
2 69815  88.9968 353.7189 0007879  61.1395 299.0582 14.14399180  8161
QIANFAN-217             
1 69816U 26153S   26242.81000973 -.01926522  00000+0 -91625+0 0  9991
2 69816  88.9968 353.6684 0013909  73.7629 286.5092 14.23316319  8194
QIANFAN-218             
1 69817U 26153T   26242.80960117  .00000529  00000+0  21229-3 0  9990
2 69817  88.9977 353.6698 0009013  57.2768 302.9294 14.26843947  8194
QIANFAN-219             
1 69848U 26155A   26242.84693150  .00000022  00000+0  11108-4 0  9994
2 69848  89.0059  55.8006 0037829  66.2783 294.2339 13.66943091  7936
QIANFAN-220             
1 69849U 26155B   26242.79063323  .00000049  00000+0  37018-4 0  9999
2 69849  89.0066  55.8500 0034430  66.6628 293.8154 13.76455068  7901
QIANFAN-221             
1 69850U 26155C   26242.82984979 -.02053635  00000+0 -16442+1 0  9991
2 69850  89.0054  55.6894 0036498  75.1153 285.4060 13.94647470  7990
QIANFAN-222             
1 69851U 26155D   26242.79535657  .00000021  00000+0  10478-4 0  9997
2 69851  89.0063  55.8486 0035289  66.2610 294.2244 13.65055072  7908
QIANFAN-223             
1 69852U 26155E   26242.78311145  .00000021  00000+0  10384-4 0  9997
2 69852  89.0067  55.8488 0035124  66.1212 294.3622 13.65249189  7905
QIANFAN-224             
1 69853U 26155F   26242.84556503 -.02112735  00000+0 -26283+1 0  9995
2 69853  89.0034  55.8102 0040975  68.7994 291.7537 13.68581184  7923
QIANFAN-225             
1 69854U 26155G   26242.79398998  .00000021  00000+0  10435-4 0  9998
2 69854  89.0055  55.8464 0035899  65.3076 295.1813 13.63644639  7904
QIANFAN-226             
1 69855U 26155H   26242.68372215 -.02065677  00000+0 -27261+1 0  9994
2 69855  89.0031  55.8464 0037781  65.0787 295.4290 13.64907116  7890
QIANFAN-227             
1 69856U 26155J   26242.80361830  .00000022  00000+0  10449-4 0  9993
2 69856  89.0060  55.8311 0036014  67.5017 292.9951 13.69255253  7917
QIANFAN-228             
1 69857U 26155K   26242.79131227  .00000025  00000+0  13504-4 0  9995
2 69857  89.0060  55.8300 0036611  68.3161 292.1892 13.68736512  7915
QIANFAN-229             
1 69858U 26155L   26242.78383200  .00000027  00000+0  15576-4 0  9998
2 69858  89.0062  55.8102 0035295  65.6833 294.8008 13.70426637  7927
QIANFAN-230             
1 69859U 26155M   26242.80981609  .00000026  00000+0  15032-4 0  9995
2 69859  89.0059  55.8467 0035579  66.2849 294.2039 13.69438330  7904
QIANFAN-231             
1 69860U 26155N   26242.84061623 -.02076898  00000+0 -26267+1 0  9998
2 69860  89.0053  55.8012 0043391  65.7273 294.8411 13.67455710  7934
QIANFAN-232             
1 69861U 26155P   26242.74468184 -.02067162  00000+0 -25796+1 0  9991
2 69861  89.0036  55.8037 0027461  53.4024 306.9658 13.68497667  7926
QIANFAN-233             
1 69862U 26155Q   26242.82136817  .00000020  00000+0  74340-5 0  9996
2 69862  89.0059  55.7978 0037110  64.9847 295.5162 13.70464405  7938
QIANFAN-234             
1 69863U 26155R   26242.51065941 -.01986240  00000+0 -20893+1 0  9991
2 69863  89.0044  55.8063 0034596  66.6241 293.8558 13.78575623  7901
QIANFAN-235             
1 69864U 26155S   26242.69863480 -.02026369  00000+0 -14330+1 0  9992
2 69864  89.0057  55.6886 0030022  82.8610 277.5982 14.01736934  7986
QIANFAN-236             
1 69865U 26155T   26242.53841895  .00000023  00000+0  11112-4 0  9996
2 69865  89.0073  55.8500 0034838  65.4890 294.9897 13.69128241  7882
QIANFAN-237             
1 69866U 26155U   26242.78858792  .00000028  00000+0  16093-4 0  9996
2 69866  89.0061  55.7935 0036729  64.9831 295.5140 13.74314711  7929
QIANFAN-238             
1 69867U 26155V   26242.81225365  .00000023  00000+0  11667-4 0  9992
2 69867  89.0064  55.7961 0026138  61.3174 299.0610 13.67734800  7935
