QIANFAN-1               
1 60379U 24140A   26099.60197781  .00000038  00000+0  40624-4 0  9991
2 60379  88.9678 287.0657 0016055 230.6501 129.3229 13.51002583 83267
QIANFAN-2               
1 60380U 24140B   26099.55656088  .00000058  00000+0  70870-4 0  9995
2 60380  88.9665 286.8934 0012075 199.0918 160.9782 13.51006799 83312
QIANFAN-3               
1 60381U 24140C   26099.56481244  .00000044  00000+0  49072-4 0  9992
2 60381  88.9657 287.0164 0012838 213.1178 146.9171 13.51002857 83222
QIANFAN-4               
1 60382U 24140D   26099.61428242  .00000067  00000+0  85553-4 0  9997
2 60382  88.9682 286.9384 0012242 201.8133 158.2498 13.51004057 83353
QIANFAN-5               
1 60383U 24140E   26099.58956532  .00000043  00000+0  47821-4 0  9992
2 60383  88.9656 287.0389 0013818 225.7718 134.2299 13.51004782 83219
QIANFAN-6               
1 60384U 24140F   26099.61015689  .00000045  00000+0  50931-4 0  9994
2 60384  88.9683 286.8146 0012183 208.1918 151.8575 13.51004932 83410
QIANFAN-7               
1 60385U 24140G   26099.55877316  .00000202  00000+0  75684-4 0  9998
2 60385  88.9711 279.8614 0015569  21.6804 338.5046 14.27787365 87208
QIANFAN-8               
1 60386U 24140H   26099.54427065  .00000061  00000+0  75408-4 0  9997
2 60386  88.9685 287.0607 0015550 212.3070 147.7131 13.51006551 83259
QIANFAN-9               
1 60387U 24140J   26099.59377989  .00000042  00000+0  45701-4 0  9994
2 60387  88.9683 287.1287 0015245 211.7891 148.2341 13.51000991 83248
QIANFAN-10              
1 60388U 24140K   26099.59783348  .00000051  00000+0  59959-4 0  9995
2 60388  88.9693 286.4868 0014392 187.5463 172.5474 13.50999862 83378
QIANFAN-11              
1 60389U 24140L   26099.56074705  .00000049  00000+0  56767-4 0  9994
2 60389  88.9619 286.9899 0013294 210.8024 149.2348 13.51006699 83020
QIANFAN-12              
1 60390U 24140M   26099.58137897  .00000059  00000+0  72511-4 0  9996
2 60390  88.9662 287.0826 0011912 218.9972 141.0321 13.51004224 83155
QIANFAN-13              
1 60391U 24140N   26099.55253900  .00000068  00000+0  86216-4 0  9995
2 60391  88.9674 287.1999 0011662 221.9570 138.0689 13.51004519 83173
QIANFAN-14              
1 60392U 24140P   26099.57715290  .00000057  00000+0  69153-4 0  9992
2 60392  88.9653 287.0699 0015349 223.2036 136.7912 13.51004821 83186
QIANFAN-15              
1 60393U 24140Q   26099.58551423  .00000049  00000+0  56821-4 0  9999
2 60393  88.9676 287.0536 0011511 206.4838 153.5727 13.51007868 83176
QIANFAN-16              
1 60394U 24140R   26099.57311103  .00000052  00000+0  62332-4 0  9996
2 60394  88.9679 287.1785 0013192 226.8310 133.1739 13.51001407 83085
QIANFAN-17              
1 60395U 24140S   26099.56894251  .00000044  00000+0  50202-4 0  9990
2 60395  88.9690 287.2377 0013725 220.0679 139.9461 13.51007670 84044
QIANFAN-18              
1 60396U 24140T   26099.54843869  .00000061  00000+0  75544-4 0  9993
2 60396  88.9684 286.7649 0013537 201.2717 158.7873 13.51006836 83430
QIANFAN-19              
1 61552U 24185A   26099.59245586  .00000554  00000+0  28228-3 0  9997
2 61552  88.9805  64.4077 0004702 297.5288  62.5421 14.14424920 86321
QIANFAN-20              
1 61553U 24185B   26099.58362300  .00000475  00000+0  26660-3 0  9991
2 61553  88.9801  64.8509 0005137 356.2167   3.8977 14.08971055 86080
QIANFAN-21              
1 61554U 24185C   26099.55992381  .00000718  00000+0  31390-3 0  9993
2 61554  88.9724  63.1510 0010290 353.8653   6.2411 14.22780445 86726
QIANFAN-22              
1 61555U 24185D   26099.58321426  .00000091  00000+0  67573-4 0  9990
2 61555  88.9785  66.3083 0006942  16.1363 344.0028 13.86358390 85264
QIANFAN-23              
1 61556U 24185E   26099.61336223  .00000676  00000+0  33298-3 0  9991
2 61556  88.9798  64.1598 0005634 310.9213  49.1487 14.16440074 86439
QIANFAN-24              
1 61557U 24185F   26099.60365908  .00000607  00000+0  25850-3 0  9992
2 61557  88.9782  63.3737 0006535 278.4915  81.5536 14.23990289 86797
QIANFAN-25              
1 61558U 24185G   26099.58017200  .00000434  00000+0  25628-3 0  9990
2 61558  88.9792  64.8252 0009056 332.4822  27.5880 14.06028420 86068
QIANFAN-26              
1 61559U 24185H   26099.61289314  .00000306  00000+0  29258-3 0  9993
2 61559  88.9789  67.0015 0006928  33.5282 326.6322 13.77881711 84903
QIANFAN-27              
1 61560U 24185J   26099.58946341  .00000493  00000+0  19497-3 0  9992
2 61560  88.9794  63.1002 0005056 261.6737  98.3884 14.27484549 86973
QIANFAN-28              
1 61561U 24185K   26099.57976444  .00000890  00000+0  35107-3 0  9996
2 61561  88.9811  63.1095 0004614 260.1649  99.9025 14.28288264 86994
QIANFAN-29              
1 61562U 24185L   26099.57070277  .00000215  00000+0  31357-3 0  9990
2 61562  88.9760  69.1063 0011875  72.6730 287.5720 13.51058894 83705
QIANFAN-30              
1 61563U 24185M   26099.56077593  .00000183  00000+0  26860-3 0  9995
2 61563  88.9780  68.6780 0009569  61.8874 298.3242 13.50031369 83968
QIANFAN-31              
1 61564U 24185N   26099.57399483  .00000231  00000+0  30315-3 0  9996
2 61564  88.9765  68.2913 0008880  54.6086 305.5898 13.58018367 84157
QIANFAN-32              
1 61565U 24185P   26099.61235492  .00000137  00000+0  19426-3 0  9996
2 61565  88.9823  68.8430 0011866  83.5622 276.6880 13.50773796 83950
QIANFAN-33              
1 61566U 24185Q   26099.62010498  .00000426  00000+0  29764-3 0  9992
2 61566  88.9782  65.6374 0006074 337.3714  22.7194 13.96654423 85612
QIANFAN-34              
1 61567U 24185R   26099.60129408  .00000477  00000+0  30191-3 0  9995
2 61567  88.9759  65.0470 0004578 348.9786  11.1293 14.02416526 85870
QIANFAN-35              
1 61568U 24185S   26099.55357906  .00000814  00000+0  32131-3 0  9997
2 61568  88.9792  63.0219 0003883 255.0587 105.0178 14.28185184 86992
QIANFAN-36              
1 61569U 24185T   26099.61909217  .00000137  00000+0  18005-3 0  9995
2 61569  88.9757  68.7372 0008223  66.7268 293.4751 13.55620299 83897
QIANFAN-37              
1 62238U 24232B   26099.60547531  .00000165  00000+0  23686-3 0  9990
2 62238  89.0104  29.4506 0002730  84.4109 275.7353 13.51012971115086
QIANFAN-38              
1 62239U 24232C   26099.55609066  .00000153  00000+0  21776-3 0  9992
2 62239  89.0111  29.3794 0012951 208.6924 151.3516 13.51011427115135
QIANFAN-39              
1 62240U 24232D   26099.56897947  .00000584  00000+0  24075-3 0  9995
2 62240  89.0100  23.8589 0018403  56.3722 303.9224 14.25476626118174
QIANFAN-40              
1 62241U 24232E   26099.58901347  .00000151  00000+0  21568-3 0  9992
2 62241  89.0139  28.9938 0011788 217.1757 142.8579 13.51010982115509
QIANFAN-41              
1 62242U 24232F   26099.59725547  .00000165  00000+0  23658-3 0  9997
2 62242  89.0109  29.3247 0012495 203.8816 156.1757 13.51012440115168
QIANFAN-42              
1 62243U 24232G   26099.57172339  .00000550  00000+0  23065-3 0  9991
2 62243  89.0098  23.9233 0017339  62.1230 298.1717 14.24568070118149
QIANFAN-43              
1 62244U 24232H   26099.59309626  .00000157  00000+0  22513-3 0  9995
2 62244  89.0113  29.3957 0013858 210.4565 149.5783 13.51012298 83779
QIANFAN-44              
1 62245U 24232J   26099.58081652  .00000159  00000+0  22770-3 0  9998
2 62245  89.0112  29.2058 0012172 206.3389 153.7145 13.51010245115243
QIANFAN-45              
1 62246U 24232K   26099.54783766  .00000149  00000+0  21216-3 0  9993
2 62246  89.0115  29.3597 0012840 206.3702 153.6797 13.51013988115167
QIANFAN-46              
1 62247U 24232L   26099.57255293  .00000172  00000+0  24767-3 0  9996
2 62247  89.0111  29.4214 0012750 212.4985 147.5383 13.51010840115125
QIANFAN-47              
1 62248U 24232M   26099.57666938  .00000163  00000+0  23356-3 0  9992
2 62248  89.0107  29.3493 0013196 211.7407 148.2950 13.51010670115157
QIANFAN-48              
1 62249U 24232N   26099.61370389  .00000164  00000+0  23517-3 0  9990
2 62249  89.0111  29.3520 0015364 215.3568 144.6566 13.51010837115160
QIANFAN-49              
1 62250U 24232P   26099.60138828  .00000161  00000+0  23084-3 0  9997
2 62250  89.0110  29.3648 0012594 208.1952 151.8518 13.51010102 83752
QIANFAN-50              
1 62251U 24232Q   26099.55197405  .00000147  00000+0  20903-3 0  9999
2 62251  89.0115  29.3843 0014198 210.5987 149.4338 13.51011086 83779
QIANFAN-51              
1 62252U 24232R   26099.60959068  .00000165  00000+0  23745-3 0  9994
2 62252  89.0109  29.3652 0011621 213.3998 146.6421 13.51011630 83779
QIANFAN-52              
1 62253U 24232S   26099.56443296  .00000157  00000+0  22400-3 0  9999
2 62253  89.0106  29.2388 0013829 205.8200 154.2263 13.51008045 83850
QIANFAN-53              
1 62254U 24232T   26099.54375495  .00000160  00000+0  22931-3 0  9996
2 62254  89.0113  29.3542 0012674 206.5976 153.4526 13.51010926 83817
QIANFAN-54              
1 62255U 24232U   26099.58493505  .00000149  00000+0  21299-3 0  9997
2 62255  89.0104  29.0184 0000083  74.3771 285.7389 13.51010621115322
QIANFAN-55              
1 62785U 25016A   26099.61107438  .00000042  00000+0  46464-4 0  9991
2 62785  88.9686  90.9915 0017883  15.0997 345.0684 13.51007383 63107
QIANFAN-56              
1 62786U 25016B   26099.55345799  .00000055  00000+0  66743-4 0  9995
2 62786  88.9660  90.8022 0016627  18.1298 342.0443 13.50999843 63145
QIANFAN-57              
1 62787U 25016C   26099.58638445  .00000054  00000+0  64638-4 0  9992
2 62787  88.9691  90.9890 0002457 105.9089 254.2334 13.51006813 63110
QIANFAN-58              
1 62788U 25016D   26099.55755105  .00000061  00000+0  75032-4 0  9991
2 62788  88.9661  90.7874 0014270  11.9548 348.1939 13.51000582 63155
QIANFAN-59              
1 62789U 25016E   26099.58219146  .00000041  00000+0  44625-4 0  9997
2 62789  88.9684  90.8865 0014778  15.2426 344.9167 13.51008762 63152
QIANFAN-60              
1 62790U 25016F   26099.54099136  .00000037  00000+0  38102-4 0  9998
2 62790  88.9665  90.8397 0016190  11.1339 349.0167 13.51010808 63139
QIANFAN-61              
1 62791U 25016G   26099.57398877  .00000034  00000+0  33488-4 0  9995
2 62791  88.9732  91.0794 0015097  11.0035 349.1443 13.51007257 63150
QIANFAN-62              
1 62792U 25016H   26099.57817484  .00000033  00000+0  31901-4 0  9993
2 62792  88.9679  90.8838 0016478  10.6685 349.4812 13.51005715 63146
QIANFAN-63              
1 62793U 25016J   26099.60279648  .00000053  00000+0  63051-4 0  9995
2 62793  88.9686  90.8406 0016736  15.7246 344.4421 13.51008224 63185
QIANFAN-64              
1 62794U 25016K   26099.56987606  .00000033  00000+0  31680-4 0  9992
2 62794  88.9673  90.8022 0014425  10.1092 350.0346 13.51006955 63174
QIANFAN-65              
1 62795U 25016L   26099.56563722  .00000045  00000+0  50631-4 0  9992
2 62795  88.9669  90.8245 0014343  11.8405 348.3080 13.51003859 63155
QIANFAN-66              
1 62796U 25016M   26099.59461818  .00000056  00000+0  68677-4 0  9990
2 62796  88.9688  90.8148 0015255   6.9199 353.2160 13.51008294 63205
QIANFAN-67              
1 62797U 25016N   26099.59874739  .00000053  00000+0  63173-4 0  9994
2 62797  88.9679  90.8284 0015495  13.5833 346.5732 13.51008461 63174
QIANFAN-68              
1 62798U 25016P   26099.59044973  .00000049  00000+0  57288-4 0  9999
2 62798  88.9682  90.8787 0015478  11.8936 348.2578 13.51006953 63152
QIANFAN-69              
1 62799U 25016Q   26099.60690662  .00000052  00000+0  62317-4 0  9997
2 62799  88.9661  90.7210 0016273  12.4239 347.7310 13.51007252 63192
QIANFAN-70              
1 62800U 25016R   26099.54931896  .00000039  00000+0  41789-4 0  9995
2 62800  88.9682  90.8903 0015487   3.4643 356.6612 13.51008617 63148
QIANFAN-71              
1 62801U 25016S   26099.54524899  .00000031  00000+0  29206-4 0  9999
2 62801  88.9676  90.8631 0016307  16.0915 344.0751 13.51008396 63143
QIANFAN-72              
1 62802U 25016T   26099.56172166  .00000051  00000+0  59765-4 0  9993
2 62802  88.9666  90.8633 0019827  21.6540 338.5445 13.51007209 63130
QIANFAN-73              
1 63159U 25046A   26099.58864535  .00000070  00000+0  88940-4 0  9990
2 63159  88.9698 307.8338 0016042 137.6602 222.5791 13.50999311 63327
QIANFAN-74              
1 63160U 25046B   26099.57213869  .00000091  00000+0  12185-3 0  9999
2 63160  88.9699 307.7244 0001978  81.5612 278.5763 13.51006140 63381
QIANFAN-75              
1 63161U 25046C   26099.55995694  .00000021  00000+0  13615-4 0  9994
2 63161  88.9701 307.9614 0017107 140.9665 219.2724 13.51012603 63254
QIANFAN-76              
1 63162U 25046D   26099.55565603  .00000158  00000+0  22509-3 0  9990
2 63162  88.9700 307.9413 0014625 140.5858 219.6360 13.51000556 63268
QIANFAN-77              
1 63163U 25046E   26099.58317104  .00000070  00000+0  40875-4 0  9995
2 63163  88.9699 304.9747 0016926  74.8083 285.4964 13.96186287 64894
QIANFAN-78              
1 63164U 25046F   26099.59679569  .00000129  00000+0  18011-3 0  9994
2 63164  88.9699 307.7999 0015914 143.1112 217.1137 13.51000098 63343
QIANFAN-79              
1 63165U 25046G   26099.55156412  .00000077  00000+0  10035-3 0  9998
2 63165  88.9703 307.9169 0015793 141.5992 218.6287 13.51000830 63283
QIANFAN-80              
1 63166U 25046H   26099.56802212  .00000037  00000+0  39008-4 0  9994
2 63166  88.9700 307.6187 0014533 145.2723 214.9380 13.51003362 63446
QIANFAN-81              
1 63167U 25046J   26099.54691869 -.00000079  00000+0 -14088-3 0  9995
2 63167  88.9697 307.6886 0015813 135.9673 224.2741 13.50966973 63394
QIANFAN-82              
1 63168U 25046K   26099.58036647  .00000036  00000+0  36490-4 0  9990
2 63168  88.9700 307.7292 0013772 141.2521 218.9620 13.51005124 63384
QIANFAN-83              
1 63169U 25046L   26099.61062703  .00000081  00000+0  88402-4 0  9997
2 63169  88.9701 307.2704 0015661 122.1622 238.1057 13.62030385 63644
QIANFAN-84              
1 63170U 25046M   26099.61097252  .00000168  00000+0  24122-3 0  9990
2 63170  88.9700 307.8591 0016914 139.0674 221.1751 13.51018278 63313
QIANFAN-85              
1 63171U 25046N   26099.60511668  .00000017  00000+0  69823-5 0  9994
2 63171  88.9699 307.7303 0014242 140.2801 219.9396 13.50994475 63387
QIANFAN-86              
1 63172U 25046P   26099.61328570  .00000025  00000+0  19419-4 0  9998
2 63172  88.9701 307.5942 0011966 142.9469 217.2511 13.50998775 63464
QIANFAN-87              
1 63173U 25046Q   26099.58445691  .00000047  00000+0  53869-4 0  9990
2 63173  88.9698 307.7043 0012762 139.1033 221.1078 13.51002958 63398
QIANFAN-88              
1 63174U 25046R   26099.60090800  .00000030  00000+0  27541-4 0  9992
2 63174  88.9700 307.6601 0012922 146.9262 213.2700 13.51003486 63425
QIANFAN-89              
1 63175U 25046S   26099.56392021  .00000018  00000+0  86463-5 0  9993
2 63175  88.9700 307.8532 0017683 139.7929 220.4534 13.50999632 63319
QIANFAN-90              
1 63176U 25046T   26099.59271166  .00000112  00000+0  15402-3 0  9991
2 63176  88.9700 307.8226 0014686 137.5543 222.6746 13.51001677 63333
QIANFAN-91              
1 66033U 25233A   26099.62525074  .00000123  00000+0  17219-3 0  9998
2 66033  88.9990  50.1105 0002500  82.1870 277.9565 13.51009365 23928
QIANFAN-92              
1 66034U 25233B   26099.55932602  .00000113  00000+0  15610-3 0  9992
2 66034  88.9974  50.1000 0002266  82.4588 277.6820 13.51010214 23918
QIANFAN-93              
1 66035U 25233C   26099.56757662  .00000125  00000+0  17558-3 0  9991
2 66035  89.0001  50.1326 0002431  82.5965 277.5463 13.51009855 23918
QIANFAN-94              
1 66036U 25233D   26099.55530669  .00000124  00000+0  17370-3 0  9998
2 66036  88.9997  50.0394 0002327  79.4660 280.6754 13.51009314 23969
QIANFAN-95              
1 66037U 25233E   26099.56334299  .00000119  00000+0  16539-3 0  9991
2 66037  88.9995  49.5841 0002523  79.1121 281.0314 13.51002969 24210
QIANFAN-96              
1 66038U 25233F   26099.58820362  .00000136  00000+0  19195-3 0  9995
2 66038  88.9993  50.1266 0002542  82.0899 278.0541 13.51009392 23915
QIANFAN-97              
1 66039U 25233G   26099.57174832  .00000114  00000+0  15748-3 0  9995
2 66039  88.9996  50.1099 0002465  82.2247 277.9184 13.51008668 23923
QIANFAN-98              
1 66040U 25233H   26099.57990324  .00000123  00000+0  17126-3 0  9991
2 66040  88.9985  49.8477 0002208  69.3240 290.8148 13.51009552 24065
QIANFAN-99              
1 66041U 25233J   26099.58406578  .00000116  00000+0  16130-3 0  9992
2 66041  88.9996  50.1124 0002355  72.7865 287.3543 13.51009368 23925
QIANFAN-100             
1 66042U 25233K   26099.57578528  .00000108  00000+0  14824-3 0  9996
2 66042  89.0008  50.0326 0002440  82.8627 277.2802 13.51010396 23972
QIANFAN-101             
1 66043U 25233L   26099.56453274  .00000334  00000+0  13195-3 0  9997
2 66043  88.9995  48.4317 0015713  17.8782 342.2961 14.26772301 24844
QIANFAN-102             
1 66044U 25233M   26099.59644657  .00000131  00000+0  18386-3 0  9990
2 66044  88.9994  50.0224 0002343  78.3293 281.8121 13.51008951 23973
QIANFAN-103             
1 66045U 25233N   26099.60052260  .00000144  00000+0  20513-3 0  9995
2 66045  88.9997  50.1152 0002454  82.9844 277.1586 13.51011002 23923
QIANFAN-104             
1 66046U 25233P   26099.60450473  .00000114  00000+0  15729-3 0  9994
2 66046  89.0001  50.0139 0002245  78.8398 281.3006 13.51004439 23977
QIANFAN-105             
1 66047U 25233Q   26099.61286425  .00000112  00000+0  15511-3 0  9997
2 66047  89.0015  49.8470 0002479  79.4860 280.6571 13.51011758 24081
QIANFAN-106             
1 66048U 25233R   26099.60872785  .00000107  00000+0  14640-3 0  9993
2 66048  88.9983  50.0818 0002248  71.4450 288.6945 13.51009851 23932
QIANFAN-107             
1 66049U 25233S   26099.61704002  .00000112  00000+0  15415-3 0  9998
2 66049  88.9999  50.1026 0002415  82.5090 277.6335 13.51007874 23935
QIANFAN-108             
1 66050U 25233T   26099.62110582  .00000116  00000+0  16144-3 0  9999
2 66050  88.9992  50.0947 0002227  72.6539 287.4856 13.51009297 23938
