ORBCOMM FM06            
1 25118U 97084G   26140.83312258  .00000611  00000+0  20388-3 0  9991
2 25118  45.0126 184.3892 0002135 243.4531 287.4114 14.47487180490425
ORBCOMM FM04            
1 25159U 98007C   26140.66369956  .00000547  00000+0  23310-3 0  9996
2 25159 107.9627 112.7760 0040348  12.4775 347.7356 14.35680064472640
ORBCOMM FM19            
1 25415U 98046C   26140.93614655  .00000606  00000+0  23831-3 0  9997
2 25415  44.9953  13.0886 0002705 163.8937 210.5915 14.39438125452857
ORBCOMM FM20            
1 25416U 98046D   26140.91911014  .00000385  00000+0  17271-3 0  9990
2 25416  44.9954  20.7925 0000204  40.3501 319.7363 14.38020616452867
ORBCOMM FM27            
1 25481U 98053G   26140.62782795  .00000485  00000+0  20116-3 0  9993
2 25481  45.0043 106.2436 0001669 307.2419  52.8278 14.39078935446261
ORBCOMM FM32            
1 25982U 99065C   26140.76180895  .00000385  00000+0  17580-3 0  9991
2 25982  45.0160 303.0508 0005740 271.0826  88.9365 14.37089269383142
ORBCOMM FM109           
1 40086U 14040A   26140.90844174  .00000123  00000+0  62312-4 0  9990
2 40086  47.0027 220.4561 0000729 131.6425 228.4523 14.58812086630367
ORBCOMM FM114           
1 41179U 15081A   26140.24099942  .00000123  00000+0  62358-4 0  9992
2 41179  47.0031 134.1264 0001414  49.0394 311.0614 14.58821869553673
ORBCOMM FM110           
1 41182U 15081D   26140.16119414  .00000425  00000+0  12620-3 0  9995
2 41182  47.0004 133.9522 0003959 299.7747  60.2744 14.58830149553536
ORBCOMM FM118           
1 41183U 15081E   26140.94894269  .00000406  00000+0  12218-3 0  9992
2 41183  47.0028 130.5543 0004091 273.9163  86.1255 14.58850400553753
ORBCOMM FM112           
1 41184U 15081F   26140.74842147  .00000380  00000+0  11663-3 0  9993
2 41184  47.0008  39.9913 0002458  73.8029 286.3128 14.58856998554941
ORBCOMM FM113           
1 41185U 15081G   26140.45033192  .00000192  00000+0  76828-4 0  9990
2 41185  47.0019  41.7643 0001033  63.5586 296.5405 14.58823256554882
ORBCOMM FM108           
1 41187U 15081J   26140.75534837  .00000309  00000+0  10169-3 0  9992
2 41187  47.0055 311.8902 0001929  75.0358 285.0741 14.58826707556075
ORBCOMM FM117           
1 41188U 15081K   26140.85778200  .00000309  00000+0  10176-3 0  9996
2 41188  47.0019 310.0480 0002407  83.6133 276.5027 14.58824501556135
ORBCOMM FM116           
1 41189U 15081L   26140.42751214  .00000351  00000+0  11062-3 0  9998
2 41189  47.0033  41.8702 0002172 299.2842  60.7827 14.58834181554885
