ORBCOMM-X               
1 21576U 91050C   26095.42852521  .00000452  00000+0  14599-3 0  9998
2 21576  98.3016 160.5162 0004149  40.2046 319.9451 14.43538782824275
ORBCOMM FM01            
1 23545U 95017A   26095.29925603  .00010761  00000+0  98574-3 0  9999
2 23545  69.9615  63.0585 0007077 249.0906 110.9494 14.95118852656093
ORBCOMM FM02            
1 23546U 95017B   26095.36295889  .00012633  00000+0  10931-2 0  9994
2 23546  69.9614  80.6925 0008467 248.9204 111.1049 14.97282988655798
ORBCOMM FM08            
1 25112U 97084A   26095.13633860  .00002118  00000+0  61506-3 0  9993
2 25112  45.0143  45.0186 0007806 298.7879  61.2189 14.47077900483646
ORBCOMM FM10            
1 25113U 97084B   26095.23545050  .00002282  00000+0  66342-3 0  9993
2 25113  45.0153  47.5008 0005708 272.9996  87.0202 14.46800547658793
ORBCOMM FM11            
1 25114U 97084C   26095.15375530  .00002225  00000+0  65148-3 0  9999
2 25114  45.0139  49.0716 0006545 271.7054  88.3048 14.46534107483731
ORBCOMM FM12            
1 25115U 97084D   26095.24981578  .00002149  00000+0  63012-3 0  9998
2 25115  45.0144  48.3254 0005552 272.9696  87.0520 14.46563745483549
ORBCOMM FM09            
1 25116U 97084E   26095.31237097  .00002165  00000+0  63688-3 0  9994
2 25116  45.0148  49.3062 0006480 258.9455 101.0668 14.46382666483754
ORBCOMM FM05            
1 25117U 97084F   26095.21776894  .00002442  00000+0  70164-3 0  9992
2 25117  45.0146  44.5724 0003368 287.0009  73.0474 14.47189666482898
ORBCOMM FM06            
1 25118U 97084G   26095.27572664  .00002435  00000+0  69691-3 0  9993
2 25118  45.0144  43.6581 0002422 300.2755 209.3210 14.47376286483826
ORBCOMM FM07            
1 25119U 97084H   26095.25880561  .00002270  00000+0  65229-3 0  9990
2 25119  45.0140  44.4783 0004025 278.2098  81.8297 14.47376945483810
ORBCOMM FM03            
1 25158U 98007B   26095.50682248  .00001530  00000+0  57249-3 0  9990
2 25158 107.9616  16.4534 0042587  96.4090 264.1903 14.35370290465970
ORBCOMM FM04            
1 25159U 98007C   26095.51172405  .00001451  00000+0  54391-3 0  9998
2 25159 107.9605  19.8779 0038532  93.3745 267.1804 14.35593820466166
ORBCOMM FM17            
1 25413U 98046A   26095.29253867  .00001104  00000+0  42644-3 0  9994
2 25413  44.9953 318.2591 0002000 241.0577 119.0070 14.35800402445141
ORBCOMM FM18            
1 25414U 98046B   26095.41898667  .00001655  00000+0  57086-3 0  9999
2 25414  44.9921 226.9758 0004177 294.9329  65.1086 14.39521641446346
ORBCOMM FM19            
1 25415U 98046C   26095.41030909  .00001897  00000+0  65009-3 0  9999
2 25415  44.9919 229.4543 0003216 280.4694 117.7554 14.39351203446295
ORBCOMM FM20            
1 25416U 98046D   26095.41360913  .00001352  00000+0  48992-3 0  9999
2 25416  44.9934 236.5698 0000946 230.8304 129.2460 14.37957522446318
ORBCOMM FM16            
1 25417U 98046E   26095.52395848  .00001815  00000+0  61662-3 0  9990
2 25417  44.9923 223.4944 0003647 309.9489  50.1039 14.39917882446376
ORBCOMM FM15            
1 25418U 98046F   26095.36678141  .00001668  00000+0  57503-3 0  9998
2 25418  44.9960 230.2909 0003228 310.8906  49.1663 14.39536706446334
ORBCOMM FM14            
1 25419U 98046G   26095.44163607  .00001674  00000+0  57166-3 0  9996
2 25419  44.9942 227.2385 0002401 291.5001  68.5592 14.39980453446329
ORBCOMM FM13            
1 25420U 98046H   26095.41329006  .00001470  00000+0  52271-3 0  9998
2 25420  44.9969 238.4250 0004582 292.9774  67.0591 14.38514337445302
ORBCOMM FM21            
1 25475U 98053A   26095.35846504  .00001188  00000+0  43514-3 0  9992
2 25475  45.0094 325.1031 0001007 281.5983  78.4752 14.38073225439291
ORBCOMM FM22            
1 25476U 98053B   26095.30245612  .00001413  00000+0  49604-3 0  9998
2 25476  45.0084 317.6386 0002562 259.7249 100.3311 14.39318180439344
ORBCOMM FM23            
1 25477U 98053C   26095.03564578  .00001236  00000+0  44828-3 0  9990
2 25477  45.0094 328.2511 0001830 260.1157  99.9485 14.38342270439403
ORBCOMM FM24            
1 25478U 98053D   26094.91973443  .00001371  00000+0  48598-3 0  9990
2 25478  45.0089 324.9076 0001645 270.3794  89.6866 14.38995722439451
ORBCOMM FM25            
1 25479U 98053E   26095.31403953  .00001324  00000+0  47128-3 0  9996
2 25479  45.0081 321.3562 0003995 278.4582  81.5814 14.38957408439801
ORBCOMM FM26            
1 25480U 98053F   26094.90484317  .00001040  00000+0  38822-3 0  9991
2 25480  45.0076 322.0054 0005979 291.5090  68.5120 14.37877012439621
ORBCOMM FM27            
1 25481U 98053G   26095.36392510  .00001412  00000+0  49916-3 0  9995
2 25481  45.0065 321.2021 0000519 335.8341  24.2483 14.39003123439741
ORBCOMM FM28            
1 25482U 98053H   26095.44236085  .00001453  00000+0  51126-3 0  9990
2 25482  45.0048 258.0136 0003595 320.6198  39.4389 14.39091755440446
ORBCOMM FM30            
1 25980U 99065A   26095.48702660  .00001086  00000+0  40217-3 0  9999
2 25980  45.0304 145.3659 0004879  16.5358 343.5649 14.38041197376515
ORBCOMM FM31            
1 25981U 99065B   26095.47463556  .00001065  00000+0  39597-3 0  9993
2 25981  45.0216 138.8626 0001863  37.6261 322.4717 14.37960668376060
ORBCOMM FM32            
1 25982U 99065C   26095.50476982  .00000987  00000+0  37736-3 0  9990
2 25982  45.0143 157.2435 0003923  47.1767 312.9411 14.37022922376639
ORBCOMM FM33            
1 25983U 99065D   26095.29680920  .00001423  00000+0  48415-3 0  9998
2 25983  45.0291  49.2564 0006936  83.1243 277.0395 14.40853102378183
ORBCOMM FM36            
1 25984U 99065E   26095.42671464  .00001518  00000+0  53236-3 0  9999
2 25984  45.0380 144.9646 0004238 298.0165  62.0255 14.39058381376505
ORBCOMM FM35            
1 25985U 99065F   26095.41641181  .00001275  00000+0  46494-3 0  9990
2 25985  45.0385 152.4662 0001518  40.2066 319.8895 14.37943706376839
ORBCOMM FM34            
1 25986U 99065G   26095.52793767  .00001029  00000+0  38494-3 0  9999
2 25986  45.0379 152.4670 0003350 334.6215  25.4469 14.37842825376965
ORBCOMM FM38            
1 33060U 08031A   26095.14028348  .00002579  00000+0  34145-3 0  9998
2 33060  48.4411   2.3131 0004814 224.1271 135.9262 14.82859508958057
ORBCOMM FM41            
1 33061U 08031B   26095.19113054  .00002691  00000+0  35902-3 0  9990
2 33061  48.4447  10.9107 0003944 209.1187 301.4092 14.82386864957530
ORBCOMM FM29            
1 33062U 08031C   26095.21631869  .00002683  00000+0  35655-3 0  9999
2 33062  48.4397  18.1678 0005531 207.4567 306.0193 14.82565574957456
ORBCOMM FM39            
1 33063U 08031D   26095.18394775  .00002448  00000+0  34040-3 0  9994
2 33063  48.4404  45.9904 0006192 175.8836 184.2131 14.80929581957051
ORBCOMM FM37            
1 33064U 08031E   26095.20841988  .00002537  00000+0  35021-3 0  9990
2 33064  48.4400  33.9462 0004966 197.5241 304.5390 14.81121027957315
ORBCOMM FM40            
1 33065U 08031F   26095.17752969  .00003227  00000+0  41114-3 0  9994
2 33065  48.4421  12.8172 0006077 213.0206 292.6164 14.83803690957493
VESSELSAT 1             
1 37840U 11058C   26095.44075647  .00000391  00000+0  68443-4 0  9997
2 37840  19.9609 125.3532 0013660 160.8380 199.2539 14.11426524747647
ORBCOMM FM109           
1 40086U 14040A   26095.22555278  .00000823  00000+0  21071-3 0  9991
2 40086  47.0029  76.4205 0002461 261.4900  98.5707 14.58765157623692
ORBCOMM FM107           
1 40087U 14040B   26095.30712220  .00000974  00000+0  24234-3 0  9994
2 40087  47.0047  76.8726 0001161 231.2388 128.8394 14.58852546623784
ORBCOMM FM106           
1 40088U 14040C   26095.44595498  .00001418  00000+0  26277-3 0  9999
2 40088  47.0594 234.5671 0016360 342.8451  17.1885 14.70373390626474
ORBCOMM FM111           
1 40089U 14040D   26095.21849168  .00003520  00000+0  39530-3 0  9993
2 40089  47.0012  44.9917 0028028 154.1774 206.0529 14.88508834633702
ORBCOMM FM104           
1 40090U 14040E   26095.41420132  .00000634  00000+0  17643-3 0  9997
2 40090  47.0039 113.5339 0015089 101.2899 258.9682 14.57206073623237
ORBCOMM FM103           
1 40091U 14040F   26095.36514383  .00000899  00000+0  22689-3 0  9993
2 40091  47.0049  77.3398 0001652 214.1130 145.9650 14.58756025606750
ORBCOMM FM114           
1 41179U 15081A   26095.38030198  .00000838  00000+0  21388-3 0  9994
2 41179  47.0066 346.2045 0002525 237.2096 122.8546 14.58776344547120
ORBCOMM FM119           
1 41180U 15081B   26095.44913101  .00000844  00000+0  21536-3 0  9999
2 41180  46.9998 255.2393 0001449 284.9923  75.0802 14.58717608548382
ORBCOMM FM105           
1 41181U 15081C   26095.49128597  .00000349  00000+0  14246-3 0  9992
2 41181  47.0015 288.6809 0001917 204.0721 156.0070 14.45517337543033
ORBCOMM FM110           
1 41182U 15081D   26095.09541932  .00001272  00000+0  30567-3 0  9991
2 41182  47.0038 347.0152 0002411  93.2987 266.8174 14.58791998546952
ORBCOMM FM118           
1 41183U 15081E   26095.40402964  .00001339  00000+0  31990-3 0  9993
2 41183  47.0058 345.8772 0002716  49.5173 310.5949 14.58790442547106
ORBCOMM FM112           
1 41184U 15081F   26095.47540743  .00001022  00000+0  25268-3 0  9999
2 41184  46.9987 254.0270 0002442 232.2338 127.8327 14.58787149548335
ORBCOMM FM113           
1 41185U 15081G   26095.45270483  .00000885  00000+0  22372-3 0  9998
2 41185  47.0001 254.5070 0002095 240.2068 119.8610 14.58778824548315
ORBCOMM FM115           
1 41186U 15081H   26095.24239673  .00000963  00000+0  21936-3 0  9994
2 41186  46.9977  89.8247 0001734 304.4076  55.6647 14.63173049550530
ORBCOMM FM108           
1 41187U 15081J   26095.48389767  .00001177  00000+0  28551-3 0  9999
2 41187  47.0042 165.9101 0003486 233.6848 126.3716 14.58794318549462
ORBCOMM FM117           
1 41188U 15081K   26095.44929219  .00001122  00000+0  27406-3 0  9996
2 41188  47.0005 164.7299 0003949 237.2423 122.8082 14.58789528549509
ORBCOMM FM116           
1 41189U 15081L   26095.49865403  .00000965  00000+0  24065-3 0  9998
2 41189  47.0017 254.2842 0001130 102.8513 257.2499 14.58783270548321
