QIANFAN-1               
1 60379U 24140A   26224.61951409  .00000069  00000+0  87958-4 0  9992
2 60379  88.9702 274.0766 0015933 227.9161 132.0636 13.51023869100147
QIANFAN-2               
1 60380U 24140B   26224.57442805  .00000108  00000+0  14917-3 0  9992
2 60380  88.9688 273.8876 0012192 195.8450 164.2321 13.51025069100196
QIANFAN-3               
1 60381U 24140C   26224.58260255  .00000062  00000+0  77817-4 0  9999
2 60381  88.9681 274.0010 0012847 209.9033 150.1385 13.51020845100106
QIANFAN-4               
1 60382U 24140D   26224.55778279  .00000049  00000+0  56891-4 0  9991
2 60382  88.9706 273.9624 0012314 198.8215 161.2482 13.51023504100220
QIANFAN-5               
1 60383U 24140E   26224.60728545  .00000060  00000+0  74490-4 0  9997
2 60383  88.9680 274.0230 0013710 222.8302 137.1782 13.51029007100097
QIANFAN-6               
1 60384U 24140F   26224.62776471  .00000053  00000+0  62663-4 0  9992
2 60384  88.9707 273.8329 0012220 204.9509 155.1053 13.51022422100296
QIANFAN-7               
1 60385U 24140G   26224.58333466  .00000200  00000+0  74731-4 0  9994
2 60385  88.9739 265.1445 0013322 329.9460  30.0969 14.27882287105045
QIANFAN-8               
1 60386U 24140H   26224.56206020  .00000050  00000+0  58294-4 0  9997
2 60386  88.9709 274.0803 0015558 209.4738 150.5537 13.51018754100133
QIANFAN-9               
1 60387U 24140J   26224.61126853  .00000075  00000+0  97932-4 0  9998
2 60387  88.9707 274.1456 0015268 208.9008 151.1299 13.51019509100129
QIANFAN-10              
1 60388U 24140K   26224.61539435  .00000065  00000+0  82515-4 0  9993
2 60388  88.9717 273.5178 0014580 184.7823 175.3191 13.51019795100257
QIANFAN-11              
1 60389U 24140L   26224.57846583  .00000070  00000+0  89723-4 0  9998
2 60389  88.9642 273.9260 0013315 207.7129 152.3314 13.51019519 99906
QIANFAN-12              
1 60390U 24140M   26224.59905177  .00000052  00000+0  62361-4 0  9996
2 60390  88.9685 274.0730 0011878 215.6952 144.3406 13.51021796100033
QIANFAN-13              
1 60391U 24140N   26224.57020611  .00000064  00000+0  80443-4 0  9990
2 60391  88.9946 274.2182 0011631 218.1972 141.8356 13.51021608100054
QIANFAN-14              
1 60392U 24140P   26224.59495043  .00000047  00000+0  53644-4 0  9992
2 60392  88.9676 274.0490 0015276 220.3490 139.6529 13.51024822100063
QIANFAN-15              
1 60393U 24140Q   26224.60322067  .00000066  00000+0  82973-4 0  9998
2 60393  88.9700 274.0625 0011576 203.1598 156.9033 13.51025251100057
QIANFAN-16              
1 60394U 24140R   26224.59077690  .00000060  00000+0  74415-4 0  9992
2 60394  88.9703 274.1906 0013106 223.7535 136.2579 13.51023789 99961
QIANFAN-17              
1 60395U 24140S   26224.58669408  .00000060  00000+0  73918-4 0  9993
2 60395  88.9714 274.2636 0013684 217.0268 142.9940 13.51019798100925
QIANFAN-18              
1 60396U 24140T   26224.56611955  .00000059  00000+0  72238-4 0  9998
2 60396  88.9708 273.7833 0013631 198.2876 161.7787 13.51019226100316
QIANFAN-19              
1 61552U 24185A   26224.59456769  .00000239  00000+0  11756-3 0  9992
2 61552  88.9806  50.1123 0004806 233.2182 126.8564 14.14509752103993
QIANFAN-20              
1 61553U 24185B   26224.57224440  .00000218  00000+0  11781-3 0  9995
2 61553  88.9801  50.6790 0003680 302.2051  57.8776 14.09051559103680
QIANFAN-21              
1 61554U 24185C   26224.60039478  .00000270  00000+0  11372-3 0  9999
2 61554  88.9724  48.5346 0008442 298.5873  61.4469 14.22903018104501
QIANFAN-22              
1 61555U 24185D   26224.58885108  .00000149  00000+0  11709-3 0  9995
2 61555  88.9783  52.6388 0005821 353.1141   6.9949 13.86417114102582
QIANFAN-23              
1 61556U 24185E   26224.57838735  .00000203  00000+0  95023-4 0  9992
2 61556  88.9800  49.8101 0005171 246.3297 113.7349 14.16532882104124
QIANFAN-24              
1 61557U 24185F   26224.60782994  .00000281  00000+0  11602-3 0  9998
2 61557  88.9782  48.8163 0007869 214.2527 145.8159 14.24124367104586
QIANFAN-25              
1 61558U 24185G   26224.54559160  .00000132  00000+0  71803-4 0  9994
2 61558  88.9789  50.7112 0009356 306.5087  53.5233 14.06108057103629
QIANFAN-26              
1 61559U 24185H   26224.58851075  .00000105  00000+0  91571-4 0  9993
2 61559  88.9789  53.5377 0006082  18.3710 341.7675 13.77932799102118
QIANFAN-27              
1 61560U 24185J   26224.57038619  .00000272  00000+0  10464-3 0  9991
2 61560  88.9795  48.4780 0006334 193.2829 166.8199 14.27574890104807
QIANFAN-28              
1 61561U 24185K   26224.55714025  .00000325  00000+0  12420-3 0  9995
2 61561  88.9811  48.4935 0006331 191.9117 168.1929 14.28446998104838
QIANFAN-29              
1 61562U 24185L   26224.58279230  .00000093  00000+0  12556-3 0  9995
2 61562  88.9759  56.2084 0011732  72.0151 288.2278 13.51084883100585
QIANFAN-30              
1 61563U 24185M   26224.59332426  .00000094  00000+0  12830-3 0  9990
2 61563  88.9780  55.8256 0009360  61.2716 298.9374 13.50066872100837
QIANFAN-31              
1 61564U 24185N   26224.60861072  .00000110  00000+0  13471-3 0  9998
2 61564  88.9764  55.2403 0008571  50.9072 309.2845 13.58053894101121
QIANFAN-32              
1 61565U 24185P   26224.57684933  .00000099  00000+0  13423-3 0  9997
2 61565  88.9820  56.0332 0011752  86.0513 274.1981 13.50799169100821
QIANFAN-33              
1 61566U 24185Q   26224.56366577  .00000163  00000+0  10800-3 0  9996
2 61566  88.9783  51.7352 0005585 295.9323  64.1278 13.96733475103053
QIANFAN-34              
1 61567U 24185R   26224.60259724  .00000269  00000+0  16634-3 0  9995
2 61567  88.9763  50.9731 0004076 300.8695  59.2084 14.02498118103393
QIANFAN-35              
1 61568U 24185S   26224.54094604  .00000318  00000+0  12150-3 0  9997
2 61568  88.9793  48.3800 0005612 185.5550 174.5583 14.28323422104838
QIANFAN-36              
1 61569U 24185T   26224.57998165  .00000044  00000+0  45954-4 0  9991
2 61569  88.9756  55.7376 0008222  65.3274 294.8735 13.55643311100827
QIANFAN-37              
1 62238U 24232B   26224.54917383  .00000046  00000+0  51912-4 0  9991
2 62238  89.0100  16.9258 0002575 100.3853 259.7588 13.51025280131951
QIANFAN-38              
1 62239U 24232C   26224.57384726  .00000048  00000+0  55236-4 0  9999
2 62239  89.0107  16.8555 0013729 206.4829 153.5622 13.51023834132013
QIANFAN-39              
1 62240U 24232D   26224.65612559  .00000138  00000+0  52016-4 0  9991
2 62240  89.0096   9.6392 0016171  11.4297 348.7260 14.25540735135990
QIANFAN-40              
1 62241U 24232E   26224.53271235  .00000049  00000+0  58174-4 0  9993
2 62241  89.0135  16.5119 0012485 214.5233 145.5108 13.51024000132372
QIANFAN-41              
1 62242U 24232F   26224.54094885  .00000049  00000+0  58039-4 0  9999
2 62242  89.0105  16.8058 0013263 202.1735 157.8845 13.51024993132038
QIANFAN-42              
1 62243U 24232G   26224.52804068  .00000138  00000+0  53155-4 0  9993
2 62243  89.0094   9.7368 0015343  19.2698 340.9072 14.24628828135934
QIANFAN-43              
1 62244U 24232H   26224.53682092  .00000047  00000+0  53516-4 0  9996
2 62244  89.0109  16.8823 0014620 208.4402 151.5953 13.51024699100648
QIANFAN-44              
1 62245U 24232J   26224.52451774  .00000021  00000+0  13740-4 0  9994
2 62245  89.0108  16.6903 0012936 204.4302 155.6237 13.51024902132112
QIANFAN-45              
1 62246U 24232K   26224.56564445  .00000051  00000+0  60859-4 0  9995
2 62246  89.0111  16.8414 0013615 204.3143 155.7367 13.51023901132048
QIANFAN-46              
1 62247U 24232L   26224.51623395  .00000049  00000+0  57664-4 0  9998
2 62247  89.0107  16.9054 0013492 210.3588 149.6783 13.51025102131990
QIANFAN-47              
1 62248U 24232M   26224.52036564  .00000050  00000+0  59043-4 0  9991
2 62248  89.0103  16.8281 0013929 209.6370 150.3993 13.51023849132026
QIANFAN-48              
1 62249U 24232N   26224.55731920  .00000043  00000+0  47546-4 0  9990
2 62249  89.0107  16.8358 0016112 213.2234 146.7907 13.51018017132039
QIANFAN-49              
1 62250U 24232P   26224.54507679  .00000038  00000+0  40851-4 0  9999
2 62250  89.0106  16.8476 0013367 206.2447 153.8029 13.51015944100628
QIANFAN-50              
1 62251U 24232Q   26224.56972745  .00000056  00000+0  68596-4 0  9998
2 62251  89.0112  16.8665 0014976 208.3808 151.6529 13.51024871100650
QIANFAN-51              
1 62252U 24232R   26224.55328973  .00000047  00000+0  54561-4 0  9993
2 62252  89.0106  16.8471 0012344 211.2372 148.8047 13.51024038100642
QIANFAN-52              
1 62253U 24232S   26224.58211606  .00000062  00000+0  77381-4 0  9993
2 62253  89.0102  16.7083 0014597 203.8652 156.1825 13.51025654100738
QIANFAN-53              
1 62254U 24232T   26224.56153383  .00000044  00000+0  49011-4 0  9998
2 62254  89.0109  16.8333 0013458 204.4981 155.5532 13.51022904100690
QIANFAN-54              
1 62255U 24232U   26224.52864336  .00000047  00000+0  54800-4 0  9997
2 62255  89.0101  16.4936 0000749 186.9266 173.1875 13.51015147132194
QIANFAN-55              
1 62785U 25016A   26224.62872177  .00000080  00000+0  10501-3 0  9995
2 62785  88.9680  78.0135 0017923  13.0569 347.1042 13.51025060 79986
QIANFAN-56              
1 62786U 25016B   26224.57109207  .00000062  00000+0  76690-4 0  9999
2 62786  88.9654  77.7911 0016654  15.9837 344.1837 13.51025720 80024
QIANFAN-57              
1 62787U 25016C   26224.60404307  .00000064  00000+0  80055-4 0  9995
2 62787  88.9684  78.0168 0002219 103.9422 256.1977 13.51024747 79995
QIANFAN-58              
1 62788U 25016D   26224.57516161  .00000066  00000+0  83288-4 0  9997
2 62788  88.9654  77.7774 0014313   9.7331 350.4095 13.51017917 80039
QIANFAN-59              
1 62789U 25016E   26224.59979424  .00000063  00000+0  78805-4 0  9991
2 62789  88.9677  77.9058 0014805  13.0809 347.0723 13.51022137 80036
QIANFAN-60              
1 62790U 25016F   26224.63280798  .00000076  00000+0  99618-4 0  9996
2 62790  88.9659  77.8276 0016219   8.8370 351.3064 13.51025257 80026
QIANFAN-61              
1 62791U 25016G   26224.59169567  .00000077  00000+0  10091-3 0  9990
2 62791  88.9725  78.1593 0015179   8.9830 351.1590 13.51025106 80039
QIANFAN-62              
1 62792U 25016H   26224.59571935  .00000074  00000+0  95521-4 0  9996
2 62792  88.9673  77.8968 0016515   8.5586 351.5843 13.51017629 80028
QIANFAN-63              
1 62793U 25016J   26224.54636763  .00000072  00000+0  92436-4 0  9993
2 62793  88.9679  77.8699 0016762  13.8522 346.3086 13.51020759 80051
QIANFAN-64              
1 62794U 25016K   26224.58760384  .00000074  00000+0  95285-4 0  9992
2 62794  88.9666  77.8071 0014461   7.9259 352.2118 13.51025089 80050
QIANFAN-65              
1 62795U 25016L   26224.58328015  .00000071  00000+0  91205-4 0  9999
2 62795  88.9662  77.8248 0014385   9.6496 350.4929 13.51021290 80038
QIANFAN-66              
1 62796U 25016M   26224.61218706  .00000063  00000+0  79251-4 0  9997
2 62796  88.9682  77.8397 0015318   4.7685 355.3609 13.51027027 80087
QIANFAN-67              
1 62797U 25016N   26224.61634378  .00000075  00000+0  96782-4 0  9996
2 62797  88.9672  77.8410 0015524  11.4340 348.7161 13.51026751 80054
QIANFAN-68              
1 62798U 25016P   26224.60801289  .00000065  00000+0  81632-4 0  9990
2 62798  88.9676  77.8956 0015532   9.3819 350.7619 13.51019543 80030
QIANFAN-69              
1 62799U 25016Q   26224.62444137  .00000072  00000+0  93231-4 0  9994
2 62799  88.9655  77.7116 0016301  10.3483 349.8000 13.51022141 80074
QIANFAN-70              
1 62800U 25016R   26224.64100065  .00000071  00000+0  91136-4 0  9999
2 62800  88.9675  77.8991 0015568   1.1275 358.9908 13.51020825 80033
QIANFAN-71              
1 62801U 25016S   26224.63694175  .00000068  00000+0  86700-4 0  9996
2 62801  88.9669  77.8643 0016333  13.7793 346.3801 13.51024584 80035
QIANFAN-72              
1 62802U 25016T   26224.57929374  .00000078  00000+0  10145-3 0  9992
2 62802  88.9660  77.8600 0019820  19.6878 340.5034 13.51018247 80014
QIANFAN-73              
1 63159U 25046A   26224.60631242  .00000095  00000+0  12854-3 0  9997
2 63159  88.9703 294.8223 0016843 136.5678 223.6803 13.51021343 80206
QIANFAN-74              
1 63160U 25046B   26224.58983658  .00000098  00000+0  13243-3 0  9993
2 63160  88.9703 294.7138 0002391  96.9556 263.1868 13.51029312 80269
QIANFAN-75              
1 63161U 25046C   26224.57766039  .00000095  00000+0  12864-3 0  9990
2 63161  88.9705 294.9520 0017943 140.0981 220.1493 13.51018587 80136
QIANFAN-76              
1 63162U 25046D   26224.57347208  .00000081  00000+0  10597-3 0  9990
2 63162  88.9705 294.9323 0015413 139.6735 220.5562 13.51020587 80144
QIANFAN-77              
1 63163U 25046E   26224.57077485  .00000166  00000+0  11052-3 0  9999
2 63163  88.9705 290.9389 0016383  50.2442 310.0175 13.96236705 82331
QIANFAN-78              
1 63164U 25046F   26224.61479199 -.00000051  00000+0 -97124-4 0  9993
2 63164  88.9701 294.7895 0016704 142.0146 218.2187 13.51011824 80222
QIANFAN-79              
1 63165U 25046G   26224.56924350  .00000103  00000+0  14001-3 0  9990
2 63165  88.9707 294.9106 0016567 140.5931 219.6429 13.51026856 80166
QIANFAN-80              
1 63166U 25046H   26224.58584804  .00000100  00000+0  13570-3 0  9996
2 63166  88.9704 294.6092 0015297 144.0711 216.1472 13.51024086 80320
QIANFAN-81              
1 63167U 25046J   26224.56508237  .00000105  00000+0  14401-3 0  9990
2 63167  88.9704 294.6788 0016799 135.2988 224.9521 13.51019865 80274
QIANFAN-82              
1 63168U 25046K   26224.59802015  .00000096  00000+0  12950-3 0  9991
2 63168  88.9704 294.7195 0014536 140.3258 219.8960 13.51025527 80263
QIANFAN-83              
1 63169U 25046L   26224.57169165  .00000096  00000+0  10850-3 0  9999
2 63169  88.9705 294.0202 0016415 116.1692 244.1156 13.62059264 80656
QIANFAN-84              
1 63170U 25046M   26224.62681907  .00000090  00000+0  12013-3 0  9997
2 63170  88.9704 294.8492 0017547 138.3341 221.9151 13.51020575 80198
QIANFAN-85              
1 63171U 25046N   26224.62273907  .00000101  00000+0  13737-3 0  9992
2 63171  88.9703 294.7195 0015067 139.4154 220.8123 13.51023758 80267
QIANFAN-86              
1 63172U 25046P   26224.55689322  .00000109  00000+0  14938-3 0  9999
2 63172  88.9705 294.5942 0012852 142.0846 218.1213 13.51019648 80336
QIANFAN-87              
1 63173U 25046Q   26224.60236070  .00000110  00000+0  15126-3 0  9996
2 63173  88.9702 294.6921 0013484 137.9235 222.2954 13.51028163 80272
QIANFAN-88              
1 63174U 25046R   26224.61870161  .00000099  00000+0  13466-3 0  9994
2 63174  88.9704 294.6509 0013685 145.6513 214.5526 13.51024141 80300
QIANFAN-89              
1 63175U 25046S   26224.58155554  .00000094  00000+0  12599-3 0  9994
2 63175  88.9704 294.8436 0018464 139.0498 221.2044 13.51019320 80191
QIANFAN-90              
1 63176U 25046T   26224.61037459  .00000100  00000+0  13575-3 0  9995
2 63176  88.9705 294.8137 0015466 136.6557 223.5814 13.51023880 80218
QIANFAN-91              
1 66033U 25233A   26224.56884006  .00000023  00000+0  17058-4 0  9995
2 66033  88.9991  37.4814 0002264  92.5024 267.6386 13.51016580 40795
QIANFAN-92              
1 66034U 25233B   26224.50299720  .00000041  00000+0  44826-4 0  9996
2 66034  88.9975  37.4505 0002061  94.2666 265.8721 13.51015453 40781
QIANFAN-93              
1 66035U 25233C   26224.51115370  .00000041  00000+0  45082-4 0  9991
2 66035  89.0002  37.5168 0002224  93.2099 266.9307 13.51018343 40784
QIANFAN-94              
1 66036U 25233D   26224.49885534  .00000032  00000+0  30470-4 0  9990
2 66036  88.9998  37.4194 0002096  90.6416 269.4975 13.51017685 40839
QIANFAN-95              
1 66037U 25233E   26224.50707866  .00000045  00000+0  51516-4 0  9992
2 66037  88.9996  36.9607 0002279  89.6512 270.4900 13.51018602 41087
QIANFAN-96              
1 66038U 25233F   26224.53180011  .00000025  00000+0  20556-4 0  9991
2 66038  88.9993  37.5002 0002337  92.3673 267.7746 13.51017245 40780
QIANFAN-97              
1 66039U 25233G   26224.51531544  .00000049  00000+0  56653-4 0  9994
2 66039  88.9996  37.4878 0002255  92.8397 267.3013 13.51017612 40793
QIANFAN-98              
1 66040U 25233H   26224.52352725  .00000031  00000+0  29729-4 0  9994
2 66040  88.9985  37.2118 0001914  79.8740 280.2627 13.51017116 40936
QIANFAN-99              
1 66041U 25233J   26224.52762634  .00000029  00000+0  26117-4 0  9994
2 66041  88.9997  37.4910 0002079  82.9143 277.2245 13.51017286 40791
QIANFAN-100             
1 66042U 25233K   26224.51935224  .00000035  00000+0  35392-4 0  9993
2 66042  89.0009  37.4249 0002223  93.9275 266.2131 13.51017088 40840
QIANFAN-101             
1 66043U 25233L   26224.53888762  .00000208  00000+0  79885-4 0  9997
2 66043  88.9998  34.0922 0013687 327.1709  32.8633 14.26837491 42664
QIANFAN-102             
1 66044U 25233M   26224.54000004  .00000034  00000+0  33501-4 0  9996
2 66044  88.9995  37.3981 0002101  89.7818 270.3574 13.51017132 40844
QIANFAN-103             
1 66045U 25233N   26224.54409050  .00000036  00000+0  36483-4 0  9995
2 66045  88.9998  37.4944 0002266  93.9054 266.2356 13.51017992 40799
QIANFAN-104             
1 66046U 25233P   26224.54823634  .00000034  00000+0  33543-4 0  9996
2 66046  89.0003  37.3987 0002009  90.8234 269.3147 13.51023308 40842
QIANFAN-105             
1 66047U 25233Q   26224.55650082  .00000038  00000+0  40742-4 0  9996
2 66047  89.0015  37.2484 0002247  89.7820 270.3589 13.51022884 40951
QIANFAN-106             
1 66048U 25233R   26224.55238071  .00000040  00000+0  44113-4 0  9996
2 66048  88.9984  37.4440 0001935  82.9709 277.1663 13.51017101 40799
QIANFAN-107             
1 66049U 25233S   26224.56060525  .00000034  00000+0  34385-4 0  9998
2 66049  89.0000  37.4847 0002205  93.4872 266.6532 13.51016581 40802
QIANFAN-108             
1 66050U 25233T   26224.49061148  .00000034  00000+0  33302-4 0  9992
2 66050  88.9993  37.4754 0001943  83.1330 277.0042 13.51018031 40795
QIANFAN-109             
1 68636U 26075A   26224.50455306  .00000094  00000+0  12759-3 0  9992
2 68636  88.9918 315.2681 0002759 103.1765 256.9694 13.51029483 17393
QIANFAN-110             
1 68637U 26075B   26224.51288197  .00000101  00000+0  13738-3 0  9993
2 68637  88.9918 315.2888 0002233 105.9468 254.1930 13.51026657 17393
QIANFAN-111             
1 68638U 26075C   26224.57463801  .00000097  00000+0  13138-3 0  9995
2 68638  88.9917 315.2417 0002221 104.6327 255.5071 13.51026188 17422
QIANFAN-112             
1 68639U 26075D   26224.53751829  .00000093  00000+0  12593-3 0  9992
2 68639  88.9916 315.2538 0002738 108.0399 252.1051 13.51018596 17410
QIANFAN-113             
1 68640U 26075E   26224.50869148  .00000104  00000+0  14242-3 0  9991
2 68640  88.9922 315.2536 0002341 107.5135 252.6272 13.51024341 17414
QIANFAN-114             
1 68641U 26075F   26224.51691406  .00000096  00000+0  12951-3 0  9998
2 68641  88.9917 315.2692 0002252 105.1798 254.9602 13.51022751 17406
QIANFAN-115             
1 68642U 26075G   26224.54570367  .00000095  00000+0  12887-3 0  9991
2 68642  88.9917 315.2735 0002390 102.7845 257.3573 13.51019437 17405
QIANFAN-116             
1 68643U 26075H   26224.53335223  .00000092  00000+0  12397-3 0  9994
2 68643  88.9910 315.2309 0002583 108.8184 251.3247 13.51020079 17410
QIANFAN-117             
1 68644U 26075J   26224.52104071  .00000088  00000+0  11690-3 0  9999
2 68644  88.9915 315.2504 0002514 104.6486 255.4944 13.51017926 17412
QIANFAN-118             
1 68645U 26075K   26224.55392921  .00000091  00000+0  12236-3 0  9997
2 68645  88.9919 315.2578 0002164 107.7802 252.3586 13.51019833 17412
QIANFAN-119             
1 68646U 26075L   26224.01072620  .00000086  00000+0  11406-3 0  9992
2 68646  88.9919 315.3087 0002610 103.0532 257.0911 13.51025949 17345
QIANFAN-120             
1 68647U 26075M   26224.54160262  .00000102  00000+0  13873-3 0  9990
2 68647  88.9921 315.2406 0002666  99.9860 260.1592 13.51026800 17427
QIANFAN-121             
1 68648U 26075N   26224.56632955  .00000089  00000+0  11883-3 0  9999
2 68648  88.9918 315.2418 0002188 105.3116 254.8277 13.51018687 17426
QIANFAN-122             
1 68649U 26075P   26224.55814628  .00000089  00000+0  11880-3 0  9995
2 68649  88.9917 315.2401 0002593 104.3485 255.7954 13.51022240 17417
QIANFAN-123             
1 68650U 26075Q   26224.30302974  .00000079  00000+0  10433-3 0  9998
2 68650  88.9914 315.2543 0002813 103.8559 256.2905 13.51027480 17361
QIANFAN-124             
1 68651U 26075R   26224.62399286  .00000096  00000+0  12964-3 0  9996
2 68651  88.9917 315.2320 0002666 105.0272 255.1174 13.51021914 17430
QIANFAN-125             
1 68652U 26075S   26224.56221807  .00000088  00000+0  11704-3 0  9995
2 68652  88.9917 315.2404 0002199 106.0488 254.0906 13.51018847 17426
QIANFAN-126             
1 68653U 26075T   26224.57041748  .00000096  00000+0  12940-3 0  9993
2 68653  88.9921 315.2074 0002801 103.3326 256.8138 13.51024061 17440
QIANFAN-127             
1 69073U 26104A   26224.57565103  .00000084  00000+0  11118-3 0  9992
2 69073  88.9942 335.7126 0002056 109.9312 250.2061 13.51020472 12770
QIANFAN-128             
1 69074U 26104B   26224.50990361  .00000081  00000+0  10739-3 0  9999
2 69074  88.9920 335.7518 0001714 102.8525 257.2818 13.51027498 12749
QIANFAN-129             
1 69075U 26104C   26224.53450137  .00000007  00000+0 -83100-5 0  9998
2 69075  88.9923 335.6826 0001832 106.6891 253.4462 13.51032397 12784
QIANFAN-130             
1 69076U 26104D   26224.57161112  .00000089  00000+0  11847-3 0  9991
2 69076  88.9925 335.7437 0002230 113.9911 246.1474 13.51027039 12759
QIANFAN-131             
1 69077U 26104E   26224.51811207  .00000089  00000+0  11954-3 0  9992
2 69077  88.9918 335.7123 0001955  99.1900 260.9473 13.51018906 12767
QIANFAN-132             
1 69078U 26104F   26224.50567671  .00000082  00000+0  10863-3 0  9996
2 69078  88.9921 335.7693 0002132 110.4410 249.6970 13.51025569 12731
QIANFAN-133             
1 69079U 26104G   26224.51401331 -.00000004  00000+0 -24489-4 0  9994
2 69079  88.9920 335.7175 0001729  93.5472 266.5877 13.51018350 12752
QIANFAN-134             
1 69080U 26104H   26224.54281500  .00000080  00000+0  10514-3 0  9998
2 69080  88.9928 335.7392 0001734 100.1862 259.9485 13.51022051 12751
QIANFAN-135             
1 69081U 26104J   26224.59620700  .00000092  00000+0  12440-3 0  9996
2 69081  88.9922 335.7269 0001603 107.0884 253.0443 13.51025436 12764
QIANFAN-136             
1 69082U 26104K   26224.60455803  .00000087  00000+0  11543-3 0  9996
2 69082  88.9924 335.7283 0001782  95.4049 264.7306 13.51015815 12761
QIANFAN-137             
1 69083U 26104L   26224.60044514  .00000019  00000+0  11502-4 0  9991
2 69083  88.9933 335.6018 0002129 108.1836 251.9547 13.51024974 12838
QIANFAN-138             
1 69084U 26104M   26224.55100366  .00000085  00000+0  11323-3 0  9997
2 69084  88.9917 335.7361 0001766 112.2456 247.8883 13.51019343 12755
QIANFAN-139             
1 69085U 26104N   26224.53868775  .00000083  00000+0  10981-3 0  9998
2 69085  88.9920 335.7182 0001980 110.4963 249.6401 13.51020672 12766
QIANFAN-140             
1 69086U 26104P   26224.54681278  .00000082  00000+0  10912-3 0  9994
2 69086  88.9920 335.7207 0001636 110.9683 249.1644 13.51028268 12760
QIANFAN-141             
1 69087U 26104Q   26224.55510442  .00000090  00000+0  12085-3 0  9992
2 69087  88.9917 335.6853 0001687 104.2695 255.8644 13.51021793 12780
QIANFAN-142             
1 69088U 26104R   26224.56332410  .00000095  00000+0  12803-3 0  9994
2 69088  88.9916 335.6843 0001793 110.9223 249.2121 13.51024114 12785
QIANFAN-143             
1 69089U 26104S   26224.55924444  .00000094  00000+0  12652-3 0  9999
2 69089  88.9927 335.6872 0002004  97.8284 262.3095 13.51020604 12782
QIANFAN-144             
1 69090U 26104T   26224.56743842  .00000096  00000+0  13017-3 0  9991
2 69090  88.9925 335.7053 0001933 113.6499 246.4856 13.51024677 12770
QIANFAN-145             
1 69104U 26108A   26224.57211574  .00000013  00000+0  23302-5 0  9993
2 69104  89.0138  16.4038 0000062 147.8960 212.2195 13.51034330 12059
QIANFAN-146             
1 69105U 26108B   26223.85486289 -.02148991  00000+0 -36283+1 0  9990
2 69105  89.0130  16.3080 0020490 307.5792  52.3498 13.49782002 12055
QIANFAN-147             
1 69106U 26108C   26224.50595637  .00000032  00000+0  30856-4 0  9995
2 69106  89.0139  16.4139 0001994  99.9668 260.1708 13.51019891 12036
QIANFAN-148             
1 69107U 26108D   26224.56759926  .00000022  00000+0  14993-4 0  9998
2 69107  89.0133  16.4003 0001892  94.8359 265.3008 13.51031114 12042
QIANFAN-149             
1 69108U 26108E   26224.50171109 -.00000035  00000+0 -73124-4 0  9991
2 69108  89.0133  16.4281 0001723 103.6634 256.4709 13.51038202 12032
QIANFAN-150             
1 69109U 26108F   26224.51000803  .00000006  00000+0 -89546-5 0  9998
2 69109  89.0138  16.3786 0001754 104.1155 256.0191 13.51040755 12054
QIANFAN-151             
1 69110U 26108G   26224.53881805  .00000012  00000+0  14885-7 0  9993
2 69110  89.0136  16.3995 0002113  93.2347 266.9046 13.51014410 12044
QIANFAN-152             
1 69111U 26108H   26224.51822340  .00000034  00000+0  34201-4 0  9996
2 69111  89.0133  16.3949 0002155 105.6221 254.5168 13.51023793 12059
QIANFAN-153             
1 69112U 26108J   26224.51414719  .00000008  00000+0 -57219-5 0  9991
2 69112  89.0130  16.3731 0001923 103.9003 256.2363 13.51038415 12050
QIANFAN-154             
1 69113U 26108K   26224.52242924  .00000017  00000+0  84812-5 0  9998
2 69113  89.0140  16.4171 0001866 100.2336 259.9026 13.51021832 12046
QIANFAN-155             
1 69114U 26108L   26223.85991202  .00000024  00000+0  18015-4 0  9993
2 69114  89.0136  16.4486 0007873 309.3897  50.6557 13.51038632 11960
QIANFAN-156             
1 69115U 26108M   26223.87981117 -.02051071  00000+0 -34994+1 0  9992
2 69115  89.0144  16.4420 0012419 305.4817  54.5173 13.48966172 11983
QIANFAN-157             
1 69116U 26108N   26224.52740485  .00000056  00000+0  70140-4 0  9997
2 69116  89.0135  16.3063 0018557 316.3461  43.6221 13.49889420 12100
QIANFAN-158             
1 69117U 26108P   26223.73680109  .00000046  00000+0  54242-4 0  9990
2 69117  89.0134  16.4278 0019576 312.2751  47.6739 13.49932060 11979
QIANFAN-159             
1 69118U 26108Q   26224.54294678  .00000042  00000+0  46578-4 0  9992
2 69118  89.0127  16.3570 0002053  94.9317 265.2069 13.51035409 12070
QIANFAN-160             
1 69119U 26108R   26224.55946050  .00000048  00000+0  55164-4 0  9999
2 69119  89.0142  16.3869 0001843 107.1612 252.9741 13.51030657 12069
QIANFAN-161             
1 69120U 26108S   26223.82277568 -.02110333  00000+0 -35853+1 0  9993
2 69120  89.0141  16.3749 0018728 309.4203  50.5289 13.49317899 12017
QIANFAN-162             
1 69121U 26108T   26223.88794590 -.02055269  00000+0 -35343+1 0  9999
2 69121  89.0134  16.3967 0022032 304.2703  55.6360 13.48402498 11994
QIANFAN-163             
1 69325U 26121A   26224.59393443  .00000096  00000+0  13015-3 0  9990
2 69325  89.0161 294.9034 0001381  95.1198 265.0111 13.51029323  9788
QIANFAN-164             
1 69326U 26121B   26224.56105046  .00000095  00000+0  12802-3 0  9990
2 69326  89.0160 294.8978 0001756  91.1097 269.0255 13.51030650  9782
QIANFAN-165             
1 69382U 26124A   26224.51984518  .00000055  00000+0  58813-4 0  9998
2 69382  89.0045 355.9441 0009283 359.9093   0.2059 13.57849019  9649
QIANFAN-166             
1 69383U 26124B   26224.49982736  .00000009  00000+0 -44880-5 0  9996
2 69383  89.0066 355.9440 0008582   8.8072 351.3228 13.49924892  9642
QIANFAN-167             
1 69384U 26124C   26223.83799974 -.02072304  00000+0 -35495+1 0  9991
2 69384  89.0030 356.0271 0008163 351.1430   8.9574 13.48773711  9544
QIANFAN-168             
1 69385U 26124D   26223.93417354  .00000000  00000+0 -16281-4 0  9999
2 69385  89.0034 356.0025 0010840 359.5258   0.5884 13.57846500  9562
QIANFAN-169             
1 69386U 26124E   26223.84553420 -.02019272  00000+0 -34728+1 0  9991
2 69386  89.0030 356.0083 0016065 348.7481  11.3307 13.48366458  9554
QIANFAN-170             
1 69387U 26124F   26224.62503877  .00000059  00000+0  65645-4 0  9995
2 69387  89.0047 355.9030 0009476 356.7713   3.3379 13.57844851  9679
QIANFAN-171             
1 69388U 26124G   26224.55830177  .00000055  00000+0  59738-4 0  9996
2 69388  89.0065 355.9159 0010098  17.5384 342.6118 13.57843532  9664
QIANFAN-172             
1 69389U 26124H   26223.86011566 -.01978360  00000+0 -32085+1 0  9991
2 69389  89.0044 355.9764 0010644  28.4843 331.6888 13.52068244  9578
QIANFAN-173             
1 69390U 26124J   26224.45770036 -.00000002  00000+0 -21030-4 0  9993
2 69390  89.0036 355.9155 0010958   6.0772 354.0512 13.55341730  9655
QIANFAN-174             
1 69391U 26124K   26223.81943389 -.01886108  00000+0 -29632+1 0  9998
2 69391  89.0017 355.9490 0006877  27.9986 332.1536 13.54591026  9579
QIANFAN-175             
1 69392U 26124L   26224.26483183  .00000044  00000+0  44444-4 0  9996
2 69392  89.0068 355.9282 0010167  11.6604 348.4785 13.57849420  9639
QIANFAN-176             
1 69393U 26124M   26224.57719088  .00000072  00000+0  82883-4 0  9997
2 69393  89.0032 355.8944 0010907   3.5422 356.5808 13.57852752  9666
QIANFAN-177             
1 69394U 26124N   26224.59618218  .00000058  00000+0  63283-4 0  9990
2 69394  89.0041 355.8798 0012091   1.9010 358.2188 13.57857978  9682
QIANFAN-178             
1 69395U 26124P   26224.58340497  .00000022  00000+0  13454-4 0  9997
2 69395  88.9997 355.8549 0010608   5.2647 354.8618 13.57850230  9695
QIANFAN-179             
1 69396U 26124Q   26223.82676485 -.01886665  00000+0 -29639+1 0  9999
2 69396  89.0019 355.9320 0008527  40.7427 319.4363 13.54589857  9592
QIANFAN-180             
1 69397U 26124R   26223.82960205 -.01886084  00000+0 -30382+1 0  9998
2 69397  89.0022 355.9499 0009805  31.2275 328.9458 13.52991672  9589
QIANFAN-181             
1 69398U 26124S   26223.86614299 -.02081697  00000+0 -35164+1 0  9993
2 69398  89.0040 356.0305 0008237 351.8247   8.2768 13.49684964  9543
QIANFAN-182             
1 69399U 26124T   26223.87302091 -.01891712  00000+0 -30602+1 0  9997
2 69399  89.0021 356.0102 0011312  26.5556 333.6174 13.52729174  9548
QIANFAN-183             
1 69401U 26125A   26224.50694031  .00000053  00000+0  57472-4 0  9996
2 69401  88.9877 274.3018 0021589   8.0502 352.0994 13.56554392  9547
QIANFAN-184             
1 69402U 26125B   26224.54142620  .00000087  00000+0  10397-3 0  9994
2 69402  88.9922 274.3124 0021841   2.8376 357.2899 13.57838096  9547
QIANFAN-185             
1 69403U 26125C   26223.83970001 -.02091016  00000+0 -30065+1 0  9995
2 69403  88.9931 274.3204 0019777   1.7616 358.3606 13.59843871  9487
QIANFAN-186             
1 69404U 26125D   26224.53471605  .00000066  00000+0  74431-4 0  9990
2 69404  88.9923 274.3115 0022606   1.1386 358.9816 13.57844181  9542
QIANFAN-187             
1 69405U 26125E   26224.54973550  .00000065  00000+0  73205-4 0  9995
2 69405  88.9923 274.2943 0023864   2.2497 357.8761 13.57847316  9554
QIANFAN-188             
1 69406U 26125F   26224.58767047  .00000034  00000+0  34132-4 0  9994
2 69406  88.9922 274.2804 0023972  10.4849 349.6796 13.49947673  9568
QIANFAN-189             
1 69407U 26125G   26223.78650087 -.02095566  00000+0 -34726+1 0  9994
2 69407  88.9901 274.3647 0025353   9.8433 350.3210 13.50826046  9447
QIANFAN-190             
1 69408U 26125H   26223.85072216 -.02108265  00000+0 -33786+1 0  9991
2 69408  88.9904 274.3564 0029046  10.6985 349.4779 13.52944006  9464
QIANFAN-191             
1 69409U 26125J   26224.53852337  .00000037  00000+0  39518-4 0  9995
2 69409  88.9921 274.2919 0022902   3.6628 356.4686 13.49933780  9555
QIANFAN-192             
1 69410U 26125K   26223.85561599 -.02010029  00000+0 -34495+1 0  9999
2 69410  88.9922 274.3600 0021044 356.1382   3.9602 13.48449372  9465
QIANFAN-193             
1 69411U 26125L   26224.57278409  .00000080  00000+0  93983-4 0  9998
2 69411  88.9905 274.2771 0023225   4.6704 355.4663 13.57847905  9568
QIANFAN-194             
1 69412U 26125M   26224.54659444  .00000048  00000+0  51554-4 0  9990
2 69412  88.9937 274.2766 0023731 359.9740   0.1408 13.55198755  9556
QIANFAN-195             
1 69413U 26125N   26224.46637244  .00000055  00000+0  64735-4 0  9999
2 69413  88.9940 274.2655 0024314   6.9009 353.2473 13.53189108  9568
QIANFAN-196             
1 69414U 26125P   26223.82873771 -.02101407  00000+0 -33439+1 0  9996
2 69414  88.9939 274.3368 0027959  14.3705 345.8237 13.53391197  9471
QIANFAN-197             
1 69415U 26125Q   26223.62903862 -.01885934  00000+0 -29585+1 0  9990
2 69415  88.9914 274.3428 0018623  12.6978 347.4640 13.54623764  9445
QIANFAN-198             
1 69416U 26125R   26224.03927958  .00000025  00000+0  18765-4 0  9998
2 69416  88.9914 274.3106 0022166   9.1053 351.0498 13.54696434  9504
QIANFAN-199             
1 69417U 26125S   26223.82105097 -.01915481  00000+0 -30037+1 0  9993
2 69417  88.9911 274.2987 0024358  13.3391 346.8401 13.54669336  9490
QIANFAN-200             
1 69418U 26125T   26224.24059778  .00000046  00000+0  50045-4 0  9999
2 69418  88.9923 274.3215 0023479   5.5326 354.6082 13.54201909  9516
QIANFAN-201             
1 69800U 26153A   26224.50734807  .00000252  00000+0  12700-3 0  9991
2 69800  88.9956 355.8149 0010604  91.9651 268.2750 14.13287207  5568
QIANFAN-202             
1 69801U 26153B   26224.56467608  .00000212  00000+0  10351-3 0  9996
2 69801  88.9956 355.8048 0010931  93.0587 267.1851 14.14343709  5562
QIANFAN-203             
1 69802U 26153C   26224.56910942  .00000214  00000+0  11039-3 0  9997
2 69802  88.9956 355.8244 0009851  94.6488 265.5823 14.11303482  5569
QIANFAN-204             
1 69803U 26153D   26224.62650116  .00000180  00000+0  89392-4 0  9999
2 69803  88.9957 355.8146 0010161  93.3681 266.8668 14.12786927  5571
QIANFAN-205             
1 69804U 26153E   26224.51385555  .00000248  00000+0  13221-3 0  9992
2 69804  88.9956 355.8343 0010075  92.6492 267.5846 14.10158660  5555
QIANFAN-206             
1 69805U 26153F   26224.52978224  .00000202  00000+0  95256-4 0  9994
2 69805  88.9956 355.8183 0010076  98.6792 261.5538 14.15949539  5569
QIANFAN-207             
1 69806U 26153G   26224.61929783  .00000160  00000+0  80676-4 0  9994
2 69806  88.9956 355.8131 0010274  90.7661 269.4702 14.11278594  5574
QIANFAN-208             
1 69807U 26153H   26224.55925340  .00000218  00000+0  10425-3 0  9991
2 69807  88.9956 355.8229 0009091 102.0583 258.1624 14.15498738  5574
QIANFAN-209             
1 69808U 26153J   26224.55764139  .00000176  00000+0  90543-4 0  9992
2 69808  88.9957 355.8225 0010450  91.7594 268.4788 14.10877016  5568
QIANFAN-210             
1 69809U 26153K   26224.54611723  .00000154  00000+0  77295-4 0  9997
2 69809  88.9957 355.8212 0010895  95.0141 265.2289 14.11481460  5569
QIANFAN-211             
1 69810U 26153L   26224.52649412  .00000158  00000+0  75113-4 0  9994
2 69810  88.9957 355.8177 0010154  95.0845 265.1501 14.14520466  5569
QIANFAN-212             
1 69811U 26153M   26224.52216133  .00000213  00000+0  10626-3 0  9994
2 69811  88.9956 355.8170 0011578  98.0104 262.2396 14.13072909  5567
QIANFAN-213             
1 69812U 26153N   26224.52011043  .00000221  00000+0  11190-3 0  9994
2 69812  88.9956 355.8167 0010296  93.7573 266.4790 14.12631520  5565
QIANFAN-214             
1 69813U 26153P   26224.58664015  .00000220  00000+0  10274-3 0  9995
2 69813  88.9956 355.7894 0010383  97.2813 262.9556 14.16833923  5583
QIANFAN-215             
1 69814U 26153Q   26224.60915673  .00000251  00000+0  10765-3 0  9997
2 69814  88.9955 355.7735 0010486 102.5598 257.6767 14.21784151  5591
QIANFAN-216             
1 69815U 26153R   26224.56543264  .00000232  00000+0  10583-3 0  9993
2 69815  88.9956 355.7861 0010006 101.9693 258.2618 14.18152335  5580
QIANFAN-217             
1 69816U 26153S   26224.64711509  .00000246  00000+0  95458-4 0  9992
2 69816  88.9955 355.7605 0010125 104.6922 255.5395 14.26783400  5600
QIANFAN-218             
1 69817U 26153T   26224.57579843  .00000251  00000+0  97604-4 0  9999
2 69817  88.9958 355.7697 0009805 102.9573 257.2716 14.26827444  5592
QIANFAN-219             
1 69848U 26155A   26223.84683336 -.02115378  00000+0 -15087+1 0  9999
2 69848  89.0036  57.8267 0030529 133.5020 226.8705 14.01435466  5303
QIANFAN-220             
1 69849U 26155B   26223.84103190 -.02128207  00000+0 -16924+1 0  9991
2 69849  89.0048  57.8628 0034183 116.2615 244.2081 13.95227334  5289
QIANFAN-221             
1 69850U 26155C   26223.24496752 -.02072028  00000+0 -11903+1 0  9997
2 69850  89.0037  57.8657 0034083 133.6890 226.7130 14.13247349  5232
QIANFAN-222             
1 69851U 26155D   26223.81684960 -.02077047  00000+0 -16485+1 0  9997
2 69851  89.0033  57.8612 0035224 118.3915 242.0819 13.95217816  5281
QIANFAN-223             
1 69852U 26155E   26223.80683598 -.02082913  00000+0 -16513+1 0  9993
2 69852  89.0047  57.8581 0032035 115.7786 244.6702 13.95342630  5288
QIANFAN-224             
1 69853U 26155F   26223.77987451 -.01911958  00000+0 -14136+1 0  9993
2 69853  89.0028  57.8478 0033960 130.9298 229.4830 13.98936093  5286
QIANFAN-225             
1 69854U 26155G   26224.29508011  .00000000  00000+0 -97185-5 0  9998
2 69854  89.0045  57.7993 0031191 123.7781 236.6375 13.98560697  5353
QIANFAN-226             
1 69855U 26155H   26224.35891546 -.00000018  00000+0 -21777-4 0  9997
2 69855  89.0044  57.7902 0032050 124.4968 235.9245 13.99205844  5363
QIANFAN-227             
1 69856U 26155J   26223.84907259 -.02068627  00000+0 -16191+1 0  9992
2 69856  89.0046  57.8445 0034305 118.0186 242.4468 13.96012515  5295
QIANFAN-228             
1 69857U 26155K   26223.77012296 -.02083914  00000+0 -15724+1 0  9990
2 69857  89.0050  57.8521 0031813 123.2518 237.1716 13.98167539  5289
QIANFAN-229             
1 69858U 26155L   26224.51773022  .00000157  00000+0  93899-4 0  9992
2 69858  89.0159  57.7701 0033735 125.7001 234.7327 14.01827216  5391
QIANFAN-230             
1 69859U 26155M   26223.82940601 -.02025553  00000+0 -16365+1 0  9995
2 69859  89.0039  57.8581 0033688 122.1267 238.3186 13.94116898  5287
QIANFAN-231             
1 69860U 26155N   26223.85177672 -.02106162  00000+0 -15228+1 0  9993
2 69860  89.0045  57.8282 0030848 128.9901 231.4033 14.00641231  5308
QIANFAN-232             
1 69861U 26155P   26223.83958207 -.02102082  00000+0 -15206+1 0  9996
2 69861  89.0042  57.8247 0028969 138.8529 221.4842 14.00630747  5301
QIANFAN-233             
1 69862U 26155Q   26223.84272129 -.02119859  00000+0 -14946+1 0  9990
2 69862  89.0042  57.8259 0030466 135.8043 224.5579 14.02090487  5302
QIANFAN-234             
1 69863U 26155R   26224.47170151  .00000150  00000+0  81590-4 0  9995
2 69863  89.0050  57.7528 0031293 124.2693 236.1461 14.06608579  5391
QIANFAN-235             
1 69864U 26155S   26224.58634791  .00000058  00000+0  21081-4 0  9999
2 69864  89.0050  57.7142 0032299 130.3899 230.0117 14.17432408  5420
QIANFAN-236             
1 69865U 26155T   26224.45793071  .00000102  00000+0  58280-4 0  9994
2 69865  89.0053  57.7693 0030786 123.5153 236.8974 14.00967005  5389
QIANFAN-237             
1 69866U 26155U   26224.47765807  .00000136  00000+0  76551-4 0  9991
2 69866  89.0051  57.7539 0031934 124.2668 236.1545 14.04249251  5389
QIANFAN-238             
1 69867U 26155V   26224.37437428  .00000043  00000+0  18150-4 0  9994
2 69867  89.0051  57.7558 0028977 127.6927 232.6889 14.04705764  5387
