ORBCOMM-X               
1 21576U 91050C   26098.27041973  .00000299  00000+0  10082-3 0  9997
2 21576  98.3012 163.2877 0003971  32.8644 327.2793 14.43540861824684
ORBCOMM FM01            
1 23545U 95017A   26098.17604372  .00007854  00000+0  72102-3 0  9994
2 23545  69.9617  55.8275 0006974 245.6424 114.4006 14.95169173656520
ORBCOMM FM02            
1 23546U 95017B   26097.96836237  .00009046  00000+0  78429-3 0  9991
2 23546  69.9621  74.1214 0008369 245.8419 114.1865 14.97339213656187
ORBCOMM FM08            
1 25112U 97084A   26098.17396789  .00001344  00000+0  40467-3 0  9999
2 25112  45.0144  30.4070 0007560 312.8308  47.1908 14.47088777484084
ORBCOMM FM10            
1 25113U 97084B   26098.20461337  .00001216  00000+0  37198-3 0  9991
2 25113  45.0157  33.2254 0005618 285.3908  74.6323 14.46809597659222
ORBCOMM FM11            
1 25114U 97084C   26098.26158874  .00001266  00000+0  38782-3 0  9992
2 25114  45.0142  34.1358 0006416 285.2346  74.7796 14.46544883484184
ORBCOMM FM12            
1 25115U 97084D   26098.21946319  .00001228  00000+0  37723-3 0  9999
2 25115  45.0147  34.0528 0005464 285.2951  74.7297 14.46573787483979
ORBCOMM FM09            
1 25116U 97084E   26098.21332112  .00001258  00000+0  38697-3 0  9994
2 25116  45.0152  35.3681 0006441 271.3511  88.6603 14.46392015484175
ORBCOMM FM05            
1 25117U 97084F   26098.25516163  .00001380  00000+0  41363-3 0  9999
2 25117  45.0152  29.9599 0003204 298.6981  61.3549 14.47200624483339
ORBCOMM FM06            
1 25118U 97084G   26098.24458559  .00001418  00000+0  42227-3 0  9995
2 25118  45.0147  29.3709 0002243 310.4146 203.7763 14.47386730484254
ORBCOMM FM07            
1 25119U 97084H   26098.22677957  .00001336  00000+0  40002-3 0  9997
2 25119  45.0144  30.1951 0003863 289.6748  70.3687 14.47388628484245
ORBCOMM FM03            
1 25158U 98007B   26098.22480800  .00000982  00000+0  38390-3 0  9998
2 25158 107.9613  22.0427 0042731  91.4368 269.1668 14.35375964466365
ORBCOMM FM04            
1 25159U 98007C   26098.22928493  .00001008  00000+0  39177-3 0  9998
2 25159 107.9602  25.4680 0038580  88.3756 272.1803 14.35600029466554
ORBCOMM FM17            
1 25413U 98046A   26098.28447784  .00000762  00000+0  30943-3 0  9997
2 25413  44.9949 304.1224 0002114 248.0277 112.0346 14.35806023445574
ORBCOMM FM18            
1 25414U 98046B   26098.26438085  .00001114  00000+0  39906-3 0  9990
2 25414  44.9922 213.4494 0004088 306.0480  53.9989 14.39528785446757
ORBCOMM FM19            
1 25415U 98046C   26098.32362134  .00001209  00000+0  43079-3 0  9990
2 25415  44.9933 215.6103 0003184 291.1229  97.6271 14.39358522446717
ORBCOMM FM20            
1 25416U 98046D   26098.33157804  .00000894  00000+0  33971-3 0  9997
2 25416  44.9935 222.7339 0001146 235.6600 124.4139 14.37963573446732
ORBCOMM FM16            
1 25417U 98046E   26098.29918936  .00001079  00000+0  38488-3 0  9998
2 25417  44.9929 210.2934 0003493 321.6552  38.4048 14.39924152446777
ORBCOMM FM15            
1 25418U 98046F   26098.28154239  .00001114  00000+0  39908-3 0  9994
2 25418  44.9963 216.4356 0003089 321.4414  38.6214 14.39545062446752
ORBCOMM FM14            
1 25419U 98046G   26098.28612013  .00001168  00000+0  41236-3 0  9990
2 25419  44.9949 213.7072 0002294 301.0247  59.0376 14.39988293446738
ORBCOMM FM13            
1 25420U 98046H   26098.33012896  .00001005  00000+0  37180-3 0  9994
2 25420  44.9965 224.5825 0004493 303.9745  56.0676 14.38521137445728
ORBCOMM FM21            
1 25475U 98053A   26098.27620261  .00000758  00000+0  29444-3 0  9994
2 25475  45.0088 311.2697 0000920 279.0983  80.9761 14.38078613439714
ORBCOMM FM22            
1 25476U 98053B   26098.28707366  .00000981  00000+0  35843-3 0  9996
2 25476  45.0079 303.4591 0002567 267.6148  92.4407 14.39325335439774
ORBCOMM FM23            
1 25477U 98053C   26098.30011812  .00000881  00000+0  33298-3 0  9995
2 25477  45.0088 312.7670 0001848 266.7384  93.3253 14.38349794439873
ORBCOMM FM24            
1 25478U 98053D   26097.97444536  .00000999  00000+0  36642-3 0  9997
2 25478  45.0085 310.4030 0001600 275.0030  85.0636 14.39003747439894
ORBCOMM FM25            
1 25479U 98053E   26097.88284559  .00001001  00000+0  36725-3 0  9992
2 25479  45.0076 309.1591 0003928 287.9929  72.0492 14.38963317440172
ORBCOMM FM26            
1 25480U 98053F   26097.61454234  .00000813  00000+0  31361-3 0  9995
2 25480  45.0073 309.1619 0005829 302.8234  57.2053 14.37882412440016
ORBCOMM FM27            
1 25481U 98053G   26098.00207383  .00001025  00000+0  37468-3 0  9991
2 25481  45.0060 308.6745 0000256 335.4250  24.6587 14.39009225440123
ORBCOMM FM28            
1 25482U 98053H   26098.14976852  .00001006  00000+0  36807-3 0  9996
2 25482  45.0048 245.1548 0003398 331.2409  28.8251 14.39097903440838
ORBCOMM FM30            
1 25980U 99065A   26098.05747694  .00000744  00000+0  29001-3 0  9999
2 25980  45.0300 133.1839 0004703  29.9629 330.1488 14.38045946376880
ORBCOMM FM31            
1 25981U 99065B   26098.11470393  .00000655  00000+0  26138-3 0  9995
2 25981  45.0214 126.3504 0001709  54.5731 305.5277 14.37964752376447
ORBCOMM FM32            
1 25982U 99065C   26098.07704154  .00000659  00000+0  26772-3 0  9994
2 25982  45.0142 145.0700 0003782  61.8051 298.3179 14.37027063377001
ORBCOMM FM33            
1 25983U 99065D   26098.13957699  .00000962  00000+0  34162-3 0  9995
2 25983  45.0297  35.7223 0006997  99.2761 260.8880 14.40859333378597
ORBCOMM FM36            
1 25984U 99065E   26098.06476602  .00001078  00000+0  39137-3 0  9994
2 25984  45.0378 132.4435 0004171 309.0203  51.0275 14.39065174376881
ORBCOMM FM35            
1 25985U 99065F   26098.12598736  .00000890  00000+0  33874-3 0  9998
2 25985  45.0381 139.6289 0001368  58.5463 301.5519 14.37949691377227
ORBCOMM FM34            
1 25986U 99065G   26098.09874407  .00000695  00000+0  27518-3 0  9998
2 25986  45.0375 140.2890 0003186 345.7799  14.2960 14.37847234377330
ORBCOMM FM38            
1 33060U 08031A   26098.10510953  .00001510  00000+0  21097-3 0  9991
2 33060  48.4408 348.1500 0004908 235.4530 124.5923 14.82872079958495
ORBCOMM FM41            
1 33061U 08031B   26098.15764979  .00001524  00000+0  21497-3 0  9995
2 33061  48.4445 356.7512 0004048 220.0472 294.4563 14.82399266957976
ORBCOMM FM29            
1 33062U 08031C   26098.18232015  .00001608  00000+0  22450-3 0  9993
2 33062  48.4397   4.0052 0005654 219.3281 297.2772 14.82578561957899
ORBCOMM FM39            
1 33063U 08031D   26098.22011214  .00001386  00000+0  20467-3 0  9994
2 33063  48.4407  31.5305 0006330 188.7291 171.3516 14.80941141957502
ORBCOMM FM37            
1 33064U 08031E   26098.18023951  .00001314  00000+0  19470-3 0  9994
2 33064  48.4402  19.7882 0005098 209.5241 311.2466 14.81131703957755
ORBCOMM FM40            
1 33065U 08031F   26098.14099212  .00001820  00000+0  24340-3 0  9998
2 33065  48.4422 358.6400 0006178 225.0869 283.3515 14.83817579957936
VESSELSAT 1             
1 37840U 11058C   26098.05653995  .00000359  00000+0  50754-4 0  9995
2 37840  19.9611 109.5226 0013581 189.6040 170.4106 14.11427065748012
ORBCOMM FM109           
1 40086U 14040A   26098.23916340  .00000568  00000+0  15665-3 0  9994
2 40086  47.0034  62.1740 0002452 271.2946  88.7659 14.58769961624137
ORBCOMM FM107           
1 40087U 14040B   26098.25206520  .00000644  00000+0  17250-3 0  9996
2 40087  47.0050  62.9491 0001243 237.5052 122.5714 14.58857450624216
ORBCOMM FM106           
1 40088U 14040C   26098.29986278  .00000889  00000+0  17654-3 0  9995
2 40088  47.0593 220.8382 0016188 356.0426   4.0335 14.70379416626893
ORBCOMM FM111           
1 40089U 14040D   26098.23890749  .00002178  00000+0  25370-3 0  9994
2 40089  47.0014  30.0248 0028265 168.8562 191.2968 14.88525480634155
ORBCOMM FM104           
1 40090U 14040E   26098.29391030  .00000391  00000+0  12331-3 0  9999
2 40090  47.0039  99.9543 0015136 115.0199 245.2259 14.57209529623654
ORBCOMM FM103           
1 40091U 14040F   26098.24178975  .00000622  00000+0  16811-3 0  9990
2 40091  47.0054  63.7413 0001771 223.4846 136.5901 14.58760875607172
ORBCOMM FM114           
1 41179U 15081A   26097.91445631  .00000555  00000+0  15392-3 0  9991
2 41179  47.0063 334.2252 0002598 245.4754 114.5861 14.58779994547498
ORBCOMM FM119           
1 41180U 15081B   26098.12037365  .00000585  00000+0  16048-3 0  9990
2 41180  46.9997 242.6113 0001409 290.6324  69.4410 14.58721676548771
ORBCOMM FM105           
1 41181U 15081C   26098.18695197  .00000210  00000+0  10328-3 0  9990
2 41181  47.0013 276.2053 0002065 213.8209 146.2540 14.45519315543423
ORBCOMM FM110           
1 41182U 15081D   26098.04048232  .00000828  00000+0  21167-3 0  9996
2 41182  47.0035 333.0925 0002473 111.3546 248.7604 14.58798321547385
ORBCOMM FM118           
1 41183U 15081E   26098.07513909  .00000837  00000+0  21355-3 0  9997
2 41183  47.0056 333.2503 0002629  65.4422 294.6737 14.58795601547495
ORBCOMM FM112           
1 41184U 15081F   26098.07803101  .00000723  00000+0  18940-3 0  9994
2 41184  46.9986 241.7217 0002534 241.1822 118.8810 14.58791756548715
ORBCOMM FM113           
1 41185U 15081G   26098.12383470  .00000599  00000+0  16313-3 0  9996
2 41185  46.9999 241.8783 0002188 248.3951 111.6702 14.58782889548703
ORBCOMM FM115           
1 41186U 15081H   26098.11034832  .00000694  00000+0  16752-3 0  9994
2 41186  46.9980  76.1695 0001625 313.2860  46.7892 14.63178278550956
ORBCOMM FM108           
1 41187U 15081J   26098.15499826  .00000694  00000+0  18337-3 0  9998
2 41187  47.0038 153.2827 0003591 244.0705 115.9811 14.58798935549859
ORBCOMM FM117           
1 41188U 15081K   26098.18889068  .00000654  00000+0  17492-3 0  9990
2 41188  47.0001 151.7778 0004048 248.0841 111.9615 14.58794204549900
ORBCOMM FM116           
1 41189U 15081L   26098.10128481  .00000699  00000+0  18438-3 0  9998
2 41189  47.0018 241.9798 0001186 122.1171 237.9830 14.58787987548706
