QIANFAN-1               
1 60379U 24140A   26072.56891741  .00000039  00000+0  41848-4 0  9994
2 60379  88.9703 289.8821 0016368 317.5366  42.4518 13.51000393 79617
QIANFAN-2               
1 60380U 24140B   26072.59762756  .00000047  00000+0  54121-4 0  9999
2 60380  88.9689 289.7058 0011092 288.3331  71.6614 13.51004511 79672
QIANFAN-3               
1 60381U 24140C   26072.60580836  .00000048  00000+0  55861-4 0  9992
2 60381  88.9682 289.8308 0012443 302.1770  57.8174 13.51000607 79587
QIANFAN-4               
1 60382U 24140D   26072.58122597  .00000068  00000+0  86109-4 0  9997
2 60382  88.9707 289.7538 0011365 291.3258  68.6680 13.51001053 79704
QIANFAN-5               
1 60383U 24140E   26072.55654703  .00000048  00000+0  56014-4 0  9994
2 60383  88.9682 289.8612 0013955 314.1790  45.8213 13.51002753 79564
QIANFAN-6               
1 60384U 24140F   26072.57712899  .00000045  00000+0  51261-4 0  9994
2 60384  88.9708 289.6295 0011573 298.0227  61.9753 13.51002621 79762
QIANFAN-7               
1 60385U 24140G   26072.57663205  .00000277  00000+0  10596-3 0  9993
2 60385  88.9723 283.0502 0017120 100.1605 260.1521 14.27776833 83359
QIANFAN-8               
1 60386U 24140H   26072.58533601  .00000058  00000+0  71029-4 0  9997
2 60386  88.9710 289.8676 0015064 299.3752  60.5894 13.51004176 79610
QIANFAN-9               
1 60387U 24140J   26072.56067384  .00000047  00000+0  54180-4 0  9993
2 60387  88.9708 289.9438 0014756 299.2726  60.6950 13.50998878 79593
QIANFAN-10              
1 60388U 24140K   26072.56468622  .00000050  00000+0  58675-4 0  9991
2 60388  88.9717 289.2991 0012920 274.1565  85.8109 13.50997371 79722
QIANFAN-11              
1 60389U 24140L   26072.60181590  .00000060  00000+0  74163-4 0  9994
2 60389  88.9643 289.8148 0012780 299.4183  60.5692 13.51004248 79383
QIANFAN-12              
1 60390U 24140M   26072.62240571  .00000052  00000+0  62116-4 0  9999
2 60390  88.9687 289.8958 0011783 308.9711  51.0390 13.51001856 79514
QIANFAN-13              
1 60391U 24140N   26072.59357414  .00000052  00000+0  62163-4 0  9993
2 60391  88.9699 290.0098 0011670 312.0841  47.9317 13.51002291 79531
QIANFAN-14              
1 60392U 24140P   26072.61819085  .00000055  00000+0  67240-4 0  9998
2 60392  88.9678 289.8855 0015343 310.4386  49.5426 13.51002241 79548
QIANFAN-15              
1 60393U 24140Q   26072.55252068  .00000052  00000+0  61350-4 0  9997
2 60393  88.9701 289.8704 0010852 296.9717  63.0325 13.51000001 79524
QIANFAN-16              
1 60394U 24140R   26072.61408346  .00000052  00000+0  61448-4 0  9995
2 60394  88.9704 289.9868 0013375 315.4610  44.5465 13.50998762 79441
QIANFAN-17              
1 60395U 24140S   26072.61003820  .00000043  00000+0  47766-4 0  9991
2 60395  88.9715 290.0431 0013614 308.4226  51.5702 13.51005381 80401
QIANFAN-18              
1 60396U 24140T   26072.58950446  .00000053  00000+0  62945-4 0  9990
2 60396  88.9708 289.5722 0012619 289.3265  70.6522 13.51004478 79792
QIANFAN-19              
1 61552U 24185A   26072.56765736  .00000582  00000+0  29672-3 0  9994
2 61552  88.9765  67.5101 0007883  30.0860 330.0778 14.14396276 82503
QIANFAN-20              
1 61553U 24185B   26072.59634029  .00000522  00000+0  29405-3 0  9996
2 61553  88.9762  67.9222 0007878  64.7473 295.4527 14.08942311 82288
QIANFAN-21              
1 61554U 24185C   26072.55293897  .00000760  00000+0  33253-3 0  9997
2 61554  88.9684  66.3191 0012926  71.5432 288.7164 14.22740320 82881
QIANFAN-22              
1 61555U 24185D   26072.58933040  .00000288  00000+0  23772-3 0  9992
2 61555  88.9746  69.2716 0008609  81.5983 278.6163 13.86343480 81523
QIANFAN-23              
1 61556U 24185E   26072.55625174  .00000696  00000+0  34331-3 0  9992
2 61556  88.9758  67.2784 0008930  38.2034 321.9785 14.16403016 82601
QIANFAN-24              
1 61557U 24185F   26072.54931428  .00000938  00000+0  40289-3 0  9992
2 61557  88.9742  66.5358 0009680  16.3353 343.8149 14.23947587 82946
QIANFAN-25              
1 61558U 24185G   26072.53651140  .00000525  00000+0  31177-3 0  9990
2 61558  88.9755  67.8909 0011781  44.9521 315.2613 14.06003348 82269
QIANFAN-26              
1 61559U 24185H   26072.59828416  .00000256  00000+0  24249-3 0  9992
2 61559  88.9751  69.9235 0007931  94.6522 265.5550 13.77865475 81187
QIANFAN-27              
1 61560U 24185J   26072.60138199  .00000669  00000+0  26667-3 0  9992
2 61560  88.9756  66.2686 0007734   9.4447 350.6892 14.27453397 83128
QIANFAN-28              
1 61561U 24185K   26072.60658580  .00001066  00000+0  42202-3 0  9999
2 61561  88.9771  66.2754 0007304  10.6325 349.5022 14.28230763 83149
QIANFAN-29              
1 61562U 24185L   26072.53865725  .00000227  00000+0  33300-3 0  9990
2 61562  88.9723  71.9073 0011042 138.8060 221.3927 13.51047049 80053
QIANFAN-30              
1 61563U 24185M   26072.58231935  .00000221  00000+0  32881-3 0  9993
2 61563  88.9743  71.4630 0009221 124.2983 235.9042 13.50021864 80324
QIANFAN-31              
1 61564U 24185N   26072.60669887  .00000240  00000+0  31508-3 0  9994
2 61564  88.9727  71.1177 0008822 116.4006 243.8056 13.58006616 80492
QIANFAN-32              
1 61565U 24185P   26072.57464946  .00000183  00000+0  26602-3 0  9995
2 61565  88.9786  71.6258 0010423 150.8962 209.2772 13.50766389 80309
QIANFAN-33              
1 61566U 24185Q   26072.53838333  .00000490  00000+0  34374-3 0  9993
2 61566  88.9743  68.6629 0008929  54.1464 306.0541 13.96630731 81832
QIANFAN-34              
1 61567U 24185R   26072.55938851  .00000583  00000+0  37094-3 0  9997
2 61567  88.9721  68.1034 0007911  56.7405 303.4532 14.02391739 82086
QIANFAN-35              
1 61568U 24185S   26072.57855731  .00001055  00000+0  41870-3 0  9997
2 61568  88.9752  66.1933 0006483   9.3488 350.7826 14.28136808 83146
QIANFAN-36              
1 61569U 24185T   26072.60419693  .00000123  00000+0  15881-3 0  9993
2 61569  88.9722  71.5589 0007581 126.9754 233.2095 13.55615469 80237
QIANFAN-37              
1 62238U 24232B   26072.57256657  .00000100  00000+0  13639-3 0  9999
2 62238  89.0065  32.1585 0001983  97.7761 262.3615 13.51006645111439
QIANFAN-38              
1 62239U 24232C   26072.59720355  .00000093  00000+0  12531-3 0  9994
2 62239  89.0072  32.0781 0012787 298.2277  61.7583 13.51005241111491
QIANFAN-39              
1 62240U 24232D   26072.54287321  .00000508  00000+0  20890-3 0  9990
2 62240  89.0069  26.9261 0017532 134.4790 225.7840 14.25444623114324
QIANFAN-40              
1 62241U 24232E   26072.55605949  .00000090  00000+0  12173-3 0  9993
2 62241  89.0100  31.6922 0012038 307.8485  52.1576 13.51004533111854
QIANFAN-41              
1 62242U 24232F   26072.56432302  .00000089  00000+0  11913-3 0  9995
2 62242  89.0070  32.0313 0012122 294.0400  65.9483 13.51006130111515
QIANFAN-42              
1 62243U 24232G   26072.45816695  .00000489  00000+0  20431-3 0  9994
2 62243  89.0067  26.9964 0016171 139.9729 220.2659 14.24537960114284
QIANFAN-43              
1 62244U 24232H   26072.56016471  .00000087  00000+0  11699-3 0  9991
2 62244  89.0074  32.1011 0013757 299.3918  60.5859 13.51006125 80128
QIANFAN-44              
1 62245U 24232J   26072.54784390  .00000101  00000+0  13762-3 0  9992
2 62245  89.0073  31.9117 0011913 296.8136  63.1797 13.51004080111592
QIANFAN-45              
1 62246U 24232K   26072.58900263  .00000101  00000+0  13829-3 0  9990
2 62246  89.0076  32.0572 0012566 295.9575  64.0282 13.51007945111520
QIANFAN-46              
1 62247U 24232L   26072.53959544  .00000100  00000+0  13631-3 0  9992
2 62247  89.0072  32.1274 0012749 302.3459  57.6457 13.51004656111476
QIANFAN-47              
1 62248U 24232M   26072.54370777  .00000106  00000+0  14585-3 0  9994
2 62248  89.0068  32.0564 0013147 301.1836  58.8026 13.51004557111501
QIANFAN-48              
1 62249U 24232N   26072.58074464  .00000105  00000+0  14451-3 0  9994
2 62249  89.0072  32.0581 0015461 303.1772  56.7896 13.51004687111515
QIANFAN-49              
1 62250U 24232P   26072.56841232  .00000093  00000+0  12568-3 0  9992
2 62250  89.0071  32.0711 0012419 298.2510  61.7387 13.51003865 80103
QIANFAN-50              
1 62251U 24232Q   26072.59308076  .00000101  00000+0  13870-3 0  9997
2 62251  89.0077  32.0817 0014106 299.0615  60.9123 13.51004891 80139
QIANFAN-51              
1 62252U 24232R   26072.57665090  .00000101  00000+0  13770-3 0  9997
2 62252  89.0070  32.0716 0011697 304.3331  55.6713 13.51005559 80125
QIANFAN-52              
1 62253U 24232S   26072.60547836  .00000083  00000+0  11003-3 0  9995
2 62253  89.0067  31.9388 0013505 294.5617  65.4126 13.51002040 80211
QIANFAN-53              
1 62254U 24232T   26072.58485878  .00000101  00000+0  13779-3 0  9993
2 62254  89.0074  32.0522 0012419 296.3336  63.6539 13.51004855 80172
QIANFAN-54              
1 62255U 24232U   26072.55198411  .00000104  00000+0  14309-3 0  9998
2 62255  89.0066  31.7261 0002558  27.7533 332.3754 13.51004379111674
QIANFAN-55              
1 62785U 25016A   26072.57808121  .00000046  00000+0  51781-4 0  9996
2 62785  88.9685  93.8066 0019478  87.0093 273.3287 13.50996787 59452
QIANFAN-56              
1 62786U 25016B   26072.59444270  .00000044  00000+0  49190-4 0  9999
2 62786  88.9658  93.6168 0018137  89.1438 271.1791 13.50998514 59503
QIANFAN-57              
1 62787U 25016C   26072.55335938  .00000043  00000+0  48630-4 0  9993
2 62787  88.9689  93.8029 0001488 107.1856 252.9458 13.50997535 59466
QIANFAN-58              
1 62788U 25016D   26072.59854864  .00000057  00000+0  68839-4 0  9990
2 62788  88.9659  93.6018 0016001  82.6409 277.6560 13.50999124 59518
QIANFAN-59              
1 62789U 25016E   26072.54929087  .00000026  00000+0  21365-4 0  9995
2 62789  88.9682  93.7022 0016396  86.0148 274.2877 13.51007480 59505
QIANFAN-60              
1 62790U 25016F   26072.58220083  .00000033  00000+0  32618-4 0  9992
2 62790  88.9664  93.6529 0017924  82.6740 277.6448 13.51009735 59490
QIANFAN-61              
1 62791U 25016G   26072.54106222  .00000032  00000+0  31022-4 0  9994
2 62791  88.9731  93.8820 0016839  82.3525 277.9538 13.51006144 59500
QIANFAN-62              
1 62792U 25016H   26072.54516806  .00000033  00000+0  31766-4 0  9994
2 62792  88.9677  93.7008 0018223  82.5328 277.7892 13.50996906 59491
QIANFAN-63              
1 62793U 25016J   26071.97752288 -.02122006  00000+0 -36135+1 0  9997
2 62793  88.9681  93.7208 0018229  96.0583 264.2645 13.49196539 59453
QIANFAN-64              
1 62794U 25016K   26072.53694344  .00000038  00000+0  39567-4 0  9991
2 62794  88.9671  93.6211 0016201  81.2652 279.0334 13.51005861 59524
QIANFAN-65              
1 62795U 25016L   26072.60677959  .00000049  00000+0  57083-4 0  9998
2 62795  88.9667  93.6366 0016066  82.5799 277.7177 13.51009156 59516
QIANFAN-66              
1 62796U 25016M   26072.56159183  .00000050  00000+0  58820-4 0  9990
2 62796  88.9687  93.6293 0017127  78.7729 281.5346 13.50997264 59557
QIANFAN-67              
1 62797U 25016N   26072.56566336  .00000057  00000+0  69458-4 0  9999
2 62797  88.9677  93.6455 0017159  84.8095 275.5014 13.50995679 59526
QIANFAN-68              
1 62798U 25016P   26072.55751539  .00000040  00000+0  43558-4 0  9995
2 62798  88.9681  93.6950 0017195  83.3014 277.0093 13.51005602 59508
QIANFAN-69              
1 62799U 25016Q   26072.57397773  .00000052  00000+0  61942-4 0  9994
2 62799  88.9659  93.5430 0017963  84.0643 276.2555 13.51005808 59541
QIANFAN-70              
1 62800U 25016R   26072.59044170  .00000037  00000+0  39104-4 0  9997
2 62800  88.9680  93.6990 0017461  75.6041 284.7047 13.50997415 59500
QIANFAN-71              
1 62801U 25016S   26072.58627761  .00000033  00000+0  32830-4 0  9995
2 62801  88.9674  93.6734 0017893  87.1795 273.1403 13.50996915 59505
QIANFAN-72              
1 62802U 25016T   26072.60275089  .00000050  00000+0  57843-4 0  9991
2 62802  88.9664  93.6762 0021180  93.4473 266.9101 13.50996541 59491
QIANFAN-73              
1 63159U 25046A   26072.62959141  .00000119  00000+0  16566-3 0  9992
2 63159  88.9745 310.6342 0013498 216.7466 143.2761 13.51000514 59685
QIANFAN-74              
1 63160U 25046B   26072.61318280  .00000163  00000+0  23351-3 0  9995
2 63160  88.9745 310.5248 0001965  79.3962 280.7411 13.51000796 59749
QIANFAN-75              
1 63161U 25046C   26072.60054863  .00000138  00000+0  19484-3 0  9993
2 63161  88.9747 310.7611 0014625 220.6719 139.3341 13.50951952 59611
QIANFAN-76              
1 63162U 25046D   26072.59663558  .00000167  00000+0  24058-3 0  9994
2 63162  88.9746 310.7413 0012132 220.5539 139.4709 13.51001935 59629
QIANFAN-77              
1 63163U 25046E   26072.63586472  .00000332  00000+0  23193-3 0  9992
2 63163  88.9743 307.9968 0015431 149.7777 210.4293 13.96180024 61134
QIANFAN-78              
1 63164U 25046F   26072.63782051  .00000167  00000+0  23930-3 0  9999
2 63164  88.9745 310.6002 0013447 223.5764 136.4326 13.51001361 59700
QIANFAN-79              
1 63165U 25046G   26072.59264084  .00000138  00000+0  19521-3 0  9995
2 63165  88.9749 310.7160 0013331 221.8942 138.1190 13.51011231 59640
QIANFAN-80              
1 63166U 25046H   26072.60899951  .00000137  00000+0  19427-3 0  9999
2 63166  88.9746 310.4187 0012085 226.1776 133.8377 13.51000517 59804
QIANFAN-81              
1 63167U 25046J   26072.66130468  .00000081  00000+0  10718-3 0  9999
2 63167  88.9746 310.4811 0013340 214.2730 145.7562 13.50985704 59764
QIANFAN-82              
1 63168U 25046K   26072.62137784  .00000134  00000+0  18880-3 0  9991
2 63168  88.9747 310.5292 0011276 221.5268 138.5027 13.51001973 59745
QIANFAN-83              
1 63169U 25046L   26072.64927165  .00000187  00000+0  22674-3 0  9998
2 63169  88.9746 310.1241 0013057 199.8257 160.2395 13.62024919 59971
QIANFAN-84              
1 63170U 25046M   26072.65018335  .00000151  00000+0  21573-3 0  9999
2 63170  88.9746 310.6589 0014595 218.7964 141.2141 13.50833074 59679
QIANFAN-85              
1 63171U 25046N   26072.64603037  .00000146  00000+0  20701-3 0  9994
2 63171  88.9746 310.5305 0011719 220.2831 139.7452 13.51004663 59741
QIANFAN-86              
1 63172U 25046P   26072.65426981  .00000155  00000+0  22131-3 0  9996
2 63172  88.9748 310.3939 0009492 224.2852 135.7541 13.51003971 59822
QIANFAN-87              
1 63173U 25046Q   26072.62550003  .00000146  00000+0  20705-3 0  9992
2 63173  88.9744 310.5049 0010247 219.0959 140.9453 13.51012374 59752
QIANFAN-88              
1 63174U 25046R   26072.64189183  .00000141  00000+0  20039-3 0  9997
2 63174  88.9746 310.4601 0010503 228.6207 131.4042 13.51000549 59788
QIANFAN-89              
1 63175U 25046S   26072.60495994  .00000128  00000+0  17896-3 0  9996
2 63175  88.9747 310.6531 0015138 219.3969 140.6083 13.51010975 59674
QIANFAN-90              
1 63176U 25046T   26072.63379333  .00000159  00000+0  22824-3 0  9999
2 63176  88.9747 310.6226 0012122 216.6256 143.4067 13.51011303 59696
QIANFAN-91              
1 66033U 25233A   26072.59229378  .00000058  00000+0  70551-4 0  9999
2 66033  88.9942  52.8502 0002068  91.4949 268.6439 13.51005060 20274
QIANFAN-92              
1 66034U 25233B   26072.60045265  .00000055  00000+0  66774-4 0  9992
2 66034  88.9926  52.8368 0001991  85.7784 274.3594 13.51006301 20279
QIANFAN-93              
1 66035U 25233C   26072.53462807  .00000056  00000+0  67818-4 0  9991
2 66035  88.9953  52.8695 0002026  89.9370 270.2013 13.51005503 20263
QIANFAN-94              
1 66036U 25233D   26072.59626555  .00000061  00000+0  75701-4 0  9996
2 66036  88.9949  52.7697 0002123  86.3959 273.7435 13.50992453 20323
QIANFAN-95              
1 66037U 25233E   26072.60438295  .00000056  00000+0  68570-4 0  9991
2 66037  88.9948  52.3150 0002200  90.9203 269.2200 13.51015849 20575
QIANFAN-96              
1 66038U 25233F   26072.55524776  .00000046  00000+0  53176-4 0  9991
2 66038  88.9944  52.8657 0002096  93.3158 266.8233 13.51005177 20266
QIANFAN-97              
1 66039U 25233G   26072.53877895  .00000037  00000+0  39001-4 0  9994
2 66039  88.9948  52.8483 0002069  90.9460 269.1929 13.51004560 20271
QIANFAN-98              
1 66040U 25233H   26072.54695183  .00000048  00000+0  55733-4 0  9997
2 66040  88.9937  52.5889 0002462  80.3088 279.8341 13.51005250 20413
QIANFAN-99              
1 66041U 25233J   26072.55111295  .00000038  00000+0  40805-4 0  9999
2 66041  88.9948  52.8505 0002393  84.7167 275.4257 13.51005301 20272
QIANFAN-100             
1 66042U 25233K   26072.61691342  .00000045  00000+0  51580-4 0  9993
2 66042  88.9959  52.7602 0002031  90.7024 269.4360 13.51006239 20336
QIANFAN-101             
1 66043U 25233L   26072.56306769  .00000687  00000+0  27766-3 0  9994
2 66043  88.9948  51.5374 0017295  96.1686 264.1479 14.26745514 20994
QIANFAN-102             
1 66044U 25233M   26072.56337071  .00000052  00000+0  61885-4 0  9992
2 66044  88.9946  52.7612 0002163  86.4874 273.6524 13.50993078 20329
QIANFAN-103             
1 66045U 25233N   26072.56759721  .00000051  00000+0  60459-4 0  9998
2 66045  88.9949  52.8532 0002026  90.6384 269.5000 13.51006683 20271
QIANFAN-104             
1 66046U 25233P   26072.57147208  .00000057  00000+0  69434-4 0  9999
2 66046  88.9953  52.7506 0002120  83.9089 276.2304 13.51010885 20326
QIANFAN-105             
1 66047U 25233Q   26072.57980930  .00000037  00000+0  38656-4 0  9997
2 66047  88.9967  52.5801 0002169  89.9797 270.1603 13.50982091 20436
QIANFAN-106             
1 66048U 25233R   26072.57578416  .00000054  00000+0  64649-4 0  9990
2 66048  88.9935  52.8235 0002396  81.6733 278.4689 13.51005777 20283
QIANFAN-107             
1 66049U 25233S   26072.58405528  .00000044  00000+0  49518-4 0  9992
2 66049  88.9951  52.8399 0002037  89.9054 270.2331 13.51003738 20281
QIANFAN-108             
1 66050U 25233T   26072.58815081  .00000051  00000+0  60785-4 0  9990
2 66050  88.9944  52.8340 0002348  81.6805 278.4612 13.51005197 20282
