EUTELSAT 174A           
1 28924U 05052A   26227.88542885 -.00000003  00000+0  00000+0 0  9996
2 28924   4.3653  75.7687 0005988  68.0060 313.2187  1.00272879 52938
EUTELSAT 33F            
1 29270U 06032A   26227.96105404  .00000144  00000+0  00000+0 0  9996
2 29270   1.8115  81.5314 0003580  62.3401 199.5510  1.00274302 47901
EUTELSAT HOTBIRD 13C    
1 33459U 08065A   26227.91235181 -.00000295  00000+0  00000+0 0  9997
2 33459   3.0994  78.4565 0003432  73.4776  90.5115  1.00270426 47949
EUTELSAT 36B            
1 36101U 09065A   26227.97548197  .00000101  00000+0  00000+0 0  9990
2 36101   0.6372  81.3546 0005710  61.5548 223.1137  1.00270566 61306
EUTELSAT KA-SAT 9A      
1 37258U 10069A   26227.92410329  .00000050  00000+0  00000+0 0  9993
2 37258   0.0689 357.6651 0005218 162.6733 145.6624  1.00272903 44603
EUTELSAT 7 WEST A       
1 37816U 11051A   26227.84954869 -.00000072  00000+0  00000+0 0  9993
2 37816   0.0644 350.9303 0005331 161.9030 109.9291  1.00271526 54471
EUTELSAT 16A            
1 37836U 11057A   26227.92548995  .00000092  00000+0  00000+0 0  9990
2 37836   0.0388  15.5781 0005540 126.9895 170.9244  1.00270215  7933
EUTELSAT 21B            
1 38992U 12062B   26227.95118155  .00000118  00000+0  00000+0 0  9994
2 38992   0.0695 347.2510 0003062 151.4901 189.6383  1.00269534 50426
EUTELSAT 70B            
1 39020U 12069A   26227.93623667 -.00000055  00000+0  00000+0 0  9992
2 39020   0.0647   4.6117 0003556 140.8861 226.3727  1.00272203 50101
EUTELSAT 117 WEST A     
1 39122U 13012A   26227.89903558 -.00000024  00000+0  00000+0 0  9995
2 39122   0.0081  57.7631 0002720  92.3865  20.9850  1.00272337 49036
EUTELSAT 7B             
1 39163U 13022A   26227.92366995  .00000036  00000+0  00000+0 0  9995
2 39163   0.0709 336.1981 0002303  82.6748 244.9518  1.00271100 48540
EXPRESS-AT1             
1 39612U 14010A   26227.65115450 -.00000064  00000+0  00000+0 0  9992
2 39612   0.4062  85.1057 0004907  67.3485 116.4690  1.00313934 45419
EXPRESS-AT2             
1 39613U 14010B   26227.97977978  .00000066  00000+0  00000+0 0  9990
2 39613   0.0102 178.6684 0000298 320.9955 233.4318  1.00283497 45095
EUTELSAT 3B             
1 39773U 14030A   26227.92288994  .00000008  00000+0  00000+0 0  9993
2 39773   0.0649   5.2716 0003914 137.0451 157.3244  1.00272518 44661
EUTELSAT 115 WEST B     
1 40425U 15010B   26227.68573465 -.00000037  00000+0  00000+0 0  9994
2 40425   0.0114 249.9751 0000052 280.8751 285.1945  1.00271253 41985
EUTELSAT 8 WEST B       
1 40875U 15039B   26227.84937536 -.00000077  00000+0  00000+0 0  9999
2 40875   0.0665 347.5291 0003644 153.2089 121.2880  1.00271422 40251
EUTELSAT 9B             
1 41310U 16005A   26227.92410329  .00000050  00000+0  00000+0 0  9993
2 41310   0.0398  70.2053 0001749  98.1127 137.6590  1.00272730 38719
EUTELSAT 65 WEST A      
1 41382U 16014A   26227.90940513 -.00000288  00000+0  00000+0 0  9997
2 41382   0.0529 347.2605 0002255 147.2143  92.0088  1.00273419 38127
EUTELSAT 117 WEST B     
1 41589U 16038B   26227.89903558 -.00000023  00000+0  00000+0 0  9995
2 41589   0.0120 251.3396 0000087 187.3199  92.2966  1.00271173 37268
EUTELSAT 172B           
1 42741U 17029B   26227.89350326 -.00000017  00000+0  00000+0 0  9999
2 42741   0.0246 129.9115 0000182 324.1133   3.9195  1.00270872 34335
EUTELSAT 7C             
1 44334U 19034B   26227.63858779  .00000036  00000+0  00000+0 0  9994
2 44334   0.0753 178.7365 0003437 311.2874  70.9101  1.00272867  7430
EUTELSAT 5 WEST B       
1 44624U 19067A   26227.92132994 -.00000054  00000+0  00000+0 0  9999
2 44624   0.0982 303.4345 0003184 201.4342 146.1078  1.00271702 25021
EUTELSAT KONNECT        
1 45027U 20005B   26227.86503096  .00000038  00000+0  00000+0 0  9990
2 45027   0.0662  98.8004 0001854 116.1122  67.9435  1.00274843 24936
EUTELSAT QUANTUM        
1 49056U 21069B   26227.96082094  .00000000  00000+0  00000+0 0  9997
2 49056   0.0186  82.7183 0002355  62.1156 213.1168  1.00272950 18520
EUTELSAT KONNECT VHTS   
1 53765U 22110A   26227.92280328  .00000005  00000+0  00000+0 0  9998
2 53765   0.0564 101.6836 0002847  15.0962 182.4231  1.00270280  7437
EUTELSAT HOTBIRD 13F    
1 54048U 22134A   26227.92488329  .00000075  00000+0  00000+0 0  9997
2 54048   0.0528 285.6775 0001902  76.6406 307.9371  1.00271577 13979
EUTELSAT HOTBIRD 13G    
1 54225U 22146A   26227.82535044  .00000075  00000+0  00000+0 0  9993
2 54225   0.0504 242.9211 0002146 295.6125  95.7923  1.00271428  8067
EUTELSAT 10B            
1 54259U 22157A   26227.92427662  .00000056  00000+0  00000+0 0  9998
2 54259   0.0569  99.4582 0001341 346.8131 220.8139  1.00266835 13627
EUTELSAT 36D            
1 59346U 24059A   26227.96329056  .00000000  00000+0  00000+0 0  9994
2 59346   0.0233 116.0038 0000109 309.0342 281.9793  1.00269917  8740
