QIANFAN-1               
1 60379U 24140A   26165.51794878  .00000096  00000+0  12962-3 0  9992
2 60379  88.9732 280.2061 0018702  50.2503 310.0292 13.51014173 92167
QIANFAN-2               
1 60380U 24140B   26165.54671200  .00000100  00000+0  13563-3 0  9994
2 60380  88.9719 280.0174 0012998  26.4655 333.7158 13.51009700 92221
QIANFAN-3               
1 60381U 24140C   26165.55493515  .00000106  00000+0  14527-3 0  9994
2 60381  88.9711 280.1353 0014594  37.6901 322.5270 13.51010767 92132
QIANFAN-4               
1 60382U 24140D   26165.53022779  .00000112  00000+0  15498-3 0  9998
2 60382  88.9736 280.0818 0013321  28.8826 331.3060 13.51013407 92252
QIANFAN-5               
1 60383U 24140E   26165.50555610  .00000113  00000+0  15655-3 0  9997
2 60383  88.9711 280.1652 0016268  47.6309 312.6217 13.51012269 92117
QIANFAN-6               
1 60384U 24140F   26165.52610771  .00000107  00000+0  14744-3 0  9991
2 60384  88.9738 279.9590 0013684  34.4007 325.8027 13.51012705 92314
QIANFAN-7               
1 60385U 24140G   26165.50625703  .00000502  00000+0  19707-3 0  9994
2 60385  88.9773 272.0885 0016703 148.8674 211.3513 14.27836292 96615
QIANFAN-8               
1 60386U 24140H   26165.46025515  .00000108  00000+0  14906-3 0  9993
2 60386  88.9739 280.2057 0017189  34.7643 325.4627 13.51009168 92156
QIANFAN-9               
1 60387U 24140J   26165.50966257  .00000106  00000+0  14556-3 0  9995
2 60387  88.9737 280.2723 0016865  34.5660 325.6584 13.51014708 92141
QIANFAN-10              
1 60388U 24140K   26165.51379564  .00000095  00000+0  12912-3 0  9997
2 60388  88.9748 279.6379 0014444  13.1725 346.9801 13.51015657 92275
QIANFAN-11              
1 60389U 24140L   26165.55075116  .00000096  00000+0  12948-3 0  9998
2 60389  88.9673 280.0831 0014912  35.1883 325.0250 13.51009925 91930
QIANFAN-12              
1 60390U 24140M   26165.49737450  .00000110  00000+0  15084-3 0  9990
2 60390  88.9716 280.2122 0014052  43.7673 316.4590 13.51011993 92055
QIANFAN-13              
1 60391U 24140N   26165.54259463  .00000107  00000+0  14635-3 0  9997
2 60391  88.9728 280.3298 0013961  46.2094 314.0210 13.51012041 92088
QIANFAN-14              
1 60392U 24140P   26165.49315802  .00000118  00000+0  16400-3 0  9996
2 60392  88.9707 280.1936 0017608  44.4088 315.8472 13.51005586 92083
QIANFAN-15              
1 60393U 24140Q   26165.50134606  .00000120  00000+0  16658-3 0  9998
2 60393  88.9731 280.1929 0012946  33.7933 326.4040 13.51014856 92071
QIANFAN-16              
1 60394U 24140R   26165.48919649  .00000107  00000+0  14677-3 0  9998
2 60394  88.9733 280.3195 0015712  48.9282 311.3224 13.51013979 91981
QIANFAN-17              
1 60395U 24140S   26165.55900061  .00000102  00000+0  13877-3 0  9991
2 60395  88.9744 280.3783 0015870  42.6640 317.5740 13.51010348 92957
QIANFAN-18              
1 60396U 24140T   26165.53838150  .00000107  00000+0  14646-3 0  9999
2 60396  88.9738 279.9016 0014557  26.6146 333.5750 13.51009665 92340
QIANFAN-19              
1 61552U 24185A   26165.52552604  .00000351  00000+0  17583-3 0  9993
2 61552  88.9842  56.8775 0009231  76.6493 283.5723 14.14474692 95644
QIANFAN-20              
1 61553U 24185B   26165.41662108  .00000446  00000+0  24931-3 0  9993
2 61553  88.9838  57.3963 0007436 108.9757 251.2233 14.09018330 95355
QIANFAN-21              
1 61554U 24185C   26165.52759463  .00000511  00000+0  22096-3 0  9990
2 61554  88.9758  55.4502 0012486 117.2519 242.9946 14.22852249 96107
QIANFAN-22              
1 61555U 24185D   26165.47889826  .00000255  00000+0  20884-3 0  9990
2 61555  88.9824  59.1120 0007376 137.0876 223.0871 13.86393451 94397
QIANFAN-23              
1 61556U 24185E   26165.52304503  .00000336  00000+0  16185-3 0  9990
2 61556  88.9833  56.6010 0009889  83.5609 276.6705 14.16499639 95769
QIANFAN-24              
1 61557U 24185F   26165.51521897  .00000498  00000+0  21037-3 0  9998
2 61557  88.9817  55.7086 0011634  64.1674 296.0717 14.24067871 96176
QIANFAN-25              
1 61558U 24185G   26165.47983072  .00000362  00000+0  21174-3 0  9993
2 61558  88.9830  57.3913 0012334 112.7237 247.5250 14.06075002 95326
QIANFAN-26              
1 61559U 24185H   26165.47803417  .00000237  00000+0  22381-3 0  9990
2 61559  88.9831  59.9149 0005912 154.0079 206.1385 13.77911850 93970
QIANFAN-27              
1 61560U 24185J   26165.48062249  .00000361  00000+0  14073-3 0  9990
2 61560  88.9826  55.4013 0009463  55.4525 304.7561 14.27535317 96376
QIANFAN-28              
1 61561U 24185K   26165.50296295  .00000604  00000+0  23573-3 0  9999
2 61561  88.9845  55.4106 0009319  53.9187 306.2870 14.28381655 96407
QIANFAN-29              
1 61562U 24185L   26165.40964132  .00000095  00000+0  12862-3 0  9994
2 61562  88.9806  62.3222 0008028 233.5857 126.4554 13.51072959 92593
QIANFAN-30              
1 61563U 24185M   26165.52380498  .00000156  00000+0  22604-3 0  9998
2 61563  88.9825  61.9060 0005783 214.3829 145.6948 13.50051067 92867
QIANFAN-31              
1 61564U 24185N   26165.51780462  .00000170  00000+0  21899-3 0  9994
2 61564  88.9808  61.4170 0005720 197.9425 162.1529 13.58038766 93101
QIANFAN-32              
1 61565U 24185P   26165.53930998  .00000048  00000+0  56601-4 0  9992
2 61565  88.9867  62.0940 0007546 253.0792 106.9532 13.50786022 92856
QIANFAN-33              
1 61566U 24185Q   26165.53166056  .00000299  00000+0  20546-3 0  9995
2 61566  88.9822  58.3131 0009400 104.3315 255.8907 13.96702545 94814
QIANFAN-34              
1 61567U 24185R   26165.52756610  .00000290  00000+0  17983-3 0  9998
2 61567  88.9798  57.6342 0007855 105.6125 254.5923 14.02467407 95119
QIANFAN-35              
1 61568U 24185S   26165.48180100  .00000564  00000+0  22038-3 0  9990
2 61568  88.9826  55.3091 0008405  52.9950 307.2013 14.28266991 96402
QIANFAN-36              
1 61569U 24185T   26165.53196760  .00000089  00000+0  11058-3 0  9998
2 61569  88.9800  61.8888 0004515 216.0639 144.0211 13.55634778 92826
QIANFAN-37              
1 62238U 24232B   26165.52141080  .00000105  00000+0  14424-3 0  9998
2 62238  89.0074  22.8528 0001458  74.7735 285.3577 13.51008495123985
QIANFAN-38              
1 62239U 24232C   26165.47201777  .00000082  00000+0  10758-3 0  9993
2 62239  89.0080  22.7861 0015673  31.0042 329.2031 13.51005543124034
QIANFAN-39              
1 62240U 24232D   26165.48253138  .00000248  00000+0  98647-4 0  9992
2 62240  89.0061  16.3750 0015446 188.5966 171.4965 14.25524796127564
QIANFAN-40              
1 62241U 24232E   26165.50492734  .00000088  00000+0  11821-3 0  9993
2 62241  89.0108  22.4187 0014930  38.6412 321.5805 13.51007263124401
QIANFAN-41              
1 62242U 24232F   26165.51320205  .00000094  00000+0  12641-3 0  9996
2 62242  89.0078  22.7302 0014960  27.5343 332.6597 13.51009552124069
QIANFAN-42              
1 62243U 24232G   26165.52732771  .00000233  00000+0  93864-4 0  9995
2 62243  89.0059  16.4443 0014055 194.7923 165.2861 14.24613878127533
QIANFAN-43              
1 62244U 24232H   26165.50907964  .00000089  00000+0  11966-3 0  9993
2 62244  89.0083  22.8039 0016650  31.7419 328.4733 13.51009319 92671
QIANFAN-44              
1 62245U 24232J   26165.49672012  .00000086  00000+0  11502-3 0  9998
2 62245  89.0081  22.6130 0014788  29.8011 330.3979 13.51011358124144
QIANFAN-45              
1 62246U 24232K   26165.46384127  .00000088  00000+0  11761-3 0  9992
2 62246  89.0085  22.7693 0015438  29.2350 330.9662 13.51008882124061
QIANFAN-46              
1 62247U 24232L   26165.48851426  .00000092  00000+0  12383-3 0  9992
2 62247  89.0081  22.8283 0015645  34.2624 325.9534 13.51009666124023
QIANFAN-47              
1 62248U 24232M   26165.49262481  .00000089  00000+0  11945-3 0  9990
2 62248  89.0077  22.7535 0016050  33.2897 326.9260 13.51008392124055
QIANFAN-48              
1 62249U 24232N   26165.52962051  .00000101  00000+0  13768-3 0  9995
2 62249  89.0081  22.7588 0018363  34.8378 325.3971 13.51013007124061
QIANFAN-49              
1 62250U 24232P   26165.51729075  .00000097  00000+0  13084-3 0  9998
2 62250  89.0080  22.7711 0015301  30.8993 329.3055 13.51011645 92650
QIANFAN-50              
1 62251U 24232Q   26165.46794941  .00000090  00000+0  12092-3 0  9998
2 62251  89.0085  22.7942 0016999  31.6280 328.5889 13.51008471 92675
QIANFAN-51              
1 62252U 24232R   26165.52550976  .00000099  00000+0  13527-3 0  9997
2 62252  89.0079  22.7709 0014599  35.8781 324.3347 13.51005260 92672
QIANFAN-52              
1 62253U 24232S   26165.48025969  .00000103  00000+0  14055-3 0  9995
2 62253  89.0075  22.6420 0016371  27.9942 332.2086 13.51010710 92752
QIANFAN-53              
1 62254U 24232T   26165.45966559  .00000085  00000+0  11257-3 0  9992
2 62254  89.0083  22.7624 0015294  29.5457 330.6555 13.51007677 92718
QIANFAN-54              
1 62255U 24232U   26165.50081668  .00000083  00000+0  11012-3 0  9995
2 62255  89.0074  22.4205 0004103  74.6578 285.5026 13.51011649124220
QIANFAN-55              
1 62785U 25016A   26165.52682314  .00000125  00000+0  17433-3 0  9991
2 62785  88.9741  84.1526 0016983 169.9567 190.1927 13.51018232 72007
QIANFAN-56              
1 62786U 25016B   26165.46923235  .00000136  00000+0  19221-3 0  9994
2 62786  88.9715  83.9459 0015531 171.8804 188.2601 13.51019219 72042
QIANFAN-57              
1 62787U 25016C   26165.50215630  .00000129  00000+0  18053-3 0  9997
2 62787  88.9745  84.1532 0002372  55.5106 304.6269 13.51017868 72012
QIANFAN-58              
1 62788U 25016D   26165.47344825  .00000136  00000+0  19126-3 0  9993
2 62788  88.9716  83.9316 0013762 162.9776 197.1839 13.51017345 72051
QIANFAN-59              
1 62789U 25016E   26165.49808036  .00000131  00000+0  18420-3 0  9996
2 62789  88.9739  84.0462 0014001 166.9967 193.1548 13.51011397 72058
QIANFAN-60              
1 62790U 25016F   26165.53096029  .00000123  00000+0  17186-3 0  9993
2 62790  88.9720  83.9792 0015661 164.1559 196.0086 13.51013855 72043
QIANFAN-61              
1 62791U 25016G   26165.48985072  .00000125  00000+0  17458-3 0  9997
2 62791  88.9787  84.2709 0014635 163.1102 197.0539 13.51006634 72054
QIANFAN-62              
1 62792U 25016H   26165.49402428  .00000128  00000+0  17869-3 0  9997
2 62792  88.9734  84.0401 0015984 164.2335 195.9317 13.51015993 72040
QIANFAN-63              
1 62793U 25016J   26165.51865370  .00000123  00000+0  17167-3 0  9996
2 62793  88.9740  84.0014 0015816 169.5549 190.5933 13.51009916 72084
QIANFAN-64              
1 62794U 25016K   26165.41165751  .00000118  00000+0  16398-3 0  9991
2 62794  88.9728  83.9620 0014055 161.6152 198.5510 13.51006646 72063
QIANFAN-65              
1 62795U 25016L   26165.40758138  .00000127  00000+0  17846-3 0  9997
2 62795  88.9724  83.9818 0013834 163.2121 196.9491 13.50997609 72042
QIANFAN-66              
1 62796U 25016M   26165.51042487  .00000133  00000+0  18739-3 0  9992
2 62796  88.9743  83.9774 0015092 159.2604 200.9162 13.51002321 72101
QIANFAN-67              
1 62797U 25016N   26165.51453089  .00000130  00000+0  18264-3 0  9997
2 62797  88.9733  83.9845 0014799 166.1030 194.0531 13.51004911 72079
QIANFAN-68              
1 62798U 25016P   26165.50642586  .00000136  00000+0  19132-3 0  9990
2 62798  88.9737  84.0372 0014951 164.0266 196.1360 13.51017555 72058
QIANFAN-69              
1 62799U 25016Q   26165.52273256  .00000123  00000+0  17208-3 0  9995
2 62799  88.9716  83.8656 0015635 165.8230 194.3363 13.51011501 72090
QIANFAN-70              
1 62800U 25016R   26165.53923405  .00000133  00000+0  18773-3 0  9996
2 62800  88.9736  84.0408 0015608 156.0446 204.1435 13.51009770 72055
QIANFAN-71              
1 62801U 25016S   26165.46104584  .00000122  00000+0  17003-3 0  9991
2 62801  88.9731  84.0173 0015405 169.5402 190.6072 13.51004207 72041
QIANFAN-72              
1 62802U 25016T   26165.40342488  .00000130  00000+0  18234-3 0  9999
2 62802  88.9721  84.0187 0018358 178.4947 181.6263 13.51017361 72024
QIANFAN-73              
1 63159U 25046A   26165.50448362  .00000084  00000+0  11120-3 0  9992
2 63159  88.9706 300.9625 0013223 317.1694  42.8426 13.51018131 72224
QIANFAN-74              
1 63160U 25046B   26165.48819734  .00000115  00000+0  15884-3 0  9992
2 63160  88.9707 300.8537 0002088 109.2876 250.8501 13.51008700 72289
QIANFAN-75              
1 63161U 25046C   26165.47573470  .00000113  00000+0  15630-3 0  9993
2 63161  88.9708 301.0914 0014320 320.3618  39.6485 13.51007427 72150
QIANFAN-76              
1 63162U 25046D   26165.54562946  .00000127  00000+0  17867-3 0  9997
2 63162  88.9708 301.0639 0011862 321.7135  38.3173 13.51014686 72179
QIANFAN-77              
1 63163U 25046E   26165.51759586  .00000289  00000+0  20041-3 0  9990
2 63163  88.9713 297.5594 0013659 219.2586 140.7602 13.96202999 74095
QIANFAN-78              
1 63164U 25046F   26165.51272654  .00000128  00000+0  18025-3 0  9998
2 63164  88.9707 300.9295 0013300 323.7777  36.2472 13.51013847 72244
QIANFAN-79              
1 63165U 25046G   26165.46755376  .00000107  00000+0  14665-3 0  9993
2 63165  88.9710 301.0485 0013059 322.0860  37.9370 13.51011403 72182
QIANFAN-80              
1 63166U 25046H   26165.48404529  .00000111  00000+0  15285-3 0  9991
2 63166  88.9708 300.7487 0012017 327.6106  32.4306 13.51008930 72343
QIANFAN-81              
1 63167U 25046J   26165.53752951  .00000092  00000+0  12358-3 0  9999
2 63167  88.9707 300.8108 0013046 314.7818  45.2271 13.51016545 72304
QIANFAN-82              
1 63168U 25046K   26165.49629781  .00000092  00000+0  12385-3 0  9999
2 63168  88.9708 300.8591 0011067 323.6788  36.3611 13.51010918 72282
QIANFAN-83              
1 63169U 25046L   26165.50750206  .00000122  00000+0  14255-3 0  9991
2 63169  88.9709 300.2723 0011981 294.1463  65.8441 13.62041652 72618
QIANFAN-84              
1 63170U 25046M   26165.52590166  .00000111  00000+0  15395-3 0  9996
2 63170  88.9708 300.9888 0014038 318.2300  41.7778 13.51035899 72218
QIANFAN-85              
1 63171U 25046N   26165.44687919  .00000104  00000+0  14216-3 0  9994
2 63171  88.9706 300.8672 0011536 322.2492  37.7849 13.51018249 72274
QIANFAN-86              
1 63172U 25046P   26165.52934698  .00000095  00000+0  12820-3 0  9991
2 63172  88.9709 300.7251 0009474 328.2351  31.8228 13.51016094 72360
QIANFAN-87              
1 63173U 25046Q   26165.50043281  .00000104  00000+0  14274-3 0  9995
2 63173  88.9706 300.8328 0009889 322.6402  37.4060 13.51018021 72299
QIANFAN-88              
1 63174U 25046R   26165.51692081  .00000106  00000+0  14492-3 0  9999
2 63174  88.9708 300.7903 0010547 331.5558  28.5016 13.51009499 72329
QIANFAN-89              
1 63175U 25046S   26165.47993513  .00000117  00000+0  16208-3 0  9998
2 63175  88.9708 300.9832 0014882 318.6421  41.3603 13.51016348 72218
QIANFAN-90              
1 63176U 25046T   26165.50857510  .00000112  00000+0  15492-3 0  9998
2 63176  88.9708 300.9529 0011769 318.1686  41.8565 13.51015120 72232
QIANFAN-91              
1 66033U 25233A   26165.39291661  .00000130  00000+0  18348-3 0  9990
2 66033  89.0004  43.4735 0001797  76.1869 283.9482 13.51010740 32809
QIANFAN-92              
1 66034U 25233B   26165.40113022  .00000132  00000+0  18611-3 0  9992
2 66034  88.9988  43.4449 0002033  75.6438 284.4939 13.51013893 32806
QIANFAN-93              
1 66035U 25233C   26165.40937236  .00000042  00000+0  45709-4 0  9993
2 66035  89.0015  43.4951 0001855  74.6068 285.5288 13.51012103 32809
QIANFAN-94              
1 66036U 25233D   26165.39702727  .00000132  00000+0  18561-3 0  9992
2 66036  89.0011  43.3998 0001977  78.8249 281.3124 13.51011285 32856
QIANFAN-95              
1 66037U 25233E   26165.40529253  .00000119  00000+0  16507-3 0  9999
2 66037  89.0008  42.9427 0001777  80.0443 280.0909 13.51012370 33106
QIANFAN-96              
1 66038U 25233F   26165.35590102  .00000127  00000+0  17755-3 0  9990
2 66038  89.0007  43.4911 0001736  76.5193 283.6152 13.51011352 32799
QIANFAN-97              
1 66039U 25233G   26165.41348730  .00000114  00000+0  15798-3 0  9997
2 66039  89.0010  43.4693 0001822  76.1835 283.9519 13.51011483 32814
QIANFAN-98              
1 66040U 25233H   26165.42169273  .00000115  00000+0  16007-3 0  9998
2 66040  88.9998  43.1997 0002208  88.6796 271.4608 13.51011490 32950
QIANFAN-99              
1 66041U 25233J   26165.42579212  .00000120  00000+0  16790-3 0  9992
2 66041  89.0010  43.4720 0002015  86.9389 273.1992 13.51011302 32812
QIANFAN-100             
1 66042U 25233K   26165.41762603  .00000109  00000+0  14991-3 0  9998
2 66042  89.0021  43.3996 0001847  75.4640 284.6716 13.50997652 32860
QIANFAN-101             
1 66043U 25233L   26165.41878213  .00000309  00000+0  12135-3 0  9994
2 66043  89.0004  40.8873 0016189 145.5045 214.7203 14.26806292 34232
QIANFAN-102             
1 66044U 25233M   26165.36409941  .00000124  00000+0  17309-3 0  9990
2 66044  89.0008  43.3880 0001963  80.1686 279.9687 13.51011323 32857
QIANFAN-103             
1 66045U 25233N   26165.36822839  .00000122  00000+0  16986-3 0  9994
2 66045  89.0010  43.4826 0001836  74.9260 285.2094 13.51012238 32803
QIANFAN-104             
1 66046U 25233P   26165.22419108  .00000118  00000+0  16405-3 0  9992
2 66046  89.0020  43.3989 0002151  79.0858 281.0535 13.50996987 32832
QIANFAN-105             
1 66047U 25233Q   26165.23246488  .00000115  00000+0  15943-3 0  9996
2 66047  89.0028  43.2411 0001839  80.4386 279.6973 13.51000667 32947
QIANFAN-106             
1 66048U 25233R   26165.37648047  .00000112  00000+0  15422-3 0  9998
2 66048  88.9997  43.4404 0002145  87.0887 273.0510 13.51011366 32803
QIANFAN-107             
1 66049U 25233S   26165.38467953  .00000125  00000+0  17494-3 0  9990
2 66049  89.0013  43.4716 0001860  75.4262 284.7096 13.51010764 32812
QIANFAN-108             
1 66050U 25233T   26165.38880412  .00000124  00000+0  17403-3 0  9990
2 66050  89.0006  43.4590 0002149  85.8786 274.2611 13.51011858 32815
QIANFAN-109             
1 68636U 26075A   26165.47696742  .00000015  00000+0  52108-5 0  9990
2 68636  88.9889 321.2883 0001538  98.6414 261.4911 13.51010073  9427
QIANFAN-110             
1 68637U 26075B   26165.48519156  .00000061  00000+0  75972-4 0  9999
2 68637  88.9889 321.3090 0002043  94.1530 265.9855 13.51011290  9429
QIANFAN-111             
1 68638U 26075C   26165.47260813  .00000054  00000+0  66392-4 0  9990
2 68638  88.9888 321.2700 0012343  20.5038 339.6605 13.49923008  9446
QIANFAN-112             
1 68639U 26075D   26165.50986286  .00000061  00000+0  76409-4 0  9992
2 68639  88.9887 321.2753 0001558  90.0040 270.1289 13.51023203  9443
QIANFAN-113             
1 68640U 26075E   26163.99993976 -.01985126  00000+0 -32813+1 0  9993
2 68640  88.9885 321.4235 0012378  23.5638 336.6077 13.50860293  9244
QIANFAN-114             
1 68641U 26075F   26165.48924698  .00000063  00000+0  79507-4 0  9995
2 68641  88.9887 321.2902 0002014  94.7795 265.3587 13.51012853  9433
QIANFAN-115             
1 68642U 26075G   26165.51807084  .00000052  00000+0  61897-4 0  9990
2 68642  88.9887 321.2944 0001899  98.1228 262.0138 13.51018214  9432
QIANFAN-116             
1 68643U 26075H   26165.13731736  .00000028  00000+0  23177-4 0  9991
2 68643  88.9880 321.2938 0010628  17.0164 343.1343 13.54330796  9397
QIANFAN-117             
1 68644U 26075J   26165.49343939  .00000058  00000+0  71505-4 0  9996
2 68644  88.9885 321.2727 0001762  95.4821 264.6531 13.51020215  9449
QIANFAN-118             
1 68645U 26075K   26165.23005413  .00000023  00000+0  16773-4 0  9999
2 68645  88.9889 321.3075 0002135  92.5925 267.5471 13.51018431  9407
QIANFAN-119             
1 68646U 26075L   26165.27945199  .00000068  00000+0  86187-4 0  9993
2 68646  88.9890 321.2980 0001661  98.2955 261.8384 13.51016455  9418
QIANFAN-120             
1 68647U 26075M   26164.84614560 -.01927001  00000+0 -33642+1 0  9993
2 68647  88.9885 321.3268 0007989 280.0499  79.9749 13.47945120  9368
QIANFAN-121             
1 68648U 26075N   26165.24244091  .00000043  00000+0  48086-4 0  9994
2 68648  88.9889 321.2919 0002090  94.3934 265.7456 13.51024674  9416
QIANFAN-122             
1 68649U 26075P   26165.23420974  .00000078  00000+0  10268-3 0  9998
2 68649  88.9888 321.2909 0001673  95.5486 264.5856 13.51012643  9409
QIANFAN-123             
1 68650U 26075Q   26165.27535803  .00000027  00000+0  22894-4 0  9995
2 68650  88.9884 321.2768 0001438  96.9977 263.1338 13.51010805  9395
QIANFAN-124             
1 68651U 26075R   26165.22597408  .00000018  00000+0  90953-5 0  9992
2 68651  88.9887 321.2907 0001631  94.9208 265.2129 13.51011902  9417
QIANFAN-125             
1 68652U 26075S   26165.23828836  .00000069  00000+0  87659-4 0  9990
2 68652  88.9887 321.2916 0002077  93.6455 266.4933 13.51023618  9416
QIANFAN-126             
1 68653U 26075T   26164.06188423 -.01893490  00000+0 -32121+1 0  9993
2 68653  88.9886 321.3776 0010019  17.3742 342.7749 13.49703611  9270
QIANFAN-127             
1 69073U 26104A   26164.85634095 -.02122180  00000+0 -13992+1 0  9998
2 69073  88.9855 341.9851 0005603 121.5192 238.6538 14.06064213  4619
QIANFAN-128             
1 69074U 26104B   26165.21127442  .00000145  00000+0  81854-4 0  9991
2 69074  88.9855 341.9644 0005344  86.5927 273.5866 14.04584091  4653
QIANFAN-129             
1 69075U 26104C   26165.22122163  .00000076  00000+0  35313-4 0  9990
2 69075  88.9863 341.9275 0006780  88.9909 271.2052 14.09969709  4676
QIANFAN-130             
1 69076U 26104D   26164.83926690 -.02042997  00000+0 -13915+1 0  9996
2 69076  88.9858 342.0007 0004029 169.0289 191.0981 14.04093369  4600
QIANFAN-131             
1 69077U 26104E   26165.22646481  .00000038  00000+0  14007-4 0  9991
2 69077  88.9857 341.9471 0005066  96.3459 263.8302 14.08737689  4661
QIANFAN-132             
1 69078U 26104F   26164.85835110 -.02078628  00000+0 -14887+1 0  9995
2 69078  88.9860 342.0031 0003653 207.2287 152.8702 14.01349044  4604
QIANFAN-133             
1 69079U 26104G   26164.90426374  .00000080  00000+0  39011-4 0  9993
2 69079  88.9841 342.0015 0004267 100.2634 259.9030 14.07912446  4618
QIANFAN-134             
1 69080U 26104H   26165.18684050  .00000058  00000+0  27207-4 0  9992
2 69080  88.9938 341.9448 0011466  63.5624 296.6732 14.04867545  4651
QIANFAN-135             
1 69081U 26104J   26164.89238236  .00000037  00000+0  13782-4 0  9991
2 69081  88.9851 341.9930 0005169 108.1787 251.9959 14.06640551  4610
QIANFAN-136             
1 69082U 26104K   26165.02909903  .00000005  00000+0 -54434-5 0  9990
2 69082  88.9882 341.9738 0005978 104.0780 256.1066 14.05601612  4639
QIANFAN-137             
1 69083U 26104L   26164.76663588 -.01896467  00000+0 -96570+0 0  9995
2 69083  88.9856 341.9708 0004609  94.5178 265.6538 14.19679451  4610
QIANFAN-138             
1 69084U 26104M   26164.94319068  .00000010  00000+0 -27032-5 0  9999
2 69084  88.9860 341.9830 0006217  92.1918 267.9976 14.06660110  4625
QIANFAN-139             
1 69085U 26104N   26164.86419775  .00000168  00000+0  90561-4 0  9996
2 69085  88.9881 341.9891 0004459  89.9800 270.1894 14.07955612  4615
QIANFAN-140             
1 69086U 26104P   26164.85938271 -.02150814  00000+0 -14287+1 0  9998
2 69086  88.9859 341.9848 0005145 128.7971 231.3671 14.05710904  4610
QIANFAN-141             
1 69087U 26104Q   26164.85074177 -.02087072  00000+0 -13697+1 0  9994
2 69087  88.9854 341.9854 0003940 140.6507 219.4963 14.06255046  4615
QIANFAN-142             
1 69088U 26104R   26164.84101279 -.02046853  00000+0 -13150+1 0  9994
2 69088  88.9857 341.9809 0006989 104.8275 255.3682 14.07345530  4615
QIANFAN-143             
1 69089U 26104S   26164.82414191 -.01947818  00000+0 -12468+1 0  9994
2 69089  88.9856 341.9807 0004863 108.6485 251.5226 14.07350632  4618
QIANFAN-144             
1 69090U 26104T   26164.26632776 -.00000098  00000+0 -61344-4 0  9995
2 69090  88.9859 342.0453 0004608  84.7062 275.4649 14.11914838  4538
QIANFAN-145             
1 69104U 26108A   26164.82363916 -.02073940  00000+0 -13825+1 0  9999
2 69104  89.0101  22.5972 0014257 132.4130 227.8260 14.05311278  3867
QIANFAN-146             
1 69105U 26108B   26164.86735897 -.01695440  00000+0 -10278+1 0  9998
2 69105  89.0108  22.5681 0018615 104.6869 255.6381 14.10364472  3889
QIANFAN-147             
1 69106U 26108C   26164.87423806 -.01960672  00000+0 -12706+1 0  9994
2 69106  89.0102  22.5866 0015221 116.8314 243.4427 14.06641037  3874
QIANFAN-148             
1 69107U 26108D   26164.86857407 -.01910359  00000+0 -12659+1 0  9996
2 69107  89.0102  22.5860 0018573 134.0513 226.2203 14.05274529  3873
QIANFAN-149             
1 69108U 26108E   26165.00926997  .00000067  00000+0  30668-4 0  9992
2 69108  89.0113  22.5707 0016553 122.2975 237.9815 14.09076243  3890
QIANFAN-150             
1 69109U 26108F   26165.49180181  .00000019  00000+0  29336-5 0  9991
2 69109  89.0115  22.5142 0016813 120.8429 239.4413 14.10188546  3964
QIANFAN-151             
1 69110U 26108G   26164.84741773 -.01930369  00000+0 -12621+1 0  9998
2 69110  89.0114  22.5830 0016149 128.9940 231.2683 14.06080708  3873
QIANFAN-152             
1 69111U 26108H   26164.83687259 -.01893806  00000+0 -12009+1 0  9990
2 69111  89.0106  22.5818 0017010 119.1577 241.1311 14.07695038  3874
QIANFAN-153             
1 69112U 26108J   26164.83202826 -.01813846  00000+0 -11764+1 0  9997
2 69112  89.0102  22.5801 0016263 122.6383 237.6371 14.06943309  3878
QIANFAN-154             
1 69113U 26108K   26164.82503329 -.02090587  00000+0 -13179+1 0  9991
2 69113  89.0112  22.5808 0020004 110.5588 249.7744 14.08392809  3871
QIANFAN-155             
1 69114U 26108L   26164.83018747 -.02073335  00000+0 -13260+1 0  9991
2 69114  89.0103  22.5813 0019322 116.5625 243.7541 14.07567838  3871
QIANFAN-156             
1 69115U 26108M   26163.96413537 -.01951408  00000+0 -11885+1 0  9997
2 69115  89.0116  22.6746 0021312 111.6361 248.7096 14.09991528  3753
QIANFAN-157             
1 69116U 26108N   26164.85246926 -.01902602  00000+0 -11421+1 0  9991
2 69116  89.0107  22.5657 0021894 117.5197 242.8216 14.10677837  3880
QIANFAN-158             
1 69117U 26108P   26165.51286205  .00000089  00000+0  39553-4 0  9995
2 69117  89.0111  22.4985 0016466 120.2497 240.0322 14.13619062  3979
QIANFAN-159             
1 69118U 26108Q   26164.86726216 -.02009509  00000+0 -12085+1 0  9991
2 69118  89.0104  22.5675 0016714 100.0534 260.2538 14.10847637  3884
QIANFAN-160             
1 69119U 26108R   26164.86371994 -.01916835  00000+0 -11751+1 0  9998
2 69119  89.0109  22.5680 0017565 106.3316 253.9802 14.09596494  3881
QIANFAN-161             
1 69120U 26108S   26164.92622339  .00000083  00000+0  34765-4 0  9999
2 69120  89.0115  22.5587 0015540 122.9513 237.3171 14.16181151  3894
QIANFAN-162             
1 69121U 26108T   26164.85099930 -.01773185  00000+0 -10533+1 0  9993
2 69121  89.0108  22.5660 0021484 121.5380 238.7908 14.11632797  3884
QIANFAN-163             
1 69325U 26121A   26158.95635699  .00000032  00000+0  25988-4 0  9991
2 69325  89.0167 301.4498 0019200 214.2671 145.7248 13.60351284   905
QIANFAN-164             
1 69326U 26121B   26162.41240743  .00000112  00000+0  13228-3 0  9992
2 69326  89.0157 301.0998 0019383 205.3125 154.7084 13.60355109  1373
QIANFAN-165             
1 69382U 26124A   26164.79833279  .00000097  00000+0  37879-4 0  9993
2 69382  88.9991   2.4245 0002400 151.4164 208.7159 14.21216415  1335
QIANFAN-166             
1 69383U 26124B   26165.07811851  .00000093  00000+0  36440-4 0  9997
2 69383  89.0014   2.3807 0002134 113.5942 246.5473 14.20451886  1379
QIANFAN-167             
1 69384U 26124C   26164.93664243  .00000096  00000+0  37433-4 0  9999
2 69384  88.9952   2.4146 0006338 194.5230 165.5780 14.21105494  1356
QIANFAN-168             
1 69385U 26124D   26164.93551425  .00000097  00000+0  37407-4 0  9999
2 69385  89.0066   2.3643 0002313 140.1786 219.9575 14.21872881  1355
QIANFAN-169             
1 69386U 26124E   26165.07536332  .00000095  00000+0  36067-4 0  9995
2 69386  89.0015   2.3915 0001034 310.2026  49.9074 14.22762892  1376
QIANFAN-170             
1 69387U 26124F   26165.07434800  .00000096  00000+0  36120-4 0  9994
2 69387  88.9994   2.3837 0002253 116.5235 243.6188 14.23171609  1377
QIANFAN-171             
1 69388U 26124G   26164.79100397 -.01724011  00000+0 -86631+0 0  9994
2 69388  88.9981   2.4235 0022197 187.5923 172.4935 14.20530017  1332
QIANFAN-172             
1 69389U 26124H   26164.85713411 -.01443543  00000+0 -61077+0 0  9994
2 69389  88.9977   2.4156 0003179 174.9675 185.1552 14.29008880  1347
QIANFAN-173             
1 69390U 26124J   26164.93278676  .00000100  00000+0  36702-4 0  9991
2 69390  89.0007   2.4092 0002163 158.8999 201.2283 14.24972369  1355
QIANFAN-174             
1 69391U 26124K   26165.00260734  .00000102  00000+0  36818-4 0  9997
2 69391  88.9983   2.3990 0002366 170.0899 190.0341 14.25618199  1363
QIANFAN-175             
1 69392U 26124L   26165.07272091  .00000101  00000+0  36310-4 0  9990
2 69392  88.9984   2.3909 0002750 177.2611 182.8598 14.25625629  1373
QIANFAN-176             
1 69393U 26124M   26165.49368286  .00000097  00000+0  34939-4 0  9998
2 69393  88.9983   2.3426 0001909 175.7797 184.3413 14.25634344  1434
QIANFAN-177             
1 69394U 26124N   26165.49318855  .00000023  00000+0  35781-5 0  9992
2 69394  88.9981   2.3424 0002924 161.1183 199.0119 14.25688564  1436
QIANFAN-178             
1 69395U 26124P   26165.49333176  .00000097  00000+0  34954-4 0  9997
2 69395  88.9983   2.3425 0002318 166.4629 193.6627 14.25625890  1437
QIANFAN-179             
1 69396U 26124Q   26164.86006002 -.01971323  00000+0 -94572+0 0  9992
2 69396  88.9978   2.4153 0004352 107.3109 252.8559 14.22997940  1345
QIANFAN-180             
1 69397U 26124R   26165.00131773  .00000103  00000+0  36823-4 0  9990
2 69397  88.9984   2.3989 0002341 170.3819 189.7420 14.26489166  1360
QIANFAN-181             
1 69398U 26124S   26165.15061606  .00000093  00000+0  36215-4 0  9997
2 69398  88.9983   2.3842 0002118 140.0514 220.0833 14.21115081  1382
QIANFAN-182             
1 69399U 26124T   26164.79367052  .00000100  00000+0  37156-4 0  9995
2 69399  88.9961   2.4186 0003044 159.9795 200.1517 14.24123720  1335
