ORBCOMM FM06            
1 25118U 97084G   26119.47965469  .00001346  00000+0  40251-3 0  9992
2 25118  45.0141 287.1702 0000505 110.3605 281.2359 14.47437888487336
ORBCOMM FM04            
1 25159U 98007C   26120.10878743  .00001221  00000+0  46455-3 0  9997
2 25159 107.9617  70.4801 0039402  48.7372 311.7152 14.35641969469696
ORBCOMM FM19            
1 25415U 98046C   26119.28185779  .00001016  00000+0  36913-3 0  9992
2 25415  44.9927 116.0060 0002217  18.2637 356.5262 14.39395951449732
ORBCOMM FM20            
1 25416U 98046D   26120.07715272  .00000690  00000+0  27286-3 0  9999
2 25416  44.9929 119.6226 0001732 293.7426  66.3240 14.37991684449864
ORBCOMM FM27            
1 25481U 98053G   26120.21772738  .00000913  00000+0  33848-3 0  9994
2 25481  45.0043 203.1751 0001668 243.7492 116.3185 14.39048583443325
ORBCOMM FM32            
1 25982U 99065C   26120.18439372  .00000806  00000+0  31654-3 0  9998
2 25982  45.0168  40.4411 0004623 184.5888 175.4919 14.37061101380183
ORBCOMM FM109           
1 40086U 14040A   26119.26576703  .00000489  00000+0  13984-3 0  9990
2 40086  47.0044 322.7742 0001612 342.5039  17.5791 14.58792460627205
ORBCOMM FM114           
1 41179U 15081A   26120.03674978  .00000535  00000+0  14949-3 0  9994
2 41179  47.0043 229.6439 0002408 317.5946  42.4754 14.58804356550725
ORBCOMM FM110           
1 41182U 15081D   26119.27211066  .00000746  00000+0  19425-3 0  9995
2 41182  47.0016 232.7130 0003708 217.2653 142.7976 14.58825745550485
ORBCOMM FM118           
1 41183U 15081E   26119.99169331  .00000823  00000+0  21048-3 0  9992
2 41183  47.0033 229.6368 0003357 187.7705 172.3130 14.58825473550694
ORBCOMM FM112           
1 41184U 15081F   26119.44674692  .00000531  00000+0  14885-3 0  9991
2 41184  46.9979 140.6903 0002614 317.3336  42.7346 14.58793234551830
ORBCOMM FM113           
1 41185U 15081G   26120.10911103  .00000434  00000+0  12825-3 0  9992
2 41185  46.9993 137.9368 0002072 318.8266  41.2463 14.58804105551910
ORBCOMM FM108           
1 41187U 15081J   26120.14016550  .00000698  00000+0  18421-3 0  9990
2 41187  47.0058  49.3474 0003118 327.6769  32.3926 14.58797305553064
ORBCOMM FM117           
1 41188U 15081K   26120.17408703  .00000730  00000+0  19099-3 0  9998
2 41188  47.0024  47.8357 0003499 334.8768  25.1947 14.58796170553110
ORBCOMM FM116           
1 41189U 15081L   26120.08642090  .00000460  00000+0  13374-3 0  9998
2 41189  47.0008 138.0404 0002282 233.8974 126.1700 14.58814650551914
