EUTELSAT 174A           
1 28924U 05052A   26128.07917625  .00000018  00000+0  00000+0 0  9990
2 28924   4.1183  77.0062 0006546 328.0362  23.4183  1.00269446 51921
EUTELSAT 33F            
1 29270U 06032A   26128.13933714  .00000164  00000+0  00000+0 0  9990
2 29270   1.5578  82.6592 0003687 326.0103 260.5668  1.00273494 46901
EUTELSAT HOTBIRD 13C    
1 33459U 08065A   26128.07197646 -.00000274  00000+0  00000+0 0  9994
2 33459   2.8473  79.6440 0004417 332.9024 149.0016  1.00270815 46947
EUTELSAT 36B            
1 36101U 09065A   26128.15669808  .00000120  00000+0  00000+0 0  9994
2 36101   0.3896  80.2942 0005993 327.3959 285.2145  1.00270398 60304
EUTELSAT KA-SAT 9A      
1 37258U 10069A   26128.14489205  .00000069  00000+0  00000+0 0  9996
2 37258   0.0618   3.4785 0004230 134.1970 149.4822  1.00270395 43603
EUTELSAT 7 WEST A       
1 37816U 11051A   26128.11453639 -.00000052  00000+0  00000+0 0  9990
2 37816   0.1010  48.3750 0004194 358.3942 213.1170  1.00272573 53479
EUTELSAT 16A            
1 37836U 11057A   26128.13378247  .00000111  00000+0  00000+0 0  9996
2 37836   0.0491 351.1722 0005734  60.9092 238.0533  1.00269680  6933
EUTELSAT 21B            
1 38992U 12062B   26128.13378247  .00000137  00000+0  00000+0 0  9995
2 38992   0.0698 347.9832 0002917  57.7276 250.0201  1.00269586 49421
EUTELSAT 70B            
1 39020U 12069A   26128.12997296 -.00000036  00000+0  00000+0 0  9994
2 39020   0.0672   6.1155 0004756  34.3302 302.8014  1.00272180 49109
EUTELSAT 117 WEST A     
1 39122U 13012A   26128.02156020 -.00000006  00000+0  00000+0 0  9994
2 39122   0.0354  56.3490 0002624 350.7341  69.7552  1.00273102 48030
EUTELSAT 7B             
1 39163U 13022A   26128.14489205  .00000056  00000+0  00000+0 0  9991
2 39163   0.0727  12.8130 0005723  14.8089 257.5310  1.00270950 47549
EXPRESS-AT1             
1 39612U 14010A   26128.12754630  .00000065  00000+0  00000+0 0  9993
2 39612   0.1530  85.5309 0002796  18.4937 226.3162  1.00293416 44419
EXPRESS-AT2             
1 39613U 14010B   26128.12267264  .00000086  00000+0  00000+0 0  9999
2 39613   0.0143 264.5248 0000617  50.9038  10.6939  1.00270147 44099
EUTELSAT 3B             
1 39773U 14030A   26128.14489205  .00000028  00000+0  00000+0 0  9997
2 39773   0.0660   3.4197 0004154  45.9635 231.8605  1.00272555 43664
EUTELSAT 115 WEST B     
1 40425U 15010B   26128.14996258 -.00000018  00000+0  00000+0 0  9993
2 40425   0.0116 120.8585 0000489 156.3919 247.8345  1.00273438 40992
EUTELSAT 8 WEST B       
1 40875U 15039B   26128.11436307 -.00000058  00000+0  00000+0 0  9998
2 40875   0.0681 349.7648 0003856  55.7896 213.5735  1.00271470 39251
EUTELSAT 9B             
1 41310U 16005A   26128.11774308  .00000070  00000+0  00000+0 0  9996
2 41310   0.0707  76.6372 0003003 295.5780 265.1277  1.00272716 37712
EUTELSAT 65 WEST A      
1 41382U 16014A   26128.16273492 -.00000269  00000+0  00000+0 0  9999
2 41382   0.0749  46.6403 0002415 355.9835 176.7601  1.00274193 37121
EUTELSAT 117 WEST B     
1 41589U 16038B   26127.83355826 -.00000004  00000+0  00000+0 0  9996
2 41589   0.0070 113.6965 0000330 172.2107 122.8431  1.00271110 36253
EUTELSAT 172B           
1 42741U 17029B   26128.07865625  .00000002  00000+0  00000+0 0  9995
2 42741   0.0233 168.4330 0000242 302.0567 315.7473  1.00270420 33332
EUTELSAT 7C             
1 44334U 19034B   26128.14489205  .00000056  00000+0  00000+0 0  9996
2 44334   0.0746 180.8255 0003434 214.0118 250.3101  1.00272983  6434
EUTELSAT 5 WEST B       
1 44624U 19067A   26128.11496972 -.00000035  00000+0  00000+0 0  9998
2 44624   0.0671 341.2685 0003266  65.3610 215.7283  1.00271328 24034
EUTELSAT KONNECT        
1 45027U 20005B   26128.14489205  .00000058  00000+0  00000+0 0  9998
2 45027   0.0651  93.8268 0001195 185.7027   5.8556  1.00272167 23936
EUTELSAT QUANTUM        
1 49056U 21069B   26128.15669808  .00000134  00000+0  00000+0 0  9990
2 49056   0.0136 341.8148 0002429  64.7289 283.5671  1.00271529 17522
EUTELSAT KONNECT VHTS   
1 53765U 22110A   26128.14489205  .00000025  00000+0  00000+0 0  9999
2 53765   0.0595  96.2154 0002989 289.9706 254.6795  1.00269193  6435
EUTELSAT HOTBIRD 13F    
1 54048U 22134A   26128.13378247  .00000095  00000+0  00000+0 0  9999
2 54048   0.0502 289.4323 0001822  78.5960 279.1153  1.00271052 12974
EUTELSAT HOTBIRD 13G    
1 54225U 22146A   26128.08933640  .00000095  00000+0  00000+0 0  9997
2 54225   0.0397 239.0741 0002147 297.2345  94.7739  1.00270788  7066
EUTELSAT 10B            
1 54259U 22157A   26128.08933640  .00000076  00000+0  00000+0 0  9995
2 54259   0.0600  94.7571 0002611  25.2519 148.0829  1.00270830 12624
EUTELSAT 36D            
1 59346U 24059A   26128.13933714  .00000163  00000+0  00000+0 0  9995
2 59346   0.0139 266.5313 0000361 217.1787 188.3009  1.00272391  7743
