GLOBALSTAR M069         
1 31573U 07020C   26152.59155156 -.00000099  00000+0 -58409-4 0  9990
2 31573  52.0041 296.2674 0002607 116.4611 324.5214 12.23470604876892
GLOBALSTAR M072         
1 31574U 07020D   26153.12488069 -.00000099  00000+0 -20286-3 0  9994
2 31574  51.9900 140.3451 0001373 288.4541 150.1495 11.91658455873187
GLOBALSTAR M066         
1 32265U 07048C   26153.05186613 -.00000089  00000+0  44826-4 0  9999
2 32265  51.9577 101.3603 0005186  11.0650  70.8114 12.30389210858361
GLOBALSTAR M079         
1 37188U 10054A   26153.17432794 -.00000114  00000+0 -56609-4 0  9998
2 37188  52.0011 154.3711 0000337 339.1125  99.6662 12.62265971720656
GLOBALSTAR M074         
1 37189U 10054B   26153.20116541 -.00000117  00000+0 -72322-4 0  9995
2 37189  51.9986 153.5568 0000221  51.3847  29.5042 12.62268435721263
GLOBALSTAR M076         
1 37190U 10054C   26153.14725400 -.00000106  00000+0 -10691-4 0  9999
2 37190  52.0010 153.9222 0000362  23.9244  52.2969 12.62261804720979
GLOBALSTAR M077         
1 37191U 10054D   26152.19221367 -.00000039  00000+0  71388-3 0  9990
2 37191  51.9945 219.8944 0002997 144.1637 250.1400 11.67547536719279
GLOBALSTAR M075         
1 37192U 10054E   26152.45421038 -.00000070  00000+0  18973-3 0  9993
2 37192  51.9928 198.0971 0000229 155.2448 309.7193 12.62267353719955
GLOBALSTAR M073         
1 37193U 10054F   26152.30893047 -.00000118  00000+0 -79355-4 0  9997
2 37193  52.0044 112.6247 0000583  14.0504 149.2453 12.62262125721921
GLOBALSTAR M083         
1 37739U 11033A   26152.39730010 -.00000093  00000+0  62633-4 0  9992
2 37739  51.9867  60.6056 0000705  37.5726 108.8449 12.62262795690957
GLOBALSTAR M088         
1 37740U 11033B   26152.67347867 -.00000091  00000+0  70237-4 0  9996
2 37740  52.0230 326.1576 0000888 103.0133 337.1545 12.62268439686539
GLOBALSTAR M091         
1 37741U 11033C   26152.69135875 -.00000089  00000+0  80323-4 0  9997
2 37741  52.0006 289.0905 0000613 125.7838 336.8476 12.62263493687325
GLOBALSTAR M085         
1 37742U 11033D   26152.26726767 -.00000069  00000+0  19580-3 0  9991
2 37742  52.0122 241.6600 0000350 160.3418 234.3293 12.62263613687781
GLOBALSTAR M081         
1 37743U 11033E   26152.63536631 -.00000073  00000+0  17361-3 0  9992
2 37743  51.9954 242.9939 0000416 127.0590  20.6556 12.62264586687975
GLOBALSTAR M089         
1 37744U 11033F   26152.17490163 -.00000067  00000+0  20245-3 0  9999
2 37744  51.9910 198.5582 0000444 111.5914 283.4167 12.62266851688769
GLOBALSTAR M084         
1 38040U 11080A   26152.99695650 -.00000092  00000+0  63969-4 0  9998
2 38040  52.0020  63.5254 0000930  63.2579  49.0697 12.62267355666849
GLOBALSTAR M080         
1 38041U 11080B   26153.06265046 -.00000093  00000+0  60371-4 0  9995
2 38041  52.0068  65.0383 0000187  70.0098 110.9489 12.62269162666977
GLOBALSTAR M082         
1 38042U 11080C   26152.98972481 -.00000082  00000+0  12310-3 0  9991
2 38042  52.0098  20.7602 0000493  80.6170  58.9302 12.62269685667674
GLOBALSTAR M092         
1 38043U 11080D   26153.19309262 -.00000115  00000+0 -62969-4 0  9991
2 38043  52.0076 110.5371 0000395  42.7617  60.4222 12.62266770666151
GLOBALSTAR M090         
1 38044U 11080E   26152.06931741 -.00000081  00000+0  12863-3 0  9998
2 38044  52.0144  17.5126 0000747  68.3149  85.6737 12.62268771667678
GLOBALSTAR M086         
1 38045U 11080F   26152.09366001 -.00000083  00000+0  11805-3 0  9990
2 38045  51.9920  17.3948 0001548  38.6880 125.8626 12.62286390667627
GLOBALSTAR M097         
1 39072U 13005A   26152.56338568 -.00000100  00000+0  22897-4 0  9993
2 39072  52.0055 290.8947 0000549 116.6723 243.4200 12.62251319614933
GLOBALSTAR M093         
1 39073U 13005B   26152.53681980 -.00000091  00000+0  69951-4 0  9991
2 39073  52.0116 284.3173 0000403 106.2204 253.8707 12.62265423614881
GLOBALSTAR M094         
1 39074U 13005C   26152.14084278 -.00000073  00000+0  17074-3 0  9994
2 39074  51.9939 199.6565 0000075 237.0086 123.0774 12.62268381616444
GLOBALSTAR M096         
1 39075U 13005D   26152.55019343 -.00000070  00000+0  18743-3 0  9992
2 39075  52.0071 247.1988 0000356 146.8671 213.2218 12.62265087615412
GLOBALSTAR M078         
1 39076U 13005E   26152.83987932 -.00000106  00000+0 -13896-4 0  9998
2 39076  51.9888 330.3457 0000681 177.1385 182.9486 12.62260010614074
GLOBALSTAR M095         
1 39077U 13005F   26152.62911479 -.00000097  00000+0  35222-4 0  9994
2 39077  52.0095 328.5703 0000443 115.5902 244.5011 12.62263260613907
GLOBALSTAR M087         
1 52888U 22064A   26153.03834793 -.00000125  00000+0 -12126-3 0  9993
2 52888  51.9982 108.5714 0000419 359.1136   0.9730 12.62268769189225
