QIANFAN-1               
1 60379U 24140A   26230.24823014  .00000044  00000+0  49287-4 0  9994
2 60379  88.9693 273.4913 0016458 210.5397 149.4798 13.51024298100907
QIANFAN-2               
1 60380U 24140B   26230.27720106  .00000040  00000+0  42852-4 0  9994
2 60380  88.9680 273.2939 0012806 179.4583 180.6584 13.51025478100961
QIANFAN-3               
1 60381U 24140C   26230.28539300  .00000044  00000+0  49524-4 0  9997
2 60381  88.9672 273.4068 0013439 192.8713 167.2097 13.51021328100875
QIANFAN-4               
1 60382U 24140D   26230.26056258  .00000030  00000+0  26982-4 0  9990
2 60382  88.9697 273.3696 0012939 182.2424 177.8671 13.51023816100997
QIANFAN-5               
1 60383U 24140E   26230.23597921  .00000048  00000+0  55558-4 0  9995
2 60383  88.9672 273.4365 0014259 205.5116 154.5333 13.51029532100852
QIANFAN-6               
1 60384U 24140F   26230.25648647  .00000037  00000+0  39211-4 0  9996
2 60384  88.9699 273.2479 0012822 188.3055 171.7885 13.51022816101054
QIANFAN-7               
1 60385U 24140G   26230.25969170  .00000253  00000+0  96341-4 0  9991
2 60385  88.9732 264.4756 0012784 308.5962  51.4087 14.27884723105850
QIANFAN-8               
1 60386U 24140H   26230.26486145  .00000042  00000+0  45590-4 0  9995
2 60386  88.9700 273.4877 0016158 192.5094 167.5659 13.51019187100901
QIANFAN-9               
1 60387U 24140J   26230.24000401  .00000034  00000+0  34283-4 0  9999
2 60387  88.9698 273.5605 0015862 192.1839 167.8931 13.51019934100885
QIANFAN-10              
1 60388U 24140K   26230.24412888  .00000031  00000+0  28975-4 0  9994
2 60388  88.9709 272.9335 0015184 168.9985 191.1502 13.51020180101017
QIANFAN-11              
1 60389U 24140L   26230.28126244  .00000031  00000+0  29052-4 0  9994
2 60389  88.9634 273.3296 0013920 190.7380 169.3476 13.51019898100676
QIANFAN-12              
1 60390U 24140M   26230.22777553  .00000044  00000+0  49668-4 0  9994
2 60390  88.9677 273.4868 0012456 198.5237 161.5462 13.51022180100791
QIANFAN-13              
1 60391U 24140N   26230.27299244  .00000030  00000+0  27302-4 0  9992
2 60391  88.9937 273.6393 0012202 200.6889 159.3769 13.51022041100828
QIANFAN-14              
1 60392U 24140P   26230.22366328  .00000037  00000+0  39179-4 0  9998
2 60392  88.9668 273.4623 0015835 203.2354 156.8083 13.51025145100824
QIANFAN-15              
1 60393U 24140Q   26230.23193014  .00000048  00000+0  55576-4 0  9991
2 60393  88.9692 273.4771 0012181 186.5863 173.5130 13.51025759100814
QIANFAN-16              
1 60394U 24140R   26230.21949262  .00000046  00000+0  52514-4 0  9991
2 60394  88.9694 273.6054 0013647 206.3373 153.7086 13.51024140100721
QIANFAN-17              
1 60395U 24140S   26230.21542706  .00000045  00000+0  51352-4 0  9992
2 60395  88.9705 273.6789 0014252 199.9344 160.1252 13.51020212101687
QIANFAN-18              
1 60396U 24140T   26230.26891805  .00000042  00000+0  46762-4 0  9991
2 60396  88.9699 273.1907 0014248 181.7323 178.3781 13.51019671101087
QIANFAN-19              
1 61552U 24185A   26230.32455151  .00000304  00000+0  15103-3 0  9997
2 61552  88.9811  49.4553 0005422 209.3692 150.7191 14.14512740104806
QIANFAN-20              
1 61553U 24185B   26230.32440280  .00000242  00000+0  13194-3 0  9994
2 61553  88.9806  50.0250 0003249 272.6839  87.3973 14.09054112104490
QIANFAN-21              
1 61554U 24185C   26230.22627840  .00000412  00000+0  17692-3 0  9999
2 61554  88.9730  47.8754 0008233 275.0053  85.0199 14.22906892105305
QIANFAN-22              
1 61555U 24185D   26230.21832030  .00000194  00000+0  15601-3 0  9993
2 61555  88.9787  52.0213 0005131 333.7720  26.3191 13.86418874103364
QIANFAN-23              
1 61556U 24185E   26230.22955506  .00000284  00000+0  13545-3 0  9994
2 61556  88.9805  49.1597 0005672 221.6539 138.4218 14.16535491104928
QIANFAN-24              
1 61557U 24185F   26230.22889798  .00000222  00000+0  90204-4 0  9994
2 61557  88.9788  48.1600 0008578 193.7471 166.3489 14.24128142105386
QIANFAN-25              
1 61558U 24185G   26230.23861789  .00000235  00000+0  13489-3 0  9999
2 61558  88.9793  50.0665 0009143 283.3837  76.6326 14.06109937104425
QIANFAN-26              
1 61559U 24185H   26230.25261304  .00000146  00000+0  13236-3 0  9990
2 61559  88.9793  52.9257 0005427   2.4446 357.6746 13.77934551102893
QIANFAN-27              
1 61560U 24185J   26230.24797484  .00000384  00000+0  15028-3 0  9999
2 61560  88.9800  47.8123 0007119 174.3109 185.8168 14.27578536105619
QIANFAN-28              
1 61561U 24185K   26230.23126260  .00000517  00000+0  20069-3 0  9996
2 61561  88.9817  47.8283 0007109 172.8770 187.2527 14.28452180105646
QIANFAN-29              
1 61562U 24185L   26230.28529984  .00000118  00000+0  16349-3 0  9995
2 61562  88.9762  55.6181 0011478  58.1999 302.0268 13.51086150101351
QIANFAN-30              
1 61563U 24185M   26230.22601355  .00000104  00000+0  14426-3 0  9992
2 61563  88.9783  55.2448 0009017  48.0781 312.1137 13.50068127101596
QIANFAN-31              
1 61564U 24185N   26230.28187721  .00000133  00000+0  16726-3 0  9992
2 61564  88.9767  54.6463 0008124  37.2062 322.9655 13.58055365101894
QIANFAN-32              
1 61565U 24185P   26230.28056481  .00000107  00000+0  14665-3 0  9992
2 61565  88.9823  55.4465 0011646  72.6140 287.6283 13.50800134101597
QIANFAN-33              
1 61566U 24185Q   26230.22323014  .00000261  00000+0  17880-3 0  9999
2 61566  88.9788  51.1038 0005447 270.9896  89.0657 13.96736234103848
QIANFAN-34              
1 61567U 24185R   26230.23891725  .00000265  00000+0  16325-3 0  9997
2 61567  88.9768  50.3370 0004141 271.1014  88.9692 14.02501061104183
QIANFAN-35              
1 61568U 24185S   26230.28561629  .00000507  00000+0  19749-3 0  9992
2 61568  88.9799  47.7055 0006414 167.2516 192.8842 14.28328254105659
QIANFAN-36              
1 61569U 24185T   26230.26333185  .00000054  00000+0  59349-4 0  9993
2 61569  88.9759  55.1445 0007906  52.6558 307.5315 13.55643693101597
QIANFAN-37              
1 62238U 24232B   26230.32600046  .00000089  00000+0  11917-3 0  9996
2 62238  89.0110  16.3477 0002578  97.8627 262.2817 13.51025841132735
QIANFAN-38              
1 62239U 24232C   26230.27662689  .00000079  00000+0  10356-3 0  9997
2 62239  89.0117  16.2853 0014339 189.6448 170.4430 13.51024319132784
QIANFAN-39              
1 62240U 24232D   26230.27160211  .00000256  00000+0  10229-3 0  9999
2 62240  89.0105   9.0023 0015381 352.7787   7.3182 14.25542934136796
QIANFAN-40              
1 62241U 24232E   26230.23548989  .00000057  00000+0  70361-4 0  9991
2 62241  89.0145  15.9433 0013093 197.1713 162.8997 13.51024402133140
QIANFAN-41              
1 62242U 24232F   26230.31778544  .00000082  00000+0  10775-3 0  9993
2 62242  89.0115  16.2281 0013890 185.2492 174.8516 13.51025525132810
QIANFAN-42              
1 62243U 24232G   26230.28758630  .00000260  00000+0  10572-3 0  9997
2 62243  89.0103   9.0844 0014535   0.5685 359.5521 14.24630999136756
QIANFAN-43              
1 62244U 24232H   26230.23959723  .00000072  00000+0  92682-4 0  9993
2 62244  89.0119  16.3122 0015232 191.5190 168.5615 13.51025192101410
QIANFAN-44              
1 62245U 24232J   26230.22729169  .00000073  00000+0  93775-4 0  9997
2 62245  89.0118  16.1201 0013560 187.6583 172.4363 13.51025542132888
QIANFAN-45              
1 62246U 24232K   26230.26842367  .00000079  00000+0  10318-3 0  9995
2 62246  89.0121  16.2713 0014229 187.5033 172.5907 13.51024428132814
QIANFAN-46              
1 62247U 24232L   26230.21900830  .00000078  00000+0  10242-3 0  9996
2 62247  89.0117  16.3351 0014093 193.2842 166.7940 13.51025490132766
QIANFAN-47              
1 62248U 24232M   26230.22314499  .00000088  00000+0  11827-3 0  9999
2 62248  89.0113  16.2576 0014533 192.6309 167.4480 13.51024440132795
QIANFAN-48              
1 62249U 24232N   26230.33418645  .00000082  00000+0  10872-3 0  9993
2 62249  89.0117  16.2581 0016708 195.9240 164.1388 13.51018662132815
QIANFAN-49              
1 62250U 24232P   26230.24787218  .00000069  00000+0  87918-4 0  9991
2 62250  89.0116  16.2772 0013983 189.3125 170.7769 13.51025895101390
QIANFAN-50              
1 62251U 24232Q   26230.27250331  .00000074  00000+0  96556-4 0  9990
2 62251  89.0122  16.2965 0015592 191.4667 168.6131 13.51025372101428
QIANFAN-51              
1 62252U 24232R   26230.33012957  .00000079  00000+0  10401-3 0  9997
2 62252  89.0115  16.2693 0012948 193.8246 166.2553 13.51024538101425
QIANFAN-52              
1 62253U 24232S   26230.28488866  .00000087  00000+0  11563-3 0  9997
2 62253  89.0112  16.1377 0015220 187.0924 173.0014 13.51026214101505
QIANFAN-53              
1 62254U 24232T   26230.26431714  .00000069  00000+0  87613-4 0  9996
2 62254  89.0119  16.2631 0014067 187.6909 172.4028 13.51023414101466
QIANFAN-54              
1 62255U 24232U   26230.23141285  .00000060  00000+0  74518-4 0  9996
2 62255  89.0111  15.9229 0001373 175.1650 184.9515 13.51025111132963
QIANFAN-55              
1 62785U 25016A   26230.25741337  .00000016  00000+0  54485-5 0  9994
2 62785  88.9675  77.4265 0017325 357.1508   2.9542 13.51025277 80745
QIANFAN-56              
1 62786U 25016B   26230.27384366  .00000023  00000+0  17490-4 0  9994
2 62786  88.9649  77.1949 0016056   0.0128   0.1021 13.51025938 80796
QIANFAN-57              
1 62787U 25016C   26230.23274817  .00000020  00000+0  12417-4 0  9991
2 62787  88.9680  77.4301 0002415 101.8759 258.2663 13.51024949 80756
QIANFAN-58              
1 62788U 25016D   26230.27794763  .00000035  00000+0  35986-4 0  9995
2 62788  88.9650  77.1813 0013707 353.5635   6.5338 13.51018178 80800
QIANFAN-59              
1 62789U 25016E   26230.22850013  .00000027  00000+0  23837-4 0  9995
2 62789  88.9673  77.3187 0014213 357.2518   2.8553 13.51022392 80795
QIANFAN-60              
1 62790U 25016F   26230.26149976  .00000033  00000+0  33270-4 0  9999
2 62790  88.9654  77.2394 0015624 352.8077   7.2848 13.51025573 80782
QIANFAN-61              
1 62791U 25016G   26230.29445053  .00000027  00000+0  23695-4 0  9991
2 62791  88.9721  77.5673 0014575 352.7583   7.3355 13.51025389 80808
QIANFAN-62              
1 62792U 25016H   26230.22444287  .00000018  00000+0  85588-5 0  9993
2 62792  88.9668  77.3094 0015919 352.5156   7.5755 13.51017834 80780
QIANFAN-63              
1 62793U 25016J   26230.24913972  .00000017  00000+0  73802-5 0  9993
2 62793  88.9675  77.2751 0016168 357.7891   2.3186 13.51021039 80826
QIANFAN-64              
1 62794U 25016K   26230.29035922  .00000016  00000+0  56755-5 0  9996
2 62794  88.9661  77.2116 0013855 351.6679   8.4240 13.51025334 80824
QIANFAN-65              
1 62795U 25016L   26230.28605158  .00000028  00000+0  25498-4 0  9992
2 62795  88.9658  77.2291 0013780 353.4606   6.6363 13.51021593 80809
QIANFAN-66              
1 62796U 25016M   26230.24087211  .00000037  00000+0  38597-4 0  9997
2 62796  88.9677  77.2528 0014714 348.5842  11.4973 13.51027357 80848
QIANFAN-67              
1 62797U 25016N   26230.09690648  .00000028  00000+0  25275-4 0  9994
2 62797  88.9668  77.2690 0014946 355.9544   4.1484 13.51027076 80795
QIANFAN-68              
1 62798U 25016P   26230.23672908  .00000030  00000+0  27284-4 0  9995
2 62798  88.9671  77.3084 0014929 353.3864   6.7088 13.51019808 80798
QIANFAN-69              
1 62799U 25016Q   26230.25314604  .00000008  00000+0 -63847-5 0  9996
2 62799  88.9650  77.1232 0015701 354.3744   5.7229 13.51022354 80837
QIANFAN-70              
1 62800U 25016R   26230.26971138  .00000043  00000+0  48497-4 0  9992
2 62800  88.9670  77.3119 0014960 344.7994  15.2706 13.51021199 80791
QIANFAN-71              
1 62801U 25016S   26230.26563653  .00000036  00000+0  36661-4 0  9994
2 62801  88.9665  77.2767 0015747 357.9365   2.1719 13.51024841 80792
QIANFAN-72              
1 62802U 25016T   26230.28207471  .00000030  00000+0  28237-4 0  9994
2 62802  88.9655  77.2641 0019237   3.7258 356.4033 13.51018549 80789
QIANFAN-73              
1 63159U 25046A   26230.23503692  .00000092  00000+0  12315-3 0  9999
2 63159  88.9694 294.2368 0017110 122.1413 238.1401 13.51022258 80969
QIANFAN-74              
1 63160U 25046B   26230.21852067  .00000095  00000+0  12881-3 0  9993
2 63160  88.9694 294.1283 0002306  95.4268 264.7146 13.51030314 81028
QIANFAN-75              
1 63161U 25046C   26230.13233463  .00000113  00000+0  15585-3 0  9993
2 63161  88.9696 294.3742 0018241 125.7717 234.5133 13.51019685 80886
QIANFAN-76              
1 63162U 25046D   26230.27626190  .00000106  00000+0  14502-3 0  9992
2 63162  88.9696 294.3391 0015732 125.2261 235.0366 13.51021500 80915
QIANFAN-77              
1 63163U 25046E   26230.23234454  .00000232  00000+0  15886-3 0  9993
2 63163  88.9695 290.3031 0015738  33.7635 326.4541 13.96238938 83126
QIANFAN-78              
1 63164U 25046F   26230.24355994 -.00000024  00000+0 -56495-4 0  9991
2 63164  88.9696 294.2040 0017023 127.4646 232.8057 13.51011279 80984
QIANFAN-79              
1 63165U 25046G   26230.27200698  .00000111  00000+0  15230-3 0  9991
2 63165  88.9698 294.3175 0016867 125.9765 234.2953 13.51027961 80938
QIANFAN-80              
1 63166U 25046H   26230.28862293  .00000113  00000+0  15555-3 0  9990
2 63166  88.9695 294.0160 0015638 129.5550 230.6985 13.51025259 81095
QIANFAN-81              
1 63167U 25046J   26230.26787431  .00000095  00000+0  12776-3 0  9990
2 63167  88.9695 294.0856 0017052 120.7875 239.4958 13.51020998 81040
QIANFAN-82              
1 63168U 25046K   26229.78206556 -.02087638  00000+0 -35655+1 0  9990
2 63168  88.9691 294.1802 0015100 135.7369 224.4991 13.48957515 80966
QIANFAN-83              
1 63169U 25046L   26230.22829645  .00000103  00000+0  11742-3 0  9994
2 63169  88.9696 293.4206 0016482 101.7631 258.5377 13.62060334 81429
QIANFAN-84              
1 63170U 25046M   26230.25554721  .00000091  00000+0  12218-3 0  9994
2 63170  88.9695 294.2637 0017834 123.8648 236.4204 13.51021523 80958
QIANFAN-85              
1 63171U 25046N   26230.25145260  .00000109  00000+0  14958-3 0  9992
2 63171  88.9694 294.1339 0015357 125.2049 235.0542 13.51024927 81025
QIANFAN-86              
1 63172U 25046P   26230.25968516  .00000107  00000+0  14648-3 0  9994
2 63172  88.9696 294.0011 0013173 127.9819 232.2525 13.51020863 81106
QIANFAN-87              
1 63173U 25046Q   26230.23105543  .00000105  00000+0  14429-3 0  9991
2 63173  88.9693 294.1065 0013766 124.0109 236.2352 13.51029148 81031
QIANFAN-88              
1 63174U 25046R   26230.24741389  .00000114  00000+0  15723-3 0  9995
2 63174  88.9695 294.0654 0014039 131.5190 228.7168 13.51025249 81066
QIANFAN-89              
1 63175U 25046S   26230.28435125  .00000121  00000+0  16884-3 0  9995
2 63175  88.9695 294.2504 0018756 124.2790 236.0140 13.51020531 80967
QIANFAN-90              
1 63176U 25046T   26230.23908787  .00000103  00000+0  14004-3 0  9992
2 63176  88.9696 294.2283 0015735 122.4446 237.8230 13.51024878 80973
QIANFAN-91              
1 66033U 25233A   26230.19757928  .00000045  00000+0  50585-4 0  9999
2 66033  88.9999  36.9119 0002260  91.5825 268.5585 13.51016808 41558
QIANFAN-92              
1 66034U 25233B   26229.98361574  .00000051  00000+0  60453-4 0  9995
2 66034  88.9984  36.8951 0002050  94.9717 265.1668 13.51015870 41520
QIANFAN-93              
1 66035U 25233C   26230.21394746  .00000035  00000+0  36107-4 0  9992
2 66035  89.0010  36.9404 0002208  93.0946 267.0457 13.51018624 41556
QIANFAN-94              
1 66036U 25233D   26230.20165168  .00000062  00000+0  77215-4 0  9991
2 66036  89.0006  36.8428 0002065  91.2808 268.8580 13.51018133 41602
QIANFAN-95              
1 66037U 25233E   26229.98768449  .00000039  00000+0  41892-4 0  9992
2 66037  89.0005  36.4065 0002218  88.8900 271.2506 13.51018925 41829
QIANFAN-96              
1 66038U 25233F   26230.23459867  .00000045  00000+0  50647-4 0  9999
2 66038  89.0002  36.9233 0002297  91.7384 268.4030 13.51017511 41555
QIANFAN-97              
1 66039U 25233G   26230.21811229  .00000036  00000+0  37813-4 0  9992
2 66039  89.0005  36.9111 0002227  92.0254 268.1152 13.51017892 41562
QIANFAN-98              
1 66040U 25233H   26230.00413921  .00000034  00000+0  33391-4 0  9993
2 66040  88.9995  36.6570 0001744  82.3123 277.8226 13.51017311 41673
QIANFAN-99              
1 66041U 25233J   26230.23042466  .00000043  00000+0  48649-4 0  9993
2 66041  89.0007  36.9144 0001950  83.8817 276.2556 13.51017516 41569
QIANFAN-100             
1 66042U 25233K   26229.99996467  .00000027  00000+0  22731-4 0  9990
2 66042  89.0016  36.8716 0002213  93.0138 267.1267 13.51017259 41580
QIANFAN-101             
1 66043U 25233L   26230.00900845  .00000286  00000+0  11180-3 0  9992
2 66043  89.0006  33.4642 0013160 306.8488  53.1499 14.26840163 43445
QIANFAN-102             
1 66044U 25233M   26230.02061207  .00000040  00000+0  43543-4 0  9992
2 66044  89.0004  36.8438 0002059  90.1438 269.9949 13.51017403 41587
QIANFAN-103             
1 66045U 25233N   26230.24688569  .00000042  00000+0  46353-4 0  9997
2 66045  89.0006  36.9177 0002236  93.0432 267.0975 13.51018312 41560
QIANFAN-104             
1 66046U 25233P   26229.95476126  .00000024  00000+0  18467-4 0  9993
2 66046  89.0010  36.8522 0001974  91.7583 268.3794 13.51023514 41573
QIANFAN-105             
1 66047U 25233Q   26230.18521347  .00000043  00000+0  47468-4 0  9991
2 66047  89.0024  36.6803 0002186  89.3737 270.7665 13.51023155 41710
QIANFAN-106             
1 66048U 25233R   26229.95893052  .00000026  00000+0  21650-4 0  9996
2 66048  88.9993  36.8966 0001835  84.0378 276.0982 13.51017271 41521
QIANFAN-107             
1 66049U 25233S   26229.96715754  .00000032  00000+0  31167-4 0  9991
2 66049  89.0008  36.9381 0002199  93.1748 266.9655 13.51016724 41537
QIANFAN-108             
1 66050U 25233T   26230.19340658  .00000051  00000+0  60998-4 0  9992
2 66050  89.0002  36.8986 0001823  85.5426 274.5934 13.51018320 41566
QIANFAN-109             
1 68636U 26075A   26230.28135988  .00000111  00000+0  15289-3 0  9996
2 68636  88.9913 314.6794 0002747  99.5002 260.6460 13.51030610 18179
QIANFAN-110             
1 68637U 26075B   26230.28970097  .00000107  00000+0  14719-3 0  9997
2 68637  88.9913 314.7001 0002274 105.2116 254.9287 13.51027759 18171
QIANFAN-111             
1 68638U 26075C   26230.27739719  .00000113  00000+0  15651-3 0  9994
2 68638  88.9912 314.6606 0002252 104.0181 256.1221 13.51027322 18196
QIANFAN-112             
1 68639U 26075D   26230.24030997  .00000111  00000+0  15354-3 0  9992
2 68639  88.9911 314.6726 0002781 104.3800 255.7660 13.51019646 18188
QIANFAN-113             
1 68640U 26075E   26230.28552023  .00000107  00000+0  14715-3 0  9992
2 68640  88.9916 314.6651 0002392 106.0186 254.1229 13.51025501 18198
QIANFAN-114             
1 68641U 26075F   26230.21968803  .00000111  00000+0  15368-3 0  9993
2 68641  88.9912 314.6880 0002284 104.1708 255.9697 13.51023795 18177
QIANFAN-115             
1 68642U 26075G   26230.24849164  .00000101  00000+0  13724-3 0  9998
2 68642  88.9911 314.6923 0002380 101.1430 258.9989 13.51020417 18176
QIANFAN-116             
1 68643U 26075H   26230.23613759  .00000121  00000+0  16945-3 0  9997
2 68643  88.9905 314.6493 0002642 105.8947 254.2496 13.51021189 18187
QIANFAN-117             
1 68644U 26075J   26230.22383512  .00000117  00000+0  16218-3 0  9996
2 68644  88.9909 314.6691 0002529 102.2033 257.9402 13.51018971 18185
QIANFAN-118             
1 68645U 26075K   26230.25671579  .00000116  00000+0  16164-3 0  9992
2 68645  88.9914 314.6767 0002215 107.1977 252.9417 13.51020833 18180
QIANFAN-119             
1 68646U 26075L   26230.23195767  .00000111  00000+0  15373-3 0  9997
2 68646  88.9914 314.6749 0002599  99.8198 260.3247 13.51018794 18185
QIANFAN-120             
1 68647U 26075M   26230.24435930  .00000109  00000+0  14993-3 0  9992
2 68647  88.9916 314.6596 0002626  96.6996 263.4454 13.51027883 18194
QIANFAN-121             
1 68648U 26075N   26230.26912061  .00000125  00000+0  17432-3 0  9999
2 68648  88.9913 314.6607 0002220 104.7915 255.3482 13.51019817 18196
QIANFAN-122             
1 68649U 26075P   26230.26092266  .00000119  00000+0  16494-3 0  9996
2 68649  88.9912 314.6590 0002604 101.4525 258.6919 13.51023266 18187
QIANFAN-123             
1 68650U 26075Q   26230.22796911  .00000118  00000+0  16450-3 0  9993
2 68650  88.9909 314.6503 0002810  99.6587 260.4881 13.51028551 18163
QIANFAN-124             
1 68651U 26075R   26230.25270851  .00000119  00000+0  16552-3 0  9991
2 68651  88.9911 314.6584 0002682 101.8807 258.2645 13.51022932 18197
QIANFAN-125             
1 68652U 26075S   26230.26500866  .00000126  00000+0  17677-3 0  9992
2 68652  88.9912 314.6592 0002242 105.6022 254.5376 13.51019923 18197
QIANFAN-126             
1 68653U 26075T   26230.27318584  .00000112  00000+0  15510-3 0  9997
2 68653  88.9916 314.6265 0002796  99.4163 260.7305 13.51025155 18217
QIANFAN-127             
1 69073U 26104A   26230.27843459  .00000138  00000+0  19470-3 0  9998
2 69073  88.9944 335.1328 0002141 110.1201 250.0181 13.51021670 13544
QIANFAN-128             
1 69074U 26104B   26230.28671904  .00000140  00000+0  19879-3 0  9990
2 69074  88.9921 335.1631 0001744 107.0301 253.1041 13.51028735 13527
QIANFAN-129             
1 69075U 26104C   26230.31129568  .00000136  00000+0  19225-3 0  9999
2 69075  88.9924 335.0941 0001880 108.9869 251.1486 13.51033668 13560
QIANFAN-130             
1 69076U 26104D   26230.27436707  .00000120  00000+0  16732-3 0  9994
2 69076  88.9927 335.1630 0002350 112.8012 247.3388 13.51028165 13527
QIANFAN-131             
1 69077U 26104E   26230.29496419  .00000137  00000+0  19295-3 0  9998
2 69077  88.9919 335.1235 0001935 101.1558 258.9811 13.51020112 13549
QIANFAN-132             
1 69078U 26104F   26230.13437705  .00000133  00000+0  18662-3 0  9998
2 69078  88.9922 335.1958 0002215 110.1869 249.9520 13.51026703 13496
QIANFAN-133             
1 69079U 26104G   26230.29086627  .00000135  00000+0  19050-3 0  9993
2 69079  88.9925 335.1289 0001749  97.4252 262.7098 13.51019869 13534
QIANFAN-134             
1 69080U 26104H   26230.24559214  .00000138  00000+0  19579-3 0  9996
2 69080  88.9930 335.1586 0001731 104.1559 255.9784 13.51023136 13526
QIANFAN-135             
1 69081U 26104J   26229.77917756 -.01896087  00000+0 -33246+1 0  9995
2 69081  88.9919 335.1987 0002596  82.5717 277.5727 13.47602711 13461
QIANFAN-136             
1 69082U 26104K   26230.30733526  .00000132  00000+0  18575-3 0  9994
2 69082  88.9925 335.1474 0001724  99.1200 261.0146 13.51026251 13538
QIANFAN-137             
1 69083U 26104L   26230.30320933  .00000123  00000+0  17197-3 0  9998
2 69083  88.9934 335.0215 0002190 107.8030 252.3361 13.51026197 13606
QIANFAN-138             
1 69084U 26104M   26230.25379229  .00000134  00000+0  18833-3 0  9995
2 69084  88.9919 335.1549 0001891 114.8585 245.2763 13.51020462 13528
QIANFAN-139             
1 69085U 26104N   26230.31554785  .00000131  00000+0  18476-3 0  9995
2 69085  88.9921 335.1296 0002099 111.3359 248.8016 13.51015962 13544
QIANFAN-140             
1 69086U 26104P   26230.24956377  .00000137  00000+0  19338-3 0  9995
2 69086  88.9922 335.1396 0001749 114.8324 245.3009 13.51029391 13532
QIANFAN-141             
1 69087U 26104Q   26230.25788243  .00000132  00000+0  18573-3 0  9997
2 69087  88.9919 335.1041 0001734 108.3304 251.8036 13.51022926 13557
QIANFAN-142             
1 69088U 26104R   26230.26609219  .00000115  00000+0  15877-3 0  9999
2 69088  88.9917 335.1030 0001906 113.2920 246.8432 13.51025241 13551
QIANFAN-143             
1 69089U 26104S   26230.26202722  .00000130  00000+0  18245-3 0  9997
2 69089  88.9928 335.1065 0001959  99.2544 260.8829 13.51021749 13550
QIANFAN-144             
1 69090U 26104T   26230.27020427  .00000122  00000+0  17037-3 0  9999
2 69090  88.9926 335.1245 0002066 114.4808 245.6558 13.51025813 13548
QIANFAN-145             
1 69104U 26108A   26230.27484221  .00000072  00000+0  92321-4 0  9999
2 69104  89.0147  15.8352 0000654 177.3920 182.7235 13.51034812 12828
QIANFAN-146             
1 69105U 26108B   26230.22798628  .00000085  00000+0  11458-3 0  9999
2 69105  89.0149  15.6750 0018863 294.4812  65.4371 13.50007043 12916
QIANFAN-147             
1 69106U 26108C   26230.28280613  .00000079  00000+0  10407-3 0  9992
2 69106  89.0149  15.8381 0002009 101.5553 258.5824 13.51020363 12812
QIANFAN-148             
1 69107U 26108D   26230.27038297  .00000028  00000+0  24273-4 0  9992
2 69107  89.0142  15.8314 0001811  97.5335 262.6022 13.51019571 12819
QIANFAN-149             
1 69108U 26108E   26230.27853325  .00000085  00000+0  11233-3 0  9994
2 69108  89.0142  15.8520 0001794 107.5478 252.5869 13.51019185 12817
QIANFAN-150             
1 69109U 26108F   26230.28676827  .00000083  00000+0  10996-3 0  9999
2 69109  89.0148  15.8027 0001824 107.8631 252.2719 13.51041345 12830
QIANFAN-151             
1 69110U 26108G   26230.31569089  .00000078  00000+0  10175-3 0  9999
2 69110  89.0147  15.8237 0002048  93.7749 266.3637 13.51014943 12824
QIANFAN-152             
1 69111U 26108H   26230.22099464  .00000071  00000+0  91198-4 0  9993
2 69111  89.0143  15.8261 0002224 105.1941 254.9457 13.51024248 12828
QIANFAN-153             
1 69112U 26108J   26230.21685676  .00000090  00000+0  12118-3 0  9994
2 69112  89.0140  15.8041 0001987 105.3342 254.8029 13.51038942 12824
QIANFAN-154             
1 69113U 26108K   26230.22520840  .00000074  00000+0  96132-4 0  9998
2 69113  89.0150  15.8487 0001894 102.7258 257.4105 13.51022340 12812
QIANFAN-155             
1 69114U 26108L   26230.22924010  .00000070  00000+0  90545-4 0  9994
2 69114  89.0148  15.8137 0001905 106.5424 253.5937 13.51033131 12823
QIANFAN-156             
1 69115U 26108M   26230.32388027  .00000112  00000+0  15464-3 0  9991
2 69115  89.0162  15.8007 0001878  95.3775 264.7590 13.51032609 12850
QIANFAN-157             
1 69116U 26108N   26230.23495647  .00000087  00000+0  11788-3 0  9995
2 69116  89.0145  15.7383 0018273 298.1977  61.7328 13.49890000 12872
QIANFAN-158             
1 69117U 26108P   26229.88221941 -.01890922  00000+0 -33081+1 0  9994
2 69117  89.0140  15.8147 0003970  13.9522 346.1736 13.47733426 12806
QIANFAN-159             
1 69118U 26108Q   26230.31973022  .00000082  00000+0  10867-3 0  9996
2 69118  89.0137  15.7804 0002013  95.9809 264.1571 13.51035876 12857
QIANFAN-160             
1 69119U 26108R   26230.26220247  .00000075  00000+0  97371-4 0  9993
2 69119  89.0152  15.8186 0001947 109.1146 251.0217 13.51031232 12838
QIANFAN-161             
1 69120U 26108S   26229.89463287 -.01884756  00000+0 -32943+1 0  9994
2 69120  89.0155  15.7693 0001454  70.7175 289.4132 13.47779945 12839
QIANFAN-162             
1 69121U 26108T   26230.25809515  .00000128  00000+0  17967-3 0  9997
2 69121  89.0148  15.7621 0002168 102.9349 257.2045 13.51039234 12850
QIANFAN-163             
1 69325U 26121A   26230.14855761  .00000080  00000+0  10514-3 0  9998
2 69325  89.0153 294.3512 0001335 104.5666 255.5633 13.51030137 10531
QIANFAN-164             
1 69326U 26121B   26230.11566828  .00000074  00000+0  96049-4 0  9990
2 69326  89.0151 294.3456 0001656  95.1160 265.0180 13.51031391 10533
QIANFAN-165             
1 69382U 26124A   26229.90567403 -.02142850  00000+0 -34409+1 0  9991
2 69382  89.0042 355.3977 0013283   0.0559   0.0593 13.53022138 10374
QIANFAN-166             
1 69383U 26124B   26230.27751780  .00000039  00000+0  41746-4 0  9991
2 69383  89.0073 355.3638 0002074  94.6021 265.5367 13.51015886 10425
QIANFAN-167             
1 69384U 26124C   26230.28173112  .00000095  00000+0  12860-3 0  9996
2 69384  89.0046 355.3779 0001922 105.7033 254.4330 13.51025188 10412
QIANFAN-168             
1 69385U 26124D   26229.91448475 -.02012883  00000+0 -34614+1 0  9992
2 69385  89.0037 355.3959 0013208 328.6370  31.3990 13.48377285 10376
QIANFAN-169             
1 69386U 26124E   26230.28995162  .00000033  00000+0  32618-4 0  9991
2 69386  89.0040 355.3583 0013336 348.8412  11.2442 13.51027889 10428
QIANFAN-170             
1 69387U 26124F   26230.30131616  .00000050  00000+0  52987-4 0  9991
2 69387  89.0055 355.3257 0009229 337.4664  22.6084 13.56665167 10444
QIANFAN-171             
1 69388U 26124G   26230.30928119  .00000053  00000+0  58704-4 0  9990
2 69388  89.0073 355.3323 0009391 359.0631   1.0504 13.55570683 10448
QIANFAN-172             
1 69389U 26124H   26229.92550701 -.01850101  00000+0 -30814+1 0  9993
2 69389  89.0049 355.3631 0007970  20.4150 339.7318 13.50782291 10393
QIANFAN-173             
1 69390U 26124J   26230.30619476  .00000112  00000+0  15419-3 0  9997
2 69390  89.0045 355.3264 0010717 349.4235  10.6689 13.51008163 10446
QIANFAN-174             
1 69391U 26124K   26229.94481221 -.02058471  00000+0 -34329+1 0  9994
2 69391  89.0022 355.3260 0011881 356.4008   3.7055 13.50442833 10408
QIANFAN-175             
1 69392U 26124L   26229.95173025 -.02040704  00000+0 -34923+1 0  9996
2 69392  89.0054 355.3543 0009227 345.4833  14.6050 13.48763696 10409
QIANFAN-176             
1 69393U 26124M   26229.88480253 -.02054716  00000+0 -33042+1 0  9992
2 69393  89.0036 355.3544 0012053  13.0860 347.0603 13.52755193 10382
QIANFAN-177             
1 69394U 26124N   26230.27148714  .00000053  00000+0  58202-4 0  9991
2 69394  89.0047 355.3020 0011739 345.1302  14.9505 13.56808536 10457
QIANFAN-178             
1 69395U 26124P   26229.96601552  .00000040  00000+0  39844-4 0  9997
2 69395  89.0000 355.3049 0010716 349.3434  10.7491 13.56381311 10426
QIANFAN-179             
1 69396U 26124Q   26229.89211594 -.02011128  00000+0 -35113+1 0  9997
2 69396  89.0020 355.3184 0012265 340.7507  19.3177 13.47403180 10410
QIANFAN-180             
1 69397U 26124R   26230.26909268  .00000044  00000+0  49075-4 0  9990
2 69397  89.0033 355.2996 0011961 355.7294   4.3753 13.51018008 10450
QIANFAN-181             
1 69398U 26124S   26229.71675981 -.01951382  00000+0 -34566+1 0  9999
2 69398  89.0043 355.4414 0012402 318.8639  41.1574 13.47049459 10339
QIANFAN-182             
1 69399U 26124T   26229.87019753  .00000036  00000+0  37039-4 0  9996
2 69399  89.0030 355.4048 0002078  95.4101 264.7288 13.51021855 10351
QIANFAN-183             
1 69401U 26125A   26229.90327491 -.01873451  00000+0 -32726+1 0  9992
2 69401  88.9859 273.7481 0022255 341.6307  18.4036 13.47693988 10271
QIANFAN-184             
1 69402U 26125B   26229.92125133 -.01901926  00000+0 -30465+1 0  9991
2 69402  88.9909 273.7591 0021911 357.1120   2.9903 13.53311136 10273
QIANFAN-185             
1 69403U 26125C   26229.87912363 -.02045173  00000+0 -32517+1 0  9999
2 69403  88.9923 273.7000 0027172   5.6877 354.4579 13.53338835 10307
QIANFAN-186             
1 69404U 26125D   26229.91601686 -.01917692  00000+0 -31180+1 0  9996
2 69404  88.9911 273.7582 0022558 354.1645   5.9241 13.52391121 10274
QIANFAN-187             
1 69405U 26125E   26229.85505560 -.01921531  00000+0 -30728+1 0  9998
2 69405  88.9909 273.7487 0018669 345.5486  14.5130 13.53490195 10276
QIANFAN-188             
1 69406U 26125F   26230.22084638  .00000051  00000+0  61794-4 0  9993
2 69406  88.9913 273.7082 0023394 354.0410   6.0459 13.49948166 10323
QIANFAN-189             
1 69407U 26125G   26230.15574682  .00000022  00000+0  15477-4 0  9994
2 69407  88.9894 273.7155 0001646  93.3457 266.7882 13.51027235 10304
QIANFAN-190             
1 69408U 26125H   26229.84652894 -.02031046  00000+0 -34845+1 0  9991
2 69408  88.9891 273.7436 0004070 188.9647 171.1431 13.48595809 10278
QIANFAN-191             
1 69409U 26125J   26229.87044797 -.01916566  00000+0 -33255+1 0  9994
2 69409  88.9907 273.7493 0008520 328.3022  31.7614 13.48313697 10278
QIANFAN-192             
1 69410U 26125K   26229.85379999 -.01870943  00000+0 -32651+1 0  9996
2 69410  88.9914 273.7493 0002743 340.7998  19.3048 13.47845748 10278
QIANFAN-193             
1 69411U 26125L   26229.88148408 -.02035185  00000+0 -33113+1 0  9995
2 69411  88.9895 273.7304 0025968 354.8296   5.2584 13.51865475 10283
QIANFAN-194             
1 69412U 26125M   26230.24632318  .00000009  00000+0 -43449-5 0  9998
2 69412  88.9928 273.6967 0006022 346.5844  13.5146 13.51026624 10328
QIANFAN-195             
1 69413U 26125N   26230.24574262  .00000043  00000+0  48174-4 0  9998
2 69413  88.9930 273.6791 0024154 350.3367   9.7316 13.50115296 10347
QIANFAN-196             
1 69414U 26125P   26230.26275615  .00000021  00000+0  13562-4 0  9990
2 69414  88.9937 273.6826 0008732 348.0501  12.0442 13.51027473 10349
QIANFAN-197             
1 69415U 26125Q   26229.90034543 -.02035129  00000+0 -34149+1 0  9994
2 69415  88.9905 273.6990 0020642 347.4874  12.5762 13.49945018 10292
QIANFAN-198             
1 69416U 26125R   26229.88784361 -.02066670  00000+0 -35340+1 0  9991
2 69416  88.9889 273.7165 0005614 333.4779  26.6083 13.48876248 10299
QIANFAN-199             
1 69417U 26125S   26230.23332730  .00000049  00000+0  50482-4 0  9994
2 69417  88.9907 273.6380 0022031 344.1555  15.8908 13.57850187 10360
QIANFAN-200             
1 69418U 26125T   26229.86751953 -.02093446  00000+0 -35312+1 0  9992
2 69418  88.9904 273.7461 0000143  69.4401 290.6765 13.49812991 10272
QIANFAN-201             
1 69800U 26153A   26230.31308178  .00000353  00000+0  18100-3 0  9997
2 69800  88.9963 355.1603 0010370  77.5068 282.7278 14.13290647  6385
QIANFAN-202             
1 69801U 26153B   26230.29532843  .00000377  00000+0  18975-3 0  9999
2 69801  88.9963 355.1575 0010699  78.5931 281.6457 14.14347067  6374
QIANFAN-203             
1 69802U 26153C   26230.31209693  .00000299  00000+0  15774-3 0  9994
2 69802  88.9963 355.1790 0009724  80.7085 279.5200 14.11306404  6375
QIANFAN-204             
1 69803U 26153D   26230.29263727  .00000365  00000+0  18901-3 0  9999
2 69803  88.9964 355.1763 0009965  79.2776 280.9531 14.12789976  6377
QIANFAN-205             
1 69804U 26153E   26230.33245894  .00000349  00000+0  18942-3 0  9997
2 69804  88.9963 355.1816 0009864  78.5818 281.6474 14.10162119  6379
QIANFAN-206             
1 69805U 26153F   26230.32461059  .00000383  00000+0  18715-3 0  9996
2 69805  88.9963 355.1620 0009979  84.5613 275.6713 14.15952934  6387
QIANFAN-207             
1 69806U 26153G   26230.29148487  .00000366  00000+0  19469-3 0  9998
2 69806  88.9963 355.1758 0010040  76.5324 283.6979 14.11281510  6374
QIANFAN-208             
1 69807U 26153H   26230.28523466  .00000407  00000+0  20116-3 0  9999
2 69807  88.9963 355.1750 0009014  88.5513 271.6708 14.15502290  6382
QIANFAN-209             
1 69808U 26153J   26230.30236390  .00000324  00000+0  17268-3 0  9992
2 69808  88.9964 355.1774 0010271  77.3186 282.9147 14.10879806  6375
QIANFAN-210             
1 69809U 26153K   26230.28838239  .00000373  00000+0  19807-3 0  9995
2 69809  88.9964 355.1758 0010701  80.5092 279.7302 14.11484418  6377
QIANFAN-211             
1 69810U 26153L   26230.32717212  .00000355  00000+0  17763-3 0  9998
2 69810  88.9963 355.1624 0010069  80.8783 279.3543 14.14523571  6388
QIANFAN-212             
1 69811U 26153M   26230.32877607  .00000364  00000+0  18741-3 0  9991
2 69811  88.9963 355.1626 0011460  83.4028 276.8463 14.13076323  6388
QIANFAN-213             
1 69812U 26153N   26230.32853714  .00000360  00000+0  18699-3 0  9993
2 69812  88.9962 355.1624 0010115  79.6695 280.5631 14.12634987  6383
QIANFAN-214             
1 69813U 26153P   26230.30722923  .00000379  00000+0  18202-3 0  9999
2 69813  88.9963 355.1406 0010218  83.1392 277.0959 14.16837419  6395
QIANFAN-215             
1 69814U 26153Q   26230.30984541  .00000456  00000+0  20069-3 0  9996
2 69814  88.9961 355.1216 0010427  88.3336 271.9049 14.21788177  6407
QIANFAN-216             
1 69815U 26153R   26230.28070825  .00000416  00000+0  19540-3 0  9993
2 69815  88.9963 355.1365 0009934  88.0512 272.1814 14.18156090  6399
QIANFAN-217             
1 69816U 26153S   26230.32784620  .00000468  00000+0  18709-3 0  9997
2 69816  88.9961 355.1056 0010095  90.6871 269.5479 14.26787596  6412
QIANFAN-218             
1 69817U 26153T   26230.32648441  .00000459  00000+0  18349-3 0  9998
2 69817  88.9965 355.1069 0009763  88.8843 271.3470 14.26831627  6416
QIANFAN-219             
1 69848U 26155A   26229.85644762 -.02064927  00000+0 -17963+1 0  9994
2 69848  89.0045  57.1704 0030383 112.4358 248.0038 13.89984404  6144
QIANFAN-220             
1 69849U 26155B   26229.87822880 -.01984127  00000+0 -18978+1 0  9995
2 69849  89.0049  57.2116 0036048 106.9283 253.5844 13.84185484  6126
QIANFAN-221             
1 69850U 26155C   26230.24673250  .00000093  00000+0  40357-4 0  9993
2 69850  89.0052  57.0807 0032704 113.4264 247.0367 14.14827665  6221
QIANFAN-222             
1 69851U 26155D   26229.99339423  .00000032  00000+0  14918-4 0  9992
2 69851  89.0055  57.1903 0031627 104.4015 256.0671 13.88322818  6149
QIANFAN-223             
1 69852U 26155E   26229.83793103 -.02088250  00000+0 -19614+1 0  9991
2 69852  89.0041  57.2053 0030863 104.5626 255.8971 13.85545824  6121
QIANFAN-224             
1 69853U 26155F   26230.22830495  .00000034  00000+0  15882-4 0  9990
2 69853  89.0033  57.1452 0032949 108.3552 252.1211 13.91867136  6185
QIANFAN-225             
1 69854U 26155G   26230.04616087  .00000029  00000+0  12975-4 0  9994
2 69854  89.0047  57.1795 0032325 103.1407 257.3375 13.86533907  6156
QIANFAN-226             
1 69855U 26155H   26229.88774467 -.02001201  00000+0 -18772+1 0  9996
2 69855  89.0036  57.1923 0033205 104.7747 255.7106 13.85410976  6131
QIANFAN-227             
1 69856U 26155J   26229.87869438 -.02088143  00000+0 -19243+1 0  9993
2 69856  89.0041  57.1911 0030065 110.0848 250.3563 13.86674485  6134
QIANFAN-228             
1 69857U 26155K   26229.86540710 -.02090781  00000+0 -18940+1 0  9996
2 69857  89.0045  57.1911 0031911 116.6273 243.8174 13.87653979  6135
QIANFAN-229             
1 69858U 26155L   26229.88812737 -.01995655  00000+0 -17352+1 0  9999
2 69858  89.0051  57.1751 0027902 106.7622 253.6616 13.89902705  6145
QIANFAN-230             
1 69859U 26155M   26229.86645263 -.02075354  00000+0 -19794+1 0  9994
2 69859  89.0049  57.2072 0032188 103.0245 257.4522 13.84599531  6123
QIANFAN-231             
1 69860U 26155N   26229.86296394 -.02037579  00000+0 -17740+1 0  9999
2 69860  89.0044  57.1720 0032689 112.9546 247.5083 13.89843549  6148
QIANFAN-232             
1 69861U 26155P   26229.84915648 -.02014850  00000+0 -17333+1 0  9993
2 69861  89.0044  57.1682 0024095 116.7401 243.6243 13.90607420  6143
QIANFAN-233             
1 69862U 26155Q   26229.84969056 -.02015557  00000+0 -17308+1 0  9993
2 69862  89.0048  57.1695 0032046 111.4045 249.0553 13.90608756  6140
QIANFAN-234             
1 69863U 26155R   26229.61614980 -.03030997  00000+0 -24861+1 0  9990
2 69863  89.0053  57.2339 0035263  14.2071 346.0084 13.90085803  6112
QIANFAN-235             
1 69864U 26155S   26230.23394569  .00000085  00000+0  34448-4 0  9995
2 69864  89.0053  57.0791 0032721 113.2750 247.1889 14.17433179  6222
QIANFAN-236             
1 69865U 26155T   26229.98047610  .00000033  00000+0  15262-4 0  9994
2 69865  89.0056  57.1706 0031778 103.7439 256.7276 13.90565139  6152
QIANFAN-237             
1 69866U 26155U   26229.84079545 -.02033402  00000+0 -17047+1 0  9991
2 69866  89.0049  57.1689 0032785 107.6904 252.7854 13.92022969  6131
QIANFAN-238             
1 69867U 26155V   26229.88620718 -.02022600  00000+0 -17941+1 0  9991
2 69867  89.0050  57.1574 0022250 111.6945 248.6599 13.88862776  6158
