QIANFAN-1               
1 60379U 24140A   26032.13035750  .00000163  00000+0  23397-3 0  9999
2 60379  88.9767 294.0736 0019288  70.0063 290.3163 13.50992655 74153
QIANFAN-2               
1 60380U 24140B   26032.15916995  .00000154  00000+0  21964-3 0  9990
2 60380  88.9753 293.9030 0014316  45.6175 314.6146 13.50996698 74213
QIANFAN-3               
1 60381U 24140C   26032.01920193  .00000172  00000+0  24723-3 0  9997
2 60381  88.9746 294.0463 0015610  56.8985 303.3662 13.50997239 74107
QIANFAN-4               
1 60382U 24140D   26032.06859384  .00000139  00000+0  19604-3 0  9991
2 60382  88.9771 293.9515 0014587  48.1219 312.1174 13.50992731 74230
QIANFAN-5               
1 60383U 24140E   26032.11805004  .00000158  00000+0  22582-3 0  9998
2 60383  88.9746 294.0614 0016960  66.6131 293.6802 13.50994952 74104
QIANFAN-6               
1 60384U 24140F   26032.06455408  .00000151  00000+0  21454-3 0  9992
2 60384  88.9772 293.8267 0014774  53.4017 306.8491 13.50994861 74293
QIANFAN-7               
1 60385U 24140G   26031.99763649  .00000650  00000+0  25750-3 0  9990
2 60385  88.9780 287.8265 0013006 232.4094 127.5920 14.27741253 77563
QIANFAN-8               
1 60386U 24140H   26032.14688247  .00000140  00000+0  19822-3 0  9996
2 60386  88.9774 294.0564 0018259  54.6636 305.6219 13.50996191 74150
QIANFAN-9               
1 60387U 24140J   26032.12206394  .00000159  00000+0  22695-3 0  9996
2 60387  88.9772 294.1333 0017949  54.4866 305.7956 13.50991006 74139
QIANFAN-10              
1 60388U 24140K   26031.97803301  .00000163  00000+0  23351-3 0  9995
2 60388  88.9781 293.5002 0016051  34.5961 325.6232 13.50996814 74246
QIANFAN-11              
1 60389U 24140L   26032.16335511  .00000142  00000+0  20066-3 0  9998
2 60389  88.9708 294.0307 0015975  54.4395 305.8243 13.50996281 73920
QIANFAN-12              
1 60390U 24140M   26032.03574403  .00000148  00000+0  21058-3 0  9999
2 60390  88.9751 294.1093 0014879  62.1997 298.0661 13.50993914 74039
QIANFAN-13              
1 60391U 24140N   26032.00692425  .00000156  00000+0  22340-3 0  9996
2 60391  88.9763 294.2183 0014716  64.6385 295.6288 13.50994327 74051
QIANFAN-14              
1 60392U 24140P   26031.95748577  .00000140  00000+0  19811-3 0  9992
2 60392  88.9742 294.1104 0018406  64.3994 295.9056 13.50993964 74056
QIANFAN-15              
1 60393U 24140Q   26032.03986528  .00000158  00000+0  22620-3 0  9994
2 60393  88.9766 294.0703 0014068  52.5406 307.7022 13.50992288 74057
QIANFAN-16              
1 60394U 24140R   26032.02745674  .00000138  00000+0  19491-3 0  9999
2 60394  88.9769 294.1931 0016355  67.9141 292.3745 13.50997843 73964
QIANFAN-17              
1 60395U 24140S   26032.02348908  .00000198  00000+0  28735-3 0  9996
2 60395  88.9779 294.2450 0016703  62.2442 298.0401 13.50997182 74927
QIANFAN-18              
1 60396U 24140T   26032.07695887  .00000133  00000+0  18662-3 0  9990
2 60396  88.9772 293.7694 0015846  46.6310 313.6158 13.50991140 74327
QIANFAN-19              
1 61552U 24185A   26032.02945701  .00000458  00000+0  23233-3 0  9992
2 61552  88.9769  72.1765 0008670 131.7784 228.4145 14.14355186 76779
QIANFAN-20              
1 61553U 24185B   26032.11441750  .00000571  00000+0  32222-3 0  9992
2 61553  88.9766  72.5415 0006366 163.1229 197.0168 14.08901718 76582
QIANFAN-21              
1 61554U 24185C   26032.04106141  .00000608  00000+0  26530-3 0  9993
2 61554  88.9684  71.0851 0010300 186.9365 173.1686 14.22686064 77128
QIANFAN-22              
1 61555U 24185D   26032.09793855  .00000171  00000+0  13628-3 0  9992
2 61555  88.9753  73.7276 0006215 183.3485 176.7645 13.86324280 75917
QIANFAN-23              
1 61556U 24185E   26032.07533143  .00000571  00000+0  28043-3 0  9994
2 61556  88.9760  71.9571 0009040 141.9593 218.2235 14.16354570 76875
QIANFAN-24              
1 61557U 24185F   26032.07165026  .00000652  00000+0  27838-3 0  9997
2 61557  88.9743  71.2800 0011397 126.7531 233.4709 14.23885846 77189
QIANFAN-25              
1 61558U 24185G   26032.11238508  .00000553  00000+0  32938-3 0  9996
2 61558  88.9753  72.4859 0011537 151.0083 209.1742 14.05962249 76580
QIANFAN-26              
1 61559U 24185H   26032.07581351  .00000164  00000+0  15053-3 0  9996
2 61559  88.9760  74.3173 0004935 197.6900 162.4095 13.77845597 75605
QIANFAN-27              
1 61560U 24185J   26032.01300606  .00000429  00000+0  16882-3 0  9999
2 61560  88.9755  71.0471 0009829 117.6762 242.5431 14.27405312 77330
QIANFAN-28              
1 61561U 24185K   26032.10986785  .00000829  00000+0  32727-3 0  9998
2 61561  88.9771  71.0420 0009349 116.6658 243.5495 14.28151576 77368
QIANFAN-29              
1 61562U 24185L   26032.02717846  .00000196  00000+0  28542-3 0  9997
2 61562  88.9736  76.1138 0007899 262.4104  97.6150 13.51030865 74585
QIANFAN-30              
1 61563U 24185M   26032.04012622  .00000133  00000+0  19040-3 0  9994
2 61563  88.9756  75.6573 0005845 241.6468 118.4094 13.50007465 74854
QIANFAN-31              
1 61564U 24185N   26032.08162108  .00000184  00000+0  23863-3 0  9998
2 61564  88.9740  75.3747 0005420 231.1265 128.9407 13.57989883 74995
QIANFAN-32              
1 61565U 24185P   26032.12891144  .00000153  00000+0  21944-3 0  9997
2 61565  88.9800  75.7975 0007561 278.2893  81.7400 13.50754845 74841
QIANFAN-33              
1 61566U 24185Q   26032.05820070  .00000331  00000+0  22945-3 0  9990
2 61566  88.9749  73.1968 0008041 154.0815 206.0767 13.96595546 76185
QIANFAN-34              
1 61567U 24185R   26032.10264364  .00000457  00000+0  28922-3 0  9995
2 61567  88.9725  72.6884 0006735 149.6887 210.4684 14.02355521 76416
QIANFAN-35              
1 61568U 24185S   26032.07926236  .00000711  00000+0  28040-3 0  9999
2 61568  88.9752  70.9683 0008716 113.9980 246.2128 14.28065766 77366
QIANFAN-36              
1 61569U 24185T   26032.00780848  .00000090  00000+0  11224-3 0  9996
2 61569  88.9734  75.8080 0004197 246.7545 113.3167 13.55605623 74739
QIANFAN-37              
1 62238U 24232B   26032.05995301  .00000035  00000+0  35141-4 0  9994
2 62238  88.9999  36.2423 0001554  72.1079 288.0241 13.50983582105966
QIANFAN-38              
1 62239U 24232C   26032.08467999  .00000049  00000+0  57268-4 0  9994
2 62239  89.0006  36.1591 0016146  54.3966 305.8687 13.50996380106023
QIANFAN-39              
1 62240U 24232D   26032.24849717  .00000153  00000+0  58854-4 0  9994
2 62240  89.0004  31.5248 0013823 274.3215  85.6398 14.25418646108583
QIANFAN-40              
1 62241U 24232E   26032.04353975  .00000057  00000+0  68800-4 0  9994
2 62241  89.0033  35.7617 0015323  61.9077 298.3621 13.50995496106383
QIANFAN-41              
1 62242U 24232F   26032.05174579  .00000046  00000+0  53156-4 0  9993
2 62242  89.0004  36.1130 0015479  51.1481 309.1049 13.50983948106046
QIANFAN-42              
1 62243U 24232G   26032.06795443  .00000153  00000+0  59985-4 0  9999
2 62243  89.0002  31.6003 0012733 282.2090  77.7677 14.24513213108534
QIANFAN-43              
1 62244U 24232H   26032.26982185  .00000042  00000+0  47021-4 0  9998
2 62244  89.0009  36.1586 0017112  54.8361 305.4390 13.50982896 74684
QIANFAN-44              
1 62245U 24232J   26032.10931530  .00000052  00000+0  61642-4 0  9996
2 62245  89.0007  35.9846 0015276  53.1149 307.1399 13.50985162106137
QIANFAN-45              
1 62246U 24232K   26032.29863969  .00000040  00000+0  42711-4 0  9990
2 62246  89.0011  36.1138 0015921  52.0610 308.1977 13.50994596106086
QIANFAN-46              
1 62247U 24232L   26032.02706230  .00000047  00000+0  53573-4 0  9994
2 62247  89.0006  36.2083 0016087  57.7470 302.5237 13.50983259106004
QIANFAN-47              
1 62248U 24232M   26032.03119839  .00000077  00000+0  10037-3 0  9999
2 62248  89.0002  36.1389 0016494  56.8904 303.3827 13.50995648106035
QIANFAN-48              
1 62249U 24232N   26032.29037123  .00000030  00000+0  27554-4 0  9995
2 62249  89.0006  36.1164 0018784  58.0502 302.2472 13.50984347106075
QIANFAN-49              
1 62250U 24232P   26032.05583617  .00000038  00000+0  39373-4 0  9995
2 62250  89.0005  36.1522 0015772  54.4343 305.8276 13.50984659 74634
QIANFAN-50              
1 62251U 24232Q   26032.08057824  .00000043  00000+0  47989-4 0  9993
2 62251  89.0010  36.1607 0017457  55.1606 305.1184 13.50995418 74666
QIANFAN-51              
1 62252U 24232R   26032.06409213  .00000039  00000+0  42263-4 0  9990
2 62252  89.0005  36.1531 0015020  59.1599 301.1028 13.50984047 74654
QIANFAN-52              
1 62253U 24232S   26032.01884541  .00000021  00000+0  14271-4 0  9996
2 62253  89.0000  36.0292 0016860  51.7815 308.4851 13.50994553 74731
QIANFAN-53              
1 62254U 24232T   26032.29447718  .00000037  00000+0  38714-4 0  9993
2 62254  89.0009  36.1097 0015768  52.3707 307.8873 13.50984793 74730
QIANFAN-54              
1 62255U 24232U   26032.03935059  .00000047  00000+0  54565-4 0  9999
2 62255  89.0000  35.8094 0004088  89.8288 270.3332 13.50985352106201
QIANFAN-55              
1 62785U 25016A   26032.13933078  .00000116  00000+0  16151-3 0  9993
2 62785  88.9744  98.0072 0017220 196.1045 163.9561 13.50992162 53999
QIANFAN-56              
1 62786U 25016B   26031.93356494  .00000106  00000+0  14583-3 0  9998
2 62786  88.9717  97.8514 0015780 198.4972 161.5607 13.50994323 54011
QIANFAN-57              
1 62787U 25016C   26032.26281806  .00000123  00000+0  17208-3 0  9996
2 62787  88.9748  97.9862 0002085  84.9910 275.1479 13.50992932 54022
QIANFAN-58              
1 62788U 25016D   26032.01175857  .00000122  00000+0  16974-3 0  9996
2 62788  88.9718  97.8283 0013982 189.6304 170.4581 13.50994674 54031
QIANFAN-59              
1 62789U 25016E   26032.18462752  .00000101  00000+0  13735-3 0  9997
2 62789  88.9741  97.8961 0014218 193.0559 167.0226 13.50990792 54052
QIANFAN-60              
1 62790U 25016F   26032.06937887  .00000112  00000+0  15542-3 0  9992
2 62790  88.9723  97.8698 0015875 190.6873 169.3943 13.50988866 54020
QIANFAN-61              
1 62791U 25016G   26032.17639691  .00000112  00000+0  15431-3 0  9994
2 62791  88.9790  98.0561 0014833 189.2406 170.8475 13.50990211 54053
QIANFAN-62              
1 62792U 25016H   26032.18050244  .00000108  00000+0  14815-3 0  9997
2 62792  88.9736  97.8967 0016191 190.2652 169.8171 13.50992875 54043
QIANFAN-63              
1 62793U 25016J   26032.13111995  .00000122  00000+0  16970-3 0  9994
2 62793  88.9743  97.8567 0016068 195.7675 164.2978 13.50991085 54075
QIANFAN-64              
1 62794U 25016K   26032.02414598  .00000117  00000+0  16303-3 0  9992
2 62794  88.9730  97.8350 0014253 188.0202 172.0723 13.50989488 54054
QIANFAN-65              
1 62795U 25016L   26032.16822445  .00000123  00000+0  17161-3 0  9992
2 62795  88.9726  97.8445 0014058 189.1779 170.9117 13.50988276 54057
QIANFAN-66              
1 62796U 25016M   26032.12287705  .00000118  00000+0  16377-3 0  9995
2 62796  88.9745  97.8291 0015299 185.6468 174.4513 13.50993076 54099
QIANFAN-67              
1 62797U 25016N   26032.12696549  .00000117  00000+0  16312-3 0  9994
2 62797  88.9736  97.8493 0015029 192.3878 167.6906 13.50997332 54061
QIANFAN-68              
1 62798U 25016P   26031.97067356  .00000112  00000+0  15460-3 0  9993
2 62798  88.9740  97.9126 0015128 191.1230 168.9589 13.50989263 54021
QIANFAN-69              
1 62799U 25016Q   26032.13524836  .00000120  00000+0  16749-3 0  9994
2 62799  88.9718  97.7540 0015844 192.0986 167.9787 13.50989623 54083
QIANFAN-70              
1 62800U 25016R   26032.15173586  .00000108  00000+0  14823-3 0  9998
2 62800  88.9739  97.9015 0015786 182.4347 177.6730 13.50993400 54047
QIANFAN-71              
1 62801U 25016S   26031.99941792  .00000111  00000+0  15334-3 0  9994
2 62801  88.9733  97.8938 0015621 195.9823 164.0837 13.50992752 54026
QIANFAN-72              
1 62802U 25016T   26032.16399553  .00000115  00000+0  15889-3 0  9996
2 62802  88.9723  97.8851 0018623 204.0444 155.9839 13.50992661 54037
QIANFAN-73              
1 63159U 25046A   26032.04293926  .00000198  00000+0  28772-3 0  9995
2 63159  88.9796 314.8269 0015040 346.0590  14.0144 13.50997440 54200
QIANFAN-74              
1 63160U 25046B   26032.10052531  .00000207  00000+0  30173-3 0  9998
2 63160  88.9795 314.7098 0001800  70.4083 289.7263 13.50994949 54275
QIANFAN-75              
1 63161U 25046C   26032.01359550  .00000195  00000+0  28269-3 0  9999
2 63161  88.9797 314.9531 0016358 348.5934  11.4844 13.50993882 54135
QIANFAN-76              
1 63162U 25046D   26032.01018641  .00000174  00000+0  25138-3 0  9992
2 63162  88.9796 314.9337 0013945 350.4141   9.6742 13.51000342 54148
QIANFAN-77              
1 63163U 25046E   26032.07100049  .00000466  00000+0  32989-3 0  9999
2 63163  88.9794 312.5218 0013064 288.6048  71.3710 13.96145923 55471
QIANFAN-78              
1 63164U 25046F   26032.12516995  .00000193  00000+0  28051-3 0  9999
2 63164  88.9795 314.7854 0015375 351.5773   8.5117 13.50999614 54235
QIANFAN-79              
1 63165U 25046G   26032.07990355  .00000094  00000+0  12768-3 0  9998
2 63165  88.9799 314.8996 0015048 350.6836   9.4034 13.50966859 54171
QIANFAN-80              
1 63166U 25046H   26032.09631304  .00000108  00000+0  14903-3 0  9996
2 63166  88.9796 314.6034 0014118 354.8912   5.2093 13.50989794 54338
QIANFAN-81              
1 63167U 25046J   26032.07403767  .00000162  00000+0  23309-3 0  9995
2 63167  88.9796 314.6735 0014806 343.8876  16.1802 13.50971583 54288
QIANFAN-82              
1 63168U 25046K   26032.03471660  .00000214  00000+0  31298-3 0  9993
2 63168  88.9796 314.7216 0013172 351.8831   8.2105 13.50998807 54263
QIANFAN-83              
1 63169U 25046L   26032.02324613  .00000251  00000+0  30955-3 0  9998
2 63169  88.9797 314.4005 0013802 333.9784  26.0678 13.62003485 54441
QIANFAN-84              
1 63170U 25046M   26032.06213998  .00000191  00000+0  27726-3 0  9992
2 63170  88.9796 314.8511 0016004 346.8009  13.2721 13.51007567 54190
QIANFAN-85              
1 63171U 25046N   26032.05931242  .00000180  00000+0  26073-3 0  9993
2 63171  88.9796 314.7231 0013504 350.5265   9.5630 13.50989540 54261
QIANFAN-86              
1 63172U 25046P   26032.06759015  .00000215  00000+0  31457-3 0  9992
2 63172  88.9798 314.5856 0011543 356.0367   4.0691 13.50999539 54345
QIANFAN-87              
1 63173U 25046Q   26032.11306717  .00000216  00000+0  31527-3 0  9995
2 63173  88.9794 314.6906 0012007 350.8976   9.1955 13.50997032 54281
QIANFAN-88              
1 63174U 25046R   26032.12923262  .00000194  00000+0  28256-3 0  9997
2 63174  88.9797 314.6447 0012680 358.4078   1.7031 13.50991653 54319
QIANFAN-89              
1 63175U 25046S   26032.09228978  .00000200  00000+0  29117-3 0  9991
2 63175  88.9797 314.8377 0016715 347.2572  12.8155 13.50968938 54200
QIANFAN-90              
1 63176U 25046T   26032.12102956  .00000197  00000+0  28590-3 0  9992
2 63176  88.9797 314.8071 0013609 347.1112  12.9689 13.50970137 54229
QIANFAN-91              
1 66033U 25233A   26032.30177334  .00000049  00000+0  56740-4 0  9992
2 66033  88.9908  56.9555 0001806  89.5371 270.5987 13.50991616 14830
QIANFAN-92              
1 66034U 25233B   26032.16186349  .00000055  00000+0  65899-4 0  9995
2 66034  88.9892  56.9638 0002034  90.4891 269.6493 13.50995229 14810
QIANFAN-93              
1 66035U 25233C   26032.02196143  .00000064  00000+0  81216-4 0  9995
2 66035  88.9919  56.9931 0001873  88.9725 271.1641 13.50994432 14790
QIANFAN-94              
1 66036U 25233D   26032.08092992  .00000039  00000+0  42514-4 0  9999
2 66036  88.9916  56.8944 0015102 241.0854 118.8782 13.50141608 14855
QIANFAN-95              
1 66037U 25233E   26031.06480225 -.02153043  00000+0 -22594+1 0  9997
2 66037  88.9917  56.5678 0009413 265.6485  94.3607 13.79304507 14942
QIANFAN-96              
1 66038U 25233F   26032.04254409  .00000040  00000+0  42769-4 0  9994
2 66038  88.9910  56.9929 0001746  89.4491 270.6860 13.50992072 14791
QIANFAN-97              
1 66039U 25233G   26032.02609436  .00000057  00000+0  69227-4 0  9993
2 66039  88.9913  56.9741 0001830  89.7686 270.3675 13.50993436 14808
QIANFAN-98              
1 66040U 25233H   26029.44540616 -.02103883  00000+0 -31549+1 0  9998
2 66040  88.9899  56.9844 0016100 241.5227 118.4306 13.57256651 14599
QIANFAN-99              
1 66041U 25233J   26032.03842938  .00000049  00000+0  57246-4 0  9992
2 66041  88.9914  56.9760 0001954 101.6996 258.4375 13.50993310 14803
QIANFAN-100             
1 66042U 25233K   26032.32644291  .00000055  00000+0  65997-4 0  9996
2 66042  88.9925  56.8585 0001855  88.7108 271.4256 13.50994618 14894
QIANFAN-101             
1 66043U 25233L   26032.02465404  .00000271  00000+0  10586-3 0  9994
2 66043  88.9914  56.2239 0013191 223.9442 136.0704 14.26705547 15219
QIANFAN-102             
1 66044U 25233M   26029.54511530 -.02135583  00000+0 -33684+1 0  9990
2 66044  88.9909  57.1465 0009130 260.8246  99.1875 13.54164043 14515
QIANFAN-103             
1 66045U 25233N   26032.05482598  .00000063  00000+0  78869-4 0  9990
2 66045  88.9915  56.9785 0001855  88.8267 271.3097 13.50988182 14808
QIANFAN-104             
1 66046U 25233P   26029.98513979 -.02109389  00000+0 -36286+1 0  9995
2 66046  88.9979  57.0837 0013317 244.9177 115.0591 13.48552455 14585
QIANFAN-105             
1 66047U 25233Q   26030.04093143 -.02127620  00000+0 -31488+1 0  9998
2 66047  88.9954  56.9198 0017443 234.9071 125.0449 13.58123824 14682
QIANFAN-106             
1 66048U 25233R   26032.06312324  .00000055  00000+0  67344-4 0  9990
2 66048  88.9901  56.9543 0002074 102.3344 257.8039 13.50993909 14819
QIANFAN-107             
1 66049U 25233S   26032.29351176  .00000039  00000+0  42266-4 0  9992
2 66049  88.9917  56.9417 0001880  89.5070 270.6297 13.50991173 14846
QIANFAN-108             
1 66050U 25233T   26032.29765944  .00000038  00000+0  40075-4 0  9991
2 66050  88.9910  56.9386 0002092 101.0551 259.0835 13.50993301 14840
