EUTELSAT 174A           
1 28924U 05052A   26197.51823046 -.00000004  00000+0  00000+0 0  9994
2 28924   4.2911  76.1630 0005883  40.3325 178.3577  1.00271534 52624
EUTELSAT 33F            
1 29270U 06032A   26197.56165067  .00000144  00000+0  00000+0 0  9999
2 29270   1.7357  81.9131 0003458  30.0305  57.7028  1.00272575 47604
EUTELSAT HOTBIRD 13C    
1 33459U 08065A   26197.54509727 -.00000295  00000+0  00000+0 0  9992
2 33459   3.0239  78.8423 0003416  38.1321 323.3205  1.00270310 47640
EUTELSAT 36B            
1 36101U 09065A   26197.42253242  .00000101  00000+0  00000+0 0  9990
2 36101   0.5631  81.3399 0005786  34.6116  20.9290  1.00274479 61001
EUTELSAT KA-SAT 9A      
1 37258U 10069A   26197.34297041  .00000051  00000+0  00000+0 0  9990
2 37258   0.0609 359.8585 0004535 144.2999 282.4725  1.00271047 44303
EUTELSAT 7 WEST A       
1 37816U 11051A   26197.41100569 -.00000071  00000+0  00000+0 0  9991
2 37816   0.0614 351.2325 0004641 137.0345 306.6067  1.00271038 54174
EUTELSAT 16A            
1 37836U 11057A   26197.34435707  .00000094  00000+0  00000+0 0  9990
2 37836   0.0411  23.7718 0005770  88.4318 321.9601  1.00274316  7625
EUTELSAT 21B            
1 38992U 12062B   26197.55931066  .00000119  00000+0  00000+0 0  9991
2 38992   0.0679  15.8692 0003234 106.7634  34.6639  1.00270920 50125
EUTELSAT 70B            
1 39020U 12069A   26197.56905692 -.00000054  00000+0  00000+0 0  9997
2 39020   0.0610   3.9702 0003620 110.7794  95.0012  1.00271500 49808
EUTELSAT 117 WEST A     
1 39122U 13012A   26197.60313664 -.00000023  00000+0  00000+0 0  9992
2 39122   0.0473 272.0974 0002708 202.9403 279.7201  1.00270382 48723
EUTELSAT 7B             
1 39163U 13022A   26197.55645065  .00000037  00000+0  00000+0 0  9999
2 39163   0.0690 340.4511 0003279  66.0688  95.1866  1.00269713 48244
EXPRESS-AT1             
1 39612U 14010A   26197.56819025 -.00000021  00000+0  00000+0 0  9990
2 39612   0.3312  85.2714 0004434  56.8876  62.8587  1.00309369 45112
EXPRESS-AT2             
1 39613U 14010B   26197.56615736  .00000000  00000+0  00000+0 0  9990
2 39613   0.0190  48.4129 0000195   1.3012 144.5025  1.00270304 44796
EUTELSAT 3B             
1 39773U 14030A   26197.55567065  .00000009  00000+0  00000+0 0  9998
2 39773   0.0609   4.8792 0004152 110.6971  21.9299  1.00271331 44360
EUTELSAT 115 WEST B     
1 40425U 15010B   26197.53227053 -.00000035  00000+0  00000+0 0  9991
2 40425   0.0029 171.4684 0000362 295.8617 263.7342  1.00271333 41673
EUTELSAT 8 WEST B       
1 40875U 15039B   26197.41091903 -.00000076  00000+0  00000+0 0  9996
2 40875   0.0635 351.1473 0003779 118.6744 324.3560  1.00271879 39955
EUTELSAT 9B             
1 41310U 16005A   26197.55671065  .00000051  00000+0  00000+0 0  9995
2 41310   0.0401  63.9497 0001075  42.2418  37.5833  1.00271224 38412
EUTELSAT 65 WEST A      
1 41382U 16014A   26197.54215058 -.00000287  00000+0  00000+0 0  9991
2 41382   0.0959 295.7451 0002163 179.5334 309.0639  1.00270045 37829
EUTELSAT 117 WEST B     
1 41589U 16038B   26197.53192387 -.00000022  00000+0  00000+0 0  9991
2 41589   0.0084 195.6942 0000276 334.3757 198.7986  1.00272890 36954
EUTELSAT 172B           
1 42741U 17029B   26197.58308424 -.00000017  00000+0  00000+0 0  9993
2 42741   0.0253 123.7637 0000099 176.8840  15.6605  1.00270235 34034
EUTELSAT 7C             
1 44334U 19034B   26197.55636398  .00000037  00000+0  00000+0 0  9993
2 44334   0.0771 180.1097 0003229 280.1236  41.4520  1.00270426  7138
EUTELSAT 5 WEST B       
1 44624U 19067A   26197.34019706 -.00000053  00000+0  00000+0 0  9995
2 44624   0.0826 316.7339 0003059 158.4171 296.4851  1.00272167 24720
EUTELSAT KONNECT        
1 45027U 20005B   26197.55636398  .00000038  00000+0  00000+0 0  9994
2 45027   0.0689  93.4454 0001824 148.8611 259.5644  1.00268662 24637
EUTELSAT QUANTUM        
1 49056U 21069B   26197.56451068  .00000115  00000+0  00000+0 0  9997
2 49056   0.0090   9.9410 0002062  99.3779  75.9763  1.00271984 18224
EUTELSAT KONNECT VHTS   
1 53765U 22110A   26196.88655816  .00000006  00000+0  00000+0 0  9997
2 53765   0.0578  98.9002 0002837   1.1959 155.4770  1.00269204  7124
EUTELSAT HOTBIRD 13F    
1 54048U 22134A   26197.55766399  .00000076  00000+0  00000+0 0  9999
2 54048   0.0579 284.5217 0002013  72.9391 150.6949  1.00270318 13673
EUTELSAT HOTBIRD 13G    
1 54225U 22146A   26197.55766399  .00000000  00000+0  00000+0 0  9996
2 54225   0.0176 229.6976 0001950 309.2857 329.1851  1.00269743  7765
EUTELSAT 10B            
1 54259U 22157A   26197.55705731  .00000057  00000+0  00000+0 0  9990
2 54259   0.0587  95.4045 0001494  13.0841  36.4154  1.00266555 13321
EUTELSAT 36D            
1 59346U 24059A   26197.56217067  .00000000  00000+0  00000+0 0  9994
2 59346   0.0248  67.1953 0000075 227.7935 237.6729  1.00269077  8445
