EUTELSAT 174A           
1 28924U 05052A   26166.50878299  .00000008  00000+0  00000+0 0  9992
2 28924   4.2156  76.5479 0006114   7.4219 176.9394  1.00270806 52312
EUTELSAT 33F            
1 29270U 06032A   26166.47948420  .00000157  00000+0  00000+0 0  9991
2 29270   1.6574  82.2624 0003660   0.1298  27.0764  1.00269417 47292
EUTELSAT HOTBIRD 13C    
1 33459U 08065A   26166.46292501 -.00000282  00000+0  00000+0 0  9994
2 33459   2.9461  79.2107 0003260   4.4182 296.4787  1.00271415 47324
EUTELSAT 36B            
1 36101U 09065A   26166.48295089  .00000114  00000+0  00000+0 0  9991
2 36101   0.4873  81.0869 0005763   1.5610  45.4781  1.00273062 60692
EUTELSAT KA-SAT 9A      
1 37258U 10069A   26166.33207780  .00000065  00000+0  00000+0 0  9991
2 37258   0.0609  10.3812 0003651 120.6180 261.1792  1.00270253 43982
EUTELSAT 7 WEST A       
1 37816U 11051A   26166.40016154 -.00000057  00000+0  00000+0 0  9996
2 37816   0.0631  10.9232 0004014  85.1793 304.3181  1.00271158 53852
EUTELSAT 16A            
1 37836U 11057A   26166.33346448  .00000108  00000+0  00000+0 0  9994
2 37836   0.0455  15.6724 0005974  71.6876 312.3061  1.00273576  7316
EUTELSAT 21B            
1 38992U 12062B   26166.33459116  .00000134  00000+0  00000+0 0  9991
2 38992   0.0668   8.1113 0003077  75.4039 322.1579  1.00274187 49802
EUTELSAT 70B            
1 39020U 12069A   26166.48685090 -.00000041  00000+0  00000+0 0  9997
2 39020   0.0637  12.0509 0003948  64.7597  72.7110  1.00271476 49493
EUTELSAT 117 WEST A     
1 39122U 13012A   26166.44975161 -.00000010  00000+0  00000+0 0  9992
2 39122   0.0130   0.1602 0002624  83.7987 224.8789  1.00270867 48416
EUTELSAT 7B             
1 39163U 13022A   26166.26040124  .00000052  00000+0  00000+0 0  9995
2 39163   0.0165   2.6070 0004624  44.5714 317.1248  1.00272408 47924
EXPRESS-AT1             
1 39612U 14010A   26166.48520424  .00000028  00000+0  00000+0 0  9995
2 39612   0.2523  85.7208 0003730  42.9468  11.9054  1.00302771 44808
EXPRESS-AT2             
1 39613U 14010B   26166.01941406  .00000084  00000+0  00000+0 0  9994
2 39613   0.0164 317.3868 0000715 298.3784  70.5369  1.00268556 44477
EUTELSAT 3B             
1 39773U 14030A   26166.40215487  .00000023  00000+0  00000+0 0  9992
2 39773   0.0640  12.8834 0003877  71.4878 327.1777  1.00270225 44042
EUTELSAT 115 WEST B     
1 40425U 15010B   26165.95115883 -.00000019  00000+0  00000+0 0  9991
2 40425   0.0430 168.0991 0000244 255.4768  67.1796  1.00269789 41378
EUTELSAT 8 WEST B       
1 40875U 15039B   26166.39998821 -.00000063  00000+0  00000+0 0  9990
2 40875   0.0658  11.0149 0003908  69.8839 318.7863  1.00271807 39637
EUTELSAT 9B             
1 41310U 16005A   26166.33207780  .00000065  00000+0  00000+0 0  9991
2 41310   0.0765  74.9832 0001655 328.2462 348.9063  1.00270751 38092
EUTELSAT 65 WEST A      
1 41382U 16014A   26166.24610117 -.00000272  00000+0  00000+0 0  9993
2 41382   0.0571  25.5795 0001986  48.4672 212.8865  1.00269515 37507
EUTELSAT 117 WEST B     
1 41589U 16038B   26166.01642035 -.00000006  00000+0  00000+0 0  9992
2 41589   0.0044 166.0114 0000447 257.2085  88.9985  1.00269365 36648
EUTELSAT 172B           
1 42741U 17029B   26166.50878299 -.00000003  00000+0  00000+0 0  9998
2 42741   0.0101  82.2973 0000281 140.4250  36.2586  1.00270163 33725
EUTELSAT 7C             
1 44334U 19034B   26166.26040124  .00000052  00000+0  00000+0 0  9990
2 44334   0.0734 175.5544 0003062 250.1525 298.5954  1.00272253  6815
EUTELSAT 5 WEST B       
1 44624U 19067A   26166.32930447 -.00000039  00000+0  00000+0 0  9997
2 44624   0.0632   3.1084 0002871  79.2181 294.8621  1.00272088 24416
EUTELSAT KONNECT        
1 45027U 20005B   26166.03030797  .00000055  00000+0  00000+0 0  9993
2 45027   0.0725  97.8075 0001524 122.8326  60.8276  1.00271655 24312
EUTELSAT QUANTUM        
1 49056U 21069B   26166.48234421  .00000129  00000+0  00000+0 0  9991
2 49056   0.0102 350.4911 0001972  92.5419  42.0727  1.00270814 17914
EUTELSAT KONNECT VHTS   
1 53765U 22110A   26166.40215487  .00000019  00000+0  00000+0 0  9992
2 53765   0.0661 101.6408 0002344 325.8550 343.6561  1.00267886  6813
EUTELSAT HOTBIRD 13F    
1 54048U 22134A   26166.33294448  .00000090  00000+0  00000+0 0  9998
2 54048   0.0522 292.5999 0002249  60.0451  43.8479  1.00270689 13350
EUTELSAT HOTBIRD 13G    
1 54225U 22146A   26166.33285781  .00000090  00000+0  00000+0 0  9998
2 54225   0.0509 233.9601 0001689 315.6049 206.8922  1.00269261  7441
EUTELSAT 10B            
1 54259U 22157A   26166.33233781  .00000071  00000+0  00000+0 0  9999
2 54259   0.0643 100.9934 0001287 318.3770 333.8955  1.00264498 13007
EUTELSAT 36D            
1 59346U 24059A   26166.47991756  .00000000  00000+0  00000+0 0  9994
2 59346   0.0235  18.7939 0000134 226.2728 227.3528  1.00267923  8134
