IRIDIUM 106             
1 41917U 17003A   26230.60808360  .00000019  00000+0 -24764-6 0  9996
2 41917  86.3915  62.4411 0002426  84.2302 275.9171 14.34217442502154
IRIDIUM 103             
1 41918U 17003B   26230.87446936  .00000022  00000+0  79307-6 0  9999
2 41918  86.3915  62.2292 0002240  93.4098 266.7354 14.34217246502218
IRIDIUM 109             
1 41919U 17003C   26230.60174158  .00000023  00000+0  10120-5 0  9993
2 41919  86.3916  62.4039 0002189  90.3929 269.7518 14.34217330502143
IRIDIUM 102             
1 41920U 17003D   26230.57002540  .00000020  00000+0  12494-6 0  9990
2 41920  86.3914  62.3395 0002165  87.4638 272.6806 14.34217761502225
IRIDIUM 105             
1 41921U 17003E   26230.87746458  .00000095  00000+0  26941-4 0  9999
2 41921  86.3963  30.6447 0001976  96.4185 263.7236 14.34218348504123
IRIDIUM 104             
1 41922U 17003F   26230.93156755  .00000033  00000+0  47488-5 0  9994
2 41922  86.3916  62.2316 0002064  96.9560 263.1871 14.34218169502262
IRIDIUM 114             
1 41923U 17003G   26230.86812482  .00000029  00000+0  31628-5 0  9997
2 41923  86.3917  62.2412 0002189  92.2134 267.9312 14.34217599502230
IRIDIUM 108             
1 41924U 17003H   26230.47780484 -.00000023  00000+0 -15287-4 0  9999
2 41924  86.3951  30.6985 0001972  91.0267 269.1155 14.34216631504031
IRIDIUM 112             
1 41925U 17003J   26230.85544305  .00000025  00000+0  19466-5 0  9996
2 41925  86.3912  62.0855 0002113  90.4767 269.6671 14.34217672502256
IRIDIUM 111             
1 41926U 17003K   26230.63345278  .00000028  00000+0  30326-5 0  9992
2 41926  86.3914  62.2506 0002201  89.3624 270.7824 14.34217593502201
IRIDIUM 113             
1 42803U 17039A   26230.40411198 -.00000065  00000+0 -30238-4 0  9990
2 42803  86.3967 296.1792 0002137  97.2771 262.8668 14.34216790480108
IRIDIUM 123             
1 42804U 17039B   26230.86420108 -.00000003  00000+0 -79648-5 0  9993
2 42804  86.4011 327.4495 0002271  94.4945 265.6511 14.34217581478934
IRIDIUM 120             
1 42805U 17039C   26230.88614839 -.00000013  00000+0 -11580-4 0  9993
2 42805  86.3956 295.7520 0002241  91.1795 268.9658 14.34217335480165
IRIDIUM 115             
1 42806U 17039D   26230.93231087  .00000200  00000+0  53478-4 0  9998
2 42806  86.4492 295.8704 0002564  94.3645 265.7849 14.43281214483318
IRIDIUM 118             
1 42807U 17039E   26230.96568277  .00000180  00000+0  57241-4 0  9995
2 42807  86.4012 327.4049 0002205  94.7068 265.4380 14.34218885478940
IRIDIUM 117             
1 42808U 17039F   26230.70563614  .00000090  00000+0  24911-4 0  9996
2 42808  86.4013 327.4710 0002286  94.2791 265.8666 14.34218178478939
IRIDIUM 126             
1 42809U 17039G   26230.73100660  .00000032  00000+0  43687-5 0  9996
2 42809  86.4015 327.5123 0002276  97.8738 262.2717 14.34217799478914
IRIDIUM 124             
1 42810U 17039H   26230.58880422  .00000214  00000+0  57723-4 0  9999
2 42810  86.4440 264.2622 0002450  93.6519 266.4962 14.43282281484119
IRIDIUM 128             
1 42811U 17039J   26230.79151299  .00000034  00000+0  49197-5 0  9993
2 42811  86.4007 358.9784 0002204  91.4339 268.7110 14.34217812478955
IRIDIUM 121             
1 42812U 17039K   26230.75003376  .00000020  00000+0  78245-7 0  9995
2 42812  86.4013 327.5325 0002063  93.4180 266.7252 14.34218021478795
IRIDIUM 133             
1 42955U 17061A   26230.40461473  .00000081  00000+0  21734-4 0  9991
2 42955  86.4011 359.2588 0002227  92.8599 267.2852 14.34218100463696
IRIDIUM 100             
1 42956U 17061B   26230.39827159  .00000134  00000+0  40903-4 0  9995
2 42956  86.4010 359.1786 0002193  92.2433 267.9014 14.34218385463690
IRIDIUM 122             
1 42957U 17061C   26230.78517011  .00000133  00000+0  40550-4 0  9999
2 42957  86.4012 359.0177 0002238  94.9633 265.1818 14.34218407463751
IRIDIUM 129             
1 42958U 17061D   26230.39192939  .00000132  00000+0  40050-4 0  9999
2 42958  86.4011 359.2494 0002032  97.4737 262.6690 14.34218287463712
IRIDIUM 119             
1 42959U 17061E   26230.42998519  .00000146  00000+0  45110-4 0  9999
2 42959  86.4011 359.2297 0002234  96.4781 263.6669 14.34218471463730
IRIDIUM 107             
1 42960U 17061F   26230.79785517  .00000638  00000+0  22059-3 0  9995
2 42960  86.4012 359.0975 0002443  94.4111 265.7364 14.34219913463794
IRIDIUM 132             
1 42961U 17061G   26230.73442957  .00000111  00000+0  32665-4 0  9999
2 42961  86.4012 359.1030 0002227  93.5859 266.5591 14.34218056463784
IRIDIUM 136             
1 42962U 17061H   26230.76614181  .00000150  00000+0  46453-4 0  9996
2 42962  86.4014 359.0969 0002176  92.2422 267.9023 14.34218598463801
IRIDIUM 139             
1 42963U 17061J   26230.77248523  .00000009  00000+0 -40200-5 0  9990
2 42963  86.4014 359.1570 0002226  92.4255 267.7196 14.34217599463813
IRIDIUM 125             
1 42964U 17061K   26230.75979986  .00000162  00000+0  50833-4 0  9994
2 42964  86.4015 359.2245 0002524 104.0091 256.1386 14.34218801463825
IRIDIUM 135             
1 43070U 17083A   26230.73392551  .00000191  00000+0  60995-4 0  9994
2 43070  86.3961 295.8744 0002257  95.2858 264.8595 14.34218306453116
IRIDIUM 138             
1 43071U 17083B   26230.68952770  .00000002  00000+0 -63014-5 0  9992
2 43071  86.3974 295.5976 0002161  98.5225 261.6216 14.34217454453098
IRIDIUM 116             
1 43072U 17083C   26230.72758344  .00000065  00000+0  16102-4 0  9992
2 43072  86.3959 295.8622 0002365  87.8799 272.2668 14.34217845453134
IRIDIUM 130             
1 43073U 17083D   26230.69587091 -.00000023  00000+0 -15191-4 0  9991
2 43073  86.3970 296.1568 0002380  91.4909 268.6559 14.34217323453074
IRIDIUM 151             
1 43074U 17083E   26230.67050008 -.00000012  00000+0 -11497-4 0  9996
2 43074  86.3962 295.9450 0002176  93.1104 267.0341 14.34217408453090
IRIDIUM 134             
1 43075U 17083F   26230.70855550  .00000007  00000+0 -46525-5 0  9990
2 43075  86.3964 295.9380 0002230  94.2300 265.9151 14.34217524453068
IRIDIUM 137             
1 43076U 17083G   26230.93054613 -.00000035  00000+0 -19498-4 0  9997
2 43076  86.3965 295.9393 0002009  84.4917 275.6508 14.34217229453160
IRIDIUM 141             
1 43077U 17083H   26230.71489815  .00000239  00000+0  78400-4 0  9992
2 43077  86.3960 295.8567 0002240  95.5251 264.6200 14.34217793453139
IRIDIUM 153             
1 43078U 17083J   26230.59730802  .00000032  00000+0  42385-5 0  9999
2 43078  86.3918 264.3734 0002340  96.0917 264.0546 14.34217741454227
IRIDIUM 131             
1 43079U 17083K   26230.70221303  .00000012  00000+0 -28251-5 0  9999
2 43079  86.3966 296.0520 0002142  95.2109 264.9331 14.34217487453069
IRIDIUM 144             
1 43249U 18030A   26230.60365102 -.00000068  00000+0 -31492-4 0  9998
2 43249  86.3919 264.2980 0002254  89.2740 270.8715 14.34217187439086
IRIDIUM 149             
1 43250U 18030B   26230.60999334 -.00000044  00000+0 -22920-4 0  9990
2 43250  86.3917 264.2617 0002189  93.8958 266.2488 14.34217229439108
IRIDIUM 157             
1 43251U 18030C   26230.62902116  .00000050  00000+0  10772-4 0  9992
2 43251  86.3917 264.3086 0002298  92.3442 267.8017 14.34217907439088
IRIDIUM 140             
1 43252U 18030D   26230.64804912 -.00000007  00000+0 -94943-5 0  9997
2 43252  86.3919 264.3129 0002242  92.8270 267.3182 14.34217394439147
IRIDIUM 145             
1 43253U 18030E   26230.63536449  .00000004  00000+0 -55646-5 0  9997
2 43253  86.3919 264.2903 0002350  86.1063 274.0402 14.34217360439078
IRIDIUM 146             
1 43254U 18030F   26230.61633584 -.00000018  00000+0 -13582-4 0  9992
2 43254  86.3919 264.3102 0002256  90.2175 269.9279 14.34217422439081
IRIDIUM 148             
1 43255U 18030G   26230.65439126 -.00000059  00000+0 -28029-4 0  9990
2 43255  86.3920 264.3385 0002100  91.3155 268.8281 14.34217277439129
IRIDIUM 142             
1 43256U 18030H   26230.62267902 -.00000002  00000+0 -78787-5 0  9994
2 43256  86.3916 264.2383 0002245  88.0309 272.1144 14.34217415439081
IRIDIUM 150             
1 43257U 18030J   26230.59096594 -.00000043  00000+0 -22490-4 0  9992
2 43257  86.3919 264.3700 0002263  91.7068 268.4387 14.34217111439105
IRIDIUM 143             
1 43258U 18030K   26230.85103160  .00000153  00000+0  47600-4 0  9990
2 43258  86.3920 264.3565 0002395  90.6186 269.5284 14.34218955439073
IRIDIUM 161             
1 43478U 18047C   26230.63608013  .00000038  00000+0  54320-5 0  9995
2 43478  86.4436  62.3402 0002049  91.2738 268.8697 14.43279819434141
IRIDIUM 152             
1 43479U 18047D   26230.61442418  .00000023  00000+0  12057-5 0  9994
2 43479  86.3910  62.2110 0002143  90.3787 269.7654 14.34217730431438
IRIDIUM 147             
1 43480U 18047E   26230.62076765  .00000022  00000+0  81663-6 0  9994
2 43480  86.3912  62.2147 0002204  85.9142 274.2306 14.34217659431430
IRIDIUM 110             
1 43481U 18047F   26230.90618546  .00000028  00000+0  30941-5 0  9993
2 43481  86.3914  62.1887 0001955  94.5992 265.5427 14.34217166431467
IRIDIUM 162             
1 43482U 18047G   26230.62977598  .00000042  00000+0  64659-5 0  9997
2 43482  86.4435  62.2332 0002270  88.7803 271.3658 14.43281005434131
IRIDIUM 160             
1 43569U 18061A   26230.85201893  .00000151  00000+0  46745-4 0  9998
2 43569  86.3961  30.5808 0002116  90.7390 269.4048 14.34218884422356
IRIDIUM 166             
1 43570U 18061B   26230.52854704  .00000075  00000+0  19828-4 0  9996
2 43570  86.3958  30.6658 0002209  88.9329 271.2120 14.34218335422333
IRIDIUM 158             
1 43571U 18061C   26230.84567682  .00000121  00000+0  36235-4 0  9991
2 43571  86.3960  30.5432 0002190  92.5375 267.6071 14.34218414422340
IRIDIUM 165             
1 43572U 18061D   26230.52220743  .00000161  00000+0  50305-4 0  9999
2 43572  86.3961  30.7261 0002209  88.5230 271.6219 14.34218305422326
IRIDIUM 155             
1 43573U 18061E   26230.90276003  .00000156  00000+0  48763-4 0  9991
2 43573  86.3957  30.4327 0002248  91.6891 268.4563 14.34218746422340
IRIDIUM 154             
1 43574U 18061F   26230.53489083  .00000163  00000+0  51301-4 0  9995
2 43574  86.3961  30.7234 0002179  87.9356 272.2090 14.34218482422348
IRIDIUM 163             
1 43575U 18061G   26230.51586115  .00000164  00000+0  51402-4 0  9991
2 43575  86.3957  30.6446 0002128  92.5409 267.6031 14.34219097422316
IRIDIUM 156             
1 43576U 18061H   26230.49049741  .00000159  00000+0  49745-4 0  9999
2 43576  86.3958  30.6626 0002339  91.6286 268.5178 14.34217754422304
IRIDIUM 164             
1 43577U 18061J   26230.89007492 -.00000006  00000+0 -91971-5 0  9993
2 43577  86.3956  30.5371 0002072  88.1067 272.0366 14.34217626422409
IRIDIUM 159             
1 43578U 18061K   26230.50952203  .00000161  00000+0  50341-4 0  9996
2 43578  86.3957  30.6314 0002123  92.8231 267.3208 14.34218345422312
IRIDIUM 180             
1 43922U 19002A   26230.71833547  .00000231  00000+0  75402-4 0  9990
2 43922  86.4013 327.4704 0002161  95.3035 264.8407 14.34213543397950
IRIDIUM 176             
1 43923U 19002B   26230.75724276  .00000587  00000+0  89182-4 0  9997
2 43923  86.6134 327.3889 0002397  93.4631 266.6860 14.72252430408453
IRIDIUM 168             
1 43924U 19002C   26230.78174717 -.00000062  00000+0 -29277-4 0  9999
2 43924  86.4014 327.5230 0002094  95.4202 264.7233 14.34217236397948
IRIDIUM 173             
1 43925U 19002D   26230.69929378 -.00000036  00000+0 -19978-4 0  9999
2 43925  86.4010 327.4437 0002148  95.9655 264.1785 14.34217244397912
IRIDIUM 169             
1 43926U 19002E   26230.78290044  .00000226  00000+0  67307-4 0  9999
2 43926  86.4268 359.0253 0002708  97.0081 263.1425 14.38609618399223
IRIDIUM 172             
1 43927U 19002F   26230.83248790 -.00000042  00000+0 -22127-4 0  9996
2 43927  86.4010 327.3962 0002074  96.0216 264.1216 14.34217232397948
IRIDIUM 175             
1 43928U 19002G   26230.58926308  .00000194  00000+0  51391-4 0  9998
2 43928  86.4471 264.4315 0004454  47.5633 312.5944 14.43640138407988
IRIDIUM 171             
1 43929U 19002H   26230.74369064  .00000168  00000+0  52877-4 0  9998
2 43929  86.4023 327.7466 0002330  93.6052 266.5410 14.34216619397921
IRIDIUM 170             
1 43930U 19002J   26230.76342911  .00000592  00000+0  90002-4 0  9997
2 43930  86.6132 327.3882 0002315  96.3024 263.8457 14.72253238408469
IRIDIUM 167             
1 43931U 19002K   26230.73734959  .00000182  00000+0  58077-4 0  9993
2 43931  86.4012 327.4587 0002471  90.6189 269.5290 14.34218705397924
IRIDIUM 181             
1 56726U 23068S   26230.84955370 -.00000306  00000+0 -96939-4 0  9999
2 56726  86.4491  30.5819 0001849  83.6250 276.5161 14.43307773171479
IRIDIUM 177             
1 56727U 23068T   26230.92876740  .00000686  00000+0  87194-4 0  9994
2 56727  86.1965 299.0113 0002495  95.5864 264.5641 14.80042853175642
IRIDIUM 174             
1 56728U 23068U   26230.75106787  .00000618  00000+0  94065-4 0  9993
2 56728  86.6141 327.5470 0002509 102.4904 257.6594 14.72257807175228
IRIDIUM 178             
1 56729U 23068V   26230.78266959  .00000765  00000+0  97697-4 0  9992
2 56729  86.6581 359.2087 0002484  94.0347 266.1158 14.80045794175626
IRIDIUM 179             
1 56730U 23068W   26230.43923674  .00000809  00000+0  10343-3 0  9991
2 56730  86.6809   8.5117 0002559  91.8636 268.2878 14.80050827175577
