EUTELSAT 174A           
1 28924U 05052A   26220.20650292  .00000002  00000+0  00000+0 0  9995
2 28924   4.3447  75.8651 0005919  62.9389  66.2080  1.00270699 52858
EUTELSAT 33F            
1 29270U 06032A   26220.23033252  .00000151  00000+0  00000+0 0  9998
2 29270   1.7907  81.6189 0003492  56.2728 294.8431  1.00269878 47820
EUTELSAT HOTBIRD 13C    
1 33459U 08065A   26220.20391728 -.00000288  00000+0  00000+0 0  9994
2 33459   3.0786  78.5500 0003301  67.9234 193.3426  1.00272901 47868
EUTELSAT 36B            
1 36101U 09065A   26220.23371253  .00000109  00000+0  00000+0 0  9997
2 36101   0.6167  81.3452 0005788  58.5885 311.4297  1.00272529 61230
EUTELSAT KA-SAT 9A      
1 37258U 10069A   26220.08302394  .00000059  00000+0  00000+0 0  9994
2 37258   0.0709 340.7477 0005102 173.6569 201.0768  1.00270458 44526
EUTELSAT 7 WEST A       
1 37816U 11051A   26220.22235914 -.00000063  00000+0  00000+0 0  9991
2 37816   0.0686 333.1340 0005197 177.2501 239.0941  1.00270441 54397
EUTELSAT 16A            
1 37836U 11057A   26220.22695250  .00000101  00000+0  00000+0 0  9994
2 37836   0.0521  44.8520 0005676  91.8880 277.6778  1.00272390  7856
EUTELSAT 21B            
1 38992U 12062B   26220.22807918  .00000127  00000+0  00000+0 0  9999
2 38992   0.0675 356.8610 0003060 141.8713 281.6923  1.00273187 50346
EUTELSAT 70B            
1 39020U 12069A   26220.11572422 -.00000045  00000+0  00000+0 0  9996
2 39020   0.0643 345.9391 0003395 150.9437 291.8851  1.00269363 50034
EUTELSAT 117 WEST A     
1 39122U 13012A   26220.24280838 -.00000015  00000+0  00000+0 0  9996
2 39122   0.0481 276.0650 0002608 228.7771 142.5128  1.00270531 48956
EUTELSAT 7B             
1 39163U 13022A   26220.05739186  .00000046  00000+0  00000+0 0  9999
2 39163   0.0678 351.9446 0002188  61.3730 290.9031  1.00272163 48464
EXPRESS-AT1             
1 39612U 14010A   26220.09489733 -.00000043  00000+0  00000+0 0  9998
2 39612   0.3847  85.1937 0004834  66.2127 268.6878  1.00312741 45330
EXPRESS-AT2             
1 39613U 14010B   26220.12127936  .00000076  00000+0  00000+0 0  9992
2 39613   0.0051  49.9232 0000407 264.0033 102.3613  1.00272654 45011
EUTELSAT 3B             
1 39773U 14030A   26220.22435249  .00000017  00000+0  00000+0 0  9996
2 39773   0.0649 346.2570 0003819 153.8212 260.5133  1.00270154 44581
EUTELSAT 115 WEST B     
1 40425U 15010B   26219.83058535 -.00000026  00000+0  00000+0 0  9996
2 40425   0.0145 214.2023 0000287 231.4906  54.7542  1.00272706 41909
EUTELSAT 8 WEST B       
1 40875U 15039B   26220.22218581 -.00000068  00000+0  00000+0 0  9996
2 40875   0.0650   2.9248 0003689 128.3157 257.4727  1.00271882 40170
EUTELSAT 9B             
1 41310U 16005A   26220.08302394  .00000059  00000+0  00000+0 0  9994
2 41310   0.0209  54.0636 0001608 111.9479 189.4639  1.00269658 38630
EUTELSAT 65 WEST A      
1 41382U 16014A   26220.21083243 -.00000279  00000+0  00000+0 0  9992
2 41382   0.0588 324.5243 0002196 175.4126 187.4895  1.00270138 38047
EUTELSAT 117 WEST B     
1 41589U 16038B   26220.24280838 -.00000014  00000+0  00000+0 0  9996
2 41589   0.0043 182.8150 0000442 286.2270 178.1227  1.00271336 37188
EUTELSAT 172B           
1 42741U 17029B   26219.90137769 -.00000007  00000+0  00000+0 0  9995
2 42741   0.0252 125.1722 0000212 190.0031 137.7416  1.00271452 34253
EUTELSAT 7C             
1 44334U 19034B   26220.01132015  .00000047  00000+0  00000+0 0  9999
2 44334   0.0774 181.3989 0003321 305.4170 200.7798  1.00273369  7355
EUTELSAT 5 WEST B       
1 44624U 19067A   26220.22279249 -.00000045  00000+0  00000+0 0  9990
2 44624   0.0820 314.2243 0003072 188.8092 248.8969  1.00271989 24941
EUTELSAT KONNECT        
1 45027U 20005B   26220.01132015  .00000050  00000+0  00000+0 0  9993
2 45027   0.0635  99.2850 0001589  86.7340 141.7970  1.00285316 24852
EUTELSAT QUANTUM        
1 49056U 21069B   26220.16196618  .00000124  00000+0  00000+0 0  9997
2 49056   0.0358 279.3139 0002167 224.9796 278.3690  1.00269882 18449
EUTELSAT KONNECT VHTS   
1 53765U 22110A   26220.22426582  .00000014  00000+0  00000+0 0  9998
2 53765   0.0555 100.6059 0002746  12.8002 286.7476  1.00268758  7358
EUTELSAT HOTBIRD 13F    
1 54048U 22134A   26219.94118431  .00000086  00000+0  00000+0 0  9996
2 54048   0.0581 276.7516 0001733  75.7771 315.7486  1.00270557 13891
EUTELSAT HOTBIRD 13G    
1 54225U 22146A   26219.72732662  .00000087  00000+0  00000+0 0  9991
2 54225   0.0504 239.8369 0002138 306.0417  45.1897  1.00271211  7987
EUTELSAT 10B            
1 54259U 22157A   26220.08319727  .00000067  00000+0  00000+0 0  9992
2 54259   0.0553  97.9797 0001187  11.4638 247.1345  1.00272624 13541
EUTELSAT 36D            
1 59346U 24059A   26220.08831062  .00000154  00000+0  00000+0 0  9995
2 59346   0.0161 100.7149 0000299 149.7696 133.7729  1.00271103  8668
