KUIPER-00008            
1 63724U 25088A   26150.24467875  .00005521  00000+0  75212-3 0  9994
2 63724  51.8999  87.3719 0000922  94.5203 265.5865 14.79961650 60120
KUIPER-00009            
1 63725U 25088B   26150.25930904  .00003806  00000+0  52733-3 0  9991
2 63725  51.9015 104.9260 0000518  44.8548 315.2456 14.79987896 59878
KUIPER-00010            
1 63726U 25088C   26150.21617865  .00001298  00000+0  19923-3 0  9993
2 63726  51.9023  82.5922 0000801  92.1463 267.9591 14.79938047 59801
KUIPER-00011            
1 63727U 25088D   26150.03926959  .00002331  00000+0  33456-3 0  9997
2 63727  51.9009  90.9311 0000796  72.3038 287.8011 14.79939123 59806
KUIPER-00012            
1 63728U 25088E   26150.22427133  .00001089  00000+0  17190-3 0  9995
2 63728  51.9025  75.0415 0000665 116.2311 243.8720 14.79929723 59995
KUIPER-00013            
1 63729U 25088F   26150.29051079  .00001724  00000+0  25502-3 0  9997
2 63729  51.9017 107.2671 0001038  25.6009 334.5005 14.79935514 59653
KUIPER-00014            
1 63730U 25088G   26150.25673484  .00002176  00000+0  31436-3 0  9990
2 63730  51.9023 107.3583 0000445  64.4347 295.6661 14.79932641 59464
KUIPER-00015            
1 63731U 25088H   26150.34725633 -.00003016  00000+0 -36658-3 0  9992
2 63731  51.8985 117.0337 0000740  48.6947 311.4079 14.79951197 59797
KUIPER-00016            
1 63732U 25088J   26150.05143793  .00002209  00000+0  31883-3 0  9998
2 63732  51.9011 110.7894 0000807  79.9967 280.1086 14.79920297 59393
KUIPER-00018            
1 63733U 25088K   26150.23105926  .00002286  00000+0  32876-3 0  9993
2 63733  51.9033 100.0127 0000666 101.8197 258.2840 14.79929237 59568
KUIPER-00019            
1 63734U 25088L   26150.25774378  .00000764  00000+0  12919-3 0  9994
2 63734  51.8988  98.6624 0000434 143.3201 216.7791 14.79929696 59586
KUIPER-00020            
1 63735U 25088M   26150.22837190  .00000189  00000+0  53772-4 0  9998
2 63735  51.9016 102.5348 0001237  29.4657 330.6375 14.79937002 59730
KUIPER-00021            
1 63736U 25088N   26150.26214051  .00000390  00000+0  80250-4 0  9993
2 63736  51.9008 102.3467 0001528  77.0940 283.0193 14.79929809 59576
KUIPER-00023            
1 63737U 25088P   26150.09065877  .00004217  00000+0  58147-3 0  9996
2 63737  51.8999 105.5917 0000862  72.4496 287.6561 14.79960470 59810
KUIPER-00024            
1 63738U 25088Q   26150.23916664  .00000829  00000+0  13777-3 0  9997
2 63738  51.9019  92.5227 0000849  87.0511 273.0549 14.79934266 60135
KUIPER-00025            
1 63739U 25088R   26150.26483441  .00002021  00000+0  29397-3 0  9994
2 63739  51.9037  99.8908 0000798  69.1988 290.9059 14.79936962 59894
KUIPER-00027            
1 63740U 25088S   26150.03383475 -.00001944  00000+0 -22613-3 0  9996
2 63740  51.9010  95.8857 0000747  94.4654 265.6394 14.79912325 59664
KUIPER-00028            
1 63741U 25088T   26150.13785858 -.00001219  00000+0 -13093-3 0  9996
2 63741  51.9001  92.8853 0000682  90.6285 269.4755 14.79927973 60125
KUIPER-00029            
1 63742U 25088U   26150.50002315  .00003579  00000+0  50739-3 0  9995
2 63742  51.9010  89.9556 0001992  68.2595 193.3739 14.79153881  4824
KUIPER-00030            
1 63743U 25088V   26150.28780192  .00000659  00000+0  11554-3 0  9995
2 63743  51.9021 109.7262 0000808  86.2802 273.8253 14.79919465 59719
KUIPER-00031            
1 63744U 25088W   26150.21821263  .00002047  00000+0  32272-3 0  9997
2 63744  51.9012  93.8297 0002029  61.7188 298.3977 14.76350131 59646
KUIPER-00032            
1 63745U 25088X   26150.51065090  .00018207  00000+0  46314-3 0  9996
2 63745  51.8675 347.8213 0004816  64.0430 296.1053 15.39647656 62144
KUIPER-00033            
1 63746U 25088Y   26150.37293044  .00004356  00000+0  59989-3 0  9995
2 63746  51.8997 124.3750 0000614  69.9805 290.1223 14.79941825 59718
KUIPER-00034            
1 63747U 25088Z   26150.21079359  .00000482  00000+0  92175-4 0  9991
2 63747  51.9011  87.6188 0000705  98.5934 261.5108 14.79932165 59895
KUIPER-00035            
1 63748U 25088AA  26150.11629766  .00000427  00000+0  85079-4 0  9998
2 63748  51.8999 113.0205 0000891  40.4977 319.6052 14.79928610 59582
KUIPER-00037            
1 63749U 25088AB  26150.50002315 -.00025827  00000+0 -33642-2 0  9997
2 63749  51.8988 110.1774 0000681  77.4615 206.2530 14.80028100  1740
KUIPER-00038            
1 63750U 25088AC  26150.30129465  .00003726  00000+0  51745-3 0  9990
2 63750  51.9014  97.2176 0000825  78.0023 282.1031 14.79937641 59608
KUIPER-00039            
1 64500U 25134A   26150.40891632  .00005162  00000+0  70538-3 0  9996
2 64500  51.9014 231.7417 0000363  89.2549 270.8455 14.79942700 52170
KUIPER-00040            
1 64501U 25134B   26150.43191220  .00001384  00000+0  21053-3 0  9996
2 64501  51.8983 241.7315 0000706 162.3286 197.7701 14.79932159 52038
KUIPER-00041            
1 64502U 25134C   26149.65261070  .00002053  00000+0  29818-3 0  9991
2 64502  51.8983 247.5604 0000779 123.5108 236.5929 14.79933231 51884
KUIPER-00042            
1 64503U 25134D   26150.43459363  .00001238  00000+0  19143-3 0  9998
2 64503  51.8985 239.0824 0000414  84.4315 275.6695 14.79930578 52075
KUIPER-00043            
1 64504U 25134E   26150.44267808  .00001089  00000+0  17185-3 0  9999
2 64504  51.9014 231.5315 0000252  74.4726 285.6264 14.79933446 52189
KUIPER-00044            
1 64505U 25134F   26150.42919750  .00003469  00000+0  48376-3 0  9998
2 64505  51.8994 244.1060 0000580  99.8783 260.2245 14.79938398 52001
KUIPER-00046            
1 64506U 25134G   26149.52024373  .00001336  00000+0  20423-3 0  9990
2 64506  51.8986 245.6068 0000455  95.7273 264.3741 14.79930505 51903
KUIPER-00047            
1 64507U 25134H   26150.39401213  .00004100  00000+0  56630-3 0  9991
2 64507  51.8983 214.2620 0000355  63.6265 296.4734 14.79950029 52419
KUIPER-00048            
1 64508U 25134J   26150.49532609  .00002574  00000+0  36651-3 0  9991
2 64508  51.8980 213.8293 0000338 111.3482 248.7516 14.79934598 52434
KUIPER-00049            
1 64509U 25134K   26150.44806687  .00003130  00000+0  43934-3 0  9998
2 64509  51.8988 226.4989 0000388  57.4731 302.6269 14.79939938 52255
KUIPER-00050            
1 64510U 25134L   26150.53447782  .00000604  00000+0  10816-3 0  9993
2 64510  51.8983 208.6363 0000360  72.4710 287.6292 14.79933204 52511
KUIPER-00051            
1 64511U 25134M   26150.50002315 -.00010247  00000+0 -13202-2 0  9997
2 64511  51.9002 224.9601 0001215  43.6445   1.4299 14.79838464  5021
KUIPER-00053            
1 64513U 25134P   26150.43105302  .00002496  00000+0  34231-3 0  9992
2 64513  51.8999 221.0639 0001692 132.6900 227.4206 14.81671730 52327
KUIPER-00054            
1 64514U 25134Q   26150.42515399  .00004124  00000+0  56965-3 0  9991
2 64514  51.8979 216.6208 0000311  31.0960 329.0020 14.79928603 52383
KUIPER-00055            
1 64515U 25134R   26150.44276752  .00002893  00000+0  40856-3 0  9994
2 64515  51.8995 169.1631 0001473  79.4992 280.6137 14.79909704 53052
KUIPER-00056            
1 64516U 25134S   26150.38594829  .00002533  00000+0  36112-3 0  9997
2 64516  51.9017 221.8724 0000376 100.9601 259.1404 14.79934812 52310
KUIPER-00057            
1 64517U 25134T   26150.44538150  .00001464  00000+0  22097-3 0  9999
2 64517  51.8972 229.0508 0000563  74.0399 286.0626 14.79929650 52211
KUIPER-00058            
1 64518U 25134U   26150.41700038  .00002743  00000+0  38865-3 0  9994
2 64518  51.9003 224.1429 0000386  77.0402 283.0603 14.79940634 52281
KUIPER-00059            
1 64519U 25134V   26150.42239725  .00002715  00000+0  38501-3 0  9992
2 64519  51.8993 219.1634 0000613  97.8184 262.2848 14.79930806 52359
KUIPER-00060            
1 64520U 25134W   26150.38864259  .00004489  00000+0  61738-3 0  9993
2 64520  51.9017 219.3647 0000475  90.3624 269.7392 14.79936602 52332
KUIPER-00061            
1 64521U 25134X   26150.41401101  .00004712  00000+0  64696-3 0  9996
2 64521  51.9005 226.7102 0000141   7.8343 352.2621 14.79910457 52231
KUIPER-00062            
1 64522U 25134Y   26150.41161794  .00001349  00000+0  20592-3 0  9998
2 64522  51.8964 229.2191 0000422  93.2258 266.8753 14.79932177 52214
KUIPER-00063            
1 64523U 25134Z   26150.40352269  .00001132  00000+0  17754-3 0  9993
2 64523  51.8994 236.7805 0000565  96.0029 264.0997 14.79929796 52109
KUIPER-00064            
1 64524U 25134AA  26150.40621750  .00001879  00000+0  27542-3 0  9992
2 64524  51.9033 234.1930 0000506  81.2987 278.8033 14.79935947 52143
KUIPER-00065            
1 64525U 25134AB  26150.40083912  .00003357  00000+0  46897-3 0  9992
2 64525  51.9040 239.3837 0000555  79.5758 280.5267 14.79943600 52059
KUIPER-00066            
1 64526U 25134AC  26150.50199660  .00002774  00000+0  39272-3 0  9993
2 64526  51.9004 176.2212 0000447  12.2294 347.8679 14.79932730 52961
KUIPER-00069            
1 64816U 25151A   26149.74992168  .00004719  00000+0  64749-3 0  9990
2 64816  51.9025 282.1873 0000514  95.6252 264.4769 14.79940246 48768
KUIPER-00070            
1 64817U 25151B   26150.43164605  .00005967  00000+0  80910-3 0  9990
2 64817  51.8999 304.0894 0000564 137.8951 222.2054 14.80036193 48527
KUIPER-00071            
1 64818U 25151C   26149.82694080  .00003173  00000+0  44496-3 0  9993
2 64818  51.9007 304.3002 0000743 110.0128 250.0915 14.79943274 47283
KUIPER-00072            
1 64819U 25151D   26150.35498308  .00003613  00000+0  50276-3 0  9991
2 64819  51.8978 281.9241 0000563 107.6657 252.4367 14.79930177 47649
KUIPER-00073            
1 64820U 25151E   26149.72565889 -.00006040  00000+0 -76438-3 0  9998
2 64820  51.9013 304.7360 0000604 132.2849 227.8165 14.79910951 48451
KUIPER-00074            
1 64821U 25151F   26150.50002315  .00050443  00000+0  24058-3 0  9992
2 64821  51.8900 236.8299 0008532 324.9950  82.5175 15.82272477  1425
KUIPER-00075            
1 64822U 25151G   26150.39176705  .00041899  00000+0  90570-3 0  9992
2 64822  51.8659 183.3980 0003134 214.2885 145.7903 15.44078816 49018
KUIPER-00076            
1 64823U 25151H   26150.41173206  .00002376  00000+0  34050-3 0  9997
2 64823  51.9011 291.7165 0001013 135.0510 225.0534 14.79937507 47513
KUIPER-00077            
1 64824U 25151J   26149.79857763  .00003425  00000+0  47805-3 0  9992
2 64824  51.9023 299.4436 0001141 132.4590 227.6469 14.79928369 47357
KUIPER-00078            
1 64825U 25151K   26150.37527237  .00002561  00000+0  36475-3 0  9990
2 64825  51.8994 294.3766 0000647 106.0848 254.0186 14.79933315 47477
KUIPER-00079            
1 64826U 25151L   26150.40364058  .00002354  00000+0  33763-3 0  9992
2 64826  51.8989 299.2148 0000771 120.3719 239.7320 14.79933168 48606
KUIPER-00080            
1 64827U 25151M   26150.43738684 -.00002826  00000+0 -34170-3 0  9995
2 64827  51.9006 299.0777 0001702 126.8898 233.2220 14.79947333 47413
KUIPER-00082            
1 64828U 25151N   26150.41709948  .00003940  00000+0  54562-3 0  9998
2 64828  51.9018 286.7122 0000707 117.7924 242.3110 14.79925331 47588
KUIPER-00083            
1 64829U 25151P   26149.80126300  .00005991  00000+0  81396-3 0  9998
2 64829  51.9012 296.9215 0000496 118.3758 241.7254 14.79940570 48570
KUIPER-00084            
1 64830U 25151Q   26150.39824806  .00002610  00000+0  37121-3 0  9994
2 64830  51.9001 304.2660 0000614  95.0448 265.0584 14.79936606 47339
KUIPER-00085            
1 64831U 25151R   26150.38336721  .00002511  00000+0  35816-3 0  9997
2 64831  51.9027 286.9011 0000611 100.2876 259.8155 14.79938330 47572
KUIPER-00086            
1 64832U 25151S   26150.44010700  .00001904  00000+0  27872-3 0  9999
2 64832  51.8992 296.6051 0000507 109.7668 250.3349 14.79934735 47444
KUIPER-00087            
1 64833U 25151T   26150.32391988  .00003545  00000+0  49376-3 0  9993
2 64833  51.9007 279.5927 0000631  61.7836 298.3190 14.79937458 47662
KUIPER-00089            
1 64834U 25151U   26150.38605872  .00003205  00000+0  44920-3 0  9993
2 64834  51.9015 284.3316 0000665  64.6975 295.4056 14.79937954 47616
KUIPER-00090            
1 64835U 25151V   26149.65131910  .00003886  00000+0  53831-3 0  9995
2 64835  51.8983 280.0951 0000463 116.5253 243.5757 14.79942940 47602
KUIPER-00091            
1 64836U 25151W   26149.78095092  .00001290  00000+0  19826-3 0  9993
2 64836  51.9023 284.5195 0000755  53.2640 306.8391 14.79921469 47553
KUIPER-00092            
1 64837U 25151X   26149.77289895  .00000345  00000+0  74268-4 0  9991
2 64837  51.8979 292.0506 0000622 109.3284 250.7746 14.79931011 48661
KUIPER-00093            
1 64838U 25151Y   26150.37794883  .00003417  00000+0  47705-3 0  9996
2 64838  51.8985 291.8497 0000602 100.6088 259.4942 14.79925561 47508
KUIPER-00094            
1 64839U 25151Z   26150.50002315 -.00029630  00000+0 -31426-2 0  9993
2 64839  51.8976 246.6922 0003574 217.4839  29.9824 14.88529904  5382
KUIPER-00081            
1 65132U 25171A   26150.36554331  .00002079  00000+0  30165-3 0  9992
2 65132  51.8982 146.9008 0000423  64.5972 295.5034 14.79931874 45136
KUIPER-00088            
1 65133U 25171B   26150.48172617  .00002742  00000+0  38854-3 0  9999
2 65133  51.8973 163.8938 0000442  31.6372 328.4617 14.79937939 44902
KUIPER-00095            
1 65134U 25171C   26150.36820306  .00003441  00000+0  47981-3 0  9990
2 65134  51.8955 144.4486 0000416  58.8142 301.2861 14.79956791 45169
KUIPER-00096            
1 65135U 25171D   26150.45605676  .00002845  00000+0  40201-3 0  9997
2 65135  51.8974 156.5051 0000462  63.0240 297.0769 14.79932486 45008
KUIPER-00097            
1 65136U 25171E   26150.31830110  .00002946  00000+0  41516-3 0  9998
2 65136  51.8992 159.7600 0000363  50.8158 309.2836 14.79941467 44937
KUIPER-00098            
1 65137U 25171F   26150.24806302  .00002908  00000+0  41016-3 0  9990
2 65137  51.8979 162.4397 0000478  42.2382 317.8617 14.79941576 44245
KUIPER-00099            
1 65138U 25171G   26150.22509837 -.00000330  00000+0 -14221-4 0  9990
2 65138  51.9005 152.5419 0000757  49.1527 310.9501 14.79938577 45030
KUIPER-00100            
1 65139U 25171H   26150.39660510  .00003095  00000+0  43478-3 0  9999
2 65139  51.8990 149.2543 0000428  65.5517 294.5490 14.79940820 45094
KUIPER-00102            
1 65140U 25171J   26150.39390286  .00002799  00000+0  39594-3 0  9995
2 65140  51.8960 151.7675 0000435  77.4730 282.6281 14.79934672 45054
KUIPER-00103            
1 65141U 25171K   26150.47633484  .00002664  00000+0  37829-3 0  9995
2 65141  51.8971 168.8997 0000397  68.0549 292.0456 14.79932732 44822
KUIPER-00104            
1 65142U 25171L   26150.42227222  .00002969  00000+0  41812-3 0  9995
2 65142  51.8998 156.6250 0000391  46.5502 313.5493 14.79943416 44992
KUIPER-00105            
1 65143U 25171M   26150.24531978  .00002979  00000+0  41989-3 0  9998
2 65143  51.8977 165.0157 0000697  93.9069 266.1973 14.79908422 44863
KUIPER-00106            
1 65144U 25171N   26150.50002315 -.00045677  00000+0 -43265-2 0  9998
2 65144  51.8928 143.1777 0008318  17.3941 114.9547 14.93219108  5756
KUIPER-00107            
1 65145U 25171P   26150.39931087  .00000012  00000+0  30524-4 0  9991
2 65145  51.8987 146.7764 0000437  69.1436 290.9573 14.79931952 45137
KUIPER-00108            
1 65146U 25171Q   26150.21700220  .00002984  00000+0  42011-3 0  9999
2 65146  51.9004 160.1109 0000411  50.0900 310.0098 14.79940404 44934
KUIPER-00109            
1 65147U 25171R   26150.39117591 -.00004730  00000+0 -59181-3 0  9991
2 65147  51.9014 154.2861 0000416  51.5964 308.5036 14.79939829 45020
KUIPER-00110            
1 65148U 25171S   26150.27643478  .00002789  00000+0  39457-3 0  9991
2 65148  51.8985 167.3589 0000588  91.8817 268.2213 14.79940084 44824
KUIPER-00111            
1 65149U 25171T   26150.43985073  .00000608  00000+0  10876-3 0  9992
2 65149  51.8954 171.5248 0000654 104.8582 255.2452 14.79921996 44785
KUIPER-00112            
1 65150U 25171U   26150.42166848 -.00005731  00000+0 -72017-3 0  9993
2 65150  51.9000 154.1658 0000880 339.1920  20.9006 14.80116936 45024
KUIPER-00114            
1 65151U 25171V   26150.43717854  .00000427  00000+0  84953-4 0  9992
2 65151  51.8973 174.1107 0000454  79.0143 281.0870 14.79930334 44749
KUIPER-00115            
1 65152U 25171W   26150.24263105  .00002994  00000+0  42163-3 0  9994
2 65152  51.8986 167.4668 0000582  96.4843 263.6185 14.79924829 44829
KUIPER-00116            
1 65153U 25171X   26150.47364876  .00002831  00000+0  40015-3 0  9991
2 65153  51.8983 171.4824 0000402  68.8478 291.2528 14.79931935 44783
KUIPER-00118            
1 65154U 25171Y   26150.47093237  .00002825  00000+0  39947-3 0  9997
2 65154  51.8978 173.9481 0000540  92.8957 267.2067 14.79930986 44759
KUIPER-00119            
1 65155U 25171Z   26150.50002315  .00017312  00000+0  22438-2 0  9992
2 65155  51.8981 161.4178 0000596 130.1908 308.6867 14.80866680  5343
KUIPER-00120            
1 65762U 25217A   26150.11347594  .00002705  00000+0  38371-3 0  9999
2 65762  51.9011  53.0040 0000726  93.1404 266.9641 14.79934309 36791
KUIPER-00132            
1 65763U 25217B   26150.45692825  .00055111  00000+0  12689-2 0  9999
2 65763  51.8581 325.7564 0005748 252.3492 107.6869 15.42067194 38030
KUIPER-00133            
1 65764U 25217C   26150.14724529  .00004258  00000+0  58700-3 0  9994
2 65764  51.9053  52.9430 0000866 106.4933 253.6125 14.79943906 36805
KUIPER-00139            
1 65765U 25217D   26150.50002315  .00046081  00000+0  41748-2 0  9990
2 65765  51.8925  19.2449 0008622 221.5732 206.3693 14.94886923  5626
KUIPER-00142            
1 65766U 25217E   26150.06481172 -.00003277  00000+0 -40107-3 0  9995
2 65766  51.8977  35.7413 0001097 110.8854 249.2226 14.79929468 37035
KUIPER-00145            
1 65767U 25217F   26150.06212919  .00000588  00000+0  10608-3 0  9990
2 65767  51.9004  38.2746 0000774 109.1639 250.9407 14.79930404 36994
KUIPER-00147            
1 65768U 25217G   26150.09319111  .00000580  00000+0  10514-3 0  9994
2 65768  51.9000  40.6243 0001158  86.3484 273.7611 14.79932961 36968
KUIPER-00148            
1 65769U 25217H   26149.79374386  .00004678  00000+0  70545-3 0  9997
2 65769  51.9060  23.2451 0000985 113.8058 246.3006 14.75889129 37185
KUIPER-00150            
1 65770U 25217J   26150.01487431  .00002249  00000+0  32395-3 0  9995
2 65770  51.9024  50.9950 0000879  88.2756 271.8307 14.79930258 36810
KUIPER-00151            
1 65771U 25217K   26150.09050446  .00002535  00000+0  36135-3 0  9990
2 65771  51.9027  43.1574 0000972  73.5013 286.6056 14.79934576 36932
KUIPER-00152            
1 65772U 25217L   26150.07021125  .00003859  00000+0  53479-3 0  9991
2 65772  51.9011  30.7334 0000948 101.5201 258.5868 14.79944385 37104
KUIPER-00153            
1 65773U 25217M   26149.80559275  .00005401  00000+0  73624-3 0  9992
2 65773  51.9040  26.9721 0000956 118.3389 241.7670 14.79970533 37138
KUIPER-00155            
1 65774U 25217N   26149.76762399  .00003240  00000+0  45373-3 0  9990
2 65774  51.9025 359.6021 0000960 139.5272 220.5762 14.79941338 37512
KUIPER-00156            
1 65775U 25217P   26150.04185414  .00005676  00000+0  77268-3 0  9994
2 65775  51.9042  25.9073 0000678 103.4775 256.6262 14.79947302 37169
KUIPER-00163            
1 65777U 25217R   26150.50002315  .00124239  00000+0  56024-3 0  9999
2 65777  51.8935 357.5665 0002800 217.7314 178.9939 15.83153402  3581
KUIPER-00165            
1 65778U 25217S   26150.09859184  .00001746  00000+0  25803-3 0  9996
2 65778  51.9012  35.6103 0000904 107.5124 252.5937 14.79931844 37030
KUIPER-00166            
1 65779U 25217T   26150.07830714  .00001896  00000+0  27768-3 0  9991
2 65779  51.9036  23.2411 0000497 106.5608 253.5409 14.79933829 37204
KUIPER-00167            
1 65780U 25217U   26150.08779498  .00002575  00000+0  36662-3 0  9993
2 65780  51.8980  45.5902 0000670  90.9766 269.1273 14.79933840 36898
KUIPER-00168            
1 65781U 25217V   26150.03914265  .00000020  00000+0  31574-4 0  9993
2 65781  51.9008  28.3761 0000730 115.5651 244.5387 14.79932559 37134
KUIPER-00169            
1 65782U 25217W   26148.88575113  .00003275  00000+0  45839-3 0  9992
2 65782  51.9028  38.4825 0000668 116.2348 243.8683 14.79933356 36890
KUIPER-00170            
1 65783U 25217X   26149.08288035  .00005874  00000+0  79807-3 0  9999
2 65783  51.8998  42.5811 0000866 110.1452 249.9604 14.79974969 36857
KUIPER-00172            
1 65785U 25217Z   26148.38944799  .00002664  00000+0  40781-3 0  9992
2 65785  51.8996  28.1406 0001051 181.3646 178.7313 14.76666625 36994
KUIPER-00173            
1 65786U 25217AA  26150.06752613  .00001656  00000+0  24622-3 0  9999
2 65786  51.9018  33.2586 0001358  75.9517 284.1596 14.79931438 37066
KUIPER-00174            
1 65787U 25217AB  26150.07291698  .00003877  00000+0  53737-3 0  9998
2 65787  51.9051  28.2731 0000932 101.1084 258.9983 14.79929642 37139
KUIPER-00176            
1 65788U 25217AC  26150.12426709  .00004235  00000+0  58416-3 0  9996
2 65788  51.9006  42.9952 0000719  90.4347 269.6697 14.79936403 36934
KUIPER-00101            
1 65947U 25228A   26150.54150991  .00000597  00000+0  10729-3 0  9990
2 65947  51.8968 358.6133 0000542 105.3912 254.7110 14.79935443 35356
KUIPER-00113            
1 65948U 25228B   26149.77031152  .00001926  00000+0  28152-3 0  9997
2 65948  51.8990 357.0414 0000721 131.7867 228.3157 14.79934136 35309
KUIPER-00117            
1 65949U 25228C   26150.00397095  .00000753  00000+0  12773-3 0  9996
2 65949  51.8988 358.5102 0000786 114.8541 245.2503 14.79929660 35308
KUIPER-00121            
1 65950U 25228D   26150.51583758  .00001913  00000+0  27988-3 0  9990
2 65950  51.9015 351.2540 0000948 113.9198 246.1864 14.79935935 35454
KUIPER-00122            
1 65951U 25228E   26150.03233237  .00003565  00000+0  49646-3 0  9992
2 65951  51.9001   3.3674 0000815 109.1540 250.9511 14.79927734 35241
KUIPER-00123            
1 65952U 25228F   26149.99857920  .00001807  00000+0  26598-3 0  9995
2 65952  51.9005   3.5325 0000869 114.2937 245.8116 14.79935240 35231
KUIPER-00124            
1 65953U 25228G   26150.00667213  .00002741  00000+0  38840-3 0  9995
2 65953  51.8994 355.9844 0000586 107.4332 252.6694 14.79933489 35349
KUIPER-00125            
1 65954U 25228H   26150.49556068  .00002326  00000+0  33402-3 0  9992
2 65954  51.9008 338.8604 0000744  97.5244 262.5803 14.79934578 35621
KUIPER-00126            
1 65955U 25228J   26149.96751043  .00003944  00000+0  54590-3 0  9991
2 65955  51.9003   1.1844 0000733 128.4728 231.6301 14.79941345 35262
KUIPER-00127            
1 65956U 25228K   26149.95871528  .00003099  00000+0  43528-3 0  9992
2 65956  51.9014 353.6876 0001133 137.3385 222.7666 14.79939303 35376
KUIPER-00128            
1 65957U 25228L   26150.00936816  .00003447  00000+0  48088-3 0  9996
2 65957  51.9004 353.5288 0000746 123.7450 236.3584 14.79937435 35377
KUIPER-00129            
1 65958U 25228M   26149.91346645  .00001714  00000+0  25380-3 0  9995
2 65958  51.9011 348.9328 0000611 121.5926 238.5096 14.79933453 35439
KUIPER-00130            
1 65959U 25228N   26150.01206839  .00001280  00000+0  19691-3 0  9995
2 65959  51.9032 351.0227 0000479  93.5355 266.5663 14.79934427 25704
KUIPER-00134            
1 65960U 25228P   26149.65044942  .00058223  00000+0  13967-2 0  9998
2 65960  51.8732 287.4701 0005961 243.7933 116.2442 15.40806174 36268
KUIPER-00135            
1 65961U 25228Q   26150.51854574  .00002131  00000+0  30842-3 0  9995
2 65961  51.9028 348.8400 0000741 114.1588 245.9452 14.79936549 35489
KUIPER-00136            
1 65962U 25228R   26150.55493655  .00000226  00000+0  58629-4 0  9996
2 65962  51.9032 346.1414 0000338  78.9828 281.1173 14.79902916 35525
KUIPER-00137            
1 65963U 25228S   26150.55769977  .00002256  00000+0  32477-3 0  9997
2 65963  51.9042 343.6101 0000629 111.9072 248.1958 14.79937158 35568
KUIPER-00138            
1 65964U 25228T   26150.52662612  .00002218  00000+0  31978-3 0  9996
2 65964  51.9002 341.1968 0000596  96.1753 263.9277 14.79935303 35594
KUIPER-00140            
1 65965U 25228U   26150.52393729  .00003325  00000+0  46495-3 0  9997
2 65965  51.8986 343.7964 0000906  96.1479 263.9587 14.79934421 35559
KUIPER-00141            
1 65966U 25228V   26150.52918245  .00004800  00000+0  65712-3 0  9996
2 65966  51.9037 338.8116 0000684 123.0128 237.0900 14.80000926 35621
KUIPER-00146            
1 65967U 25228W   26150.56040293  .00002364  00000+0  33893-3 0  9998
2 65967  51.9037 341.1844 0000534 101.6197 258.4825 14.79935522 35595
KUIPER-00149            
1 65968U 25228X   26149.92425168  .00003044  00000+0  42807-3 0  9996
2 65968  51.9011 338.8909 0000744 110.8052 249.2990 14.79936268 35575
KUIPER-00154            
1 65969U 25228Y   26150.50095354  .00004626  00000+0  63533-3 0  9999
2 65969  51.9007 333.8365 0000550 105.0289 255.0734 14.79935932 35696
KUIPER-00157            
1 65970U 25228Z   26149.95803152  .00001567  00000+0  23452-3 0  9998
2 65970  51.9036 338.8628 0000575 120.0106 240.0914 14.79930946 35570
KUIPER-00144            
1 67133U 25301A   26150.13004241  .00003632  00000+0  54767-3 0  9995
2 67133  51.9015  55.3322 0000956  82.2067 277.9003 14.76446205 25934
KUIPER-00164            
1 67134U 25301B   26150.15224321  .00003501  00000+0  52805-3 0  9997
2 67134  51.9038  66.7106 0001082 144.7163 215.3869 14.76519940 25953
KUIPER-00175            
1 67135U 25301C   26149.74832547  .00006184  00000+0  62362-3 0  9995
2 67135  51.8958  55.2996 0001074  64.3622 295.7456 14.92238226 25971
KUIPER-00179            
1 67136U 25301D   26150.20128477  .00006120  00000+0  83077-3 0  9995
2 67136  51.8989  65.1520 0000565 106.7539 253.3485 14.79949390 25980
KUIPER-00181            
1 67137U 25301E   26150.18780713  .00005945  00000+0  80790-3 0  9993
2 67137  51.9025  77.7311 0001535  91.6031 268.5107 14.79949140 25787
KUIPER-00183            
1 67138U 25301F   26150.12508686  .00006625  00000+0  65975-3 0  9999
2 67138  51.8965  54.4398 0009079 343.5634  16.5038 14.92625272 26110
KUIPER-00184            
1 67139U 25301G   26149.01509873  .00003212  00000+0  48755-3 0  9991
2 67139  51.8997  65.2947 0001719 127.7274 232.3843 14.76472117 25976
KUIPER-00186            
1 67140U 25301H   26150.22156112  .00006209  00000+0  84270-3 0  9993
2 67140  51.9027  77.5920 0000664 106.6652 253.4383 14.79934325 25637
KUIPER-00187            
1 67141U 25301J   26150.21888505  .00000253  00000+0  62202-4 0  9996
2 67141  51.9039  80.1232 0001090 120.6401 239.4669 14.79932806 25597
KUIPER-00188            
1 67142U 25301K   26150.08505006  .00005751  00000+0  78224-3 0  9992
2 67142  51.9044  48.3048 0000429 168.3411 191.7561 14.79960667 26026
KUIPER-00191            
1 67143U 25301L   26150.19321017  .00000946  00000+0  15309-3 0  9999
2 67143  51.9009  72.7361 0000933  97.5798 262.5270 14.79932232 25725
KUIPER-00196            
1 67144U 25301M   26150.50002315 -.01825870  00000+0 -96572-1 0  9995
2 67144  51.8853  29.8254 0002618 285.5553 272.9469 15.18271642  5757
KUIPER-00204            
1 67145U 25301N   26150.50002315  .00015769  00000+0  16593-2 0  9997
2 67145  51.8972  44.0790 0002056 355.7798 104.6227 14.89524277  5644
KUIPER-00210            
1 67146U 25301P   26150.15944072  .00002161  00000+0  31237-3 0  9999
2 67146  51.8986  72.8413 0000820  95.4520 264.6536 14.79934706 25866
KUIPER-00221            
1 67147U 25301Q   26150.18511352  .00003991  00000+0  55203-3 0  9995
2 67147  51.9018  80.2453 0000854  92.7426 267.3634 14.79942990 25596
KUIPER-00232            
1 67148U 25301R   26150.16756112  .00005772  00000+0  78529-3 0  9994
2 67148  51.8995  65.3567 0001320  95.2228 264.8885 14.79943188 25799
KUIPER-00241            
1 67149U 25301S   26150.19051258  .00002521  00000+0  35955-3 0  9992
2 67149  51.9051  75.2372 0000859  97.5748 262.5312 14.79935880 25998
KUIPER-00245            
1 67150U 25301T   26150.18237310  .00002136  00000+0  30926-3 0  9993
2 67150  51.9028  82.7863 0000776  93.8896 266.2155 14.79904836 25558
KUIPER-00246            
1 67151U 25301U   26149.75965815  .00013194  00000+0  17568-2 0  9995
2 67151  51.8992  69.6165 0000528 125.5961 234.5050 14.79921740 25722
KUIPER-00247            
1 67152U 25301V   26150.10808653  .00006005  00000+0  81367-3 0  9995
2 67152  51.8973  58.0676 0001050  81.0111 279.0970 14.80052157 25897
KUIPER-00248            
1 67153U 25301W   26150.50002315  .00022139  00000+0  31647-2 0  9992
2 67153  51.8992  38.2465 0001535  21.5276 173.8717 14.76565541  5400
KUIPER-00249            
1 67154U 25301X   26150.11078528  .00005873  00000+0  79857-3 0  9991
2 67154  51.9009  55.5997 0000848  89.2375 270.8685 14.79939864 25927
KUIPER-00250            
1 67155U 25301Y   26150.19585671 -.00000789  00000+0 -74443-4 0  9992
2 67155  51.8997  70.1778 0000677  98.9378 261.1661 14.79936225 25760
KUIPER-00251            
1 67156U 25301Z   26150.14185381  .00004826  00000+0  66145-3 0  9995
2 67156  51.9016  57.9804 0001490 154.5393 205.5643 14.79940604 26081
KUIPER-00252            
1 67157U 25301AA  26150.13914188  .00005599  00000+0  76281-3 0  9990
2 67157  51.9015  60.4404 0000741 104.9701 255.1344 14.79936153 25864
KUIPER-00261            
1 67158U 25301AB  26150.02706167  .00002825  00000+0  39946-3 0  9991
2 67158  51.9025  70.9820 0000871 126.8558 233.2484 14.79926704 25707
KUIPER-00265            
1 67159U 25301AC  26149.97713228  .00005759  00000+0  78354-3 0  9995
2 67159  51.9022  86.1786 0000762  87.8786 272.2263 14.79946169 25528
KUIPER-00159            
1 67764U 26030A   26150.49548985  .00041016  00000+0  10904-2 0  9994
2 67764  51.8834 183.9528 0006543 345.4440  14.6358 15.37820902 17674
KUIPER-00160            
1 67765U 26030B   26150.36909512  .00035924  00000+0  94848-3 0  9999
2 67765  51.8802 184.5622 0005701 349.8461  10.2410 15.38099631 17655
KUIPER-00177            
1 67766U 26030C   26150.39673102  .00000866  00000+0  14263-3 0  9996
2 67766  51.8986 211.8122 0000487  91.0025 269.0993 14.79932202 17278
KUIPER-00178            
1 67767U 26030D   26150.38726174  .00002462  00000+0  38088-3 0  9999
2 67767  51.8994 211.3946 0000323  80.8224 279.2773 14.76467325 17289
KUIPER-00180            
1 67768U 26030E   26150.36835669  .00004030  00000+0  55722-3 0  9995
2 67768  51.8970 206.9337 0000306  99.2737 260.8260 14.79939867 17344
KUIPER-00197            
1 67769U 26030F   26150.50002315  .00031743  00000+0  28143-2 0  9993
2 67769  51.8985 186.5622 0003618   8.0415 124.2443 14.95934756  5614
KUIPER-00198            
1 67770U 26030G   26150.34267249  .00003772  00000+0  52346-3 0  9990
2 67770  51.8968 199.5456 0000337  76.5121 283.5879 14.79938201 17442
KUIPER-00199            
1 67771U 26030H   26150.47573699  .00025403  00000+0  73001-3 0  9990
2 67771  51.8800 185.2540 0011678 355.6025   4.4857 15.35598173 17650
KUIPER-00200            
1 67772U 26030J   26150.51263499  .00012248  00000+0  59422-3 0  9994
2 67772  51.8848 189.7708 0003143  33.2231 326.8945 15.18856651 17595
KUIPER-00203            
1 67773U 26030K   26150.39120345 -.00009591  00000+0 -12312-2 0  9998
2 67773  51.9069 216.8566 0000251 100.4071 259.6920 14.79924761 17200
KUIPER-00205            
1 67774U 26030L   26150.50002315 -.01851166  00000+0 -91002-1 0  9994
2 67774  51.8875 184.0741 0003583 314.1394  22.8564 15.20809180  1301
KUIPER-00208            
1 67775U 26030M   26150.39032003 -.00007029  00000+0 -96943-3 0  9990
2 67775  51.8961 208.2061 0007883 340.9787  19.0878 14.76507951 17328
KUIPER-00209            
1 67776U 26030N   26150.53716318  .00001360  00000+0  20749-3 0  9996
2 67776  51.8964 206.2737 0000424 197.2949 162.7999 14.79917098 17361
KUIPER-00213            
1 67777U 26030P   26150.43858568  .00004063  00000+0  56180-3 0  9991
2 67777  51.8928 204.2048 0000992  55.0593 305.0462 14.79924848 17381
KUIPER-00214            
1 67778U 26030Q   26150.33999615  .00000571  00000+0  10384-3 0  9996
2 67778  51.8988 202.1341 0000548 100.9405 259.1619 14.79930671 17407
KUIPER-00215            
1 67779U 26030R   26150.50002315 -.01081602  00000+0 -98625-1 0  9997
2 67779  51.9190 188.3180 0009995   5.1754  95.3618 14.97741591  5708
KUIPER-00218            
1 67780U 26030S   26150.50953948  .00002192  00000+0  34299-3 0  9999
2 67780  51.8963 203.4909 0000480  90.7603 269.3413 14.76409751 17400
KUIPER-00220            
1 67781U 26030T   26150.50002315  .00057988  00000+0  27013-2 0  9991
2 67781  51.8878 185.5923 0008724   1.8729 256.3864 15.19315659  5283
KUIPER-00222            
1 67782U 26030U   26150.44399220  .00001162  00000+0  18128-3 0  9990
2 67782  51.8981 199.2444 0000195 324.4493  35.6457 14.79943558 17453
KUIPER-00223            
1 67783U 26030V   26150.50002315  .00015939  00000+0  21550-2 0  9993
2 67783  51.8996 191.1749 0001837  17.9367 112.2022 14.79138419  5928
KUIPER-00225            
1 67784U 26030W   26150.32354438  .00002463  00000+0  38133-3 0  9994
2 67784  51.8968 197.0108 0003090   7.4438 352.6568 14.76444905 17473
KUIPER-00226            
1 67785U 26030X   26150.49560263  .00010373  00000+0  44051-3 0  9993
2 67785  51.8826 190.4837 0019131 359.0598   1.0343 15.23473473 17582
KUIPER-00259            
1 67786U 26030Y   26150.42110161  .00002183  00000+0  34207-3 0  9997
2 67786  51.8970 196.4431 0001334 110.8045 249.3059 14.76370303 17491
KUIPER-00260            
1 67787U 26030Z   26150.48148686  .00002060  00000+0  32420-3 0  9996
2 67787  51.8992 193.6607 0001927 143.3118 216.7975 14.76404707 17446
KUIPER-00262            
1 67788U 26030AA  26150.48311160  .00002573  00000+0  36710-3 0  9991
2 67788  51.8992 193.9367 0000771  91.6463 268.4587 14.79852825 17531
KUIPER-00266            
1 67789U 26030AB  26150.50002315  .00024525  00000+0  22469-2 0  9990
2 67789  51.8954 191.8205 0020158  11.8943  21.6580 14.94636691  5364
KUIPER-00268            
1 67790U 26030AC  26150.50002315  .00029767  00000+0  36243-2 0  9990
2 67790  51.9028 188.9174 0003710  35.1630 357.7145 14.83173588  5378
KUIPER-00270            
1 67791U 26030AD  26150.52092507  .00028514  00000+0  80992-3 0  9995
2 67791  51.8789 184.8082 0011450 356.3614   3.7287 15.35901083 17662
KUIPER-00274            
1 67792U 26030AE  26150.35440258  .00002411  00000+0  37459-3 0  9995
2 67792  51.8997 201.7920 0004277  19.8892 340.2235 14.76362108 17410
KUIPER-00275            
1 67793U 26030AF  26150.50002315  .00055431  00000+0  22419-2 0  9990
2 67793  51.8864 185.1005 0009644 347.9951 167.0960 15.24143420  2206
KUIPER-00276            
1 67794U 26030AG  26150.48995078  .00014592  00000+0  60836-3 0  9994
2 67794  51.8815 190.4600 0018377 335.4995  24.5111 15.23774339 17586
KUIPER-00279            
1 67795U 26030AH  26150.49562925  .00019451  00000+0  56464-3 0  9998
2 67795  51.8794 184.6360 0008216 346.0274  14.0484 15.35481291 17661
KUIPER-00131            
1 68573U 26072A   26149.65401612 -.00004219  00000+0 -52466-3 0  9996
2 68573  51.8998 277.5985 0001084 144.4741 215.6294 14.79936048  8370
KUIPER-00189            
1 68574U 26072B   26150.32853502  .00003238  00000+0  49271-3 0  9990
2 68574  51.8986 276.7823 0000840 269.5979  90.4886 14.76342747  8449
KUIPER-00192            
1 68575U 26072C   26149.79181898  .00006671  00000+0  90187-3 0  9998
2 68575  51.9017 274.4904 0000464  60.6775 299.4234 14.79996248  8438
KUIPER-00193            
1 68576U 26072D   26150.50002315 -.00207287  00000+0 -11867-1 0  9990
2 68576  51.8894 263.3045 0002370 335.8857 202.4643 15.13150698  4760
KUIPER-00194            
1 68577U 26072E   26150.50002315 -.00045332  00000+0 -57588-2 0  9993
2 68577  51.9019 268.8751 0002435   0.6904 335.1673 14.81346871  5770
KUIPER-00229            
1 68578U 26072F   26150.33320147  .00003302  00000+0  50158-3 0  9997
2 68578  51.9019 274.2839 0002040 152.4890 207.6179 14.76372988  8488
KUIPER-00230            
1 68579U 26072G   26150.31692580  .00043922  00000+0  11808-2 0  9999
2 68579  51.8764 263.1629 0001639 312.3454  47.7393 15.37461028  8635
KUIPER-00231            
1 68580U 26072H   26150.31233343  .00058821  00000+0  15746-2 0  9998
2 68580  51.8758 263.1345 0002243 320.4778  39.6045 15.37462771  8636
KUIPER-00234            
1 68581U 26072J   26150.50002315 -.00048429  00000+0 -63347-2 0  9998
2 68581  51.8996 267.8093 0000388  67.1468 276.8849 14.80162807  5886
KUIPER-00236            
1 68582U 26072K   26150.32592448  .00044307  00000+0  12058-2 0  9992
2 68582  51.8769 263.2263 0002254 298.0399  62.0360 15.37075823  8639
KUIPER-00244            
1 68583U 26072L   26150.50002315 -.00006605  00000+0 -21888-3 0  9995
2 68583  51.8792 262.4774 0003047 333.5695 235.6650 15.28999451  4222
KUIPER-00253            
1 68584U 26072M   26150.50002315 -.01806792  00000+0 -11195+0 0  9998
2 68584  51.8825 263.5442 0007165 340.6086 352.8018 15.12658809  5191
KUIPER-00254            
1 68585U 26072N   26150.50002315 -.00030378  00000+0 -22551-2 0  9998
2 68585  51.8903 264.8939 0008157 332.1988  36.4113 15.02409282  5800
KUIPER-00263            
1 68586U 26072P   26150.31200876  .00038406  00000+0  10197-2 0  9991
2 68586  51.8771 263.1365 0001405 308.1507  51.9354 15.37907741  8632
KUIPER-00269            
1 68587U 26072Q   26149.53416647  .00036859  00000+0  95526-3 0  9999
2 68587  51.8739 266.9174 0005152 300.3353  59.7124 15.38661686  8516
KUIPER-00272            
1 68588U 26072R   26150.36577845  .00005826  00000+0  79139-3 0  9993
2 68588  51.8987 271.9502 0000542  88.5222 271.5803 14.79992965  8510
KUIPER-00285            
1 68589U 26072S   26149.54296333  .00035029  00000+0  91325-3 0  9991
2 68589  51.8741 266.9733 0007021 307.7986  52.2365 15.38492622  8519
KUIPER-00286            
1 68590U 26072T   26150.30971551  .00039825  00000+0  10250-2 0  9996
2 68590  51.8751 263.1153 0004616 309.4288  50.6290 15.38839497  8635
KUIPER-00289            
1 68591U 26072U   26150.31083120  .00035259  00000+0  99449-3 0  9999
2 68591  51.8666 263.8194 0011700 328.4836  31.5448 15.36009605  8625
KUIPER-00290            
1 68592U 26072V   26150.31241885  .00038019  00000+0  10551-2 0  9997
2 68592  51.8621 263.8154 0011776 319.3035  40.7070 15.36476578  8626
KUIPER-00293            
1 68593U 26072W   26150.50002315 -.00669116  00000+0 -73001-1 0  9990
2 68593  51.8954 266.6262 0014712 337.4641 226.0613 14.90207344  1687
KUIPER-00294            
1 68594U 26072X   26150.50115133  .00021013  00000+0  59153-3 0  9994
2 68594  51.8706 262.8557 0012715 324.9434  35.0714 15.36347644  8653
KUIPER-00296            
1 68595U 26072Y   26150.34800022  .00058433  00000+0  15473-2 0  9997
2 68595  51.8719 263.3469 0009414 320.7497  39.2806 15.37762026  8633
KUIPER-00297            
1 68596U 26072Z   26150.50002315 -.01770008  00000+0 -15954+0 0  9998
2 68596  51.8884 265.6655 0008799 340.7956 126.9053 14.98762245  5270
KUIPER-00300            
1 68597U 26072AA  26150.50002315 -.02242507  00000+0 -13720+0 0  9997
2 68597  51.8852 263.9254 0008197 338.0870 250.9033 15.13279538  4764
KUIPER-00301            
1 68598U 26072AB  26150.35005516  .00035027  00000+0  93170-3 0  9991
2 68598  51.8668 263.3323 0009521 323.6664  36.3676 15.37855166  8636
KUIPER-00304            
1 68599U 26072AC  26149.70648628  .00038600  00000+0  10364-2 0  9999
2 68599  51.8683 266.5271 0010637 321.2189  38.8034 15.37508066  8535
KUIPER-00317            
1 68600U 26072AD  26150.34693402  .00062143  00000+0  16409-2 0  9999
2 68600  51.8699 263.3316 0009451 316.6064  43.4178 15.37821317  8631
KUIPER-00320            
1 68601U 26072AE  26150.50002315 -.01161726  00000+0 -47720-1 0  9994
2 68601  51.8674 263.1243 0011266 324.9668 224.6467 15.26763648  5777
KUIPER-00299            
1 68864U 26095A   26149.88049551  .00018455  00000+0  85154-3 0  9994
2 68864  51.8787 332.2383 0009245 244.1242 115.8785 15.20238845  4897
KUIPER-00353            
1 68865U 26095B   26150.50002315  .00049227  00000+0  13371-2 0  9995
2 68865  51.8840 327.6456 0000836 215.4998  77.2585 15.37092067  5637
KUIPER-00357            
1 68866U 26095C   26150.52009730  .00034368  00000+0  89337-3 0  9992
2 68866  51.8837 327.6414 0003201 206.1584 153.9242 15.38610792  5011
KUIPER-00364            
1 68867U 26095D   26150.50002315  .00042416  00000+0  15189-2 0  9999
2 68867  51.8856 328.0186 0002369 236.2734 245.4203 15.28342694  4980
KUIPER-00375            
1 68868U 26095E   26150.50002315  .00052311  00000+0  14141-2 0  9992
2 68868  51.8831 327.6676 0001701 211.1352  72.7246 15.37212594  5490
KUIPER-00433            
1 68869U 26095F   26150.50002315  .00016212  00000+0  15352-2 0  9998
2 68869  51.8928 331.5411 0007070 249.3769 340.0169 14.93714191  4988
KUIPER-00437            
1 68870U 26095G   26149.89451313  .00036519  00000+0  98850-3 0  9993
2 68870  51.8813 330.9366 0007808 231.8724 128.1559 15.37309474  4915
KUIPER-00448            
1 68871U 26095H   26150.50002315  .00045064  00000+0  12686-2 0  9995
2 68871  51.8837 327.7874 0003289 222.7466 357.7562 15.36014207  5732
KUIPER-00459            
1 68872U 26095J   26150.50326881  .00027743  00000+0  80023-3 0  9998
2 68872  51.8716 328.2371 0010788 236.2549 123.7409 15.35441356  5000
KUIPER-00468            
1 68873U 26095K   26150.53012899  .00044453  00000+0  11768-2 0  9999
2 68873  51.8823 327.7046 0004918 209.9106 150.1600 15.37921618  5011
KUIPER-00476            
1 68874U 26095L   26150.49680273  .00031722  00000+0  90371-3 0  9995
2 68874  51.8741 328.2042 0008311 228.9307 131.0961 15.35781805  5005
KUIPER-00478            
1 68875U 26095M   26150.48601145  .00036305  00000+0  98850-3 0  9998
2 68875  51.8785 328.1472 0007491 243.7367 116.2850 15.37131987  5003
KUIPER-00480            
1 68876U 26095N   26149.89024860  .00039816  00000+0  10691-2 0  9991
2 68876  51.8777 330.9059 0005888 223.7414 136.3107 15.37529031  4914
KUIPER-00482            
1 68877U 26095P   26150.51561633  .00039416  00000+0  10151-2 0  9994
2 68877  51.8842 327.6089 0002039 204.8586 155.2304 15.38833486  5013
KUIPER-00483            
1 68878U 26095Q   26150.50002315 -.01587484  00000+0 -14957+0 0  9992
2 68878  51.8938 330.7825 0009899 256.1491 219.1269 14.96670664  5064
KUIPER-00488            
1 68879U 26095R   26150.50594405  .00025526  00000+0  72944-3 0  9994
2 68879  51.8662 328.2446 0009558 241.3804 118.6220 15.35791790  5008
KUIPER-00489            
1 68880U 26095S   26150.49801478  .00045225  00000+0  12775-2 0  9998
2 68880  51.8759 328.2109 0010368 238.5039 121.4934 15.35859921  5007
KUIPER-00499            
1 68881U 26095T   26150.50679573  .00031639  00000+0  91246-3 0  9995
2 68881  51.8694 328.2594 0007701 235.6272 124.3986 15.35403845  5007
KUIPER-00500            
1 68882U 26095U   26150.50002315 -.01124744  00000+0 -84129-1 0  9993
2 68882  51.8982 329.8555 0004298 238.4064  89.8057 15.05383499  3775
KUIPER-00502            
1 68883U 26095V   26149.75497092  .00043204  00000+0  11508-2 0  9999
2 68883  51.8816 331.5061 0006339 224.6403 135.4074 15.37737560  4894
KUIPER-00503            
1 68884U 26095W   26150.50002315  .00036477  00000+0  16629-2 0  9998
2 68884  51.8845 328.8143 0005391 238.9404 216.8111 15.20295822  5588
KUIPER-00504            
1 68885U 26095X   26150.50002315  .00003051  00000+0  39335-3 0  9991
2 68885  51.9014 333.7019 0011206 266.1732 349.5672 14.83636270  5371
KUIPER-00505            
1 68886U 26095Y   26150.50002315  .00050609  00000+0  17893-2 0  9997
2 68886  51.8865 328.0468 0003448 228.0931 209.9898 15.28677946  5786
KUIPER-00507            
1 68887U 26095Z   26150.51568041  .00032901  00000+0  88691-3 0  9992
2 68887  51.8833 327.6127 0001014  97.7784 262.3318 15.37513075  5011
KUIPER-00511            
1 68888U 26095AA  26149.76192108  .00021840  00000+0  59457-3 0  9993
2 68888  51.8796 331.5465 0006493 225.8333 134.2121 15.37421577  4898
KUIPER-00512            
1 68889U 26095AB  26150.50002315  .00024203  00000+0  13295-2 0  9993
2 68889  51.8899 328.7682 0003620 247.3750 166.6788 15.13976592  5438
KUIPER-00519            
1 68890U 26095AC  26149.92939510  .00180310  00000+0  45010-2 0  9997
2 68890  51.8833 330.4327 0000539 200.8667 159.2299 15.38979053  4921
KUIPER-00521            
1 68891U 26095AD  26149.92949209  .00058752  00000+0  15318-2 0  9996
2 68891  51.8855 330.4330 0001429 243.6396 116.4445 15.38277603  4923
KUIPER-00524            
1 68892U 26095AE  26150.51904366  .00036307  00000+0  94228-3 0  9999
2 68892  51.8820 327.6346 0001955 213.6713 146.4150 15.38635207  5010
KUIPER-00370            
1 68919U 26098A   26150.38466617  .00054919  00000+0  18651-2 0  9993
2 68919  51.8725 154.1640 0015035  89.0191 271.2515 15.29854289  4602
KUIPER-00380            
1 68920U 26098B   26150.21565884  .00004819  00000+0  16040-3 0  9998
2 68920  51.8733 154.5482 0009363  69.8912 290.3079 15.32981014  4580
KUIPER-00386            
1 68921U 26098C   26150.50002315  .00059752  00000+0  17065-2 0  9999
2 68921  51.8710 152.8104 0003559  97.4474 216.7164 15.35435769  4490
KUIPER-00388            
1 68922U 26098D   26150.40156279  .00030632  00000+0  10560-2 0  9997
2 68922  51.8744 154.2742 0021072  79.9414 280.3946 15.29538543  4606
KUIPER-00405            
1 68923U 26098E   26150.23899250  .00016844  00000+0  54510-3 0  9995
2 68923  51.8740 154.7045 0014979  83.6645 276.6045 15.32061331  4585
KUIPER-00408            
1 68924U 26098F   26150.50002315  .00053795  00000+0  18269-2 0  9990
2 68924  51.8743 153.6266 0015713  84.1212 191.8621 15.29854329  5767
KUIPER-00409            
1 68925U 26098G   26150.26996861  .00010760  00000+0  33592-3 0  9994
2 68925  51.8742 154.1676 0008268  80.7803 279.4117 15.33703287  4597
KUIPER-00410            
1 68926U 26098H   26150.31247469  .00018511  00000+0  63615-3 0  9995
2 68926  51.8727 154.4372 0013451  79.6588 280.5912 15.30068676  4593
KUIPER-00412            
1 68927U 26098J   26150.33335647  .00031969  00000+0  89481-3 0  9995
2 68927  51.8752 153.5018 0002234 121.5471  51.7111 15.36358014  5622
KUIPER-00413            
1 68928U 26098K   26150.34301310 -.02953721  00000+0 -12274+0 0  9992
2 68928  51.8745 154.6273 0043756 113.3470 247.2125 15.26315113  4596
KUIPER-00414            
1 68929U 26098L   26150.01825535  .00029627  00000+0  10261-2 0  9999
2 68929  51.8755 156.2105 0023139  83.9917 276.3702 15.29362824  4544
KUIPER-00415            
1 68930U 26098M   26150.41649597  .00027635  00000+0  86412-3 0  9996
2 68930  51.8766 153.6556 0010886  73.0032 287.2145 15.32889345  4618
KUIPER-00416            
1 68931U 26098N   26150.23293362  .00021462  00000+0  59977-3 0  9990
2 68931  51.8725 153.9300 0001287 107.3098 252.8029 15.36633522  4596
KUIPER-00420            
1 68932U 26098P   26150.44468282  .00021671  00000+0  62759-3 0  9993
2 68932  51.8753 153.1018 0003997  92.2182 267.9262 15.35507009  4621
KUIPER-00421            
1 68933U 26098Q   26150.52974021  .00031943  00000+0  95496-3 0  9993
2 68933  51.8768 152.9152 0009427  67.6743 292.5241 15.34253346  4630
KUIPER-00425            
1 68934U 26098R   26150.38545414  .00023320  00000+0  79933-3 0  9996
2 68934  51.8735 154.1736 0018663  87.8401 272.4719 15.29923174  4605
KUIPER-00430            
1 68935U 26098S   26150.26397493  .00026290  00000+0  88823-3 0  9993
2 68935  51.8768 154.8635 0020320  85.1865 275.1438 15.30289555  4580
KUIPER-00431            
1 68936U 26098T   26150.46331743 -.00001879  00000+0 -53712-4 0  9990
2 68936  51.8754 153.9384 0017331  85.6710 274.6253 15.28435817  4613
KUIPER-00432            
1 68937U 26098U   26150.42411889  .00039577  00000+0  12795-2 0  9995
2 68937  51.8736 153.6952 0011576  78.6917 281.5368 15.31634888  4615
KUIPER-00434            
1 68938U 26098V   26150.39667167  .00030437  00000+0  89698-3 0  9997
2 68938  51.8733 153.5135 0007670  71.7947 288.3873 15.34744697  4611
KUIPER-00436            
1 68939U 26098W   26150.41962959  .00044438  00000+0  13752-2 0  9991
2 68939  51.8736 153.6658 0010980  81.9799 278.2431 15.32985121  4617
KUIPER-00438            
1 68940U 26098X   26150.39275148  .00031471  00000+0  94436-3 0  9999
2 68940  51.8743 153.4932 0005456  84.4987 275.6620 15.34169894  4613
KUIPER-00439            
1 68941U 26098Y   26150.40740353  .00035509  00000+0  10980-2 0  9994
2 68941  51.8774 153.5943 0005519  72.9780 287.1809 15.33157889  4611
KUIPER-00440            
1 68942U 26098Z   26150.52501087  .00043428  00000+0  12852-2 0  9996
2 68942  51.8757 152.8887 0004692 105.6918 254.4585 15.34457316  4639
KUIPER-00442            
1 68943U 26098AA  26150.39696657  .00017092  00000+0  51650-3 0  9998
2 68943  51.8771 153.5302 0006954  80.7421 279.4350 15.34316603  4619
KUIPER-00446            
1 68944U 26098AB  26150.39529065  .00028962  00000+0  86824-3 0  9996
2 68944  51.8736 153.5072 0005803  78.4633 281.7004 15.34241062  4614
KUIPER-00451            
1 68945U 26098AC  26150.50002315  .00031339  00000+0  11298-2 0  9998
2 68945  51.8755 153.5986 0013861  81.4269 211.1267 15.28184649  5251
KUIPER-00452            
1 68946U 26098AD  26150.37815578  .00057902  00000+0  16511-2 0  9994
2 68946  51.8731 153.3955 0001777 124.1999 235.9156 15.35502923  4615
KUIPER-00453            
1 68947U 26098AE  26150.33335647  .00031799  00000+0  88888-3 0  9998
2 68947  51.8721 153.4916 0002898 112.5870  61.7464 15.36400603  5326
KUIPER-00454            
1 68948U 26098AF  26150.40580272  .00027430  00000+0  98614-3 0  9998
2 68948  51.8772 154.3140 0016410  78.0229 282.2592 15.28310038  4606
KUIPER-00455            
1 68949U 26098AG  26150.34152109  .00007493  00000+0  26910-3 0  9993
2 68949  51.8754 154.6238 0019478  85.2940 275.0267 15.29515447  4594
KUIPER-00458            
1 68950U 26098AH  26150.43797323  .00019862  00000+0  57285-3 0  9990
2 68950  51.8744 153.0582 0004059  85.3482 274.7968 15.35692121  4621
