IRIDIUM 106             
1 41917U 17003A   26228.65456491  .00000009  00000+0 -39178-5 0  9995
2 41917  86.3913  63.2591 0002337  84.1242 276.0220 14.34217266501872
IRIDIUM 103             
1 41918U 17003B   26228.64187607  .00000020  00000+0  12323-6 0  9991
2 41918  86.3912  63.1641 0002111  93.5076 266.6362 14.34217165501898
IRIDIUM 109             
1 41919U 17003C   26228.78775971  .00000014  00000+0 -21319-5 0  9992
2 41919  86.3916  63.1634 0002181  90.2147 269.9298 14.34217269501883
IRIDIUM 102             
1 41920U 17003D   26228.82581256  .00000018  00000+0 -46194-6 0  9993
2 41920  86.3912  63.0698 0002055  87.0557 273.0874 14.34217644501972
IRIDIUM 105             
1 41921U 17003E   26228.71464108  .00000060  00000+0  14215-4 0  9991
2 41921  86.3960  31.5492 0001943  95.2253 264.9164 14.34218018503819
IRIDIUM 104             
1 41922U 17003F   26228.62920721  .00000011  00000+0 -30866-5 0  9998
2 41922  86.3915  63.1955 0002027  96.2610 263.8817 14.34218032501937
IRIDIUM 114             
1 41923U 17003G   26228.77506922  .00000012  00000+0 -26398-5 0  9994
2 41923  86.3916  63.1176 0002170  91.6608 268.4836 14.34217496501934
IRIDIUM 108             
1 41924U 17003H   26228.52428499  .00000007  00000+0 -46860-5 0  9990
2 41924  86.3949  31.5153 0001999  90.2970 269.8455 14.34217731503756
IRIDIUM 112             
1 41925U 17003J   26228.62285052  .00000013  00000+0 -23829-5 0  9995
2 41925  86.3911  63.0203 0002111  90.1112 270.0326 14.34217635501938
IRIDIUM 111             
1 41926U 17003K   26228.81947132  .00000011  00000+0 -31321-5 0  9995
2 41926  86.3913  63.0101 0002202  89.1894 270.9554 14.34217445501946
IRIDIUM 113             
1 42803U 17039A   26228.65989847 -.00000072  00000+0 -32892-4 0  9991
2 42803  86.3969 296.9082 0002137  97.7710 262.3729 14.34217019479856
IRIDIUM 123             
1 42804U 17039B   26228.84091426  .00000045  00000+0  90610-5 0  9991
2 42804  86.4014 328.2943 0002379  94.7599 265.3868 14.34217879478641
IRIDIUM 120             
1 42805U 17039C   26228.93262970 -.00000021  00000+0 -14704-4 0  9991
2 42805  86.3957 296.5687 0002253  91.5292 268.6162 14.34217380479882
IRIDIUM 115             
1 42806U 17039D   26228.92171771  .00000162  00000+0  42164-4 0  9994
2 42806  86.4495 296.7107 0002554  95.3169 264.8323 14.43280371483027
IRIDIUM 118             
1 42807U 17039E   26228.66332279  .00000164  00000+0  51427-4 0  9992
2 42807  86.4015 328.3663 0002202  94.9745 265.1703 14.34218226478615
IRIDIUM 117             
1 42808U 17039F   26228.68234955 -.00000005  00000+0 -87351-5 0  9999
2 42808  86.4010 328.3156 0002173  94.8128 265.3316 14.34217403478640
IRIDIUM 126             
1 42809U 17039G   26228.70771937  .00000062  00000+0  15148-4 0  9994
2 42809  86.4015 328.3570 0002262  97.9968 262.1484 14.34217992478623
IRIDIUM 124             
1 42810U 17039H   26228.85553558  .00000178  00000+0  46995-4 0  9991
2 42810  86.4443 264.9877 0002453  94.0531 266.0950 14.43281513483864
IRIDIUM 128             
1 42811U 17039J   26228.76822634 -.00000002  00000+0 -78021-5 0  9990
2 42811  86.4003 359.8233 0002204  91.7871 268.3577 14.34217495478662
IRIDIUM 121             
1 42812U 17039K   26228.72674779 -.00000004  00000+0 -86625-5 0  9993
2 42812  86.4012 328.3772 0002129  93.8030 266.3410 14.34217436478500
IRIDIUM 133             
1 42955U 17061A   26228.79993905  .00000041  00000+0  74412-5 0  9998
2 42955  86.4009 359.9289 0002229  93.0208 267.1243 14.34217802463466
IRIDIUM 100             
1 42956U 17061B   26228.44475350  .00000097  00000+0  27668-4 0  9991
2 42956  86.4008 359.9944 0002180  92.2953 267.8493 14.34217926463414
IRIDIUM 122             
1 42957U 17061C   26228.41304125  .00000043  00000+0  84001-5 0  9996
2 42957  86.4008   0.0082 0002225  94.7907 265.3543 14.34217568463419
IRIDIUM 129             
1 42958U 17061D   26228.78725367  .00000024  00000+0  16597-5 0  9996
2 42958  86.4005 359.9200 0001914  97.7940 262.3473 14.34217549463484
IRIDIUM 119             
1 42959U 17061E   26228.89507826  .00000090  00000+0  24937-4 0  9996
2 42959  86.4009 359.8708 0002207  96.5261 263.6186 14.34217929463511
IRIDIUM 107             
1 42960U 17061F   26228.63503165  .00000056  00000+0  12895-4 0  9994
2 42960  86.4011   0.0008 0002456  94.8747 265.2729 14.34218220463482
IRIDIUM 132             
1 42961U 17061G   26228.78091118  .00000088  00000+0  24455-4 0  9991
2 42961  86.4009 359.9188 0002224  93.2142 266.9309 14.34217720463509
IRIDIUM 136             
1 42962U 17061H   26228.81262408  .00000018  00000+0 -76643-6 0  9990
2 42962  86.4005 359.9130 0002067  91.8678 268.2755 14.34217611463527
IRIDIUM 139             
1 42963U 17061J   26228.88873475  .00000095  00000+0  26910-4 0  9994
2 42963  86.4012 359.9437 0002234  92.7556 267.3896 14.34218216463547
IRIDIUM 125             
1 42964U 17061K   26228.45743961  .00000119  00000+0  35265-4 0  9994
2 42964  86.4012   0.1860 0002455 105.2607 254.8861 14.34218161463491
IRIDIUM 135             
1 43070U 17083A   26228.64086992  .00000138  00000+0  42315-4 0  9997
2 43070  86.3965 296.7494 0002275  94.9829 265.1627 14.34218550452813
IRIDIUM 138             
1 43071U 17083B   26228.66624034  .00000005  00000+0 -53867-5 0  9994
2 43071  86.3976 296.4432 0002138  99.1011 261.0427 14.34217554452808
IRIDIUM 116             
1 43072U 17083C   26228.70429664  .00000070  00000+0  17925-4 0  9997
2 43072  86.3963 296.7080 0002388  88.7979 271.3491 14.34217571452849
IRIDIUM 130             
1 43073U 17083D   26228.67258362 -.00000018  00000+0 -13449-4 0  9990
2 43073  86.3972 297.0023 0002394  92.3785 267.7685 14.34217505452788
IRIDIUM 151             
1 43074U 17083E   26228.71698160  .00000040  00000+0  71073-5 0  9991
2 43074  86.3966 296.7620 0002289  93.2006 266.9452 14.34217804452819
IRIDIUM 134             
1 43075U 17083F   26228.75503694 -.00000007  00000+0 -95022-5 0  9998
2 43075  86.3966 296.7546 0002220  94.5996 265.5454 14.34217491452789
IRIDIUM 137             
1 43076U 17083G   26228.76772182  .00000073  00000+0  19015-4 0  9998
2 43076  86.3968 296.8435 0002162  84.7416 275.4027 14.34218041452859
IRIDIUM 141             
1 43077U 17083H   26228.90091628  .00000071  00000+0  18177-4 0  9990
2 43077  86.3963 296.6150 0002253  95.9391 264.2062 14.34218017452874
IRIDIUM 153             
1 43078U 17083J   26228.71355815 -.00000008  00000+0 -99270-5 0  9997
2 43078  86.3923 265.1614 0002213  96.8390 263.3058 14.34217355453951
IRIDIUM 131             
1 43079U 17083K   26228.67892596 -.00000014  00000+0 -12090-4 0  9996
2 43079  86.3969 296.8977 0002140  95.3730 264.7710 14.34217314452770
IRIDIUM 144             
1 43249U 18030A   26228.65013223  .00000113  00000+0  33402-4 0  9996
2 43249  86.3918 265.1157 0002359  89.9826 270.1640 14.34218133438800
IRIDIUM 149             
1 43250U 18030B   26228.65647443 -.00000024  00000+0 -15629-4 0  9999
2 43250  86.3919 265.0792 0002177  94.6606 265.4839 14.34217569438825
IRIDIUM 157             
1 43251U 18030C   26228.81503975  .00000110  00000+0  32292-4 0  9998
2 43251  86.3919 265.0677 0002311  93.0210 267.1250 14.34218121438823
IRIDIUM 140             
1 43252U 18030D   26228.69453035 -.00000006  00000+0 -90336-5 0  9996
2 43252  86.3921 265.1304 0002241  93.1546 266.9906 14.34217539438861
IRIDIUM 145             
1 43253U 18030E   26228.68184570 -.00000009  00000+0 -10332-4 0  9991
2 43253  86.3921 265.1077 0002363  86.5261 273.6205 14.34217391438799
IRIDIUM 146             
1 43254U 18030F   26228.80235446 -.00000029  00000+0 -17503-4 0  9994
2 43254  86.3921 265.0693 0002260  90.4309 269.7146 14.34217442438827
IRIDIUM 148             
1 43255U 18030G   26228.63110374  .00000057  00000+0  13159-4 0  9990
2 43255  86.3921 265.1855 0002228  91.2815 268.8636 14.34218403438837
IRIDIUM 142             
1 43256U 18030H   26228.66916065 -.00000047  00000+0 -23705-4 0  9994
2 43256  86.3919 265.0560 0002263  88.4717 271.6738 14.34217201438802
IRIDIUM 150             
1 43257U 18030J   26228.84675248 -.00000020  00000+0 -14329-4 0  9993
2 43257  86.3921 265.0999 0002280  92.2655 267.8802 14.34217462438858
IRIDIUM 143             
1 43258U 18030K   26228.61844046  .00000146  00000+0  45041-4 0  9995
2 43258  86.3923 265.2907 0002396  91.3814 268.7657 14.34218408438755
IRIDIUM 161             
1 43478U 18047C   26228.69481645  .00000020  00000+0 -15536-6 0  9997
2 43478  86.4435  63.1531 0002046  90.5829 269.5607 14.43279672433866
IRIDIUM 152             
1 43479U 18047D   26228.80044284  .00000015  00000+0 -16900-5 0  9994
2 43479  86.3910  62.9706 0002138  89.8755 270.2686 14.34217661431174
IRIDIUM 147             
1 43480U 18047E   26228.80678628  .00000014  00000+0 -20219-5 0  9998
2 43480  86.3912  62.9742 0002222  85.7034 274.4416 14.34217600431177
IRIDIUM 110             
1 43481U 18047F   26228.81312917  .00000018  00000+0 -54896-6 0  9999
2 43481  86.3914  63.0651 0001939  93.6094 266.5324 14.34217105431168
IRIDIUM 162             
1 43482U 18047G   26228.61918312  .00000029  00000+0  25460-5 0  9994
2 43482  86.4434  63.0751 0002275  88.6688 271.4774 14.43280851433844
IRIDIUM 160             
1 43569U 18061A   26228.89850163  .00000089  00000+0  24628-4 0  9995
2 43569  86.3958  31.3979 0002100  90.4889 269.6547 14.34218250422075
IRIDIUM 166             
1 43570U 18061B   26228.50526065  .00000059  00000+0  14137-4 0  9997
2 43570  86.3955  31.5120 0002210  88.7082 271.4367 14.34218174422044
IRIDIUM 158             
1 43571U 18061C   26228.75262193  .00000077  00000+0  20312-4 0  9996
2 43571  86.3957  31.4186 0002189  92.5913 267.5533 14.34217931422040
IRIDIUM 165             
1 43572U 18061D   26228.49892100  .00000057  00000+0  13144-4 0  9998
2 43572  86.3957  31.5722 0002223  88.3556 271.7894 14.34217347422030
IRIDIUM 155             
1 43573U 18061E   26228.53063157  .00000073  00000+0  19031-4 0  9995
2 43573  86.3953  31.4250 0002246  91.1504 268.9949 14.34217950422008
IRIDIUM 154             
1 43574U 18061F   26228.86044714  .00000084  00000+0  23072-4 0  9992
2 43574  86.3958  31.4237 0002202  87.8865 272.2583 14.34217714422104
IRIDIUM 163             
1 43575U 18061G   26228.91118654  .00000099  00000+0  28126-4 0  9995
2 43575  86.3954  31.3158 0002128  92.6797 267.4643 14.34218425422087
IRIDIUM 156             
1 43576U 18061H   26228.88582133  .00000089  00000+0  24754-4 0  9991
2 43576  86.3955  31.3338 0002334  91.9723 268.1740 14.34217071422070
IRIDIUM 164             
1 43577U 18061J   26228.86678793  .00000055  00000+0  12432-4 0  9991
2 43577  86.3957  31.3829 0002182  87.2439 272.9007 14.34218111422111
IRIDIUM 159             
1 43578U 18061K   26228.48623556  .00000066  00000+0  16328-4 0  9997
2 43578  86.3954  31.4777 0002113  92.5156 267.6282 14.34217463422026
IRIDIUM 180             
1 43922U 19002A   26228.69504156 -.00000013  00000+0 -11821-4 0  9990
2 43922  86.4010 328.3152 0002035  95.5763 264.5665 14.34212194397666
IRIDIUM 176             
1 43923U 19002B   26228.65024122  .00000389  00000+0  57786-4 0  9991
2 43923  86.6135 328.2689 0002378  93.7600 266.3889 14.72249865408142
IRIDIUM 168             
1 43924U 19002C   26228.89799655  .00000069  00000+0  17536-4 0  9992
2 43924  86.4016 328.3093 0002202  95.2933 264.8515 14.34218381397672
IRIDIUM 173             
1 43925U 19002D   26228.67600631  .00000070  00000+0  18026-4 0  9991
2 43925  86.4012 328.2882 0002251  94.9474 265.1979 14.34218082397625
IRIDIUM 169             
1 43926U 19002E   26228.41800503  .00000162  00000+0  46349-4 0  9995
2 43926  86.4264   0.0130 0002680  98.0399 262.1103 14.38608654398880
IRIDIUM 172             
1 43927U 19002F   26228.66966351  .00000030  00000+0  35180-5 0  9993
2 43927  86.4014 328.2993 0002173  95.3795 264.7648 14.34217892397633
IRIDIUM 175             
1 43928U 19002G   26228.85642437  .00000170  00000+0  44220-4 0  9990
2 43928  86.4473 265.1566 0004606  51.2444 308.9168 14.43639497407733
IRIDIUM 171             
1 43929U 19002H   26228.72040210  .00000145  00000+0  44861-4 0  9991
2 43929  86.4024 328.5909 0002293  93.1701 266.9757 14.34217629397635
IRIDIUM 170             
1 43930U 19002J   26228.72439643  .00000434  00000+0  64977-4 0  9996
2 43930  86.6133 328.2397 0002298  96.3803 263.7676 14.72250677408169
IRIDIUM 167             
1 43931U 19002K   26228.85360076  .00000046  00000+0  95404-5 0  9993
2 43931  86.4013 328.2453 0002472  91.0814 269.0665 14.34217512397653
IRIDIUM 181             
1 56726U 23068S   26228.56168187  .00000039  00000+0  57239-5 0  9999
2 56726  86.4494  31.5379 0002018  86.7107 273.4325 14.43309747171143
IRIDIUM 177             
1 56727U 23068T   26225.65517163  .00000442  00000+0  54957-4 0  9990
2 56727  86.1974 301.5145 0002486  96.3444 263.8060 14.80040735174866
IRIDIUM 174             
1 56728U 23068U   26228.71204129  .00000450  00000+0  67514-4 0  9998
2 56728  86.6142 328.3985 0002458 102.8477 257.3015 14.72255170174923
IRIDIUM 178             
1 56729U 23068V   26228.41631041  .00000545  00000+0  68579-4 0  9990
2 56729  86.6578   0.1963 0002473  94.5685 265.5819 14.80042147175272
IRIDIUM 179             
1 56730U 23068W   26228.81659596  .00000634  00000+0  80359-4 0  9990
2 56730  86.6806   9.1842 0002559  92.1748 267.9766 14.80048103175334
