IRIDIUM 106             
1 41917U 17003A   26085.14071069  .00000256  00000+0  84302-4 0  9995
2 41917  86.3949 123.2863 0002467 103.0079 257.1392 14.34221619481305
IRIDIUM 103             
1 41918U 17003B   26085.12803546  .00000190  00000+0  60670-4 0  9996
2 41918  86.3950 123.1918 0001950  92.5313 267.6106 14.34217207481326
IRIDIUM 109             
1 41919U 17003C   26085.13437767 -.00000026  00000+0 -16309-4 0  9996
2 41919  86.3952 123.2468 0002084  94.3212 265.8222 14.34217399481294
IRIDIUM 102             
1 41920U 17003D   26085.24219992  .00000243  00000+0  79689-4 0  9997
2 41920  86.3947 123.1273 0002330  93.8287 266.3175 14.34217135481395
IRIDIUM 105             
1 41921U 17003E   26085.06635121  .00000137  00000+0  41589-4 0  9994
2 41921  86.3908  91.6360 0002206  90.3966 269.7483 14.34399501483228
IRIDIUM 104             
1 41922U 17003F   26085.11534713  .00000060  00000+0  14372-4 0  9991
2 41922  86.3948 123.2217 0002058  86.8016 273.3415 14.34218587481360
IRIDIUM 114             
1 41923U 17003G   26085.33099830 -.00000036  00000+0 -20086-4 0  9996
2 41923  86.3952 123.1149 0001915  91.6968 268.4447 14.34217203481375
IRIDIUM 108             
1 41924U 17003H   26085.08021781 -.00000100  00000+0 -42670-4 0  9994
2 41924  86.3907  91.5207 0002276  89.3649 270.7807 14.34215858483192
IRIDIUM 112             
1 41925U 17003J   26085.10900773 -.00000007  00000+0 -94818-5 0  9993
2 41925  86.3949 123.0537 0002079  90.6396 269.5038 14.34217437481365
IRIDIUM 111             
1 41926U 17003K   26085.09632256 -.00000030  00000+0 -17938-4 0  9993
2 41926  86.3946 123.1275 0002101  95.2141 264.9294 14.34217260481343
IRIDIUM 113             
1 42803U 17039A   26085.28561152  .00000316  00000+0  10591-3 0  9996
2 42803  86.4031 356.8243 0002036  78.1128 282.0296 14.34220471459308
IRIDIUM 123             
1 42804U 17039B   26085.25730313  .00000323  00000+0  10825-3 0  9999
2 42804  86.4002  28.2813 0002081  88.9137 271.2298 14.34217836458064
IRIDIUM 120             
1 42805U 17039C   26085.27925077  .00000331  00000+0  11113-3 0  9995
2 42805  86.4019 356.6203 0002296  87.0809 273.0649 14.34217718459293
IRIDIUM 115             
1 42806U 17039D   26085.12956193  .00000411  00000+0  11607-3 0  9990
2 42806  86.4556 356.8002 0002081  95.6338 264.5100 14.43282149462283
IRIDIUM 118             
1 42807U 17039E   26085.28901562 -.00000063  00000+0 -29555-4 0  9995
2 42807  86.4002  28.2669 0002029  82.9045 277.2382 14.34217182458064
IRIDIUM 117             
1 42808U 17039F   26085.30804340  .00000303  00000+0  10113-3 0  9999
2 42808  86.4001  28.2170 0002082  87.9947 272.1487 14.34217350458096
IRIDIUM 126             
1 42809U 17039G   26085.26364551  .00000237  00000+0  77442-4 0  9995
2 42809  86.4003  28.2854 0002073  84.7311 275.4121 14.34217352458068
IRIDIUM 124             
1 42810U 17039H   26085.13297520  .00000346  00000+0  96876-4 0  9997
2 42810  86.4505 325.1071 0002116  87.6989 272.4455 14.43286604463135
IRIDIUM 128             
1 42811U 17039J   26085.25438430  .00000330  00000+0  11091-3 0  9996
2 42811  86.3939  59.8116 0002332  91.8869 268.2594 14.34217777458092
IRIDIUM 121             
1 42812U 17039K   26085.28266571  .00000285  00000+0  94677-4 0  9996
2 42812  86.4004  28.3045 0002278  85.4191 274.7265 14.34221213457945
IRIDIUM 133             
1 42955U 17061A   26085.28609668  .00000281  00000+0  93368-4 0  9999
2 42955  86.3940  59.9141 0002224  89.3120 270.8331 14.34217744442897
IRIDIUM 100             
1 42956U 17061B   26085.27975374  .00000217  00000+0  70315-4 0  9995
2 42956  86.3938  59.8372 0002222  89.2216 270.9235 14.34216951442896
IRIDIUM 122             
1 42957U 17061C   26084.96896669 -.00000099  00000+0 -42433-4 0  9990
2 42957  86.3937  59.9676 0002005  88.3680 271.7745 14.34216870442859
IRIDIUM 129             
1 42958U 17061D   26085.20364206  .00000087  00000+0  23910-4 0  9990
2 42958  86.3936  59.9350 0002212  79.3835 280.7610 14.34217517442906
IRIDIUM 119             
1 42959U 17061E   26084.96262288  .00000107  00000+0  31080-4 0  9990
2 42959  86.3939  60.0317 0002116  85.2255 274.9183 14.34217546442880
IRIDIUM 107             
1 42960U 17061F   26085.19095712  .00000032  00000+0  41846-5 0  9993
2 42960  86.3939  59.9567 0002024  94.0570 266.0858 14.34217621442922
IRIDIUM 132             
1 42961U 17061G   26085.19729999  .00000071  00000+0  18129-4 0  9995
2 42961  86.3935  59.9340 0002146  90.0407 270.1035 14.34217821442923
IRIDIUM 136             
1 42962U 17061H   26085.29878162  .00000266  00000+0  87827-4 0  9991
2 42962  86.3939  59.8981 0002081  87.0468 273.0966 14.34217884442956
IRIDIUM 139             
1 42963U 17061J   26085.30512420  .00000272  00000+0  90186-4 0  9995
2 42963  86.3938  59.9560 0002207  89.8136 270.3313 14.34217564442964
IRIDIUM 125             
1 42964U 17061K   26085.29243759  .00000125  00000+0  37473-4 0  9997
2 42964  86.3942  60.0210 0001631  88.2912 271.8471 14.34217340442974
IRIDIUM 135             
1 43070U 17083A   26085.26656570  .00000087  00000+0  24080-4 0  9993
2 43070  86.4026 356.6744 0002208  85.9260 274.2188 14.34217095432264
IRIDIUM 138             
1 43071U 17083B   26085.22216725  .00000207  00000+0  66897-4 0  9990
2 43071  86.4037 356.3758 0001945  76.8642 283.2771 14.34217129432243
IRIDIUM 116             
1 43072U 17083C   26085.19044263  .00000298  00000+0  99367-4 0  9991
2 43072  86.4025 356.6932 0002361  90.2799 269.8668 14.34222227432277
IRIDIUM 130             
1 43073U 17083D   26085.15873997  .00000599  00000+0  20672-3 0  9998
2 43073  86.4033 356.9734 0002115  92.4712 267.6726 14.34219161432214
IRIDIUM 151             
1 43074U 17083E   26085.27290778  .00000180  00000+0  57357-4 0  9999
2 43074  86.4027 356.7146 0002234  85.5567 274.5884 14.34217729432250
IRIDIUM 134             
1 43075U 17083F   26085.24119541  .00000198  00000+0  63783-4 0  9994
2 43075  86.4028 356.7348 0002151  88.5318 271.6125 14.34216188432211
IRIDIUM 137             
1 43076U 17083G   26085.25388155  .00000389  00000+0  13183-3 0  9995
2 43076  86.4028 356.8205 0002661  86.1657 273.9843 14.34214588432282
IRIDIUM 141             
1 43077U 17083H   26085.24752859  .00000264  00000+0  87295-4 0  9999
2 43077  86.4024 356.6586 0002100  83.0767 277.0668 14.34221282432284
IRIDIUM 153             
1 43078U 17083J   26085.06017852  .00000095  00000+0  26898-4 0  9991
2 43078  86.3983 325.2457 0001890  83.3452 276.7959 14.34217085433361
IRIDIUM 131             
1 43079U 17083K   26085.23485226  .00000118  00000+0  34942-4 0  9990
2 43079  86.4030 356.8443 0002209  82.2993 277.8453 14.34217375432210
IRIDIUM 144             
1 43249U 18030A   26085.13628692  .00000155  00000+0  48149-4 0  9992
2 43249  86.3983 325.1451 0002241  89.5011 270.6442 14.34218219418233
IRIDIUM 149             
1 43250U 18030B   26085.07286540  .00000245  00000+0  80313-4 0  9998
2 43250  86.3981 325.1396 0002095  84.4044 275.7390 14.34219143418244
IRIDIUM 157             
1 43251U 18030C   26085.09189154  .00000007  00000+0 -47214-5 0  9995
2 43251  86.3981 325.1829 0002138  86.5673 273.5768 14.34217197418225
IRIDIUM 140             
1 43252U 18030D   26085.18068808  .00000148  00000+0  45723-4 0  9995
2 43252  86.3983 325.1586 0002101  88.2579 271.8858 14.34217414418292
IRIDIUM 145             
1 43253U 18030E   26085.09823411  .00000047  00000+0  98448-5 0  9996
2 43253  86.3982 325.1655 0002346  94.0112 266.1352 14.34217544418210
IRIDIUM 146             
1 43254U 18030F   26085.21874406  .00000019  00000+0 -35083-6 0  9998
2 43254  86.3982 325.1276 0002250  88.8014 271.3439 14.34216849418240
IRIDIUM 148             
1 43255U 18030G   26085.11726224 -.00000016  00000+0 -12696-4 0  9993
2 43255  86.3983 325.2115 0002094  85.8676 274.2759 14.34217057418263
IRIDIUM 142             
1 43256U 18030H   26085.08555045  .00000044  00000+0  87232-5 0  9999
2 43256  86.3979 325.1172 0002318  92.4592 267.6869 14.34216750418224
IRIDIUM 150             
1 43257U 18030J   26085.12360418  .00000097  00000+0  27450-4 0  9996
2 43257  86.3983 325.2147 0002114  87.7633 272.3805 14.34216966418255
IRIDIUM 143             
1 43258U 18030K   26085.10457677 -.00000042  00000+0 -22224-4 0  9995
2 43258  86.3990 325.3118 0002097  91.0804 269.0632 14.34216774418181
IRIDIUM 161             
1 43478U 18047C   26085.11065793  .00000328  00000+0  91572-4 0  9999
2 43478  86.4469 123.2193 0002292  84.7985 275.3477 14.43284395413154
IRIDIUM 152             
1 43479U 18047D   26085.07729517  .00000072  00000+0  18534-4 0  9999
2 43479  86.3943 123.0936 0002166  90.5124 269.6320 14.34216853410574
IRIDIUM 147             
1 43480U 18047E   26085.08363833 -.00000065  00000+0 -30224-4 0  9991
2 43480  86.3946 123.0943 0002237  95.3569 264.7882 14.34216851410579
IRIDIUM 110             
1 43481U 18047F   26084.81090284  .00000014  00000+0 -20254-5 0  9995
2 43481  86.3949 123.2979 0002053  83.3715 276.7714 14.34218217410520
IRIDIUM 162             
1 43482U 18047G   26085.10434443  .00000319  00000+0  88937-4 0  9996
2 43482  86.4468 123.1140 0002174  96.0089 264.1359 14.43285460413147
IRIDIUM 160             
1 43569U 18061A   26085.10558332 -.00000006  00000+0 -92830-5 0  9995
2 43569  86.3908  91.5442 0002156  87.6121 272.5322 14.34217432401466
IRIDIUM 166             
1 43570U 18061B   26085.06118485  .00000016  00000+0 -13399-5 0  9996
2 43570  86.3906  91.5141 0002249  93.1258 267.0195 14.34217796401480
IRIDIUM 158             
1 43571U 18061C   26085.30854655 -.00000006  00000+0 -90873-5 0  9992
2 43571  86.3907  91.4207 0001990  91.7019 268.4405 14.34217457401488
IRIDIUM 165             
1 43572U 18061D   26085.05484265  .00000079  00000+0  21108-4 0  9993
2 43572  86.3905  91.5716 0002345  92.9782 267.1682 14.34218212401470
IRIDIUM 155             
1 43573U 18061E   26085.29586122  .00000006  00000+0 -49346-5 0  9991
2 43573  86.3904  91.3438 0002048  94.4430 265.7000 14.34217564401473
IRIDIUM 154             
1 43574U 18061F   26085.06752894  .00000023  00000+0  10619-5 0  9997
2 43574  86.3908  91.5690 0002420  93.1158 267.0315 14.34217715401491
IRIDIUM 163             
1 43575U 18061G   26085.11826774 -.00000044  00000+0 -22633-4 0  9996
2 43575  86.3905  91.4656 0002027  90.4734 269.6694 14.34217107401474
IRIDIUM 156             
1 43576U 18061H   26085.09289830  .00000074  00000+0  19427-4 0  9998
2 43576  86.3905  91.4834 0002197  95.4512 264.6934 14.34218154401464
IRIDIUM 164             
1 43577U 18061J   26085.28317626  .00000040  00000+0  70892-5 0  9992
2 43577  86.3906  91.4428 0002454  90.1169 270.0308 14.34217580401537
IRIDIUM 159             
1 43578U 18061K   26085.04215783 -.00000009  00000+0 -10134-4 0  9997
2 43578  86.3904  91.4822 0002140  86.9230 273.2211 14.34217376401461
IRIDIUM 180             
1 43922U 19002A   26085.25096028  .00000237  00000+0  77683-4 0  9991
2 43922  86.4003  28.2450 0002223  82.5279 277.6170 14.34216678377106
IRIDIUM 176             
1 43923U 19002B   26083.87902582  .00001054  00000+0  16325-3 0  9992
2 43923  86.6121  28.7731 0002544  87.7561 272.3947 14.72256676386843
IRIDIUM 168             
1 43924U 19002C   26085.24461825  .00000216  00000+0  70226-4 0  9996
2 43924  86.4008  28.3228 0002166  85.2700 274.8743 14.34217428377088
IRIDIUM 173             
1 43925U 19002D   26085.30170100  .00000337  00000+0  11326-3 0  9996
2 43925  86.3999  28.1908 0002089  85.6156 274.5278 14.34217460377078
IRIDIUM 169             
1 43926U 19002E   26085.20265280  .00000211  00000+0  62455-4 0  9991
2 43926  86.4196  59.8754 0001765 103.4823 256.6572 14.38606331378295
IRIDIUM 172             
1 43927U 19002F   26085.29535868  .00000139  00000+0  42396-4 0  9994
2 43927  86.4001  28.2012 0002223  81.0621 279.0826 14.34217500377084
IRIDIUM 175             
1 43928U 19002G   26085.23556463  .00000354  00000+0  98515-4 0  9996
2 43928  86.4535 325.2143 0004799 116.9902 243.1789 14.43578858387012
IRIDIUM 171             
1 43929U 19002H   26085.27632934  .00000242  00000+0  79289-4 0  9992
2 43929  86.4009  28.5062 0002303  90.2576 269.8884 14.34216563377070
IRIDIUM 170             
1 43930U 19002J   26085.24457556  .00001103  00000+0  17098-3 0  9992
2 43930  86.6125  28.2055 0002508  82.7417 277.4085 14.72243264387056
IRIDIUM 167             
1 43931U 19002K   26085.26998853  .00000036  00000+0  58996-5 0  9993
2 43931  86.4002  28.2336 0002252  94.9187 265.2266 14.34217197377077
IRIDIUM 181             
1 56726U 23068S   26085.04984138  .00000151  00000+0  38953-4 0  9991
2 56726  86.4444  91.5523 0002586  86.2513 273.8983 14.43311560150441
IRIDIUM 177             
1 56727U 23068T   26085.30782975  .00000935  00000+0  11964-3 0  9998
2 56727  86.2012   8.1395 0002190  84.4500 275.6971 14.80211038154103
IRIDIUM 174             
1 56728U 23068U   26085.23220690  .00001097  00000+0  17008-3 0  9997
2 56728  86.6131  28.3498 0002415  77.3709 282.7779 14.72261819153815
IRIDIUM 178             
1 56729U 23068V   26085.29691724  .00000833  00000+0  10621-3 0  9995
2 56729  86.6509  59.9896 0002841  91.3517 268.8030 14.80224990154109
IRIDIUM 179             
1 56730U 23068W   26085.02111743  .00000562  00000+0  70500-4 0  9998
2 56730  86.6735  68.8434 0002564  95.2524 264.8990 14.80240907154064
