IRIDIUM 106             
1 41917U 17003A   26052.69835836  .00000204  00000+0  65635-4 0  9990
2 41917  86.4009 136.8396 0001728  99.6181 260.5210 14.34217287476652
IRIDIUM 103             
1 41918U 17003B   26052.68567484 -.00000032  00000+0 -18497-4 0  9996
2 41918  86.4012 136.7447 0002254  89.1953 270.9501 14.34217413476670
IRIDIUM 109             
1 41919U 17003C   26052.69201678  .00000012  00000+0 -28968-5 0  9990
2 41919  86.4013 136.8003 0002066  96.0584 264.0848 14.34217672476641
IRIDIUM 102             
1 41920U 17003D   26052.73007256  .00000072  00000+0  18712-4 0  9993
2 41920  86.4008 136.7102 0002213  98.3827 261.7620 14.34218136476733
IRIDIUM 105             
1 41921U 17003E   26052.69783135  .00000226  00000+0  73250-4 0  9995
2 41921  86.3944 105.1862 0002246  94.3284 265.8169 14.34392674478582
IRIDIUM 104             
1 41922U 17003F   26052.67298754  .00000205  00000+0  66226-4 0  9994
2 41922  86.4008 136.7744 0002494  92.9926 267.1555 14.34219492476719
IRIDIUM 114             
1 41923U 17003G   26052.67933163  .00000134  00000+0  40795-4 0  9999
2 41923  86.4009 136.7555 0002328  91.9691 268.1771 14.34217002476698
IRIDIUM 108             
1 41924U 17003H   26052.63785316  .00000018  00000+0 -74619-6 0  9997
2 41924  86.3938 105.0995 0002122  98.6461 261.4975 14.34217489478544
IRIDIUM 112             
1 41925U 17003J   26052.73641376  .00000251  00000+0  82389-4 0  9995
2 41925  86.4007 136.5795 0002327  96.7426 263.4035 14.34218551476725
IRIDIUM 111             
1 41926U 17003K   26052.72372990 -.00000011  00000+0 -10924-4 0  9990
2 41926  86.4009 136.6524 0002049  95.0084 265.1346 14.34217486476700
IRIDIUM 113             
1 42803U 17039A   26052.42462048 -.00000003  00000+0 -79668-5 0  9997
2 42803  86.4002  10.5414 0002242  87.2178 272.9275 14.34217486454598
IRIDIUM 123             
1 42804U 17039B   26052.53586588  .00000076  00000+0  19957-4 0  9998
2 42804  86.3944  41.9590 0002135  80.9976 279.1461 14.34218275453371
IRIDIUM 120             
1 42805U 17039C   26052.41827717 -.00000082  00000+0 -36303-4 0  9991
2 42805  86.3991  10.3417 0001897  88.5654 271.5759 14.34217168454583
IRIDIUM 115             
1 42806U 17039D   26052.40540224  .00000343  00000+0  96033-4 0  9990
2 42806  86.4533  10.4594 0001973  77.5834 282.5588 14.43278353457563
IRIDIUM 118             
1 42807U 17039E   26052.49780198  .00000137  00000+0  41959-4 0  9994
2 42807  86.3940  41.9734 0002336  87.7864 272.3599 14.34213932453365
IRIDIUM 117             
1 42808U 17039F   26052.51683864 -.00000249  00000+0 -95932-4 0  9996
2 42808  86.3943  41.9243 0002166  82.7810 277.3632 14.34216130453390
IRIDIUM 126             
1 42809U 17039G   26052.47244119  .00000013  00000+0 -25662-5 0  9990
2 42809  86.3939  41.9923 0002147  82.6949 277.4490 14.34217211453363
IRIDIUM 124             
1 42810U 17039H   26052.33934706  .00000398  00000+0  11250-3 0  9996
2 42810  86.4542 338.8025 0002157  82.3135 277.8310 14.43258989458404
IRIDIUM 128             
1 42811U 17039J   26052.60271487 -.00000134  00000+0 -54772-4 0  9994
2 42811  86.3907  73.4798 0001882  94.6925 265.4485 14.34217013453410
IRIDIUM 121             
1 42812U 17039K   26052.49146814  .00000014  00000+0 -19639-5 0  9997
2 42812  86.3945  42.0113 0002143  89.3895 270.7546 14.34217249453243
IRIDIUM 133             
1 42955U 17061A   26052.49489168  .00000000  00000+0 -69219-5 0  9996
2 42955  86.3911  73.6405 0002141  91.2134 268.9307 14.34217574438196
IRIDIUM 100             
1 42956U 17061B   26052.48854891  .00000063  00000+0  15274-4 0  9994
2 42956  86.3909  73.5643 0002164  90.5820 269.5624 14.34217664438195
IRIDIUM 122             
1 42957U 17061C   26052.59636918 -.00000052  00000+0 -25515-4 0  9994
2 42957  86.3906  73.5187 0002105  88.1485 271.9952 14.34216104438213
IRIDIUM 129             
1 42958U 17061D   26052.48220767  .00000023  00000+0  11197-5 0  9992
2 42958  86.3909  73.6327 0002582  92.5869 267.5622 14.34217727438215
IRIDIUM 119             
1 42959U 17061E   26052.59003184  .00000049  00000+0  10310-4 0  9990
2 42959  86.3911  73.5828 0002358  89.0358 271.1108 14.34217743438240
IRIDIUM 107             
1 42960U 17061F   26052.46952158  .00000085  00000+0  23356-4 0  9996
2 42960  86.3911  73.6537 0002049  83.9992 276.1437 14.34217914438233
IRIDIUM 132             
1 42961U 17061G   26052.61540157  .00000000  00000+0 -72339-5 0  9990
2 42961  86.3907  73.5729 0002026  88.7637 271.3791 14.34217348438258
IRIDIUM 136             
1 42962U 17061H   26052.50757782  .00000015  00000+0 -16652-5 0  9995
2 42962  86.3909  73.6240 0002240  88.1937 271.9515 14.34217564438255
IRIDIUM 139             
1 42963U 17061J   26052.51392001  .00000048  00000+0  99072-5 0  9998
2 42963  86.3912  73.6817 0002112  90.7385 269.4052 14.34217724438261
IRIDIUM 125             
1 42964U 17061K   26052.50123540  .00000021  00000+0  34958-6 0  9992
2 42964  86.3911  73.7458 0002283  77.2662 282.8789 14.34217465438279
IRIDIUM 135             
1 43070U 17083A   26052.40557963  .00000277  00000+0  92021-4 0  9990
2 43070  86.4001  10.3932 0002217  85.9783 274.1667 14.34215823427554
IRIDIUM 138             
1 43071U 17083B   26052.84957456  .00000102  00000+0  29466-4 0  9990
2 43071  86.4014   9.8852 0002531  80.3412 279.8070 14.34217924427600
IRIDIUM 116             
1 43072U 17083C   26052.81786021 -.00000004  00000+0 -85188-5 0  9993
2 43072  86.3994  10.2086 0001777  89.7276 270.4124 14.34217444427631
IRIDIUM 130             
1 43073U 17083D   26052.43730512  .00000110  00000+0  32357-4 0  9991
2 43073  86.4008  10.6312 0001919  82.5338 277.6076 14.34217650427525
IRIDIUM 151             
1 43074U 17083E   26052.41193527  .00000034  00000+0  52027-5 0  9991
2 43074  86.4003  10.4333 0002174  85.6190 274.5254 14.34217700427548
IRIDIUM 134             
1 43075U 17083F   26052.38022207  .00000057  00000+0  13204-4 0  9992
2 43075  86.4001  10.4527 0002056  81.9646 278.1783 14.34217834427507
IRIDIUM 137             
1 43076U 17083G   26052.39290723  .00000040  00000+0  71896-5 0  9998
2 43076  86.4005  10.5379 0002065  98.7156 261.4274 14.34217736427578
IRIDIUM 141             
1 43077U 17083H   26052.38657201  .00000037  00000+0  62572-5 0  9993
2 43077  86.4000  10.3777 0002321  84.2086 275.9375 14.34213442427573
IRIDIUM 153             
1 43078U 17083J   26052.33874396  .00000051  00000+0  10988-4 0  9994
2 43078  86.4021 338.9101 0002292  76.8778 283.2673 14.34217873428676
IRIDIUM 131             
1 43079U 17083K   26052.23434276 -.00000005  00000+0 -89615-5 0  9998
2 43079  86.4000  10.6199 0002169  86.4368 273.7075 14.34217678427481
IRIDIUM 144             
1 43249U 18030A   26052.34508586  .00000035  00000+0  52945-5 0  9995
2 43249  86.4019 338.8393 0001981  83.7578 276.3843 14.34217729413535
IRIDIUM 149             
1 43250U 18030B   26052.35142887  .00000070  00000+0  18070-4 0  9995
2 43250  86.4017 338.8049 0002228  83.4471 276.6978 14.34217579413554
IRIDIUM 157             
1 43251U 18030C   26052.71929898  .00000035  00000+0  55472-5 0  9990
2 43251  86.4018 338.7014 0002186  86.1108 274.0338 14.34217765413589
IRIDIUM 140             
1 43252U 18030D   26052.73832657  .00000019  00000+0 -42554-6 0  9990
2 43252  86.4013 338.7064 0001971  81.6197 278.5222 14.34217523413649
IRIDIUM 145             
1 43253U 18030E   26052.72563619  .00000288  00000+0  95640-4 0  9998
2 43253  86.4018 338.6846 0001785  86.4435 273.6965 14.34216585413572
IRIDIUM 146             
1 43254U 18030F   26052.70661318 -.00000007  00000+0 -96756-5 0  9993
2 43254  86.4013 338.7054 0001891  87.0692 273.0720 14.34217367413583
IRIDIUM 148             
1 43255U 18030G   26052.32605714  .00000143  00000+0  43948-4 0  9993
2 43255  86.4021 338.9051 0002130  85.2938 274.8501 14.34217052413567
IRIDIUM 142             
1 43256U 18030H   26052.71295566  .00000034  00000+0  50314-5 0  9992
2 43256  86.4016 338.6370 0001800  86.5732 273.5669 14.34217778413580
IRIDIUM 150             
1 43257U 18030J   26052.75101219  .00000069  00000+0  17495-4 0  9998
2 43257  86.4020 338.7336 0002056  83.6914 276.4516 14.34217001413619
IRIDIUM 143             
1 43258U 18030K   26052.73198351  .00000045  00000+0  90914-5 0  9992
2 43258  86.4024 338.8295 0001925  85.5519 274.5896 14.34217852413541
IRIDIUM 161             
1 43478U 18047C   26052.73314474  .00000331  00000+0  92321-4 0  9991
2 43478  86.4530 136.7474 0002481  97.1498 262.9985 14.43275681408485
IRIDIUM 152             
1 43479U 18047D   26052.70470265 -.00000011  00000+0 -10855-4 0  9999
2 43479  86.4004 136.6194 0002170  93.6124 266.5320 14.34217443405934
IRIDIUM 147             
1 43480U 18047E   26052.71104445  .00000042  00000+0  78275-5 0  9999
2 43480  86.4004 136.6200 0002097  99.4270 260.7163 14.34217913405931
IRIDIUM 110             
1 43481U 18047F   26052.71738853 -.00000003  00000+0 -79818-5 0  9999
2 43481  86.4009 136.7059 0002523  95.3652 264.7832 14.34217570405928
IRIDIUM 162             
1 43482U 18047G   26052.72683628  .00000269  00000+0  74069-4 0  9994
2 43482  86.4526 136.6425 0002139  91.4510 268.6936 14.43274728408471
IRIDIUM 160             
1 43569U 18061A   26052.66322401  .00000048  00000+0  10124-4 0  9995
2 43569  86.3942 105.1221 0002362  96.1920 263.9544 14.34217679396817
IRIDIUM 166             
1 43570U 18061B   26052.68859316  .00000021  00000+0  29884-6 0  9995
2 43570  86.3939 105.0632 0002014  97.3863 262.7562 14.34217627396846
IRIDIUM 158             
1 43571U 18061C   26052.65688070  .00000122  00000+0  36399-4 0  9999
2 43571  86.3937 105.0864 0002189  90.4388 269.7058 14.34217390396801
IRIDIUM 165             
1 43572U 18061D   26052.68225060  .00000020  00000+0  11118-7 0  9991
2 43572  86.3940 105.1200 0001981  97.3364 262.8057 14.34217712396834
IRIDIUM 155             
1 43573U 18061E   26052.64419530  .00000016  00000+0 -13048-5 0  9993
2 43573  86.3937 105.0105 0001962  92.1350 268.0071 14.34217483396795
IRIDIUM 154             
1 43574U 18061F   26052.69495747  .00000207  00000+0  66917-4 0  9996
2 43574  86.3942 105.1177 0002073  98.6710 261.4720 14.34216504396855
IRIDIUM 163             
1 43575U 18061G   26052.67590880 -.00000032  00000+0 -18441-4 0  9996
2 43575  86.3938 105.0442 0002168  92.1860 267.9584 14.34217230396828
IRIDIUM 156             
1 43576U 18061H   26052.65053755  .00000005  00000+0 -52723-5 0  9991
2 43576  86.3940 105.0619 0001912  91.9175 268.2240 14.34217557396814
IRIDIUM 164             
1 43577U 18061J   26052.70127889 -.00000012  00000+0 -11338-4 0  9993
2 43577  86.3940 105.0794 0002091 100.2466 259.8966 14.34217387396862
IRIDIUM 159             
1 43578U 18061K   26052.66957262  .00000193  00000+0  61777-4 0  9995
2 43578  86.3939 105.0321 0002363  95.5687 264.5778 14.34220941396820
IRIDIUM 180             
1 43922U 19002A   26052.45975439 -.00000029  00000+0 -17337-4 0  9990
2 43922  86.3939  41.9522 0002222  88.1665 271.9785 14.34216572372405
IRIDIUM 176             
1 43923U 19002B   26052.61388545  .00000377  00000+0  55818-4 0  9995
2 43923  86.6065  41.8472 0002351  85.5197 274.6288 14.72247807382244
IRIDIUM 168             
1 43924U 19002C   26052.45341372  .00000004  00000+0 -58093-5 0  9992
2 43924  86.3943  42.0290 0002114  87.3299 272.8139 14.34217427372380
IRIDIUM 173             
1 43925U 19002D   26052.51049520  .00000131  00000+0  39541-4 0  9996
2 43925  86.3945  41.8981 0002240  84.3296 275.8155 14.34216818372374
IRIDIUM 169             
1 43926U 19002E   26052.51144232  .00000125  00000+0  34225-4 0  9990
2 43926  86.4166  73.5603 0001998  71.0377 289.1037 14.38605675373595
IRIDIUM 172             
1 43927U 19002F   26052.50415144  .00000121  00000+0  36011-4 0  9994
2 43927  86.3940  41.9085 0002356  90.1309 270.0156 14.34215601372383
IRIDIUM 175             
1 43928U 19002G   26052.74522652  .00000882  00000+0  13603-3 0  9999
2 43928  86.1549 340.2203 0001569 109.8073 250.3313 14.72238932382252
IRIDIUM 171             
1 43929U 19002H   26052.48512346 -.00000009  00000+0 -10308-4 0  9993
2 43929  86.3950  42.2106 0001980  88.6728 271.4695 14.34216801372378
IRIDIUM 170             
1 43930U 19002J   26052.48412631  .00000403  00000+0  59930-4 0  9991
2 43930  86.6064  41.9047 0002453  90.3404 269.8095 14.72261983382230
IRIDIUM 167             
1 43931U 19002K   26052.47878559  .00000151  00000+0  46810-4 0  9999
2 43931  86.3943  41.9407 0001832  85.0381 275.1024 14.34218310372379
IRIDIUM 181             
1 56726U 23068S   26052.67302155  .00000237  00000+0  64290-4 0  9995
2 56726  86.4477 105.0995 0002413 103.4120 256.7350 14.43307070145775
IRIDIUM 177             
1 56727U 23068T   26052.85905063  .00001253  00000+0  16146-3 0  9998
2 56727  86.1975  23.5367 0002501  83.4119 276.7386 14.80224019149302
IRIDIUM 174             
1 56728U 23068U   26052.47177148  .00000455  00000+0  68318-4 0  9994
2 56728  86.6072  42.0457 0002597  88.6932 271.4583 14.72250382148995
IRIDIUM 178             
1 56729U 23068V   26052.51014032  .00000456  00000+0  56601-4 0  9995
2 56729  86.6482  73.7102 0002044  99.7310 260.4142 14.80231188149250
IRIDIUM 179             
1 56730U 23068W   26052.50475595  .00000739  00000+0  93869-4 0  9992
2 56730  86.6724  82.3558 0002196  89.8547 270.2927 14.80228765149259
