EUTELSAT 174A           
1 28924U 05052A   26216.83649769  .00000014  00000+0  00000+0 0  9999
2 28924   4.3356  75.9110 0006017  58.7909 293.8022  1.00270236 52816
EUTELSAT 33F            
1 29270U 06032A   26217.09381973  .00000162  00000+0  00000+0 0  9996
2 29270   1.7820  81.6690 0003605  51.1502 247.7074  1.00268666 47791
EUTELSAT HOTBIRD 13C    
1 33459U 08065A   26217.07961407 -.00000277  00000+0  00000+0 0  9990
2 33459   3.0700  78.5941 0003194  68.2084 145.1618  1.00268835 47836
EUTELSAT 36B            
1 36101U 09065A   26217.11989361  .00000120  00000+0  00000+0 0  9998
2 36101   0.6084  81.3539 0005886  54.3551 271.6067  1.00271508 61190
EUTELSAT KA-SAT 9A      
1 37258U 10069A   26217.10808856  .00000070  00000+0  00000+0 0  9990
2 37258   0.0727 335.0673 0005084 182.4684 204.0501  1.00276088 44495
EUTELSAT 7 WEST A       
1 37816U 11051A   26217.08575970 -.00000052  00000+0  00000+0 0  9998
2 37816   0.0716 326.1770 0005393 181.5632 189.4839  1.00273039 54368
EUTELSAT 16A            
1 37836U 11057A   26217.10253343  .00000112  00000+0  00000+0 0  9992
2 37836   0.0469  38.9120 0005661  94.4022 233.2311  1.00271171  7822
EUTELSAT 21B            
1 38992U 12062B   26217.10253343  .00000138  00000+0  00000+0 0  9991
2 38992   0.0680 350.1128 0003041 144.5464 237.4779  1.00271788 50315
EUTELSAT 70B            
1 39020U 12069A   26217.15739069 -.00000036  00000+0  00000+0 0  9998
2 39020   0.0662 339.4224 0003482 156.5972 304.8371  1.00273607 50006
EUTELSAT 117 WEST A     
1 39122U 13012A   26217.06413032 -.00000006  00000+0  00000+0 0  9996
2 39122   0.0505 271.2597 0003031 224.5796  84.0686  1.00276147 48927
EUTELSAT 7B             
1 39163U 13022A   26217.08861971  .00000056  00000+0  00000+0 0  9997
2 39163   0.0686 344.5635 0002447  70.3138 297.6574  1.00271576 48431
EXPRESS-AT1             
1 39612U 14010A   26217.10391924 -.00000029  00000+0  00000+0 0  9994
2 39612   0.3773  85.2827 0004945  62.6058 272.0671  1.00312850 45301
EXPRESS-AT2             
1 39613U 14010B   26217.21294800  .00000087  00000+0  00000+0 0  9995
2 39613   0.0061  40.4135 0000109  14.1138  31.8952  1.00271155 44981
EUTELSAT 3B             
1 39773U 14030A   26217.10808856  .00000028  00000+0  00000+0 0  9999
2 39773   0.0666 338.0979 0004136 161.3671 216.2194  1.00274123 44550
EUTELSAT 115 WEST B     
1 40425U 15010B   26216.70807200 -.00000016  00000+0  00000+0 0  9999
2 40425   0.0109 206.8252 0000135 249.0325 357.3998  1.00269349 41874
EUTELSAT 8 WEST B       
1 40875U 15039B   26217.08567303 -.00000058  00000+0  00000+0 0  9994
2 40875   0.0647 356.0562 0003691 132.2231 208.1954  1.00271720 40141
EUTELSAT 9B             
1 41310U 16005A   26217.10808856  .00000070  00000+0  00000+0 0  9990
2 41310   0.0155  42.2676 0001404 128.0754 191.2427  1.00275088 38609
EUTELSAT 65 WEST A      
1 41382U 16014A   26217.03350707 -.00000268  00000+0  00000+0 0  9998
2 41382   0.0619 316.6139 0002297 176.8456 127.0071  1.00271602 38011
EUTELSAT 117 WEST B     
1 41589U 16038B   26217.06404366 -.00000004  00000+0  00000+0 0  9995
2 41589   0.0027  44.0929 0000294  63.5257 112.0503  1.00271974 37158
EUTELSAT 172B           
1 42741U 17029B   26216.96155845  .00000002  00000+0  00000+0 0  9997
2 42741   0.0265 125.3457 0000055 276.6182  69.7154  1.00271612 34236
EUTELSAT 7C             
1 44334U 19034B   26217.10808856  .00000056  00000+0  00000+0 0  9998
2 44334   0.0767 180.2547 0003270 302.0661 237.2428  1.00271330  7324
EUTELSAT 5 WEST B       
1 44624U 19067A   26217.08619303 -.00000034  00000+0  00000+0 0  9997
2 44624   0.0870 310.2580 0003154 188.2805 201.1212  1.00271921 24919
EUTELSAT KONNECT        
1 45027U 20005B   26217.10808856  .00000057  00000+0  00000+0 0  9999
2 45027   0.0636  97.6172 0001656 122.5934 139.5734  1.00268142 24823
EUTELSAT QUANTUM        
1 49056U 21069B   26217.02538531  .00000134  00000+0  00000+0 0  9993
2 49056   0.0423 270.9572 0002227 232.4600 227.0098  1.00271950 18414
EUTELSAT KONNECT VHTS   
1 53765U 22110A   26216.30361448  .00000025  00000+0  00000+0 0  9993
2 53765   0.0548 100.9397 0002939   7.7973 316.1363  1.00268206  7319
EUTELSAT HOTBIRD 13F    
1 54048U 22134A   26216.59084778  .00000095  00000+0  00000+0 0  9990
2 54048   0.0561 276.9949 0001892  82.7295 179.1417  1.00271010 13864
EUTELSAT HOTBIRD 13G    
1 54225U 22146A   26217.10808856  .00000096  00000+0  00000+0 0  9990
2 54225   0.0535 241.9304 0002440 286.4473 197.1974  1.00278059  7951
EUTELSAT 10B            
1 54259U 22157A   26217.10808856  .00000078  00000+0  00000+0 0  9999
2 54259   0.0524  98.6804 0001816  22.0651 241.8570  1.00281465 13519
EUTELSAT 36D            
1 59346U 24059A   26217.03447644  .00000164  00000+0  00000+0 0  9996
2 59346   0.0176  94.8510 0000205 154.4047 112.5973  1.00272273  8631
