IRIDIUM 106             
1 41917U 17003A   26139.14155383  .00000022  00000+0  67185-6 0  9990
2 41917  86.3944 100.6987 0002276  76.8241 283.3208 14.34217666489045
IRIDIUM 103             
1 41918U 17003B   26139.12886936  .00000067  00000+0  16694-4 0  9990
2 41918  86.3945 100.6039 0002569  88.4010 271.7480 14.34217981489068
IRIDIUM 109             
1 41919U 17003C   26139.13521157  .00000024  00000+0  16139-5 0  9991
2 41919  86.3946 100.6602 0002353  87.2301 272.9164 14.34217644489032
IRIDIUM 102             
1 41920U 17003D   26139.17326227  .00000165  00000+0  51748-4 0  9998
2 41920  86.3943 100.5684 0002247  86.2795 273.8658 14.34219613489124
IRIDIUM 105             
1 41921U 17003E   26139.20167410  .00000189  00000+0  60362-4 0  9998
2 41921  86.3968  68.9859 0002364  91.4810 268.6657 14.34215434490983
IRIDIUM 104             
1 41922U 17003F   26139.18595225  .00000067  00000+0  16832-4 0  9993
2 41922  86.3945 100.6053 0002444  91.5402 268.6074 14.34217835489119
IRIDIUM 114             
1 41923U 17003G   26139.12252653  .00000034  00000+0  50059-5 0  9997
2 41923  86.3944 100.6151 0002459  88.6649 271.4829 14.34217785489084
IRIDIUM 108             
1 41924U 17003H   26139.08104721  .00000057  00000+0  13169-4 0  9990
2 41924  86.3963  68.9281 0002165  84.6956 275.4486 14.34217887490939
IRIDIUM 112             
1 41925U 17003J   26139.17961002  .00000016  00000+0 -12023-5 0  9999
2 41925  86.3941 100.4345 0002364  89.1172 271.0294 14.34217555489119
IRIDIUM 111             
1 41926U 17003K   26139.16692449  .00000031  00000+0  41318-5 0  9990
2 41926  86.3942 100.5098 0002366  86.5319 273.6148 14.34217680489095
IRIDIUM 113             
1 42803U 17039A   26139.07712056 -.00000002  00000+0 -76845-5 0  9994
2 42803  86.3963 334.3525 0002164  92.5474 267.5969 14.34217416467018
IRIDIUM 123             
1 42804U 17039B   26139.11859873  .00000036  00000+0  57504-5 0  9995
2 42804  86.3990   5.7891 0002300  82.9392 277.2066 14.34217952465781
IRIDIUM 120             
1 42805U 17039C   26139.07078830  .00000006  00000+0 -50486-5 0  9997
2 42805  86.3949 334.1413 0002016  86.2292 273.9134 14.34214625467005
IRIDIUM 115             
1 42806U 17039D   26138.99961949  .00000122  00000+0  30243-4 0  9996
2 42806  86.4490 334.2960 0002302  82.3047 277.8415 14.43281336470056
IRIDIUM 118             
1 42807U 17039E   26139.15031189  .00000158  00000+0  49487-4 0  9999
2 42807  86.3990   5.7741 0002229  86.5109 273.6342 14.34217703465785
IRIDIUM 117             
1 42808U 17039F   26139.09957095  .00000020  00000+0  44593-7 0  9990
2 42808  86.3986   5.7529 0002172  83.9258 276.2185 14.34217742465808
IRIDIUM 126             
1 42809U 17039G   26139.12493684  .00000173  00000+0  54719-4 0  9991
2 42809  86.3990   5.7933 0002312  87.2673 272.8787 14.34219918465781
IRIDIUM 124             
1 42810U 17039H   26139.00276816  .00000236  00000+0  64075-4 0  9992
2 42810  86.4457 302.5683 0002237  90.5393 269.6064 14.43280779470909
IRIDIUM 128             
1 42811U 17039J   26139.18544811  .00000044  00000+0  86321-5 0  9991
2 42811  86.3989  37.2721 0002143  78.8450 281.2986 14.34217871465824
IRIDIUM 121             
1 42812U 17039K   26139.14397709  .00000176  00000+0  55736-4 0  9991
2 42812  86.3990   5.8128 0002109  85.3812 274.7625 14.34216935465665
IRIDIUM 133             
1 42955U 17061A   26138.44970710  .00000161  00000+0  50260-4 0  9996
2 42955  86.3992  37.6966 0002256  84.1666 275.9787 14.34218482450514
IRIDIUM 100             
1 42956U 17061B   26139.14104979  .00000045  00000+0  89288-5 0  9995
2 42956  86.3990  37.3270 0002206  83.6082 276.5365 14.34217904450617
IRIDIUM 122             
1 42957U 17061C   26139.17910429  .00000165  00000+0  51745-4 0  9993
2 42957  86.3991  37.3113 0002310  84.7240 275.4219 14.34218921450626
IRIDIUM 129             
1 42958U 17061D   26139.13470730  .00000062  00000+0  15217-4 0  9996
2 42958  86.3991  37.3965 0002240  91.3955 268.7497 14.34217901450632
IRIDIUM 119             
1 42959U 17061E   26139.10299431  .00000066  00000+0  16507-4 0  9998
2 42959  86.3993  37.4055 0002321  85.9131 274.2330 14.34218077450645
IRIDIUM 107             
1 42960U 17061F   26139.19179090  .00000054  00000+0  12275-4 0  9992
2 42960  86.3992  37.3894 0002385  79.5923 280.5541 14.34217948450666
IRIDIUM 132             
1 42961U 17061G   26139.19812419  .00000186  00000+0  59249-4 0  9990
2 42961  86.3992  37.3664 0002288  85.5310 274.6147 14.34215668450664
IRIDIUM 136             
1 42962U 17061H   26139.09030881  .00000057  00000+0  13265-4 0  9990
2 42962  86.3992  37.4180 0002357  84.5077 275.6387 14.34217163450664
IRIDIUM 139             
1 42963U 17061J   26139.16642000  .00000003  00000+0 -58926-5 0  9997
2 42963  86.3992  37.4476 0002067  80.7313 279.4116 14.34217556450682
IRIDIUM 125             
1 42964U 17061K   26139.15373451  .00000057  00000+0  13434-4 0  9990
2 42964  86.3995  37.5136 0002736  85.6576 274.4932 14.34217194450698
IRIDIUM 135             
1 43070U 17083A   26139.05809243  .00000002  00000+0 -63499-5 0  9993
2 43070  86.3956 334.1990 0002042  88.2970 271.8460 14.34217449439973
IRIDIUM 138             
1 43071U 17083B   26139.08346345 -.00000025  00000+0 -16006-4 0  9993
2 43071  86.3970 333.8795 0002266  93.4043 266.7412 14.34217278439965
IRIDIUM 116             
1 43072U 17083C   26139.05175132  .00000008  00000+0 -40951-5 0  9992
2 43072  86.3958 334.1879 0001852  81.0044 279.1361 14.34218433439991
IRIDIUM 130             
1 43073U 17083D   26139.08980404  .00000047  00000+0  98555-5 0  9997
2 43073  86.3966 334.4446 0002181  81.8070 278.3373 14.34218234439945
IRIDIUM 151             
1 43074U 17083E   26139.06443338  .00000075  00000+0  19886-4 0  9996
2 43074  86.3960 334.2399 0002133  88.3554 271.7886 14.34217563439963
IRIDIUM 134             
1 43075U 17083F   26139.03271786  .00000105  00000+0  30406-4 0  9995
2 43075  86.3961 334.2608 0002205  85.6627 274.4820 14.34219181439921
IRIDIUM 137             
1 43076U 17083G   26139.04540575  .00000068  00000+0  17052-4 0  9992
2 43076  86.3963 334.3477 0001694  87.7243 272.4147 14.34218111439996
IRIDIUM 141             
1 43077U 17083H   26139.03906424  .00000073  00000+0  18842-4 0  9995
2 43077  86.3958 334.1826 0002221  90.2603 269.8847 14.34217515439997
IRIDIUM 153             
1 43078U 17083J   26139.20054963 -.00000012  00000+0 -11526-4 0  9994
2 43078  86.3934 302.5966 0002221  93.3596 266.7854 14.34217109441122
IRIDIUM 131             
1 43079U 17083K   26139.09614777 -.00000001  00000+0 -74626-5 0  9996
2 43079  86.3961 334.3427 0002029  90.1040 270.0388 14.34217452439930
IRIDIUM 144             
1 43249U 18030A   26138.99758212  .00000123  00000+0  36700-4 0  9992
2 43249  86.3931 302.6111 0002079  88.4396 271.7038 14.34219215425959
IRIDIUM 149             
1 43250U 18030B   26139.00392781  .00000084  00000+0  22816-4 0  9991
2 43250  86.3932 302.5760 0002211  93.1314 267.0135 14.34218396425979
IRIDIUM 157             
1 43251U 18030C   26139.16249302  .00000062  00000+0  15139-4 0  9995
2 43251  86.3931 302.5620 0002180  91.1602 268.9843 14.34218086425979
IRIDIUM 140             
1 43252U 18030D   26138.83267919  .00000010  00000+0 -33248-5 0  9999
2 43252  86.3932 302.7129 0002188  89.9988 270.1459 14.34216736425986
IRIDIUM 145             
1 43253U 18030E   26139.16883604  .00000147  00000+0  45411-4 0  9996
2 43253  86.3934 302.5443 0001940  84.3079 275.8338 14.34216748425960
IRIDIUM 146             
1 43254U 18030F   26139.14980817  .00000123  00000+0  36776-4 0  9997
2 43254  86.3934 302.5646 0002086  89.2458 270.8976 14.34217162425978
IRIDIUM 148             
1 43255U 18030G   26139.18786657  .00000148  00000+0  45872-4 0  9992
2 43255  86.3934 302.5914 0002061  93.2073 266.9359 14.34219665426015
IRIDIUM 142             
1 43256U 18030H   26139.15615523  .00000192  00000+0  61512-4 0  9991
2 43256  86.3925 302.4942 0001903  83.6525 276.4888 14.34218329425978
IRIDIUM 150             
1 43257U 18030J   26139.19420610  .00000002  00000+0 -62035-5 0  9990
2 43257  86.3935 302.5944 0002136  90.1160 270.0281 14.34217507426009
IRIDIUM 143             
1 43258U 18030K   26139.17517867  .00000041  00000+0  74703-5 0  9997
2 43258  86.3936 302.6935 0002097  88.3746 271.7690 14.34217696425939
IRIDIUM 161             
1 43478U 18047C   26139.18869869  .00000200  00000+0  53439-4 0  9991
2 43478  86.4465 100.5958 0002312  92.9843 267.1623 14.43282389420953
IRIDIUM 152             
1 43479U 18047D   26139.14789653  .00000018  00000+0 -55155-6 0  9997
2 43479  86.3938 100.4736 0002363  88.7602 271.3864 14.34217671418327
IRIDIUM 147             
1 43480U 18047E   26138.59609070  .00000061  00000+0  14575-4 0  9997
2 43480  86.3940 100.7091 0002245  84.1842 275.9610 14.34217534418242
IRIDIUM 110             
1 43481U 18047F   26139.16058149  .00000044  00000+0  87420-5 0  9998
2 43481  86.3943 100.5641 0002429  94.9126 265.2347 14.34217644418312
IRIDIUM 162             
1 43482U 18047G   26139.18239260  .00000198  00000+0  52783-4 0  9999
2 43482  86.4463 100.4897 0002502  86.1677 273.9810 14.43282769420942
IRIDIUM 160             
1 43569U 18061A   26139.17618490  .00000128  00000+0  38778-4 0  9997
2 43569  86.3965  68.9244 0002230  87.6837 272.4615 14.34218464409215
IRIDIUM 166             
1 43570U 18061B   26139.20155553  .00000044  00000+0  84862-5 0  9992
2 43570  86.3965  68.8647 0002206  81.7197 278.4249 14.34217043409244
IRIDIUM 158             
1 43571U 18061C   26139.10007517  .00000042  00000+0  79408-5 0  9996
2 43571  86.3966  68.9171 0002375  84.8466 275.3000 14.34217404409195
IRIDIUM 165             
1 43572U 18061D   26139.19521360  .00000060  00000+0  14291-4 0  9991
2 43572  86.3966  68.9232 0002154  81.7772 278.3668 14.34217931409238
IRIDIUM 155             
1 43573U 18061E   26139.15715898  .00000013  00000+0 -23900-5 0  9996
2 43573  86.3961  68.8095 0002233  82.2220 277.9229 14.34217494409199
IRIDIUM 154             
1 43574U 18061F   26139.06836223  .00000032  00000+0  44923-5 0  9991
2 43574  86.3967  68.9788 0002139  82.0255 278.1184 14.34217676409237
IRIDIUM 163             
1 43575U 18061G   26139.18887183  .00000059  00000+0  14107-4 0  9995
2 43575  86.3963  68.8446 0002357  87.0474 273.0991 14.34217619409220
IRIDIUM 156             
1 43576U 18061H   26139.16350126  .00000077  00000+0  20542-4 0  9996
2 43576  86.3964  68.8625 0002342  80.4703 279.6757 14.34217830409213
IRIDIUM 164             
1 43577U 18061J   26139.07471383  .00000159  00000+0  49611-4 0  9995
2 43577  86.3964  68.9394 0002044  82.5819 277.5609 14.34218481409247
IRIDIUM 159             
1 43578U 18061K   26139.18252883  .00000014  00000+0 -19648-5 0  9999
2 43578  86.3962  68.8319 0002148  87.0196 273.1246 14.34217611409226
IRIDIUM 180             
1 43922U 19002A   26139.04248715  .00000105  00000+0  30410-4 0  9991
2 43922  86.3989   5.7815 0002190  89.0929 271.0518 14.34218465384816
IRIDIUM 176             
1 43923U 19002B   26139.13676547  .00000482  00000+0  72481-4 0  9992
2 43923  86.6110   5.6900 0002205  84.8713 275.2756 14.72258698394973
IRIDIUM 168             
1 43924U 19002C   26139.17568181  .00000023  00000+0  12719-5 0  9991
2 43924  86.3991   5.8024 0002140  86.0453 274.0987 14.34217822384817
IRIDIUM 173             
1 43925U 19002D   26139.16299718 -.00000004  00000+0 -83348-5 0  9995
2 43925  86.3985   5.6974 0002208  86.5070 273.6379 14.34217416384794
IRIDIUM 169             
1 43926U 19002E   26139.17793141  .00000213  00000+0  63055-4 0  9998
2 43926  86.4247  37.3180 0002798  77.1183 283.0328 14.38608667386059
IRIDIUM 172             
1 43927U 19002F   26139.15664875  .00000159  00000+0  49637-4 0  9997
2 43927  86.3987   5.7083 0002269  88.6584 271.4871 14.34216179384800
IRIDIUM 175             
1 43928U 19002G   26139.16341997  .00000191  00000+0  50562-4 0  9991
2 43928  86.4486 302.6595 0002392   3.7728 356.3491 14.43594830394791
IRIDIUM 171             
1 43929U 19002H   26139.13762641  .00000053  00000+0  11709-4 0  9999
2 43929  86.3998   6.0191 0002153  81.9613 278.1827 14.34217472384799
IRIDIUM 170             
1 43930U 19002J   26139.14295194  .00000437  00000+0  65366-4 0  9990
2 43930  86.6109   5.6900 0002336  89.9380 270.2105 14.72255347394982
IRIDIUM 167             
1 43931U 19002K   26139.13128381  .00000047  00000+0  98622-5 0  9992
2 43931  86.3989   5.7409 0002198  77.6084 282.5358 14.34217964384797
IRIDIUM 181             
1 56726U 23068S   26139.19609625  .00000202  00000+0  54024-4 0  9996
2 56726  86.4502  68.9063 0002089  88.6318 271.5122 14.43311633158258
IRIDIUM 177             
1 56727U 23068T   26139.05108668  .00000616  00000+0  77491-4 0  9995
2 56727  86.1963 342.6338 0002618  87.6535 272.4986 14.80231342162052
IRIDIUM 174             
1 56728U 23068U   26139.13060184  .00000490  00000+0  73808-4 0  9993
2 56728  86.6117   5.8396 0002573  87.9244 272.2268 14.72257926161744
IRIDIUM 178             
1 56729U 23068V   26139.17538256  .00000648  00000+0  81815-4 0  9990
2 56729  86.6561  37.4812 0002306  87.3049 272.8436 14.80241618162073
IRIDIUM 179             
1 56730U 23068W   26139.17001616  .00000630  00000+0  79401-4 0  9996
2 56730  86.6796  46.3765 0002457  80.8198 279.3302 14.80234496162071
