GLOBALSTAR M069         
1 31573U 07020C   26134.60766358 -.00000106  00000+0 -12569-3 0  9999
2 31573  52.0053 347.1690 0002655  81.4664 312.6693 12.23470139874699
GLOBALSTAR M072         
1 31574U 07020D   26134.60828573 -.00000053  00000+0  42789-3 0  9995
2 31574  51.9910 189.6433 0001367 233.4129 293.7463 11.91658044870976
GLOBALSTAR M066         
1 32265U 07048C   26134.46745578 -.00000064  00000+0  25508-3 0  9992
2 32265  51.9555 154.7125 0004767 329.8121 195.4317 12.30388547856072
GLOBALSTAR M079         
1 37188U 10054A   26134.66411390 -.00000080  00000+0  13064-3 0  9998
2 37188  52.0029 210.7201 0000224 186.0691 338.5001 12.62265636718318
GLOBALSTAR M074         
1 37189U 10054B   26134.60764853 -.00000081  00000+0  12835-3 0  9994
2 37189  52.0005 210.1626 0000361 119.7293  28.0523 12.62267989718910
GLOBALSTAR M076         
1 37190U 10054C   26134.63379411 -.00000082  00000+0  12305-3 0  9994
2 37190  52.0018 210.2818 0000150 100.2891  47.2362 12.62261446718630
GLOBALSTAR M077         
1 37191U 10054D   26134.63691642 -.00000093  00000+0 -26625-3 0  9991
2 37191  51.9963 264.4514 0003227 114.1513 259.9043 11.67546840717225
GLOBALSTAR M075         
1 37192U 10054E   26134.72612597 -.00000098  00000+0  29789-4 0  9993
2 37192  51.9949 252.0746 0000635 126.1845  20.3173 12.62266607717715
GLOBALSTAR M073         
1 37193U 10054F   26134.48878782 -.00000072  00000+0  17600-3 0  9997
2 37193  52.0035 166.8711 0000130 306.4666 199.9897 12.62266962719679
GLOBALSTAR M083         
1 37739U 11033A   26134.66547060 -.00000115  00000+0 -61488-4 0  9996
2 37739  51.9841 114.6055 0000296 353.8605 177.3129 12.62262632688710
GLOBALSTAR M088         
1 37740U 11033B   26134.60289002 -.00000094  00000+0  53850-4 0  9990
2 37740  52.0236  21.1448 0000800  75.8773 288.7111 12.62267936684253
GLOBALSTAR M091         
1 37741U 11033C   26134.33561617 -.00000094  00000+0  54500-4 0  9999
2 37741  52.0016 344.9732 0000731  99.1561  71.7138 12.62263094685003
GLOBALSTAR M085         
1 37742U 11033D   26134.60580354 -.00000106  00000+0 -12332-4 0  9991
2 37742  52.0131 295.4127 0000680 123.6232 255.7670 12.62263156685555
GLOBALSTAR M081         
1 37743U 11033E   26134.90172326 -.00000093  00000+0  59506-4 0  9999
2 37743  51.9969 296.9871 0000680 104.1393  60.0131 12.62264313685732
GLOBALSTAR M089         
1 37744U 11033F   26134.59119472 -.00000106  00000+0 -13574-4 0  9999
2 37744  51.9932 252.0980 0000727 101.4075 271.5550 12.62266310686549
GLOBALSTAR M084         
1 38040U 11080A   26134.92520817 -.00000099  00000+0  26138-4 0  9997
2 38040  51.9988 118.5421 0000525  37.4740 353.9772 12.62267008664563
GLOBALSTAR M080         
1 38041U 11080B   26134.53029409 -.00000095  00000+0  51263-4 0  9999
2 38041  52.0036 121.4512 0000282 163.2871   2.5949 12.62268950664635
GLOBALSTAR M082         
1 38042U 11080C   26134.92178719 -.00000121  00000+0 -94056-4 0  9990
2 38042  52.0078  75.7554 0000243  84.3986 351.4818 12.62269439665394
GLOBALSTAR M092         
1 38043U 11080D   26134.51580617 -.00000105  00000+0 -70471-5 0  9998
2 38043  52.0065 167.3892 0000174 114.7904  34.5594 12.62267025663796
GLOBALSTAR M090         
1 38044U 11080E   26134.57339581 -.00000125  00000+0 -11797-3 0  9993
2 38044  52.0125  70.7608 0000443  44.8791 126.1205 12.62268292665462
GLOBALSTAR M086         
1 38045U 11080F   26134.59566924 -.00000114  00000+0 -57297-4 0  9993
2 38045  51.9902  70.6781 0001213 358.9707 171.9903 12.62285901665411
GLOBALSTAR M097         
1 39072U 13005A   26134.50919372 -.00000087  00000+0  95398-4 0  9995
2 39072  52.0068 345.8523 0000628  93.3846 266.7093 12.62251047612656
GLOBALSTAR M093         
1 39073U 13005B   26134.95792883 -.00000087  00000+0  91257-4 0  9991
2 39073  52.0123 337.8223 0000504  89.9890 270.1035 12.62265027612669
GLOBALSTAR M094         
1 39074U 13005C   26134.79955798 -.00000108  00000+0 -23088-4 0  9992
2 39074  51.9957 252.4549 0000443 142.1152 217.9746 12.62268061614257
GLOBALSTAR M096         
1 39075U 13005D   26134.41701179 -.00000104  00000+0 -15809-5 0  9993
2 39075  52.0084 302.3941 0000657 116.5367 243.5567 12.62264743613126
GLOBALSTAR M078         
1 39076U 13005E   26134.86502077 -.00000074  00000+0  16751-3 0  9999
2 39076  51.9898  25.0827 0000912 147.5453 212.5469 12.62262126611807
GLOBALSTAR M095         
1 39077U 13005F   26134.65427256 -.00000077  00000+0  14974-3 0  9990
2 39077  52.0103  23.2822 0000405 102.7097 257.3815 12.62262842611636
GLOBALSTAR M087         
1 52888U 22064A   26134.50931156 -.00000079  00000+0  14083-3 0  9996
2 52888  51.9968 164.9841 0000218 225.8611 134.2237 12.62268821186881
