KUIPER-00008            
1 63724U 25088A   26204.20089325  .00000302  00000+0  68565-4 0  9996
2 63724  51.8993 208.7777 0000599  57.7316 302.3704 14.79931658 68117
KUIPER-00009            
1 63725U 25088B   26204.47742113  .00001566  00000+0  22786-3 0  9994
2 63725  51.9017 225.1020 0000387  61.2538 298.8464 14.81166202 67907
KUIPER-00010            
1 63726U 25088C   26204.51018294  .00000603  00000+0  10805-3 0  9996
2 63726  51.9008 202.5134 0000379  61.7928 298.3073 14.79933700 67848
KUIPER-00011            
1 63727U 25088D   26204.40076866  .00000520  00000+0  97152-4 0  9993
2 63727  51.8991 210.5463 0000380  40.4857 319.6133 14.79944509 67854
KUIPER-00012            
1 63728U 25088E   26204.18062588  .00000894  00000+0  14624-3 0  9991
2 63728  51.9006 196.4551 0000458  62.1766 297.9242 14.79933867 67987
KUIPER-00013            
1 63729U 25088F   26204.31437419  .00000875  00000+0  14369-3 0  9991
2 63729  51.9003 228.3829 0000284  36.3883 323.7098 14.79942188 67655
KUIPER-00014            
1 63730U 25088G   26204.48321061  .00000536  00000+0  99282-4 0  9998
2 63730  51.9003 227.5803 0000374  57.8801 302.2198 14.79938748 67490
KUIPER-00015            
1 63731U 25088H   26204.37108943 -.00001413  00000+0 -15638-3 0  9998
2 63731  51.8985 238.1349 0000179 111.0951 249.0030 14.79936023 67794
KUIPER-00016            
1 63732U 25088J   26204.48045741  .00000956  00000+0  15432-3 0  9998
2 63732  51.8986 230.1044 0000392  65.0358 295.0645 14.79935895 67458
KUIPER-00018            
1 63733U 25088K   26204.45754384  .00000472  00000+0  90862-4 0  9990
2 63733  51.9018 220.2385 0000357  50.5911 309.5083 14.79934497 67598
KUIPER-00019            
1 63734U 25088L   26204.34914877  .00000722  00000+0  12366-3 0  9994
2 63734  51.8993 219.4743 0000377  60.6490 299.4510 14.79935835 67593
KUIPER-00020            
1 63735U 25088M   26204.25230778  .00000630  00000+0  11167-3 0  9992
2 63735  51.9008 223.6493 0000500  55.3572 304.7437 14.79926554 67733
KUIPER-00021            
1 63736U 25088N   26204.35349102  .00000666  00000+0  11629-3 0  9998
2 63736  51.8991 223.1559 0000366  52.4762 307.6234 14.79948575 67588
KUIPER-00023            
1 63737U 25088P   26204.24957131  .00001386  00000+0  21081-3 0  9997
2 63737  51.8998 226.1052 0000321  56.5533 303.5460 14.79923117 67838
KUIPER-00024            
1 63738U 25088Q   26204.33054177  .00000478  00000+0  91612-4 0  9995
2 63738  51.9023 213.3472 0000440  50.0396 310.0605 14.79943652 68146
KUIPER-00025            
1 63739U 25088R   26204.42374969  .00000957  00000+0  15450-3 0  9997
2 63739  51.9018 220.4164 0000490  38.3833 321.7164 14.79936727 67916
KUIPER-00027            
1 63740U 25088S   26204.39536862  .00001040  00000+0  16538-3 0  9999
2 63740  51.9002 215.5088 0000425  50.0900 310.0100 14.79944457 67713
KUIPER-00028            
1 63741U 25088T   26204.43181561  .00000440  00000+0  86751-4 0  9995
2 63741  51.8985 212.7965 0000448  42.8222 317.2775 14.79944413 68166
KUIPER-00029            
1 63742U 25088U   26204.27278350  .00001472  00000+0  22203-3 0  9998
2 63742  51.8996 212.1868 0000694 344.8661  15.2281 14.79948251 67687
KUIPER-00030            
1 63743U 25088V   26204.44673530  .00000642  00000+0  11312-3 0  9994
2 63743  51.9003 230.2424 0000251  53.7146 306.3840 14.79938996 67736
KUIPER-00031            
1 63744U 25088W   26204.58334491  .00005172  00000+0  70637-3 0  9998
2 63744  51.8996 214.6616 0001285  95.9300   6.5919 14.79964407  5457
KUIPER-00032            
1 63745U 25088X   26203.96766160  .00015911  00000+0  38723-3 0  9994
2 63745  51.8660  88.0922 0002973 234.4736 125.5975 15.41103959 70382
KUIPER-00033            
1 63746U 25088Y   26204.32926933  .00002232  00000+0  32156-3 0  9998
2 63746  51.8999 245.7845 0000215  75.9377 284.1609 14.79941025 67702
KUIPER-00034            
1 63747U 25088Z   26204.43725516  .00000420  00000+0  84081-4 0  9997
2 63747  51.9004 207.8404 0000654  53.0535 307.0487 14.79937943 67928
KUIPER-00035            
1 63748U 25088AA  26204.47781436  .00000568  00000+0  10353-3 0  9998
2 63748  51.8988 232.6351 0000317  49.5302 310.5688 14.79938708 67634
KUIPER-00037            
1 63749U 25088AB  26204.26811052  .00000588  00000+0  10604-3 0  9995
2 63749  51.8998 232.4190 0000292  41.5320 318.5665 14.79946474 68407
KUIPER-00038            
1 63750U 25088AC  26204.32516520 -.00000452  00000+0 -30292-4 0  9994
2 63750  51.9014 218.3344 0001171 295.1691  64.9149 14.79932713 67609
KUIPER-00039            
1 64500U 25134A   26204.43277676  .00003704  00000+0  51434-3 0  9999
2 64500  51.9026 352.8550 0000584 124.9873 235.1144 14.79954775 60171
KUIPER-00040            
1 64501U 25134B   26204.45574792  .00003571  00000+0  49689-3 0  9992
2 64501  51.8995   2.8292 0000582 120.8762 239.2258 14.79960487 60034
KUIPER-00041            
1 64502U 25134C   26204.41927391  .00003584  00000+0  49863-3 0  9994
2 64502  51.8999   5.3767 0000622 111.1567 248.9462 14.79958146 59991
KUIPER-00042            
1 64503U 25134D   26204.39090895  .00003432  00000+0  47866-3 0  9995
2 64503  51.9010   0.4812 0000536 116.6931 243.4086 14.79955714 60063
KUIPER-00043            
1 64504U 25134E   26203.79122313  .00003633  00000+0  50504-3 0  9996
2 64504  51.9030 355.6328 0000565 131.7102 228.3909 14.79958097 60088
KUIPER-00044            
1 64505U 25134F   26204.45304230  .00003337  00000+0  46630-3 0  9997
2 64505  51.9008   5.2084 0000662 122.7887 237.3139 14.79955817 60003
KUIPER-00046            
1 64506U 25134G   26204.42194722  .00002912  00000+0  41058-3 0  9995
2 64506  51.9047   2.8213 0000224 201.7190 158.3763 14.79951424 60031
KUIPER-00047            
1 64507U 25134H   26204.62046154  .00001303  00000+0  19991-3 0  9997
2 64507  51.9007 334.4687 0000343 135.2876 224.8114 14.79929600 60446
KUIPER-00048            
1 64508U 25134J   26204.65420331 -.00003252  00000+0 -39787-3 0  9996
2 64508  51.9002 334.3331 0000197  80.4726 279.6259 14.79931165 60457
KUIPER-00049            
1 64509U 25134K   26203.79661769  .00003372  00000+0  47084-3 0  9993
2 64509  51.9013 350.5907 0000512 120.7312 239.3701 14.79955531 60154
KUIPER-00050            
1 64510U 25134L   26202.80256561  .00002601  00000+0  36989-3 0  9992
2 64510  51.9030 337.5089 0000407 143.5987 216.5003 14.79947573 60255
KUIPER-00051            
1 64511U 25134M   26204.38038880  .00002561  00000+0  36468-3 0  9997
2 64511  51.9055 346.7024 0000514 204.8298 155.2640 14.79945449 60255
KUIPER-00053            
1 64513U 25134P   26203.64928135  .00002115  00000+0  29412-3 0  9994
2 64513  51.9024 345.0889 0000617 357.6713   2.4247 14.81698640 60210
KUIPER-00054            
1 64514U 25134Q   26203.77363770 -.00001586  00000+0 -17897-3 0  9994
2 64514  51.8923 340.6982 0004267 107.3790 252.7639 14.79935636 60281
KUIPER-00055            
1 64515U 25134R   26204.60147669  .00003227  00000+0  45187-3 0  9990
2 64515  51.9015 289.6797 0000241 132.4178 227.6805 14.79959001 61074
KUIPER-00056            
1 64516U 25134S   26204.40979440  .00003648  00000+0  50698-3 0  9999
2 64516  51.9040 342.9897 0000581 122.0797 238.0222 14.79957967 60310
KUIPER-00057            
1 64517U 25134T   26204.40169066  .00003789  00000+0  52548-3 0  9997
2 64517  51.9008 350.4538 0000490 129.1964 230.9041 14.79957483 60205
KUIPER-00058            
1 64518U 25134U   26203.76554005 -.00000225  00000+0 -52782-6 0  9994
2 64518  51.8971 348.2367 0000309 104.7306 255.3690 14.79942410 60189
KUIPER-00059            
1 64519U 25134V   26204.37871722  .00003677  00000+0  51074-3 0  9993
2 64519  51.9011 340.5674 0000521 134.1734 225.9271 14.79957158 60341
KUIPER-00060            
1 64520U 25134W   26204.41249295  .00003645  00000+0  50657-3 0  9995
2 64520  51.9032 340.4837 0000532 116.9543 243.1474 14.79957335 60337
KUIPER-00061            
1 64521U 25134X   26204.37065375  .00003504  00000+0  48804-3 0  9991
2 64521  51.9021 348.1193 0000652 126.8301 233.2721 14.79963224 60228
KUIPER-00062            
1 64522U 25134Y   26204.43544480  .00003948  00000+0  54625-3 0  9998
2 64522  51.8969 350.3031 0000539 116.7632 243.3385 14.79960967 60212
KUIPER-00063            
1 64523U 25134Z   26204.42735955  .00003145  00000+0  44110-3 0  9994
2 64523  51.9039 357.9000 0000613 122.6592 237.4430 14.79962211 60102
KUIPER-00064            
1 64524U 25134AA  26204.43005537  .00003750  00000+0  52035-3 0  9999
2 64524  51.9037 355.3135 0000609 120.5650 239.5373 14.79961036 60146
KUIPER-00065            
1 64525U 25134AB  26204.49221338  .00003721  00000+0  51657-3 0  9992
2 64525  51.9041   0.2086 0000672 129.4677 230.6344 14.79958901 60068
KUIPER-00066            
1 64526U 25134AC  26204.52583975  .00003355  00000+0  46889-3 0  9999
2 64526  51.9012 297.3380 0000486 100.4040 259.6978 14.79928747 60967
KUIPER-00069            
1 64816U 25151A   26203.97637293  .00003406  00000+0  47534-3 0  9996
2 64816  51.9021  42.4071 0000691 114.0207 246.0828 14.79953124 56796
KUIPER-00070            
1 64817U 25151B   26204.59091255  .00002174  00000+0  31404-3 0  9998
2 64817  51.8997  64.5988 0000873 107.3799 252.7259 14.79930693 56544
KUIPER-00071            
1 64818U 25151C   26204.66113485  .00000803  00000+0  13437-3 0  9990
2 64818  51.9018  61.8282 0000949 116.4918 243.6142 14.79937038 55409
KUIPER-00072            
1 64819U 25151D   26204.58140569 -.00000677  00000+0 -59858-4 0  9994
2 64819  51.8990  42.1217 0000780 116.2819 243.8223 14.79933237 55677
KUIPER-00073            
1 64820U 25151E   26204.62737568  .00003639  00000+0  50579-3 0  9991
2 64820  51.9004  61.9606 0000811 112.5490 247.5558 14.79956329 56586
KUIPER-00074            
1 64821U 25151F   26200.22359862  .00365209  71752-4  52861-3 0  9998
2 64821  51.8723 336.2423 0006386 301.9766  58.0628 16.04703404 56196
KUIPER-00075            
1 64822U 25151G   26204.60154727  .00017140  00000+0  35836-3 0  9992
2 64822  51.8665 278.2486 0004159  33.9592 326.1664 15.45581268 57399
KUIPER-00076            
1 64823U 25151H   26204.57063551  .00003331  00000+0  46540-3 0  9994
2 64823  51.9019  52.2323 0000774 115.5341 244.5702 14.79957576 55537
KUIPER-00077            
1 64824U 25151J   26204.29513706  .00003558  00000+0  49524-3 0  9992
2 64824  51.9023  58.4686 0000752 112.3679 247.7363 14.79955188 55421
KUIPER-00078            
1 64825U 25151K   26204.60170433  .00003443  00000+0  48017-3 0  9993
2 64825  51.9006  54.5901 0000749 111.7992 248.3050 14.79957825 55506
KUIPER-00079            
1 64826U 25151L   26204.02230411  .00003416  00000+0  47656-3 0  9991
2 64826  51.8991  62.1120 0000729 108.3056 251.7986 14.79956164 56544
KUIPER-00080            
1 64827U 25151M   26203.98854925 -.00001454  00000+0 -16164-3 0  9990
2 64827  51.8999  62.2716 0001105  80.5535 279.5552 14.79969245 55345
KUIPER-00082            
1 64828U 25151N   26204.30591288  .00003598  00000+0  50047-3 0  9995
2 64828  51.9019  48.4226 0000807 110.9324 249.1725 14.79956798 55562
KUIPER-00083            
1 64829U 25151P   26204.56794003  .00003244  00000+0  45423-3 0  9994
2 64829  51.9005  54.7476 0000555 103.8056 256.2968 14.79946925 56681
KUIPER-00084            
1 64830U 25151Q   26204.62468012  .00002876  00000+0  40605-3 0  9998
2 64830  51.9018  64.4830 0000883 118.2876 241.8176 14.79941596 55367
KUIPER-00085            
1 64831U 25151R   26204.54228038  .00003446  00000+0  48055-3 0  9993
2 64831  51.9030  47.4257 0000677 110.9305 249.1730 14.79955660 55592
KUIPER-00086            
1 64832U 25151S   26203.99124136  .00003380  00000+0  47188-3 0  9999
2 64832  51.9001  59.8063 0000983 116.6616 243.4447 14.79957994 55371
KUIPER-00087            
1 64833U 25151T   26204.28022128  .00000787  00000+0  13217-3 0  9995
2 64833  51.8962  40.9901 0000553  93.3549 266.7477 14.79944619 55650
KUIPER-00089            
1 64834U 25151U   26204.54496439  .00003421  00000+0  47730-3 0  9990
2 64834  51.9005  44.8420 0000778 116.4448 243.6594 14.79956857 55632
KUIPER-00090            
1 64835U 25151V   26204.55303981 -.00001204  00000+0 -12896-3 0  9995
2 64835  51.8976  37.3096 0001226 105.4965 254.6133 14.79942599 55736
KUIPER-00091            
1 64836U 25151W   26204.27754264  .00003361  00000+0  46948-3 0  9998
2 64836  51.9019  43.5418 0000915 126.7295 233.3751 14.79954995 55620
KUIPER-00092            
1 64837U 25151X   26204.26943983  .00001823  00000+0  26799-3 0  9999
2 64837  51.9002  51.0683 0000637 111.4440 248.6590 14.79953500 56739
KUIPER-00093            
1 64838U 25151Y   26204.26673903  .00003381  00000+0  47210-3 0  9994
2 64838  51.9001  53.5546 0000644 116.8347 243.2681 14.79951548 55480
KUIPER-00094            
1 64839U 25151Z   26204.45044125  .00003193  00000+0  44732-3 0  9991
2 64839  51.9046   7.8364 0000986 127.0845 233.0208 14.79958877 56144
KUIPER-00081            
1 65132U 25171A   26204.45688909  .00002782  00000+0  39353-3 0  9990
2 65132  51.8991 267.7118 0000221  77.5105 282.5882 14.79960371 53149
KUIPER-00088            
1 65133U 25171B   26204.64061088  .00002715  00000+0  38472-3 0  9992
2 65133  51.8988 284.4015 0000329 113.0487 247.0511 14.79961514 52926
KUIPER-00095            
1 65134U 25171C   26204.32453132  .00002699  00000+0  38271-3 0  9991
2 65134  51.8972 265.8448 0000228  52.9094 307.1889 14.79958933 53159
KUIPER-00096            
1 65135U 25171D   26204.20977507  .00002944  00000+0  41484-3 0  9999
2 65135  51.8990 278.8023 0000271  93.1472 266.9521 14.79954409 52965
KUIPER-00097            
1 65136U 25171E   26204.61226106  .00003151  00000+0  44180-3 0  9994
2 65136  51.9012 279.6805 0000285  84.2890 275.8105 14.79960436 52974
KUIPER-00098            
1 65137U 25171F   26204.47449631 -.00003309  00000+0 -40529-3 0  9999
2 65137  51.9003 282.6546 0000317  91.1488 268.9510 14.79929966 52276
KUIPER-00099            
1 65138U 25171G   26204.58658981  .00003333  00000+0  46595-3 0  9996
2 65138  51.9013 272.1644 0000423 110.0626 250.0382 14.79940355 53088
KUIPER-00100            
1 65139U 25171H   26204.55548792  .00002705  00000+0  38346-3 0  9999
2 65139  51.9006 269.7714 0000206  72.5341 287.5643 14.79960156 53116
KUIPER-00102            
1 65140U 25171J   26204.35021248  .00002813  00000+0  39757-3 0  9998
2 65140  51.8967 273.1645 0000368  56.7885 303.3113 14.79956163 53045
KUIPER-00103            
1 65141U 25171K   26204.63522403 -.00004779  00000+0 -59837-3 0  9995
2 65141  51.8985 289.4045 0000147 106.9043 253.1935 14.79928516 52841
KUIPER-00104            
1 65142U 25171L   26204.24354161  .00002623  00000+0  37276-3 0  9994
2 65142  51.9023 278.6382 0000307  98.3282 261.7715 14.79953065 52968
KUIPER-00105            
1 65143U 25171M   26204.20168324 -.00001534  00000+0 -17230-3 0  9995
2 65143  51.9015 286.4231 0000266 104.6504 255.4488 14.79931343 52852
KUIPER-00106            
1 65144U 25171N   26204.45254242  .00002670  00000+0  37897-3 0  9999
2 65144  51.9011 264.0769 0000178  94.0864 266.0119 14.79950157 53191
KUIPER-00107            
1 65145U 25171P   26204.55822029  .00002642  00000+0  37522-3 0  9999
2 65145  51.9008 267.2870 0000257  70.2097 289.8893 14.79951522 53153
KUIPER-00108            
1 65146U 25171Q   26204.64602817  .00002693  00000+0  38190-3 0  9999
2 65146  51.9019 279.4381 0000368  82.3122 277.7882 14.79954727 52999
KUIPER-00109            
1 65147U 25171R   26204.61764391  .00000735  00000+0  12544-3 0  9993
2 65147  51.9002 274.5078 0000517  58.6222 301.4791 14.79931117 53054
KUIPER-00110            
1 65148U 25171S   26204.50288150  .00003278  00000+0  45846-3 0  9992
2 65148  51.9001 287.5698 0000280 117.6806 242.4185 14.79956996 52857
KUIPER-00111            
1 65149U 25171T   26203.99099447 -.00000312  00000+0 -11892-4 0  9997
2 65149  51.8996 294.7091 0000325 109.0266 251.0731 14.79935671 52717
KUIPER-00112            
1 65150U 25171U   26204.58389610  .00002780  00000+0  39333-3 0  9997
2 65150  51.9009 274.7028 0000322  92.6529 267.4470 14.79953345 53045
KUIPER-00114            
1 65151U 25171V   26204.59606676 -.00003550  00000+0 -43700-3 0  9994
2 65151  51.9002 294.6179 0000368 112.3847 247.7154 14.79930953 52768
KUIPER-00115            
1 65152U 25171W   26204.67167834  .00003225  00000+0  45156-3 0  9996
2 65152  51.9004 286.7857 0000120 121.7009 238.3965 14.79962934 52889
KUIPER-00116            
1 65153U 25171X   26203.61961989  .00002490  00000+0  35547-3 0  9999
2 65153  51.9012 296.4722 0000546  97.6513 262.4512 14.79940722 52653
KUIPER-00118            
1 65154U 25171Y   26204.62981818 -.00002817  00000+0 -34071-3 0  9991
2 65154  51.8990 294.4561 0000448 100.1954 259.9058 14.79933433 52777
KUIPER-00119            
1 65155U 25171Z   26204.64333888  .00003015  00000+0  42414-3 0  9991
2 65155  51.9009 281.9923 0000200   2.6366 357.4597 14.79943410 52949
KUIPER-00120            
1 65762U 25217A   26204.20485405  .00002497  00000+0  35626-3 0  9991
2 65762  51.8970 173.8060 0000685  59.6798 300.4232 14.79951897 44806
KUIPER-00132            
1 65763U 25217B   26204.60764769  .00055537  00000+0  12131-2 0  9997
2 65763  51.8552  61.6264 0006547  96.7118 263.4616 15.43629221 46399
KUIPER-00133            
1 65764U 25217C   26204.30615996  .00002628  00000+0  37346-3 0  9991
2 65764  51.9016 173.4706 0000608  57.8439 302.2582 14.79952887 44820
KUIPER-00139            
1 65765U 25217D   26204.20616612  .00004224  00000+0  58248-3 0  9995
2 65765  51.8969 141.3667 0000852  73.8518 286.2538 14.79952220 45266
KUIPER-00142            
1 65766U 25217E   26204.08868831  .00003507  00000+0  48868-3 0  9994
2 65766  51.8986 156.8481 0000709  71.2429 288.8610 14.79943101 45037
KUIPER-00145            
1 65767U 25217F   26204.55870494 -.00004910  00000+0 -61528-3 0  9994
2 65767  51.8973 157.2886 0000548  58.7265 301.3751 14.79948600 45066
KUIPER-00147            
1 65768U 25217G   26204.58976050  .00003118  00000+0  43762-3 0  9990
2 65768  51.8973 159.6338 0000642  84.9326 275.1709 14.79945630 45037
KUIPER-00148            
1 65769U 25217H   26204.54109557  .00003451  00000+0  48148-3 0  9990
2 65769  51.9044 142.3661 0000711  75.9606 284.1435 14.79930453 45273
KUIPER-00150            
1 65770U 25217J   26204.10624165 -.00000294  00000+0 -95969-5 0  9990
2 65770  51.8993 171.8049 0000696  71.3872 288.7166 14.79928207 44826
KUIPER-00151            
1 65771U 25217K   26204.58707431  .00003244  00000+0  45427-3 0  9999
2 65771  51.8998 162.1794 0000727  63.4533 296.6504 14.79943309 45008
KUIPER-00152            
1 65772U 25217L   26204.22913941  .00003563  00000+0  49577-3 0  9990
2 65772  51.8998 151.2459 0000886  71.1576 288.9482 14.79959296 45129
KUIPER-00153            
1 65773U 25217M   26204.57216587  .00000382  00000+0  79105-4 0  9998
2 65773  51.9009 144.8066 0001015  78.6335 281.4741 14.79946261 45243
KUIPER-00155            
1 65774U 25217N   26204.12910319 -.00001922  00000+0 -22319-3 0  9991
2 65774  51.9008 119.2292 0000810  94.0676 266.0379 14.79928822 45566
KUIPER-00156            
1 65775U 25217P   26204.26829434  .00003597  00000+0  50028-3 0  9990
2 65775  51.9016 146.1316 0000824  72.2533 287.8519 14.79962069 45194
KUIPER-00163            
1 65777U 25217R   26204.80503285  .01454971  11822-4  78527-3 0  9995
2 65777  51.8664  71.3788 0007460 253.8636 106.1564 16.19020777 46269
KUIPER-00165            
1 65778U 25217S   26204.25751413  .00003289  00000+0  46008-3 0  9994
2 65778  51.8988 156.1233 0000757  79.9836 280.1211 14.79945227 45055
KUIPER-00166            
1 65779U 25217T   26204.03457156  .00003917  00000+0  54256-3 0  9990
2 65779  51.9015 144.6621 0000285 108.6178 251.4815 14.79927108 45190
KUIPER-00167            
1 65780U 25217U   26204.11165631  .00002941  00000+0  41455-3 0  9998
2 65780  51.8949 166.6737 0000684  73.2834 286.8204 14.79937868 44892
KUIPER-00168            
1 65781U 25217V   26204.53571666  .00003728  00000+0  51735-3 0  9990
2 65781  51.8983 147.3977 0000760  66.8660 293.2382 14.79961961 45209
KUIPER-00169            
1 65782U 25217W   26204.59785537  .00003474  00000+0  48427-3 0  9993
2 65782  51.9003 152.1328 0000654  81.8045 278.2991 14.79953132 45147
KUIPER-00170            
1 65783U 25217X   26204.59245791  .00003169  00000+0  44432-3 0  9990
2 65783  51.8973 157.1117 0000817  71.7552 288.3499 14.79956487 45079
KUIPER-00172            
1 65785U 25217Z   26204.50999529 -.00004507  00000+0 -56261-3 0  9990
2 65785  51.8980 140.0060 0000793 107.8681 252.2367 14.79928106 45301
KUIPER-00173            
1 65786U 25217AA  26204.29397777  .00003489  00000+0  48640-3 0  9992
2 65786  51.8994 153.4711 0000786  83.6294 276.4757 14.79940710 45093
KUIPER-00174            
1 65787U 25217AB  26204.09678406  .00002693  00000+0  38201-3 0  9990
2 65787  51.9019 149.3951 0000719  79.9910 280.1134 14.79947164 45138
KUIPER-00176            
1 65788U 25217AC  26204.28318943  .00002947  00000+0  41521-3 0  9990
2 65788  51.8974 163.5010 0000733  65.3051 294.7987 14.79949244 44950
KUIPER-00101            
1 65947U 25228A   26204.49781804  .00002774  00000+0  39268-3 0  9995
2 65947  51.8966 120.0086 0000639 102.6360 257.4673 14.79933872 43342
KUIPER-00113            
1 65948U 25228B   26204.46945014 -.00000703  00000+0 -63227-4 0  9993
2 65948  51.8976 115.1541 0001177  87.9323 272.1774 14.79948317 43400
KUIPER-00117            
1 65949U 25228C   26204.50044833  .00000570  00000+0  10382-3 0  9991
2 65949  51.8980 117.5163 0000471 100.0842 260.0173 14.79910885 43375
KUIPER-00121            
1 65950U 25228D   26204.47214363  .00004019  00000+0  55548-3 0  9991
2 65950  51.8988 112.6568 0000859 104.3848 255.7209 14.79961842 43441
KUIPER-00122            
1 65951U 25228E   26204.73147005  .00002836  00000+0  40066-3 0  9993
2 65951  51.8990 121.4823 0000861  85.3056 274.8005 14.79958939 43347
KUIPER-00123            
1 65952U 25228F   26204.49513481  .00001426  00000+0  21604-3 0  9993
2 65952  51.8976 122.5382 0000941  90.3992 269.7078 14.79929401 43309
KUIPER-00124            
1 65953U 25228G   26204.70580328  .00003477  00000+0  48482-3 0  9993
2 65953  51.8981 114.0968 0000760  82.0757 278.0291 14.79933498 43444
KUIPER-00125            
1 65954U 25228H   26204.11422080  .00003618  00000+0  50298-3 0  9994
2 65954  51.9006 101.7568 0000894  98.9912 261.1152 14.79962412 43560
KUIPER-00126            
1 65955U 25228J   26202.50568566  .00002549  00000+0  36308-3 0  9994
2 65955  51.8993 128.8562 0000967  86.2073 273.9000 14.79958404 43040
KUIPER-00127            
1 65956U 25228K   26204.45527118  .00004113  00000+0  56786-3 0  9990
2 65956  51.8996 112.7069 0001031  89.9548 270.1533 14.79960730 43447
KUIPER-00128            
1 65957U 25228L   26204.70849458 -.00003025  00000+0 -36799-3 0  9998
2 65957  51.9004 111.6524 0001290  94.9509 265.1601 14.79928897 43474
KUIPER-00129            
1 65958U 25228M   26204.13987953 -.00005525  00000+0 -69629-3 0  9994
2 65958  51.9004 109.1479 0000910  93.0762 267.0304 14.79935138 43461
KUIPER-00130            
1 65959U 25228N   26204.17096598  .00003912  00000+0  54148-3 0  9991
2 65959  51.9012 111.5455 0000756  94.1277 265.9772 14.79960515 33724
KUIPER-00134            
1 65960U 25228P   26204.49919907  .00040170  00000+0  93255-3 0  9995
2 65960  51.8724  20.6047 0005288  71.1258 289.0304 15.41963749 44723
KUIPER-00135            
1 65961U 25228Q   26204.47485382  .00000508  00000+0  95603-4 0  9990
2 65961  51.9017 110.2556 0000889  88.3155 271.7909 14.79952174 43479
KUIPER-00136            
1 65962U 25228R   26204.71390216 -.00003723  00000+0 -45959-3 0  9991
2 65962  51.9005 106.6524 0001212  91.2716 268.8386 14.79938341 43542
KUIPER-00137            
1 65963U 25228S   26204.10882561  .00004067  00000+0  56216-3 0  9992
2 65963  51.9032 106.8243 0001112  93.8248 266.2842 14.79932504 43498
KUIPER-00138            
1 65964U 25228T   26204.41541499  .00003749  00000+0  52049-3 0  9995
2 65964  51.8980 102.8924 0000823  98.2232 261.8824 14.79931310 43576
KUIPER-00140            
1 65965U 25228U   26204.14259738  .00003621  00000+0  50346-3 0  9995
2 65965  51.8985 106.6884 0000938 102.5761 257.5307 14.79960087 43494
KUIPER-00141            
1 65966U 25228V   26204.41811448 -.00001442  00000+0 -16012-3 0  9991
2 65966  51.9064 100.5280 0000998  97.5483 262.5592 14.79939071 43601
KUIPER-00146            
1 65967U 25228W   26204.71931727  .00003794  00000+0  52608-3 0  9999
2 65967  51.9027 101.7089 0001071  99.5919 260.5164 14.79956332 43613
KUIPER-00149            
1 65968U 25228X   26204.42078965 -.00008875  00000+0 -11362-2 0  9992
2 65968  51.9033  97.9112 0000866 105.4866 254.6192 14.79949628 43641
KUIPER-00154            
1 65969U 25228Y   26204.38972808 -.00001033  00000+0 -10641-3 0  9996
2 65969  51.8971  95.5375 0001699  81.5337 278.5817 14.79947716 43677
KUIPER-00157            
1 65970U 25228Z   26204.70890440  .00001883  00000+0  26804-3 0  9994
2 65970  51.9016  96.6057 0001440  70.6322 289.4797 14.81209367 43681
KUIPER-00144            
1 67133U 25301A   26204.30348176  .00002715  00000+0  38491-3 0  9999
2 67133  51.9002 175.9348 0000591  59.3794 300.7226 14.79941675 33951
KUIPER-00164            
1 67134U 25301B   26204.66668980 -.00022749  00000+0 -29609-2 0  9998
2 67134  51.9014 186.8363 0000949  98.2245 110.3351 14.79993311  5242
KUIPER-00175            
1 67135U 25301C   26204.27506369  .00002828  00000+0  39984-3 0  9990
2 67135  51.8976 171.0191 0000769  92.8391 267.2659 14.79933665 34090
KUIPER-00179            
1 67136U 25301D   26204.36017860  .00002344  00000+0  33615-3 0  9992
2 67136  51.8973 185.6515 0000504  61.2902 298.8111 14.79953301 34007
KUIPER-00181            
1 67137U 25301E   26204.27919885  .00001994  00000+0  29051-3 0  9990
2 67137  51.9005 198.5514 0001024  69.2868 290.8204 14.79939279 33792
KUIPER-00183            
1 67138U 25301F   26204.28797331  .00003669  00000+0  37471-3 0  9998
2 67138  51.8928 170.0450 0009476 148.9342 211.2188 14.92788124 34202
KUIPER-00184            
1 67139U 25301G   26204.33179953 -.00002976  00000+0 -36159-3 0  9993
2 67139  51.8995 180.7813 0000436  66.1467 293.9541 14.79927289 34161
KUIPER-00186            
1 67140U 25301H   26204.17791831  .00002093  00000+0  30346-3 0  9992
2 67140  51.9008 199.0095 0000509  52.7996 307.3013 14.79939782 33628
KUIPER-00187            
1 67141U 25301J   26204.37778785  .00001884  00000+0  27590-3 0  9992
2 67141  51.9019 200.6493 0000497  52.0782 308.0225 14.79950129 33614
KUIPER-00188            
1 67142U 25301K   26204.58170215  .00002934  00000+0  41360-3 0  9998
2 67142  51.9017 167.3348 0000688  60.6433 299.4598 14.79947667 34093
KUIPER-00191            
1 67143U 25301L   26204.21708468  .00002024  00000+0  29440-3 0  9991
2 67143  51.8996 193.8473 0000482  55.6256 304.4752 14.79940510 33729
KUIPER-00196            
1 67144U 25301M   26204.24433557  .00002419  00000+0  37581-3 0  9992
2 67144  51.8968 150.3045 0001639  21.2416 338.8613 14.76360684 34301
KUIPER-00204            
1 67145U 25301N   26204.14542301  .00002920  00000+0  41166-3 0  9991
2 67145  51.8996 166.6485 0000790  41.0085 319.0937 14.79951355 34180
KUIPER-00210            
1 67146U 25301P   26204.38584742  .00002160  00000+0  31206-3 0  9993
2 67146  51.8980 193.0517 0000537  47.0451 313.0556 14.79953281 33894
KUIPER-00221            
1 67147U 25301Q   26204.41155490  .00001908  00000+0  27907-3 0  9994
2 67147  51.8996 200.4649 0000507  52.1452 307.9556 14.79945587 33629
KUIPER-00232            
1 67148U 25301R   26204.32646838  .00002555  00000+0  36389-3 0  9999
2 67148  51.8981 185.8623 0000471  59.6455 300.4554 14.79941933 33815
KUIPER-00241            
1 67149U 25301S   26204.34946076  .00002107  00000+0  30522-3 0  9995
2 67149  51.9013 195.7640 0000533  58.5502 301.5513 14.79935328 34013
KUIPER-00245            
1 67150U 25301T   26204.27382566  .00001920  00000+0  28071-3 0  9995
2 67150  51.9018 203.6081 0000340  53.0950 307.0044 14.79941763 33560
KUIPER-00246            
1 67151U 25301U   26204.32371755  .00002380  00000+0  34092-3 0  9991
2 67151  51.8989 188.3375 0000531  59.1364 300.9651 14.79952777 33800
KUIPER-00247            
1 67152U 25301V   26204.33454529  .00002645  00000+0  37565-3 0  9996
2 67152  51.8949 178.2581 0000699  64.4895 295.6140 14.79948651 33929
KUIPER-00248            
1 67153U 25301W   26204.08322088  .00000640  00000+0  11300-3 0  9995
2 67153  51.8967 161.9998 0000980  80.9940 279.1133 14.79917450 34291
KUIPER-00249            
1 67154U 25301X   26204.33721273 -.00001121  00000+0 -11804-3 0  9999
2 67154  51.8978 175.8071 0000658  67.5337 292.5695 14.79926428 33952
KUIPER-00250            
1 67155U 25301Y   26204.15224976  .00001988  00000+0  28960-3 0  9998
2 67155  51.8972 191.5792 0000517  61.6729 298.4285 14.79940486 33754
KUIPER-00251            
1 67156U 25301Z   26204.30080253  .00002559  00000+0  36449-3 0  9990
2 67156  51.8986 178.4916 0000834  44.7287 315.3743 14.79947854 34109
KUIPER-00252            
1 67157U 25301AA  26204.29809262  .00002466  00000+0  35226-3 0  9997
2 67157  51.8991 180.9540 0000572  61.0786 299.0234 14.79948763 33889
KUIPER-00261            
1 67158U 25301AB  26204.18602354  .00002090  00000+0  30310-3 0  9991
2 67158  51.9005 191.5051 0000512  56.1677 303.9334 14.79935977 33722
KUIPER-00265            
1 67159U 25301AC  26204.27108061  .00001804  00000+0  26544-3 0  9994
2 67159  51.9006 206.1040 0000486  45.1549 314.9453 14.79954486 33563
KUIPER-00159            
1 67764U 26030A   26204.66668980 -.00010246  00000+0 -68840-3 0  9997
2 67764  51.8969 283.4787 0007383 151.8308 310.2554 15.05341527  4801
KUIPER-00160            
1 67765U 26030B   26204.23830304  .00024822  00000+0  67327-3 0  9994
2 67765  51.8798 283.9065 0005586 170.3292 189.7803 15.37462287 25943
KUIPER-00177            
1 67766U 26030C   26203.74526692 -.00003837  00000+0 -47472-3 0  9996
2 67766  51.9024 335.9092 0000976  84.6701 275.4372 14.79926360 25176
KUIPER-00178            
1 67767U 26030D   26204.38680602 -.00000822  00000+0 -78802-4 0  9993
2 67767  51.9004 333.0531 0000519 127.2808 232.8201 14.79934259 25272
KUIPER-00180            
1 67768U 26030E   26204.32467500  .00019053  00000+0  25242-2 0  9990
2 67768  51.9000 328.3306 0001328 105.4555 254.6554 14.79882259 25334
KUIPER-00197            
1 67769U 26030F   26204.68388672  .00003567  00000+0  49634-3 0  9997
2 67769  51.8996 306.7565 0000228 222.2143 137.8802 14.79961690 25665
KUIPER-00198            
1 67770U 26030G   26204.29899713  .00003466  00000+0  48311-3 0  9998
2 67770  51.8978 320.9389 0000381  99.0252 261.0754 14.79957891 25439
KUIPER-00199            
1 67771U 26030H   26204.52504428  .00030902  00000+0  85004-3 0  9996
2 67771  51.8809 284.2900 0009339 201.7141 158.3451 15.36879998 25960
KUIPER-00200            
1 67772U 26030J   26204.65311969  .00003630  00000+0  50504-3 0  9992
2 67772  51.8978 304.4205 0001145  94.3227 265.7866 14.79925203 25699
KUIPER-00203            
1 67773U 26030K   26204.41518150  .00003600  00000+0  50059-3 0  9990
2 67773  51.9075 337.9962 0000513 109.1844 250.9174 14.79961312 25204
KUIPER-00205            
1 67774U 26030L   26204.31779159 -.00003628  00000+0 -44737-3 0  9996
2 67774  51.9010 303.3522 0000561 138.4727 221.6278 14.79915315 25685
KUIPER-00208            
1 67775U 26030M   26204.05176133  .00003425  00000+0  47805-3 0  9993
2 67775  51.8991 332.0374 0000282 281.4906  78.6025 14.79935431 25259
KUIPER-00209            
1 67776U 26030N   26203.75069244  .00003271  00000+0  45773-3 0  9995
2 67776  51.9007 330.9614 0000449 132.0387 228.0613 14.79950942 25249
KUIPER-00213            
1 67777U 26030P   26204.32737054  .00003731  00000+0  51782-3 0  9999
2 67777  51.8965 325.8886 0000454 121.4874 238.6133 14.79960136 25368
KUIPER-00214            
1 67778U 26030Q   26204.70147880 -.00001692  00000+0 -19306-3 0  9996
2 67778  51.9009 321.7490 0000830 119.0903 241.0143 14.79931900 25455
KUIPER-00215            
1 67779U 26030R   26204.68125481  .00003518  00000+0  49045-3 0  9997
2 67779  51.9001 309.2024 0000417  91.3980 268.7030 14.79911747 25638
KUIPER-00218            
1 67780U 26030S   26204.69877309 -.00000465  00000+0 -32017-4 0  9995
2 67780  51.8974 324.1648 0000827 127.2273 232.8765 14.79923909 25422
KUIPER-00220            
1 67781U 26030T   26204.52315861  .00003551  00000+0  49435-3 0  9996
2 67781  51.8956 299.9796 0000966  71.3422 288.7645 14.79948354 25748
KUIPER-00222            
1 67782U 26030U   26203.58996651  .00003428  00000+0  47821-3 0  9994
2 67782  51.8985 324.2259 0000349  91.2083 268.8919 14.79947459 25328
KUIPER-00223            
1 67783U 26030V   26204.57720250  .00003798  00000+0  52661-3 0  9993
2 67783  51.9016 312.1566 0000377 116.7672 243.3329 14.79957789 25588
KUIPER-00225            
1 67784U 26030W   26204.63934869  .00003558  00000+0  49513-3 0  9990
2 67784  51.8985 317.0425 0000288 116.8886 243.2106 14.79960119 25516
KUIPER-00226            
1 67785U 26030X   26204.57253970  .00001746  00000+0  27939-3 0  9996
2 67785  51.9008 303.5395 0003386 180.3636 179.7323 14.76425498 25709
KUIPER-00259            
1 67786U 26030Y   26203.59263564  .00000613  00000+0  10940-3 0  9994
2 67786  51.8967 321.5741 0001014  95.3750 264.7328 14.79929581 25363
KUIPER-00260            
1 67787U 26030Z   26204.67581248  .00003691  00000+0  51256-3 0  9991
2 67787  51.9013 314.3822 0000327 127.0702 233.0290 14.79961216 25462
KUIPER-00262            
1 67788U 26030AA  26204.64203769  .00003523  00000+0  49063-3 0  9995
2 67788  51.9007 314.4489 0000432 214.6971 145.3964 14.79959043 25552
KUIPER-00266            
1 67789U 26030AB  26204.67847428  .00001478  00000+0  22278-3 0  9991
2 67789  51.9007 311.7831 0001971 211.0372 149.0475 14.79950672 25590
KUIPER-00268            
1 67790U 26030AC  26204.30977904 -.00000880  00000+0 -86436-4 0  9991
2 67790  51.9010 310.9307 0000805 112.1512 247.9535 14.79943172 25577
KUIPER-00270            
1 67791U 26030AD  26204.69224530  .00034044  00000+0  44687-2 0  9991
2 67791  51.9002 299.2236 0000616  94.8439 265.2593 14.79964749 25775
KUIPER-00274            
1 67792U 26030AE  26204.66771054  .00003722  00000+0  51668-3 0  9994
2 67792  51.9019 321.8257 0000443 187.9549 172.1407 14.79960399 25455
KUIPER-00275            
1 67793U 26030AF  26204.68926457  .00003544  00000+0  49326-3 0  9996
2 67793  51.8997 301.7391 0000239 150.4324 209.6652 14.79966763 25735
KUIPER-00276            
1 67794U 26030AG  26204.31247125 -.00002854  00000+0 -34541-3 0  9993
2 67794  51.9016 308.3853 0002169 170.5285 189.5718 14.79931251 25618
KUIPER-00279            
1 67795U 26030AH  26204.69464660  .00004622  00000+0  63455-3 0  9999
2 67795  51.9034 296.7272 0001231 245.1386 114.9449 14.79954469 25804
KUIPER-00131            
1 68573U 26072A   26204.55574002 -.00000162  00000+0  78031-5 0  9991
2 68573  51.9019  34.8275 0000665 113.6922 246.4111 14.79945265 16509
KUIPER-00189            
1 68574U 26072B   26203.97908665 -.00003324  00000+0 -40756-3 0  9998
2 68574  51.9010  39.8634 0000934 107.8860 252.2204 14.79904963 16384
KUIPER-00192            
1 68575U 26072C   26204.55843590 -.00000334  00000+0 -14799-4 0  9996
2 68575  51.9008  32.3123 0000742 121.9914 238.1121 14.79944177 16547
KUIPER-00193            
1 68576U 26072D   26203.89397932  .00003301  00000+0  46188-3 0  9998
2 68576  51.9055  25.2713 0001405   6.7421 353.3560 14.79930738 16585
KUIPER-00194            
1 68577U 26072E   26204.52736850  .00002946  00000+0  41510-3 0  9994
2 68577  51.9030  29.9648 0000516 144.3408 215.7589 14.79950376 16574
KUIPER-00229            
1 68578U 26072F   26204.52196459 -.00000479  00000+0 -33763-4 0  9993
2 68578  51.9015  34.9743 0000725 125.2263 234.8767 14.79945910 16500
KUIPER-00230            
1 68579U 26072G   26204.43870885  .00031829  00000+0  83354-3 0  9997
2 68579  51.8768   1.1750 0002273 138.6208 221.4951 15.38422236 16960
KUIPER-00231            
1 68580U 26072H   26204.66668980 -.00029044  00000+0 -38812-2 0  9991
2 68580  51.8993   6.6515 0004406  54.2705 339.9996 14.79005754  5290
KUIPER-00234            
1 68581U 26072J   26204.49369722  .00003367  00000+0  47058-3 0  9996
2 68581  51.8998  30.0915 0000082 187.0550 173.0411 14.79916790 16562
KUIPER-00236            
1 68582U 26072K   26203.74753891  .00038065  00000+0  10000-2 0  9997
2 68582  51.8761   4.7922 0001730 177.4603 182.6393 15.38237629 16850
KUIPER-00244            
1 68583U 26072L   26204.47062345 -.00001510  00000+0 -16898-3 0  9995
2 68583  51.8976  20.2130 0001871 128.8856 231.2274 14.79942655 16708
KUIPER-00253            
1 68584U 26072M   26204.46795381  .00003137  00000+0  44016-3 0  9996
2 68584  51.9041  22.7338 0000619 109.6105 250.4924 14.79953099 16667
KUIPER-00254            
1 68585U 26072N   26204.49900661  .00003369  00000+0  47051-3 0  9998
2 68585  51.9040  25.0948 0001677 132.1037 228.0068 14.79958493 16630
KUIPER-00263            
1 68586U 26072P   26204.44776355 -.00005661  00000+0 -71407-3 0  9996
2 68586  51.9030  10.3978 0000487  87.1800 272.9218 14.79940115 16834
KUIPER-00269            
1 68587U 26072Q   26204.44491727  .00003420  00000+0  47679-3 0  9997
2 68587  51.9009  12.8252 0000464  70.5828 289.5184 14.79981330 16801
KUIPER-00272            
1 68588U 26072R   26204.25455515  .00003826  00000+0  53020-3 0  9999
2 68588  51.8995  33.6441 0000746 125.1829 234.9203 14.79962044 16499
KUIPER-00285            
1 68589U 26072S   26204.47869975  .00003200  00000+0  44810-3 0  9996
2 68589  51.9063  12.7345 0001711 164.8235 195.2779 14.79983124 16806
KUIPER-00286            
1 68590U 26072T   26204.18821043  .00002049  00000+0  32301-3 0  9992
2 68590  51.9029  11.2270 0002278 166.7564 193.3457 14.76357752 16807
KUIPER-00289            
1 68591U 26072U   26204.20321147  .00003402  00000+0  47481-3 0  9995
2 68591  51.9004  18.8895 0000687 135.8913 224.2105 14.79957787 16692
KUIPER-00290            
1 68592U 26072V   26203.77167946  .00002021  00000+0  31863-3 0  9995
2 68592  51.9040  19.4730 0001112 136.4996 223.6053 14.76406982 16654
KUIPER-00293            
1 68593U 26072W   26204.53006395  .00000338  00000+0  73404-4 0  9998
2 68593  51.8922  27.4216 0002902 149.9989 210.1139 14.79943152 16609
KUIPER-00294            
1 68594U 26072X   26203.86825517  .00003438  00000+0  47966-3 0  9996
2 68594  51.9007  17.8691 0001858  66.4327 293.6830 14.79949083 16684
KUIPER-00296            
1 68595U 26072Y   26204.66668980 -.01253252  00000+0 -48552-1 0  9999
2 68595  51.8774   0.6548 0008762 148.9023  85.0252 15.28449375  5656
KUIPER-00297            
1 68596U 26072Z   26202.53129584  .00001526  00000+0  24836-3 0  9999
2 68596  51.9006  36.1871 0001074 151.2996 208.8024 14.76364713 16315
KUIPER-00300            
1 68597U 26072AA  26204.48560751  .00002115  00000+0  33147-3 0  9991
2 68597  51.9032  24.6487 0001824 155.9767 204.1279 14.76486036 16640
KUIPER-00301            
1 68598U 26072AB  26204.66668980 -.00536171  00000+0 -16273-1 0  9990
2 68598  51.8672   0.2711 0008909 152.3390 232.9591 15.35690077  5769
KUIPER-00304            
1 68599U 26072AC  26204.66668980 -.01155488  00000+0 -41016-1 0  9993
2 68599  51.8736   0.6430 0010715 157.1307  53.4207 15.31464224  3398
KUIPER-00317            
1 68600U 26072AD  26204.44227955  .00003428  00000+0  47827-3 0  9996
2 68600  51.8991  15.3415 0000680  94.2748 265.8292 14.79950799 16766
KUIPER-00320            
1 68601U 26072AE  26203.49144363  .00003039  00000+0  42718-3 0  9994
2 68601  51.9036  24.5397 0000712 119.7853 240.3181 14.79956404 16556
KUIPER-00299            
1 68864U 26095A   26204.07408100  .00001961  00000+0  30957-3 0  9991
2 68864  51.8996  90.7223 0001393 306.2846  53.7986 14.76480802 12944
KUIPER-00353            
1 68865U 26095B   26204.03992515  .00000553  00000+0  10142-3 0  9996
2 68865  51.9013  77.1169 0001276 122.6624 237.4461 14.79968556 13139
KUIPER-00357            
1 68866U 26095C   26204.40321707 -.00001236  00000+0 -13312-3 0  9990
2 68866  51.9038  83.0135 0001262 109.4576 250.6523 14.79935303 13084
KUIPER-00364            
1 68867U 26095D   26204.36680841  .00003908  00000+0  54103-3 0  9992
2 68867  51.9039  85.6850 0001146 171.5491 188.5491 14.79957743 13046
KUIPER-00375            
1 68868U 26095E   26204.63544993  .00001926  00000+0  30523-3 0  9998
2 68868  51.9014  76.5399 0003389 119.9963 240.1334 14.76407306 13197
KUIPER-00433            
1 68869U 26095F   26204.39253605  .00003607  00000+0  50108-3 0  9998
2 68869  51.9005  93.0570 0001231  99.3114 260.7988 14.80005480 12943
KUIPER-00437            
1 68870U 26095G   26204.01726194  .00042031  00000+0  10843-2 0  9992
2 68870  51.8801  68.9657 0007293  78.5134 281.6672 15.38729560 13242
KUIPER-00448            
1 68871U 26095H   26204.35725461  .00001952  00000+0  30856-3 0  9990
2 68871  51.9037  81.6858 0001172 191.3409 168.7526 14.76439701 13091
KUIPER-00459            
1 68872U 26095J   26204.66668980 -.00014139  00000+0 -12809-2 0  9997
2 68872  51.8950  69.7682 0009119  74.6934  17.0170 14.94291748  4641
KUIPER-00468            
1 68873U 26095K   26204.72105521 -.00171885  00000+0 -98895-2 0  9993
2 68873  51.8910  67.6934 0004434  52.0249 308.1128 15.12779938 13324
KUIPER-00476            
1 68874U 26095L   26204.67234823  .00015881  00000+0  50942-3 0  9999
2 68874  51.8742  67.2752 0010399  77.7760 282.4388 15.32444089 13321
KUIPER-00478            
1 68875U 26095M   26204.66668980 -.00037573  00000+0 -48709-2 0  9995
2 68875  51.8995  71.7405 0003654 225.2605 100.6599 14.80406497  5274
KUIPER-00480            
1 68876U 26095N   26204.66668980 -.00017964  00000+0 -16987-2 0  9991
2 68876  51.8954  69.2181 0005050  64.0956  66.4836 14.92810480  4033
KUIPER-00482            
1 68877U 26095P   26204.63849147  .00002005  00000+0  31621-3 0  9996
2 68877  51.9009  79.4300 0000555 284.7127  75.3772 14.76425497 13151
KUIPER-00483            
1 68878U 26095Q   26204.28831360  .00017769  00000+0  25448-2 0  9998
2 68878  51.8991  93.4645 0001024 150.8927 209.2091 14.76612783 12924
KUIPER-00488            
1 68879U 26095R   26204.66668980  .00003472  00000+0  48461-3 0  9994
2 68879  51.8999  74.3603 0001182 103.4731 177.2142 14.79898459  5154
KUIPER-00489            
1 68880U 26095S   26204.66668980 -.01499241  00000+0 -94730-1 0  9990
2 68880  51.8853  68.1683 0012924  71.4153 204.1133 15.11798345  5332
KUIPER-00499            
1 68881U 26095T   26204.66668980 -.00020043  00000+0 -22606-2 0  9994
2 68881  51.9000  71.9901 0006766  70.4517 336.3715 14.85811514  4183
KUIPER-00500            
1 68882U 26095U   26204.69900427 -.00003053  00000+0 -37159-3 0  9995
2 68882  51.9021  89.2025 0001473  60.5254 299.5855 14.79942027 13029
KUIPER-00502            
1 68883U 26095V   26204.66668980 -.00007813  00000+0 -46658-3 0  9990
2 68883  51.8958  67.2283 0005806  66.0217 301.1401 15.09300948  3417
KUIPER-00503            
1 68884U 26095W   26204.39781531 -.00007269  00000+0 -92522-3 0  9995
2 68884  51.8979  88.0230 0000856 118.6266 241.4783 14.79946100 13010
KUIPER-00504            
1 68885U 26095X   26204.69362030  .00003475  00000+0  48429-3 0  9998
2 68885  51.9027  94.2271 0001072  96.4026 263.7058 14.79962180 12958
KUIPER-00505            
1 68886U 26095Y   26203.72522201 -.00001570  00000+0 -17699-3 0  9991
2 68886  51.9025  88.5118 0000893 107.7839 252.3220 14.79938721 12949
KUIPER-00507            
1 68887U 26095Z   26204.66668980  .00007494  00000+0  10973-2 0  9997
2 68887  51.9005  74.1634 0001403  36.4532  65.8575 14.76422682  3893
KUIPER-00511            
1 68888U 26095AA  26204.66668980 -.01715331  00000+0 -14119+0 0  9990
2 68888  51.8962  67.9937 0005774  35.5931 250.3633 15.02121703  2793
KUIPER-00512            
1 68889U 26095AB  26204.70170808  .00003531  00000+0  49159-3 0  9998
2 68889  51.9019  86.6946 0000954 113.3014 246.8049 14.79960744 13059
KUIPER-00519            
1 68890U 26095AC  26204.64499997  .00023546  00000+0  31092-2 0  9990
2 68890  51.9044  77.0062 0001797  33.5121 326.5955 14.79899795 13183
KUIPER-00521            
1 68891U 26095AD  26204.66668980 -.00021592  00000+0 -25624-2 0  9998
2 68891  51.9023  70.6618 0001973 325.7636 128.1003 14.83792689  5865
KUIPER-00524            
1 68892U 26095AE  26204.64856343  .00001417  00000+0  23255-3 0  9990
2 68892  51.8991  78.4450 0002291 125.5013 234.6161 14.76427192 13164
KUIPER-00370            
1 68919U 26098A   26204.66668980  .00003081  00000+0  27904-3 0  9997
2 68919  51.8876 257.2170 0012786 293.6218 295.4084 14.98098203  5741
KUIPER-00380            
1 68920U 26098B   26204.33725481  .00012267  00000+0  44433-3 0  9995
2 68920  51.8757 255.4714 0006532 294.6377  65.3925 15.28752218 12871
KUIPER-00386            
1 68921U 26098C   26204.66668980 -.01800970  00000+0 -12422+0 0  9990
2 68921  51.8898 252.8508 0004113   7.4814 204.9217 15.08831429  5359
KUIPER-00388            
1 68922U 26098D   26204.66668980  .00020269  00000+0  29114-2 0  9992
2 68922  51.8996 261.7402 0001523  67.7548 258.5153 14.76408617  5207
KUIPER-00405            
1 68923U 26098E   26204.66668980 -.00022781  00000+0 -30844-2 0  9998
2 68923  51.9005 259.2369 0005516 152.5423 353.3233 14.78322897  4945
KUIPER-00408            
1 68924U 26098F   26204.36928855 -.00020744  00000+0 -80191-3 0  9994
2 68924  51.8737 257.1457 0013252 287.2942  72.6590 15.25180816 12852
KUIPER-00409            
1 68925U 26098G   26204.66668980 -.00005025  00000+0 -51850-3 0  9993
2 68925  51.8989 256.8639 0005639 318.0099 295.5501 14.87848443  4747
KUIPER-00410            
1 68926U 26098H   26204.66668980 -.00557978  00000+0 -35908-1 0  9997
2 68926  51.8840 256.0627 0013376 277.8227 130.7810 15.10190637  4706
KUIPER-00412            
1 68927U 26098J   26204.66668980 -.01477633  00000+0 -52905-1 0  9994
2 68927  51.8808 251.0122 0003832  13.1722 355.1617 15.31547218  3546
KUIPER-00413            
1 68928U 26098K   26204.66668980 -.00012413  00000+0 -14349-2 0  9996
2 68928  51.9011 259.4333 0020250 293.9880 197.7432 14.84317365  4457
KUIPER-00414            
1 68929U 26098L   26204.58929919 -.00001815  00000+0 -20909-3 0  9994
2 68929  51.8984 269.7862 0001209 316.5239  43.5628 14.79929131 12694
KUIPER-00415            
1 68930U 26098M   26204.66668980 -.01185056  00000+0 -67011-1 0  9997
2 68930  51.8879 254.2438 0007716 273.3019 294.3738 15.15564567  3598
KUIPER-00416            
1 68931U 26098N   26204.45112840  .00026786  00000+0  72094-3 0  9994
2 68931  51.8757 251.8208 0001640   2.2585 357.8409 15.37669854 12936
KUIPER-00420            
1 68932U 26098P   26204.50505024  .00022102  00000+0  61175-3 0  9997
2 68932  51.8764 252.1913 0004739 347.4007  12.6860 15.36907669 12932
KUIPER-00421            
1 68933U 26098Q   26204.56788573 -.00424795  00000+0 -16009-1 0  9996
2 68933  51.8758 254.0538 0007650 272.6030  87.4078 15.28366749 12918
KUIPER-00425            
1 68934U 26098R   26204.66668980 -.00000636  00000+0 -33976-4 0  9996
2 68934  51.8934 257.3775 0010264 277.7755 159.9146 14.95280504  5470
KUIPER-00430            
1 68935U 26098S   26204.66668980 -.00013319  00000+0 -15354-2 0  9997
2 68935  51.9008 259.3115 0017234 287.2455  23.3467 14.84532540  4984
KUIPER-00431            
1 68936U 26098T   26204.52992034  .00015624  00000+0  20715-2 0  9999
2 68936  51.8996 262.4500 0000897  15.7152 344.3838 14.79975958 12792
KUIPER-00432            
1 68937U 26098U   26204.66668980 -.01543721  00000+0 -10950+0 0  9999
2 68937  51.8830 255.6292 0010995 284.9598 357.6789 15.07759438  4783
KUIPER-00434            
1 68938U 26098V   26204.66668980 -.00018623  00000+0 -21780-2 0  9993
2 68938  51.8994 257.0860 0001829 270.8325  56.1508 14.84303359  4679
KUIPER-00436            
1 68939U 26098W   26204.66668980 -.00000225  00000+0  20657-5 0  9997
2 68939  51.8963 257.0941 0008865 280.0780  14.8938 14.90127175  3642
KUIPER-00438            
1 68940U 26098X   26204.66668980 -.00000330  00000+0 -58039-5 0  9992
2 68940  51.8941 255.1295 0003905 358.6451  57.9150 14.97753336  5791
KUIPER-00439            
1 68941U 26098Y   26204.66668980 -.00048470  00000+0 -38032-2 0  9998
2 68941  51.8923 255.1367 0004749 287.4934 187.6280 15.00558507  5539
KUIPER-00440            
1 68942U 26098Z   26204.71513109  .00019701  00000+0  64778-3 0  9997
2 68942  51.8777 252.8079 0003481 334.4452  25.6360 15.31527253 12942
KUIPER-00442            
1 68943U 26098AA  26204.54427713  .00022111  00000+0  79484-3 0  9993
2 68943  51.8810 253.1555 0002714 291.6552  68.4142 15.28553765 12921
KUIPER-00446            
1 68944U 26098AB  26204.66668980 -.01546000  00000+0 -10225+0 0  9995
2 68944  51.8891 253.5170 0003269 268.7448 250.2222 15.10389843  5481
KUIPER-00451            
1 68945U 26098AC  26204.53815307  .00001390  00000+0  22883-3 0  9991
2 68945  51.8980 262.3306 0000723  35.6067 324.4942 14.76391405 12793
KUIPER-00452            
1 68946U 26098AD  26204.66668980 -.01059914  00000+0 -55747-1 0  9990
2 68946  51.8828 252.0559 0003936 300.6219 288.4040 15.18272035  5204
KUIPER-00453            
1 68947U 26098AE  26204.66668980 -.00052659  00000+0 -18251-2 0  9999
2 68947  51.8787 251.1210 0004210 357.7577 326.9595 15.29321437  5485
KUIPER-00454            
1 68948U 26098AF  26204.44136043  .00001641  00000+0  26439-3 0  9997
2 68948  51.8974 264.1010 0003870 157.2994 202.8138 14.76441823 12760
KUIPER-00455            
1 68949U 26098AG  26204.66668980  .00026172  00000+0  34465-2 0  9995
2 68949  51.8989 261.8533 0002002 304.8329 154.2053 14.79959175  5034
KUIPER-00458            
1 68950U 26098AH  26204.66668980  .00025744  00000+0  91172-3 0  9990
2 68950  51.8785 251.3977 0002768 344.6995 176.9049 15.28953144  5543
KUIPER-00282            
1 69267U 26118A   26204.66668980 -.00776224  00000+0 -66937-1 0  9992
2 69267  51.9014 240.1719 0011532 332.6983 144.6277 14.99380713  5801
KUIPER-00383            
1 69268U 26118B   26204.66668980 -.01293954  00000+0 -79552-1 0  9995
2 69268  51.8794 238.8626 0010023 321.1346 139.4686 15.12866426  3290
KUIPER-00527            
1 69269U 26118C   26204.66668980 -.01452550  00000+0 -95007-1 0  9998
2 69269  51.8835 238.8767 0007636 334.1131  69.8835 15.10533533  3240
KUIPER-00562            
1 69270U 26118D   26204.37056888  .00027646  00000+0  72999-3 0  9994
2 69270  51.8726 237.9390 0001656  25.9076 334.1993 15.38242800  9559
KUIPER-00570            
1 69271U 26118E   26204.66668980 -.00025807  00000+0 -28481-2 0  9994
2 69271  51.8975 242.1131 0005782 335.4694 205.4699 14.86842654  4920
KUIPER-00572            
1 69272U 26118F   26204.66668980 -.01745490  00000+0 -12090+0 0  9999
2 69272  51.8824 238.5606 0005706 324.5866 252.9299 15.08553959  3953
KUIPER-00581            
1 69273U 26118G   26204.66668980 -.00038635  00000+0 -45839-2 0  9995
2 69273  51.9003 241.9218 0004619 323.2405 344.2200 14.84090976  3908
KUIPER-00584            
1 69274U 26118H   26204.66668980 -.00032853  00000+0 -42876-2 0  9990
2 69274  51.8990 244.4645 0002793  52.7532  35.7284 14.80064848  5711
KUIPER-00587            
1 69275U 26118J   26204.66668980  .00018017  00000+0  67310-3 0  9996
2 69275  51.8675 237.3860 0008126 334.3028 153.3119 15.27397857  5914
KUIPER-00590            
1 69276U 26118K   26204.66668980 -.00008689  00000+0 -69120-3 0  9994
2 69276  51.8911 239.8933 0002198  19.4808   9.1815 14.98859498  4153
KUIPER-00592            
1 69277U 26118L   26204.66668980 -.00018124  00000+0 -13993-2 0  9996
2 69277  51.9088 239.4147 0001233 219.5329  69.1112 15.00664876  5798
KUIPER-00593            
1 69278U 26118M   26204.56401015 -.00485281  00000+0 -13601-1 0  9997
2 69278  51.8694 236.9844 0002407 303.5439  56.5318 15.38001068  9642
KUIPER-00594            
1 69279U 26118N   26204.31100809  .00030414  00000+0  81901-3 0  9990
2 69279  51.8701 238.2900 0001931  80.1170 280.0035 15.37584997  9546
KUIPER-00595            
1 69280U 26118P   26204.31353823  .00035198  00000+0  94520-3 0  9993
2 69280  51.8698 238.3051 0001541  18.3896 341.7147 15.37598574  9574
KUIPER-00596            
1 69281U 26118Q   26204.66668980 -.00013863  00000+0 -17983-2 0  9999
2 69281  51.8998 244.3519 0001480 115.4308  62.9687 14.79812067  5830
KUIPER-00597            
1 69282U 26118R   26204.46850262  .00024243  00000+0  64901-3 0  9999
2 69282  51.8632 237.8107 0007145 325.2882  34.7638 15.37871862  9568
KUIPER-00599            
1 69283U 26118S   26204.66668980 -.01255161  00000+0 -60871-1 0  9994
2 69283  51.8786 237.4323 0006873 307.4331 193.3274 15.21033947  4732
KUIPER-00600            
1 69284U 26118T   26204.41558899  .00033544  00000+0  90027-3 0  9999
2 69284  51.8636 238.2004 0008472 321.4179  38.6201 15.37609089  9554
KUIPER-00601            
1 69285U 26118U   26204.66668980 -.00071520  00000+0 -59411-2 0  9999
2 69285  51.8936 239.5828 0002178 306.4727 174.5852 14.98581093  5340
KUIPER-00602            
1 69286U 26118V   26204.66668980  .00020208  00000+0  66293-3 0  9992
2 69286  51.8715 236.6570 0003268 312.0417 185.3912 15.31584452  5312
KUIPER-00603            
1 69287U 26118W   26204.66668980 -.02185221  00000+0 -10638+0 0  9992
2 69287  51.8774 237.2386 0003488 319.0017 206.9241 15.21738838  5523
KUIPER-00605            
1 69288U 26118X   26204.66668980 -.00029804  00000+0 -33347-2 0  9990
2 69288  51.8990 241.9695 0003357  32.6787  64.3559 14.86367940  4873
KUIPER-00606            
1 69289U 26118Y   26204.66668980 -.00228099  00000+0 -11003-1 0  9992
2 69289  51.8833 237.2672 0002040 317.9101 223.9819 15.19251270  5856
KUIPER-00607            
1 69290U 26118Z   26204.45746861  .00024462  00000+0  64970-3 0  9995
2 69290  51.8669 237.7545 0005343 311.0145  49.0380 15.38121754  9567
KUIPER-00608            
1 69291U 26118AA  26204.42640940  .00027095  00000+0  84362-3 0  9996
2 69291  51.8614 238.9816 0009384 327.7592  32.2818 15.33049178  9543
KUIPER-00610            
1 69292U 26118AB  26204.66668980 -.02414378  00000+0 -80425-1 0  9999
2 69292  51.8742 236.5336 0001856  32.6071 154.9958 15.34445281  5085
KUIPER-00613            
1 69293U 26118AC  26204.66668980 -.00040147  00000+0 -46111-2 0  9992
2 69293  51.8994 241.9521 0009594 335.8882  45.8878 14.85412242  5542
KUIPER-00618            
1 69294U 26118AD  26204.31467300  .00024396  00000+0  65699-3 0  9997
2 69294  51.8703 238.3120 0000750 171.8399 188.2600 15.37705291  9548
KUIPER-00620            
1 69295U 26118AE  26204.66668980 -.01186923  00000+0 -41654-1 0  9994
2 69295  51.8741 236.5670 0001528 320.0105 220.8683 15.32019540  2747
KUIPER-00423            
1 69592U 26140A   26204.43171192  .00025319  00000+0  65920-3 0  9990
2 69592  51.8790 223.1579 0013844 302.1834  57.7810 15.38637970  6815
KUIPER-00428            
1 69593U 26140B   26204.28363417  .00012672  00000+0  35358-3 0  9997
2 69593  51.8782 224.4037 0008100  57.0293 303.1471 15.37079800  6782
KUIPER-00481            
1 69594U 26140C   26204.44571066  .00023974  00000+0  63634-3 0  9992
2 69594  51.8780 223.2400 0010895 316.6551  43.3578 15.38112254  6814
KUIPER-00490            
1 69595U 26140D   26204.32589943  .00029733  00000+0  79025-3 0  9993
2 69595  51.8778 223.9336 0007585  16.1966 343.9262 15.37979068  6790
KUIPER-00493            
1 69596U 26140E   26204.66668980 -.01245832  00000+0 -50887-1 0  9996
2 69596  51.8840 222.8872 0009453  68.6393  83.8531 15.26698904  2909
KUIPER-00496            
1 69597U 26140F   26204.45860977  .00020215  00000+0  61188-3 0  9995
2 69597  51.8778 224.0570 0011015  77.5553 282.6664 15.34111593  6805
KUIPER-00513            
1 69598U 26140G   26204.32137353  .00015251  00000+0  40703-3 0  9991
2 69598  51.8802 223.9149 0007705   6.8243 353.2848 15.38294577  6791
KUIPER-00516            
1 69599U 26140H   26204.33264685  .00036734  00000+0  98055-3 0  9994
2 69599  51.8777 223.9798 0007648  21.6051 338.5257 15.37739371  6796
KUIPER-00517            
1 69600U 26140J   26204.66668980 -.00037221  00000+0 -99953-3 0  9991
2 69600  51.8756 222.0317 0010809 326.1225 245.0509 15.37156577  4928
KUIPER-00520            
1 69601U 26140K   26204.66668980 -.00132712  00000+0 -39609-2 0  9994
2 69601  51.8813 222.4044 0006937  26.7639   8.3113 15.34538591  5416
KUIPER-00522            
1 69602U 26140L   26204.43055965  .00017286  00000+0  45258-3 0  9997
2 69602  51.8779 223.1419 0012917 297.6097  62.3579 15.38734551  6813
KUIPER-00528            
1 69603U 26140M   26204.66668980 -.01781087  00000+0 -58558-1 0  9995
2 69603  51.8778 222.4518 0005465  30.7284 329.2704 15.34295199  4986
KUIPER-00532            
1 69604U 26140N   26204.41827676  .00018347  00000+0  51449-3 0  9991
2 69604  51.8770 223.7961 0005740  59.0303 301.1247 15.36622889  6803
KUIPER-00533            
1 69605U 26140P   26204.44677985  .00027160  00000+0  71410-3 0  9994
2 69605  51.8785 223.2491 0008478 355.4957   4.5953 15.38354554  6814
KUIPER-00534            
1 69606U 26140Q   26204.66668980 -.00008377  00000+0 -21766-3 0  9994
2 69606  51.8791 221.9608 0013174 298.7164 314.1716 15.36858867  5220
KUIPER-00537            
1 69607U 26140R   26204.66668980 -.00014834  00000+0 -54120-3 0  9990
2 69607  51.8828 223.2039 0009530  82.5506 294.9292 15.26875600  5187
KUIPER-00538            
1 69608U 26140S   26202.44577285  .00027485  00000+0  73623-3 0  9995
2 69608  51.8791 233.0928 0009043 359.3028   0.7945 15.37768741  6500
KUIPER-00540            
1 69609U 26140T   26204.28128536  .00016410  00000+0  45445-3 0  9998
2 69609  51.8789 224.3924 0006897  49.2087 310.9497 15.37091015  6782
KUIPER-00541            
1 69610U 26140U   26204.31652750  .00033667  00000+0  88167-3 0  9995
2 69610  51.8827 223.8898 0009099 342.4177  17.6494 15.38359024  6793
KUIPER-00542            
1 69611U 26140V   26204.44505259  .00035800  00000+0  93425-3 0  9995
2 69611  51.8770 223.2377 0008233 332.9600  27.0958 15.38443911  6813
KUIPER-00543            
1 69612U 26140W   26204.35161044 -.00011024  00000+0 -29057-3 0  9990
2 69612  51.8767 224.0941 0008033  64.2834 295.8981 15.36863355  6792
KUIPER-00544            
1 69613U 26140X   26204.58005272  .00004934  00000+0  13865-3 0  9996
2 69613  51.8774 222.6393 0007983 355.5080   4.5834 15.38347882  6839
KUIPER-00546            
1 69614U 26140Y   26204.55930948  .00030780  00000+0  81228-3 0  9997
2 69614  51.8773 222.5066 0013728 296.3109  63.6467 15.38116084  6839
KUIPER-00547            
1 69615U 26140Z   26204.31623169  .00034195  00000+0  90676-3 0  9997
2 69615  51.8800 223.8849 0010394 323.8662  36.1622 15.37954488  6790
KUIPER-00549            
1 69616U 26140AA  26204.33934646  .00027978  00000+0  75822-3 0  9992
2 69616  51.8773 224.0234 0008193  41.4573 318.7034 15.37405715  6799
KUIPER-00550            
1 69617U 26140AB  26204.35481194  .00018753  00000+0  62150-3 0  9991
2 69617  51.8774 224.8534 0009064  86.7961 273.4060 15.31279121  6782
KUIPER-00551            
1 69618U 26140AC  26204.24144461  .00024369  00000+0  64041-3 0  9994
2 69618  51.8777 224.1249 0012290 308.8736  51.1154 15.38393504  6789
KUIPER-00554            
1 69619U 26140AD  26204.31357097  .00023712  00000+0  63028-3 0  9999
2 69619  51.8776 223.8544 0011591 320.7279  39.2867 15.38066962  6795
KUIPER-00555            
1 69620U 26140AE  26204.44131253  .00021840  00000+0  58451-3 0  9993
2 69620  51.8799 223.2258 0011281 310.2112  49.7888 15.37910629  6813
KUIPER-00556            
1 69621U 26140AF  26204.66668980 -.00008957  00000+0 -22185-3 0  9991
2 69621  51.8790 222.0916 0012247 299.7164 247.3786 15.38422509  5474
KUIPER-00557            
1 69622U 26140AG  26204.32212567  .00024250  00000+0  65442-3 0  9996
2 69622  51.8793 223.9194 0010227 329.2863  30.7525 15.37599766  6797
KUIPER-00560            
1 69623U 26140AH  26204.31561241  .00024828  00000+0  68303-3 0  9992
2 69623  51.8791 223.8689 0009754 341.3112  18.7515 15.36993577  6791
KUIPER-00561            
1 69624U 26140AJ  26203.78852746  .00036212  00000+0  93545-3 0  9992
2 69624  51.8808 226.3516 0010374 345.7522  14.3171 15.38731022  6710
KUIPER-00564            
1 69625U 26140AK  26204.32076451  .00045437  00000+0  12271-2 0  9990
2 69625  51.8785 223.9072 0007317 320.3996  39.6455 15.37282665  6798
KUIPER-00567            
1 69626U 26140AL  26204.30537361  .00029400  00000+0  76823-3 0  9997
2 69626  51.8767 223.7975 0012956 297.8468  62.1206 15.38454556  6792
KUIPER-00573            
1 69627U 26140AM  26204.32583742  .00025761  00000+0  69368-3 0  9996
2 69627  51.8780 223.9354 0009708 317.2885  42.7347 15.37636779  6790
KUIPER-00258            
1 69763U 26151A   26204.21090683  .00008450  00000+0  26075-3 0  9998
2 69763  51.8682 141.9437 0010502 194.7814 165.2865 15.34365580  3246
KUIPER-00526            
1 69764U 26151B   26204.66668980 -.01213460  00000+0 -42362-1 0  9996
2 69764  51.8776 139.4814 0004680 166.6960 327.0966 15.32227445  3449
KUIPER-00558            
1 69765U 26151C   26204.66668980 -.01191710  00000+0 -49175-1 0  9999
2 69765  51.8809 139.8130 0007033 183.5526 144.8184 15.26271406  3922
KUIPER-00569            
1 69766U 26151D   26204.05032193  .00037646  00000+0  10086-2 0  9998
2 69766  51.8779 142.3888 0005598 166.4759 193.6379 15.37626848  3227
KUIPER-00589            
1 69767U 26151E   26204.66668980 -.01081676  00000+0 -37939-1 0  9995
2 69767  51.8764 139.4800 0005273 171.1543 313.6681 15.31726240  3958
KUIPER-00598            
1 69768U 26151F   26204.66668980  .00060024  00000+0  17810-2 0  9994
2 69768  51.8645 139.7586 0008770 191.7943 160.0178 15.34205037  3862
KUIPER-00604            
1 69769U 26151G   26204.10519738 -.00059555  00000+0 -15640-2 0  9998
2 69769  51.8797 142.0067 0002639 125.8861 234.2372 15.38119408  3238
KUIPER-00609            
1 69770U 26151H   26204.42428821  .00027115  00000+0  70317-3 0  9995
2 69770  51.8802 140.3956 0001112  69.8751 290.2356 15.38809442  3288
KUIPER-00611            
1 69771U 26151J   26204.55689495  .00028753  00000+0  74925-3 0  9994
2 69771  51.8815 139.7806 0001527 143.5876 216.5215 15.38628893  3304
KUIPER-00612            
1 69772U 26151K   26204.10913722  .00027369  00000+0  72610-3 0  9990
2 69772  51.8790 142.0331 0003693 144.3185 215.8050 15.38098923  3231
KUIPER-00614            
1 69773U 26151L   26204.04137224  .00029081  00000+0  76716-3 0  9993
2 69773  51.8797 142.3282 0003222 153.6537 206.4614 15.38242293  3221
KUIPER-00615            
1 69774U 26151M   26204.66668980 -.00884104  00000+0 -28084-1 0  9990
2 69774  51.8779 139.4988 0006140 183.0549 312.6590 15.34727943  2154
KUIPER-00616            
1 69775U 26151N   26204.10390814  .00034208  00000+0  89246-3 0  9997
2 69775  51.8781 142.0022 0003438 159.7088 200.4037 15.38499856  3235
KUIPER-00617            
1 69776U 26151P   26204.24099127  .00021514  00000+0  57688-3 0  9997
2 69776  51.8793 141.4165 0004095 169.5227 190.5846 15.37911621  3251
KUIPER-00619            
1 69777U 26151Q   26204.23077014  .00027860  00000+0  72437-3 0  9997
2 69777  51.8817 141.3479 0001352  78.4198 281.6941 15.38714521  3253
KUIPER-00621            
1 69778U 26151R   26204.23402911  .00028900  00000+0  75771-3 0  9996
2 69778  51.8794 141.3750 0001759 129.0977 231.0167 15.38437028  3252
KUIPER-00622            
1 69779U 26151S   26204.66668980  .00069329  00000+0  20694-2 0  9997
2 69779  51.8736 139.5120 0007123 178.0893 305.4162 15.33962407  3958
KUIPER-00623            
1 69780U 26151T   26204.24580368  .00023915  00000+0  64807-3 0  9992
2 69780  51.8775 141.4488 0004757 157.0535 203.0665 15.37515840  3255
KUIPER-00626            
1 69781U 26151U   26204.53293661  .00018964  00000+0  56647-3 0  9993
2 69781  51.8717 140.3591 0009957 192.8924 167.1808 15.34582905  3297
KUIPER-00627            
1 69782U 26151V   26204.53598220  .00020249  00000+0  60685-3 0  9999
2 69782  51.8704 140.3735 0010668 199.9314 160.1256 15.34426788  3292
KUIPER-00629            
1 69783U 26151W   26204.66668980 -.00042959  00000+0 -17999-2 0  9998
2 69783  51.8833 139.9871 0005987 193.7567  82.6426 15.22957979  3645
KUIPER-00631            
1 69784U 26151X   26204.66668980 -.01964727  00000+0 -89770-1 0  9991
2 69784  51.8799 139.9408 0008462 193.2881  92.5442 15.23413849  1301
KUIPER-00634            
1 69785U 26151Y   26204.24171351  .00027215  00000+0  72662-3 0  9990
2 69785  51.8773 141.4225 0003366 168.8537 191.2525 15.37906810  3258
KUIPER-00639            
1 69786U 26151Z   26204.20421521  .00020374  00000+0  60762-3 0  9991
2 69786  51.8687 141.9041 0009801 187.8748 172.2085 15.34586559  3249
KUIPER-00641            
1 69787U 26151AA  26204.53832076  .00019149  00000+0  58292-3 0  9992
2 69787  51.8680 140.3876 0010906 195.6690 164.3959 15.33967396  3291
KUIPER-00644            
1 69788U 26151AB  26204.51851844  .00021875  00000+0  61314-3 0  9993
2 69788  51.8732 140.2698 0007759 190.2588 169.8241 15.36505117  3285
KUIPER-00646            
1 69789U 26151AC  26204.52659641 -.00012059  00000+0 -33647-3 0  9990
2 69789  51.8697 140.3173 0009560 191.0758 169.0018 15.35198818  3295
KUIPER-00647            
1 69790U 26151AD  26204.53361307 -.00069655  00000+0 -20642-2 0  9996
2 69790  51.8672 140.3555 0011255 194.4538 165.6127 15.34376502  3291
KUIPER-00662            
1 69791U 26151AE  26204.66668980 -.01095336  00000+0 -45857-1 0  9998
2 69791  51.8786 139.8901 0008234 183.3994  87.7913 15.26005238  2339
