KUIPER-00008            
1 63724U 25088A   26119.58334491 -.00041941  00000+0 -52849-2 0  9991
2 63724  51.8994 222.9702 0001758 239.4279  99.9372 14.81650034  4804
KUIPER-00009            
1 63725U 25088B   26119.58334491 -.00016423  00000+0 -21296-2 0  9991
2 63725  51.9015 240.5715 0001541 113.3935 153.1665 14.79947729  4747
KUIPER-00010            
1 63726U 25088C   26119.55742196  .00003821  00000+0  53095-3 0  9993
2 63726  51.9022 218.1607 0000498 101.6658 258.4361 14.79855648 55262
KUIPER-00011            
1 63727U 25088D   26119.58332647 -.00000375  00000+0 -20155-4 0  9998
2 63727  51.9000 225.6067 0000742 107.4274 252.6769 14.79926492 55299
KUIPER-00012            
1 63728U 25088E   26119.56571977  .00003822  00000+0  52953-3 0  9996
2 63728  51.9024 210.6127 0000301  74.6240 285.4756 14.79973559 55450
KUIPER-00013            
1 63729U 25088F   26119.63195811  .00004185  00000+0  57754-3 0  9991
2 63729  51.9014 242.8364 0000656 188.1314 171.9638 14.79939200 55112
KUIPER-00014            
1 63730U 25088G   26119.59824903 -.00015642  00000+0 -20273-2 0  9996
2 63730  51.9013 242.9287 0001159  99.1793 260.9300 14.79937920 54929
KUIPER-00015            
1 63731U 25088H   26119.55366037 -.00000346  00000+0 -16442-4 0  9992
2 63731  51.9006 253.2056 0000346 120.4116 239.6881 14.79929870 55232
KUIPER-00016            
1 63732U 25088J   26119.59529563  .00005012  00000+0  68395-3 0  9998
2 63732  51.8994 245.4639 0000616 113.2635 246.8392 14.80060200 54886
KUIPER-00018            
1 63733U 25088K   26119.57250902  .00004325  00000+0  59573-3 0  9999
2 63733  51.9029 235.5764 0000405 107.0366 253.0640 14.79948866 55028
KUIPER-00019            
1 63734U 25088L   26119.56746352  .00004029  00000+0  60367-3 0  9992
2 63734  51.8998 234.0496 0000606  90.8699 269.2332 14.76480603 55046
KUIPER-00020            
1 63735U 25088M   26119.63735527 -.00001298  00000+0 -14125-3 0  9991
2 63735  51.9026 237.8051 0001139 158.2885 201.8126 14.79926110 55208
KUIPER-00021            
1 63736U 25088N   26119.58334491 -.00014380  00000+0 -18908-2 0  9999
2 63736  51.8996 237.9923 0000717 110.6010 149.7616 14.79275684  5590
KUIPER-00023            
1 63737U 25088P   26119.63364863  .00003215  00000+0  44902-3 0  9999
2 63737  51.9000 240.2617 0000901 259.4828 100.6033 14.80071651 55302
KUIPER-00024            
1 63738U 25088Q   26119.58062112 -.00000148  00000+0  96453-5 0  9999
2 63738  51.9061 228.0860 0001012  96.4245 263.6833 14.79923024 55597
KUIPER-00025            
1 63739U 25088R   26119.60629151  .00004042  00000+0  55897-3 0  9996
2 63739  51.9028 235.4541 0000518  77.4421 282.6599 14.79923102 55355
KUIPER-00027            
1 63740U 25088S   26119.57791699  .00002383  00000+0  34153-3 0  9999
2 63740  51.9024 230.5624 0000474  96.2575 263.8441 14.79927430 55154
KUIPER-00028            
1 63741U 25088T   26119.54683280  .00005307  00000+0  72438-3 0  9990
2 63741  51.8991 228.1609 0000410  51.2126 308.8873 14.79943673 55590
KUIPER-00029            
1 63742U 25088U   26119.59344020  .00004000  00000+0  59724-3 0  9994
2 63742  51.9002 225.9615 0002450  32.9064 327.2049 14.76642653 55153
KUIPER-00030            
1 63743U 25088V   26119.56156870  .00003884  00000+0  53739-3 0  9995
2 63743  51.9018 245.5936 0000406  65.0627 295.0377 14.79993814 55164
KUIPER-00031            
1 63744U 25088W   26119.55229073  .00005396  00000+0  66616-3 0  9999
2 63744  51.9002 229.3584 0001145 314.0377  46.0493 14.84159053 55109
KUIPER-00032            
1 63745U 25088X   26119.34602212  .00010805  00000+0  28673-3 0  9999
2 63745  51.8661 138.9606 0004630 315.0202  45.0410 15.38824775 57346
KUIPER-00033            
1 63746U 25088Y   26119.57932007  .00004410  00000+0  60700-3 0  9995
2 63746  51.9005 260.5428 0000579 108.7909 251.3116 14.79943729 55150
KUIPER-00034            
1 63747U 25088Z   26119.48471650 -.00000156  00000+0  85558-5 0  9992
2 63747  51.9049 223.4887 0001116  87.8748 272.2342 14.79925230 55343
KUIPER-00035            
1 63748U 25088AA  26119.52524560  .00004555  00000+0  62559-3 0  9997
2 63748  51.8999 248.2949 0000122 203.8530 156.2427 14.79965826 55054
KUIPER-00037            
1 63749U 25088AB  26119.58300584  .00005018  00000+0  63164-3 0  9990
2 63749  51.8997 247.5605 0000243 128.5120 231.5866 14.83470210 55851
KUIPER-00038            
1 63750U 25088AC  26119.57521997 -.00003156  00000+0 -38530-3 0  9996
2 63750  51.9021 233.0836 0000595 100.7343 259.3687 14.79923031 55057
KUIPER-00039            
1 64500U 25134A   26119.41269949 -.00003336  00000+0 -40874-3 0  9995
2 64500  51.9041   8.8013 0000953  97.3264 262.7807 14.79939680 47587
KUIPER-00040            
1 64501U 25134B   26119.58334491  .00025642  00000+0  33748-2 0  9992
2 64501  51.8996  18.1477 0001794 103.5769 323.5374 14.79994531  1309
KUIPER-00041            
1 64502U 25134C   26119.46672768  .00001348  00000+0  20585-3 0  9995
2 64502  51.8988  21.0401 0000663  94.4555 265.6483 14.79915414 47418
KUIPER-00042            
1 64503U 25134D   26119.44376406 -.00101987  00000+0 -12581-1 0  9991
2 64503  51.8994  16.1768 0005909  94.9334 265.2305 14.83014700 47484
KUIPER-00043            
1 64504U 25134E   26119.37896106 -.00001008  00000+0 -10322-3 0  9994
2 64504  51.9054   8.8885 0000974 106.6890 253.4180 14.79930826 47588
KUIPER-00044            
1 64505U 25134F   26119.44042142 -.00038886  00000+0 -46780-2 0  9996
2 64505  51.9022  21.2130 0008177  85.0071 275.1826 14.83505608 47411
KUIPER-00046            
1 64506U 25134G   26118.99675564 -.00002864  00000+0 -34692-3 0  9993
2 64506  51.9007  20.5844 0000829 102.3079 257.7977 14.79926194 47387
KUIPER-00047            
1 64507U 25134H   26119.33042305  .00003946  00000+0  54645-3 0  9994
2 64507  51.9010 351.6283 0000628 103.4580 256.6452 14.79921188 47815
KUIPER-00048            
1 64508U 25134J   26119.36407239 -.00001064  00000+0 -11063-3 0  9997
2 64508  51.9008 351.4941 0000744  97.4899 262.6148 14.79924033 47828
KUIPER-00049            
1 64509U 25134K   26119.38433433  .00001812  00000+0  26673-3 0  9997
2 64509  51.9029   3.8588 0000695  94.8715 265.2327 14.79907021 47657
KUIPER-00050            
1 64510U 25134L   26119.33571444  .00003903  00000+0  54063-3 0  9996
2 64510  51.9011 346.5994 0000663 127.2751 232.8272 14.79933396 47893
KUIPER-00051            
1 64511U 25134M   26119.36525291  .00003486  00000+0  52619-3 0  9990
2 64511  51.9024   1.9911 0001103 219.6734 140.4146 14.76493950 47670
KUIPER-00053            
1 64513U 25134P   26119.40326259  .00002504  00000+0  34372-3 0  9996
2 64513  51.9030 358.6365 0001945  49.1684 310.9448 14.81617804 47725
KUIPER-00054            
1 64514U 25134Q   26119.63148659  .00004025  00000+0  55659-3 0  9999
2 64514  51.8994 352.7932 0000792 110.8206 249.2842 14.79939864 47827
KUIPER-00055            
1 64515U 25134R   26119.58334491  .00037452  00000+0  53202-2 0  9996
2 64515  51.9011 305.5426 0000724  76.6225 332.0420 14.76566202  5048
KUIPER-00056            
1 64516U 25134S   26119.05211140  .00000879  00000+0  14433-3 0  9991
2 64516  51.9043   0.4234 0000656 103.5365 256.5671 14.79925636 47677
KUIPER-00057            
1 64517U 25134T   26119.11155926  .00003488  00000+0  48626-3 0  9998
2 64517  51.9009   7.6109 0000777 102.8922 257.2127 14.79932303 47577
KUIPER-00058            
1 64518U 25134U   26118.94809899  .00004109  00000+0  56772-3 0  9996
2 64518  51.9026   3.2948 0000701 107.9936 252.1103 14.79932194 47620
KUIPER-00059            
1 64519U 25134V   26119.62879888 -.00000852  00000+0 -82769-4 0  9997
2 64519  51.9019 355.3325 0000818  94.8302 265.2754 14.79920192 47793
KUIPER-00060            
1 64520U 25134W   26119.39235003  .00004139  00000+0  57098-3 0  9994
2 64520  51.9043 356.4218 0001004  99.1321 260.9755 14.79984930 47740
KUIPER-00061            
1 64521U 25134X   26119.41757523  .00004121  00000+0  56769-3 0  9999
2 64521  51.9029   3.7707 0001045  95.3105 264.7977 14.80046271 47649
KUIPER-00062            
1 64522U 25134Y   26119.41542635 -.00001057  00000+0 -10970-3 0  9997
2 64522  51.8975   6.2942 0000673 109.6834 250.4201 14.79922774 47621
KUIPER-00063            
1 64523U 25134Z   26119.13721888  .00004070  00000+0  56254-3 0  9997
2 64523  51.9043  15.0329 0000811  92.7053 267.4003 14.79938798 47479
KUIPER-00064            
1 64524U 25134AA  26119.41002677 -.00001005  00000+0 -10282-3 0  9995
2 64524  51.9047  11.2483 0000650 125.2180 234.8844 14.79924008 47556
KUIPER-00065            
1 64525U 25134AB  26119.40465348  .00004221  00000+0  58225-3 0  9993
2 64525  51.9060  16.4369 0000856 104.0924 256.0133 14.79936002 47465
KUIPER-00066            
1 64526U 25134AC  26119.50576262  .00003429  00000+0  47880-3 0  9997
2 64526  51.9028 313.2802 0000555 148.1776 211.9220 14.79907077 48378
KUIPER-00069            
1 64816U 25151A   26119.22641731  .00004449  00000+0  61206-3 0  9992
2 64816  51.9022  57.1555 0000725  97.8653 262.2392 14.79947514 44247
KUIPER-00070            
1 64817U 25151B   26119.30075121  .00003576  00000+0  49755-3 0  9991
2 64817  51.8993  81.7537 0000746  79.2714 280.8332 14.79959207 43917
KUIPER-00071            
1 64818U 25151C   26119.57357319  .00003835  00000+0  53159-3 0  9994
2 64818  51.9008  78.0766 0000712  75.3082 284.7960 14.79945403 42807
KUIPER-00072            
1 64819U 25151D   26119.56130305  .00000376  00000+0  78452-4 0  9999
2 64819  51.8981  58.0988 0001459  83.7302 276.3826 14.79895943 43080
KUIPER-00073            
1 64820U 25151E   26119.26970132 -.00002739  00000+0 -33046-3 0  9994
2 64820  51.9029  79.4117 0000979  71.1052 289.0016 14.79929714 43947
KUIPER-00074            
1 64821U 25151F   26119.47541481  .00400104  00000+0  24286-2 0  9990
2 64821  51.8968  36.3623 0004830 161.3354 198.7828 15.75799469 43373
KUIPER-00075            
1 64822U 25151G   26119.57572623  .00040160  00000+0  89434-3 0  9993
2 64822  51.8694 333.8484 0005289 100.4940 259.6645 15.43207153 44255
KUIPER-00076            
1 64823U 25151H   26119.55068967  .00003944  00000+0  54642-3 0  9995
2 64823  51.9012  68.1833 0001272  76.3842 283.7262 14.79905530 42946
KUIPER-00077            
1 64824U 25151J   26119.27508838 -.00000070  00000+0  19824-4 0  9993
2 64824  51.9012  74.4153 0001490  81.4336 278.6795 14.79935336 42838
KUIPER-00078            
1 64825U 25151K   26119.58166333  .00000641  00000+0  11304-3 0  9995
2 64825  51.9013  70.5437 0000870  81.4300 278.6761 14.79933351 42911
KUIPER-00079            
1 64826U 25151L   26119.13731525  .00003707  00000+0  51480-3 0  9993
2 64826  51.8990  77.4781 0000807  78.8006 281.3047 14.79948697 43970
KUIPER-00080            
1 64827U 25151M   26119.57625973  .00000340  00000+0  73572-4 0  9998
2 64827  51.8995  75.5426 0000498  62.2725 297.8288 14.79939783 42842
KUIPER-00082            
1 64828U 25151N   26119.55598305 -.00000192  00000+0  38062-5 0  9997
2 64828  51.9019  63.1753 0000849  89.0845 271.0215 14.79936764 43017
KUIPER-00083            
1 64829U 25151P   26119.54792525  .00003919  00000+0  54289-3 0  9993
2 64829  51.9008  70.6979 0001054  76.9555 283.1525 14.79921267 44090
KUIPER-00084            
1 64830U 25151Q   26119.26699992  .00003562  00000+0  49614-3 0  9998
2 64830  51.8999  81.9250 0000676  97.8374 262.2665 14.79922242 42722
KUIPER-00085            
1 64831U 25151R   26119.25210219  .00003844  00000+0  53281-3 0  9997
2 64831  51.9030  64.5540 0000739  98.1571 261.9476 14.79947136 42963
KUIPER-00086            
1 64832U 25151S   26119.57897265 -.00001170  00000+0 -12447-3 0  9996
2 64832  51.9005  73.0690 0000913  77.4975 282.6090 14.79925883 42876
KUIPER-00087            
1 64833U 25151T   26119.53032331  .00001499  00000+0  22563-3 0  9990
2 64833  51.9004  55.7586 0000819  96.6878 263.4178 14.79922670 43109
KUIPER-00089            
1 64834U 25151U   26119.52493215 -.00001887  00000+0 -21858-3 0  9991
2 64834  51.9015  60.7968 0000851  92.3694 267.7366 14.79942199 43044
KUIPER-00090            
1 64835U 25151V   26119.53301925  .00004265  00000+0  58818-3 0  9996
2 64835  51.8994  53.2824 0000718 101.8619 258.2424 14.79930431 43140
KUIPER-00091            
1 64836U 25151W   26119.52759158  .00004261  00000+0  58719-3 0  9997
2 64836  51.9017  58.2960 0000813  84.1042 276.0013 14.79965985 43079
KUIPER-00092            
1 64837U 25151X   26119.58707098  .00002277  00000+0  32753-3 0  9995
2 64837  51.9018  65.5285 0000776  72.1798 287.9249 14.79934414 44194
KUIPER-00093            
1 64838U 25151Y   26119.58386618 -.00005171  00000+0 -65165-3 0  9998
2 64838  51.9003  68.0163 0000488  79.8531 280.2486 14.79819567 42942
KUIPER-00094            
1 64839U 25151Z   26119.45860942  .00002946  00000+0  22587-3 0  9998
2 64839  51.8903  28.9883 0007345 107.7814 252.3961 15.04778616 43485
KUIPER-00081            
1 65132U 25171A   26119.63946697 -.00000998  00000+0 -10197-3 0  9990
2 65132  51.9010 282.7743 0000467 119.9307 240.1701 14.79926819 40583
KUIPER-00088            
1 65133U 25171B   26119.21540437  .00001070  00000+0  16926-3 0  9993
2 65133  51.8994 302.1552 0000587  96.5892 263.5137 14.79937467 40270
KUIPER-00095            
1 65134U 25171C   26119.64217145  .00000080  00000+0  39534-4 0  9999
2 65134  51.9009 280.3282 0000527  98.6133 261.4890 14.79923537 40615
KUIPER-00096            
1 65135U 25171D   26119.18973831  .00003729  00000+0  51778-3 0  9996
2 65135  51.8988 294.7666 0000529  97.1325 262.9697 14.79937003 40372
KUIPER-00097            
1 65136U 25171E   26119.52469490  .00000499  00000+0  94421-4 0  9990
2 65136  51.9022 295.9252 0000282 120.8335 239.2655 14.79933342 40371
KUIPER-00098            
1 65137U 25171F   26119.52200003  .00003903  00000+0  54064-3 0  9995
2 65137  51.8998 298.3106 0000663 110.3253 249.7781 14.79933624 39696
KUIPER-00099            
1 65138U 25171G   26119.63407951 -.00000944  00000+0 -94910-4 0  9998
2 65138  51.9039 287.8063 0000622 106.7733 253.3298 14.79926589 40504
KUIPER-00100            
1 65139U 25171H   26119.19781901  .00001433  00000+0  21691-3 0  9997
2 65139  51.8986 287.2105 0000558  97.2866 262.8159 14.79937345 40474
KUIPER-00102            
1 65140U 25171J   26119.19511279  .00001254  00000+0  19346-3 0  9993
2 65140  51.8987 289.7350 0000589 101.1609 258.9420 14.79922955 40434
KUIPER-00103            
1 65141U 25171K   26119.54767133  .00003851  00000+0  53379-3 0  9994
2 65141  51.8996 305.6703 0000608 108.8391 251.2638 14.79933780 40243
KUIPER-00104            
1 65142U 25171L   26119.62868248  .00003801  00000+0  52737-3 0  9995
2 65142  51.9017 292.7895 0000587  92.2433 267.8597 14.79930793 40435
KUIPER-00105            
1 65143U 25171M   26119.51930548 -.00000528  00000+0 -40269-4 0  9990
2 65143  51.9007 300.8863 0000714 104.9320 255.1721 14.79919991 40312
KUIPER-00106            
1 65144U 25171N   26119.63557629  .00006385  00000+0  56226-3 0  9993
2 65144  51.8930 283.4231 0006920 271.4013  88.6164 14.97575470 40574
KUIPER-00107            
1 65145U 25171P   26119.60569473 -.00001881  00000+0 -21780-3 0  9996
2 65145  51.9003 282.9412 0001222 119.5308 240.5777 14.79932022 40570
KUIPER-00108            
1 65146U 25171Q   26119.22081286  .00001185  00000+0  18452-3 0  9993
2 65146  51.9021 297.1703 0000698  97.2075 262.8966 14.79924834 40345
KUIPER-00109            
1 65147U 25171R   26119.19234696 -.00004194  00000+0 -52124-3 0  9994
2 65147  51.9023 292.2370 0000564 103.5806 256.5219 14.79951731 40403
KUIPER-00110            
1 65148U 25171S   26119.55037472  .00003699  00000+0  51405-3 0  9996
2 65148  51.9001 303.2301 0000850  97.2315 262.8744 14.79923963 40273
KUIPER-00111            
1 65149U 25171T   26119.51118832 -.00000183  00000+0  50792-5 0  9999
2 65149  51.8922 308.2994 0001715  89.6648 270.4511 14.79938769 40203
KUIPER-00112            
1 65150U 25171U   26119.63126250  .00003999  00000+0  55260-3 0  9997
2 65150  51.9013 290.3476 0000641 137.1600 222.9413 14.79984449 40464
KUIPER-00114            
1 65151U 25171V   26119.23837892  .00000260  00000+0  63145-4 0  9995
2 65151  51.8996 312.0742 0000878  89.2432 270.8631 14.79940146 40127
KUIPER-00115            
1 65152U 25171W   26119.65167175  .00004003  00000+0  55385-3 0  9997
2 65152  51.9005 302.7401 0000660 109.1240 250.9794 14.79929532 40299
KUIPER-00116            
1 65153U 25171X   26119.54495422 -.00002735  00000+0 -33000-3 0  9997
2 65153  51.9019 308.2460 0000553 115.4611 244.6409 14.79923643 40205
KUIPER-00118            
1 65154U 25171Y   26119.54203883  .00003565  00000+0  49552-3 0  9995
2 65154  51.9001 310.7144 0000917 121.3567 238.7486 14.80004581 40172
KUIPER-00119            
1 65155U 25171Z   26119.48991389  .00003567  00000+0  50483-3 0  9991
2 65155  51.9000 298.5509 0001224  55.5934 304.5144 14.79235248 40333
KUIPER-00120            
1 65762U 25217A   26119.45494171  .00003481  00000+0  48532-3 0  9997
2 65762  51.8990 188.5805 0000572  97.3953 262.7074 14.79932886 32252
KUIPER-00132            
1 65763U 25217B   26119.40723772  .00025963  00000+0  61808-3 0  9995
2 65763  51.8559 116.9374 0005403 136.9444 223.1968 15.41428937 33243
KUIPER-00133            
1 65764U 25217C   26119.48870864  .00000263  00000+0  63503-4 0  9990
2 65764  51.9028 188.5056 0000334 145.9045 214.1939 14.79924927 32262
KUIPER-00139            
1 65765U 25217D   26119.40627361  .00004583  00000+0  36330-3 0  9991
2 65765  51.8843 161.5395 0008320 114.0165 246.1679 15.02281886 32631
KUIPER-00142            
1 65766U 25217E   26119.40628392 -.00000376  00000+0 -20311-4 0  9998
2 65766  51.9001 171.3195 0000688 121.5118 238.5911 14.79922614 32498
KUIPER-00145            
1 65767U 25217F   26119.40357314  .00002861  00000+0  40400-3 0  9991
2 65767  51.8985 173.8478 0000402  88.2570 271.8439 14.79943819 32456
KUIPER-00147            
1 65768U 25217G   26119.43461713  .00002981  00000+0  41976-3 0  9996
2 65768  51.8979 176.2005 0000283   9.5179 350.5789 14.79943468 32421
KUIPER-00148            
1 65769U 25217H   26119.39242438  .00002378  00000+0  37049-3 0  9999
2 65769  51.9034 156.8390 0001988 176.4598 183.6378 14.76298392 32692
KUIPER-00150            
1 65770U 25217J   26119.49140063  .00003352  00000+0  46858-3 0  9994
2 65770  51.9010 185.9674 0000426  85.5823 274.5188 14.79921648 32298
KUIPER-00151            
1 65771U 25217K   26119.43195969  .00003375  00000+0  47153-3 0  9998
2 65771  51.9002 178.7269 0000310  72.2387 287.8609 14.79926580 32396
KUIPER-00152            
1 65772U 25217L   26119.41166556  .00002871  00000+0  40535-3 0  9994
2 65772  51.8995 166.3053 0000280  44.3105 315.7880 14.79942177 32566
KUIPER-00153            
1 65773U 25217M   26119.38724952  .00001988  00000+0  31355-3 0  9999
2 65773  51.9022 161.1680 0000240 236.7945 123.2993 14.76465019 32630
KUIPER-00155            
1 65774U 25217N   26119.58334491 -.00010340  00000+0 -10854-2 0  9991
2 65774  51.8968 133.3025 0005626  83.0136 158.1573 14.88206350  5456
KUIPER-00156            
1 65775U 25217P   26119.51837453  .00002874  00000+0  40592-3 0  9995
2 65775  51.9024 160.8762 0000517  79.9726 280.1295 14.79921865 32640
KUIPER-00163            
1 65777U 25217R   26119.55571494  .00090337  00000+0  55922-3 0  9995
2 65777  51.8973 156.8629 0003490  25.8002 334.3175 15.76318069 32701
KUIPER-00165            
1 65778U 25217S   26119.57511232  .00002918  00000+0  41173-3 0  9993
2 65778  51.8989 170.5854 0000336  75.4945 284.6054 14.79925624 32510
KUIPER-00166            
1 65779U 25217T   26119.48727466  .00002900  00000+0  40904-3 0  9994
2 65779  51.9011 158.5069 0000414  70.0931 290.0076 14.79951793 32673
KUIPER-00167            
1 65780U 25217U   26119.56428388 -.00009253  00000+0 -11865-2 0  9999
2 65780  51.8952 180.5758 0000545 105.5033 254.5989 14.79930940 32376
KUIPER-00168            
1 65781U 25217V   26119.51565750 -.00001331  00000+0 -14562-3 0  9997
2 65781  51.9011 163.3512 0000415  93.7230 266.3780 14.79925754 32618
KUIPER-00169            
1 65782U 25217W   26119.44272152  .00002916  00000+0  41110-3 0  9998
2 65782  51.9000 168.6797 0000407  81.0442 279.0566 14.79953899 32531
KUIPER-00170            
1 65783U 25217X   26119.36958612  .00002844  00000+0  40121-3 0  9993
2 65783  51.8985 173.9756 0000229  53.6504 306.4480 14.80000460 32453
KUIPER-00172            
1 65785U 25217Z   26119.49028474  .00002197  00000+0  34163-3 0  9993
2 65785  51.8969 155.2820 0001643 119.3043 240.8083 14.76675664 32720
KUIPER-00173            
1 65786U 25217AA  26119.40943306  .00003077  00000+0  43263-3 0  9994
2 65786  51.9006 168.8320 0000305 358.6237   1.4725 14.79914510 32527
KUIPER-00174            
1 65787U 25217AB  26119.41438366  .00001494  00000+0  22500-3 0  9993
2 65787  51.9010 163.8377 0000506  72.6386 287.4632 14.79928777 32591
KUIPER-00176            
1 65788U 25217AC  26119.53325298 -.00000137  00000+0  11031-4 0  9998
2 65788  51.8986 178.2688 0000404  86.5150 273.5858 14.79929195 32409
KUIPER-00101            
1 65947U 25228A   26119.47775646  .00000820  00000+0  13652-3 0  9994
2 65947  51.8976 135.9832 0000392  54.3562 305.7437 14.79935177 30756
KUIPER-00113            
1 65948U 25228B   26119.44955540  .00002746  00000+0  38922-3 0  9991
2 65948  51.8971 131.1276 0000346  52.2470 307.8523 14.79916689 30819
KUIPER-00117            
1 65949U 25228C   26119.34543621  .00002620  00000+0  37238-3 0  9994
2 65949  51.8969 134.0882 0000489  57.7402 302.3608 14.79947285 30769
KUIPER-00121            
1 65950U 25228D   26119.24949700  .00002640  00000+0  37528-3 0  9997
2 65950  51.8988 129.5148 0000638  46.0201 314.0814 14.79920238 30825
KUIPER-00122            
1 65951U 25228E   26119.30626602  .00002266  00000+0  32605-3 0  9993
2 65951  51.8983 139.2411 0000388  60.7998 299.3003 14.79944267 30698
KUIPER-00123            
1 65952U 25228F   26119.34004096 -.00001649  00000+0 -18746-3 0  9991
2 65952  51.8978 139.1096 0000483  76.9921 283.1095 14.79921798 30698
KUIPER-00124            
1 65953U 25228G   26119.21306125  .00002549  00000+0  36331-3 0  9994
2 65953  51.8972 132.1582 0000596  85.9975 274.1055 14.79926243 30786
KUIPER-00125            
1 65954U 25228H   26119.36434173  .00002653  00000+0  37679-3 0  9998
2 65954  51.8991 116.5215 0000587  59.1894 300.9127 14.79936446 31011
KUIPER-00126            
1 65955U 25228J   26119.24143889 -.00001233  00000+0 -13279-3 0  9992
2 65955  51.8981 137.0583 0000435  75.8177 284.2834 14.79926408 30710
KUIPER-00127            
1 65956U 25228K   26119.58334491 -.00007750  00000+0 -96334-3 0  9994
2 65956  51.8977 128.0178 0000683 142.9744 281.0210 14.81011840  5383
KUIPER-00128            
1 65957U 25228L   26119.28331113  .00002481  00000+0  35431-3 0  9995
2 65957  51.8996 129.3972 0000476  63.1825 296.9186 14.79933590 30821
KUIPER-00129            
1 65958U 25228M   26119.52505468  .00002886  00000+0  40748-3 0  9995
2 65958  51.8991 123.3112 0000476  58.6974 301.4035 14.79925924 30930
KUIPER-00130            
1 65959U 25228N   26119.28598705 -.00002396  00000+0 -28547-3 0  9996
2 65959  51.8997 126.8835 0000506  83.9063 276.1957 14.79925325 21151
KUIPER-00134            
1 65960U 25228P   26119.28791731  .00043670  00000+0  10782-2 0  9991
2 65960  51.8742  74.9588 0005903 130.7481 229.4020 15.40061821 31581
KUIPER-00135            
1 65961U 25228Q   26119.38728797 -.00001224  00000+0 -13155-3 0  9994
2 65961  51.9019 126.4963 0000446  53.1888 306.9115 14.79928127 30875
KUIPER-00136            
1 65962U 25228R   26119.28904169  .00011799  00000+0  15779-2 0  9992
2 65962  51.8993 124.4001 0000729  46.2095 313.8927 14.79828131 30898
KUIPER-00137            
1 65963U 25228S   26119.29140874  .00002445  00000+0  34955-3 0  9995
2 65963  51.9017 121.8609 0000548  67.8311 292.2709 14.79940474 30939
KUIPER-00138            
1 65964U 25228T   26119.39540214  .00002768  00000+0  39190-3 0  9993
2 65964  51.8973 118.8641 0000538  70.6231 289.4789 14.79941549 30989
KUIPER-00140            
1 65965U 25228U   26119.39266791 -.00002537  00000+0 -30393-3 0  9991
2 65965  51.8975 121.4611 0000495  72.2476 287.8541 14.79923512 30944
KUIPER-00141            
1 65966U 25228V   26119.39809909  .00002524  00000+0  35985-3 0  9992
2 65966  51.9012 116.4663 0000549  75.4655 284.6368 14.79940758 31015
KUIPER-00146            
1 65967U 25228W   26119.36163800  .00002688  00000+0  38136-3 0  9995
2 65967  51.9016 119.1369 0000596  60.3606 299.7415 14.79942028 30970
KUIPER-00149            
1 65968U 25228X   26119.26571057 -.00000429  00000+0 -27275-4 0  9998
2 65968  51.9001 114.4597 0000599  81.3565 278.7465 14.79921698 31036
KUIPER-00154            
1 65969U 25228Y   26119.36968932  .00002836  00000+0  40071-3 0  9992
2 65969  51.8981 111.4982 0000451  76.1969 283.9044 14.79946546 31080
KUIPER-00157            
1 65970U 25228Z   26119.36703878  .00002675  00000+0  37964-3 0  9998
2 65970  51.9006 114.1314 0000592  48.5428 311.5585 14.79945941 31041
KUIPER-00144            
1 67133U 25301A   26119.58334491 -.00001839  00000+0 -21877-3 0  9997
2 67133  51.8996 189.6764 0002184 269.1804 348.7731 14.78713977  5097
KUIPER-00164            
1 67134U 25301B   26119.48967562  .00002134  00000+0  33448-3 0  9992
2 67134  51.9038 201.5563 0001830  98.9179 261.1989 14.76452761 21424
KUIPER-00175            
1 67135U 25301C   26119.60979962  .00004258  00000+0  43793-3 0  9997
2 67135  51.8945 191.1774 0000397  69.6420 290.4590 14.92153246 21472
KUIPER-00179            
1 67136U 25301D   26119.61026511  .00003827  00000+0  53008-3 0  9993
2 67136  51.8981 200.4316 0000290  94.3906 265.7090 14.79980052 21451
KUIPER-00181            
1 67137U 25301E   26119.52925955 -.00002286  00000+0 -27139-3 0  9990
2 67137  51.9033 213.2978 0001893  24.8763 335.2290 14.79855831 21244
KUIPER-00183            
1 67138U 25301F   26119.45807973  .00004182  00000+0  42644-3 0  9995
2 67138  51.8948 192.7761 0008765 235.7665 124.2473 14.92529691 21537
KUIPER-00184            
1 67139U 25301G   26119.57007705  .00002142  00000+0  33590-3 0  9998
2 67139  51.8986 194.7895 0001991  77.0172 283.1011 14.76412802 21624
KUIPER-00186            
1 67140U 25301H   26119.56303449  .00004029  00000+0  55720-3 0  9998
2 67140  51.9020 213.1595 0000408  88.4736 271.6273 14.79932918 21094
KUIPER-00187            
1 67141U 25301J   26119.56033913  .00004347  00000+0  59879-3 0  9997
2 67141  51.9022 215.6883 0000488  93.8365 266.2653 14.79936239 21058
KUIPER-00188            
1 67142U 25301K   26119.58334491  .00020166  00000+0  20536-2 0  9999
2 67142  51.8969 183.1258 0006182 243.5155 277.7377 14.90676101  5707
KUIPER-00191            
1 67143U 25301L   26119.60218342 -.00002085  00000+0 -24476-3 0  9999
2 67143  51.9002 208.0088 0000458  96.1766 263.9249 14.79909905 21199
KUIPER-00196            
1 67144U 25301M   26119.44301391  .00024010  00000+0  62936-3 0  9992
2 67144  51.8691 179.1458 0002137 188.0692 172.0261 15.38548120 21555
KUIPER-00204            
1 67145U 25301N   26119.47600323 -.00002105  00000+0 -67384-4 0  9999
2 67145  51.8814 188.9111 0002142  72.7147 287.4069 15.26069151 21531
KUIPER-00210            
1 67146U 25301P   26119.50090233  .00003818  00000+0  52958-3 0  9997
2 67146  51.8996 208.4154 0000442  98.5374 261.5638 14.79932080 21326
KUIPER-00221            
1 67147U 25301Q   26119.52656262 -.00003611  00000+0 -44502-3 0  9999
2 67147  51.9015 215.8137 0000490  89.7142 270.3876 14.79923087 21050
KUIPER-00232            
1 67148U 25301R   26119.49550785  .00002168  00000+0  33882-3 0  9992
2 67148  51.8985 200.8531 0000220 141.7653 218.3324 14.76504484 21250
KUIPER-00241            
1 67149U 25301S   26119.53196745  .00000479  00000+0  91881-4 0  9997
2 67149  51.9037 210.8025 0000298  81.1605 278.9392 14.79925391 21454
KUIPER-00245            
1 67150U 25301T   26119.52387855 -.00002759  00000+0 -33317-3 0  9996
2 67150  51.9032 218.3509 0000346  84.3104 275.7898 14.79927635 21015
KUIPER-00246            
1 67151U 25301U   26119.50627487  .00003887  00000+0  53846-3 0  9993
2 67151  51.9000 203.3989 0000666  71.1892 288.9142 14.79945768 21240
KUIPER-00247            
1 67152U 25301V   26118.90406294  .00081474  00000+0  11403-1 0  9997
2 67152  51.8947 196.0085 0000902 129.3491 230.7550 14.76786819 21277
KUIPER-00248            
1 67153U 25301W   26119.58334491 -.00904259  00000+0 -34203-1 0  9992
2 67153  51.8750 179.5332 0005498 220.0976 346.5443 15.29260442  3571
KUIPER-00249            
1 67154U 25301X   26119.49575266  .00002057  00000+0  32332-3 0  9996
2 67154  51.8999 190.7352 0001818  45.9091 314.2019 14.76469312 21397
KUIPER-00250            
1 67155U 25301Y   26119.53733983 -.00002084  00000+0 -24462-3 0  9991
2 67155  51.8993 205.7555 0000483  78.8605 281.2412 14.79906857 21222
KUIPER-00251            
1 67156U 25301Z   26118.39656581  .00039381  00000+0  55943-2 0  9998
2 67156  51.9000 198.2905 0000892  96.7436 263.3626 14.76541630 21389
KUIPER-00252            
1 67157U 25301AA  26118.93403844  .00036434  00000+0  51729-2 0  9995
2 67157  51.8993 198.3653 0001541 220.2916 139.7931 14.76601853 21244
KUIPER-00261            
1 67158U 25301AB  26119.50360008  .00001114  00000+0  17497-3 0  9996
2 67158  51.9034 205.9525 0001468 116.4516 243.6598 14.79975786 21184
KUIPER-00265            
1 67159U 25301AC  26119.58870389 -.00003662  00000+0 -45167-3 0  9990
2 67159  51.9049 220.5515 0000584 104.7880 255.3147 14.79923621 21029
KUIPER-00159            
1 67764U 26030A   26119.62248818  .00027198  00000+0  74462-3 0  9991
2 67764  51.8865 333.2459 0005102 211.9673 148.1005 15.37123911 12927
KUIPER-00160            
1 67765U 26030B   26118.97748182  .00026729  00000+0  73182-3 0  9995
2 67765  51.8824 336.3942 0005523 221.6974 138.3592 15.37129437 12823
KUIPER-00177            
1 67766U 26030C   26118.92779830  .00003777  00000+0  52460-3 0  9999
2 67766  51.9021 350.9661 0000650 112.2712 247.8319 14.79902900 12614
KUIPER-00178            
1 67767U 26030D   26119.31768121  .00002357  00000+0  36649-3 0  9999
2 67767  51.9019 348.0281 0000772  75.0080 285.0967 14.76401871 12696
KUIPER-00180            
1 67768U 26030E   26119.64188946  .00153167  00000+0  20265-1 0  9998
2 67768  51.9000 342.8054 0003405 111.9824 248.1500 14.78666102 12795
KUIPER-00197            
1 67769U 26030F   26118.87680911  .00030393  00000+0  80996-3 0  9996
2 67769  51.8858 336.4983 0002512 194.3349 165.7568 15.37907040 12817
KUIPER-00198            
1 67770U 26030G   26119.58334491  .00020206  00000+0  16636-2 0  9997
2 67770  51.8958 336.1927 0002322 255.0873 325.5126 14.99058980  5186
KUIPER-00199            
1 67771U 26030H   26119.30338355  .00020273  00000+0  58191-3 0  9998
2 67771  51.8824 335.5573 0010690 237.5834 122.4119 15.35785626 12862
KUIPER-00200            
1 67772U 26030J   26119.58544708  .00012162  00000+0  59567-3 0  9996
2 67772  51.8858 335.0853 0001360 244.5113 115.5725 15.18534309 12898
KUIPER-00203            
1 67773U 26030K   26119.05744509  .00003507  00000+0  48778-3 0  9995
2 67773  51.9079 355.3951 0000316  31.0381 329.0601 14.80020047 12561
KUIPER-00205            
1 67774U 26030L   26119.00270936  .00017251  00000+0  46224-3 0  9994
2 67774  51.8829 335.8251 0004185 187.3532 172.7394 15.38087642 12831
KUIPER-00208            
1 67775U 26030M   26119.58334491  .00026906  00000+0  38444-2 0  9996
2 67775  51.8987 343.7091 0006561 238.2764  69.7508 14.76469838  4183
KUIPER-00209            
1 67776U 26030N   26119.58334491  .00028031  00000+0  40129-2 0  9991
2 67776  51.9016 342.7449 0000854 300.3074 135.5597 14.76377976  5517
KUIPER-00213            
1 67777U 26030P   26119.58334491  .00006445  00000+0  83115-3 0  9990
2 67777  51.8971 340.6747 0012157 252.0086 132.6751 14.82006458  5544
KUIPER-00214            
1 67778U 26030Q   26119.58334491  .00000714  00000+0  11817-3 0  9994
2 67778  51.9015 338.0994 0001924 165.5975  52.6643 14.81660783  5766
KUIPER-00215            
1 67779U 26030R   26119.30435072 -.00024202  00000+0 -69726-3 0  9994
2 67779  51.8860 335.5905 0010751 239.8425 120.1496 15.34752297 12868
KUIPER-00218            
1 67780U 26030S   26119.58334491 -.00000091  00000+0  16236-4 0  9997
2 67780  51.8985 339.6896 0004793 208.5911  91.4670 14.86166202  5490
KUIPER-00220            
1 67781U 26030T   26119.60923591  .00032073  00000+0  90002-3 0  9992
2 67781  51.8820 333.8645 0008848 234.2925 125.7238 15.36244055 12918
KUIPER-00222            
1 67782U 26030U   26119.58334491  .00021721  00000+0  14347-2 0  9990
2 67782  51.8931 336.8471 0017447 243.9243 312.7968 15.07228578  2903
KUIPER-00223            
1 67783U 26030V   26119.57519075  .00021245  00000+0  62468-3 0  9992
2 67783  51.8850 334.3922 0011508 234.0071 125.9849 15.34988833 12900
KUIPER-00225            
1 67784U 26030W   26119.28918285  .00009400  00000+0  50653-3 0  9999
2 67784  51.8949 336.1044 0003335 250.3098 109.7520 15.15434380 12856
KUIPER-00226            
1 67785U 26030X   26119.58334491  .00035991  00000+0  13971-2 0  9999
2 67785  51.8824 336.9272 0018401 242.2334 324.1813 15.25602524  5008
KUIPER-00259            
1 67786U 26030Y   26119.58334491  .00037772  00000+0  17872-2 0  9993
2 67786  51.8910 334.6529 0009015 219.4603  33.5179 15.18973778  4639
KUIPER-00260            
1 67787U 26030Z   26119.58334491  .00040066  00000+0  16515-2 0  9997
2 67787  51.8871 333.4799 0001493 246.6457 188.5721 15.23692053  5177
KUIPER-00262            
1 67788U 26030AA  26119.58334491 -.01866549  00000+0 -90442-1 0  9993
2 67788  51.8896 333.4516 0001714 198.7596 289.3050 15.21341014  5439
KUIPER-00266            
1 67789U 26030AB  26119.58334491  .00033793  00000+0  12929-2 0  9993
2 67789  51.8847 336.8271 0021387 249.7114   4.0705 15.26061652  5837
KUIPER-00268            
1 67790U 26030AC  26119.28808789  .00022104  00000+0  60655-3 0  9992
2 67790  51.8851 334.7565 0003359 209.1649 150.9151 15.37180431 12876
KUIPER-00270            
1 67791U 26030AD  26119.61687363  .00034163  00000+0  96638-3 0  9991
2 67791  51.8820 333.9120 0010077 234.7754 125.2290 15.35950973 12915
KUIPER-00274            
1 67792U 26030AE  26119.58334491  .00026918  00000+0  20767-2 0  9997
2 67792  51.8926 337.9845 0018758 246.9699 166.7758 15.01260898  5147
KUIPER-00275            
1 67793U 26030AF  26119.02332836  .00018284  00000+0  52380-3 0  9992
2 67793  51.8856 336.7140 0010020 222.0694 137.9524 15.35926569 12824
KUIPER-00276            
1 67794U 26030AG  26119.09295066 -.00001977  00000+0 -60535-4 0  9998
2 67794  51.8833 339.3311 0018727 221.6018 138.3540 15.26681877 12795
KUIPER-00279            
1 67795U 26030AH  26119.32544067  .00013882  00000+0  40162-3 0  9992
2 67795  51.8821 334.9611 0006536 221.4626 138.5865 15.35865996 12872
KUIPER-00131            
1 68573U 26072A   26119.58334491  .00023682  00000+0  13015-2 0  9994
2 68573  51.8836  52.8284 0006854 184.3987  52.3256 15.13959537  4829
KUIPER-00189            
1 68574U 26072B   26119.58334491  .00007545  00000+0  55123-3 0  9992
2 68574  51.8898  54.1299 0001454 108.2749 191.9962 15.04534368  4400
KUIPER-00192            
1 68575U 26072C   26119.58334491  .00024629  00000+0  91046-3 0  9999
2 68575  51.8818  52.1953 0004925 200.6558  40.5885 15.27563667  3512
KUIPER-00193            
1 68576U 26072D   26119.51826077  .00017318  00000+0  46647-3 0  9993
2 68576  51.8778  52.2338 0003669 169.5944 190.5120 15.37925614  3896
KUIPER-00194            
1 68577U 26072E   26119.51295301  .00025849  00000+0  68394-3 0  9995
2 68577  51.8778  52.1973 0002368 161.4388 198.6686 15.38216276  3893
KUIPER-00229            
1 68578U 26072F   26119.58334491  .00015979  00000+0  73619-3 0  9996
2 68578  51.8789  52.8324 0007959 207.4231  92.5129 15.20404695  4948
KUIPER-00230            
1 68579U 26072G   26119.50568892  .00029275  00000+0  75899-3 0  9999
2 68579  51.8780  52.1491 0001633 148.1391 211.9696 15.38775295  3894
KUIPER-00231            
1 68580U 26072H   26119.51305373  .00026204  00000+0  68949-3 0  9992
2 68580  51.8768  52.1997 0002247 161.1314 198.9757 15.38380235  3893
KUIPER-00234            
1 68581U 26072J   26119.58334491 -.01386834  00000+0 -42801-1 0  9991
2 68581  51.8770  51.7991 0000779 172.7759 242.8852 15.36024379  3791
KUIPER-00236            
1 68582U 26072K   26119.24867159  .00023851  00000+0  62386-3 0  9993
2 68582  51.8771  53.4301 0002369 149.9769 210.1355 15.38617251  3853
KUIPER-00244            
1 68583U 26072L   26119.51477278  .00023165  00000+0  61372-3 0  9995
2 68583  51.8771  52.2113 0003586 177.7972 182.3032 15.38239021  3890
KUIPER-00253            
1 68584U 26072M   26119.32735194  .00018141  00000+0  49123-3 0  9997
2 68584  51.8734  53.2010 0004545 168.3332 191.7761 15.37723186  3868
KUIPER-00254            
1 68585U 26072N   26119.53150655  .00022840  00000+0  62544-3 0  9997
2 68585  51.8728  52.3168 0007426 193.6284 166.4503 15.37205191  3891
KUIPER-00263            
1 68586U 26072P   26119.50505418  .00029794  00000+0  77107-3 0  9992
2 68586  51.8780  52.1474 0002130 116.0277 244.0930 15.38820583  3892
KUIPER-00269            
1 68587U 26072Q   26119.51936012  .00010089  00000+0  27668-3 0  9996
2 68587  51.8759  52.2411 0004371 173.6471 186.4572 15.37885379  3899
KUIPER-00272            
1 68588U 26072R   26119.58334491  .00026090  00000+0  96350-3 0  9990
2 68588  51.8800  52.1932 0005598 191.0450  19.6215 15.27560640  3427
KUIPER-00285            
1 68589U 26072S   26119.52456084  .00022210  00000+0  59923-3 0  9993
2 68589  51.8736  52.2755 0005965 189.0349 171.0531 15.37692507  3896
KUIPER-00286            
1 68590U 26072T   26119.51805107  .00035203  00000+0  93335-3 0  9999
2 68590  51.8753  52.2321 0004322 178.6197 181.4802 15.37986415  3897
KUIPER-00289            
1 68591U 26072U   26119.54635658  .00026612  00000+0  74592-3 0  9993
2 68591  51.8676  52.4026 0010672 207.6520 152.3900 15.36361837  3894
KUIPER-00290            
1 68592U 26072V   26119.09029222  .00032183  00000+0  89924-3 0  9993
2 68592  51.8664  54.5963 0010622 204.2144 155.8344 15.36359837  3825
KUIPER-00293            
1 68593U 26072W   26119.22749455  .00028461  00000+0  81531-3 0  9996
2 68593  51.8660  54.0121 0010902 212.0090 148.0234 15.35642170  3849
KUIPER-00294            
1 68594U 26072X   26119.54186124  .00026350  00000+0  73321-3 0  9993
2 68594  51.8687  52.3791 0009341 205.3592 154.6937 15.36608033  3899
KUIPER-00296            
1 68595U 26072Y   26119.53557233  .00032020  00000+0  87672-3 0  9991
2 68595  51.8736  52.3402 0008464 199.3141 160.7526 15.37012495  3895
KUIPER-00297            
1 68596U 26072Z   26119.54450061  .00035894  00000+0  10038-2 0  9997
2 68596  51.8643  52.3842 0010166 202.8547 157.1988 15.36282628  3891
KUIPER-00300            
1 68597U 26072AA  26119.46735706  .00025387  00000+0  69377-3 0  9998
2 68597  51.8692  52.6319 0007566 198.8288 161.2420 15.37204904  3882
KUIPER-00301            
1 68598U 26072AB  26119.53766891  .00026581  00000+0  73329-3 0  9995
2 68598  51.8680  52.3459 0008904 206.1738 153.8799 15.36875564  3894
KUIPER-00304            
1 68599U 26072AC  26119.53915057  .00025757  00000+0  71305-3 0  9992
2 68599  51.8695  52.3598 0009053 204.8131 155.2421 15.36783108  3893
KUIPER-00317            
1 68600U 26072AD  26119.53475298  .00027126  00000+0  74634-3 0  9993
2 68600  51.8700  52.3311 0008909 193.5362 166.5387 15.36946484  3899
KUIPER-00320            
1 68601U 26072AE  26119.02729995  .00020446  00000+0  57874-3 0  9999
2 68601  51.8617  54.9138 0011004 205.9455 154.0981 15.36214112  3813
