EUTELSAT 174A           
1 28924U 05052A   26233.82490619  .00000005  00000+0  00000+0 0  9995
2 28924   4.3793  75.6892 0006091  73.0405 292.3747  1.00274731 52999
EUTELSAT 33F            
1 29270U 06032A   26233.96503059  .00000152  00000+0  00000+0 0  9990
2 29270   1.8257  81.4522 0003438  61.5885 207.7271  1.00270791 47967
EUTELSAT HOTBIRD 13C    
1 33459U 08065A   26233.82870211 -.00000286  00000+0  00000+0 0  9993
2 33459   3.1134  78.3777 0003552  74.0321  65.7537  1.00273047 48008
EUTELSAT 36B            
1 36101U 09065A   26233.84863552  .00000110  00000+0  00000+0 0  9998
2 36101   0.6509  81.3316 0005819  66.7709 178.0527  1.00273530 61360
EUTELSAT KA-SAT 9A      
1 37258U 10069A   26233.84040215  .00000059  00000+0  00000+0 0  9993
2 37258   0.0715 344.1077 0005241 177.9876 119.6146  1.00270120 44664
EUTELSAT 7 WEST A       
1 37816U 11051A   26233.83719547 -.00000062  00000+0  00000+0 0  9990
2 37816   0.0647   5.4190 0005507 149.6962 109.1081  1.00272464 54530
EUTELSAT 16A            
1 37836U 11057A   26233.84178883  .00000102  00000+0  00000+0 0  9995
2 37836   0.0445  34.9703 0005465 115.3335 138.8780  1.00272513  7990
EUTELSAT 21B            
1 38992U 12062B   26233.84291550  .00000128  00000+0  00000+0 0  9991
2 38992   0.0693   0.8285 0002904 149.3854 144.9771  1.00272163 50485
EUTELSAT 70B            
1 39020U 12069A   26233.95302694 -.00000045  00000+0  00000+0 0  9994
2 39020   0.0655 346.4087 0003514 165.4515 231.9903  1.00271161 50162
EUTELSAT 117 WEST A     
1 39122U 13012A   26233.45912110 -.00000015  00000+0  00000+0 0  9998
2 39122   0.0111  52.5781 0002930  98.8308 226.8587  1.00271893 49080
EUTELSAT 7B             
1 39163U 13022A   26233.84005549  .00000046  00000+0  00000+0 0  9999
2 39163   0.0683 348.9017 0002142  74.0618 216.6029  1.00273326 48606
EXPRESS-AT1             
1 39612U 14010A   26234.00858469 -.00000064  00000+0  00000+0 0  9993
2 39612   0.4218  84.9980 0005056  66.7897 253.0563  1.00314961 45474
EXPRESS-AT2             
1 39613U 14010B   26233.84976220  .00000076  00000+0  00000+0 0  9993
2 39613   0.0082 181.1410 0000623 292.6996 218.2260  1.00273234 45152
EUTELSAT 3B             
1 39773U 14030A   26233.83927549  .00000018  00000+0  00000+0 0  9997
2 39773   0.0647 347.3593 0004081 162.0773 125.9571  1.00270973 44727
EUTELSAT 115 WEST B     
1 40425U 15010B   26233.48239244 -.00000027  00000+0  00000+0 0  9992
2 40425   0.0089 248.0791 0000270  21.4109 119.0770  1.00271063 42035
EUTELSAT 8 WEST B       
1 40875U 15039B   26233.83693547 -.00000068  00000+0  00000+0 0  9996
2 40875   0.0668   2.1474 0003561 145.9818 115.3163  1.00271754 40310
EUTELSAT 9B             
1 41310U 16005A   26233.84040215  .00000059  00000+0  00000+0 0  9993
2 41310   0.0243  61.1987 0001787 114.6722 105.8196  1.00270973 38772
EUTELSAT 65 WEST A      
1 41382U 16014A   26233.82575543 -.00000278  00000+0  00000+0 0  9991
2 41382   0.0525   6.9303 0002369 132.4938  62.7962  1.00271719 38183
EUTELSAT 117 WEST B     
1 41589U 16038B   26233.48794719 -.00000014  00000+0  00000+0 0  9994
2 41589   0.0095 250.1534 0000369 351.1581 147.1643  1.00273197 37315
EUTELSAT 172B           
1 42741U 17029B   26233.82490619 -.00000008  00000+0  00000+0 0  9999
2 42741   0.0253 128.9328 0000318 280.6574  29.5092  1.00271069 34399
EUTELSAT 7C             
1 44334U 19034B   26233.84005549  .00000046  00000+0  00000+0 0  9994
2 44334   0.0752 180.6749 0003513 312.2754 146.6309  1.00271624  7497
EUTELSAT 5 WEST B       
1 44624U 19067A   26233.83762882 -.00000044  00000+0  00000+0 0  9990
2 44624   0.0878 308.7494 0003323 198.7404 119.1987  1.00272860 25081
EUTELSAT KONNECT        
1 45027U 20005B   26233.84005549  .00000047  00000+0  00000+0 0  9995
2 45027   0.0661  98.8758 0002099 121.2884  59.5890  1.00271039 24997
EUTELSAT QUANTUM        
1 49056U 21069B   26233.84811552  .00000124  00000+0  00000+0 0  9997
2 49056   0.0114 273.4146 0002380 231.6391 178.1213  1.00270875 18582
EUTELSAT KONNECT VHTS   
1 53765U 22110A   26233.83918882  .00000015  00000+0  00000+0 0  9999
2 53765   0.0556 102.4458 0003045  18.6885 153.8229  1.00270802  7496
EUTELSAT HOTBIRD 13F    
1 54048U 22134A   26233.84118216  .00000085  00000+0  00000+0 0  9991
2 54048   0.0548 289.1439 0001999  79.6036 277.2158  1.00272894 14038
EUTELSAT HOTBIRD 13G    
1 54225U 22146A   26233.84118216  .00000085  00000+0  00000+0 0  9991
2 54225   0.0488 234.5354 0002071 299.6761 111.7414  1.00272064  8128
EUTELSAT 10B            
1 54259U 22157A   26233.84066216  .00000066  00000+0  00000+0 0  9991
2 54259   0.0568 100.0859 0001096 348.2531 194.4498  1.00269821 13687
EUTELSAT 36D            
1 59346U 24059A   26233.84577551  .00000154  00000+0  00000+0 0  9993
2 59346   0.0182 132.4820 0000335 358.8865 179.1260  1.00271820  8807
