QIANFAN-1               
1 60379U 24140A   26149.52044581  .00000080  00000+0  10489-3 0  9999
2 60379  88.9718 281.8664 0019571  91.9463 268.3929 13.51011317 90009
QIANFAN-2               
1 60380U 24140B   26149.54916040  .00000091  00000+0  12157-3 0  9997
2 60380  88.9705 281.6798 0014400  68.3841 291.8843 13.51006609 90067
QIANFAN-3               
1 60381U 24140C   26149.55739369  .00000088  00000+0  11653-3 0  9992
2 60381  88.9697 281.7989 0015773  79.0986 281.1939 13.51007669 89977
QIANFAN-4               
1 60382U 24140D   26149.53271899  .00000097  00000+0  13104-3 0  9993
2 60382  88.9722 281.7413 0014684  70.6590 289.6148 13.51010170 90098
QIANFAN-5               
1 60383U 24140E   26149.50802923  .00000085  00000+0  11286-3 0  9995
2 60383  88.9697 281.8289 0017212  88.8443 271.4680 13.51009215 89951
QIANFAN-6               
1 60384U 24140F   26149.52859064  .00000075  00000+0  97659-4 0  9994
2 60384  88.9724 281.6183 0014937  75.7422 284.5387 13.51009737 90159
QIANFAN-7               
1 60385U 24140G   26149.52769055  .00000584  00000+0  23009-3 0  9997
2 60385  88.9761 273.9666 0014506 199.1326 160.9326 14.27817780 94330
QIANFAN-8               
1 60386U 24140H   26149.53676227  .00000091  00000+0  12188-3 0  9996
2 60386  88.9725 281.8572 0018420  76.8510 283.4695 13.51006210 90004
QIANFAN-9               
1 60387U 24140J   26149.51217144  .00000087  00000+0  11527-3 0  9995
2 60387  88.9723 281.9318 0018102  76.7983 283.5186 13.51011679 89988
QIANFAN-10              
1 60388U 24140K   26149.51632069  .00000087  00000+0  11650-3 0  9990
2 60388  88.9734 281.2955 0016038  56.7495 303.5190 13.51012578 90117
QIANFAN-11              
1 60389U 24140L   26149.55320189  .00000090  00000+0  12100-3 0  9997
2 60389  88.9659 281.7530 0016134  76.8448 283.4502 13.51006946 89771
QIANFAN-12              
1 60390U 24140M   26149.49984509  .00000085  00000+0  11207-3 0  9995
2 60390  88.9702 281.8751 0015092  84.4955 275.7917 13.51008958 89890
QIANFAN-13              
1 60391U 24140N   26149.54506484  .00000086  00000+0  11495-3 0  9994
2 60391  88.9713 281.9908 0014952  86.7640 273.5221 13.51008993 89925
QIANFAN-14              
1 60392U 24140P   26149.56966317  .00000087  00000+0  11492-3 0  9990
2 60392  88.9693 281.8502 0018628  85.9671 274.3610 13.51010150 89931
QIANFAN-15              
1 60393U 24140Q   26149.50385344  .00000076  00000+0  98912-4 0  9991
2 60393  88.9716 281.8533 0014204  74.9832 285.2890 13.51011855 89917
QIANFAN-16              
1 60394U 24140R   26149.56574137  .00000084  00000+0  11103-3 0  9993
2 60394  88.9719 281.9720 0016615  89.6912 270.6143 13.51006724 89839
QIANFAN-17              
1 60395U 24140S   26149.56145440  .00000079  00000+0  10326-3 0  9995
2 60395  88.9730 282.0367 0016925  84.0703 276.2377 13.51007452 90790
QIANFAN-18              
1 60396U 24140T   26149.54086218  .00000087  00000+0  11533-3 0  9991
2 60396  88.9724 281.5608 0015947  68.9333 291.3522 13.51011723 90188
QIANFAN-19              
1 61552U 24185A   26149.53768994  .00000478  00000+0  24203-3 0  9994
2 61552  88.9852  58.7026 0008779 114.7539 245.4562 14.14461367 93388
QIANFAN-20              
1 61553U 24185B   26149.50894500  .00000376  00000+0  20895-3 0  9995
2 61553  88.9848  59.1966 0006108 147.3719 212.7844 14.09005215 93119
QIANFAN-21              
1 61554U 24185C   26149.56344247  .00000683  00000+0  29789-3 0  9992
2 61554  88.9768  57.3131 0010617 163.4905 196.6634 14.22832982 93831
QIANFAN-22              
1 61555U 24185D   26149.52839026  .00000300  00000+0  24782-3 0  9997
2 61555  88.9833  60.8529 0005484 182.5850 177.5293 13.86384415 92180
QIANFAN-23              
1 61556U 24185E   26149.55804576  .00000467  00000+0  22761-3 0  9992
2 61556  88.9843  58.4311 0009155 123.1560 237.0508 14.16487020 93500
QIANFAN-24              
1 61557U 24185F   26149.56470466  .00000716  00000+0  30527-3 0  9997
2 61557  88.9828  57.5628 0011439 105.1962 255.0496 14.24049025 93907
QIANFAN-25              
1 61558U 24185G   26149.53887603  .00000517  00000+0  30634-3 0  9998
2 61558  88.9836  59.1884 0011251 155.4740 204.6980 14.06060438 93081
QIANFAN-26              
1 61559U 24185H   26149.57466588  .00000257  00000+0  24395-3 0  9996
2 61559  88.9839  61.6248 0004045 205.5267 154.5701 13.77904601 91786
QIANFAN-27              
1 61560U 24185J   26149.56884528  .00000497  00000+0  19609-3 0  9993
2 61560  88.9837  57.2598 0009823  94.8791 265.3525 14.27521312 94109
QIANFAN-28              
1 61561U 24185K   26149.53049906  .00000826  00000+0  32508-3 0  9993
2 61561  88.9856  57.2754 0009652  92.8314 267.3986 14.28356598 94122
QIANFAN-29              
1 61562U 24185L   26149.56094100  .00000094  00000+0  12628-3 0  9991
2 61562  88.9813  63.9538 0007956 290.9946  69.0353 13.51070443 90451
QIANFAN-30              
1 61563U 24185M   26149.51487319  .00000152  00000+0  22026-3 0  9993
2 61563  88.9833  63.5482 0005353 277.3362  82.7180 13.50048007 90706
QIANFAN-31              
1 61564U 24185N   26149.52927450  .00000195  00000+0  25267-3 0  9997
2 61564  88.9817  63.0824 0004812 261.0172  99.0438 13.58033617 90933
QIANFAN-32              
1 61565U 24185P   26149.53910727  .00000086  00000+0  11520-3 0  9994
2 61565  88.9874  63.7307 0008180 310.5365  49.5073 13.50784649 90694
QIANFAN-33              
1 61566U 24185Q   26149.55548961  .00000362  00000+0  25154-3 0  9999
2 61566  88.9831  60.0875 0008064 144.7596 215.4115 13.96692565 92588
QIANFAN-34              
1 61567U 24185R   26149.54566945  .00000472  00000+0  29794-3 0  9997
2 61567  88.9810  59.4300 0006282 139.8879 220.2766 14.02456114 92874
QIANFAN-35              
1 61568U 24185S   26149.50806841  .00000784  00000+0  30874-3 0  9993
2 61568  88.9836  57.1772 0008841  90.8546 269.3661 14.28244992 94126
QIANFAN-36              
1 61569U 24185T   26149.51512599  .00000122  00000+0  15810-3 0  9998
2 61569  88.9809  63.5516 0004113 284.3471  75.7226 13.55632276 90654
QIANFAN-37              
1 62238U 24232B   26149.59789214  .00000132  00000+0  18644-3 0  9992
2 62238  89.0090  24.4501 0001922  61.3758 298.7586 13.51005556121830
QIANFAN-38              
1 62239U 24232C   26149.62260870  .00000124  00000+0  17328-3 0  9998
2 62239  89.0097  24.3749 0016550  71.4899 288.8049 13.51010678121893
QIANFAN-39              
1 62240U 24232D   26149.61852063  .00000391  00000+0  15935-3 0  9998
2 62240  89.0076  18.1805 0013836 246.4780 113.4960 14.25515274125302
QIANFAN-40              
1 62241U 24232E   26149.58146298  .00000129  00000+0  18155-3 0  9997
2 62241  89.0124  24.0105 0015608  78.6462 281.6442 13.51010494122253
QIANFAN-41              
1 62242U 24232F   26149.58971424  .00000126  00000+0  17596-3 0  9990
2 62242  89.0095  24.3267 0015926  68.1916 292.0928 13.51006652121912
QIANFAN-42              
1 62243U 24232G   26149.58294987  .00000375  00000+0  15513-3 0  9996
2 62243  89.0074  18.2567 0012618 254.2319 105.7483 14.24604945125263
QIANFAN-43              
1 62244U 24232H   26149.58558975  .00000130  00000+0  18301-3 0  9994
2 62244  89.0099  24.3998 0017501  72.6874 287.6190 13.51006559 90522
QIANFAN-44              
1 62245U 24232J   26149.57325315  .00000140  00000+0  19811-3 0  9992
2 62245  89.0097  24.2091 0015694  70.2713 290.0129 13.51008613121990
QIANFAN-45              
1 62246U 24232K   26149.61440915  .00000127  00000+0  17778-3 0  9997
2 62246  89.0101  24.3575 0016358  69.7729 290.5179 13.51006176121928
QIANFAN-46              
1 62247U 24232L   26149.56502704  .00000129  00000+0  18164-3 0  9999
2 62247  89.0097  24.4245 0016438  74.7972 285.4996 13.51006969121877
QIANFAN-47              
1 62248U 24232M   26149.56912244  .00000052  00000+0  61762-4 0  9992
2 62248  89.0093  24.3504 0016853  73.9978 286.3028 13.51005260121902
QIANFAN-48              
1 62249U 24232N   26149.60617286  .00000141  00000+0  19929-3 0  9992
2 62249  89.0097  24.3550 0019133  76.0968 284.2309 13.51009957121912
QIANFAN-49              
1 62250U 24232P   26149.59382701  .00000139  00000+0  19612-3 0  9999
2 62250  89.0096  24.3674 0016183  71.4707 288.8201 13.51008846 90509
QIANFAN-50              
1 62251U 24232Q   26149.61851256  .00000131  00000+0  18324-3 0  9990
2 62251  89.0102  24.3822 0017849  72.4693 287.8407 13.51005651 90539
QIANFAN-51              
1 62252U 24232R   26149.60202973  .00000132  00000+0  18582-3 0  9993
2 62252  89.0095  24.3675 0015351  75.9334 284.3522 13.51010638 90523
QIANFAN-52              
1 62253U 24232S   26149.55678633  .00000130  00000+0  18276-3 0  9996
2 62253  89.0092  24.2391 0017323  69.0934 291.2070 13.51007737 90606
QIANFAN-53              
1 62254U 24232T   26149.61026199  .00000137  00000+0  19311-3 0  9996
2 62254  89.0099  24.3509 0016204  70.0483 290.2412 13.51010494 90573
QIANFAN-54              
1 62255U 24232U   26149.57733613  .00000141  00000+0  19993-3 0  9999
2 62255  89.0090  24.0180 0003988  96.0366 264.1239 13.51009040122073
QIANFAN-55              
1 62785U 25016A   26149.52931747  .00000117  00000+0  16178-3 0  9996
2 62785  88.9737  85.8095 0015416 218.9275 141.0767 13.51013698 69848
QIANFAN-56              
1 62786U 25016B   26149.54580580  .00000109  00000+0  14957-3 0  9998
2 62786  88.9711  85.5992 0014007 221.0587 138.9511 13.51014995 69898
QIANFAN-57              
1 62787U 25016C   26149.50467897  .00000107  00000+0  14774-3 0  9995
2 62787  88.9742  85.8094 0002938  65.1033 295.0423 13.51013423 69850
QIANFAN-58              
1 62788U 25016D   26149.55000090  .00000121  00000+0  16861-3 0  9994
2 62788  88.9712  85.5850 0012124 211.4952 148.5474 13.51012894 69904
QIANFAN-59              
1 62789U 25016E   26149.57456308  .00000103  00000+0  14158-3 0  9991
2 62789  88.9736  85.6958 0012403 215.9486 144.0832 13.51007025 69901
QIANFAN-60              
1 62790U 25016F   26149.53340589  .00000114  00000+0  15719-3 0  9998
2 62790  88.9717  85.6395 0014025 212.7340 147.2943 13.51009459 69881
QIANFAN-61              
1 62791U 25016G   26149.56632111  .00000109  00000+0  15046-3 0  9994
2 62791  88.9784  85.9128 0012995 211.4745 148.5630 13.51013121 69903
QIANFAN-62              
1 62792U 25016H   26149.57055780  .00000103  00000+0  14147-3 0  9992
2 62792  88.9731  85.6905 0014351 212.4930 147.5339 13.51011722 69899
QIANFAN-63              
1 62793U 25016J   26149.52105298  .00000119  00000+0  16538-3 0  9991
2 62793  88.9737  85.6584 0014252 218.7237 141.2894 13.51005540 69920
QIANFAN-64              
1 62794U 25016K   26149.56222147  .00000116  00000+0  16136-3 0  9990
2 62794  88.9724  85.6057 0012407 209.6426 150.4024 13.51012827 69924
QIANFAN-65              
1 62795U 25016L   26149.55808969  .00000120  00000+0  16657-3 0  9995
2 62795  88.9720  85.6261 0012208 211.5025 148.5396 13.51010001 69904
QIANFAN-66              
1 62796U 25016M   26149.51284760  .00000119  00000+0  16589-3 0  9991
2 62796  88.9740  85.6339 0013409 207.3244 152.7203 13.51014403 69941
QIANFAN-67              
1 62797U 25016N   26149.51696278  .00000113  00000+0  15663-3 0  9999
2 62797  88.9730  85.6426 0013188 215.0659 144.9625 13.51014585 69917
QIANFAN-68              
1 62798U 25016P   26149.50891635  .00000111  00000+0  15333-3 0  9995
2 62798  88.9734  85.6947 0013312 212.7077 147.3251 13.51013117 69896
QIANFAN-69              
1 62799U 25016Q   26149.52516422  .00000124  00000+0  17272-3 0  9994
2 62799  88.9713  85.5265 0014028 214.5706 145.4535 13.51013525 69932
QIANFAN-70              
1 62800U 25016R   26149.54163107  .00000109  00000+0  14960-3 0  9991
2 62800  88.9733  85.6984 0013907 203.6140 156.4374 13.51005348 69894
QIANFAN-71              
1 62801U 25016S   26149.53752495  .00000106  00000+0  14534-3 0  9999
2 62801  88.9727  85.6682 0013843 218.4878 141.5287 13.51014512 69895
QIANFAN-72              
1 62802U 25016T   26149.55403415  .00000120  00000+0  16667-3 0  9992
2 62802  88.9718  85.6635 0016935 227.4693 132.5029 13.51012961 69883
QIANFAN-73              
1 63159U 25046A   26149.50703938  .00000049  00000+0  56895-4 0  9997
2 63159  88.9692 302.6280 0014779   6.8239 353.3110 13.51014978 70063
QIANFAN-74              
1 63160U 25046B   26149.56467534  .00000078  00000+0  10222-3 0  9999
2 63160  88.9693 302.5114 0001904 102.7889 257.3475 13.51004894 70135
QIANFAN-75              
1 63161U 25046C   26149.55222766  .00000027  00000+0  23037-4 0  9998
2 63161  88.9694 302.7489 0015923   9.3685 350.7760 13.51004063 70005
QIANFAN-76              
1 63162U 25046D   26149.54813524  .00000158  00000+0  22639-3 0  9997
2 63162  88.9695 302.7290 0013504  11.3547 348.7906 13.51010096 70013
QIANFAN-77              
1 63163U 25046E   26149.53572007  .00000246  00000+0  16947-3 0  9998
2 63163  88.9699 299.3544 0012585 276.8262  83.1483 13.96193618 71866
QIANFAN-78              
1 63164U 25046F   26149.51522608  .00000153  00000+0  21778-3 0  9994
2 63164  88.9693 302.5949 0014950  12.8628 347.2902 13.51009608 70088
QIANFAN-79              
1 63165U 25046G   26149.54409026  .00000060  00000+0  73773-4 0  9996
2 63165  88.9697 302.7057 0014692  11.1902 348.9573 13.51007777 70037
QIANFAN-80              
1 63166U 25046H   26149.56055271  .00000022  00000+0  15908-4 0  9992
2 63166  88.9694 302.4062 0013707  16.2627 343.8961 13.51005498 70194
QIANFAN-81              
1 63167U 25046J   26149.54006607  .00000000  00000+0 -18936-4 0  9991
2 63167  88.9693 302.4762 0014590   4.9166 355.2126 13.51013430 70144
QIANFAN-82              
1 63168U 25046K   26149.49876406  .00000033  00000+0  32043-4 0  9998
2 63168  88.9693 302.5244 0012722  13.2408 346.9075 13.51007551 70123
QIANFAN-83              
1 63169U 25046L   26149.56595160  .00000073  00000+0  78193-4 0  9992
2 63169  88.9696 301.9631 0013183 347.6098  12.4734 13.62036996 70440
QIANFAN-84              
1 63170U 25046M   26149.52866395  .00000125  00000+0  17552-3 0  9990
2 63170  88.9694 302.6541 0015627   7.7655 352.3735 13.51031741 70051
QIANFAN-85              
1 63171U 25046N   26149.52349506  .00000028  00000+0  25239-4 0  9995
2 63171  88.9693 302.5249 0013172  11.6740 348.4715 13.51014924 70123
QIANFAN-86              
1 63172U 25046P   26149.53187188  .00000029  00000+0  25794-4 0  9990
2 63172  88.9695 302.3901 0011186  17.6234 342.5303 13.51012676 70205
QIANFAN-87              
1 63173U 25046Q   26149.50297943  .00000074  00000+0  96593-4 0  9994
2 63173  88.9691 302.4985 0011532  12.7035 347.4405 13.51014470 70138
QIANFAN-88              
1 63174U 25046R   26149.51936939  .00000010  00000+0 -30580-5 0  9997
2 63174  88.9694 302.4554 0012280  20.1763 339.9871 13.51006011 70164
QIANFAN-89              
1 63175U 25046S   26149.55653357  .00000024  00000+0  17848-4 0  9997
2 63175  88.9694 302.6408 0016463   7.7507 352.3895 13.51012954 70066
QIANFAN-90              
1 63176U 25046T   26149.51108905  .00000081  00000+0  10707-3 0  9997
2 63176  88.9694 302.6181 0013360   8.3014 351.8356 13.51011386 70073
QIANFAN-91              
1 66033U 25233A   26149.24723126  .00000161  00000+0  23152-3 0  9995
2 66033  89.0018  45.1038 0002012  68.3248 291.8117 13.51006889 30624
QIANFAN-92              
1 66034U 25233B   26149.25548169  .00000171  00000+0  24610-3 0  9990
2 66034  89.0001  45.0778 0002178  72.9727 287.1662 13.51009961 30620
QIANFAN-93              
1 66035U 25233C   26149.26371016  .00000172  00000+0  24821-3 0  9992
2 66035  89.0029  45.1237 0002076  69.0686 291.0687 13.51008963 30622
QIANFAN-94              
1 66036U 25233D   26149.47353657  .00000172  00000+0  24793-3 0  9995
2 66036  89.0024  45.0065 0002061  74.2185 285.9194 13.51007512 30705
QIANFAN-95              
1 66037U 25233E   26149.25962655  .00000173  00000+0  24906-3 0  9993
2 66037  89.0022  44.5723 0001908  70.7618 289.3739 13.51008620 30928
QIANFAN-96              
1 66038U 25233F   26149.21022355  .00000165  00000+0  23771-3 0  9994
2 66038  89.0021  45.1210 0001979  67.8797 292.2564 13.51007681 30610
QIANFAN-97              
1 66039U 25233G   26149.26781126  .00000167  00000+0  23994-3 0  9997
2 66039  89.0023  45.0986 0002035  69.8882 290.2488 13.51007777 30634
QIANFAN-98              
1 66040U 25233H   26149.20195395  .00000161  00000+0  23059-3 0  9996
2 66040  89.0012  44.8383 0001928  85.9919 274.1452 13.51007931 30760
QIANFAN-99              
1 66041U 25233J   26149.28011339  .00000161  00000+0  23014-3 0  9991
2 66041  89.0024  45.1013 0001848  80.0224 280.1136 13.51007571 30636
QIANFAN-100             
1 66042U 25233K   26149.49410250  .00000166  00000+0  23844-3 0  9996
2 66042  89.0034  45.0047 0002071  69.6881 290.4492 13.51010646 30710
QIANFAN-101             
1 66043U 25233L   26149.21833435  .00000331  00000+0  13064-3 0  9998
2 66043  89.0019  42.7447 0013996 198.0002 162.0698 14.26795806 31929
QIANFAN-102             
1 66044U 25233M   26149.21842096  .00000169  00000+0  24395-3 0  9990
2 66044  89.0023  45.0177 0002012  74.5925 285.5448 13.51007555 30679
QIANFAN-103             
1 66045U 25233N   26149.22256107  .00000175  00000+0  25173-3 0  9996
2 66045  89.0025  45.1119 0002067  68.7313 291.4059 13.51008513 30629
QIANFAN-104             
1 66046U 25233P   26149.22667005  .00000168  00000+0  24130-3 0  9994
2 66046  89.0030  45.0128 0002093  76.0965 284.0419 13.51010752 30670
QIANFAN-105             
1 66047U 25233Q   26149.23488473  .00000160  00000+0  22959-3 0  9995
2 66047  89.0042  44.8525 0001924  71.3279 288.8081 13.51010240 30781
QIANFAN-106             
1 66048U 25233R   26149.23080296  .00000157  00000+0  22508-3 0  9993
2 66048  89.0012  45.0718 0001947  83.5375 276.5997 13.51007725 30620
QIANFAN-107             
1 66049U 25233S   26149.23899468  .00000156  00000+0  22372-3 0  9991
2 66049  89.0027  45.1003 0002074  70.1921 289.9454 13.51007026 30637
QIANFAN-108             
1 66050U 25233T   26149.24313193  .00000159  00000+0  22793-3 0  9990
2 66050  89.0020  45.0890 0001966  82.1027 278.0347 13.51008190 30637
QIANFAN-109             
1 68636U 26075A   26149.21991179 -.02060154  00000+0 -31715+1 0  9996
2 68636  88.9868 322.9618 0014809  57.2800 302.9779 13.55519095  7235
QIANFAN-110             
1 68637U 26075B   26149.48436200 -.02028855  00000+0 -32924+1 0  9990
2 68637  88.9872 322.9451 0016127  50.9185 309.3398 13.52101347  7262
QIANFAN-111             
1 68638U 26075C   26148.99071899 -.02110197  00000+0 -28532+1 0  9996
2 68638  88.9873 322.9642 0011798  71.6866 288.5575 13.63766591  7211
QIANFAN-112             
1 68639U 26075D   26149.02883466 -.02106084  00000+0 -30875+1 0  9996
2 68639  88.9869 322.9715 0006894  58.6911 301.4919 13.58729547  7216
QIANFAN-113             
1 68640U 26075E   26149.03790342 -.02094328  00000+0 -31526+1 0  9990
2 68640  88.9884 322.9708 0011891  53.4313 306.7934 13.57020964  7210
QIANFAN-114             
1 68641U 26075F   26148.97625848 -.02118092  00000+0 -33195+1 0  9990
2 68641  88.9871 322.9810 0015186  76.9664 283.3183 13.54503592  7206
QIANFAN-115             
1 68642U 26075G   26149.45026686 -.01941092  00000+0 -31510+1 0  9992
2 68642  88.9872 322.9390 0013686  56.7254 303.5207 13.52614008  7266
QIANFAN-116             
1 68643U 26075H   26148.99349545 -.02108016  00000+0 -31461+1 0  9990
2 68643  88.9870 322.9651 0008850  57.6568 302.5442 13.57602844  7215
QIANFAN-117             
1 68644U 26075J   26149.01538862 -.02134248  00000+0 -31574+1 0  9998
2 68644  88.9871 322.9682 0010210  47.9414 312.2609 13.58203675  7219
QIANFAN-118             
1 68645U 26075K   26148.98010207 -.01636964  00000+0 -26090+1 0  9990
2 68645  88.9873 322.9813 0010891  86.0467 274.1930 13.53067256  7205
QIANFAN-119             
1 68646U 26075L   26149.43163368 -.01875431  00000+0 -30451+1 0  9999
2 68646  88.9873 322.9197 0014657  58.3139 301.9440 13.52437589  7274
QIANFAN-120             
1 68647U 26075M   26148.90478797 -.02052323  00000+0 -31613+1 0  9995
2 68647  88.9874 322.9706 0013296  72.3611 287.8993 13.55475530  7200
QIANFAN-121             
1 68648U 26075N   26148.98999197 -.01907456  00000+0 -30052+1 0  9997
2 68648  88.9873 322.9648 0014456  76.1539 284.1222 13.54429907  7217
QIANFAN-122             
1 68649U 26075P   26148.97149642 -.02033877  00000+0 -31467+1 0  9998
2 68649  88.9869 322.9617 0012273  76.1011 284.1507 13.55164874  7215
QIANFAN-123             
1 68650U 26075Q   26149.11130330 -.02071328  00000+0 -30717+1 0  9991
2 68650  88.9866 322.9452 0008468  69.2708 290.9354 13.57929484  7200
QIANFAN-124             
1 68651U 26075R   26148.91078059 -.01919195  00000+0 -30092+1 0  9996
2 68651  88.9873 322.9722 0009576  85.9604 274.2644 13.54786061  7206
QIANFAN-125             
1 68652U 26075S   26149.04980263 -.01908228  00000+0 -30198+1 0  9993
2 68652  88.9871 322.9556 0013435  74.9772 285.2867 13.54156365  7222
QIANFAN-126             
1 68653U 26075T   26149.10058374 -.02131093  00000+0 -31327+1 0  9994
2 68653  88.9882 322.9218 0010673  81.7301 278.5064 13.58594927  7245
QIANFAN-127             
1 69073U 26104A   26149.54510228  .00000151  00000+0  62322-4 0  9992
2 69073  88.9863 343.7422 0004505 154.6905 205.4508 14.21689196  2449
QIANFAN-128             
1 69074U 26104B   26149.58214403  .00000146  00000+0  64218-4 0  9993
2 69074  88.9864 343.7480 0003810 149.9614 210.1794 14.18044278  2449
QIANFAN-129             
1 69075U 26104C   26149.59336752  .00000158  00000+0  60842-4 0  9999
2 69075  88.9864 343.7308 0004056 161.1635 198.9709 14.25498664  2451
QIANFAN-130             
1 69076U 26104D   26149.57248489  .00000148  00000+0  64597-4 0  9997
2 69076  88.9864 343.7464 0003965 139.7998 220.3486 14.18733495  2443
QIANFAN-131             
1 69077U 26104E   26149.55428055  .00000137  00000+0  57201-4 0  9997
2 69077  88.9863 343.7435 0003329 157.2417 202.8921 14.20504160  2443
QIANFAN-132             
1 69078U 26104F   26149.58017416  .00000147  00000+0  64438-4 0  9997
2 69078  88.9864 343.7476 0004228 149.4048 210.7388 14.18145465  2443
QIANFAN-133             
1 69079U 26104G   26149.63951832  .00000145  00000+0  62650-4 0  9995
2 69079  88.9864 343.7377 0003708 160.3639 199.7694 14.19027303  2452
QIANFAN-134             
1 69080U 26104H   26149.63551095  .00000150  00000+0  64613-4 0  9991
2 69080  88.9864 343.7371 0004766 143.7430 216.4084 14.19322803  2450
QIANFAN-135             
1 69081U 26104J   26149.63221299  .00000142  00000+0  60504-4 0  9998
2 69081  88.9864 343.7367 0003477 174.8905 185.2321 14.19620308  2454
QIANFAN-136             
1 69082U 26104K   26149.62964270  .00000139  00000+0  58651-4 0  9997
2 69082  88.9863 343.7362 0003982 160.9938 199.1402 14.19912564  2454
QIANFAN-137             
1 69083U 26104L   26149.59891550  .00000121  00000+0  45170-4 0  9997
2 69083  88.9863 343.7315 0004702 154.3404 205.8023 14.25194652  2450
QIANFAN-138             
1 69084U 26104M   26149.55200628  .00000142  00000+0  58962-4 0  9990
2 69084  88.9864 343.7432 0003505 162.7223 197.4088 14.20800042  2442
QIANFAN-139             
1 69085U 26104N   26149.54876880  .00000144  00000+0  59740-4 0  9996
2 69085  88.9864 343.7427 0003537 151.0417 209.0971 14.21100594  2445
QIANFAN-140             
1 69086U 26104P   26149.54579138  .00000154  00000+0  63896-4 0  9991
2 69086  88.9864 343.7422 0003531 156.3875 203.7479 14.21390431  2446
QIANFAN-141             
1 69087U 26104Q   26149.54294816  .00000137  00000+0  55793-4 0  9997
2 69087  88.9863 343.7418 0003195 150.6748 209.4623 14.21631795  2448
QIANFAN-142             
1 69088U 26104R   26149.53954583  .00000138  00000+0  55902-4 0  9994
2 69088  88.9863 343.7412 0004516 143.6917 216.4581 14.21950535  2448
QIANFAN-143             
1 69089U 26104S   26149.60365362  .00000136  00000+0  53623-4 0  9990
2 69089  88.9863 343.7321 0003797 144.3306 215.8140 14.23169145  2454
QIANFAN-144             
1 69090U 26104T   26149.60629734  .00000142  00000+0  56891-4 0  9995
2 69090  88.9863 343.7326 0003300 132.5543 227.5927 14.22579891  2458
QIANFAN-9 OBJECT A      
1 69104U 26108A   26149.11969699 -.01839740  00000+0 -10743+1 0  9997
2 69104  89.0123  24.3442 0019123 176.9005 183.2303 14.12086179  1648
QIANFAN-9 OBJECT B      
1 69105U 26108B   26149.09735668 -.01763946  00000+0 -91857+0 0  9990
2 69105  89.0127  24.3412 0010482 166.9311 193.2153 14.18825241  1649
QIANFAN-9 OBJECT C      
1 69106U 26108C   26149.11256404 -.01893903  00000+0 -10894+1 0  9990
2 69106  89.0121  24.3431 0016939 164.5100 195.6608 14.13038334  1643
QIANFAN-9 OBJECT D      
1 69107U 26108D   26149.03867327 -.01926904  00000+0 -10987+1 0  9995
2 69107  89.0119  24.3505 0016304 175.4249 184.7090 14.13588655  1633
QIANFAN-9 OBJECT E      
1 69108U 26108E   26149.10918767 -.01914694  00000+0 -10847+1 0  9997
2 69108  89.0126  24.3427 0015584 174.6991 185.4364 14.13922830  1649
QIANFAN-9 OBJECT F      
1 69109U 26108F   26149.10417385 -.01966154  00000+0 -10939+1 0  9998
2 69109  89.0124  24.3421 0016615 186.5888 173.5084 14.14996049  1646
QIANFAN-9 OBJECT G      
1 69110U 26108G   26149.03107940 -.01937325  00000+0 -10499+1 0  9994
2 69110  89.0124  24.3496 0014797 199.5519 160.5104 14.16369576  1633
QIANFAN-9 OBJECT H      
1 69111U 26108H   26149.10026135 -.01895578  00000+0 -10386+1 0  9997
2 69111  89.0123  24.3406 0016266 189.1644 170.9249 14.15681370  1645
QIANFAN-9 OBJECT J      
1 69112U 26108J   26148.81511982 -.01764194  00000+0 -93684+0 0  9994
2 69112  89.0125  24.3728 0011551 193.2187 166.8701 14.17771132  1606
QIANFAN-9 OBJECT K      
1 69113U 26108K   26149.02409257 -.01705847  00000+0 -89938+0 0  9997
2 69113  89.0127  24.3485 0012728 196.1920 163.8864 14.18007342  1639
QIANFAN-9 OBJECT L      
1 69114U 26108L   26149.09480145 -.01865235  00000+0 -97027+0 0  9996
2 69114  89.0126  24.3410 0010966 185.0845 175.0235 14.18450040  1647
QIANFAN-9 OBJECT M      
1 69115U 26108M   26149.02340100 -.01869636  00000+0 -95746+0 0  9991
2 69115  89.0130  24.3490 0012567 191.5692 168.5211 14.19284801  1633
QIANFAN-9 OBJECT N      
1 69116U 26108N   26149.58422617  .00000419  00000+0  17297-3 0  9999
2 69116  89.0130  24.2847 0015487 178.4627 181.6616 14.24902754  1719
QIANFAN-9 OBJECT P      
1 69117U 26108P   26149.09257546 -.01921364  00000+0 -98598+0 0  9996
2 69117  89.0125  24.3407 0015801 192.4172 167.6631 14.19256197  1648
QIANFAN-9 OBJECT Q      
1 69118U 26108Q   26149.02130492 -.01943589  00000+0 -98927+0 0  9999
2 69118  89.0129  24.3485 0015433 189.2235 170.8674 14.19740720  1636
QIANFAN-9 OBJECT R      
1 69119U 26108R   26149.02080371 -.01958444  00000+0 -99036+0 0  9998
2 69119  89.0129  24.3481 0015086 186.6404 173.4588 14.20121271  1635
QIANFAN-9 OBJECT S      
1 69120U 26108S   26149.09058343 -.01942906  00000+0 -98065+0 0  9998
2 69120  89.0125  24.3406 0012931 182.8595 177.2524 14.20206158  1646
QIANFAN-9 OBJECT T      
1 69121U 26108T   26148.95017406 -.01900978  00000+0 -95701+0 0  9995
2 69121  89.0125  24.3561 0013286 185.3753 174.7297 14.20255108  1623
