ORBCOMM-X               
1 21576U 91050C   26063.12762234  .00000436  00000+0  14158-3 0  9994
2 21576  98.3079 129.0052 0004758 114.7355 245.4331 14.43512186819610
ORBCOMM FM01            
1 23545U 95017A   26063.44637147  .00010025  00000+0  93247-3 0  9999
2 23545  69.9620 143.0863 0007365 279.3129  80.7194 14.94540865651335
ORBCOMM FM02            
1 23546U 95017B   26063.48857793  .00014917  00000+0  13110-2 0  9999
2 23546  69.9637 161.0345 0008585 280.2413  79.7777 14.96619463651025
ORBCOMM FM08            
1 25112U 97084A   26063.37788656  .00002889  00000+0  82656-3 0  9992
2 25112  45.0122 197.7729 0006677 142.9013 217.2302 14.46957031479046
ORBCOMM FM10            
1 25113U 97084B   26063.40183878  .00002967  00000+0  85278-3 0  9992
2 25113  45.0134 200.5447 0004337 112.5074 247.6237 14.46684173654189
ORBCOMM FM11            
1 25114U 97084C   26063.45245272  .00002583  00000+0  75148-3 0  9994
2 25114  45.0115 201.4184 0005216 110.8217 249.3194 14.46418760479143
ORBCOMM FM12            
1 25115U 97084D   26063.41101090  .00002386  00000+0  69697-3 0  9993
2 25115  45.0129 201.3384 0004249 111.3409 248.7897 14.46447808478938
ORBCOMM FM09            
1 25116U 97084E   26063.40056868  .00002539  00000+0  74181-3 0  9999
2 25116  45.0128 202.6249 0005111  93.8442 266.2994 14.46273421479136
ORBCOMM FM05            
1 25117U 97084F   26063.39266209  .00002952  00000+0  84201-3 0  9993
2 25117  45.0127 197.6718 0002140 137.3872 222.7146 14.47068544478280
ORBCOMM FM06            
1 25118U 97084G   26063.43505901  .00002961  00000+0  84121-3 0  9995
2 25118  45.0124 196.8799 0001485 166.3895 241.1518 14.47244564479216
ORBCOMM FM07            
1 25119U 97084H   26063.36874653  .00002682  00000+0  76574-3 0  9994
2 25119  45.0115 197.9391 0002644 121.9835 238.1274 14.47248410479192
ORBCOMM FM03            
1 25158U 98007B   26063.44746220  .00001269  00000+0  48349-3 0  9999
2 25158 107.9638 310.5265 0043246 155.1107 205.2131 14.35288770461378
ORBCOMM FM04            
1 25159U 98007C   26063.45739461  .00001256  00000+0  47776-3 0  9999
2 25159 107.9624 313.9422 0039022 152.3346 207.9881 14.35517387461568
ORBCOMM FM17            
1 25413U 98046A   26063.28488699  .00001031  00000+0  40192-3 0  9996
2 25413  44.9936 109.4827 0000369  83.1996 276.8893 14.35731879440545
ORBCOMM FM18            
1 25414U 98046B   26063.21628882  .00002030  00000+0  69127-3 0  9999
2 25414  44.9942  20.0442 0002733 166.8750 193.2170 14.39429484441707
ORBCOMM FM19            
1 25415U 98046C   26063.07636822  .00001902  00000+0  65289-3 0  9999
2 25415  44.9955  23.1013 0001420 165.4930 292.2352 14.39252424441639
ORBCOMM FM20            
1 25416U 98046D   26063.31498558  .00001545  00000+0  55383-3 0  9996
2 25416  44.9954  28.7557 0001525 286.0803  73.9877 14.37883528441693
ORBCOMM FM16            
1 25417U 98046E   26063.33002796  .00001868  00000+0  63462-3 0  9999
2 25417  44.9948  16.6167 0002933 191.8534 168.2246 14.39817488441735
ORBCOMM FM15            
1 25418U 98046F   26060.94344064  .00000411  00000+0  17640-3 0  9991
2 25418  44.9980  33.9056 0002671 186.0202 174.0615 14.39427017441378
ORBCOMM FM14            
1 25419U 98046G   26063.24908558  .00001912  00000+0  64794-3 0  9991
2 25419  44.9967  20.3644 0001469 204.9527 155.1251 14.39877148441685
ORBCOMM FM13            
1 25420U 98046H   26063.25759537  .00001672  00000+0  58920-3 0  9992
2 25420  44.9983  31.0096 0003116 159.1994 200.8981 14.38432580440677
ORBCOMM FM21            
1 25475U 98053A   26063.33193105  .00001308  00000+0  47494-3 0  9992
2 25475  45.0073 116.9377 0001038 222.3049 137.7719 14.38002423434689
ORBCOMM FM22            
1 25476U 98053B   26063.16461620  .00001473  00000+0  51634-3 0  9998
2 25476  45.0064 110.3082 0001065 126.6573 233.4374 14.39224650434713
ORBCOMM FM23            
1 25477U 98053C   26063.15393766  .00001363  00000+0  49041-3 0  9990
2 25477  45.0073 119.4645 0000604 152.7352 207.3528 14.38261807434818
ORBCOMM FM24            
1 25478U 98053D   26063.46904971  .00001515  00000+0  53306-3 0  9999
2 25478  45.0071 114.2356 0000807 185.9416 174.1423 14.38909181434924
ORBCOMM FM25            
1 25479U 98053E   26063.30707012  .00001470  00000+0  51897-3 0  9993
2 25479  45.0062 113.3172 0002828 137.6958 222.4109 14.38871852435192
ORBCOMM FM26            
1 25480U 98053F   26063.15190945  .00001201  00000+0  44160-3 0  9996
2 25480  45.0061 112.4998 0005089 146.1974 213.9199 14.37807641435057
ORBCOMM FM27            
1 25481U 98053G   26063.14965140  .00001520  00000+0  53458-3 0  9997
2 25481  45.0047 114.1633 0001744 242.7491 117.3180 14.38914923435104
ORBCOMM FM28            
1 25482U 98053H   26063.02189007  .00001344  00000+0  47715-3 0  9998
2 25482  45.0059  51.9763 0003599 194.2529 165.8218 14.39011136435771
ORBCOMM FM30            
1 25980U 99065A   26063.04286890  .00001106  00000+0  40927-3 0  9999
2 25980  45.0317 299.1129 0005750 236.0613 123.9689 14.37968318371848
ORBCOMM FM31            
1 25981U 99065B   26063.02871851  .00001122  00000+0  41499-3 0  9998
2 25981  45.0228 292.6220 0003509 267.0739  92.9708 14.37891417371395
ORBCOMM FM32            
1 25982U 99065C   26063.10718391  .00001220  00000+0  45561-3 0  9990
2 25982  45.0162 310.5601 0005776 261.4164  98.6029 14.36953558371971
ORBCOMM FM33            
1 25983U 99065D   26063.40131013  .00001519  00000+0  51444-3 0  9992
2 25983  45.0275 201.1007 0008273 283.8813  76.1116 14.40773610373587
ORBCOMM FM36            
1 25984U 99065E   26063.07470679  .00001518  00000+0  53337-3 0  9992
2 25984  45.0392 298.5050 0002298 156.9355 203.1597 14.38965862371849
ORBCOMM FM35            
1 25985U 99065F   26063.03937027  .00001372  00000+0  49732-3 0  9996
2 25985  45.0399 305.8477 0003430 271.0739  88.9717 14.37858752372174
ORBCOMM FM34            
1 25986U 99065G   26063.00984580  .00001182  00000+0  43577-3 0  9990
2 25986  45.0395 306.4951 0002989 213.4571 146.6089 14.37772219372286
ORBCOMM FM38            
1 33060U 08031A   26063.46868243  .00003094  00000+0  40566-3 0  9991
2 33060  48.4388 153.5971 0003813  83.8574 276.2777 14.82706748953350
ORBCOMM FM41            
1 33061U 08031B   26063.49843270  .00003029  00000+0  40211-3 0  9993
2 33061  48.4424 162.1736 0003118  63.2076  28.3195 14.82242112952836
ORBCOMM FM29            
1 33062U 08031C   26063.38920594  .00003286  00000+0  43220-3 0  9995
2 33062  48.4375 170.1287 0004740  63.9318  12.3942 14.82415133952737
ORBCOMM FM39            
1 33063U 08031D   26063.40379174  .00002993  00000+0  41135-3 0  9998
2 33063  48.4385 197.3362 0005911  31.2221 328.9045 14.80796726952341
ORBCOMM FM37            
1 33064U 08031E   26063.41937829  .00002908  00000+0  39869-3 0  9994
2 33064  48.4380 185.3809 0004369  52.2299  20.5926 14.80990628952603
ORBCOMM FM40            
1 33065U 08031F   26063.51620767  .00003800  00000+0  48155-3 0  9996
2 33065  48.4400 164.2696 0005149  71.7829  22.6675 14.83627044952795
VESSELSAT 1             
1 37840U 11058C   26063.06131462  .00000407  00000+0  77005-4 0  9990
2 37840  19.9629 321.3105 0013703 165.0099 195.0713 14.11419036743065
ORBCOMM FM109           
1 40086U 14040A   26063.51353163  .00000954  00000+0  23868-3 0  9998
2 40086  47.0019 226.3288 0001167 116.1398 243.9608 14.58713908619066
ORBCOMM FM107           
1 40087U 14040B   26063.45996168  .00001162  00000+0  28226-3 0  9995
2 40087  47.0035 227.4355 0000641 358.9881   1.1003 14.58797857619137
ORBCOMM FM106           
1 40088U 14040C   26063.30457384  .00001706  00000+0  31029-3 0  9991
2 40088  47.0613  29.1683 0016408 199.2667 160.7606 14.70287869621749
ORBCOMM FM111           
1 40089U 14040D   26063.40084563  .00004964  00000+0  55003-3 0  9995
2 40089  46.9994 202.6380 0028277 358.1233   1.9555 14.88307486628961
ORBCOMM FM104           
1 40090U 14040E   26063.05108578  .00000769  00000+0  20618-3 0  9994
2 40090  47.0042 266.1360 0016470 311.7498  48.1978 14.57157033618511
ORBCOMM FM103           
1 40091U 14040F   26063.44738671  .00001039  00000+0  25682-3 0  9998
2 40091  47.0039 228.2124 0001195  16.5098 343.5826 14.58700143602096
ORBCOMM FM114           
1 41179U 15081A   26063.39448023  .00000880  00000+0  22301-3 0  9993
2 41179  47.0042 137.4029 0001249  80.3206 279.7821 14.58720284542459
ORBCOMM FM119           
1 41180U 15081B   26063.11958322  .00001016  00000+0  25220-3 0  9998
2 41180  47.0009  48.0604 0000918 218.6911 141.3909 14.58662737543664
ORBCOMM FM105           
1 41181U 15081C   26063.00468704  .00000394  00000+0  15503-3 0  9998
2 41181  47.0008  79.0219 0001275  11.1161 348.9748 14.45488333538338
ORBCOMM FM110           
1 41182U 15081D   26063.38370370  .00001415  00000+0  33652-3 0  9991
2 41182  47.0015 136.9275 0003536 298.1317  61.9212 14.58723588542324
ORBCOMM FM118           
1 41183U 15081E   26063.21280217  .00001377  00000+0  32837-3 0  9995
2 41183  47.0035 138.0492 0003908 266.7859  93.2579 14.58719006542409
ORBCOMM FM112           
1 41184U 15081F   26063.01028602  .00001040  00000+0  25689-3 0  9996
2 41184  46.9996  47.5080 0000994  53.6338 306.4639 14.58718421543595
ORBCOMM FM113           
1 41185U 15081G   26063.32996754  .00001054  00000+0  25991-3 0  9994
2 41185  47.0013  46.3641 0000578  65.7549 294.3397 14.58720467543627
ORBCOMM FM115           
1 41186U 15081H   26063.48933184  .00001229  00000+0  27093-3 0  9999
2 41186  46.9972 241.0000 0001200 208.9287 151.1534 14.63108811545888
ORBCOMM FM108           
1 41187U 15081J   26062.67618107  .00001299  00000+0  31190-3 0  9995
2 41187  47.0059 320.9947 0002200  59.3085 300.8017 14.58730739544678
ORBCOMM FM117           
1 41188U 15081K   26063.05266200  .00001285  00000+0  30902-3 0  9997
2 41188  47.0022 317.8837 0002525  72.5276 287.5886 14.58723735544775
ORBCOMM FM116           
1 41189U 15081L   26063.30741590  .00001252  00000+0  30193-3 0  9992
2 41189  47.0030  46.4607 0002661 293.9812  66.0795 14.58714866543628
