IRIDIUM 106             
1 41917U 17003A   26067.00090110  .00000280  00000+0  93019-4 0  9990
2 41917  86.3980 130.8674 0001896 107.0274 253.1130 14.34216653478708
IRIDIUM 103             
1 41918U 17003B   26066.91845252 -.00000155  00000+0 -62529-4 0  9990
2 41918  86.3983 130.8014 0001989  85.8248 274.3175 14.34216540478717
IRIDIUM 109             
1 41919U 17003C   26066.99456307  .00000012  00000+0 -27567-5 0  9993
2 41919  86.3986 130.8278 0002097  95.9167 264.2268 14.34217605478697
IRIDIUM 102             
1 41920U 17003D   26066.89308243 -.00000085  00000+0 -37383-4 0  9996
2 41920  86.3988 130.7962 0002182  96.3396 263.8049 14.34216795478763
IRIDIUM 105             
1 41921U 17003E   26066.58003589  .00000330  00000+0  11044-3 0  9994
2 41921  86.3922  99.3765 0002260  92.7596 267.3858 14.34400713480576
IRIDIUM 104             
1 41922U 17003F   26066.69646161  .00000115  00000+0  34030-4 0  9998
2 41922  86.3985 130.9190 0002327  88.9090 271.2372 14.34218079478721
IRIDIUM 114             
1 41923U 17003G   26066.91210747  .00000315  00000+0  10524-3 0  9994
2 41923  86.3981 130.8122 0002147  91.2066 268.9376 14.34216579478733
IRIDIUM 108             
1 41924U 17003H   26066.59155373  .00000292  00000+0  97150-4 0  9997
2 41924  86.3919  99.2610 0002304  95.9472 264.1987 14.34217700480547
IRIDIUM 112             
1 41925U 17003J   26066.69011947 -.00000055  00000+0 -26610-4 0  9999
2 41925  86.3982 130.7522 0002200  93.3957 266.7491 14.34217051478720
IRIDIUM 111             
1 41926U 17003K   26066.67743373  .00000299  00000+0  99681-4 0  9999
2 41926  86.3981 130.8257 0002117  94.5982 265.5456 14.34217966478705
IRIDIUM 113             
1 42803U 17039A   26066.79693300  .00000167  00000+0  52639-4 0  9996
2 42803  86.4023   4.5403 0002216  81.8300 278.3147 14.34219104456656
IRIDIUM 123             
1 42804U 17039B   26066.41980252 -.00000035  00000+0 -19627-4 0  9997
2 42804  86.3964  36.1528 0001877  84.0387 276.1023 14.34217032455365
IRIDIUM 120             
1 42805U 17039C   26066.79059260  .00000053  00000+0  11771-4 0  9995
2 42805  86.4015   4.3390 0002100  89.1031 271.0406 14.34217524456647
IRIDIUM 115             
1 42806U 17039D   26066.75688513  .00000594  00000+0  17072-3 0  9990
2 42806  86.4554   4.4677 0001837  87.7047 272.4364 14.43279194459633
IRIDIUM 118             
1 42807U 17039E   26066.45151553  .00000071  00000+0  18316-4 0  9990
2 42807  86.3973  36.1376 0002248  84.8810 275.2643 14.34216511455360
IRIDIUM 117             
1 42808U 17039F   26066.88915477 -.00000093  00000+0 -40250-4 0  9999
2 42808  86.3968  35.9140 0001919  84.1942 275.9473 14.34216625455458
IRIDIUM 126             
1 42809U 17039G   26066.91452535 -.00000069  00000+0 -31564-4 0  9996
2 42809  86.3967  35.9529 0002035  81.5786 278.5640 14.34216830455437
IRIDIUM 124             
1 42810U 17039H   26066.96829864  .00000570  00000+0  16361-3 0  9998
2 42810  86.4535 332.6949 0002095  84.5220 275.6220 14.43273118460515
IRIDIUM 128             
1 42811U 17039J   26066.48665072  .00000007  00000+0 -44958-5 0  9996
2 42811  86.3913  67.6666 0002081  95.2322 264.9111 14.34217644455407
IRIDIUM 121             
1 42812U 17039K   26066.44517334 -.00000004  00000+0 -85948-5 0  9992
2 42812  86.3968  36.1760 0002129  89.4945 270.6494 14.34217377455246
IRIDIUM 133             
1 42955U 17061A   26067.00674413  .00000000  00000+0 -70233-5 0  9996
2 42955  86.3912  67.5646 0002044  90.1610 269.9820 14.34217399440273
IRIDIUM 100             
1 42956U 17061B   26067.00040107  .00000010  00000+0 -34711-5 0  9996
2 42956  86.3913  67.4882 0002030  89.3001 270.8428 14.34217429440274
IRIDIUM 122             
1 42957U 17061C   26066.75938041 -.00000033  00000+0 -18816-4 0  9994
2 42957  86.3910  67.5889 0001998  88.1289 272.0135 14.34217112440242
IRIDIUM 129             
1 42958U 17061D   26066.50567910 -.00000034  00000+0 -19316-4 0  9998
2 42958  86.3912  67.7611 0002371  84.6343 275.5123 14.34217325440227
IRIDIUM 119             
1 42959U 17061E   26066.75303992  .00000005  00000+0 -52428-5 0  9993
2 42959  86.3913  67.6529 0002103  85.3944 274.7492 14.34217544440272
IRIDIUM 107             
1 42960U 17061F   26066.49299281 -.00000009  00000+0 -10169-4 0  9991
2 42960  86.3914  67.7825 0001766  86.9649 273.1749 14.34217455440244
IRIDIUM 132             
1 42961U 17061G   26066.49933534 -.00000015  00000+0 -12243-4 0  9990
2 42961  86.3912  67.7599 0001977  89.8046 270.3377 14.34217360440249
IRIDIUM 136             
1 42962U 17061H   26066.74035451 -.00000008  00000+0 -99082-5 0  9999
2 42962  86.3911  67.6652 0002023  87.0286 273.1141 14.34217436440296
IRIDIUM 139             
1 42963U 17061J   26066.53739205 -.00000006  00000+0 -91440-5 0  9993
2 42963  86.3914  67.8106 0001985  91.3959 268.7464 14.34217408440272
IRIDIUM 125             
1 42964U 17061K   26067.01308529 -.00000017  00000+0 -13293-4 0  9990
2 42964  86.3913  67.6706 0001789  74.7380 285.4013 14.34217340440351
IRIDIUM 135             
1 43070U 17083A   26067.05698119  .00000386  00000+0  13070-3 0  9993
2 43070  86.4023   4.2752 0002179  85.9580 274.1865 14.34220965429658
IRIDIUM 138             
1 43071U 17083B   26066.80327826 -.00000011  00000+0 -10889-4 0  9993
2 43071  86.4029   4.0610 0002211  75.7032 284.4409 14.34217282429603
IRIDIUM 116             
1 43072U 17083C   26066.77156465 -.00000003  00000+0 -81115-5 0  9991
2 43072  86.4017   4.3816 0001989  93.5101 266.6322 14.34217493429631
IRIDIUM 130             
1 43073U 17083D   26066.80961954 -.00000024  00000+0 -15748-4 0  9994
2 43073  86.4025   4.6310 0001814  90.0490 270.0914 14.34217413429585
IRIDIUM 151             
1 43074U 17083E   26066.78425014 -.00000066  00000+0 -30671-4 0  9992
2 43074  86.4019   4.4319 0002077  86.1174 274.0260 14.34217019429606
IRIDIUM 134             
1 43075U 17083F   26066.75253684 -.00000047  00000+0 -24023-4 0  9995
2 43075  86.4021   4.4517 0001937  85.6064 274.5353 14.34216860429562
IRIDIUM 137             
1 43076U 17083G   26066.76522318 -.00000046  00000+0 -23312-4 0  9999
2 43076  86.4020   4.5366 0002299  95.7544 264.3914 14.34217030429630
IRIDIUM 141             
1 43077U 17083H   26066.75888219  .00000340  00000+0  11443-3 0  9990
2 43077  86.4021   4.3761 0002221  82.5170 277.6278 14.34221322429632
IRIDIUM 153             
1 43078U 17083J   26066.78082701  .00000322  00000+0  10781-3 0  9990
2 43078  86.4018 332.8801 0002094  76.7248 283.4181 14.34217624430744
IRIDIUM 131             
1 43079U 17083K   26066.81596247  .00000424  00000+0  14440-3 0  9999
2 43079  86.4028   4.5314 0002327  85.2173 274.9289 14.34216595429578
IRIDIUM 144             
1 43249U 18030A   26066.99647473  .00000012  00000+0 -28075-5 0  9993
2 43249  86.4008 332.7222 0002021  90.1409 270.0018 14.34217571415631
IRIDIUM 149             
1 43250U 18030B   26066.79351182 -.00000001  00000+0 -74049-5 0  9993
2 43250  86.4008 332.7750 0002057  83.0906 277.0524 14.34217478415625
IRIDIUM 157             
1 43251U 18030C   26067.02184240  .00000157  00000+0  49019-4 0  9998
2 43251  86.4012 332.7306 0002156  84.3603 275.7839 14.34219165415636
IRIDIUM 140             
1 43252U 18030D   26066.76179846  .00000035  00000+0  52698-5 0  9998
2 43252  86.4012 332.8522 0001979  84.4443 275.6978 14.34217824415658
IRIDIUM 145             
1 43253U 18030E   26067.02817671  .00000396  00000+0  13435-3 0  9998
2 43253  86.4011 332.7134 0001937  95.0316 265.1100 14.34222381415629
IRIDIUM 146             
1 43254U 18030F   26066.79985389  .00000530  00000+0  18228-3 0  9999
2 43254  86.4011 332.8211 0002139  88.7260 271.4181 14.34217988415603
IRIDIUM 148             
1 43255U 18030G   26066.76814190 -.00000100  00000+0 -42760-4 0  9992
2 43255  86.4010 332.8759 0002081  86.3219 273.8215 14.34216930415637
IRIDIUM 142             
1 43256U 18030H   26066.80619688 -.00000024  00000+0 -15499-4 0  9997
2 43256  86.4007 332.7528 0001887  93.1874 266.9538 14.34217273415602
IRIDIUM 150             
1 43257U 18030J   26066.77448299  .00000140  00000+0  42902-4 0  9998
2 43257  86.4012 332.8791 0002041  85.5318 274.6110 14.34218203415621
IRIDIUM 143             
1 43258U 18030K   26066.75545615 -.00000052  00000+0 -25622-4 0  9991
2 43258  86.4012 332.9753 0001925  89.9386 270.2031 14.34217188415551
IRIDIUM 161             
1 43478U 18047C   26066.66863821  .00000436  00000+0  12374-3 0  9998
2 43478  86.4504 130.9273 0002442  88.3056 271.8425 14.43272744410497
IRIDIUM 152             
1 43479U 18047D   26066.72817453 -.00000012  00000+0 -11465-4 0  9999
2 43479  86.3980 130.7629 0002162  92.8302 267.3141 14.34217422407944
IRIDIUM 147             
1 43480U 18047E   26067.01358806  .00000107  00000+0  31172-4 0  9996
2 43480  86.3978 130.6476 0002192  99.3809 260.7634 14.34215431407985
IRIDIUM 110             
1 43481U 18047F   26066.67109184 -.00000014  00000+0 -12017-4 0  9997
2 43481  86.3986 130.8791 0002372  88.1206 272.0262 14.34217347407929
IRIDIUM 162             
1 43482U 18047G   26067.00899473  .00000427  00000+0  12101-3 0  9992
2 43482  86.4502 130.6780 0002076  95.7126 264.4312 14.43273842410531
IRIDIUM 160             
1 43569U 18061A   26067.03553738 -.00000030  00000+0 -17758-4 0  9994
2 43569  86.3919  99.1088 0002248  91.8569 268.2884 14.34217422398877
IRIDIUM 166             
1 43570U 18061B   26066.64229602  .00000017  00000+0 -88181-6 0  9996
2 43570  86.3916  99.2246 0002136  97.2847 262.8592 14.34217790398849
IRIDIUM 158             
1 43571U 18061C   26067.02919372  .00000007  00000+0 -44176-5 0  9994
2 43571  86.3918  99.0729 0002003  90.2514 269.8911 14.34217539398868
IRIDIUM 165             
1 43572U 18061D   26067.05456446  .00000310  00000+0  10376-3 0  9995
2 43572  86.3918  99.1071 0002173  95.1021 265.0423 14.34218140398893
IRIDIUM 155             
1 43573U 18061E   26067.01650934  .00000009  00000+0 -37621-5 0  9990
2 43573  86.3915  98.9965 0001971  94.0050 266.1371 14.34217624398851
IRIDIUM 154             
1 43574U 18061F   26066.99748508  .00000158  00000+0  49426-4 0  9991
2 43574  86.3917  99.1332 0002212  97.9785 262.1662 14.34219277398902
IRIDIUM 163             
1 43575U 18061G   26067.04822218  .00000268  00000+0  88662-4 0  9997
2 43575  86.3917  99.0308 0002165  90.9304 269.2140 14.34218042398887
IRIDIUM 156             
1 43576U 18061H   26067.02285124  .00000009  00000+0 -39515-5 0  9993
2 43576  86.3916  99.0483 0002039  94.5159 265.6270 14.34217882398873
IRIDIUM 164             
1 43577U 18061J   26067.00382472  .00000070  00000+0  17902-4 0  9998
2 43577  86.3916  99.0955 0002343  99.2293 260.9168 14.34217845398915
IRIDIUM 159             
1 43578U 18061K   26067.04188039  .00000010  00000+0 -35161-5 0  9999
2 43578  86.3917  99.0178 0002276  90.6843 269.4614 14.34217631398884
IRIDIUM 180             
1 43922U 19002A   26066.97160852  .00000288  00000+0  95877-4 0  9997
2 43922  86.3970  35.8830 0002298  85.2238 274.9220 14.34218257374480
IRIDIUM 176             
1 43923U 19002B   26066.41133515  .00001484  00000+0  23146-3 0  9991
2 43923  86.6092  36.0748 0002439  89.2871 270.8626 14.72254413384273
IRIDIUM 168             
1 43924U 19002C   26066.40711630  .00000072  00000+0  18526-4 0  9990
2 43924  86.3964  36.1930 0002219  87.3876 272.7573 14.34214238374385
IRIDIUM 173             
1 43925U 19002D   26066.88281087 -.00000021  00000+0 -14468-4 0  9998
2 43925  86.3970  35.8880 0002017  82.7602 277.3823 14.34216483374434
IRIDIUM 169             
1 43926U 19002E   26066.70081529  .00000217  00000+0  64266-4 0  9995
2 43926  86.4170  67.6192 0001458  79.8183 280.3180 14.38611632375638
IRIDIUM 172             
1 43927U 19002F   26066.87646549  .00000243  00000+0  79864-4 0  9992
2 43927  86.3969  35.8979 0002381  85.8879 274.2589 14.34219877374443
IRIDIUM 175             
1 43928U 19002G   26066.81454586  .00000813  00000+0  12502-3 0  9993
2 43928  86.1541 333.5497 0002532 106.4309 253.7186 14.72225956384327
IRIDIUM 171             
1 43929U 19002H   26066.85744176  .00000019  00000+0 -13918-6 0  9999
2 43929  86.3979  36.2008 0002110  92.0128 268.1310 14.34217441374439
IRIDIUM 170             
1 43930U 19002J   26066.41751127  .00001460  00000+0  22753-3 0  9991
2 43930  86.6090  36.0752 0002710  89.4254 270.7274 14.72255936384283
IRIDIUM 167             
1 43931U 19002K   26066.92086715 -.00000041  00000+0 -21609-4 0  9998
2 43931  86.3966  35.9011 0001784  92.2732 267.8667 14.34217082374440
IRIDIUM 181             
1 56726U 23068S   26067.02419127  .00000428  00000+0  12117-3 0  9990
2 56726  86.4452  99.0964 0002754  97.0374 263.1140 14.43309589147849
IRIDIUM 177             
1 56727U 23068T   26066.85252888  .00002136  00000+0  27784-3 0  9994
2 56727  86.2031  16.8932 0002267  80.4808 279.6669 14.80204774151372
IRIDIUM 174             
1 56728U 23068U   26066.40514866  .00001615  00000+0  25236-3 0  9994
2 56728  86.6121  36.2156 0002742  79.5539 280.5987 14.72238734151041
IRIDIUM 178             
1 56729U 23068V   26066.50365788  .00000789  00000+0  10036-3 0  9996
2 56729  86.6484  67.8526 0002412 100.7098 259.4395 14.80234945151324
IRIDIUM 179             
1 56730U 23068W   26066.97149802  .00000691  00000+0  87439-4 0  9990
2 56730  86.6719  76.3433 0002304  95.0401 265.1084 14.80236295151399
