EUTELSAT 139 WEST A     
1 28187U 04008A   26058.84906030 -.00000244  00000+0  00000+0 0  9998
2 28187   5.5513  73.3214 0000733  72.2751 271.1387  1.00834364 80257
EUTELSAT 174A           
1 28924U 05052A   26058.77128066 -.00000007  00000+0  00000+0 0  9991
2 28924   3.9410  77.8869 0006268 261.4604 269.8512  1.00272278 51237
EUTELSAT 33F            
1 29270U 06032A   26058.74219106  .00000139  00000+0  00000+0 0  9993
2 29270   1.3786  83.5333 0003581 255.0243 119.2626  1.00273229 46216
EUTELSAT HOTBIRD 13C    
1 33459U 08065A   26058.84906030 -.00000299  00000+0  00000+0 0  9993
2 33459   2.6691  80.5031 0003784 265.6126  66.9056  1.00270276 46240
EUTELSAT 36B            
1 36101U 09065A   26058.74565776  .00000097  00000+0  00000+0 0  9993
2 36101   0.2143  77.1810 0005927 260.1817 139.1191  1.00269297 59617
EUTELSAT KA-SAT 9A      
1 37258U 10069A   26058.00461314  .00000048  00000+0  00000+0 0  9991
2 37258   0.0557 354.8960 0002473 142.5687  30.0245  1.00271284 42902
EUTELSAT 7 WEST A       
1 37816U 11051A   26058.79697689 -.00000077  00000+0  00000+0 0  9998
2 37816   0.0664 357.1686 0001792 249.8631 190.1680  1.00271018 52788
EUTELSAT 16A            
1 37836U 11057A   26058.79072406  .00000087  00000+0  00000+0 0  9990
2 37836   0.0588 338.4677 0005458   1.2336 118.5631  1.00269756  6248
EUTELSAT 21B            
1 38992U 12062B   26058.79072406  .00000114  00000+0  00000+0 0  9992
2 38992   0.0677 347.2026 0002847 346.6377 130.0209  1.00269567 48737
EUTELSAT 70B            
1 39020U 12069A   26058.83085582 -.00000059  00000+0  00000+0 0  9995
2 39020   0.0650 358.7974 0002182 318.4821 209.9573  1.00272109 48414
EUTELSAT 117 WEST A     
1 39122U 13012A   26058.69489268 -.00000029  00000+0  00000+0 0  9997
2 39122   0.0627 285.7487 0003063  55.1821 309.9257  1.00271899 47338
EUTELSAT 7B             
1 39163U 13022A   26058.73699104  .00000031  00000+0  00000+0 0  9992
2 39163   0.0692 340.8380 0006256   7.0849  81.9239  1.00270456 46843
EXPRESS-AT1             
1 39612U 14010A   26058.86227602  .00000063  00000+0  00000+0 0  9998
2 39612   0.0298 286.8097 0000606 333.4850 263.7761  1.00271049 43722
EXPRESS-AT2             
1 39613U 14010B   26058.89863852  .00000000  00000+0  00000+0 0  9996
2 39613   0.0287 127.4697 0001584 146.1031 347.5145  1.00268153 43407
EUTELSAT 3B             
1 39773U 14030A   26058.73621104  .00000004  00000+0  00000+0 0  9994
2 39773   0.0655 356.5038 0001546 274.0749 155.0838  1.00271839 42968
EUTELSAT 115 WEST B     
1 40425U 15010B   26058.69489268 -.00000041  00000+0  00000+0 0  9999
2 40425   0.0092 262.3778 0000418 183.3208 207.0775  1.00272971 40293
EUTELSAT 8 WEST B       
1 40875U 15039B   26058.59125348 -.00000081  00000+0  00000+0 0  9998
2 40875   0.0673 345.9679 0003832 353.4783  22.8121  1.00272058 38556
EUTELSAT 9B             
1 41310U 16005A   26058.73742439  .00000045  00000+0  00000+0 0  9998
2 41310   0.0362  69.4600 0004658 246.5546 115.9797  1.00271971 37010
EUTELSAT 65 WEST A      
1 41382U 16014A   26058.58007343 -.00000292  00000+0  00000+0 0  9993
2 41382   0.0622  33.3369 0002343 292.6617 335.0059  1.00273584 36433
EUTELSAT 117 WEST B     
1 41589U 16038B   26058.70030868 -.00000028  00000+0  00000+0 0  9997
2 41589   0.0093 265.0974 0000358 171.8387 215.7008  1.00272794 35569
EUTELSAT 172B           
1 42741U 17029B   26058.84098378 -.00000023  00000+0  00000+0 0  9999
2 42741   0.0172 151.3634 0000216 103.8762  17.1422  1.00269732 32641
EUTELSAT 7C             
1 44334U 19034B   26058.73699104  .00000032  00000+0  00000+0 0  9998
2 44334   0.0733 179.3999 0003457 143.2753 107.1730  1.00269745  5732
EUTELSAT 5 WEST B       
1 44624U 19067A   26058.73465104 -.00000059  00000+0  00000+0 0  9997
2 44624   0.1039 304.8453 0003185  37.6184  74.5175  1.00271587 23339
EUTELSAT KONNECT        
1 45027U 20005B   26058.82683751  .00000033  00000+0  00000+0 0  9990
2 45027   0.0660  97.5874 0001003 213.6014 151.2982  1.00270829 23241
EUTELSAT QUANTUM        
1 49056U 21069B   26058.74505109  .00000000  00000+0  00000+0 0  9992
2 49056   0.0141 125.1792 0002957 209.3309 138.9882  1.00270303 16831
EUTELSAT KONNECT VHTS   
1 53765U 22110A   26058.82683751  .00000000  00000+0  00000+0 0  9991
2 53765   0.0571 102.5094 0003464 213.0884 142.3724  1.00271773  5742
EUTELSAT HOTBIRD 13F    
1 54048U 22134A   26058.73820439  .00000071  00000+0  00000+0 0  9996
2 54048   0.0600 295.9809 0002140  59.0228  81.2877  1.00270873 12277
EUTELSAT HOTBIRD 13G    
1 54225U 22146A   26058.73820439  .00000071  00000+0  00000+0 0  9996
2 54225   0.0502 237.7456 0001868 309.1202 249.4310  1.00271475  6366
EUTELSAT 10B            
1 54259U 22157A   26058.82683751  .00000052  00000+0  00000+0 0  9998
2 54259   0.0567 102.1284 0000479 347.2683  15.8774  1.00269931 11933
EUTELSAT 36D            
1 59346U 24059A   26058.74271106  .00000140  00000+0  00000+0 0  9999
2 59346   0.0066 110.5590 0000692 203.9901 146.2455  1.00271723  7055
