QIANFAN-1               
1 60379U 24140A   26238.32099489  .00000067  00000+0  84254-4 0  9990
2 60379  88.9684 272.6510 0017300 186.7199 173.3723 13.51024913101990
QIANFAN-2               
1 60380U 24140B   26238.27585056  .00000071  00000+0  91504-4 0  9997
2 60380  88.9671 272.4603 0013588 157.7509 202.4234 13.51033683102048
QIANFAN-3               
1 60381U 24140C   26238.28411096  .00000082  00000+0  10799-3 0  9999
2 60381  88.9664 272.5726 0014302 170.2130 189.9302 13.51022039101950
QIANFAN-4               
1 60382U 24140D   26238.33333166  .00000020  00000+0  12447-4 0  9992
2 60382  88.9688 272.5297 0013764 160.0532 200.1160 13.51020497102083
QIANFAN-5               
1 60383U 24140E   26238.30871098  .00000078  00000+0  10213-3 0  9992
2 60383  88.9663 272.5945 0015127 181.9013 178.2083 13.51030147101944
QIANFAN-6               
1 60384U 24140F   26238.25519513  .00000043  00000+0  48015-4 0  9992
2 60384  88.9690 272.4159 0013658 165.9215 194.2319 13.51023343102136
QIANFAN-7               
1 60385U 24140G   26238.24862950  .00000212  00000+0  79670-4 0  9997
2 60385  88.9727 263.5336 0012449 277.3685  82.6095 14.27887498106994
QIANFAN-8               
1 60386U 24140H   26238.26358055  .00000048  00000+0  55850-4 0  9997
2 60386  88.9691 272.6557 0017012 169.7930 190.3570 13.51025293101981
QIANFAN-9               
1 60387U 24140J   26238.31279468  .00000073  00000+0  94718-4 0  9998
2 60387  88.9689 272.7207 0016725 169.3009 190.8502 13.51020625101978
QIANFAN-10              
1 60388U 24140K   26238.31691651  .00000069  00000+0  88492-4 0  9998
2 60388  88.9700 272.0945 0015926 147.2877 212.9264 13.51020851102103
QIANFAN-11              
1 60389U 24140L   26238.27998989  .00000068  00000+0  86138-4 0  9992
2 60389  88.9625 272.4923 0014766 168.1834 191.9666 13.51020395101751
QIANFAN-12              
1 60390U 24140M   26238.30054951  .00000063  00000+0  78529-4 0  9990
2 60390  88.9668 272.6453 0013333 175.3593 184.7684 13.51022750101882
QIANFAN-13              
1 60391U 24140N   26238.27170526  .00000068  00000+0  86805-4 0  9995
2 60391  88.9928 272.8264 0013064 177.5477 182.5741 13.51022645101906
QIANFAN-14              
1 60392U 24140P   26238.29642267  .00000056  00000+0  68105-4 0  9994
2 60392  88.9659 272.6199 0016699 179.7474 180.3689 13.51025682101913
QIANFAN-15              
1 60393U 24140Q   26238.23062027  .00000079  00000+0  10312-3 0  9990
2 60393  88.9683 272.6444 0013009 164.3656 195.7899 13.51026510101899
QIANFAN-16              
1 60394U 24140R   26238.29225639  .00000058  00000+0  71183-4 0  9998
2 60394  88.9685 272.7652 0014503 182.6551 177.4526 13.51024616101812
QIANFAN-17              
1 60395U 24140S   26238.28821509  .00000066  00000+0  83314-4 0  9994
2 60395  88.9696 272.8397 0015124 176.6209 183.5047 13.51020756102778
QIANFAN-18              
1 60396U 24140T   26238.26764656  .00000066  00000+0  83110-4 0  9996
2 60396  88.9690 272.3586 0015071 159.7150 200.4603 13.51020227102169
QIANFAN-19              
1 61552U 24185A   26238.24747299  .00000377  00000+0  18903-3 0  9994
2 61552  88.9816  48.5474 0006410 181.3108 178.8064 14.14517672105925
QIANFAN-20              
1 61553U 24185B   26238.27798968  .00000350  00000+0  19417-3 0  9999
2 61553  88.9810  49.1214 0003677 231.4187 128.6668 14.09058123105619
QIANFAN-21              
1 61554U 24185C   26238.24313822  .00000479  00000+0  20679-3 0  9993
2 61554  88.9736  46.9367 0008498 241.7406 118.2928 14.22913397106449
QIANFAN-22              
1 61555U 24185D   26238.30164832  .00000216  00000+0  17532-3 0  9999
2 61555  88.9792  51.1354 0004457 300.7282  59.3449 13.86422004104489
QIANFAN-23              
1 61556U 24185E   26238.28245187  .00000323  00000+0  15498-3 0  9998
2 61556  88.9810  48.2333 0006661 191.5177 168.5860 14.16539960106063
QIANFAN-24              
1 61557U 24185F   26238.30914836  .00000552  00000+0  23378-3 0  9996
2 61557  88.9794  47.2173 0009695 167.8139 192.3290 14.24137222106538
QIANFAN-25              
1 61558U 24185G   26238.28000351  .00000356  00000+0  20839-3 0  9993
2 61558  88.9797  49.1563 0009655 250.9251 109.0886 14.06114617105551
QIANFAN-26              
1 61559U 24185H   26238.31305559  .00000200  00000+0  18639-3 0  9999
2 61559  88.9797  52.0552 0004507 335.6497  24.4455 13.77937101104006
QIANFAN-27              
1 61560U 24185J   26238.23862850  .00000504  00000+0  19895-3 0  9996
2 61560  88.9806  46.8760 0008179 151.1767 208.9881 14.27585043106757
QIANFAN-28              
1 61561U 24185K   26238.28707449  .00000633  00000+0  24704-3 0  9992
2 61561  88.9823  46.8845 0008116 149.1390 211.0283 14.28461756106791
QIANFAN-29              
1 61562U 24185L   26238.28360969  .00000140  00000+0  19712-3 0  9991
2 61562  88.9765  54.7904 0010916  38.0870 322.1050 13.51088326102437
QIANFAN-30              
1 61563U 24185M   26238.30446481  .00000146  00000+0  21080-3 0  9996
2 61563  88.9786  54.4119 0008336  27.9877 332.1721 13.50070276102680
QIANFAN-31              
1 61564U 24185N   26238.23917455  .00000138  00000+0  17454-3 0  9994
2 61564  88.9770  53.8133 0007380  16.7160 343.4237 13.58057575102976
QIANFAN-32              
1 61565U 24185P   26238.28057105  .00000115  00000+0  15965-3 0  9997
2 61565  88.9826  54.6239 0011235  53.3472 306.8710 13.50801732102672
QIANFAN-33              
1 61566U 24185Q   26238.24689858  .00000295  00000+0  20299-3 0  9995
2 61566  88.9793  50.2090 0005766 236.3758 123.6869 13.96740657104967
QIANFAN-34              
1 61567U 24185R   26238.30098073  .00000294  00000+0  18243-3 0  9991
2 61567  88.9771  49.4274 0004498 230.3667 129.7117 14.02504977105316
QIANFAN-35              
1 61568U 24185S   26238.27207367  .00000587  00000+0  22939-3 0  9998
2 61568  88.9805  46.7683 0007414 145.0032 215.1651 14.28336395106799
QIANFAN-36              
1 61569U 24185T   26238.30858945  .00000074  00000+0  89439-4 0  9997
2 61569  88.9762  54.3052 0007218  33.6182 326.5428 13.55644504102683
QIANFAN-37              
1 62238U 24232B   26238.25061598  .00000066  00000+0  83151-4 0  9994
2 62238  89.0122  15.5558 0002522  93.8257 266.3183 13.51026870133806
QIANFAN-38              
1 62239U 24232C   26238.27532733  .00000069  00000+0  87891-4 0  9999
2 62239  89.0129  15.4865 0015173 167.1592 192.9949 13.51025328133864
QIANFAN-39              
1 62240U 24232D   26238.27363953  .00000302  00000+0  12164-3 0  9997
2 62240  89.0116   8.0958 0014418 324.5103  35.5129 14.25547236137934
QIANFAN-40              
1 62241U 24232E   26238.23418812  .00000056  00000+0  68403-4 0  9993
2 62241  89.0156  15.1467 0013976 174.2854 185.8459 13.51025410134221
QIANFAN-41              
1 62242U 24232F   26238.24241589  .00000064  00000+0  79656-4 0  9991
2 62242  89.0127  15.4365 0014699 163.2353 196.9287 13.51026593133881
QIANFAN-42              
1 62243U 24232G   26238.29474285  .00000288  00000+0  11789-3 0  9998
2 62243  89.0114   8.1785 0013504 332.7847  27.2636 14.24635023137892
QIANFAN-43              
1 62244U 24232H   26238.31235525  .00000055  00000+0  66204-4 0  9999
2 62244  89.0131  15.5062 0016076 168.6914 191.4602 13.51026186102500
QIANFAN-44              
1 62245U 24232J   26238.30004618  .00000065  00000+0  82000-4 0  9999
2 62245  89.0130  15.3139 0014397 165.0985 195.0593 13.51026491133979
QIANFAN-45              
1 62246U 24232K   26238.26712371  .00000063  00000+0  78229-4 0  9993
2 62246  89.0133  15.4729 0015061 165.1600 194.9997 13.51025315133894
QIANFAN-46              
1 62247U 24232L   26238.29176341  .00000059  00000+0  72782-4 0  9991
2 62247  89.0129  15.5289 0014943 170.4084 189.7356 13.51026415133854
QIANFAN-47              
1 62248U 24232M   26238.29590682  .00000069  00000+0  88354-4 0  9993
2 62248  89.0125  15.4512 0015384 169.7596 190.3872 13.51025445133884
QIANFAN-48              
1 62249U 24232N   26238.25885992  .00000071  00000+0  90517-4 0  9998
2 62249  89.0129  15.4667 0017556 173.2772 186.8618 13.51019683133884
QIANFAN-49              
1 62250U 24232P   26238.24656216  .00000061  00000+0  75558-4 0  9991
2 62250  89.0128  15.4784 0014817 166.9194 193.2345 13.51026983102470
QIANFAN-50              
1 62251U 24232Q   26238.27119864  .00000071  00000+0  91436-4 0  9992
2 62251  89.0133  15.4981 0016430 168.8436 191.3083 13.51026403102508
QIANFAN-51              
1 62252U 24232R   26238.25476517  .00000065  00000+0  81776-4 0  9991
2 62252  89.0127  15.4778 0013784 171.3911 188.7479 13.51025496102490
QIANFAN-52              
1 62253U 24232S   26238.28357790  .00000058  00000+0  71318-4 0  9999
2 62253  89.0124  15.3385 0016048 164.7089 195.4551 13.51027322102585
QIANFAN-53              
1 62254U 24232T   26238.26302272  .00000073  00000+0  94784-4 0  9992
2 62254  89.0131  15.4645 0014896 165.3264 194.8323 13.51024375102546
QIANFAN-54              
1 62255U 24232U   26238.30415823  .00000064  00000+0  80737-4 0  9998
2 62255  89.0122  15.1162 0002173 161.7998 198.3231 13.51026067134055
QIANFAN-55              
1 62785U 25016A   26238.25616021  .00000048  00000+0  56226-4 0  9992
2 62785  88.9667  76.5919 0016505 333.2516  26.7782 13.51015405 81827
QIANFAN-56              
1 62786U 25016B   26238.27250744  .00000058  00000+0  70500-4 0  9993
2 62786  88.9641  76.3580 0015219 336.4553  23.5900 13.51026438 81879
QIANFAN-57              
1 62787U 25016C   26238.30556756  .00000038  00000+0  39745-4 0  9994
2 62787  88.9672  76.5881 0002476  95.7473 264.3960 13.51026161 81848
QIANFAN-58              
1 62788U 25016D   26238.27666047  .00000056  00000+0  68305-4 0  9990
2 62788  88.9642  76.3445 0012889 329.5007  30.5393 13.51018562 81883
QIANFAN-59              
1 62789U 25016E   26238.30124887  .00000048  00000+0  55615-4 0  9997
2 62789  88.9665  76.4761 0013378 333.2351  26.8108 13.51022875 81883
QIANFAN-60              
1 62790U 25016F   26238.26016687  .00000058  00000+0  71212-4 0  9994
2 62790  88.9646  76.4030 0014803 328.8430  31.1843 13.51026104 81867
QIANFAN-61              
1 62791U 25016G   26238.29311996  .00000062  00000+0  77138-4 0  9997
2 62791  88.9713  76.7362 0013762 328.7290  31.3041 13.51025872 81885
QIANFAN-62              
1 62792U 25016H   26238.29721762  .00000060  00000+0  74730-4 0  9997
2 62792  88.9660  76.4663 0015103 328.3310  31.6931 13.51018367 81879
QIANFAN-63              
1 62793U 25016J   26238.24783314  .00000060  00000+0  74316-4 0  9994
2 62793  88.9667  76.4403 0015331 334.0991  25.9391 13.51021461 81900
QIANFAN-64              
1 62794U 25016K   26238.21496765  .00000068  00000+0  86391-4 0  9997
2 62794  88.9654  76.3835 0013058 327.7333  32.3018 13.51025857 81897
QIANFAN-65              
1 62795U 25016L   26238.28474421  .00000060  00000+0  73822-4 0  9997
2 62795  88.9650  76.3930 0012963 329.4130  30.6264 13.51022008 81886
QIANFAN-66              
1 62796U 25016M   26238.23953024  .00000053  00000+0  62962-4 0  9999
2 62796  88.9669  76.4183 0013917 324.3119  35.7101 13.51027739 81926
QIANFAN-67              
1 62797U 25016N   26238.24368874  .00000064  00000+0  80549-4 0  9997
2 62797  88.9660  76.4183 0014102 331.6605  28.3778 13.51027523 81891
QIANFAN-68              
1 62798U 25016P   26238.23543077  .00000060  00000+0  73702-4 0  9996
2 62798  88.9663  76.4734 0014113 329.3999  30.6328 13.51020310 81871
QIANFAN-69              
1 62799U 25016Q   26238.25183212  .00000069  00000+0  87891-4 0  9993
2 62799  88.9642  76.2865 0014882 330.4827  29.5483 13.51022852 81915
QIANFAN-70              
1 62800U 25016R   26238.26840531  .00000065  00000+0  82490-4 0  9997
2 62800  88.9662  76.4768 0014195 320.3423  39.6689 13.51021823 81873
QIANFAN-71              
1 62801U 25016S   26238.26430775  .00000054  00000+0  65156-4 0  9991
2 62801  88.9657  76.4412 0014914 334.2477  25.7930 13.51025285 81877
QIANFAN-72              
1 62802U 25016T   26238.28077937  .00000068  00000+0  87329-4 0  9992
2 62802  88.9647  76.4278 0018400 340.4141  19.6301 13.51019053 81867
QIANFAN-73              
1 63159U 25046A   26238.30780212  .00000098  00000+0  13314-3 0  9996
2 63159  88.9684 293.3961 0017248 101.6750 258.6338 13.51023573 82054
QIANFAN-74              
1 63160U 25046B   26238.21719366  .00000135  00000+0  18973-3 0  9998
2 63160  88.9684 293.2953 0002145  93.3564 266.7833 13.51017919 82109
QIANFAN-75              
1 63161U 25046C   26238.27914868  .00000127  00000+0  17694-3 0  9999
2 63161  88.9686 293.5260 0018398 104.9874 255.3316 13.51027240 81989
QIANFAN-76              
1 63162U 25046D   26238.27497122  .00000079  00000+0  10370-3 0  9999
2 63162  88.9686 293.5063 0015878 105.2515 255.0393 13.51022369 81997
QIANFAN-77              
1 63163U 25046E   26238.25885615  .00000224  00000+0  15266-3 0  9997
2 63163  88.9686 289.4009 0014739   9.5150 350.6303 13.96242106 84244
QIANFAN-78              
1 63164U 25046F   26238.24233279  .00000013  00000+0  61347-6 0  9990
2 63164  88.9685 293.3715 0017316 107.1249 253.1800 13.51011298 82064
QIANFAN-79              
1 63165U 25046G   26238.27070665  .00000119  00000+0  16540-3 0  9991
2 63165  88.9688 293.4849 0016996 105.7442 254.5585 13.51019585 82016
QIANFAN-80              
1 63166U 25046H   26238.28730875  .00000132  00000+0  18480-3 0  9999
2 63166  88.9685 293.1831 0015864 109.5193 250.7673 13.51026836 82170
QIANFAN-81              
1 63167U 25046J   26238.26658360  .00000138  00000+0  19441-3 0  9990
2 63167  88.9685 293.2526 0017146 100.5885 259.7198 13.51022656 82129
QIANFAN-82              
1 63168U 25046K   26238.22547026  .00000119  00000+0  16541-3 0  9990
2 63168  88.9685 293.3012 0014967 106.3174 253.9624 13.51017815 82103
QIANFAN-83              
1 63169U 25046L   26238.30914822  .00000136  00000+0  16031-3 0  9995
2 63169  88.9686 292.5632 0016282  81.0822 279.2178 13.62061907 82529
QIANFAN-84              
1 63170U 25046M   26238.25425597  .00000101  00000+0  13784-3 0  9991
2 63170  88.9685 293.4309 0017975 103.5152 256.8003 13.51022653 82034
QIANFAN-85              
1 63171U 25046N   26238.32420102  .00000128  00000+0  17889-3 0  9996
2 63171  88.9684 293.2934 0015523 105.0995 255.1874 13.51026531 82111
QIANFAN-86              
1 63172U 25046P   26238.25839595  .00000133  00000+0  18770-3 0  9995
2 63172  88.9686 293.1684 0013384 108.5428 251.7178 13.51022407 82181
QIANFAN-87              
1 63173U 25046Q   26238.30377875  .00000111  00000+0  15338-3 0  9993
2 63173  88.9683 293.2657 0013915 104.2626 256.0072 13.51030531 82125
QIANFAN-88              
1 63174U 25046R   26238.32016144  .00000124  00000+0  17222-3 0  9993
2 63174  88.9685 293.2249 0014298 111.5865 248.6812 13.51026789 82158
QIANFAN-89              
1 63175U 25046S   26238.28306500  .00000122  00000+0  17012-3 0  9992
2 63175  88.9685 293.4176 0018894 103.8094 256.5161 13.51022065 82040
QIANFAN-90              
1 63176U 25046T   26238.23780042  .00000110  00000+0  15201-3 0  9990
2 63176  88.9686 293.3955 0015817 102.4250 257.8672 13.51018265 82056
QIANFAN-91              
1 66033U 25233A   26237.90003580  .00000080  00000+0  10523-3 0  9999
2 66033  89.0008  36.1334 0002165  90.2532 269.8867 13.51026853 42590
QIANFAN-92              
1 66034U 25233B   26237.90826625  .00000051  00000+0  61133-4 0  9995
2 66034  88.9994  36.0929 0002049  95.5035 264.6350 13.51026957 42594
QIANFAN-93              
1 66035U 25233C   26237.84235846  .00000049  00000+0  57115-4 0  9990
2 66035  89.0021  36.1704 0002155  92.2341 267.9057 13.51019046 42582
QIANFAN-94              
1 66036U 25233D   26237.90412689  .00000049  00000+0  57107-4 0  9991
2 66036  89.0017  36.0649 0001987  92.1027 268.0352 13.51018729 42641
QIANFAN-95              
1 66037U 25233E   26237.91234202  .00000058  00000+0  71674-4 0  9991
2 66037  89.0015  35.6060 0002111  87.6812 272.4581 13.51019535 42899
QIANFAN-96              
1 66038U 25233F   26237.86179436 -.01923458  00000+0 -33791+1 0  9998
2 66038  89.0032  36.1532 0002018  85.9933 274.1447 13.47544526 42584
QIANFAN-97              
1 66039U 25233G   26237.84652693  .00000053  00000+0  64250-4 0  9990
2 66039  89.0015  36.1408 0002159  90.8967 269.2431 13.51018446 42597
QIANFAN-98              
1 66040U 25233H   26238.00286833  .00000040  00000+0  42872-4 0  9992
2 66040  89.0003  35.8482 0001595  86.9463 273.1871 13.51017862 42755
QIANFAN-99              
1 66041U 25233J   26238.00696542  .00000035  00000+0  36263-4 0  9996
2 66041  89.0015  36.1289 0001791  85.7653 274.3703 13.51018055 42611
QIANFAN-100             
1 66042U 25233K   26237.99869471  .00000039  00000+0  41346-4 0  9999
2 66042  89.0027  36.0647 0002155  91.8263 268.3135 13.51017721 42668
QIANFAN-101             
1 66043U 25233L   26238.00378170  .00000415  00000+0  16520-3 0  9997
2 66043  89.0016  32.5474 0012826 276.2220  83.7512 14.26846202 44582
QIANFAN-102             
1 66044U 25233M   26237.87121629  .00000046  00000+0  52257-4 0  9995
2 66044  89.0013  36.0506 0001980  90.7748 269.3630 13.51017907 42645
QIANFAN-103             
1 66045U 25233N   26238.02342268  .00000048  00000+0  55862-4 0  9995
2 66045  89.0015  36.1323 0002184  91.8787 268.2614 13.51018788 42613
QIANFAN-104             
1 66046U 25233P   26237.87939228  .00000045  00000+0  50748-4 0  9991
2 66046  89.0021  36.0523 0001939  93.4372 266.7001 13.51023972 42644
QIANFAN-105             
1 66047U 25233Q   26237.88766012  .00000048  00000+0  55106-4 0  9998
2 66047  89.0034  35.9036 0002081  88.2869 271.8520 13.51023760 42758
QIANFAN-106             
1 66048U 25233R   26237.73545842  .00000047  00000+0  54580-4 0  9993
2 66048  89.0021  36.1118 0001271  93.7234 266.4063 13.51026019 42578
QIANFAN-107             
1 66049U 25233S   26238.26212158  .00000041  00000+0  44223-4 0  9991
2 66049  89.0018  36.1005 0002140  91.9098 268.2298 13.51026760 42656
QIANFAN-108             
1 66050U 25233T   26237.89588050  .00000041  00000+0  45106-4 0  9999
2 66050  89.0011  36.1202 0001701  89.4740 270.6606 13.51018929 42601
QIANFAN-109             
1 68636U 26075A   26238.28001056  .00000034  00000+0  34269-4 0  9996
2 68636  88.9903 313.8639 0002676  94.5603 265.5854 13.51027044 19258
QIANFAN-110             
1 68637U 26075B   26238.28836589  .00000107  00000+0  14637-3 0  9991
2 68637  88.9906 313.8847 0002303 103.5376 256.6032 13.51029212 19256
QIANFAN-111             
1 68638U 26075C   26238.27610666  .00000111  00000+0  15382-3 0  9990
2 68638  88.9905 313.8450 0002312 103.0026 257.1384 13.51018522 19273
QIANFAN-112             
1 68639U 26075D   26238.23902319  .00000117  00000+0  16182-3 0  9991
2 68639  88.9904 313.8569 0002770  98.9708 261.1756 13.51021028 19263
QIANFAN-113             
1 68640U 26075E   26238.28419848  .00000117  00000+0  16264-3 0  9999
2 68640  88.9910 313.8499 0002430 103.3028 256.8395 13.51027011 19272
QIANFAN-114             
1 68641U 26075F   26238.29243807  .00000101  00000+0  13719-3 0  9996
2 68641  88.9905 313.8649 0002309 102.5831 257.5578 13.51025271 19268
QIANFAN-115             
1 68642U 26075G   26238.24719996  .00000118  00000+0  16473-3 0  9997
2 68642  88.9905 313.8768 0002351  98.7921 261.3496 13.51021866 19251
QIANFAN-116             
1 68643U 26075H   26238.23484165  .00000108  00000+0  14794-3 0  9997
2 68643  88.9898 313.8332 0002664 101.2348 258.9103 13.51022559 19268
QIANFAN-117             
1 68644U 26075J   26238.29661409  .00000091  00000+0  12252-3 0  9990
2 68644  88.9902 313.8458 0002502  98.4606 261.6829 13.51020359 19272
QIANFAN-118             
1 68645U 26075K   26238.25542193  .00000101  00000+0  13808-3 0  9995
2 68645  88.9907 313.8614 0002280 105.8071 254.3332 13.51022224 19264
QIANFAN-119             
1 68646U 26075L   26238.23067535  .00000097  00000+0  13192-3 0  9996
2 68646  88.9907 313.8595 0002537  95.7288 264.4153 13.51020169 19264
QIANFAN-120             
1 68647U 26075M   26238.24302317  .00000112  00000+0  15433-3 0  9996
2 68647  88.9909 313.8444 0002514  92.6027 267.5412 13.51029345 19270
QIANFAN-121             
1 68648U 26075N   26238.26783241  .00000119  00000+0  16614-3 0  9997
2 68648  88.9907 313.8453 0002249 103.5583 256.5819 13.51021281 19273
QIANFAN-122             
1 68649U 26075P   26238.25961400  .00000107  00000+0  14700-3 0  9993
2 68649  88.9905 313.8435 0002566  97.2251 262.9192 13.51024703 19261
QIANFAN-123             
1 68650U 26075Q   26238.22662910  .00000100  00000+0  13611-3 0  9999
2 68650  88.9902 313.8346 0002738  94.2298 265.9166 13.51029941 19241
QIANFAN-124             
1 68651U 26075R   26238.25140222  .00000113  00000+0  15587-3 0  9998
2 68651  88.9905 313.8429 0002636  97.1477 262.9974 13.51024341 19271
QIANFAN-125             
1 68652U 26075S   26238.26371999  .00000105  00000+0  14321-3 0  9993
2 68652  88.9905 313.8436 0002280 103.9213 256.2192 13.51021324 19275
QIANFAN-126             
1 68653U 26075T   26238.27186609  .00000103  00000+0  14040-3 0  9993
2 68653  88.9909 313.8113 0002715  94.0000 266.1462 13.51026506 19298
QIANFAN-127             
1 69073U 26104A   26238.27713527  .00000098  00000+0  13342-3 0  9995
2 69073  88.9944 334.3199 0002241 109.4592 250.6801 13.51023216 14629
QIANFAN-128             
1 69074U 26104B   26238.28537751  .00000109  00000+0  15001-3 0  9997
2 69074  88.9922 334.3484 0001844 111.2706 248.8642 13.51030345 14600
QIANFAN-129             
1 69075U 26104C   26238.30992920  .00000111  00000+0  15260-3 0  9994
2 69075  88.9925 334.2797 0001979 110.5100 249.6264 13.51019023 14642
QIANFAN-130             
1 69076U 26104D   26238.27302915  .00000105  00000+0  14452-3 0  9995
2 69076  88.9927 334.3486 0002478 109.7947 250.3472 13.51029808 14603
QIANFAN-131             
1 69077U 26104E   26238.29367420  .00000103  00000+0  14048-3 0  9999
2 69077  88.9921 334.3087 0001928 103.3171 256.8196 13.51021548 14622
QIANFAN-132             
1 69078U 26104F   26238.28117094  .00000106  00000+0  14486-3 0  9998
2 69078  88.9923 334.3660 0002316 108.6328 251.5075 13.51028378 14598
QIANFAN-133             
1 69079U 26104G   26238.28957705  .00000105  00000+0  14471-3 0  9993
2 69079  88.9926 334.3145 0001709 102.9789 257.1553 13.51021423 14613
QIANFAN-134             
1 69080U 26104H   26238.24428348  .00000123  00000+0  17202-3 0  9992
2 69080  88.9930 334.3444 0001798 109.0677 251.0669 13.51024827 14605
QIANFAN-135             
1 69081U 26104J   26238.29764124  .00000112  00000+0  15512-3 0  9993
2 69081  88.9924 334.3313 0001862 116.2100 243.9243 13.51028119 14614
QIANFAN-136             
1 69082U 26104K   26238.30600862  .00000118  00000+0  16445-3 0  9996
2 69082  88.9926 334.3330 0001715 104.5972 255.5369 13.51027851 14610
QIANFAN-137             
1 69083U 26104L   26238.30188345  .00000116  00000+0  16089-3 0  9996
2 69083  88.9935 334.2078 0002269 106.7463 253.3937 13.51027733 14686
QIANFAN-138             
1 69084U 26104M   26238.25245197  .00000113  00000+0  15687-3 0  9990
2 69084  88.9920 334.3399 0002137 115.1856 244.9517 13.51035330 14606
QIANFAN-139             
1 69085U 26104N   26238.31434523  .00000048  00000+0  56434-4 0  9994
2 69085  88.9923 334.3152 0002304 110.6473 249.4926 13.51025930 14629
QIANFAN-140             
1 69086U 26104P   26238.24821822  .00000114  00000+0  15782-3 0  9993
2 69086  88.9923 334.3249 0001958 117.7061 242.4289 13.51031079 14617
QIANFAN-141             
1 69087U 26104Q   26238.25657554  .00000111  00000+0  15354-3 0  9996
2 69087  88.9920 334.2891 0001856 112.6058 247.5289 13.51024484 14634
QIANFAN-142             
1 69088U 26104R   26238.26477150  .00000119  00000+0  16623-3 0  9998
2 69088  88.9918 334.2880 0002075 114.4004 245.7364 13.51026916 14631
QIANFAN-143             
1 69089U 26104S   26238.26072758  .00000120  00000+0  16778-3 0  9997
2 69089  88.9929 334.2923 0001936 101.4028 258.7340 13.51023247 14631
QIANFAN-144             
1 69090U 26104T   26238.26888065  .00000112  00000+0  15432-3 0  9992
2 69090  88.9927 334.3101 0002238 113.6662 246.4725 13.51027395 14623
QIANFAN-145             
1 69104U 26108A   26238.27329449  .00000070  00000+0  89334-4 0  9995
2 69104  89.0159  15.0388 0001921 100.9642 259.1726 13.51086462 13905
QIANFAN-146             
1 69105U 26108B   26238.30610605  .00000027  00000+0  24106-4 0  9995
2 69105  89.0162  14.8716 0018961 268.9564  90.9414 13.51019380 14004
QIANFAN-147             
1 69106U 26108C   26238.28151614  .00000057  00000+0  70368-4 0  9997
2 69106  89.0161  15.0419 0002049 102.3176 257.8205 13.51021366 13892
QIANFAN-148             
1 69107U 26108D   26238.26909672  .00000077  00000+0  10050-3 0  9994
2 69107  89.0155  15.0348 0001803 101.9551 258.1803 13.51020792 13896
QIANFAN-149             
1 69108U 26108E   26238.27725028  .00000068  00000+0  87455-4 0  9991
2 69108  89.0154  15.0552 0001934 110.1330 250.0029 13.51020289 13897
QIANFAN-150             
1 69109U 26108F   26238.28545914  .00000055  00000+0  66106-4 0  9993
2 69109  89.0159  15.0064 0001971 110.0766 250.0598 13.51020946 13918
QIANFAN-151             
1 69110U 26108G   26238.31443233  .00000059  00000+0  73483-4 0  9990
2 69110  89.0159  15.0273 0001966  95.0466 265.0909 13.51016061 13909
QIANFAN-152             
1 69111U 26108H   26238.21968199  .00000060  00000+0  74580-4 0  9994
2 69111  89.0155  15.0295 0002299 103.7881 256.3526 13.51025182 13900
QIANFAN-153             
1 69112U 26108J   26238.21550671  .00000062  00000+0  76742-4 0  9991
2 69112  89.0151  15.0072 0002076 106.3718 253.7662 13.51021206 13906
QIANFAN-154             
1 69113U 26108K   26238.29796930  .00000061  00000+0  75555-4 0  9990
2 69113  89.0162  15.0452 0001967 104.9211 255.2158 13.51023238 13905
QIANFAN-155             
1 69114U 26108L   26238.30193639  .00000072  00000+0  93671-4 0  9991
2 69114  89.0159  15.0100 0002033 108.3229 251.8144 13.51034154 13911
QIANFAN-156             
1 69115U 26108M   26238.24845667  .00000053  00000+0  63762-4 0  9997
2 69115  89.0174  15.0129 0001834  98.8078 261.3281 13.51033498 13922
QIANFAN-157             
1 69116U 26108N   26238.01304415 -.01996157  00000+0 -34327+1 0  9997
2 69116  89.0132  14.9651 0009355 248.6787 111.3364 13.48361005 13923
QIANFAN-158             
1 69117U 26108P   26238.25262543  .00000066  00000+0  83581-4 0  9991
2 69117  89.0157  14.9813 0001883  97.0553 263.0812 13.51031779 13936
QIANFAN-159             
1 69118U 26108Q   26238.24430714  .00000015  00000+0  47347-5 0  9993
2 69118  89.0148  14.9906 0001970  97.7922 262.3453 13.51019859 13921
QIANFAN-160             
1 69119U 26108R   26238.26090233  .00000073  00000+0  93858-4 0  9995
2 69119  89.0164  15.0227 0002069 111.3081 248.8291 13.51020005 13910
QIANFAN-161             
1 69120U 26108S   26238.26504026  .00000077  00000+0  10009-3 0  9997
2 69120  89.0171  14.9372 0001918  96.1371 263.9998 13.51035080 13969
QIANFAN-162             
1 69121U 26108T   26238.25669432  .00000076  00000+0  98764-4 0  9994
2 69121  89.0160  14.9659 0002196 102.1055 258.0342 13.51040134 13933
QIANFAN-163             
1 69325U 26121A   26238.22129161  .00000088  00000+0  11803-3 0  9993
2 69325  89.0138 293.5477 0001447 119.3579 240.7716 13.51020503 11621
QIANFAN-164             
1 69326U 26121B   26238.18837064  .00000152  00000+0  21604-3 0  9999
2 69326  89.0141 293.5423 0001579 102.5446 257.5882 13.51033561 11628
QIANFAN-165             
1 69382U 26124A   26238.27209468  .00000079  00000+0  10334-3 0  9991
2 69382  89.0062 354.5556 0001449 101.4332 258.6982 13.51016900 11503
QIANFAN-166             
1 69383U 26124B   26238.27625255  .00000095  00000+0  12856-3 0  9997
2 69383  89.0081 354.5614 0001980  96.1602 263.9774 13.51017287 11507
QIANFAN-167             
1 69384U 26124C   26238.28041175  .00000099  00000+0  13526-3 0  9991
2 69384  89.0054 354.5732 0001994 107.4709 252.6661 13.51026518 11493
QIANFAN-168             
1 69385U 26124D   26238.28438721  .00000092  00000+0  12400-3 0  9992
2 69385  89.0051 354.5536 0001836  91.0869 269.0492 13.51028543 11509
QIANFAN-169             
1 69386U 26124E   26238.28854826  .00000092  00000+0  12476-3 0  9994
2 69386  89.0049 354.5534 0012675 323.5340  36.4947 13.51038944 11502
QIANFAN-170             
1 69387U 26124F   26238.21873999  .00000018  00000+0  92254-5 0  9992
2 69387  89.0067 354.5285 0009335 318.0513  41.9922 13.49922300 11516
QIANFAN-171             
1 69388U 26124G   26237.78176562 -.02119593  00000+0 -36322+1 0  9998
2 69388  89.0076 354.5811 0011506 316.7579  43.2667 13.48827794 11456
QIANFAN-172             
1 69389U 26124H   26238.29686425  .00000083  00000+0  10954-3 0  9995
2 69389  89.0065 354.5234 0001548  97.1921 262.9406 13.51024606 11524
QIANFAN-173             
1 69390U 26124J   26237.78507637 -.01874089  00000+0 -32818+1 0  9995
2 69390  89.0048 354.5736 0005958 257.1680 102.8804 13.47628381 11454
QIANFAN-174             
1 69391U 26124K   26238.31739318  .00000022  00000+0  16086-4 0  9997
2 69391  89.0034 354.4828 0001930 108.8772 251.2589 13.51025322 11530
QIANFAN-175             
1 69392U 26124L   26238.24739311  .00000076  00000+0  99298-4 0  9998
2 69392  89.0086 354.5218 0002034  95.6313 264.5070 13.51015370 11525
QIANFAN-176             
1 69393U 26124M   26238.25150288  .00000131  00000+0  18469-3 0  9992
2 69393  89.0047 354.5110 0002034  96.3525 263.7858 13.51016427 11515
QIANFAN-177             
1 69394U 26124N   26237.88798125 -.01880563  00000+0 -32846+1 0  9999
2 69394  89.0052 354.5332 0003056 243.4035 116.6801 13.47816183 11486
QIANFAN-178             
1 69395U 26124P   26238.25563197  .00000015  00000+0  41085-5 0  9994
2 69395  89.0003 354.4659 0002051  96.1254 264.0131 13.51021136 11546
QIANFAN-179             
1 69396U 26124Q   26237.96695192 -.02032057  00000+0 -34892+1 0  9991
2 69396  89.0029 354.5051 0004156 174.5965 185.5231 13.48543159 11504
QIANFAN-180             
1 69397U 26124R   26238.26787142  .00000074  00000+0  95830-4 0  9996
2 69397  89.0042 354.4941 0011154 330.2232  29.8283 13.51007870 11530
QIANFAN-181             
1 69398U 26124S   26237.93723271 -.01939439  00000+0 -33986+1 0  9992
2 69398  89.0059 354.6151 0010627 277.6139  82.3803 13.47723627 11440
QIANFAN-182             
1 69399U 26124T   26238.23920692  .00000087  00000+0  11691-3 0  9990
2 69399  89.0039 354.5617 0001976  96.4109 263.7267 13.51023302 11487
QIANFAN-183             
1 69401U 26125A   26238.27385248  .00000076  00000+0  98608-4 0  9993
2 69401  88.9852 272.8912 0001789  95.1287 265.0068 13.51026799 11406
QIANFAN-184             
1 69402U 26125B   26237.54143742 -.00000010  00000+0 -34376-4 0  9996
2 69402  88.9904 272.9802 0003280 330.4248  29.6717 13.51019193 11308
QIANFAN-185             
1 69403U 26125C   26238.30667440  .00000046  00000+0  53050-4 0  9995
2 69403  88.9895 272.8311 0008701 339.9499  20.1309 13.50950681 11440
QIANFAN-186             
1 69404U 26125D   26238.12968733  .00000079  00000+0  10371-3 0  9999
2 69404  88.9906 272.9197 0020433 320.2975  39.6680 13.51022305 11389
QIANFAN-187             
1 69405U 26125E   26238.13794049  .00000045  00000+0  51984-4 0  9997
2 69405  88.9906 272.9016 0023099 321.9274  38.0244 13.51028752 11393
QIANFAN-188             
1 69406U 26125F   26237.92327506 -.02018606  00000+0 -34714+1 0  9998
2 69406  88.9900 272.9238 0004420 177.9850 182.1318 13.48417353 11365
QIANFAN-189             
1 69407U 26125G   26238.30254108  .00000056  00000+0  68147-4 0  9996
2 69407  88.9887 272.8842 0001572  99.4549 260.6779 13.51027733 11409
QIANFAN-190             
1 69408U 26125H   26238.29028522  .00000056  00000+0  67834-4 0  9996
2 69408  88.9888 272.8829 0001915  90.0861 270.0510 13.51032407 11414
QIANFAN-191             
1 69409U 26125J   26238.16690967  .00000050  00000+0  58487-4 0  9999
2 69409  88.9902 272.9042 0001746  94.6322 265.5029 13.51031809 11390
QIANFAN-192             
1 69410U 26125K   26238.29843158  .00000059  00000+0  72616-4 0  9996
2 69410  88.9908 272.8896 0001670 100.1486 259.9854 13.51029513 11419
QIANFAN-193             
1 69411U 26125L   26238.32324903  .00000043  00000+0  48459-4 0  9994
2 69411  88.9886 272.8688 0001694  91.9060 268.2285 13.51026172 11425
QIANFAN-194             
1 69412U 26125M   26238.31909768  .00000079  00000+0  10297-3 0  9999
2 69412  88.9919 272.8756 0001771  95.9184 264.2169 13.51025282 11413
QIANFAN-195             
1 69413U 26125N   26238.32390199  .00000072  00000+0  93722-4 0  9991
2 69413  88.9921 272.8588 0023420 325.9764  33.9883 13.50116012 11432
QIANFAN-196             
1 69414U 26125P   26238.26141854  .00000057  00000+0  70015-4 0  9990
2 69414  88.9925 272.8689 0008156 321.4779  38.5790 13.51027912 11423
QIANFAN-197             
1 69415U 26125Q   26238.26972405  .00000048  00000+0  55880-4 0  9998
2 69415  88.9899 272.8460 0001811  94.2657 265.8702 13.51022739 11422
QIANFAN-198             
1 69416U 26125R   26238.25741110  .00000058  00000+0  71255-4 0  9990
2 69416  88.9894 272.8612 0001736  96.2340 263.9009 13.51019018 11429
QIANFAN-199             
1 69417U 26125S   26237.67828871 -.02135798  00000+0 -33794+1 0  9992
2 69417  88.9895 272.8713 0022992 333.8152  26.1836 13.53872271 11372
QIANFAN-200             
1 69418U 26125T   26238.31086135  .00000069  00000+0  88149-4 0  9990
2 69418  88.9905 272.8889 0001645  97.2998 262.8340 13.51025390 11414
QIANFAN-201             
1 69800U 26153A   26238.31363638  .00000435  00000+0  22453-3 0  9994
2 69800  88.9971 354.2592 0009803  56.9717 303.2410 14.13296796  7516
QIANFAN-202             
1 69801U 26153B   26238.28991139  .00000409  00000+0  20668-3 0  9991
2 69801  88.9971 354.2554 0010123  57.8664 302.3504 14.14353275  7503
QIANFAN-203             
1 69802U 26153C   26238.25299212  .00000431  00000+0  23060-3 0  9996
2 69802  88.9971 354.2875 0009153  60.5937 299.6161 14.11312074  7499
QIANFAN-204             
1 69803U 26153D   26238.29602440  .00000389  00000+0  20201-3 0  9998
2 69803  88.9972 354.2756 0009399  59.1910 301.0200 14.12796066  7508
QIANFAN-205             
1 69804U 26153E   26238.28006853  .00000346  00000+0  18809-3 0  9998
2 69804  88.9970 354.2910 0009768  58.9027 301.3115 14.10087533  7491
QIANFAN-206             
1 69805U 26153F   26238.31013579  .00000448  00000+0  22030-3 0  9990
2 69805  88.9971 354.2587 0009517  64.4964 295.7207 14.15959251  7518
QIANFAN-207             
1 69806U 26153G   26238.30341880  .00000389  00000+0  20756-3 0  9996
2 69806  88.9971 354.2763 0009409  56.3444 303.8638 14.11287620  7506
QIANFAN-208             
1 69807U 26153H   26238.27330056  .00000376  00000+0  18545-3 0  9995
2 69807  88.9971 354.2720 0008602  69.2969 290.9140 14.15508404  7514
QIANFAN-209             
1 69808U 26153J   26238.24565645  .00000425  00000+0  22903-3 0  9995
2 69808  88.9971 354.2863 0009610  56.8892 303.3214 14.10885718  7499
QIANFAN-210             
1 69809U 26153K   26238.29916606  .00000376  00000+0  19969-3 0  9991
2 69809  88.9972 354.2762 0010150  60.1823 300.0370 14.11490403  7505
QIANFAN-211             
1 69810U 26153L   26238.25002390  .00000302  00000+0  14987-3 0  9999
2 69810  88.9972 354.2683 0009633  60.8203 299.3946 14.14528139  7502
QIANFAN-212             
1 69811U 26153M   26238.25973235  .00000438  00000+0  22707-3 0  9994
2 69811  88.9971 354.2696 0010974  62.5767 297.6534 14.13082174  7507
QIANFAN-213             
1 69812U 26153N   26237.97863376  .00000078  00000+0  34675-4 0  9995
2 69812  88.9970 354.3017 0009645  59.8758 300.3383 14.12639169  7467
QIANFAN-214             
1 69813U 26153P   26238.28777221  .00000456  00000+0  22057-3 0  9994
2 69813  88.9970 354.2364 0009724  62.7716 297.4462 14.16844013  7528
QIANFAN-215             
1 69814U 26153Q   26238.26262203  .00000523  00000+0  23131-3 0  9991
2 69814  88.9969 354.2132 0010015  68.2052 292.0203 14.21795619  7537
QIANFAN-216             
1 69815U 26153R   26237.89974417 -.01915876  00000+0 -10771+1 0  9999
2 69815  88.9964 354.2711 0007826  74.7009 285.5042 14.14385692  7475
QIANFAN-217             
1 69816U 26153S   26238.25277887  .00000577  00000+0  23225-3 0  9999
2 69816  88.9969 354.1929 0009742  70.6629 289.5618 14.26795746  7542
QIANFAN-218             
1 69817U 26153T   26238.25117350  .00000557  00000+0  22375-3 0  9991
2 69817  88.9973 354.1944 0009392  69.0609 291.1589 14.26839444  7546
QIANFAN-219             
1 69848U 26155A   26237.59078550 -.02034943  00000+0 -23531+1 0  9993
2 69848  89.0043  56.3464 0033110  82.1788 278.3133 13.73001549  7211
QIANFAN-220             
1 69849U 26155B   26237.84739928  .00000050  00000+0  37905-4 0  9997
2 69849  89.0062  56.3679 0034612  80.6573 279.8504 13.76457263  7224
QIANFAN-221             
1 69850U 26155C   26237.75704000 -.02101123  00000+0 -14580+1 0  9999
2 69850  89.0041  56.2444 0026252  96.4351 263.9820 14.03005675  7280
QIANFAN-222             
1 69851U 26155D   26237.82296483  .00000050  00000+0  40077-4 0  9996
2 69851  89.0088  56.3660 0034272  80.6863 279.8174 13.72432167  7224
QIANFAN-223             
1 69852U 26155E   26237.81256343 -.02056431  00000+0 -24558+1 0  9997
2 69852  89.0044  56.3633 0034183  79.1104 281.3902 13.71072445  7224
QIANFAN-224             
1 69853U 26155F   26237.81755043 -.02058722  00000+0 -23472+1 0  9998
2 69853  89.0028  56.3358 0030307  83.7124 276.7491 13.73942342  7234
QIANFAN-225             
1 69854U 26155G   26237.88846433 -.02066717  00000+0 -26122+1 0  9998
2 69854  89.0043  56.3527 0039704  84.0889 276.4795 13.67537427  7233
QIANFAN-226             
1 69855U 26155H   26237.79090394 -.02089475  00000+0 -25145+1 0  9996
2 69855  89.0043  56.3570 0036245  80.0899 280.4352 13.70641817  7222
QIANFAN-227             
1 69856U 26155J   26237.77087486 -.02013013  00000+0 -23141+1 0  9992
2 69856  89.0045  56.3544 0031337  82.8674 277.6051 13.73338627  7223
QIANFAN-228             
1 69857U 26155K   26237.90260522 -.02047248  00000+0 -23875+1 0  9993
2 69857  89.0048  56.3386 0033653  78.5193 281.9746 13.72502822  7242
QIANFAN-229             
1 69858U 26155L   26237.90369654 -.02089948  00000+0 -23252+1 0  9992
2 69858  89.0048  56.3205 0032074  87.1730 273.3105 13.75459020  7251
QIANFAN-230             
1 69859U 26155M   26237.92189194 -.02157699  00000+0 -26311+1 0  9992
2 69859  89.0074  56.3585 0037821  80.1025 280.4403 13.69949426  7232
QIANFAN-231             
1 69860U 26155N   26237.88634286 -.02064725  00000+0 -23137+1 0  9996
2 69860  89.0042  56.3188 0032580  73.8723 286.6024 13.74967900  7251
QIANFAN-232             
1 69861U 26155P   26237.93862068 -.02104099  00000+0 -23405+1 0  9991
2 69861  89.0045  56.3059 0021900  77.1658 283.1952 13.75621390  7264
QIANFAN-233             
1 69862U 26155Q   26237.86787356 -.02057034  00000+0 -22717+1 0  9991
2 69862  89.0048  56.3152 0031870  76.7114 283.7602 13.75842263  7252
QIANFAN-234             
1 69863U 26155R   26237.87950308 -.02014908  00000+0 -19751+1 0  9999
2 69863  89.0039  56.2999 0038744  79.2275 281.3252 13.82757524  7263
QIANFAN-235             
1 69864U 26155S   26237.79367670  .00000103  00000+0  48256-4 0  9999
2 69864  89.0057  56.2308 0032533  89.4241 271.0672 14.11678806  7297
QIANFAN-236             
1 69865U 26155T   26237.79571239 -.01871307  00000+0 -22159+1 0  9993
2 69865  89.0052  56.3417 0034381  77.5420 282.9586 13.71879842  7232
QIANFAN-237             
1 69866U 26155U   26237.91965797 -.02103982  00000+0 -22820+1 0  9997
2 69866  89.0047  56.3055 0033414  79.5189 280.9739 13.76998242  7256
QIANFAN-238             
1 69867U 26155V   26237.92099383 -.02113920  00000+0 -25340+1 0  9991
2 69867  89.0019  56.3027 0026007  73.8589 286.5434 13.71065741  7265
