QIANFAN-1               
1 60379U 24140A   26191.73596801  .00000082  00000+0  10849-3 0  9998
2 60379  88.9735 277.4888 0015973 334.6395  25.3970 13.51019542 95707
QIANFAN-2               
1 60380U 24140B   26191.76483153  .00000089  00000+0  11943-3 0  9991
2 60380  88.9721 277.2965 0010529 304.9225  55.0936 13.51015359 95762
QIANFAN-3               
1 60381U 24140C   26191.69896634  .00000087  00000+0  11632-3 0  9999
2 60381  88.9714 277.4202 0011924 319.4638  40.5625 13.51016351 95666
QIANFAN-4               
1 60382U 24140D   26191.74827229  .00000104  00000+0  14238-3 0  9995
2 60382  88.9739 277.3656 0010806 308.0076  52.0099 13.51019282 95797
QIANFAN-5               
1 60383U 24140E   26191.72362337  .00000068  00000+0  87463-4 0  9998
2 60383  88.9714 277.4422 0013498 331.6281  28.4134 13.51010121 95658
QIANFAN-6               
1 60384U 24140F   26191.74416751  .00000089  00000+0  11981-3 0  9995
2 60384  88.9741 277.2433 0011066 315.0203  45.0051 13.51018169 95853
QIANFAN-7               
1 60385U 24140G   26191.71629095  .00000330  00000+0  12718-3 0  9998
2 60385  88.9770 269.0105 0017424  74.4241 285.8875 14.27861909100355
QIANFAN-8               
1 60386U 24140H   26191.75243734  .00000097  00000+0  13141-3 0  9996
2 60386  88.9742 277.4825 0014559 316.0711  43.9281 13.51014574 95700
QIANFAN-9               
1 60387U 24140J   26191.72767492  .00000087  00000+0  11563-3 0  9991
2 60387  88.9739 277.5562 0014235 315.9532  44.0484 13.51020211 95685
QIANFAN-10              
1 60388U 24140K   26191.73179810  .00000086  00000+0  11466-3 0  9995
2 60388  88.9750 276.9248 0012342 289.9162  70.0659 13.51021336 95816
QIANFAN-11              
1 60389U 24140L   26191.76886190  .00000085  00000+0  11258-3 0  9993
2 60389  88.9675 277.3502 0012276 316.3123  43.7055 13.51015360 95478
QIANFAN-12              
1 60390U 24140M   26191.71544664  .00000097  00000+0  13112-3 0  9991
2 60390  88.9718 277.4907 0011324 326.6098  33.4338 13.51017533 95593
QIANFAN-13              
1 60391U 24140N   26191.76066654  .00000087  00000+0  11614-3 0  9999
2 60391  88.9730 277.6113 0011226 329.6679  30.3822 13.51017598 95627
QIANFAN-14              
1 60392U 24140P   26191.71134495  .00000093  00000+0  12560-3 0  9992
2 60392  88.9710 277.4696 0014882 327.7113  32.3126 13.51011070 95621
QIANFAN-15              
1 60393U 24140Q   26191.71950795  .00000089  00000+0  11854-3 0  9992
2 60393  88.9733 277.4752 0010334 313.9800  46.0499 13.51011611 95613
QIANFAN-16              
1 60394U 24140R   26191.70722617  .00000088  00000+0  11841-3 0  9997
2 60394  88.9736 277.6025 0012974 333.0992  26.9485 13.51019478 95520
QIANFAN-17              
1 60395U 24140S   26191.70304019  .00000081  00000+0  10721-3 0  9999
2 60395  88.9747 277.6719 0013163 325.7899  34.2403 13.51015562 96486
QIANFAN-18              
1 60396U 24140T   26191.75650051  .00000098  00000+0  13250-3 0  9993
2 60396  88.9740 277.1859 0012073 305.8590  54.1440 13.51015073 95888
QIANFAN-19              
1 61552U 24185A   26191.77074839  .00000245  00000+0  12062-3 0  9997
2 61552  88.9817  53.8757 0007059   9.6893 350.4428 14.14492029 99351
QIANFAN-20              
1 61553U 24185B   26191.76341314  .00000255  00000+0  13889-3 0  9991
2 61553  88.9813  54.4088 0007295  49.0264 311.1550 14.09033676 99065
QIANFAN-21              
1 61554U 24185C   26191.75900987  .00000345  00000+0  14728-3 0  9991
2 61554  88.9734  52.3832 0012387  47.3858 312.8377 14.22877994 99834
QIANFAN-22              
1 61555U 24185D   26191.75012705  .00000177  00000+0  14095-3 0  9994
2 61555  88.9799  56.2393 0008644  76.3683 283.8451 13.86406012 98039
QIANFAN-23              
1 61556U 24185E   26191.73078853  .00000237  00000+0  11186-3 0  9994
2 61556  88.9810  53.5912 0008004  16.6949 343.4501 14.16516333 99473
QIANFAN-24              
1 61557U 24185F   26191.79449815  .00000355  00000+0  14793-3 0  9999
2 61557  88.9792  52.6476 0008777 347.8790  12.2190 14.24094780 99918
QIANFAN-25              
1 61558U 24185G   26191.81053135  .00000225  00000+0  12867-3 0  9995
2 61558  88.9807  54.4175 0012937  44.5388 315.6832 14.06093460 99028
QIANFAN-26              
1 61559U 24185H   26191.76561786  .00000146  00000+0  13230-3 0  9993
2 61559  88.9806  57.0831 0007866  93.0343 267.1724 13.77922626 97594
QIANFAN-27              
1 61560U 24185J   26191.76629137  .00000224  00000+0  85262-4 0  9992
2 61560  88.9803  52.3252 0006233 338.8239  21.2696 14.27553905100126
QIANFAN-28              
1 61561U 24185K   26191.77293126  .00000386  00000+0  14874-3 0  9998
2 61561  88.9821  52.3376 0006038 336.9327  23.1595 14.28415397100159
QIANFAN-29              
1 61562U 24185L   26191.77472281  .00000102  00000+0  13897-3 0  9990
2 61562  88.9780  59.6026 0010479 152.6478 207.5227 13.51077827 96151
QIANFAN-30              
1 61563U 24185M   26191.76054713  .00000108  00000+0  15017-3 0  9998
2 61563  88.9800  59.2097 0008512 137.1125 223.0690 13.50061111 96404
QIANFAN-31              
1 61564U 24185N   26191.74773091  .00000015  00000+0  35265-5 0  9990
2 61564  88.9783  58.6796 0008417 125.1004 235.0941 13.58045259 96664
QIANFAN-32              
1 61565U 24185P   26191.76183782  .00000107  00000+0  14723-3 0  9991
2 61565  88.9840  59.4065 0009631 167.6799 192.4589 13.50791095 96390
QIANFAN-33              
1 61566U 24185Q   26191.75232464  .00000134  00000+0  87098-4 0  9999
2 61566  88.9798  55.3957 0009058  42.6154 317.5724 13.96718247 98478
QIANFAN-34              
1 61567U 24185R   26191.78328532  .00000154  00000+0  90985-4 0  9996
2 61567  88.9777  54.6777 0007371  41.2445 318.9291 14.02482838 98793
QIANFAN-35              
1 61568U 24185S   26191.75393676  .00000376  00000+0  14498-3 0  9995
2 61568  88.9802  52.2306 0005154 336.9183  23.1779 14.28294782100152
QIANFAN-36              
1 61569U 24185T   26191.73458078  .00000127  00000+0  16455-3 0  9991
2 61569  88.9776  59.1634 0007234 137.7591 222.4121 13.55639683 96379
QIANFAN-37              
1 62238U 24232B   26191.81368038  .00000061  00000+0  75838-4 0  9991
2 62238  89.0065  20.2109 0001855 107.3114 252.8240 13.51010939127534
QIANFAN-38              
1 62239U 24232C   26191.76430735  .00000049  00000+0  57548-4 0  9994
2 62239  89.0071  20.1459 0012973 314.3489  45.6598 13.51007593127588
QIANFAN-39              
1 62240U 24232D   26191.80541459  .00000104  00000+0  37781-4 0  9996
2 62240  89.0058  13.3755 0018419 108.1485 252.1716 14.25531652131317
QIANFAN-40              
1 62241U 24232E   26191.79718566  .00000036  00000+0  37010-4 0  9999
2 62241  89.0099  19.7857 0012239 323.6269  36.4049 13.51009184127959
QIANFAN-41              
1 62242U 24232F   26191.80541174  .00000054  00000+0  65234-4 0  9990
2 62242  89.0069  20.0895 0012285 310.1100  49.8974 13.51011964127617
QIANFAN-42              
1 62243U 24232G   26191.79679424  .00000104  00000+0  38190-4 0  9996
2 62243  89.0056  13.4547 0017157 113.9426 246.3565 14.24620202131276
QIANFAN-43              
1 62244U 24232H   26191.72722866  .00000043  00000+0  48072-4 0  9991
2 62244  89.0074  20.1719 0013958 315.5262  44.4767 13.51011448 96216
QIANFAN-44              
1 62245U 24232J   26191.78889924  .00000041  00000+0  45539-4 0  9990
2 62245  89.0072  19.9730 0012100 312.8368  47.1765 13.51013366127695
QIANFAN-45              
1 62246U 24232K   26191.75606772  .00000032  00000+0  31459-4 0  9992
2 62246  89.0076  20.1304 0012753 312.2108  47.7960 13.51010775127617
QIANFAN-46              
1 62247U 24232L   26191.70666243  .00000043  00000+0  47901-4 0  9998
2 62247  89.0072  20.1957 0012958 318.5250  41.4916 13.51011468127568
QIANFAN-47              
1 62248U 24232M   26191.78485317  .00000050  00000+0  59211-4 0  9993
2 62248  89.0068  20.1124 0013351 317.1611  42.8499 13.51010848127601
QIANFAN-48              
1 62249U 24232N   26191.74769029  .00000061  00000+0  76325-4 0  9992
2 62249  89.0071  20.1261 0015667 319.2014  40.7963 13.51015536127602
QIANFAN-49              
1 62250U 24232P   26191.80946066  .00000054  00000+0  65083-4 0  9990
2 62250  89.0071  20.1307 0012612 314.2150  45.7965 13.51013820 96200
QIANFAN-50              
1 62251U 24232Q   26191.76017639  .00000033  00000+0  32804-4 0  9993
2 62251  89.0076  20.1553 0014303 315.1938  44.8058 13.51010577 96223
QIANFAN-51              
1 62252U 24232R   26191.81780647  .00000052  00000+0  62306-4 0  9997
2 62252  89.0070  20.1305 0011902 320.2646  39.7632 13.51007413 96224
QIANFAN-52              
1 62253U 24232S   26191.77243997  .00000067  00000+0  85111-4 0  9990
2 62253  89.0066  20.0004 0013696 310.8111  49.1851 13.51013417 96307
QIANFAN-53              
1 62254U 24232T   26191.75191530  .00000041  00000+0  44522-4 0  9997
2 62254  89.0074  20.1229 0012610 312.5971  47.4116 13.51009651 96260
QIANFAN-54              
1 62255U 24232U   26191.71896186  .00000031  00000+0  28789-4 0  9999
2 62255  89.0065  19.7861 0002697  39.2648 320.8699 13.51013448127768
QIANFAN-55              
1 62785U 25016A   26191.74511863  .00000075  00000+0  96825-4 0  9991
2 62785  88.9722  81.4346 0019266  99.0150 261.3183 13.51010292 75549
QIANFAN-56              
1 62786U 25016B   26191.76160418  .00000080  00000+0  10516-3 0  9998
2 62786  88.9696  81.2132 0017868 100.8680 259.4484 13.51008885 75598
QIANFAN-57              
1 62787U 25016C   26191.72039108  .00000081  00000+0  10736-3 0  9991
2 62787  88.9727  81.4364 0001349  70.6062 289.5235 13.51008940 75554
QIANFAN-58              
1 62788U 25016D   26191.76555169  .00000046  00000+0  51576-4 0  9995
2 62788  88.9697  81.1993 0015880  93.7924 266.5043 13.51013421 75602
QIANFAN-59              
1 62789U 25016E   26191.71622206  .00000079  00000+0  10366-3 0  9995
2 62789  88.9720  81.3278 0016208  97.3686 262.9308 13.51017658 75596
QIANFAN-60              
1 62790U 25016F   26191.74929936  .00000077  00000+0  10077-3 0  9997
2 62790  88.9701  81.2557 0017799  94.3441 265.9745 13.51005357 75588
QIANFAN-61              
1 62791U 25016G   26191.78214845  .00000065  00000+0  81871-4 0  9996
2 62791  88.9768  81.5576 0016733  93.5768 266.7297 13.51012757 75602
QIANFAN-62              
1 62792U 25016H   26191.71207860  .00000069  00000+0  87973-4 0  9992
2 62792  88.9715  81.3203 0018109  94.2902 266.0319 13.51022264 75586
QIANFAN-63              
1 62793U 25016J   26191.73682801  .00000070  00000+0  89176-4 0  9996
2 62793  88.9722  81.2834 0018098  98.9531 261.3670 13.51016312 75620
QIANFAN-64              
1 62794U 25016K   26191.77801603  .00000068  00000+0  86842-4 0  9998
2 62794  88.9709  81.2250 0016117  92.3689 267.9308 13.51012776 75620
QIANFAN-65              
1 62795U 25016L   26191.77392035  .00000072  00000+0  93225-4 0  9991
2 62795  88.9705  81.2440 0015955  93.8347 266.4629 13.51029362 75601
QIANFAN-66              
1 62796U 25016M   26191.72874045  .00000084  00000+0  11138-3 0  9998
2 62796  88.9725  81.2601 0017089  90.2017 270.1092 13.51008612 75643
QIANFAN-67              
1 62797U 25016N   26191.73280005  .00000075  00000+0  97632-4 0  9991
2 62797  88.9715  81.2646 0016991  96.3122 263.9965 13.51011163 75618
QIANFAN-68              
1 62798U 25016P   26191.72444825  .00000078  00000+0  10173-3 0  9990
2 62798  88.9718  81.3181 0017088  94.4154 265.8950 13.51023814 75597
QIANFAN-69              
1 62799U 25016Q   26191.74087529  .00000064  00000+0  80680-4 0  9993
2 62799  88.9698  81.1411 0017810  95.7795 264.5388 13.51017709 75639
QIANFAN-70              
1 62800U 25016R   26191.75740302  .00000082  00000+0  10821-3 0  9991
2 62800  88.9718  81.3217 0017492  87.1896 273.1257 13.51016060 75599
QIANFAN-71              
1 62801U 25016S   26191.75339488  .00000075  00000+0  97170-4 0  9996
2 62801  88.9712  81.2889 0017677  98.9185 261.3968 13.51010401 75595
QIANFAN-72              
1 62802U 25016T   26191.76968843  .00000075  00000+0  96819-4 0  9990
2 62802  88.9702  81.2801 0020820 105.8607 254.4841 13.51013564 75585
QIANFAN-73              
1 63159U 25046A   26191.72260277  .00000102  00000+0  14004-3 0  9997
2 63159  88.9723 298.2379 0013629 229.5499 130.4465 13.51013934 75762
QIANFAN-74              
1 63160U 25046B   26191.70636487  .00000102  00000+0  13986-3 0  9995
2 63160  88.9723 298.1293 0002475 108.0363 252.1058 13.51015317 75820
QIANFAN-75              
1 63161U 25046C   26191.76798119  .00000109  00000+0  15076-3 0  9992
2 63161  88.9724 298.3595 0014602 233.3165 126.6645 13.51014277 75704
QIANFAN-76              
1 63162U 25046D   26191.76381313  .00000111  00000+0  15347-3 0  9991
2 63162  88.9724 298.3398 0012136 232.6106 127.3941 13.51012758 75713
QIANFAN-77              
1 63163U 25046E   26191.74773236  .00000186  00000+0  12489-3 0  9995
2 63163  88.9727 294.6185 0016814 139.6148 220.6280 13.96219532 77756
QIANFAN-78              
1 63164U 25046F   26191.73092902  .00000110  00000+0  15129-3 0  9990
2 63164  88.9723 298.2052 0013452 235.7518 124.2360 13.51008096 75781
QIANFAN-79              
1 63165U 25046G   26191.75972030  .00000100  00000+0  13592-3 0  9993
2 63165  88.9726 298.3172 0013282 233.9469 126.0452 13.51018415 75738
QIANFAN-80              
1 63166U 25046H   26191.70219910  .00000114  00000+0  15734-3 0  9995
2 63166  88.9724 298.0245 0011996 238.4959 121.5020 13.51015650 75884
QIANFAN-81              
1 63167U 25046J   26191.75554358  .00000094  00000+0  12664-3 0  9995
2 63167  88.9723 298.0865 0013620 227.2267 132.7739 13.51023134 75849
QIANFAN-82              
1 63168U 25046K   26191.71441549  .00000104  00000+0  14180-3 0  9996
2 63168  88.9724 298.1348 0011253 233.5943 126.4171 13.51017610 75829
QIANFAN-83              
1 63169U 25046L   26191.73385144  .00000128  00000+0  14984-3 0  9995
2 63169  88.9725 297.4957 0013527 205.9501 154.0980 13.62049755 76180
QIANFAN-84              
1 63170U 25046M   26191.74352872  .00000103  00000+0  14091-3 0  9992
2 63170  88.9724 298.2645 0014428 231.3126 128.6735 13.51043304 75750
QIANFAN-85              
1 63171U 25046N   26191.73908153  .00000105  00000+0  14472-3 0  9996
2 63171  88.9723 298.1350 0011800 232.5359 127.4720 13.51015355 75828
QIANFAN-86              
1 63172U 25046P   26191.74736319  .00000075  00000+0  97871-4 0  9992
2 63172  88.9725 298.0013 0009523 235.5231 124.5021 13.51022788 75906
QIANFAN-87              
1 63173U 25046Q   26191.71858220  .00000104  00000+0  14306-3 0  9990
2 63173  88.9722 298.1081 0010210 230.5618 129.4630 13.51008340 75839
QIANFAN-88              
1 63174U 25046R   26191.73506354  .00000108  00000+0  14845-3 0  9993
2 63174  88.9724 298.0661 0010385 240.4632 119.5484 13.51016059 75860
QIANFAN-89              
1 63175U 25046S   26191.77200933  .00000114  00000+0  15717-3 0  9998
2 63175  88.9723 298.2512 0015230 232.0773 127.9002 13.51023206 75764
QIANFAN-90              
1 63176U 25046T   26191.72672050  .00000112  00000+0  15548-3 0  9997
2 63176  88.9724 298.2289 0012233 229.0603 130.9490 13.51015389 75774
QIANFAN-91              
1 66033U 25233A   26191.01856557  .00000074  00000+0  95341-4 0  9995
2 66033  88.9984  40.8806 0001951  92.5805 267.5570 13.51014613 36261
QIANFAN-92              
1 66034U 25233B   26190.50831243  .00000074  00000+0  95584-4 0  9993
2 66034  88.9967  40.9003 0001946  86.3030 273.8344 13.51012842 36191
QIANFAN-93              
1 66035U 25233C   26191.03498505  .00000060  00000+0  73711-4 0  9996
2 66035  88.9993  40.9049 0001926  91.0239 269.1132 13.51016451 36264
QIANFAN-94              
1 66036U 25233D   26191.02266563  .00000076  00000+0  98638-4 0  9995
2 66036  88.9990  40.8087 0002070  88.1147 272.0241 13.51015242 36316
QIANFAN-95              
1 66037U 25233E   26191.03091148  .00000064  00000+0  81275-4 0  9998
2 66037  88.9987  40.3508 0002089  93.1173 267.0217 13.51016251 36566
QIANFAN-96              
1 66038U 25233F   26190.53716535  .00000069  00000+0  88305-4 0  9993
2 66038  88.9985  40.9438 0001961  94.3800 265.7575 13.51015043 36190
QIANFAN-97              
1 66039U 25233G   26190.96506096  .00000056  00000+0  68477-4 0  9994
2 66039  88.9989  40.8853 0001949  91.6123 268.5252 13.51015236 36264
QIANFAN-98              
1 66040U 25233H   26190.52889239  .00000059  00000+0  72847-4 0  9990
2 66040  88.9978  40.6579 0002453  84.0930 276.0501 13.51015068 36343
QIANFAN-99              
1 66041U 25233J   26191.05143076  .00000067  00000+0  85156-4 0  9998
2 66041  88.9989  40.8807 0002344  88.0007 272.1412 13.51015124 36273
QIANFAN-100             
1 66042U 25233K   26190.52478587  .00000055  00000+0  66772-4 0  9998
2 66042  89.0001  40.8636 0001930  91.1595 268.9777 13.51043026 36255
QIANFAN-101             
1 66043U 25233L   26191.50755591  .00000206  00000+0  78935-4 0  9993
2 66043  88.9985  37.8901 0017472  70.6133 289.6948 14.26820790 37956
QIANFAN-102             
1 66044U 25233M   26191.50817571  .00000068  00000+0  87447-4 0  9995
2 66044  88.9986  40.7435 0002116  88.7214 271.4180 13.51015170 36380
QIANFAN-103             
1 66045U 25233N   26191.51228720  .00000064  00000+0  80431-4 0  9991
2 66045  88.9989  40.8389 0001911  91.4566 268.6804 13.51016058 36338
QIANFAN-104             
1 66046U 25233P   26191.51656676  .00000062  00000+0  77344-4 0  9994
2 66046  88.9993  40.7417 0002086  85.9324 274.2066 13.51021716 36384
QIANFAN-105             
1 66047U 25233Q   26191.00637841  .00000067  00000+0  84493-4 0  9990
2 66047  89.0012  40.6394 0002091  92.6187 267.5204 13.51020672 36424
QIANFAN-106             
1 66048U 25233R   26191.29836902  .00000061  00000+0  75136-4 0  9999
2 66048  88.9976  40.8156 0002375  85.0597 275.0825 13.51015095 36309
QIANFAN-107             
1 66049U 25233S   26191.01032895  .00000063  00000+0  79421-4 0  9992
2 66049  88.9992  40.8809 0001947  90.8098 269.3277 13.51014513 36274
QIANFAN-108             
1 66050U 25233T   26191.01443211  .00000068  00000+0  87378-4 0  9997
2 66050  88.9985  40.8665 0002333  84.9871 275.1547 13.51015690 36273
QIANFAN-109             
1 68636U 26075A   26191.76919813  .00000063  00000+0  79434-4 0  9991
2 68636  88.9912 318.6035 0002142 116.8202 243.3168 13.51013821 12974
QIANFAN-110             
1 68637U 26075B   26191.70333527  .00000071  00000+0  91810-4 0  9999
2 68637  88.9912 318.6317 0002010 102.1742 257.9634 13.51015047 12969
QIANFAN-111             
1 68638U 26075C   26191.76506223  .00000072  00000+0  92712-4 0  9994
2 68638  88.9911 318.5849 0002005 100.6794 259.4583 13.51022020 12994
QIANFAN-112             
1 68639U 26075D   26191.72786249  .00000074  00000+0  95440-4 0  9992
2 68639  88.9910 318.5975 0001914 116.8909 243.2437 13.51012473 12988
QIANFAN-113             
1 68640U 26075E   26191.69917127  .00000064  00000+0  80458-4 0  9993
2 68640  88.9916 318.5953 0001935 104.8893 255.2473 13.51017886 12980
QIANFAN-114             
1 68641U 26075F   26191.63329782  .00000082  00000+0  10775-3 0  9996
2 68641  88.9911 318.6201 0002026 102.4922 257.6456 13.51016633 12966
QIANFAN-115             
1 68642U 26075G   26191.73608142  .00000070  00000+0  89234-4 0  9992
2 68642  88.9911 318.6169 0002131 106.7897 253.3488 13.51021952 12974
QIANFAN-116             
1 68643U 26075H   26191.72187096 -.01578743  00000+0 -28010+1 0  9993
2 68643  88.9900 318.5763 0007305 127.1407 233.0409 13.46074120 12982
QIANFAN-117             
1 68644U 26075J   26191.63735035  .00000075  00000+0  98115-4 0  9998
2 68644  88.9908 318.6021 0002037 110.0211 250.1160 13.51023829 12979
QIANFAN-118             
1 68645U 26075K   26191.52211718  .00000064  00000+0  80056-4 0  9997
2 68645  88.9913 318.6230 0001969  99.7312 260.4062 13.51022407 12950
QIANFAN-119             
1 68646U 26075L   26191.57156138  .00000078  00000+0  10164-3 0  9994
2 68646  88.9913 318.6135 0002124 112.5807 247.5569 13.51020021 12961
QIANFAN-120             
1 68647U 26075M   26191.58401912  .00000066  00000+0  83160-4 0  9993
2 68647  88.9915 318.5976 0002268 113.5500 246.5890 13.51020433 12970
QIANFAN-121             
1 68648U 26075N   26191.53448971  .00000084  00000+0  11149-3 0  9992
2 68648  88.9913 318.6071 0002034 100.7011 259.4369 13.51012510 12962
QIANFAN-122             
1 68649U 26075P   26191.60045559  .00000080  00000+0  10599-3 0  9990
2 68649  88.9912 318.5983 0002046 112.1498 247.9871 13.51016198 12968
QIANFAN-123             
1 68650U 26075Q   26191.56757426  .00000083  00000+0  10936-3 0  9998
2 68650  88.9908 318.5909 0002097 118.1822 241.9542 13.51014582 12948
QIANFAN-124             
1 68651U 26075R   26191.59223067  .00000069  00000+0  88706-4 0  9996
2 68651  88.9911 318.5979 0002038 114.4053 245.7311 13.51015743 12979
QIANFAN-125             
1 68652U 26075S   26191.53038280  .00000073  00000+0  94960-4 0  9996
2 68652  88.9911 318.6063 0002007 100.9031 259.2346 13.51012679 12969
QIANFAN-126             
1 68653U 26075T   26191.53870629  .00000071  00000+0  91561-4 0  9990
2 68653  88.9915 318.5720 0002113 117.8522 242.2844 13.51017852 12988
QIANFAN-127             
1 69073U 26104A   26191.67383914 -.01977009  00000+0 -29311+1 0  9998
2 69073  88.9905 339.0791 0009247   9.2916 350.8408 13.57752181  8328
QIANFAN-128             
1 69074U 26104B   26191.72864288 -.02039092  00000+0 -31465+1 0  9998
2 69074  88.9882 339.1047 0012670  29.7058 330.4813 13.55339144  8317
QIANFAN-129             
1 69075U 26104C   26191.72524171 -.02018987  00000+0 -29826+1 0  9991
2 69075  88.9888 339.0469 0008874  15.2029 344.9391 13.58064079  8349
QIANFAN-130             
1 69076U 26104D   26191.54710943 -.01981670  00000+0 -30825+1 0  9994
2 69076  88.9897 339.1146 0014503  32.8521 327.3531 13.54704589  8299
QIANFAN-131             
1 69077U 26104E   26191.69247361 -.02068478  00000+0 -30626+1 0  9992
2 69077  88.9876 339.0778 0009209  12.2989 347.8389 13.58021671  8324
QIANFAN-132             
1 69078U 26104F   26191.70630586 -.02075607  00000+0 -32568+1 0  9999
2 69078  88.9884 339.1196 0011815  40.3821 319.8207 13.54359658  8303
QIANFAN-133             
1 69079U 26104G   26191.72051597 -.01986774  00000+0 -29781+1 0  9999
2 69079  88.9888 339.0848 0009666  21.8094 338.3470 13.57078625  8312
QIANFAN-134             
1 69080U 26104H   26191.71457860 -.02018921  00000+0 -31158+1 0  9995
2 69080  88.9888 339.1011 0011487  33.0774 327.1096 13.55294923  8310
QIANFAN-135             
1 69081U 26104J   26191.75177390 -.01968104  00000+0 -30123+1 0  9994
2 69081  88.9888 339.0879 0011789  34.7191 325.4730 13.55715498  8320
QIANFAN-136             
1 69082U 26104K   26191.76789896  .00000035  00000+0  32111-4 0  9996
2 69082  88.9891 339.0897 0011699  22.3212 337.8450 13.57857272  8327
QIANFAN-137             
1 69083U 26104L   26191.70046911 -.01982843  00000+0 -24411+1 0  9994
2 69083  88.9892 338.9883 0011305  45.1685 315.0393 13.69289323  8371
QIANFAN-138             
1 69084U 26104M   26191.76955985  .00000040  00000+0  38087-4 0  9996
2 69084  88.9885 339.0895 0008789  23.8815 336.2746 13.57844870  8322
QIANFAN-139             
1 69085U 26104N   26191.70408263 -.01857147  00000+0 -29042+1 0  9991
2 69085  88.9884 339.0816 0007192  56.9616 303.2228 13.54814651  8328
QIANFAN-140             
1 69086U 26104P   26191.69480830 -.01939716  00000+0 -29940+1 0  9990
2 69086  88.9881 339.0811 0008194  47.1504 313.0337 13.55835895  8326
QIANFAN-141             
1 69087U 26104Q   26191.68715284 -.01951637  00000+0 -25905+1 0  9997
2 69087  88.9891 339.0616 0009256  23.3926 336.7652 13.64600273  8338
QIANFAN-142             
1 69088U 26104R   26191.73257256 -.02082079  00000+0 -28341+1 0  9997
2 69088  88.9882 339.0495 0008181  17.0108 343.1323 13.63308822  8344
QIANFAN-143             
1 69089U 26104S   26191.74930081 -.01972600  00000+0 -28564+1 0  9997
2 69089  88.9892 339.0518 0007773 359.0901   1.0239 13.59228157  8341
QIANFAN-144             
1 69090U 26104T   26191.70301464  .00000034  00000+0  28552-4 0  9993
2 69090  88.9893 339.0626 0009953  17.0417 343.1072 13.59855708  8331
QIANFAN-145             
1 69104U 26108A   26191.68484411 -.01889971  00000+0 -23586+1 0  9990
2 69104  89.0095  19.7258 0024404  34.5912 325.6831 13.68846848  7598
QIANFAN-146             
1 69105U 26108B   26191.69602219 -.01831540  00000+0 -17402+1 0  9999
2 69105  89.0102  19.6415 0019208  44.8185 315.4533 13.85139217  7640
QIANFAN-147             
1 69106U 26108C   26191.58775162 -.01893818  00000+0 -25105+1 0  9991
2 69106  89.0100  19.7314 0019972  34.6293 325.6162 13.65178001  7578
QIANFAN-148             
1 69107U 26108D   26191.66219833  .00000045  00000+0  36426-4 0  9990
2 69107  89.0094  19.7200 0021592  38.9697 321.3016 13.70486649  7589
QIANFAN-149             
1 69108U 26108E   26191.69497073 -.01850153  00000+0 -25215+1 0  9994
2 69108  89.0095  19.7277 0019384  33.2986 326.9387 13.63360196  7593
QIANFAN-150             
1 69109U 26108F   26191.51102411 -.01783774  00000+0 -21854+1 0  9994
2 69109  89.0096  19.7214 0024326  35.3844 324.8926 13.69719918  7574
QIANFAN-151             
1 69110U 26108G   26191.69642080 -.01778371  00000+0 -22669+1 0  9998
2 69110  89.0098  19.7114 0020117  49.5288 310.7622 13.67318032  7599
QIANFAN-152             
1 69111U 26108H   26191.73970324  .00000040  00000+0  29855-4 0  9995
2 69111  89.0097  19.6981 0019125  38.3263 321.9256 13.72426460  7617
QIANFAN-153             
1 69112U 26108J   26191.77456091 -.00000001  00000+0 -14959-4 0  9998
2 69112  89.0090  19.7006 0021033  40.7069 319.5661 13.71837331  7606
QIANFAN-154             
1 69113U 26108K   26191.62628317 -.01864398  00000+0 -25107+1 0  9996
2 69113  89.0099  19.7200 0020545  31.4342 328.8039 13.64127599  7590
QIANFAN-155             
1 69114U 26108L   26191.66313937 -.01773641  00000+0 -21974+1 0  9998
2 69114  89.0097  19.7079 0018342  51.0449 309.2343 13.69066612  7595
QIANFAN-156             
1 69115U 26108M   26191.60346328 -.01709099  00000+0 -20651+1 0  9990
2 69115  89.0103  19.7043 0024748  41.9439 318.3613 13.70383227  7608
QIANFAN-157             
1 69116U 26108N   26191.69315608 -.01939307  00000+0 -20866+1 0  9992
2 69116  89.0087  19.6540 0017309  45.1678 315.0891 13.77324413  7631
QIANFAN-158             
1 69117U 26108P   26191.69250565 -.01746253  00000+0 -20463+1 0  9992
2 69117  89.0094  19.6730 0020326  35.5910 324.6604 13.72381646  7629
QIANFAN-159             
1 69118U 26108Q   26191.58557875 -.01716933  00000+0 -21428+1 0  9999
2 69118  89.0088  19.6907 0019000  51.4157 308.8703 13.68478193  7607
QIANFAN-160             
1 69119U 26108R   26191.68158624 -.01743719  00000+0 -22615+1 0  9991
2 69119  89.0102  19.6921 0024455  39.9046 320.3906 13.66127897  7614
QIANFAN-161             
1 69120U 26108S   26191.55067780 -.01704759  00000+0 -17926+1 0  9991
2 69120  89.0101  19.6738 0019039  35.4858 324.7571 13.78822709  7618
QIANFAN-162             
1 69121U 26108T   26191.66913069 -.01882476  00000+0 -21974+1 0  9995
2 69121  89.0095  19.6710 0018198  30.5540 329.6679 13.72962879  7610
QIANFAN-163             
1 69325U 26121A   26189.97247712  .00000008  00000+0 -66399-5 0  9998
2 69325  89.0049 298.3591 0020481 118.5630 241.7588 13.53894414  5117
QIANFAN-164             
1 69326U 26121B   26191.26143581  .00000058  00000+0  72444-4 0  9994
2 69326  89.0182 298.2100 0022759 121.5160 238.8218 13.49695010  5284
QIANFAN-165             
1 69382U 26124A   26191.62533343 -.02034147  00000+0 -15541+1 0  9999
2 69382  88.9987 359.4041 0009481  68.4618 291.7569 13.97578008  5125
QIANFAN-166             
1 69383U 26124B   26191.66993275 -.02066959  00000+0 -15148+1 0  9997
2 69383  88.9990 359.3931 0004127 185.6716 174.4417 14.00023253  5132
QIANFAN-167             
1 69384U 26124C   26191.61640951 -.02054575  00000+0 -15940+1 0  9994
2 69384  88.9989 359.4032 0010543  88.8561 271.3824 13.96740612  5122
QIANFAN-168             
1 69385U 26124D   26191.66118632 -.02025132  00000+0 -15311+1 0  9995
2 69385  88.9990 359.3918 0008973  63.3144 296.8952 13.98157495  5134
QIANFAN-169             
1 69386U 26124E   26191.64913866 -.02019621  00000+0 -14962+1 0  9993
2 69386  88.9991 359.3916 0007038  82.6992 277.4986 13.99308061  5130
QIANFAN-170             
1 69387U 26124F   26191.70205056 -.02022480  00000+0 -14456+1 0  9991
2 69387  88.9987 359.3776 0002336  66.9598 293.1827 14.01348856  5143
QIANFAN-171             
1 69388U 26124G   26191.75945676  .00000140  00000+0  78754-4 0  9996
2 69388  88.9995 359.3686 0004322  95.0578 265.1097 14.04719145  5156
QIANFAN-172             
1 69389U 26124H   26191.69049970 -.01885892  00000+0 -13475+1 0  9995
2 69389  88.9990 359.3773 0004829 141.3426 218.8100 14.01084843  5144
QIANFAN-173             
1 69390U 26124J   26191.67586888 -.01977487  00000+0 -13927+1 0  9993
2 69390  88.9987 359.3751 0003528 207.0683 153.0313 14.02085665  5148
QIANFAN-174             
1 69391U 26124K   26191.73161678 -.01926854  00000+0 -13063+1 0  9990
2 69391  88.9988 359.3648 0002688 165.3952 194.7307 14.04117720  5141
QIANFAN-175             
1 69392U 26124L   26191.65907714 -.02015765  00000+0 -13979+1 0  9998
2 69392  88.9992 359.3721 0004784 156.3889 203.7512 14.03030975  5141
QIANFAN-176             
1 69393U 26124M   26191.65608786 -.02046766  00000+0 -14501+1 0  9993
2 69393  88.9993 359.3723 0000841 321.1727  38.9392 14.01896429  5133
QIANFAN-177             
1 69394U 26124N   26191.70595220 -.01967711  00000+0 -13394+1 0  9998
2 69394  88.9986 359.3607 0002499 219.1965 140.9035 14.03977771  5150
QIANFAN-178             
1 69395U 26124P   26191.63654340 -.01938512  00000+0 -13047+1 0  9992
2 69395  88.9988 359.3687 0003360 206.5248 153.5762 14.04546995  5140
QIANFAN-179             
1 69396U 26124Q   26191.76474765  .00000092  00000+0  44887-4 0  9998
2 69396  88.9995 359.3504 0005501  81.9716 278.2092 14.09290679  5164
QIANFAN-180             
1 69397U 26124R   26191.69059606 -.01982516  00000+0 -13367+1 0  9992
2 69397  88.9989 359.3589 0001267  10.1502 349.9705 14.04539786  5159
QIANFAN-181             
1 69398U 26124S   26191.69165515 -.02019398  00000+0 -15861+1 0  9991
2 69398  88.9986 359.3959 0009699  85.0160 275.2123 13.95972020  5130
QIANFAN-182             
1 69399U 26124T   26191.64768395 -.02045981  00000+0 -15400+1 0  9998
2 69399  88.9980 359.3894 0007184  67.7518 292.4421 13.98461223  5126
QIANFAN-183             
1 69401U 26125A   26191.54499700 -.01975721  00000+0 -14434+1 0  9992
2 69401  88.9945 277.8139 0015692 103.8588 256.4337 13.99961846  5009
QIANFAN-184             
1 69402U 26125B   26191.60279696 -.01885706  00000+0 -13659+1 0  9991
2 69402  88.9945 277.8048 0016787  97.4959 262.8128 14.00252505  5013
QIANFAN-185             
1 69403U 26125C   26191.75973762  .00000141  00000+0  78226-4 0  9997
2 69403  88.9950 277.7907 0018651  95.1359 265.1952 14.05242620  5039
QIANFAN-186             
1 69404U 26125D   26191.59020624 -.01824541  00000+0 -13374+1 0  9990
2 69404  88.9947 277.8028 0017165  97.5587 262.7542 14.00110111  5019
QIANFAN-187             
1 69405U 26125E   26191.57192685 -.01880254  00000+0 -13293+1 0  9999
2 69405  88.9945 277.7998 0014386  92.3966 267.8861 14.01624159  5012
QIANFAN-188             
1 69406U 26125F   26191.55006850 -.01805380  00000+0 -12656+1 0  9995
2 69406  88.9942 277.7967 0013271  95.2920 264.9775 14.02606056  5019
QIANFAN-189             
1 69407U 26125G   26191.56124661 -.01807550  00000+0 -12830+1 0  9993
2 69407  88.9946 277.7984 0014021  93.3819 266.8965 14.01908773  5004
QIANFAN-190             
1 69408U 26125H   26191.55566529 -.01986056  00000+0 -14437+1 0  9990
2 69408  88.9945 277.7983 0016675 103.3112 256.9927 14.00255424  5014
QIANFAN-191             
1 69409U 26125J   26191.53765971 -.01636778  00000+0 -11514+1 0  9997
2 69409  88.9944 277.7950 0014509  87.3664 272.9177 14.01999668  5016
QIANFAN-192             
1 69410U 26125K   26191.59885845 -.02103034  00000+0 -14224+1 0  9994
2 69410  88.9944 277.7858 0016703 110.4002 249.8975 14.04542694  5023
QIANFAN-193             
1 69411U 26125L   26191.59109326 -.01910009  00000+0 -13195+1 0  9991
2 69411  88.9945 277.7838 0012531 102.9432 257.3148 14.02992392  5029
QIANFAN-194             
1 69412U 26125M   26191.58586296 -.01899487  00000+0 -13196+1 0  9993
2 69412  88.9944 277.7822 0012152 103.8366 256.4167 14.02662196  5013
QIANFAN-195             
1 69413U 26125N   26191.57020608 -.01781984  00000+0 -11863+1 0  9994
2 69413  88.9946 277.7812 0015888  92.1220 268.1782 14.05422388  5027
QIANFAN-196             
1 69414U 26125P   26191.63751632 -.01978763  00000+0 -13235+1 0  9998
2 69414  88.9945 277.7731 0014723 101.8554 258.4280 14.04924922  5038
QIANFAN-197             
1 69415U 26125Q   26191.63045655 -.01964590  00000+0 -13080+1 0  9991
2 69415  88.9946 277.7725 0013193 102.8934 257.3722 14.05164579  5029
QIANFAN-198             
1 69416U 26125R   26191.64087002 -.02042033  00000+0 -13491+1 0  9991
2 69416  88.9947 277.7729 0015481 100.3778 259.9149 14.05734992  5030
QIANFAN-199             
1 69417U 26125S   26191.53742978 -.01705990  00000+0 -10684+1 0  9998
2 69417  88.9944 277.7767 0022223 102.1563 258.2112 14.08561722  5027
QIANFAN-200             
1 69418U 26125T   26191.54555854 -.02126345  00000+0 -14801+1 0  9992
2 69418  88.9942 277.7960 0012799 117.8691 242.3787 14.03011173  5019
