IRIDIUM 7               
1 24793U 97020B   26070.04938400  .00000467  00000+0  15361-3 0  9991
2 24793  86.3907  65.0264 0001995  80.8878 279.2545 14.36186030510198
IRIDIUM 5               
1 24795U 97020D   26070.22298035  .00005114  00000+0  39227-3 0  9997
2 24795  86.3892 320.2979 0099612 257.5020 101.5053 14.97650519525380
IRIDIUM 4               
1 24796U 97020E   26070.21327420  .00000496  00000+0  16039-3 0  9992
2 24796  86.3907  61.6542 0002172  84.7659 275.3787 14.37094724510813
IRIDIUM 914             
1 24836U 97030A   26070.23040373  .00000546  00000+0  16331-3 0  9990
2 24836  86.3877  69.4625 0003642  75.9933 284.1672 14.41162785645584
IRIDIUM 16              
1 24841U 97030F   26070.03668016  .00000410  00000+0  12655-3 0  9999
2 24841  86.3970  93.1884 0000064 101.2750 258.8455 14.38983655505372
IRIDIUM 911             
1 24842U 97030G   26070.03371797  .00000595  00000+0  15467-3 0  9995
2 24842  86.4394  91.6597 0011956 291.0736  68.9189 14.48018708513699
IRIDIUM 17              
1 24870U 97034B   26070.18526713  .00000409  00000+0  12835-3 0  9996
2 24870  86.3947 122.5656 0001857 138.4779 221.6560 14.38122356501954
IRIDIUM 920             
1 24871U 97034C   26070.16713656  .00000413  00000+0  12016-3 0  9995
2 24871  86.3921 101.1600 0009300 283.0390  76.9771 14.41824789505048
IRIDIUM 26              
1 24903U 97043A   26070.31958896  .00000553  00000+0  17859-3 0  9990
2 24903  86.4015 358.3357 0001943  84.2373 275.9046 14.37419444495116
IRIDIUM 22              
1 24907U 97043E   26070.26363443  .00000434  00000+0  14210-3 0  9992
2 24907  86.4018   2.1262 0002069  89.2114 270.9320 14.36198964495109
DUMMY MASS 1            
1 24925U 97048A   26070.28382759  .00000604  00000+0  63899-4 0  9997
2 24925  86.3388  11.7194 0004224 284.6794  75.3963 14.87278853544824
DUMMY MASS 2            
1 24926U 97048B   26070.29067134  .00000602  00000+0  64079-4 0  9995
2 24926  86.3387  13.3718 0005203 301.4516  58.6200 14.87028448544597
IRIDIUM 29              
1 24944U 97051A   26070.25792121  .00000501  00000+0  16345-3 0  9996
2 24944  86.3968  31.7498 0002300  90.2744 269.8717 14.36745452491610
IRIDIUM 33              
1 24946U 97051C   26070.25985725  .00000375  00000+0  12447-3 0  9990
2 24946  86.3885  31.0391 0005874 293.0374  67.0202 14.35102622491045
IRIDIUM 28              
1 24948U 97051E   26070.27250525  .00000515  00000+0  16515-3 0  9993
2 24948  86.3981  29.1104 0001667  80.8056 279.3330 14.37640142492215
IRIDIUM 36              
1 24967U 97056C   26070.05475873  .00000532  00000+0  17003-3 0  9992
2 24967  86.3917  60.8134 0001935  92.0907 268.0513 14.37874123490560
IRIDIUM 39              
1 25042U 97069D   26070.16547966  .00000687  00000+0  17290-3 0  9995
2 25042  86.3855  96.6858 0019411 129.8065 230.4853 14.49654078487630
IRIDIUM 38              
1 25043U 97069E   26070.18922250  .00000431  00000+0  13484-3 0  9999
2 25043  86.3944 120.9162 0001081  35.5742 324.5528 14.38414659484333
IRIDIUM 42              
1 25077U 97077A   26070.24672077  .00000392  00000+0  12653-3 0  9994
2 25077  86.3963 127.3995 0001845  74.9077 285.2324 14.36623622479535
IRIDIUM 44              
1 25078U 97077B   26070.17444531  .00000350  00000+0  10373-3 0  9990
2 25078  86.3921 108.6260 0001510 147.5302 212.5990 14.40512602482136
IRIDIUM 45              
1 25104U 97082A   26070.05882970  .00030926  00000+0  74947-3 0  9995
2 25104  86.3480 276.9564 0089608  43.0281 317.7931 15.36755505492818
IRIDIUM 24              
1 25105U 97082B   26070.21499175  .00000539  00000+0  15686-3 0  9997
2 25105  86.3939 327.0318 0009228 277.9854  82.0300 14.42442930481706
IRIDIUM 51              
1 25262U 98018A   26070.16913792  .01772157 -13959-5  13176-2 0  9999
2 25262  86.3455 279.6636 0015213 271.6349  88.3202 16.15212224488596
IRIDIUM 57              
1 25273U 98019B   26070.26278329  .00000485  00000+0  15983-3 0  9995
2 25273  86.3969  33.2338 0002033  86.9010 273.2420 14.36126685463113
IRIDIUM 63              
1 25286U 98021B   26070.21445072  .00000420  00000+0  13558-3 0  9993
2 25286  86.4020 330.1088 0002285  90.1201 270.0258 14.36826199462182
IRIDIUM 69              
1 25319U 98026A   26070.30443018  .00000584  00000+0  17442-3 0  9990
2 25319  86.4027 342.5123 0001728 161.1215 199.0049 14.41323534461535
IRIDIUM 71              
1 25320U 98026B   26070.28556560  .00000519  00000+0  15424-3 0  9992
2 25320  86.4022 337.1892 0000748  11.0951 349.0265 14.41408778462066
IRIDIUM 73              
1 25344U 98032C   26070.05497009  .00000555  00000+0  13199-3 0  9999
2 25344  86.4379 293.4654 0002321 105.0334 255.1129 14.52124054469286
IRIDIUM 82              
1 25467U 98051A   26070.19541021  .00094899  00000+0  11727-2 0  9993
2 25467  86.3593 336.2334 0046510 352.1502   7.9027 15.58475191465116
