ORBCOMM-X               
1 21576U 91050C   26105.89500018  .00000145  00000+0  55561-4 0  9996
2 21576  98.3002 170.7227 0003514  12.4125 347.7152 14.43544425825784
ORBCOMM FM01            
1 23545U 95017A   26105.93630285  .00003703  00000+0  34380-3 0  9994
2 23545  69.9627  36.3185 0006649 237.2022 122.8496 14.95252435657683
ORBCOMM FM02            
1 23546U 95017B   26105.24972240  .00004434  00000+0  38778-3 0  9996
2 23546  69.9623  55.7537 0008051 237.1024 122.9360 14.97440579657272
ORBCOMM FM08            
1 25112U 97084A   26105.07761573  .00000703  00000+0  23063-3 0  9995
2 25112  45.0152 357.1987 0006944 346.7424  13.3245 14.47102598485087
ORBCOMM FM10            
1 25113U 97084B   26105.10958937  .00000634  00000+0  21294-3 0  9999
2 25113  45.0166   0.0264 0005136 315.8902  44.1540 14.46823276660228
ORBCOMM FM11            
1 25114U 97084C   26104.96064657  .00000646  00000+0  21759-3 0  9999
2 25114  45.0151   1.9398 0005978 315.3587  44.6783 14.46557569485159
ORBCOMM FM12            
1 25115U 97084D   26105.40180623  .00000614  00000+0  20858-3 0  9996
2 25115  45.0156 359.5327 0004960 316.9295  43.1168 14.46588481485015
ORBCOMM FM09            
1 25116U 97084E   26105.39656914  .00000617  00000+0  21022-3 0  9993
2 25116  45.0162   0.8543 0006094 302.8431  57.1834 14.46406238485211
ORBCOMM FM05            
1 25117U 97084F   26105.08923499  .00000729  00000+0  23725-3 0  9991
2 25117  45.0162 357.0807 0002660 326.7457  33.3227 14.47215326484320
ORBCOMM FM06            
1 25118U 97084G   26105.42585477  .00000760  00000+0  24458-3 0  9999
2 25118  45.0154 354.8103 0001580 340.3030 189.4087 14.47403717485292
ORBCOMM FM07            
1 25119U 97084H   26105.40506636  .00000674  00000+0  22124-3 0  9990
2 25119  45.0150 355.6486 0003325 319.6169  40.4436 14.47405172485283
ORBCOMM FM03            
1 25158U 98007B   26105.61209453  .00000588  00000+0  24822-3 0  9990
2 25158 107.9617  37.2347 0042918  77.9562 282.6384 14.35389746467426
ORBCOMM FM04            
1 25159U 98007C   26105.68510314  .00000510  00000+0  22083-3 0  9991
2 25159 107.9609  40.8058 0038830  74.7482 285.7947 14.35612430467621
ORBCOMM FM17            
1 25413U 98046A   26105.79907593  .00000360  00000+0  17178-3 0  9990
2 25413  44.9940 268.6151 0002289 266.6734  93.3852 14.35815326446654
ORBCOMM FM18            
1 25414U 98046B   26105.89831491  .00000448  00000+0  18760-3 0  9990
2 25414  44.9918 177.1599 0003736 336.6294  23.4384 14.39540513447851
ORBCOMM FM19            
1 25415U 98046C   26105.91579124  .00000523  00000+0  21209-3 0  9992
2 25415  44.9929 179.5298 0002978 317.9567 209.5299 14.39371843447803
ORBCOMM FM20            
1 25416U 98046D   26105.90435926  .00000333  00000+0  15580-3 0  9997
2 25416  44.9931 186.8271 0001595 253.3233 106.7440 14.37973093447827
ORBCOMM FM16            
1 25417U 98046E   26105.86164268  .00000421  00000+0  17770-3 0  9992
2 25417  44.9924 174.3214 0003006 352.7491   7.3314 14.39935913447869
ORBCOMM FM15            
1 25418U 98046F   26105.56839036  .00000486  00000+0  19966-3 0  9992
2 25418  44.9958 181.7974 0002626 349.8851  10.1944 14.39558272447800
ORBCOMM FM14            
1 25419U 98046G   26105.91760548  .00000476  00000+0  19483-3 0  9996
2 25419  44.9946 177.4041 0002040 324.0220  36.0492 14.40001764447839
ORBCOMM FM13            
1 25420U 98046H   26105.89997278  .00000414  00000+0  18036-3 0  9992
2 25420  44.9964 188.6595 0004132 334.7302  25.3343 14.38532330446810
ORBCOMM FM21            
1 25475U 98053A   26105.91785372  .00000409  00000+0  18024-3 0  9994
2 25475  45.0081 275.0377 0000877 267.7374  92.3374 14.38088846440817
ORBCOMM FM22            
1 25476U 98053B   26105.85267909  .00000484  00000+0  19988-3 0  9992
2 25476  45.0073 267.5144 0002488 288.3967  71.6611 14.39337783440861
ORBCOMM FM23            
1 25477U 98053C   26105.80140993  .00000449  00000+0  19252-3 0  9996
2 25477  45.0080 277.1845 0001797 280.7181  79.3465 14.38361017440959
ORBCOMM FM24            
1 25478U 98053D   26105.81944118  .00000471  00000+0  19709-3 0  9991
2 25478  45.0079 273.1508 0001479 284.9129  75.1556 14.39016488441029
ORBCOMM FM25            
1 25479U 98053E   26105.86691589  .00000508  00000+0  20895-3 0  9997
2 25479  45.0069 271.2481 0003487 316.9574  43.1001 14.38976940441329
ORBCOMM FM26            
1 25480U 98053F   26105.81307275  .00000394  00000+0  17625-3 0  9990
2 25480  45.0067 270.3010 0005205 338.4701  21.5928 14.37893334441195
ORBCOMM FM27            
1 25481U 98053G   26105.77761422  .00000485  00000+0  20135-3 0  9995
2 25481  45.0052 271.7499 0000528 204.1625 155.9199 14.39022001441248
ORBCOMM FM28            
1 25482U 98053H   26105.02237326  .00000509  00000+0  20865-3 0  9992
2 25482  45.0049 212.5141 0002836   0.2287 359.8563 14.39109627441829
ORBCOMM FM30            
1 25980U 99065A   26105.69931451  .00000380  00000+0  17094-3 0  9999
2 25980  45.0308  96.9670 0004399  72.6925 287.4405 14.38056063377989
ORBCOMM FM31            
1 25981U 99065B   26105.96539210  .00000391  00000+0  17474-3 0  9991
2 25981  45.0221  89.1428 0001660 111.8621 248.2404 14.37974956377574
ORBCOMM FM32            
1 25982U 99065C   26105.30717219  .00000358  00000+0  16721-3 0  9994
2 25982  45.0144 110.8515 0003671 104.7239 255.4016 14.37036402378045
ORBCOMM FM33            
1 25983U 99065D   26105.41978475  .00000406  00000+0  16968-3 0  9997
2 25983  45.0300   1.0623 0007425 139.8237 220.3162 14.40870221379648
ORBCOMM FM36            
1 25984U 99065E   26105.97886474  .00000568  00000+0  22776-3 0  9999
2 25984  45.0383  94.8789 0003753 344.6128  15.4607 14.39079031378024
ORBCOMM FM35            
1 25985U 99065F   26105.69885688  .00000437  00000+0  19011-3 0  9998
2 25985  45.0384 103.7494 0001329 116.7281 243.3704 14.37960891378317
ORBCOMM FM34            
1 25986U 99065G   26105.95008696  .00000357  00000+0  16406-3 0  9990
2 25986  45.0380 103.0962 0002687  25.4590 334.6391 14.37856975378463
ORBCOMM FM38            
1 33060U 08031A   26105.92138724  .00000702  00000+0  11237-3 0  9999
2 33060  48.4407 310.8089 0005006 265.0083  95.0262 14.82890770959659
ORBCOMM FM41            
1 33061U 08031B   26105.97414429  .00000689  00000+0  11197-3 0  9993
2 33061  48.4445 319.4396 0004236 249.7713 252.5323 14.82417558959131
ORBCOMM FM29            
1 33062U 08031C   26105.90594639  .00000693  00000+0  11206-3 0  9995
2 33062  48.4398 327.1232 0005831 249.4566 123.9523 14.82597070959040
ORBCOMM FM39            
1 33063U 08031D   26105.91165354  .00000599  00000+0  10417-3 0  9993
2 33063  48.4417 354.8979 0006619 220.0825 139.9603 14.80957919958647
ORBCOMM FM37            
1 33064U 08031E   26105.93060189  .00000584  00000+0  10174-3 0  9990
2 33064  48.4409 342.8636 0005315 239.6799 240.2375 14.81148530958907
ORBCOMM FM40            
1 33065U 08031F   26105.01208250  .00000939  00000+0  13831-3 0  9990
2 33065  48.4426 325.7667 0006334 252.1432 269.8809 14.83837562958953
VESSELSAT 1             
1 37840U 11058C   26105.97460399  .00000318  00000+0  28852-4 0  9998
2 37840  19.9624  61.6029 0013463 277.3679  82.5195 14.11428142749139
ORBCOMM FM109           
1 40086U 14040A   26105.49919419  .00000206  00000+0  79923-4 0  9998
2 40086  47.0046  27.8537 0002286 294.7229  65.3418 14.58777698625198
ORBCOMM FM107           
1 40087U 14040B   26105.92258070  .00000184  00000+0  75158-4 0  9997
2 40087  47.0063  26.6843 0001400 253.3668 106.7064 14.58865006625334
ORBCOMM FM106           
1 40088U 14040C   26105.50254014  .00000287  00000+0  78309-4 0  9991
2 40088  47.0595 186.1908 0015757  29.7600 330.4185 14.70389207627958
ORBCOMM FM111           
1 40089U 14040D   26105.08507801  .00001172  00000+0  14754-3 0  9997
2 40089  47.0029 356.0985 0028728 201.5397 158.4294 14.88550813635173
ORBCOMM FM104           
1 40090U 14040E   26105.21889436  .00000164  00000+0  73402-4 0  9997
2 40090  47.0050  67.2989 0015411 147.7274 212.4557 14.57215882624669
ORBCOMM FM103           
1 40091U 14040F   26105.91281213  .00000191  00000+0  76662-4 0  9995
2 40091  47.0066  27.4800 0001993 246.2466 113.8211 14.58768678608294
ORBCOMM FM114           
1 41179U 15081A   26105.92783003  .00000206  00000+0  79956-4 0  9990
2 41179  47.0050 296.3432 0002689 271.0127  89.0451 14.58787899548666
ORBCOMM FM119           
1 41180U 15081B   26105.58612288  .00000181  00000+0  74580-4 0  9990
2 41180  46.9997 207.3187 0001234 305.9493  54.1278 14.58729158549860
ORBCOMM FM105           
1 41181U 15081C   26105.79009552  .00000048  00000+0  57856-4 0  9997
2 41181  47.0012 241.0174 0002410 239.9441 120.1201 14.45523529544526
ORBCOMM FM110           
1 41182U 15081D   26105.84828114  .00000243  00000+0  87750-4 0  9990
2 41182  47.0023 296.1791 0002848 155.2195 204.8828 14.58806901548527
ORBCOMM FM118           
1 41183U 15081E   26105.26655049  .00000255  00000+0  90271-4 0  9997
2 41183  47.0046 299.2527 0002617 109.1673 250.9496 14.58803816548544
ORBCOMM FM112           
1 41184U 15081F   26105.54341114  .00000301  00000+0  10010-3 0  9998
2 41184  46.9986 206.4261 0002763 266.1991  93.8579 14.58801721549809
ORBCOMM FM113           
1 41185U 15081G   26105.58926940  .00000175  00000+0  73361-4 0  9997
2 41185  47.0001 206.5840 0002318 271.3684  88.6936 14.58790265549794
ORBCOMM FM115           
1 41186U 15081H   26105.55332609  .00000280  00000+0  87924-4 0  9995
2 41186  46.9994  40.7321 0001225 339.2560  20.8277 14.63187817552046
ORBCOMM FM108           
1 41187U 15081J   26105.75733360  .00000185  00000+0  75418-4 0  9996
2 41187  47.0037 117.3421 0003705 272.7766  87.2696 14.58805762550964
ORBCOMM FM117           
1 41188U 15081K   26105.72276028  .00000161  00000+0  70385-4 0  9999
2 41188  47.0000 116.1588 0004133 277.4729  82.5687 14.58800715551000
ORBCOMM FM116           
1 41189U 15081L   26105.56668341  .00000308  00000+0  10144-3 0  9994
2 41189  47.0018 206.6864 0001528 171.1149 188.9764 14.58798346549799
