ORBCOMM FM06            
1 25118U 97084G   26125.41702346  .00001630  00000+0  47889-3 0  9996
2 25118  45.0139 258.5923 0000910 176.5702 223.8213 14.47459314488196
ORBCOMM FM04            
1 25159U 98007C   26125.82241453  .00001082  00000+0  41662-3 0  9993
2 25159 107.9622  82.2363 0039661  38.6132 321.7833 14.35656850470510
ORBCOMM FM19            
1 25415U 98046C   26125.95022417  .00001052  00000+0  38042-3 0  9997
2 25415  44.9934  84.3129 0001892  62.2492 340.6579 14.39413085450690
ORBCOMM FM20            
1 25416U 98046D   26125.63504927  .00000779  00000+0  30172-3 0  9995
2 25416  44.9934  93.2677 0001462 310.2067  49.8653 14.38002752450667
ORBCOMM FM27            
1 25481U 98053G   26126.18807193  .00000754  00000+0  28749-3 0  9997
2 25481  45.0040 174.8219 0001914 261.3003  98.7629 14.39060620444180
ORBCOMM FM32            
1 25982U 99065C   26126.09348865  .00000747  00000+0  29680-3 0  9990
2 25982  45.0172  12.4751 0005099 210.9965 149.0583 14.37072780381036
ORBCOMM FM109           
1 40086U 14040A   26125.49834248  .00000486  00000+0  13919-3 0  9998
2 40086  47.0037 293.3092 0001182   9.2898 350.8010 14.58800604628118
ORBCOMM FM114           
1 41179U 15081A   26126.20078492  .00000383  00000+0  11729-3 0  9992
2 41179  47.0041 200.5035 0002132 339.8624  20.2177 14.58812138551627
ORBCOMM FM110           
1 41182U 15081D   26126.18952208  .00000623  00000+0  16821-3 0  9994
2 41182  47.0011 200.0094 0003968 246.3034 113.7435 14.58815650551495
ORBCOMM FM118           
1 41183U 15081E   26126.22411124  .00000627  00000+0  16905-3 0  9994
2 41183  47.0036 200.1723 0003712 215.3769 144.6871 14.58837351551603
ORBCOMM FM112           
1 41184U 15081F   26125.95427588  .00000707  00000+0  18683-3 0  9999
2 41184  46.9977 109.9332 0002110  11.8807 348.2128 14.58561471552785
ORBCOMM FM113           
1 41185U 15081G   26125.99919030  .00000410  00000+0  12297-3 0  9998
2 41185  46.9994 110.0884 0001771 340.6586  19.4232 14.58811338552771
ORBCOMM FM108           
1 41187U 15081J   26126.09875112  .00000756  00000+0  19638-3 0  9993
2 41187  47.0065  21.1794 0002731 353.5592   6.5259 14.58810212553938
ORBCOMM FM117           
1 41188U 15081K   26126.13267789  .00000742  00000+0  19353-3 0  9993
2 41188  47.0030  19.6658 0003109   1.6468 358.4427 14.58808650553989
ORBCOMM FM116           
1 41189U 15081L   26125.97646081  .00000299  00000+0  99616-4 0  9999
2 41189  47.0011 110.1928 0002413 253.0916 106.9706 14.58819918552775
