EUTELSAT 174A           
1 28924U 05052A   26214.63338522  .00000015  00000+0  00000+0 0  9998
2 28924   4.3301  75.9426 0006098  55.3785 221.9032  1.00270006 52795
EUTELSAT 33F            
1 29270U 06032A   26214.52750801  .00000163  00000+0  00000+0 0  9992
2 29270   1.7755  81.7087 0003272  47.7681  44.6368  1.00274388 47774
EUTELSAT HOTBIRD 13C    
1 33459U 08065A   26214.51095459 -.00000276  00000+0  00000+0 0  9990
2 33459   3.0635  78.6310 0003238  62.3501 303.7550  1.00270129 47816
EUTELSAT 36B            
1 36101U 09065A   26214.60223878  .00000120  00000+0  00000+0 0  9993
2 36101   0.6021  81.3717 0005969  50.4403  86.6707  1.00270791 61170
EUTELSAT KA-SAT 9A      
1 37258U 10069A   26214.59405844  .00000070  00000+0  00000+0 0  9990
2 37258   0.0652   3.6593 0004948 150.1638  20.2021  1.00272888 44477
EUTELSAT 7 WEST A       
1 37816U 11051A   26214.17059104 -.00000053  00000+0  00000+0 0  9992
2 37816   0.0683  25.8012 0005048 114.8724 224.2010  1.00272542 54335
EUTELSAT 16A            
1 37836U 11057A   26214.59544510  .00000112  00000+0  00000+0 0  9991
2 37836   0.0433  32.9994 0005645  97.6961  50.8355  1.00270188  7801
EUTELSAT 21B            
1 38992U 12062B   26214.52525466  .00000138  00000+0  00000+0 0  9992
2 38992   0.0691 344.4947 0003023 146.8243  30.4614  1.00270632 50295
EUTELSAT 70B            
1 39020U 12069A   26214.60622547 -.00000035  00000+0  00000+0 0  9996
2 39020   0.0638  12.7016 0003442 117.8761 109.3301  1.00271580 49974
EUTELSAT 117 WEST A     
1 39122U 13012A   26214.59951486 -.00000005  00000+0  00000+0 0  9990
2 39122   0.0094  45.4785 0002902  89.9636 274.7642  1.00271168 48896
EUTELSAT 7B             
1 39163U 13022A   26214.13447715  .00000055  00000+0  00000+0 0  9995
2 39163   0.0705 338.2457 0002754  77.7441 310.1455  1.00271117 48401
EXPRESS-AT1             
1 39612U 14010A   26214.60579213 -.00000026  00000+0  00000+0 0  9992
2 39612   0.3715  85.2906 0004966  59.3277  93.1819  1.00312907 45280
EXPRESS-AT2             
1 39613U 14010B   26214.17564404  .00000086  00000+0  00000+0 0  9996
2 39613   0.0074  32.7120 0000188 131.7651 265.5340  1.00274874 44951
EUTELSAT 3B             
1 39773U 14030A   26214.16503061  .00000027  00000+0  00000+0 0  9991
2 39773   0.0633  10.7972 0004084 120.7282 241.7360  1.00272342 44526
EUTELSAT 115 WEST B     
1 40425U 15010B   26214.35567238 -.00000017  00000+0  00000+0 0  9993
2 40425   0.0149 201.2028 0000312 345.5025 137.3817  1.00270514 41843
EUTELSAT 8 WEST B       
1 40875U 15039B   26214.59067841 -.00000058  00000+0  00000+0 0  9999
2 40875   0.0653 350.3059 0003671 135.9673  29.5442  1.00271567 40128
EUTELSAT 9B             
1 41310U 16005A   26214.59405844  .00000070  00000+0  00000+0 0  9990
2 41310   0.0394  68.2414 0001159  80.8721  24.9171  1.00272628 38580
EUTELSAT 65 WEST A      
1 41382U 16014A   26214.50800792 -.00000268  00000+0  00000+0 0  9991
2 41382   0.0656 311.5493 0002421 176.0344 301.2092  1.00272878 37986
EUTELSAT 117 WEST B     
1 41589U 16038B   26214.35523904 -.00000003  00000+0  00000+0 0  9993
2 41589   0.0161 220.8957 0000223 354.0888 106.8423  1.00269338 37122
EUTELSAT 172B           
1 42741U 17029B   26214.42632297  .00000002  00000+0  00000+0 0  9997
2 42741   0.0261 124.0268 0000113   1.8579 150.6093  1.00271361 34201
EUTELSAT 7C             
1 44334U 19034B   26214.13447715  .00000056  00000+0  00000+0 0  9991
2 44334   0.0780 182.3801 0003524 295.4199 248.3354  1.00273425  7292
EUTELSAT 5 WEST B       
1 44624U 19067A   26214.59128509 -.00000034  00000+0  00000+0 0  9993
2 44624   0.0913 307.3240 0003236 186.8656  24.8417  1.00271973 24897
EUTELSAT KONNECT        
1 45027U 20005B   26213.31050065  .00000055  00000+0  00000+0 0  9997
2 45027   0.0645  96.9605 0001757 120.7128 211.2384  1.00269093 24783
EUTELSAT QUANTUM        
1 49056U 21069B   26214.60171878  .00000134  00000+0  00000+0 0  9991
2 49056   0.0088  35.4910 0002396  99.7344  80.2838  1.00273518 18397
EUTELSAT KONNECT VHTS   
1 53765U 22110A   26214.16503061  .00000024  00000+0  00000+0 0  9993
2 53765   0.0546 100.8846 0003037   4.8399 267.1616  1.00269214  7298
EUTELSAT HOTBIRD 13F    
1 54048U 22134A   26214.59483844  .00000095  00000+0  00000+0 0  9995
2 54048   0.0560 277.2044 0001851  84.2133 176.9228  1.00271245 13849
EUTELSAT HOTBIRD 13G    
1 54225U 22146A   26214.59483844  .00000095  00000+0  00000+0 0  9995
2 54225   0.0480 243.5027 0002193 295.3103 359.5116  1.00271427  7936
EUTELSAT 10B            
1 54259U 22157A   26214.15947825  .00000076  00000+0  00000+0 0  9999
2 54259   0.0551  97.9362 0001410  18.3287 261.9140  1.00274657 13480
EUTELSAT 36D            
1 59346U 24059A   26213.33517091  .00000000  00000+0  00000+0 0  9998
2 59346   0.0227  95.4960 0000133 138.8403 232.1184  1.00270124  8609
