GLOBALSTAR M069         
1 31573U 07020C   26241.17145061 -.00000099  00000+0 -57417-4 0  9995
2 31573  52.0041  45.5496 0001131 316.6404 216.4535 12.23473197887734
GLOBALSTAR M072         
1 31574U 07020D   26241.28257860 -.00000075  00000+0  12515-3 0  9991
2 31574  51.9915 265.6483 0001374  96.4357 346.6369 11.91659951883693
GLOBALSTAR M066         
1 32265U 07048C   26241.11259903 -.00000098  00000+0 -31627-4 0  9993
2 32265  51.9572 208.5641 0004557 193.7328 248.5519 12.30391401869202
GLOBALSTAR M079         
1 37188U 10054A   26241.22760029 -.00000111  00000+0 -40999-4 0  9999
2 37188  52.0019 246.3260 0000449 125.9199 315.4350 12.62267250731771
GLOBALSTAR M074         
1 37189U 10054B   26241.17410124 -.00000106  00000+0 -13934-4 0  9995
2 37189  51.9997 245.7439 0000150  93.7880 343.6158 12.62262997732373
GLOBALSTAR M076         
1 37190U 10054C   26241.26554685 -.00000100  00000+0  20680-4 0  9997
2 37190  52.0016 245.6750 0000304 150.2614 222.8866 12.62263470732101
GLOBALSTAR M077         
1 37191U 10054D   26241.09030657 -.00000067  00000+0  20368-3 0  9991
2 37191  51.9993 354.2567 0002238 313.9115 218.1682 11.67547482729651
GLOBALSTAR M075         
1 37192U 10054E   26241.29259689 -.00000080  00000+0  13145-3 0  9992
2 37192  51.9948 287.6063 0000435  99.4642 337.8329 12.62260366731176
GLOBALSTAR M073         
1 37193U 10054F   26241.19961562 -.00000117  00000+0 -73438-4 0  9996
2 37193  52.0043 202.0424 0000323 107.7739 265.1707 12.62267810733157
GLOBALSTAR M083         
1 37739U 11033A   26241.05441712 -.00000080  00000+0  13247-3 0  9994
2 37739  51.9850 150.6151 0000529  94.0931 278.8741 12.62258633702150
GLOBALSTAR M088         
1 37740U 11033B   26241.22159998 -.00000100  00000+0  18972-4 0  9991
2 37740  52.0215  56.7071 0000779  83.6326  89.4805 12.62270182697710
GLOBALSTAR M091         
1 37741U 11033C   26240.75201312 -.00000109  00000+0 -29731-4 0  9992
2 37741  52.0017  20.9956 0000902  97.5277  40.6170 12.62264586698449
GLOBALSTAR M085         
1 37742U 11033D   26240.98380637 -.00000081  00000+0  12523-3 0  9994
2 37742  52.0151 331.6485 0000811 108.6063  63.2583 12.62264804698985
GLOBALSTAR M081         
1 37743U 11033E   26240.68849765 -.00000091  00000+0  72029-4 0  9993
2 37743  51.9984 334.9000 0000629 118.0278  31.4252 12.62265828699097
GLOBALSTAR M089         
1 37744U 11033F   26240.56982258 -.00000073  00000+0  17294-3 0  9998
2 37744  51.9932 289.4080 0000140 121.3601  29.7490 12.62263106699921
GLOBALSTAR M084         
1 38040U 11080A   26241.02764581 -.00000085  00000+0  10271-3 0  9990
2 38040  52.0001 155.5300 0000285  51.7195 320.8426 12.62270247677960
GLOBALSTAR M080         
1 38041U 11080B   26241.07868958 -.00000092  00000+0  67974-4 0  9990
2 38041  52.0052 157.1211 0000960  64.0020 308.8339 12.62258350678095
GLOBALSTAR M082         
1 38042U 11080C   26240.93532931 -.00000071  00000+0  18411-3 0  9992
2 38042  52.0067 113.0632 0000923  80.4203 292.4618 12.62262514678785
GLOBALSTAR M092         
1 38043U 11080D   26241.08219147 -.00000107  00000+0 -20678-4 0  9991
2 38043  52.0073 203.0170 0000317  61.4415  18.2291 12.62268240677255
GLOBALSTAR M090         
1 38044U 11080E   26240.88294771 -.00000068  00000+0  19928-3 0  9995
2 38044  52.0114 107.2018 0000905  89.3293 284.1102 12.62268082678894
GLOBALSTAR M086         
1 38045U 11080F   26241.01085771 -.00000078  00000+0  14211-3 0  9991
2 38045  51.9887 106.6217 0000836 172.6655 329.2533 12.62288734678856
GLOBALSTAR M097         
1 39072U 13005A   26240.77451819 -.00000114  00000+0 -55060-4 0  9993
2 39072  52.0065  22.3703 0000887 100.3766 259.7201 12.62271370626072
GLOBALSTAR M093         
1 39073U 13005B   26240.74793084 -.00000105  00000+0 -64159-5 0  9994
2 39073  52.0129  15.8283 0000987 112.6686 247.4285 12.62266810626026
GLOBALSTAR M094         
1 39074U 13005C   26240.51028468 -.00000078  00000+0  14430-3 0  9990
2 39074  51.9961 290.6006 0000591 125.1199 234.9723 12.62264546627601
GLOBALSTAR M096         
1 39075U 13005D   26240.99867635 -.00000087  00000+0  91308-4 0  9990
2 39075  52.0103 337.9685 0000835 106.5715 253.5243 12.62263973626581
GLOBALSTAR M078         
1 39076U 13005E   26240.49705426 -.00000105  00000+0 -44465-5 0  9990
2 39076  51.9869  63.4066 0001655  74.4664 285.6385 12.62260274625145
GLOBALSTAR M095         
1 39077U 13005F   26241.23630313 -.00000104  00000+0 -20186-5 0  9999
2 39077  52.0077  58.8610 0001222  92.0463 268.0544 12.62264571625095
GLOBALSTAR M087         
1 52888U 22064A   26241.17022780 -.00000113  00000+0 -52248-4 0  9998
2 52888  51.9978 200.2601 0000533  88.4135 271.6793 12.62262613200359
