IRIDIUM 106             
1 41917U 17003A   26205.63095243  .00000008  00000+0 -40539-5 0  9994
2 41917  86.3928  72.8967 0002300  92.7828 267.3631 14.34217498498574
IRIDIUM 103             
1 41918U 17003B   26205.47872920  .00000029  00000+0  33543-5 0  9991
2 41918  86.3932  72.8605 0001991  88.3597 271.7827 14.34217663498578
IRIDIUM 109             
1 41919U 17003C   26205.62460933  .00000090  00000+0  25026-4 0  9990
2 41919  86.3934  72.8595 0002159  86.5632 273.5811 14.34218005498569
IRIDIUM 102             
1 41920U 17003D   26205.59289555  .00000180  00000+0  57095-4 0  9998
2 41920  86.3930  72.7960 0002271  84.7672 275.3783 14.34217385498648
IRIDIUM 105             
1 41921U 17003E   26205.55149121  .00000231  00000+0  75247-4 0  9995
2 41921  86.3941  41.2398 0002035  85.2487 274.8942 14.34217275500491
IRIDIUM 104             
1 41922U 17003F   26205.60558042  .00000062  00000+0  15009-4 0  9990
2 41922  86.3932  72.8334 0001872  82.9194 277.2214 14.34218000498637
IRIDIUM 114             
1 41923U 17003G   26205.61192241  .00000058  00000+0  13809-4 0  9998
2 41923  86.3932  72.8139 0002019  86.9574 273.1853 14.34218333498612
IRIDIUM 108             
1 41924U 17003H   26205.50067687  .00000037  00000+0  59984-5 0  9994
2 41924  86.3935  41.1494 0002231  86.4906 273.6545 14.34217697500450
IRIDIUM 112             
1 41925U 17003J   26205.18062772  .00000059  00000+0  13894-4 0  9992
2 41925  86.3928  72.8348 0002103  84.7634 275.3802 14.34217851498575
IRIDIUM 111             
1 41926U 17003K   26205.58655380  .00000024  00000+0  16602-5 0  9993
2 41926  86.3930  72.7362 0002163  87.1856 272.9587 14.34217595498616
IRIDIUM 113             
1 42803U 17039A   26205.28744429  .00000009  00000+0 -38164-5 0  9998
2 42803  86.3991 306.6744 0002038  93.9682 266.1747 14.34217471476504
IRIDIUM 123             
1 42804U 17039B   26205.39869112  .00000122  00000+0  36665-4 0  9996
2 42804  86.4000 338.0837 0002212  96.7298 263.4150 14.34218441475287
IRIDIUM 120             
1 42805U 17039C   26205.35087033  .00000021  00000+0  32738-6 0  9994
2 42805  86.3981 306.4254 0002458  96.8428 263.3047 14.34217875476505
IRIDIUM 115             
1 42806U 17039D   26205.34925029  .00000319  00000+0  88944-4 0  9998
2 42806  86.4518 306.5600 0002376  99.0016 261.1454 14.43281912479623
IRIDIUM 118             
1 42807U 17039E   26205.63970972 -.00000005  00000+0 -86709-5 0  9990
2 42807  86.4001 337.9812 0002091  92.3982 267.7453 14.34217591475311
IRIDIUM 117             
1 42808U 17039F   26205.44943193  .00000017  00000+0 -94099-6 0  9999
2 42808  86.4001 338.0178 0002183  94.8138 265.3307 14.34217632475319
IRIDIUM 126             
1 42809U 17039G   26205.40503374  .00000133  00000+0  40589-4 0  9990
2 42809  86.4001 338.0880 0002088  94.7485 265.3949 14.34218284475280
IRIDIUM 124             
1 42810U 17039H   26205.49103906  .00000234  00000+0  63509-4 0  9997
2 42810  86.4474 274.7620 0002335  97.0975 263.0491 14.43277328480499
IRIDIUM 128             
1 42811U 17039J   26205.46554122  .00000268  00000+0  88810-4 0  9994
2 42811  86.3972   9.5604 0002313  93.9498 266.1963 14.34218260475323
IRIDIUM 121             
1 42812U 17039K   26205.42406193  .00000020  00000+0  18272-6 0  9998
2 42812  86.4003 338.1081 0002264  93.1540 266.9915 14.34217776475163
IRIDIUM 133             
1 42955U 17061A   26205.49725360  .00000124  00000+0  37236-4 0  9992
2 42955  86.3976   9.6661 0002217  91.8649 268.2801 14.34218194460120
IRIDIUM 100             
1 42956U 17061B   26205.49091065  .00000052  00000+0  11388-4 0  9991
2 42956  86.3974   9.5863 0002221  90.9287 269.2163 14.34218357460128
IRIDIUM 122             
1 42957U 17061C   26205.45919807  .00000233  00000+0  76067-4 0  9997
2 42957  86.3975   9.6000 0002129  92.2695 267.8745 14.34218718460120
IRIDIUM 129             
1 42958U 17061D   26205.48457271  .00000231  00000+0  75280-4 0  9997
2 42958  86.3976   9.6566 0002040  87.4569 272.6860 14.34218099460143
IRIDIUM 119             
1 42959U 17061E   26205.45285717  .00000208  00000+0  67172-4 0  9994
2 42959  86.3975   9.6659 0002084  91.4312 268.7122 14.34218694460154
IRIDIUM 107             
1 42960U 17061F   26205.47188267  .00000175  00000+0  55260-4 0  9998
2 42960  86.3977   9.6794 0002244  98.7980 261.3470 14.34218807460169
IRIDIUM 132             
1 42961U 17061G   26205.47822636  .00000225  00000+0  73235-4 0  9992
2 42961  86.3986   9.6573 0001943  84.3263 275.8155 14.34215842460161
IRIDIUM 136             
1 42962U 17061H   26205.44016985  .00000207  00000+0  67024-4 0  9991
2 42962  86.3982   9.6787 0002206  90.3254 269.8195 14.34218456460177
IRIDIUM 139             
1 42963U 17061J   26205.44651140  .00000184  00000+0  58804-4 0  9990
2 42963  86.3978   9.7387 0002270  91.5724 268.5732 14.34219650460187
IRIDIUM 125             
1 42964U 17061K   26205.50359458  .00000253  00000+0  83140-4 0  9993
2 42964  86.3970   9.7753 0001887 102.2071 257.9337 14.34217527460202
IRIDIUM 135             
1 43070U 17083A   26205.33818480  .00000037  00000+0  61948-5 0  9995
2 43070  86.3985 306.4873 0002277  94.7021 265.4435 14.34217930449478
IRIDIUM 138             
1 43071U 17083B   26205.36355432  .00000104  00000+0  30000-4 0  9991
2 43071  86.3999 306.1779 0002114  96.8473 263.2963 14.34218041449465
IRIDIUM 116             
1 43072U 17083C   26205.54114872  .00000217  00000+0  70320-4 0  9997
2 43072  86.3989 306.3886 0002473  95.7192 264.4286 14.34217151449529
IRIDIUM 130             
1 43073U 17083D   26205.36989807 -.00000055  00000+0 -26731-4 0  9995
2 43073  86.3991 306.7386 0002307 100.3139 259.8317 14.34217503449447
IRIDIUM 151             
1 43074U 17083E   26205.55383291  .00000172  00000+0  54223-4 0  9997
2 43074  86.3986 306.4414 0002284  95.4235 264.7221 14.34217607449495
IRIDIUM 134             
1 43075U 17083F   26205.52211974  .00000023  00000+0  10972-5 0  9992
2 43075  86.3988 306.4631 0002272  96.7290 263.4164 14.34217867449457
IRIDIUM 137             
1 43076U 17083G   26205.32550059  .00000023  00000+0  10246-5 0  9995
2 43076  86.3988 306.6388 0002618  89.0874 271.0622 14.34217807449498
IRIDIUM 141             
1 43077U 17083H   26205.52846156  .00000165  00000+0  51871-4 0  9999
2 43077  86.3984 306.3825 0002150  93.8796 266.2646 14.34218848449527
IRIDIUM 153             
1 43078U 17083J   26205.27133566  .00000010  00000+0 -34647-5 0  9999
2 43078  86.3950 274.9672 0002163  96.6716 263.4726 14.34217633450596
IRIDIUM 131             
1 43079U 17083K   26205.51577730  .00000034  00000+0  49625-5 0  9999
2 43079  86.3990 306.5763 0002215  93.4158 266.7292 14.34217923449456
IRIDIUM 144             
1 43249U 18030A   26205.20790969  .00000103  00000+0  29545-4 0  9993
2 43249  86.3948 274.9220 0002424  95.4001 264.7471 14.34218142435440
IRIDIUM 149             
1 43250U 18030B   26205.21425221  .00000049  00000+0  10291-4 0  9999
2 43250  86.3946 274.8858 0002253  94.3350 265.8103 14.34217950435463
IRIDIUM 157             
1 43251U 18030C   26205.23328026  .00000015  00000+0 -16521-5 0  9994
2 43251  86.3949 274.9319 0002166  95.1305 265.0139 14.34217728435444
IRIDIUM 140             
1 43252U 18030D   26205.60115068 -.00000004  00000+0 -86069-5 0  9999
2 43252  86.3949 274.7907 0002172  96.3375 263.8068 14.34217722435556
IRIDIUM 145             
1 43253U 18030E   26205.51869733  .00000103  00000+0  29869-4 0  9997
2 43253  86.3948 274.7973 0002611  96.4800 263.6693 14.34218217435474
IRIDIUM 146             
1 43254U 18030F   26205.29036411  .00000069  00000+0  17412-4 0  9994
2 43254  86.3949 274.9049 0002382  95.0971 265.0497 14.34218002435459
IRIDIUM 148             
1 43255U 18030G   26205.60749345 -.00000009  00000+0 -10165-4 0  9991
2 43255  86.3950 274.8158 0002196  92.7089 267.4358 14.34217687435538
IRIDIUM 142             
1 43256U 18030H   26205.50601094  .00000200  00000+0  64278-4 0  9994
2 43256  86.3946 274.7460 0002456  94.7064 265.4412 14.34219090435486
IRIDIUM 150             
1 43257U 18030J   26205.26499370  .00000092  00000+0  25701-4 0  9997
2 43257  86.3948 274.9643 0002355  95.7725 264.3739 14.34217949435477
IRIDIUM 143             
1 43258U 18030K   26205.59480833  .00000013  00000+0 -25853-5 0  9991
2 43258  86.3952 274.9204 0002370  95.2864 264.8603 14.34217740435454
IRIDIUM 161             
1 43478U 18047C   26205.33033366  .00000279  00000+0  77036-4 0  9992
2 43478  86.4452  72.9354 0002115  81.4599 278.6842 14.43279380430490
IRIDIUM 152             
1 43479U 18047D   26205.63729442 -.00000011  00000+0 -10889-4 0  9992
2 43479  86.3923  72.6681 0001942  85.0287 275.1130 14.34217393427858
IRIDIUM 147             
1 43480U 18047E   26205.36456341  .00000008  00000+0 -42245-5 0  9996
2 43480  86.3925  72.7881 0002201  86.9127 273.2320 14.34217451427818
IRIDIUM 110             
1 43481U 18047F   26205.58021022  .00000103  00000+0  29782-4 0  9990
2 43481  86.3930  72.7912 0001971  79.0323 281.1094 14.34217160427839
IRIDIUM 162             
1 43482U 18047G   26205.39335211  .00000294  00000+0  81394-4 0  9996
2 43482  86.4451  72.7997 0002172  87.0645 273.0805 14.43282317430494
IRIDIUM 160             
1 43569U 18061A   26205.52604669  .00000709  00000+0  24601-3 0  9997
2 43569  86.3937  41.1770 0002338  86.0005 274.1458 14.34218431418724
IRIDIUM 166             
1 43570U 18061B   26205.55141944 -.00000038  00000+0 -20811-4 0  9991
2 43570  86.3932  41.1163 0002158  88.8445 271.2998 14.34216788418758
IRIDIUM 158             
1 43571U 18061C   26205.10109343  .00000189  00000+0  60306-4 0  9998
2 43571  86.3938  41.3147 0002186  88.6763 271.4684 14.34217663418657
IRIDIUM 165             
1 43572U 18061D   26205.54507476  .00000213  00000+0  68904-4 0  9996
2 43572  86.3928  41.1768 0002596 111.2727 248.8746 14.34216766418742
IRIDIUM 155             
1 43573U 18061E   26205.50701910  .00000009  00000+0 -38340-5 0  9998
2 43573  86.3934  41.0593 0002176  91.1874 268.9571 14.34217570418707
IRIDIUM 154             
1 43574U 18061F   26205.48799181  .00000155  00000+0  48188-4 0  9994
2 43574  86.3939  41.2027 0002340  89.0567 271.0897 14.34217579418755
IRIDIUM 163             
1 43575U 18061G   26205.53873262  .00000130  00000+0  39421-4 0  9997
2 43575  86.3935  41.0953 0002148  88.1385 272.0057 14.34217207418737
IRIDIUM 156             
1 43576U 18061H   26205.09475006  .00000146  00000+0  45088-4 0  9996
2 43576  86.3936  41.2888 0002173  92.9018 267.2427 14.34218003418666
IRIDIUM 164             
1 43577U 18061J   26205.49433461 -.00000004  00000+0 -85291-5 0  9996
2 43577  86.3934  41.1625 0002218  87.8554 272.2896 14.34217437418768
IRIDIUM 159             
1 43578U 18061K   26205.53238955  .00000043  00000+0  83389-5 0  9990
2 43578  86.3936  41.0826 0002121  87.7911 272.3528 14.34217701418736
IRIDIUM 180             
1 43922U 19002A   26205.46211702  .00000098  00000+0  28014-4 0  9995
2 43922  86.4000 338.0174 0002138  91.2751 268.8690 14.34218329394333
IRIDIUM 176             
1 43923U 19002B   26205.40540208  .00000795  00000+0  12217-3 0  9997
2 43923  86.6117 337.9784 0002256  91.6264 268.5212 14.72248793404726
IRIDIUM 168             
1 43924U 19002C   26205.45577453  .00000248  00000+0  81463-4 0  9998
2 43924  86.4001 338.0980 0002144  91.4186 268.7256 14.34218108394312
IRIDIUM 173             
1 43925U 19002D   26205.44308950 -.00000025  00000+0 -15884-4 0  9991
2 43925  86.3999 337.9912 0002043  93.2595 266.8835 14.34217401394297
IRIDIUM 169             
1 43926U 19002E   26205.46455826  .00000302  00000+0  92264-4 0  9992
2 43926  86.4231   9.6043 0002158 104.4083 255.7355 14.38602650395585
IRIDIUM 172             
1 43927U 19002F   26205.43674677 -.00000013  00000+0 -11708-4 0  9992
2 43927  86.3998 338.0019 0002078  92.3675 267.7759 14.34217532394307
IRIDIUM 175             
1 43928U 19002G   26205.49768917  .00000272  00000+0  74277-4 0  9995
2 43928  86.4502 274.9257 0005594  97.3913 262.7924 14.43630976404366
IRIDIUM 171             
1 43929U 19002H   26205.41771959  .00000166  00000+0  52081-4 0  9999
2 43929  86.4006 338.3195 0002240  93.2942 266.8510 14.34217983394299
IRIDIUM 170             
1 43930U 19002J   26205.61546848  .00000772  00000+0  11849-3 0  9999
2 43930  86.6122 337.8937 0002186  90.4902 269.6565 14.72260031404763
IRIDIUM 167             
1 43931U 19002K   26205.62068168  .00000242  00000+0  79259-4 0  9997
2 43931  86.4000 337.9475 0002427  98.1333 262.0138 14.34218618394321
IRIDIUM 181             
1 56726U 23068S   26205.54433009  .00000255  00000+0  69656-4 0  9995
2 56726  86.4474  41.1666 0002302  83.2476 276.8987 14.43310606167821
IRIDIUM 177             
1 56727U 23068T   26205.57491308  .00001096  00000+0  14134-3 0  9999
2 56727  86.1987 311.0432 0002285  98.4829 261.6651 14.80034908171899
IRIDIUM 174             
1 56728U 23068U   26205.39910824  .00000600  00000+0  91268-4 0  9993
2 56728  86.6125 338.1349 0001907  95.9959 264.1475 14.72254535171491
IRIDIUM 178             
1 56729U 23068V   26205.49635958  .00000940  00000+0  12089-3 0  9997
2 56729  86.6545   9.7671 0002283  92.1871 267.9612 14.80025582171881
IRIDIUM 179             
1 56730U 23068W   26205.49100353  .00000716  00000+0  91198-4 0  9995
2 56730  86.6775  18.8584 0002440  93.5525 266.5975 14.80029298171883
