EUTELSAT 174A           
1 28924U 05052A   26133.64037253  .00000024  00000+0  00000+0 0  9996
2 28924   4.1323  76.9369 0006281 331.4981 227.4975  1.00270103 51989
EUTELSAT 33F            
1 29270U 06032A   26133.89764906  .00000170  00000+0  00000+0 0  9991
2 29270   1.5727  82.5918 0003526 323.9151 181.4140  1.00268748 46967
EUTELSAT HOTBIRD 13C    
1 33459U 08065A   26133.88115855 -.00000268  00000+0  00000+0 0  9994
2 33459   2.8621  79.5748 0003908 332.9878  85.9901  1.00273641 47002
EUTELSAT 36B            
1 36101U 09065A   26133.68725942  .00000126  00000+0  00000+0 0  9996
2 36101   0.4037  80.4359 0005757 331.8788 117.0326  1.00271921 60366
EUTELSAT KA-SAT 9A      
1 37258U 10069A   26133.75032992  .00000075  00000+0  00000+0 0  9993
2 37258   0.0617   3.5808 0004318 131.6616  15.4071  1.00272067 43667
EUTELSAT 7 WEST A       
1 37816U 11051A   26133.88965192 -.00000047  00000+0  00000+0 0  9996
2 37816   0.0767  27.7203 0003868  30.0720 126.8249  1.00269591 53536
EUTELSAT 16A            
1 37836U 11057A   26133.89426905  .00000117  00000+0  00000+0 0  9996
2 37836   0.0519  10.9445 0005900  47.7759 150.8494  1.00271987  6990
EUTELSAT 21B            
1 38992U 12062B   26133.89539572  .00000143  00000+0  00000+0 0  9991
2 38992   0.0696   0.9544 0003015  53.7302 160.8896  1.00272209 49481
EUTELSAT 70B            
1 39020U 12069A   26133.90510243 -.00000030  00000+0  00000+0 0  9993
2 39020   0.0647 348.0111 0004677  58.3747 221.6220  1.00273222 49163
EUTELSAT 117 WEST A     
1 39122U 13012A   26133.86789851  .00000001  00000+0  00000+0 0  9990
2 39122   0.0586  77.6597 0002667 330.1300  19.4784  1.00271234 48083
EUTELSAT 7B             
1 39163U 13022A   26133.82118495  .00000062  00000+0  00000+0 0  9999
2 39163   0.0787  23.7585 0005421   4.7762 145.6716  1.00271770 47606
EXPRESS-AT1             
1 39612U 14010A   26133.97413065  .00000067  00000+0  00000+0 0  9998
2 39612   0.1673  85.4660 0002910  24.7352 171.1384  1.00294578 44474
EXPRESS-AT2             
1 39613U 14010B   26133.90224242  .00000092  00000+0  00000+0 0  9997
2 39613   0.0177 287.6114 0000539 358.2431 326.6160  1.00270945 44157
EUTELSAT 3B             
1 39773U 14030A   26133.89173193  .00000033  00000+0  00000+0 0  9997
2 39773   0.0651 347.7530 0003996  65.4257 142.5951  1.00269164 43720
EUTELSAT 115 WEST B     
1 40425U 15010B   26133.15537850 -.00000012  00000+0  00000+0 0  9993
2 40425   0.0221 122.4026 0000102 208.5203 201.0247  1.00271137 41049
EUTELSAT 8 WEST B       
1 40875U 15039B   26133.88956525 -.00000052  00000+0  00000+0 0  9991
2 40875   0.0685   2.7722 0003928  48.7353 132.3839  1.00271791 39310
EUTELSAT 9B             
1 41310U 16005A   26133.82161829  .00000075  00000+0  00000+0 0  9993
2 41310   0.0530  77.9990 0002688 295.4466 162.9218  1.00269757 37770
EUTELSAT 65 WEST A      
1 41382U 16014A   26133.87821187 -.00000263  00000+0  00000+0 0  9997
2 41382   0.0859  53.0245 0002153 353.2796  76.3077  1.00271292 37180
EUTELSAT 117 WEST B     
1 41589U 16038B   26133.15494515  .00000001  00000+0  00000+0 0  9993
2 41589   0.0206 121.2760 0000143 237.5358 170.8929  1.00273326 36310
EUTELSAT 172B           
1 42741U 17029B   26133.85385844  .00000008  00000+0  00000+0 0  9993
2 42741   0.0326 143.9179 0000115 114.0526  93.0341  1.00272131 33396
EUTELSAT 7C             
1 44334U 19034B   26133.53599446  .00000062  00000+0  00000+0 0  9991
2 44334   0.0747 175.6626 0003094 221.1771  34.4211  1.00271537  6487
EUTELSAT 5 WEST B       
1 44624U 19067A   26133.89017192 -.00000029  00000+0  00000+0 0  9995
2 44624   0.0663 354.3336 0003007  54.6664 138.1142  1.00271157 24094
EUTELSAT KONNECT        
1 45027U 20005B   26133.32221291  .00000063  00000+0  00000+0 0  9999
2 45027   0.0676  95.0287 0001278 184.8578  74.4442  1.00270886 23988
EUTELSAT QUANTUM        
1 49056U 21069B   26133.90059574  .00000139  00000+0  00000+0 0  9997
2 49056   0.0115 322.7758 0002122  85.0521 195.7514  1.00271868 17581
EUTELSAT KONNECT VHTS   
1 53765U 22110A   26133.89164527  .00000030  00000+0  00000+0 0  9990
2 53765   0.0576  98.9837 0002789 288.6651 167.6928  1.00268636  6492
EUTELSAT HOTBIRD 13F    
1 54048U 22134A   26133.89366237  .00000101  00000+0  00000+0 0  9992
2 54048   0.0480 288.4766 0001929  69.6548 208.2470  1.00271283 13039
EUTELSAT HOTBIRD 13G    
1 54225U 22146A   26133.32333958  .00000100  00000+0  00000+0 0  9993
2 54225   0.0424 238.9202 0002013 302.3259 179.2373  1.00271210  7111
EUTELSAT 10B            
1 54259U 22157A   26133.89314237  .00000082  00000+0  00000+0 0  9992
2 54259   0.0591  97.6091 0001750  24.8858  80.7087  1.00267842 12689
EUTELSAT 36D            
1 59346U 24059A   26133.68431274  .00000000  00000+0  00000+0 0  9995
2 59346   0.0162 287.7869 0000246 327.6739 258.2014  1.00272689  7806
