QIANFAN-1               
1 60379U 24140A   26163.81451375  .00000091  00000+0  12264-3 0  9995
2 60379  88.9731 280.3828 0018854  54.7854 305.5059 13.51013840 91938
QIANFAN-2               
1 60380U 24140B   26163.84327132  .00000113  00000+0  15577-3 0  9998
2 60380  88.9718 280.1943 0013183  31.1356 329.0574 13.51009391 91992
QIANFAN-3               
1 60381U 24140C   26163.85149578  .00000091  00000+0  12216-3 0  9998
2 60381  88.9710 280.3123 0014771  42.2708 317.9579 13.51010391 91909
QIANFAN-4               
1 60382U 24140D   26163.82679174  .00000103  00000+0  14082-3 0  9993
2 60382  88.9735 280.2584 0013503  33.5171 326.6832 13.51013030 92022
QIANFAN-5               
1 60383U 24140E   26163.80211852  .00000104  00000+0  14276-3 0  9993
2 60383  88.9709 280.3422 0016424  52.1352 308.1282 13.51011862 91887
QIANFAN-6               
1 60384U 24140F   26163.82267068  .00000085  00000+0  11325-3 0  9996
2 60384  88.9737 280.1355 0013856  38.9797 321.2351 13.51012325 92084
QIANFAN-7               
1 60385U 24140G   26163.82431194  .00000512  00000+0  20112-3 0  9999
2 60385  88.9772 272.2861 0016495 153.8521 206.3510 14.27834643 96377
QIANFAN-8               
1 60386U 24140H   26163.83087692  .00000098  00000+0  13333-3 0  9997
2 60386  88.9738 280.3746 0017359  39.2167 321.0239 13.51008810 91930
QIANFAN-9               
1 60387U 24140J   26163.80622861  .00000106  00000+0  14542-3 0  9991
2 60387  88.9736 280.4489 0017039  39.2023 321.0358 13.51014358 91914
QIANFAN-10              
1 60388U 24140K   26163.81036301  .00000096  00000+0  13005-3 0  9992
2 60388  88.9747 279.8143 0014640  18.0631 342.1037 13.51015320 92044
QIANFAN-11              
1 60389U 24140L   26163.84731083  .00000103  00000+0  14105-3 0  9996
2 60389  88.9672 280.2608 0015083  39.7661 320.4592 13.51009632 91705
QIANFAN-12              
1 60390U 24140M   26163.79393633  .00000107  00000+0  14697-3 0  9997
2 60390  88.9714 280.3891 0014212  48.2447 311.9916 13.51011647 91826
QIANFAN-13              
1 60391U 24140N   26163.83915649  .00000100  00000+0  13563-3 0  9994
2 60391  88.9727 280.5065 0014124  50.6808 309.5593 13.51011658 91855
QIANFAN-14              
1 60392U 24140P   26163.78971219  .00000108  00000+0  14819-3 0  9997
2 60392  88.9706 280.3706 0017766  48.9765 311.2919 13.51005244 91856
QIANFAN-15              
1 60393U 24140Q   26163.79791169  .00000093  00000+0  12461-3 0  9997
2 60393  88.9729 280.3696 0013120  38.3654 321.8428 13.51014415 91841
QIANFAN-16              
1 60394U 24140R   26163.85982323  .00000095  00000+0  12834-3 0  9995
2 60394  88.9732 280.4885 0015853  53.2200 307.0403 13.51013658 91763
QIANFAN-17              
1 60395U 24140S   26163.85556066  .00000074  00000+0  96054-4 0  9991
2 60395  88.9743 280.5547 0016033  47.2177 313.0319 13.51009978 92729
QIANFAN-18              
1 60396U 24140T   26163.83494103  .00000100  00000+0  13659-3 0  9992
2 60396  88.9737 280.0782 0014735  31.3038 328.8987 13.51009294 92115
QIANFAN-19              
1 61552U 24185A   26163.82771001  .00000356  00000+0  17818-3 0  9994
2 61552  88.9843  57.0714 0009284  80.7108 279.5128 14.14473513 95407
QIANFAN-20              
1 61553U 24185B   26163.78325088  .00000444  00000+0  24853-3 0  9995
2 61553  88.9839  57.5813 0007378 112.4287 247.7679 14.09016892 95125
QIANFAN-21              
1 61554U 24185C   26163.83976453  .00000520  00000+0  22507-3 0  9999
2 61554  88.9760  55.6473 0012349 121.9125 238.3269 14.22850618 95869
QIANFAN-22              
1 61555U 24185D   26163.81889458  .00000211  00000+0  17111-3 0  9998
2 61555  88.9826  59.2933 0007195 141.4247 218.7439 13.86392536 94161
QIANFAN-23              
1 61556U 24185E   26163.82765378  .00000348  00000+0  16764-3 0  9998
2 61556  88.9835  56.7955 0009903  87.7059 272.5262 14.16498541 95520
QIANFAN-24              
1 61557U 24185F   26163.82883073  .00000504  00000+0  21283-3 0  9998
2 61557  88.9819  55.9048 0011692  68.5253 291.7185 14.24066284 95934
QIANFAN-25              
1 61558U 24185G   26163.77187899  .00000415  00000+0  24428-3 0  9991
2 61558  88.9832  57.5840 0012253 117.3127 242.9304 14.06074007 95084
QIANFAN-26              
1 61559U 24185H   26163.80782118  .00000195  00000+0  18207-3 0  9994
2 61559  88.9832  60.0946 0005705 158.5413 201.5994 13.77910824 93740
QIANFAN-27              
1 61560U 24185J   26163.79832731  .00000374  00000+0  14609-3 0  9992
2 61560  88.9828  55.5979 0009561  59.5516 300.6622 14.27534205 96136
QIANFAN-28              
1 61561U 24185K   26163.82166345  .00000624  00000+0  24376-3 0  9998
2 61561  88.9847  55.6071 0009434  58.1863 302.0249 14.28379619 96162
QIANFAN-29              
1 61562U 24185L   26163.78033618  .00000091  00000+0  12233-3 0  9997
2 61562  88.9807  62.4900 0007944 239.3197 120.7172 13.51072775 92370
QIANFAN-30              
1 61563U 24185M   26163.81915227  .00000147  00000+0  21280-3 0  9991
2 61563  88.9827  62.0810 0005643 221.0311 139.0416 13.50050361 92638
QIANFAN-31              
1 61564U 24185N   26163.82317005  .00000126  00000+0  15688-3 0  9995
2 61564  88.9810  61.5936 0005554 203.8384 156.2514 13.58038161 92871
QIANFAN-32              
1 61565U 24185P   26163.83558456  .00000042  00000+0  47115-4 0  9992
2 61565  88.9868  62.2685 0007527 259.2527 100.7777 13.50785914 92625
QIANFAN-33              
1 61566U 24185Q   26163.81225823  .00000280  00000+0  19241-3 0  9992
2 61566  88.9824  58.5042 0009321 108.3544 251.8648 13.96701278 94572
QIANFAN-34              
1 61567U 24185R   26163.81522509  .00000287  00000+0  17803-3 0  9993
2 61567  88.9800  57.8268 0007656 109.5672 250.6335 14.02466539 94872
QIANFAN-35              
1 61568U 24185S   26163.80036649  .00000591  00000+0  23134-3 0  9990
2 61568  88.9828  55.5059 0008512  57.0633 303.1379 14.28265209 96167
QIANFAN-36              
1 61569U 24185T   26163.83433079  .00000069  00000+0  81842-4 0  9993
2 61569  88.9802  62.0652 0004386 222.5141 137.5674 13.55634535 92591
QIANFAN-37              
1 62238U 24232B   26163.81796609  .00000098  00000+0  13297-3 0  9999
2 62238  89.0076  23.0239 0001490  72.4742 287.6572 13.51008178123751
QIANFAN-38              
1 62239U 24232C   26163.84263477  .00000091  00000+0  12299-3 0  9999
2 62239  89.0082  22.9496 0015819  35.2804 324.9391 13.51005365123814
QIANFAN-39              
1 62240U 24232D   26163.86805601  .00000279  00000+0  11171-3 0  9990
2 62240  89.0063  16.5589 0015225 194.1278 165.9492 14.25524108127337
QIANFAN-40              
1 62241U 24232E   26163.87554612  .00000096  00000+0  12964-3 0  9993
2 62241  89.0109  22.5817 0015057  42.8142 317.4179 13.51007006124189
QIANFAN-41              
1 62242U 24232F   26163.80976119  .00000100  00000+0  13620-3 0  9993
2 62242  89.0080  22.9011 0015111  32.0465 328.1602 13.51009329123839
QIANFAN-42              
1 62243U 24232G   26163.84158191  .00000256  00000+0  10387-3 0  9999
2 62243  89.0061  16.6361 0013825 200.6661 159.3974 14.24613187127292
QIANFAN-43              
1 62244U 24232H   26163.87970139  .00000087  00000+0  11619-3 0  9998
2 62244  89.0085  22.9674 0016791  36.0376 324.1903 13.51009068 92454
QIANFAN-44              
1 62245U 24232J   26163.79328154  .00000097  00000+0  13203-3 0  9996
2 62245  89.0083  22.7839 0014931  34.2942 325.9170 13.51011125123915
QIANFAN-45              
1 62246U 24232K   26163.83446234  .00000096  00000+0  13059-3 0  9990
2 62246  89.0087  22.9327 0015582  33.5388 326.6746 13.51008685123849
QIANFAN-46              
1 62247U 24232L   26163.78507351  .00000104  00000+0  14182-3 0  9991
2 62247  89.0083  22.9993 0015785  38.7084 321.5195 13.51009454123791
QIANFAN-47              
1 62248U 24232M   26163.86324531  .00000106  00000+0  14513-3 0  9998
2 62248  89.0079  22.9171 0016184  37.5608 322.6670 13.51008162123838
QIANFAN-48              
1 62249U 24232N   26163.82618440  .00000102  00000+0  13892-3 0  9995
2 62249  89.0082  22.9297 0018503  39.3412 320.9080 13.51012711123833
QIANFAN-49              
1 62250U 24232P   26163.88791507  .00000094  00000+0  12626-3 0  9993
2 62250  89.0082  22.9346 0015446  35.1617 325.0550 13.51011384 92438
QIANFAN-50              
1 62251U 24232Q   26163.83857015  .00000084  00000+0  11083-3 0  9991
2 62251  89.0087  22.9576 0017139  35.9260 324.3039 13.51008214 92456
QIANFAN-51              
1 62252U 24232R   26163.89612613  .00000124  00000+0  17264-3 0  9993
2 62252  89.0081  22.9345 0014731  40.0856 320.1379 13.51005026 92457
QIANFAN-52              
1 62253U 24232S   26163.77682049  .00000108  00000+0  14812-3 0  9999
2 62253  89.0077  22.8130 0016521  32.5467 327.6699 13.51010482 92524
QIANFAN-53              
1 62254U 24232T   26163.83028523  .00000089  00000+0  11914-3 0  9996
2 62254  89.0085  22.9259 0015437  33.8371 326.3762 13.51007436 92498
QIANFAN-54              
1 62255U 24232U   26163.87143878  .00000077  00000+0  10106-3 0  9991
2 62255  89.0076  22.5842 0004125  76.8239 283.3373 13.51011369124008
QIANFAN-55              
1 62785U 25016A   26163.82338715  .00000135  00000+0  18988-3 0  9992
2 62785  88.9741  84.3290 0016790 174.9350 185.1974 13.51017874 71779
QIANFAN-56              
1 62786U 25016B   26163.83986023  .00000120  00000+0  16698-3 0  9995
2 62786  88.9715  84.1151 0015352 176.6515 183.4742 13.51018839 71822
QIANFAN-57              
1 62787U 25016C   26163.79872348  .00000135  00000+0  19043-3 0  9998
2 62787  88.9746  84.3296 0002446  56.2075 303.9309 13.51017544 71788
QIANFAN-58              
1 62788U 25016D   26163.84407427  .00000145  00000+0  20498-3 0  9994
2 62788  88.9716  84.1009 0013585 167.6632 192.4854 13.51017030 71830
QIANFAN-59              
1 62789U 25016E   26163.86869913  .00000128  00000+0  17939-3 0  9996
2 62789  88.9739  84.2150 0013819 171.7031 188.4351 13.51011068 71835
QIANFAN-60              
1 62790U 25016F   26163.82751911  .00000135  00000+0  18988-3 0  9995
2 62790  88.9721  84.1560 0015474 169.0472 191.1019 13.51013559 71817
QIANFAN-61              
1 62791U 25016G   26163.78640066  .00000117  00000+0  16291-3 0  9994
2 62791  88.9787  84.4466 0014440 168.0036 192.1462 13.51006271 71822
QIANFAN-62              
1 62792U 25016H   26163.86464825  .00000127  00000+0  17761-3 0  9995
2 62792  88.9734  84.2090 0015805 168.9116 191.2387 13.51015701 71824
QIANFAN-63              
1 62793U 25016J   26163.81520753  .00000137  00000+0  19265-3 0  9996
2 62793  88.9741  84.1779 0015626 174.5234 185.6091 13.51009580 71851
QIANFAN-64              
1 62794U 25016K   26163.85633374  .00000121  00000+0  16845-3 0  9999
2 62794  88.9728  84.1233 0013876 166.0762 194.0775 13.51006326 71857
QIANFAN-65              
1 62795U 25016L   26163.85224720  .00000136  00000+0  19153-3 0  9992
2 62795  88.9724  84.1432 0013669 167.6686 192.4802 13.50997286 71831
QIANFAN-66              
1 62796U 25016M   26163.80696939  .00000135  00000+0  18977-3 0  9995
2 62796  88.9744  84.1538 0014902 164.0935 196.0687 13.51001949 71878
QIANFAN-67              
1 62797U 25016N   26163.81107865  .00000143  00000+0  20309-3 0  9993
2 62797  88.9734  84.1611 0014612 171.0171 189.1245 13.51004572 71843
QIANFAN-68              
1 62798U 25016P   26163.80298947  .00000132  00000+0  18563-3 0  9992
2 62798  88.9737  84.2137 0014760 168.9295 191.2184 13.51017185 71825
QIANFAN-69              
1 62799U 25016Q   26163.81928845  .00000132  00000+0  18555-3 0  9992
2 62799  88.9717  84.0425 0015452 170.7378 189.4061 13.51011159 71866
QIANFAN-70              
1 62800U 25016R   26163.83578786  .00000127  00000+0  17788-3 0  9993
2 62800  88.9737  84.2173 0015425 160.8363 199.3372 13.51009386 71827
QIANFAN-71              
1 62801U 25016S   26163.83165568  .00000125  00000+0  17461-3 0  9990
2 62801  88.9731  84.1863 0015224 174.3014 185.8313 13.51003887 71822
QIANFAN-72              
1 62802U 25016T   26163.84811251  .00000132  00000+0  18568-3 0  9996
2 62802  88.9722  84.1802 0018185 183.1090 176.9951 13.51017011 71819
QIANFAN-73              
1 63159U 25046A   26163.80105339  .00000095  00000+0  12924-3 0  9992
2 63159  88.9705 301.1397 0013339 322.7892  37.2333 13.51017824 71998
QIANFAN-74              
1 63160U 25046B   26163.85881580  .00000120  00000+0  16727-3 0  9992
2 63160  88.9706 301.0232 0002065 108.8418 251.2957 13.51008329 72068
QIANFAN-75              
1 63161U 25046C   26163.84635388  .00000105  00000+0  14346-3 0  9993
2 63161  88.9707 301.2608 0014449 325.6239  34.3976 13.51007081 71938
QIANFAN-76              
1 63162U 25046D   26163.84219465  .00000128  00000+0  18035-3 0  9992
2 63162  88.9707 301.2411 0011997 327.3513  32.6895 13.51014253 71941
QIANFAN-77              
1 63163U 25046E   26163.79757741  .00000311  00000+0  21615-3 0  9993
2 63163  88.9712 297.7524 0013473 225.1865 134.8218 13.96202069 73857
QIANFAN-78              
1 63164U 25046F   26163.80929100  .00000129  00000+0  18050-3 0  9992
2 63164  88.9706 301.1067 0013437 329.3187  30.7177 13.51013413 72016
QIANFAN-79              
1 63165U 25046G   26163.83817763  .00000104  00000+0  14309-3 0  9993
2 63165  88.9709 301.2179 0013188 327.4234  32.6102 13.51011056 71963
QIANFAN-80              
1 63166U 25046H   26163.85466616  .00000107  00000+0  14703-3 0  9994
2 63166  88.9707 300.9181 0012161 332.9084  27.1431 13.51008565 72129
QIANFAN-81              
1 63167U 25046J   26163.83409714  .00000089  00000+0  11944-3 0  9992
2 63167  88.9706 300.9880 0013161 320.4203  39.5986 13.51016214 72077
QIANFAN-82              
1 63168U 25046K   26163.79285834  .00000101  00000+0  13807-3 0  9998
2 63168  88.9706 301.0363 0011200 329.3400  30.7095 13.51010581 72058
QIANFAN-83              
1 63169U 25046L   26163.81784639  .00000132  00000+0  15549-3 0  9998
2 63169  88.9708 300.4514 0012040 300.0674  59.9289 13.62041243 72389
QIANFAN-84              
1 63170U 25046M   26163.82249392  .00000139  00000+0  19719-3 0  9993
2 63170  88.9707 301.1660 0014162 323.8011  36.2181 13.51035554 71985
QIANFAN-85              
1 63171U 25046N   26163.81751111  .00000112  00000+0  15557-3 0  9997
2 63171  88.9706 301.0367 0011663 327.6395  32.4040 13.51017910 72055
QIANFAN-86              
1 63172U 25046P   26163.82591380  .00000102  00000+0  13971-3 0  9996
2 63172  88.9708 300.9023 0009620 333.9244  26.1421 13.51015756 72136
QIANFAN-87              
1 63173U 25046Q   26163.79700205  .00000100  00000+0  13690-3 0  9997
2 63173  88.9705 301.0101 0010026 328.4458  31.6090 13.51017615 72062
QIANFAN-88              
1 63174U 25046R   26163.81347953  .00000113  00000+0  15608-3 0  9993
2 63174  88.9707 300.9675 0010704 337.1443  22.9230 13.51009152 72092
QIANFAN-89              
1 63175U 25046S   26163.85056512  .00000114  00000+0  15778-3 0  9995
2 63175  88.9706 301.1526 0015002 323.9269  36.0868 13.51015985 71997
QIANFAN-90              
1 63176U 25046T   26163.80514082  .00000116  00000+0  16062-3 0  9991
2 63176  88.9707 301.1301 0011893 323.8767  36.1580 13.51014727 72004
QIANFAN-91              
1 66033U 25233A   26163.24509834  .00000120  00000+0  16761-3 0  9992
2 66033  89.0006  43.6906 0001817  74.6941 285.4411 13.51010327 32518
QIANFAN-92              
1 66034U 25233B   26163.17925450  .00000124  00000+0  17359-3 0  9999
2 66034  88.9991  43.6698 0002048  74.8996 285.2382 13.51013398 32502
QIANFAN-93              
1 66035U 25233C   26163.18749448  .00000046  00000+0  53339-4 0  9994
2 66035  89.0017  43.7195 0001880  74.0068 286.1291 13.51011811 32509
QIANFAN-94              
1 66036U 25233D   26163.17514722  .00000120  00000+0  16656-3 0  9992
2 66036  89.0012  43.6242 0001991  78.3098 281.8276 13.51010807 32554
QIANFAN-95              
1 66037U 25233E   26163.18341433  .00000119  00000+0  16605-3 0  9993
2 66037  89.0011  43.1672 0001787  78.9948 281.1404 13.51011942 32804
QIANFAN-96              
1 66038U 25233F   26163.20808375  .00000114  00000+0  15730-3 0  9993
2 66038  89.0009  43.7081 0001762  75.1586 284.9760 13.51010936 32507
QIANFAN-97              
1 66039U 25233G   26163.19160762  .00000109  00000+0  15033-3 0  9993
2 66039  89.0012  43.6937 0001834  74.7120 285.4234 13.51011068 32510
QIANFAN-98              
1 66040U 25233H   26163.19981291  .00000103  00000+0  14119-3 0  9991
2 66040  89.0000  43.4244 0002165  88.4781 271.6619 13.51011107 32654
QIANFAN-99              
1 66041U 25233J   26163.20391196  .00000112  00000+0  15463-3 0  9996
2 66041  89.0012  43.6964 0001983  86.1221 274.0157 13.51010927 32518
QIANFAN-100             
1 66042U 25233K   26163.19572355  .00000129  00000+0  18173-3 0  9992
2 66042  89.0023  43.6237 0001854  73.3195 286.8159 13.50997366 32567
QIANFAN-101             
1 66043U 25233L   26163.17457123  .00000310  00000+0  12194-3 0  9995
2 66043  89.0006  41.1448 0015896 152.3618 207.8424 14.26804979 33914
QIANFAN-102             
1 66044U 25233M   26163.21628212  .00000122  00000+0  17020-3 0  9994
2 66044  89.0010  43.6049 0001965  79.3831 280.7541 13.51010909 32560
QIANFAN-103             
1 66045U 25233N   26163.22041265  .00000120  00000+0  16656-3 0  9995
2 66045  89.0012  43.6995 0001867  74.1435 285.9922 13.51011805 32518
QIANFAN-104             
1 66046U 25233P   26163.22449821  .00000116  00000+0  16098-3 0  9991
2 66046  89.0018  43.6011 0002067  78.8847 281.2537 13.51014091 32561
QIANFAN-105             
1 66047U 25233Q   26163.82526317  .00000122  00000+0  17090-3 0  9994
2 66047  89.0030  43.3830 0001843  79.7256 280.4102 13.51000461 32753
QIANFAN-106             
1 66048U 25233R   26163.74710189  .00000112  00000+0  15520-3 0  9993
2 66048  88.9999  43.6052 0002128  87.0743 273.0652 13.51011126 32584
QIANFAN-107             
1 66049U 25233S   26163.23686132  .00000112  00000+0  15481-3 0  9994
2 66049  89.0015  43.6884 0001889  74.5798 285.5562 13.51010356 32529
QIANFAN-108             
1 66050U 25233T   26163.24098753  .00000112  00000+0  15539-3 0  9997
2 66050  89.0007  43.6761 0002110  85.2380 274.9012 13.51011460 32529
QIANFAN-109             
1 68636U 26075A   26163.84759017  .00000032  00000+0  31582-4 0  9995
2 68636  88.9890 321.4552 0002861  52.8057 307.3355 13.50952247  9204
QIANFAN-110             
1 68637U 26075B   26163.85581323  .00000025  00000+0  20809-4 0  9992
2 68637  88.9888 321.4756 0002033  94.0056 266.1328 13.51010999  9208
QIANFAN-111             
1 68638U 26075C   26163.84191955  .00000078  00000+0  10409-3 0  9992
2 68638  88.9887 321.4364 0012525  24.9858 335.1896 13.49922863  9220
QIANFAN-112             
1 68639U 26075D   26163.80643698  .00000080  00000+0  10490-3 0  9998
2 68639  88.9886 321.4495 0001591  87.9514 272.1820 13.51022979  9212
QIANFAN-113             
1 68640U 26075E   26163.77835169 -.02030572  00000+0 -33125+1 0  9992
2 68640  88.9884 321.4467 0013885  31.2063 328.9911 13.51784961  9218
QIANFAN-114             
1 68641U 26075F   26163.85987054  .00000080  00000+0  10580-3 0  9993
2 68641  88.9887 321.4568 0002025  94.0432 266.0951 13.51012670  9212
QIANFAN-115             
1 68642U 26075G   26163.81463859  .00000077  00000+0  10106-3 0  9992
2 68642  88.9887 321.4686 0001894  97.0393 263.0974 13.51018062  9208
QIANFAN-116             
1 68643U 26075H   26163.73370773 -.02087265  00000+0 -34310+1 0  9994
2 68643  88.9871 321.4395 0011739  37.5743 322.6226 13.51424594  9209
QIANFAN-117             
1 68644U 26075J   26163.86407183  .00000032  00000+0  30824-4 0  9998
2 68644  88.9884 321.4394 0001774  94.1198 266.0156 13.51019965  9221
QIANFAN-118             
1 68645U 26075K   26163.23037313  .00000042  00000+0  45647-4 0  9994
2 68645  88.9888 321.5119 0002142  92.8153 267.3243 13.51018306  9137
QIANFAN-119             
1 68646U 26075L   26163.20570560  .00000039  00000+0  41457-4 0  9999
2 68646  88.9888 321.5101 0001653  96.2734 263.8606 13.51016128  9132
QIANFAN-120             
1 68647U 26075M   26162.92026819 -.01877584  00000+0 -32840+1 0  9993
2 68647  88.9881 321.5244 0012955   4.6653 355.4614 13.47686342  9104
QIANFAN-121             
1 68648U 26075N   26162.57544247 -.02030810  00000+0 -34749+1 0  9999
2 68648  88.9897 321.5648 0003966 170.2479 189.8748 13.48765663  9054
QIANFAN-122             
1 68649U 26075P   26163.16045758  .00000055  00000+0  66939-4 0  9993
2 68649  88.9887 321.5030 0001693  93.3010 266.8335 13.51012228  9122
QIANFAN-123             
1 68650U 26075Q   26162.90483406 -.02064064  00000+0 -35383+1 0  9991
2 68650  88.9877 321.5187 0006167 263.3157  96.7291 13.48710675  9070
QIANFAN-124             
1 68651U 26075R   26163.00407059  .00000030  00000+0  27281-4 0  9995
2 68651  88.9886 321.5179 0009743  19.8098 340.3430 13.51009075  9110
QIANFAN-125             
1 68652U 26075S   26163.23861486  .00000036  00000+0  37385-4 0  9991
2 68652  88.9886 321.4961 0002068  93.9914 266.1474 13.51023319  9145
QIANFAN-126             
1 68653U 26075T   26163.25003452  .00000050  00000+0  54489-4 0  9995
2 68653  88.9889 321.4613 0010628  21.6396 338.5205 13.55550541  9160
QIANFAN-127             
1 69073U 26104A   26163.86225535  .00000117  00000+0  58984-4 0  9998
2 69073  88.9864 342.0970 0005124  97.6801 262.4966 14.09666773  4477
QIANFAN-128             
1 69074U 26104B   26163.78774126 -.02095233  00000+0 -14001+1 0  9990
2 69074  88.9855 342.1235 0006349 128.8500 231.3249 14.05261240  4459
QIANFAN-129             
1 69075U 26104C   26163.80356622  .00000072  00000+0  30903-4 0  9997
2 69075  88.9864 342.0881 0004805 100.5097 259.6631 14.13159856  4477
QIANFAN-130             
1 69076U 26104D   26163.84489965  .00000118  00000+0  60027-4 0  9990
2 69076  88.9863 342.1131 0005540  97.3580 262.8234 14.09077333  4461
QIANFAN-131             
1 69077U 26104E   26163.80722514  .00000050  00000+0  19584-4 0  9994
2 69077  88.9863 342.1072 0004669 104.3042 255.8662 14.11467520  4460
QIANFAN-132             
1 69078U 26104F   26163.86189301  .00000146  00000+0  79787-4 0  9999
2 69078  88.9863 342.1156 0004947  95.0426 265.1321 14.06421762  4463
QIANFAN-133             
1 69079U 26104G   26163.76781470  .00000099  00000+0  49160-4 0  9993
2 69079  88.9867 342.1204 0004942  96.5965 263.5781 14.08933015  4453
QIANFAN-134             
1 69080U 26104H   26163.83516579  .00000083  00000+0  40276-4 0  9991
2 69080  88.9862 342.1115 0006109  86.3006 273.8876 14.08059236  4465
QIANFAN-135             
1 69081U 26104J   26163.82633122  .00000052  00000+0  22091-4 0  9996
2 69081  88.9863 342.1107 0004219 106.9702 253.1945 14.08958784  4464
QIANFAN-136             
1 69082U 26104K   26163.74877682 -.02076282  00000+0 -13726+1 0  9992
2 69082  88.9858 342.1178 0004883 137.0486 223.1078 14.05824386  4458
QIANFAN-137             
1 69083U 26104L   26163.85445398  .00000163  00000+0  64257-4 0  9990
2 69083  88.9861 342.0767 0005784 120.0160 240.1607 14.24280907  4484
QIANFAN-138             
1 69084U 26104M   26163.80625770  .00000031  00000+0  95239-5 0  9999
2 69084  88.9862 342.1073 0004380  98.2177 261.9504 14.09295043  4467
QIANFAN-139             
1 69085U 26104N   26163.87013918  .00000075  00000+0  34282-4 0  9990
2 69085  88.9863 342.0981 0004275  90.0673 270.1001 14.10243410  4478
QIANFAN-140             
1 69086U 26104P   26163.86489231  .00000101  00000+0  49183-4 0  9991
2 69086  88.9864 342.0973 0004642  98.1049 262.0662 14.10252218  4474
QIANFAN-141             
1 69087U 26104Q   26163.85753869  .00000118  00000+0  57595-4 0  9996
2 69087  88.9864 342.0962 0004428  89.7334 270.4359 14.11223268  4478
QIANFAN-142             
1 69088U 26104R   26163.84888639  .00000116  00000+0  55162-4 0  9996
2 69088  88.9863 342.0948 0005356  91.4052 268.7748 14.12328729  4471
QIANFAN-143             
1 69089U 26104S   26163.83283648  .00000080  00000+0  35490-4 0  9997
2 69089  88.9864 342.0924 0004853  89.7695 270.4047 14.12699511  4473
QIANFAN-144             
1 69090U 26104T   26163.84111500  .00000104  00000+0  48719-4 0  9992
2 69090  88.9862 342.0934 0004937  84.3787 275.7961 14.12193376  4471
QIANFAN-145             
1 69104U 26108A   26163.75757344 -.01981126  00000+0 -12779+1 0  9992
2 69104  89.0108  22.7159 0016132 126.0389 234.2291 14.06934005  3712
QIANFAN-146             
1 69105U 26108B   26163.80729458 -.01947770  00000+0 -11246+1 0  9999
2 69105  89.0107  22.6865 0017100 116.6371 243.6569 14.12942565  3738
QIANFAN-147             
1 69106U 26108C   26163.66866292 -.02007742  00000+0 -12655+1 0  9994
2 69106  89.0112  22.7209 0016147 109.1722 251.1211 14.08266980  3705
QIANFAN-148             
1 69107U 26108D   26163.87587919  .00000093  00000+0  43884-4 0  9994
2 69107  89.0112  22.6960 0016720 125.9532 234.3207 14.11106365  3736
QIANFAN-149             
1 69108U 26108E   26163.80158812 -.02033357  00000+0 -13100+1 0  9991
2 69108  89.0112  22.7043 0016702 122.1510 238.1296 14.07104243  3722
QIANFAN-150             
1 69109U 26108F   26163.78866957 -.02055936  00000+0 -12890+1 0  9997
2 69109  89.0105  22.7032 0020458 117.8215 242.5045 14.08618431  3720
QIANFAN-151             
1 69110U 26108G   26163.85517047  .00000037  00000+0  12515-4 0  9996
2 69110  89.0119  22.6935 0016261 124.6643 235.6077 14.11627516  3733
QIANFAN-152             
1 69111U 26108H   26163.77498242 -.02105571  00000+0 -12903+1 0  9993
2 69111  89.0097  22.7011 0014039 102.0101 258.2658 14.10033822  3720
QIANFAN-153             
1 69112U 26108J   26163.76990103  .00000070  00000+0  30228-4 0  9994
2 69112  89.0112  22.6988 0017056 127.0846 233.1902 14.11960551  3729
QIANFAN-154             
1 69113U 26108K   26163.76209037  .00000099  00000+0  45596-4 0  9999
2 69113  89.0115  22.6977 0015607 123.1479 237.1207 14.12914320  3726
QIANFAN-155             
1 69114U 26108L   26163.83775389  .00000086  00000+0  38761-4 0  9998
2 69114  89.0121  22.6913 0016482 123.9290 236.3465 14.12339031  3733
QIANFAN-156             
1 69115U 26108M   26163.75296139  .00000109  00000+0  49791-4 0  9992
2 69115  89.0123  22.6977 0016942 122.7386 237.5437 14.14146835  3721
QIANFAN-157             
1 69116U 26108N   26163.86353397  .00000079  00000+0  32769-4 0  9998
2 69116  89.0110  22.6751 0016836 129.3396 230.9287 14.15575555  3742
QIANFAN-158             
1 69117U 26108P   26163.67255135 -.02102435  00000+0 -12465+1 0  9999
2 69117  89.0113  22.7063 0013548 116.8269 243.4304 14.11843423  3714
QIANFAN-159             
1 69118U 26108Q   26163.80705286 -.02101348  00000+0 -12096+1 0  9994
2 69118  89.0116  22.6940 0016490 130.3197 229.9433 14.13426946  3734
QIANFAN-160             
1 69119U 26108R   26163.87403659  .00000090  00000+0  38435-4 0  9998
2 69119  89.0118  22.6781 0015590 125.3105 234.9543 14.15539236  3741
QIANFAN-161             
1 69120U 26108S   26163.79581845  .00000092  00000+0  38404-4 0  9993
2 69120  89.0117  22.6848 0015576 126.7365 233.5257 14.17081161  3730
QIANFAN-162             
1 69121U 26108T   26163.86344733  .00000090  00000+0  37187-4 0  9990
2 69121  89.0114  22.6761 0016122 127.6843 232.5810 14.17312883  3744
QIANFAN-163             
1 69325U 26121A   26158.95635699  .00000032  00000+0  25988-4 0  9991
2 69325  89.0167 301.4498 0019200 214.2671 145.7248 13.60351284   905
QIANFAN-164             
1 69326U 26121B   26162.41240743  .00000112  00000+0  13228-3 0  9992
2 69326  89.0157 301.0998 0019383 205.3125 154.7084 13.60355109  1373
QIANFAN-165             
1 69382U 26124A   26163.81293609  .00000102  00000+0  39051-4 0  9993
2 69382  88.9987   2.5366 0002269 172.5730 187.5496 14.23015036  1191
QIANFAN-166             
1 69383U 26124B   26163.81167218  .00000104  00000+0  39148-4 0  9999
2 69383  88.9991   2.5359 0001709 151.1685 208.9602 14.23972037  1199
QIANFAN-167             
1 69384U 26124C   26163.74028973 -.02019974  00000+0 -10030+1 0  9990
2 69384  88.9978   2.5445 0006308 183.2005 176.9147 14.21267173  1186
QIANFAN-168             
1 69385U 26124D   26163.52992448  .00000108  00000+0  39351-4 0  9990
2 69385  88.9964   2.5680 0003159 171.0112 189.1138 14.25574266  1159
QIANFAN-169             
1 69386U 26124E   26163.81056454  .00000141  00000+0  53591-4 0  9990
2 69386  88.9985   2.5362 0002828 172.2019 187.9218 14.25616999  1190
QIANFAN-170             
1 69387U 26124F   26163.81028476  .00000444  00000+0  18127-3 0  9995
2 69387  88.9985   2.5363 0002001 166.8108 193.3138 14.25629953  1199
QIANFAN-171             
1 69388U 26124G   26163.80994597  .00000107  00000+0  39069-4 0  9996
2 69388  88.9987   2.5364 0001912 194.3454 165.7685 14.25624027  1190
QIANFAN-172             
1 69389U 26124H   26163.81006213  .00000107  00000+0  39094-4 0  9995
2 69389  88.9984   2.5363 0002199 182.3284 177.7899 14.25677194  1196
QIANFAN-173             
1 69390U 26124J   26163.80972409  .00000107  00000+0  39105-4 0  9998
2 69390  88.9987   2.5363 0002348 174.2799 185.8421 14.25636191  1191
QIANFAN-174             
1 69391U 26124K   26163.80946355  .00000107  00000+0  39097-4 0  9990
2 69391  88.9986   2.5361 0001994 162.8992 197.2269 14.25793745  1199
QIANFAN-175             
1 69392U 26124L   26162.96693602 -.02061810  00000+0 -98041+0 0  9992
2 69392  88.9979   2.6328 0006344 104.9794 255.2100 14.23645484  1077
QIANFAN-176             
1 69393U 26124M   26163.80914576  .00000107  00000+0  39078-4 0  9991
2 69393  88.9992   2.5367 0001687 178.6374 181.4824 14.25632327  1192
QIANFAN-177             
1 69394U 26124N   26163.80892854  .00000184  00000+0  70296-4 0  9998
2 69394  88.9986   2.5363 0002256 160.0406 200.0876 14.26481310  1196
QIANFAN-178             
1 69395U 26124P   26163.66806404 -.02034801  00000+0 -97409+0 0  9996
2 69395  88.9982   2.5532 0003490 308.2314  51.8563 14.23242823  1170
QIANFAN-179             
1 69396U 26124Q   26163.10741897  .00000109  00000+0  39181-4 0  9998
2 69396  88.9937   2.6233 0001530 148.4496 211.6790 14.26569277  1095
QIANFAN-180             
1 69397U 26124R   26163.80881830  .00000106  00000+0  38007-4 0  9991
2 69397  88.9987   2.5360 0002068 173.5773 186.5448 14.26488682  1196
QIANFAN-181             
1 69398U 26124S   26163.81301132  .00000102  00000+0  38974-4 0  9994
2 69398  88.9994   2.5371 0002126 156.5189 203.6100 14.22684410  1193
QIANFAN-182             
1 69399U 26124T   26163.81053787  .00000105  00000+0  38152-4 0  9996
2 69399  88.9986   2.5363 0001928 168.1835 191.9403 14.25574435  1195
