GLOBALSTAR M001         
1 25162U 98008A   26044.33793240 -.00000046  00000+0  38466-3 0  9998
2 25162  52.0063 351.3252 0001950  49.5747 119.2292 12.38227570273584
GLOBALSTAR M004         
1 25163U 98008B   26044.13382862 -.00000077  00000+0  15160-3 0  9991
2 25163  52.0018  39.0697 0003495 104.5435 332.3037 12.63414656292149
GLOBALSTAR M002         
1 25164U 98008C   26044.81382731 -.00000083  00000+0 -12621-3 0  9999
2 25164  52.0050 354.3627 0000970 223.0969 136.9775 11.61514796212148
GLOBALSTAR M003         
1 25165U 98008D   26044.66867207 -.00000189  00000+0 -10657-2 0  9992
2 25165  51.9846 219.6739 0008968  61.3731  19.7401 12.12028569262506
GLOBALSTAR M014         
1 25306U 98023A   26044.05520795 -.00000064  00000+0  24559-3 0  9995
2 25306  51.9830 274.4263 0001932  78.1092  71.2083 11.65484375219258
GLOBALSTAR M006         
1 25307U 98023B   26044.96049835 -.00000068  00000+0  15232-3 0  9999
2 25307  51.9974 333.6464 0002711 179.3338 260.2498 11.58176522244849
GLOBALSTAR M015         
1 25308U 98023C   26044.51085243 -.00000113  00000+0 -90254-3 0  9993
2 25308  51.9820  84.2969 0013122 145.5950   3.6429 11.48860940221810
GLOBALSTAR M008         
1 25309U 98023D   26044.69505836 -.00000081  00000+0  12261-3 0  9993
2 25309  51.9945 217.8533 0002116 345.7665  93.9146 12.36080750267716
GLOBALSTAR M023         
1 25621U 99004A   26044.44774369 -.00000032  00000+0  39959-3 0  9991
2 25621  52.0118  38.7878 0009446 301.3077 219.0875 12.62517843246205
GLOBALSTAR M040         
1 25622U 99004B   26044.35308351 -.00000101  00000+0  16598-4 0  9998
2 25622  51.9926  43.5846 0000840 181.3278 317.0472 12.62028336245708
GLOBALSTAR M036         
1 25623U 99004C   26044.23153723 -.00000050  00000+0  47737-3 0  9998
2 25623  51.9997 324.9689 0010602 150.0741   7.4199 11.86619067207596
GLOBALSTAR M038         
1 25624U 99004D   26044.62201355 -.00000072  00000+0  19280-3 0  9993
2 25624  51.9968  96.2583 0002089 182.7272 344.9285 12.32540971232141
GLOBALSTAR M022         
1 25649U 99012A   26044.22882955 -.00000109  00000+0 -26126-3 0  9995
2 25649  52.0075 355.6339 0002420 294.5329 205.1233 12.02509529205371
GLOBALSTAR M041         
1 25650U 99012B   26044.69353140 -.00000044  00000+0  53703-3 0  9995
2 25650  51.9993 243.1867 0002304  84.4547 275.6553 11.96684130207199
GLOBALSTAR M046         
1 25651U 99012C   26044.92665544  .00000079  00000+0  18501-2 0  9999
2 25651  52.0060 295.0507 0002488  29.2634  57.8900 12.09419572212914
GLOBALSTAR M037         
1 25652U 99012D   26044.75085416 -.00000095  00000+0  46943-4 0  9997
2 25652  51.9997 168.3934 0001882  29.1433 118.9158 12.62461671241788
GLOBALSTAR M045         
1 25676U 99019A   26044.95140582 -.00000098  00000+0 -36849-4 0  9996
2 25676  51.9998 336.1842 0000702  43.6534  33.0636 12.27072608223070
GLOBALSTAR M019         
1 25677U 99019B   26044.63198177  .00000049  00000+0  14451-2 0  9992
2 25677  51.9868 124.4522 0002036 100.8291  47.6004 12.13882535214464
GLOBALSTAR M044         
1 25678U 99019C   26044.64120299 -.00000110  00000+0 -36481-3 0  9993
2 25678  51.9963 105.9906 0006669 143.8452  24.2755 11.90262567200070
GLOBALSTAR M042         
1 25679U 99019D   26044.52987666 -.00000112  00000+0 -18169-3 0  9995
2 25679  52.0013  89.6286 0003191  84.4900  89.6497 12.22095027214763
GLOBALSTAR M025         
1 25770U 99031A   26044.69337512 -.00000072  00000+0 -14313-3 0  9990
2 25770  51.9847 319.8057 0001845 164.6978 203.6767 11.22560938508831
GLOBALSTAR M049         
1 25771U 99031B   26044.32085695  .00000002  00000+0  23344-2 0  9997
2 25771  51.9915   7.5446 0003082  65.8198 294.2920 11.12123295144251
GLOBALSTAR M047         
1 25772U 99031C   26044.22866862 -.00000069  00000+0  10846-4 0  9999
2 25772  51.9873 341.6969 0016339 318.8074  41.1498 11.31932034498408
GLOBALSTAR M052         
1 25773U 99031D   26044.57177552 -.00000025  00000+0  13551-2 0  9995
2 25773  51.9860 112.2579 0002869 197.6911 311.5157 11.15063690505433
GLOBALSTAR M035         
1 25851U 99037A   26044.75848124 -.00000092  00000+0 -10764-2 0  9996
2 25851  51.9910 236.2366 0013968  18.6738  63.3379 11.04542006122959
GLOBALSTAR M032         
1 25852U 99037B   26044.23663052 -.00000100  00000+0 -10836-2 0  9995
2 25852  51.9969  45.9656 0012636 212.7047 147.2972 11.19067495161776
GLOBALSTAR M051         
1 25853U 99037C   26044.67727144 -.00000087  00000+0 -36981-3 0  9991
2 25853  51.9772 178.3243 0001086 111.2632 248.8295 11.42200081159984
GLOBALSTAR M030         
1 25854U 99037D   26044.25512920 -.00000103  00000+0 -58465-3 0  9990
2 25854  51.9910 330.1196 0003984 103.1780 256.9482 11.55107446177902
GLOBALSTAR M048         
1 25872U 99041A   26044.50043732 -.00000076  00000+0 -16681-3 0  9996
2 25872  51.9362 123.1147 0013091 239.3066 225.3775 11.33862132152351
GLOBALSTAR M026         
1 25873U 99041B   26044.80763413 -.00000107  00000+0 -15867-2 0  9994
2 25873  52.0053 351.5356 0001924 324.7929  53.5899 11.06839322175245
GLOBALSTAR M043         
1 25874U 99041C   26044.70969450 -.00000057  00000+0  32822-3 0  9997
2 25874  51.9367 239.8855 0013521   8.1458  72.3505 11.25697859150075
GLOBALSTAR M028         
1 25875U 99041D   26044.68251134 -.00000091  00000+0  58443-4 0  9994
2 25875  51.9609 192.9584 0062754 235.3109 124.1828 12.50595970220399
GLOBALSTAR M024         
1 25883U 99043A   26044.69062480 -.00000002  00000+0  22267-2 0  9995
2 25883  51.9992 195.7028 0002595 120.0810 333.3598 11.10170108141682
GLOBALSTAR M027         
1 25884U 99043B   26043.80646991 -.00000056  00000+0  27251-3 0  9991
2 25884  52.0210 282.5027 0021904  21.5565 338.6146 11.04373142167826
GLOBALSTAR M054         
1 25885U 99043C   26044.93661417 -.00000053  00000+0  47566-3 0  9995
2 25885  52.0174   6.7065 0004483 233.8567 159.2446 11.39223932146609
GLOBALSTAR M053         
1 25886U 99043D   26044.29443171 -.00000054  00000+0  42970-3 0  9995
2 25886  52.0020 328.7216 0003638 121.3496  54.4750 11.27670039146647
GLOBALSTAR M058         
1 25907U 99049A   26044.65078931 -.00000081  00000+0  49987-4 0  9999
2 25907  51.9923 184.3963 0002242  39.2849 320.8148 11.93208474570369
GLOBALSTAR M050         
1 25908U 99049B   26044.52430269 -.00000094  00000+0 -68442-4 0  9994
2 25908  51.9978 174.3792 0009864 148.9971 291.4743 12.07465078177346
GLOBALSTAR M033         
1 25909U 99049C   26044.32704782  .00000026  00000+0  11314-2 0  9994
2 25909  51.9929  30.0981 0014564  41.3134 318.8813 12.20303865565186
GLOBALSTAR M055         
1 25910U 99049D   26044.31153357 -.00000069  00000+0  21395-3 0  9990
2 25910  52.0037  29.1455 0006717 273.5056  86.5027 12.29440721197941
GLOBALSTAR M057         
1 25943U 99058A   26044.09650224 -.00000058  00000+0  31607-3 0  9991
2 25943  52.0006  24.4962 0002531 143.2932 216.8091 12.24833519196450
GLOBALSTAR M059         
1 25944U 99058B   26044.64457746 -.00000006  00000+0  99839-3 0  9991
2 25944  52.0007 273.9481 0001298  80.5565 313.6178 11.99994143603034
GLOBALSTAR M056         
1 25945U 99058C   26044.59078888  .00000016  00000+0  12129-2 0  9998
2 25945  51.9947 269.8663 0000761   1.1902  14.0600 12.04784792191724
GLOBALSTAR M031         
1 25946U 99058D   26044.58343556 -.00000093  00000+0 -22487-4 0  9992
2 25946  51.9958 147.7500 0000541 329.8665 132.5980 12.16049483193917
GLOBALSTAR M039         
1 25961U 99062A   26044.74232270 -.00000041  00000+0  34780-3 0  9992
2 25961  51.9824 252.9770 0002981 143.5314 216.5756 12.62341975210721
GLOBALSTAR M034         
1 25962U 99062B   26044.58910141 -.00000082  00000+0 -10280-4 0  9991
2 25962  51.9865 103.8767 0014787 137.6787  29.8231 11.79455716166877
GLOBALSTAR M029         
1 25963U 99062C   26044.78260297 -.00000103  00000+0 -20559-3 0  9997
2 25963  51.9794 161.3995 0002285 207.8429 311.3903 11.99908211198127
GLOBALSTAR M061         
1 25964U 99062D   26044.68621471 -.00000067  00000+0  22050-3 0  9998
2 25964  51.9798 290.8697 0006832  60.3691 334.0537 11.76777464149618
GLOBALSTAR M063         
1 26081U 00008A   26044.58672037 -.00000086  00000+0 -48986-4 0  9993
2 26081  51.9931 195.8048 0005408  64.8487  14.2209 11.86180997186223
GLOBALSTAR M062         
1 26082U 00008B   26044.35144328 -.00000214  00000+0 -82950-3 0  9997
2 26082  51.9848 106.5800 0006898 263.9123 176.4742 12.43477460526622
GLOBALSTAR M060         
1 26083U 00008C   26044.58466053 -.00000003  00000+0  87404-3 0  9999
2 26083  52.0012 100.0570 0003006 246.7300 279.3330 12.17675788181778
GLOBALSTAR M064         
1 26084U 00008D   26044.00388598 -.00000030  00000+0  75443-3 0  9994
2 26084  52.0037 293.3350 0001715 129.1594 230.9391 11.88541218195730
GLOBALSTAR M065         
1 31571U 07020A   26044.88751043 -.00000074  00000+0  16915-3 0  9994
2 31571  51.9870 210.5978 0010788 120.9766  43.7019 12.62020731863922
GLOBALSTAR M069         
1 31573U 07020C   26044.93054274 -.00000047  00000+0  42127-3 0  9998
2 31573  52.0008 240.9920 0000777 233.2639 274.6462 12.23468664863719
GLOBALSTAR M072         
1 31574U 07020D   26044.25429354 -.00000069  00000+0  21202-3 0  9994
2 31574  51.9926  70.1879 0001335  85.4934  11.6046 11.91655733860206
GLOBALSTAR M071         
1 31576U 07020F   26044.92796444 -.00000051  00000+0  39604-3 0  9993
2 31576  52.0053 273.4335 0000408 127.8050 333.5520 12.18266063524402
GLOBALSTAR M067         
1 32263U 07048A   26044.92767265 -.00000076  00000+0  16136-3 0  9998
2 32263  51.9736  48.5681 0001379 132.7359 231.6998 12.40684796839499
GLOBALSTAR M070         
1 32264U 07048B   26044.57494269 -.00000095  00000+0  46863-4 0  9993
2 32264  51.9745 113.1299 0000496 108.9584  38.1639 12.62330243844158
GLOBALSTAR M066         
1 32265U 07048C   26044.01970086 -.00000096  00000+0 -11817-4 0  9992
2 32265  51.9591  54.3609 0004918 140.8290 246.6410 12.30383539844942
GLOBALSTAR M068         
1 32266U 07048D   26044.95976499 -.00000046  00000+0  31822-3 0  9991
2 32266  51.9883 285.2452 0000917   4.2007 101.7919 12.62840337848108
GLOBALSTAR M079         
1 37188U 10054A   26044.63174671 -.00000108  00000+0 -21856-4 0  9994
2 37188  52.0033 124.7911 0000959 110.6512  54.3038 12.62263488706947
GLOBALSTAR M074         
1 37189U 10054B   26044.40203961 -.00000103  00000+0  19989-5 0  9994
2 37189  52.0011 124.7763 0000762 128.3961 311.3216 12.62265907707522
GLOBALSTAR M076         
1 37190U 10054C   26044.60158846 -.00000110  00000+0 -34872-4 0  9995
2 37190  52.0023 124.3613 0000972 125.5380  21.1623 12.62270129707265
GLOBALSTAR M077         
1 37191U 10054D   26044.53651208 -.00000079  00000+0 -12151-4 0  9998
2 37191  51.9963 133.3143 0001261 125.7154 334.3684 11.68178292706693
GLOBALSTAR M075         
1 37192U 10054E   26044.52079968 -.00000112  00000+0 -43376-4 0  9996
2 37192  51.9941 166.7287 0000822 105.1311 334.9471 12.62264228706328
GLOBALSTAR M073         
1 37193U 10054F   26044.53972507 -.00000089  00000+0  80312-4 0  9992
2 37193  52.0057  80.6767 0000736 119.6744  45.0416 12.62269402708319
GLOBALSTAR M083         
1 37739U 11033A   26044.30914455 -.00000102  00000+0  96389-5 0  9997
2 37739  51.9875  29.7756 0000559  94.9166  43.2118 12.62266788677306
GLOBALSTAR M088         
1 37740U 11033B   26043.87386343 -.00000073  00000+0  17012-3 0  9990
2 37740  52.0224 297.2317 0000757  68.5753   9.9702 12.62261325672790
GLOBALSTAR M091         
1 37741U 11033C   26044.75813683 -.00000070  00000+0  18811-3 0  9996
2 37741  51.9980 257.6892 0001004  73.3908   4.8305 12.62269809673696
GLOBALSTAR M085         
1 37742U 11033D   26044.92242788 -.00000097  00000+0  35872-4 0  9994
2 37742  52.0107 208.3701 0001115  84.5271  81.0683 12.62269197674228
GLOBALSTAR M081         
1 37743U 11033E   26044.95014766 -.00000090  00000+0  74569-4 0  9990
2 37743  51.9939 210.8611 0001103  94.3364  77.7556 12.62262531674379
GLOBALSTAR M089         
1 37744U 11033F   26044.75064146 -.00000116  00000+0 -69813-4 0  9992
2 37744  51.9923 165.6520 0000854 126.5158  38.4318 12.62264199675193
GLOBALSTAR M084         
1 38040U 11080A   26044.72142361 -.00000093  00000+0  57573-4 0  9990
2 38040  52.0023  33.1555 0000393 138.3566 193.4337 12.62267807653160
GLOBALSTAR M080         
1 38041U 11080B   26044.33366072 -.00000087  00000+0  91502-4 0  9998
2 38041  52.0075  36.0119 0000512  35.6022 102.8131 12.62266302653249
GLOBALSTAR M082         
1 38042U 11080C   26044.27556563 -.00000099  00000+0  26144-4 0  9991
2 38042  52.0105 351.6780 0000735  43.9000 120.2536 12.62267225653944
GLOBALSTAR M092         
1 38043U 11080D   26044.39449799 -.00000100  00000+0  21186-4 0  9991
2 38043  52.0080  81.7044 0000484 119.4086 345.6293 12.62269997652417
GLOBALSTAR M090         
1 38044U 11080E   26044.82455690 -.00000089  00000+0  84294-4 0  9992
2 38044  52.0152 343.9244 0000719  68.7994 309.9518 12.62266658654133
GLOBALSTAR M086         
1 38045U 11080F   26044.84788455 -.00000085  00000+0  10576-3 0  9990
2 38045  51.9926 343.9836 0001425 115.5806 262.8067 12.62282776654085
GLOBALSTAR M097         
1 39072U 13005A   26044.63514465 -.00000075  00000+0  15969-3 0  9995
2 39072  52.0029 259.4400 0001082  84.5352 275.5638 12.62268907601302
GLOBALSTAR M093         
1 39073U 13005B   26044.60889548 -.00000076  00000+0  15734-3 0  9991
2 39073  52.0084 252.8203 0001318  81.7687 278.3329 12.62272855601253
GLOBALSTAR M094         
1 39074U 13005C   26044.76734745 -.00000116  00000+0 -65480-4 0  9997
2 39074  51.9948 166.5767 0001095 101.1104 258.9886 12.62266882602885
GLOBALSTAR M096         
1 39075U 13005D   26044.38450830 -.00000091  00000+0  70889-4 0  9996
2 39075  52.0050 216.4447 0001142  87.1039 272.9959 12.62263195601751
GLOBALSTAR M078         
1 39076U 13005E   26044.91239421 -.00000169  00000+0 -36267-3 0  9995
2 39076  51.9886 299.0215 0001248  29.2439 330.8497 12.62275244600449
GLOBALSTAR M095         
1 39077U 13005F   26044.70142724 -.00000064  00000+0  22373-3 0  9998
2 39077  52.0085 297.0942 0001190  58.0853 302.0129 12.62268606600272
GLOBALSTAR M087         
1 52888U 22064A   26044.47710789 -.00000097  00000+0  38209-4 0  9996
2 52888  51.9991  79.0827 0000629  97.0153 263.0785 12.62266702175516
