EUTELSAT 139 WEST A     
1 28187U 04008A   26094.76475165  .00000142  00000+0  00000+0 0  9995
2 28187   5.6425  72.8685 0004452  24.5269  36.9130  1.00836691 80621
EUTELSAT 174A           
1 28924U 05052A   26101.69770931  .00000014  00000+0  00000+0 0  9992
2 28924   4.0503  77.3265 0006438 305.2053 242.5840  1.00269900 51668
EUTELSAT 33F            
1 29270U 06032A   26101.88371645  .00000159  00000+0  00000+0 0  9996
2 29270   1.4891  82.9513 0003543 303.8857 164.5064  1.00274474 46647
EUTELSAT HOTBIRD 13C    
1 33459U 08065A   26101.86724972 -.00000279  00000+0  00000+0 0  9995
2 33459   2.7790  79.9499 0004153 311.7917  70.2705  1.00270598 46687
EUTELSAT 36B            
1 36101U 09065A   26101.86155944  .00000114  00000+0  00000+0 0  9997
2 36101   0.3227  79.2494 0005901 303.6655 177.8221  1.00270291 60045
EUTELSAT KA-SAT 9A      
1 37258U 10069A   26101.87894976  .00000064  00000+0  00000+0 0  9997
2 37258   0.0608   1.9621 0003400 137.4731  26.0838  1.00273881 43344
EUTELSAT 7 WEST A       
1 37816U 11051A   26101.87574308 -.00000058  00000+0  00000+0 0  9997
2 37816   0.0883  40.4832 0002199  78.0493  29.5054  1.00272878 53210
EUTELSAT 16A            
1 37836U 11057A   26101.88033644  .00000105  00000+0  00000+0 0  9991
2 37836   0.0572   7.4196 0005613  18.1707 147.4137  1.00270363  6677
EUTELSAT 21B            
1 38992U 12062B   26101.85773502  .00000131  00000+0  00000+0 0  9992
2 38992   0.0706 356.3712 0002947  19.2386 154.8394  1.00269998 49162
EUTELSAT 70B            
1 39020U 12069A   26101.89141860 -.00000042  00000+0  00000+0 0  9994
2 39020   0.0671  11.9308 0001841  21.0323 198.5775  1.00273020 48848
EUTELSAT 117 WEST A     
1 39122U 13012A   26101.64019681 -.00000011  00000+0  00000+0 0  9990
2 39122   0.0596  66.2958 0002776 312.0831 295.1429  1.00270729 47769
EUTELSAT 7B             
1 39163U 13022A   26101.87860309  .00000050  00000+0  00000+0 0  9994
2 39163   0.0707  13.5455 0006120 359.4462 150.3988  1.00271142 47286
EXPRESS-AT1             
1 39612U 14010A   26101.95972340  .00000072  00000+0  00000+0 0  9993
2 39612   0.0861  82.3666 0001651   9.1918 150.9727  1.00285016 44158
EXPRESS-AT2             
1 39613U 14010B   26101.88830979  .00000080  00000+0  00000+0 0  9996
2 39613   0.0398  52.1788 0000542 317.8836 205.8298  1.00274539 43835
EUTELSAT 3B             
1 39773U 14030A   26101.87782309  .00000021  00000+0  00000+0 0  9992
2 39773   0.0657  12.4077 0001538  83.3720  63.3937  1.00272016 43401
EUTELSAT 115 WEST B     
1 40425U 15010B   26101.64054347 -.00000023  00000+0  00000+0 0  9999
2 40425   0.0103  71.7542 0000513 212.4592  31.3459  1.00267555 40720
EUTELSAT 8 WEST B       
1 40875U 15039B   26101.87565641 -.00000064  00000+0  00000+0 0  9993
2 40875   0.0690 358.7488 0003844  22.3911 126.1941  1.00271325 38995
EUTELSAT 9B             
1 41310U 16005A   26101.87894976  .00000064  00000+0  00000+0 0  9997
2 41310   0.0656  66.4495 0003685 284.8676 174.1874  1.00273063 37458
EUTELSAT 65 WEST A      
1 41382U 16014A   26101.86430304 -.00000275  00000+0  00000+0 0  9991
2 41382   0.0570 342.9092 0002255  36.6877  66.4412  1.00273570 36863
EUTELSAT 117 WEST B     
1 41589U 16038B   26101.92522994 -.00000010  00000+0  00000+0 0  9997
2 41589   0.0129  69.2529 0000254 217.4365 129.5341  1.00271340 35992
EUTELSAT 172B           
1 42741U 17029B   26101.91127656 -.00000004  00000+0  00000+0 0  9997
2 42741   0.0141 181.8391 0000102 289.3212 229.0150  1.00270179 33076
EUTELSAT 7C             
1 44334U 19034B   26101.23688252  .00000050  00000+0  00000+0 0  9994
2 44334   0.0691 181.4534 0003289 188.0547 282.2259  1.00271452  6162
EUTELSAT 5 WEST B       
1 44624U 19067A   26101.87617641 -.00000040  00000+0  00000+0 0  9996
2 44624   0.0697  22.3395 0003389   7.6770 120.4972  1.00271775 23772
EUTELSAT KONNECT        
1 45027U 20005B   26101.30820949  .00000051  00000+0  00000+0 0  9994
2 45027   0.0685  92.8044 0001475 216.5950   8.3207  1.00271844 23665
EUTELSAT QUANTUM        
1 49056U 21069B   26101.86713160  .00000128  00000+0  00000+0 0  9993
2 49056   0.0447  54.3085 0002172 326.0141 179.6182  1.00273242 17266
EUTELSAT KONNECT VHTS   
1 53765U 22110A   26101.87773642  .00000019  00000+0  00000+0 0  9994
2 53765   0.0610  97.9702 0002931 258.9265 161.8868  1.00269767  6171
EUTELSAT HOTBIRD 13F    
1 54048U 22134A   26101.76271947  .00000089  00000+0  00000+0 0  9991
2 54048   0.0549 285.8252 0001896  79.6266 122.1115  1.00271972 12716
EUTELSAT HOTBIRD 13G    
1 54225U 22146A   26101.66585024  .00000089  00000+0  00000+0 0  9994
2 54225   0.0435 235.2101 0002122 300.8699 276.5204  1.00272098  6795
EUTELSAT 10B            
1 54259U 22157A   26101.87920976  .00000070  00000+0  00000+0 0  9995
2 54259   0.0605  94.0618 0002284  17.3263  55.2123  1.00269788 12365
EUTELSAT 36D            
1 59346U 24059A   26101.17266953  .00000157  00000+0  00000+0 0  9997
2 59346   0.0176 190.2663 0000744 304.4812 162.6953  1.00272725  7473
