IRIDIUM 7               
1 24793U 97020B   26043.15540160  .00000372  00000+0  12085-3 0  9990
2 24793  86.3903  76.3258 0002520  86.5864 273.5621 14.36164943506337
IRIDIUM 5               
1 24795U 97020D   26042.75881710  .00007309  00000+0  56283-3 0  9991
2 24795  86.3918 333.0172 0102798 358.2656   1.8201 14.97313674521279
IRIDIUM 4               
1 24796U 97020E   26043.12738115  .00000382  00000+0  12210-3 0  9990
2 24796  86.3899  73.0520 0002390  90.7547 269.3924 14.37072306506926
IRIDIUM 914             
1 24836U 97030A   26043.15144215  .00000431  00000+0  12773-3 0  9990
2 24836  86.3882  80.9395 0003420 113.7387 246.4171 14.41137843641689
IRIDIUM 16              
1 24841U 97030F   26043.12541575  .00000424  00000+0  13128-3 0  9990
2 24841  86.4010 104.5174 0002967  47.6244 312.5205 14.38962408501507
IRIDIUM 911             
1 24842U 97030G   26043.15196510  .00000512  00000+0  13225-3 0  9995
2 24842  86.4432 103.0080 0014856  26.1670 334.0281 14.47990342509803
IRIDIUM 17              
1 24870U 97034B   26043.18830233  .00000459  00000+0  14494-3 0  9999
2 24870  86.3995 133.9177 0001190  49.4083 310.7219 14.38099789498072
IRIDIUM 920             
1 24871U 97034C   26043.17007725  .00000418  00000+0  12177-3 0  9992
2 24871  86.3966 112.5912 0011947  20.8509 339.3176 14.41803692501151
IRIDIUM 26              
1 24903U 97043A   26042.96131315  .00000511  00000+0  16444-3 0  9992
2 24903  86.3980   9.8223 0002280  82.4763 277.6693 14.37392896491185
IRIDIUM 22              
1 24907U 97043E   26042.88216884  .00000447  00000+0  14679-3 0  9998
2 24907  86.3979  13.5998 0002105  85.4714 274.6723 14.36177613491170
DUMMY MASS 1            
1 24925U 97048A   26042.89998295  .00000571  00000+0  60242-4 0  9993
2 24925  86.3341  24.3863 0007706  34.2390 325.9330 14.87248386540753
DUMMY MASS 2            
1 24926U 97048B   26042.90222449  .00000562  00000+0  59643-4 0  9990
2 24926  86.3338  26.0367 0008857  42.6184 317.5727 14.86998182540527
IRIDIUM 29              
1 24944U 97051A   26043.02613776  .00000436  00000+0  14122-3 0  9997
2 24944  86.3920  43.1895 0002099  93.0681 267.0756 14.36721208487703
IRIDIUM 33              
1 24946U 97051C   26042.99701676  .00000345  00000+0  11399-3 0  9993
2 24946  86.3837  42.4879 0008746  29.2997 330.8688 14.35084822487135
IRIDIUM 28              
1 24948U 97051E   26042.98805117  .00000471  00000+0  15045-3 0  9991
2 24948  86.3930  40.5856 0002432  76.5747 283.5722 14.37615640488290
IRIDIUM 36              
1 24967U 97056C   26043.12269530  .00000430  00000+0  13598-3 0  9993
2 24967  86.3907  72.1576 0002125  84.5047 275.6393 14.37849327486695
IRIDIUM 39              
1 25042U 97069D   26043.10680808  .00000680  00000+0  17152-3 0  9992
2 25042  86.3898 108.3106 0016285 218.8040 141.1996 14.49619562483712
IRIDIUM 38              
1 25043U 97069E   26043.19774567  .00000477  00000+0  15023-3 0  9997
2 25043  86.3994 132.2725 0003486  65.9557 294.2006 14.38392320480454
IRIDIUM 42              
1 25077U 97077A   26042.73405742  .00000402  00000+0  13000-3 0  9999
2 25077  86.4009 138.9352 0002797  84.7559 275.3957 14.36601127475582
IRIDIUM 44              
1 25078U 97077B   26043.15281222  .00000370  00000+0  11010-3 0  9995
2 25078  86.3968 120.0426 0001611  39.0125 321.1190 14.40493937478244
IRIDIUM 45              
1 25104U 97082A   26043.15158205  .00027173  00000+0  68721-3 0  9996
2 25104  86.3523 290.3220 0092141 143.2925 217.4687 15.35274101488680
IRIDIUM 24              
1 25105U 97082B   26042.88254863  .00000670  00000+0  19650-3 0  9993
2 25105  86.3954 338.6160 0011934  16.6254 343.5335 14.42412329477768
IRIDIUM 51              
1 25262U 98018A   26043.12365434  .00279825  24989-4  12153-2 0  9999
2 25262  86.3643 294.2976 0033374  36.4242 323.9297 15.83866637484283
IRIDIUM 57              
1 25273U 98019B   26043.08897151  .00000398  00000+0  13006-3 0  9992
2 25273  86.3922  44.6373 0002238  85.5756 274.5696 14.36104486459216
IRIDIUM 63              
1 25286U 98021B   26042.91457284  .00000486  00000+0  15788-3 0  9996
2 25286  86.4028 341.5499 0002044  91.4328 268.7104 14.36802792458260
IRIDIUM 69              
1 25319U 98026A   26042.95072675  .00000609  00000+0  18248-3 0  9990
2 25319  86.4016 354.0613 0001790  14.1427 345.9823 14.41292086457596
IRIDIUM 71              
1 25320U 98026B   26042.93352475  .00000517  00000+0  15356-3 0  9994
2 25320  86.4018 348.7394 0003538  52.9714 307.1809 14.41380636458120
IRIDIUM 73              
1 25344U 98032C   26043.11129107  .00000623  00000+0  14880-3 0  9991
2 25344  86.4425 304.9179 0001505  86.7246 273.4132 14.52094331465375
IRIDIUM 82              
1 25467U 98051A   26042.86067584  .00071868  00000+0  10374-2 0  9991
2 25467  86.3614 350.1837 0058220  94.2790 266.5127 15.53691621460861
