QIANFAN-1               
1 60379U 24140A   26179.58978120  .00000105  00000+0  14414-3 0  9993
2 60379  88.9739 278.7474 0017244  11.1929 348.9602 13.51017019 94060
QIANFAN-2               
1 60380U 24140B   26179.54453324  .00000109  00000+0  15042-3 0  9997
2 60380  88.9725 278.5645 0011464 345.2939  14.7877 13.51012664 94114
QIANFAN-3               
1 60381U 24140C   26179.55274361  .00000106  00000+0  14533-3 0  9992
2 60381  88.9718 278.6813 0013056 357.8970   2.2124 13.51013697 94022
QIANFAN-4               
1 60382U 24140D   26179.60207206  .00000126  00000+0  17650-3 0  9998
2 60382  88.9743 278.6236 0011778 347.7883  12.2980 13.51016475 94152
QIANFAN-5               
1 60383U 24140E   26179.57741080  .00000108  00000+0  14912-3 0  9996
2 60383  88.9717 278.7034 0014786   8.5662 351.5739 13.51015223 94016
QIANFAN-6               
1 60384U 24140F   26179.59795987  .00000109  00000+0  15085-3 0  9997
2 60384  88.9744 278.5011 0012146 354.0762   6.0244 13.51015561 94218
QIANFAN-7               
1 60385U 24140G   26179.59246963  .00000533  00000+0  20921-3 0  9999
2 60385  88.9776 270.4342 0017681 108.5309 251.7809 14.27849607 98625
QIANFAN-8               
1 60386U 24140H   26179.53213918  .00000118  00000+0  16445-3 0  9993
2 60386  88.9745 278.7479 0015655 354.3924   5.7050 13.51012010 94051
QIANFAN-9               
1 60387U 24140J   26179.58148922  .00000099  00000+0  13443-3 0  9994
2 60387  88.9743 278.8142 0015320 354.1742   5.9229 13.51017573 94041
QIANFAN-10              
1 60388U 24140K   26179.58561493  .00000104  00000+0  14272-3 0  9995
2 60388  88.9754 278.1815 0012990 330.3201  29.7212 13.51018639 94174
QIANFAN-11              
1 60389U 24140L   26179.54856806  .00000099  00000+0  13437-3 0  9992
2 60389  88.9679 278.6237 0013379 355.1452   4.9567 13.51012753 93829
QIANFAN-12              
1 60390U 24140M   26179.56923435  .00000114  00000+0  15861-3 0  9990
2 60390  88.9722 278.7512 0012536   4.5175 355.6087 13.51014942 93957
QIANFAN-13              
1 60391U 24140N   26179.54039250  .00000105  00000+0  14357-3 0  9991
2 60391  88.9734 278.8781 0012477   7.5180 352.6156 13.51014946 93973
QIANFAN-14              
1 60392U 24140P   26179.56507983  .00000113  00000+0  15555-3 0  9997
2 60392  88.9714 278.7312 0016101   4.9198 355.2109 13.51008458 93988
QIANFAN-15              
1 60393U 24140Q   26179.57324029  .00000110  00000+0  15187-3 0  9995
2 60393  88.9737 278.7339 0011406 353.3740   6.7259 13.51009109 93977
QIANFAN-16              
1 60394U 24140R   26179.56103440  .00000117  00000+0  16227-3 0  9990
2 60394  88.9740 278.8610 0014242  10.0832 350.0602 13.51016893 93880
QIANFAN-17              
1 60395U 24140S   26179.55681337  .00000105  00000+0  14377-3 0  9997
2 60395  88.9751 278.9289 0014365   3.3631 356.7614 13.51013087 94849
QIANFAN-18              
1 60396U 24140T   26179.53620168  .00000111  00000+0  15363-3 0  9994
2 60396  88.9744 278.4514 0013023 345.5584  14.5193 13.51012458 94231
QIANFAN-19              
1 61552U 24185A   26179.60319656  .00000343  00000+0  17171-3 0  9999
2 61552  88.9829  55.2685 0008454  42.3657 317.8181 14.14483806 97637
QIANFAN-20              
1 61553U 24185B   26179.61977958  .00000234  00000+0  12682-3 0  9997
2 61553  88.9825  55.7868 0008091  77.8182 282.3907 14.09027266 97354
QIANFAN-21              
1 61554U 24185C   26179.59276569  .00000506  00000+0  21876-3 0  9992
2 61554  88.9745  53.8068 0013000  79.8713 280.3945 14.22865458 98107
QIANFAN-22              
1 61555U 24185D   26179.62497930  .00000255  00000+0  20862-3 0  9999
2 61555  88.9811  57.5663 0008470 103.7197 256.4917 13.86398823 96356
QIANFAN-23              
1 61556U 24185E   26179.65125221  .00000360  00000+0  17382-3 0  9994
2 61556  88.9821  54.9795 0009329  48.8809 311.3183 14.16508445 97767
QIANFAN-24              
1 61557U 24185F   26179.63864312  .00000535  00000+0  22624-3 0  9993
2 61557  88.9804  54.0647 0010414  25.7556 334.4153 14.24081380 98189
QIANFAN-25              
1 61558U 24185G   26179.64152693  .00000361  00000+0  21122-3 0  9996
2 61558  88.9819  55.7929 0012899  75.3384 284.9227 14.06085727 97310
QIANFAN-26              
1 61559U 24185H   26179.63850192  .00000207  00000+0  19371-3 0  9997
2 61559  88.9818  58.3906 0007282 119.5752 240.6141 13.77917791 95925
QIANFAN-27              
1 61560U 24185J   26179.63988162  .00000386  00000+0  15124-3 0  9998
2 61560  88.9814  53.7453 0007990  17.6081 342.5389 14.27545427 98397
QIANFAN-28              
1 61561U 24185K   26179.58374984  .00000630  00000+0  24630-3 0  9998
2 61561  88.9832  53.7646 0007812  16.3226 343.8219 14.28399321 98412
QIANFAN-29              
1 61562U 24185L   26179.62902186  .00000117  00000+0  16281-3 0  9998
2 61562  88.9793  60.8565 0009230 186.9629 173.1396 13.51075339 94517
QIANFAN-30              
1 61563U 24185M   26179.60569780  .00000149  00000+0  21464-3 0  9990
2 61563  88.9813  60.4599 0007186 169.1179 191.0129 13.50054924 94761
QIANFAN-31              
1 61564U 24185N   26179.59062005  .00000172  00000+0  22131-3 0  9995
2 61564  88.9796  59.9493 0007259 155.4166 204.7337 13.58042507 95017
QIANFAN-32              
1 61565U 24185P   26179.61355883  .00000131  00000+0  18435-3 0  9995
2 61565  88.9853  60.6527 0008397 204.1389 155.9370 13.50788032 94758
QIANFAN-33              
1 61566U 24185Q   26179.64500445  .00000245  00000+0  16652-3 0  9990
2 61566  88.9810  56.7438 0009666  71.7311 288.4917 13.96715253 96781
QIANFAN-34              
1 61567U 24185R   26179.58298234  .00000367  00000+0  22984-3 0  9994
2 61567  88.9786  56.0522 0008602  72.0219 288.1898 14.02475683 97088
QIANFAN-35              
1 61568U 24185S   26179.63379214  .00000572  00000+0  22366-3 0  9991
2 61568  88.9813  53.6520 0006883  16.2006 343.9407 14.28281681 98420
QIANFAN-36              
1 61569U 24185T   26179.62972295  .00000077  00000+0  93826-4 0  9999
2 61569  88.9788  60.4235 0005969 169.2502 190.8780 13.55637037 94737
QIANFAN-37              
1 62238U 24232B   26179.59333518  .00000067  00000+0  84560-4 0  9995
2 62238  89.0065  21.4392 0001513  97.3406 262.7918 13.51010107125889
QIANFAN-38              
1 62239U 24232C   26179.61801294  .00000031  00000+0  29550-4 0  9999
2 62239  89.0072  21.3661 0014181 351.8717   8.2202 13.51006821125948
QIANFAN-39              
1 62240U 24232D   26179.59161642  .00000134  00000+0  50510-4 0  9998
2 62240  89.0055  14.7675 0017397 143.6987 216.5390 14.25528898129570
QIANFAN-40              
1 62241U 24232E   26179.57684386  .00000037  00000+0  38830-4 0  9995
2 62241  89.0099  21.0099 0013523   0.6297 359.4869 13.51008581126309
QIANFAN-41              
1 62242U 24232F   26179.58509237  .00000055  00000+0  66414-4 0  9997
2 62242  89.0070  21.3172 0013441 348.3304  11.7534 13.51011124125969
QIANFAN-42              
1 62243U 24232G   26179.57518796  .00000130  00000+0  49569-4 0  9993
2 62243  89.0053  14.8458 0016010 149.4755 210.7373 14.24617521129533
QIANFAN-43              
1 62244U 24232H   26179.58097073  .00000045  00000+0  51295-4 0  9999
2 62244  89.0074  21.3917 0015163 352.7820   7.3110 13.51010743 94576
QIANFAN-44              
1 62245U 24232J   26179.64265572  .00000042  00000+0  45826-4 0  9998
2 62245  89.0072  21.1930 0013284 350.6474   9.4428 13.51012735126059
QIANFAN-45              
1 62246U 24232K   26179.60980208  .00000038  00000+0  40222-4 0  9995
2 62246  89.0076  21.3500 0013928 349.9348  10.1522 13.51010202125976
QIANFAN-46              
1 62247U 24232L   26179.63446686  .00000050  00000+0  58578-4 0  9993
2 62247  89.0072  21.4083 0014189 355.4585   4.6436 13.51010988125934
QIANFAN-47              
1 62248U 24232M   26179.56452589  .00000072  00000+0  93234-4 0  9997
2 62248  89.0068  21.3403 0014576 354.5641   5.5350 13.51010083125951
QIANFAN-48              
1 62249U 24232N   26179.60147034  .00000054  00000+0  65509-4 0  9993
2 62249  89.0072  21.3462 0016912 355.9837   4.1175 13.51014608125968
QIANFAN-49              
1 62250U 24232P   26179.58915957  .00000056  00000+0  67874-4 0  9998
2 62250  89.0071  21.3583 0013807 352.0122   8.0807 13.51013116 94556
QIANFAN-50              
1 62251U 24232Q   26179.61391122  .00000038  00000+0  40321-4 0  9993
2 62251  89.0077  21.3748 0015501 352.4097   7.6817 13.51009918 94588
QIANFAN-51              
1 62252U 24232R   26179.59744708  .00000047  00000+0  54622-4 0  9992
2 62252  89.0070  21.3582 0013162 357.6490   2.4597 13.51006675 94577
QIANFAN-52              
1 62253U 24232S   26179.62619729  .00000061  00000+0  75383-4 0  9994
2 62253  89.0066  21.2212 0014845 348.4618  11.6191 13.51012448 94668
QIANFAN-53              
1 62254U 24232T   26179.60563905  .00000039  00000+0  42514-4 0  9992
2 62254  89.0074  21.3427 0013784 350.3095   9.7788 13.51009018 94624
QIANFAN-54              
1 62255U 24232U   26179.57270700  .00000031  00000+0  29093-4 0  9996
2 62255  89.0065  21.0070 0003579  56.0108 304.1383 13.51012909126129
QIANFAN-55              
1 62785U 25016A   26179.59881256  .00000144  00000+0  20460-3 0  9994
2 62785  88.9735  82.6946 0018464 130.8068 229.4688 13.51007367 73905
QIANFAN-56              
1 62786U 25016B   26179.54122288  .00000146  00000+0  20677-3 0  9995
2 62786  88.9709  82.4841 0017034 132.7009 227.5580 13.51006115 73941
QIANFAN-57              
1 62787U 25016C   26179.64814833  .00000146  00000+0  20824-3 0  9995
2 62787  88.9739  82.6882 0001738  55.9933 304.1384 13.51006137 73924
QIANFAN-58              
1 62788U 25016D   26179.54529007  .00000140  00000+0  19808-3 0  9995
2 62788  88.9710  82.4701 0015188 124.8246 235.4336 13.51020817 73956
QIANFAN-59              
1 62789U 25016E   26179.64404770  .00000145  00000+0  20560-3 0  9998
2 62789  88.9732  82.5802 0015459 128.2525 232.0020 13.51014916 73960
QIANFAN-60              
1 62790U 25016F   26179.60295190  .00000146  00000+0  20711-3 0  9999
2 62790  88.9714  82.5182 0017093 125.6515 234.6231 13.51002518 73944
QIANFAN-61              
1 62791U 25016G   26179.56180585  .00000130  00000+0  18217-3 0  9997
2 62791  88.9781  82.8195 0016047 124.8288 235.4375 13.51010000 73956
QIANFAN-62              
1 62792U 25016H   26179.63994552  .00000146  00000+0  20701-3 0  9991
2 62792  88.9727  82.5734 0017412 125.4663 234.8116 13.51019526 73952
QIANFAN-63              
1 62793U 25016J   26179.59057678  .00000130  00000+0  18199-3 0  9997
2 62793  88.9734  82.5434 0017298 130.5616 229.7044 13.51013469 73981
QIANFAN-64              
1 62794U 25016K   26179.63173715  .00000125  00000+0  17449-3 0  9995
2 62794  88.9721  82.4866 0015465 123.1806 237.0831 13.51010008 73981
QIANFAN-65              
1 62795U 25016L   26179.55369230  .00000125  00000+0  17517-3 0  9992
2 62795  88.9718  82.5138 0015275 124.8054 235.4537 13.51001050 73952
QIANFAN-66              
1 62796U 25016M   26179.58242401  .00000144  00000+0  20396-3 0  9996
2 62796  88.9737  82.5198 0016469 121.1989 239.0779 13.51005790 74003
QIANFAN-67              
1 62797U 25016N   26179.58650442  .00000134  00000+0  18822-3 0  9995
2 62797  88.9727  82.5255 0016245 127.5042 232.7589 13.51008363 73972
QIANFAN-68              
1 62798U 25016P   26179.57826719  .00000158  00000+0  22486-3 0  9994
2 62798  88.9731  82.5786 0016385 125.5868 234.6813 13.51021104 73953
QIANFAN-69              
1 62799U 25016Q   26179.59463856  .00000138  00000+0  19449-3 0  9999
2 62799  88.9710  82.4041 0017079 127.1602 233.1112 13.51014962 73993
QIANFAN-70              
1 62800U 25016R   26179.53709237  .00000144  00000+0  20322-3 0  9991
2 62800  88.9730  82.5899 0016948 118.3843 241.9019 13.51013241 73940
QIANFAN-71              
1 62801U 25016S   26179.53302841  .00000143  00000+0  20300-3 0  9997
2 62801  88.9724  82.5579 0016880 130.5877 229.6747 13.51007610 73941
QIANFAN-72              
1 62802U 25016T   26179.54936385  .00000138  00000+0  19506-3 0  9995
2 62802  88.9715  82.5502 0019889 138.3954 221.8715 13.51014681 73936
QIANFAN-73              
1 63159U 25046A   26179.57633277  .00000125  00000+0  17466-3 0  9990
2 63159  88.9718 299.4994 0012913 269.6205  90.3467 13.51010754 74129
QIANFAN-74              
1 63160U 25046B   26179.56011191  .00000123  00000+0  17216-3 0  9997
2 63160  88.9719 299.3907 0002307 110.1666 249.9734 13.51011944 74189
QIANFAN-75              
1 63161U 25046C   26179.62171351  .00000143  00000+0  20363-3 0  9999
2 63161  88.9719 299.6208 0013933 273.2255  86.7302 13.51010743 74060
QIANFAN-76              
1 63162U 25046D   26179.61753218  .00000145  00000+0  20527-3 0  9991
2 63162  88.9720 299.6010 0011459 273.4956  86.4885 13.51009038 74074
QIANFAN-77              
1 63163U 25046E   26179.56437638  .00000292  00000+0  20232-3 0  9997
2 63163  88.9724 295.9838 0015474 174.5505 185.5843 13.96211191 76057
QIANFAN-78              
1 63164U 25046F   26179.58460674  .00000028  00000+0  25560-4 0  9993
2 63164  88.9719 299.4665 0012820 276.1771  83.7920 13.51004041 74143
QIANFAN-79              
1 63165U 25046G   26179.61349062  .00000138  00000+0  19530-3 0  9996
2 63165  88.9722 299.5783 0012633 274.3837  85.5871 13.51014835 74096
QIANFAN-80              
1 63166U 25046H   26179.63000882  .00000129  00000+0  18184-3 0  9997
2 63166  88.9720 299.2781 0011446 279.4993  80.4864 13.51012124 74253
QIANFAN-81              
1 63167U 25046J   26179.60935451  .00000120  00000+0  16806-3 0  9994
2 63167  88.9719 299.3479 0012815 267.1806  92.7879 13.51019650 74203
QIANFAN-82              
1 63168U 25046K   26179.56817957  .00000127  00000+0  17820-3 0  9994
2 63168  88.9719 299.3962 0010602 275.0126  84.9815 13.51014150 74186
QIANFAN-83              
1 63169U 25046L   26179.61244301  .00000162  00000+0  19431-3 0  9997
2 63169  88.9721 298.7782 0012338 245.1002 114.8873 13.62045468 74536
QIANFAN-84              
1 63170U 25046M   26179.59752029  .00000139  00000+0  19613-3 0  9993
2 63170  88.9720 299.5258 0013712 271.2026  88.7554 13.51039550 74119
QIANFAN-85              
1 63171U 25046N   26179.59282471  .00000125  00000+0  17459-3 0  9994
2 63171  88.9719 299.3964 0011118 273.6000  86.3880 13.51011843 74184
QIANFAN-86              
1 63172U 25046P   26179.60117551  .00000133  00000+0  18664-3 0  9991
2 63172  88.9721 299.2624 0008911 278.3523  81.6618 13.51019353 74269
QIANFAN-87              
1 63173U 25046Q   26179.57226276  .00000131  00000+0  18445-3 0  9998
2 63173  88.9717 299.3696 0009504 272.4802  87.5261 13.51004850 74196
QIANFAN-88              
1 63174U 25046R   26179.58881628  .00000140  00000+0  19785-3 0  9996
2 63174  88.9720 299.3274 0009891 282.8043  77.2003 13.51012691 74220
QIANFAN-89              
1 63175U 25046S   26179.62582100  .00000135  00000+0  19116-3 0  9997
2 63175  88.9719 299.5125 0014532 271.7379  88.2108 13.51019637 74127
QIANFAN-90              
1 63176U 25046T   26179.58046247  .00000141  00000+0  19909-3 0  9997
2 63176  88.9720 299.4901 0011471 269.6838  90.2998 13.51011711 74132
QIANFAN-91              
1 66033U 25233A   26179.61293925  .00000108  00000+0  14874-3 0  9990
2 66033  88.9992  42.0356 0001817  86.7674 273.3685 13.51013077 34728
QIANFAN-92              
1 66034U 25233B   26179.62111937  .00000108  00000+0  14900-3 0  9994
2 66034  88.9975  42.0045 0001949  81.3072 278.8300 13.51016319 34720
QIANFAN-93              
1 66035U 25233C   26179.62937424  .00000099  00000+0  13440-3 0  9999
2 66035  89.0003  42.0587 0001827  84.5965 275.5395 13.51014992 34720
QIANFAN-94              
1 66036U 25233D   26179.61704428  .00000112  00000+0  15495-3 0  9993
2 66036  89.0000  41.9629 0002006  84.8121 275.3259 13.51013687 34772
QIANFAN-95              
1 66037U 25233E   26179.62529856  .00000100  00000+0  13602-3 0  9990
2 66037  88.9996  41.5054 0001918  89.8023 270.3348 13.51014711 35022
QIANFAN-96              
1 66038U 25233F   26179.64998042  .00000113  00000+0  15653-3 0  9992
2 66038  88.9994  42.0460 0001789  88.6834 271.4523 13.51013650 34725
QIANFAN-97              
1 66039U 25233G   26179.63350266  .00000099  00000+0  13511-3 0  9996
2 66039  88.9997  42.0321 0001833  86.4076 273.7285 13.51013761 34733
QIANFAN-98              
1 66040U 25233H   26179.64170833  .00000108  00000+0  14884-3 0  9994
2 66040  88.9986  41.7609 0002420  87.3851 272.7578 13.51013744 34872
QIANFAN-99              
1 66041U 25233J   26179.57174660  .00000112  00000+0  15434-3 0  9996
2 66041  88.9997  42.0424 0002233  89.3760 270.7647 13.51013634 34724
QIANFAN-100             
1 66042U 25233K   26179.56372335  .00000103  00000+0  14105-3 0  9999
2 66042  89.0009  41.9716 0001821  85.1990 274.9369 13.50999899 34771
QIANFAN-101             
1 66043U 25233L   26179.58531008  .00000313  00000+0  12286-3 0  9997
2 66043  88.9992  39.2607 0017436 104.1850 256.1282 14.26814250 36258
QIANFAN-102             
1 66044U 25233M   26179.58411647  .00000102  00000+0  13882-3 0  9993
2 66044  88.9996  41.9505 0002026  85.9289 274.2094 13.51013611 34777
QIANFAN-103             
1 66045U 25233N   26179.58823581  .00000099  00000+0  13516-3 0  9997
2 66045  88.9998  42.0456 0001803  85.0906 275.0451 13.51014522 34729
QIANFAN-104             
1 66046U 25233P   26179.59246379  .00000094  00000+0  12770-3 0  9999
2 66046  89.0003  41.9479 0002065  83.0803 277.0583 13.51001256 34770
QIANFAN-105             
1 66047U 25233Q   26179.60072019  .00000100  00000+0  13584-3 0  9992
2 66047  89.0016  41.7916 0001920  88.9901 271.1470 13.51002971 34888
QIANFAN-106             
1 66048U 25233R   26179.59649730  .00000095  00000+0  12780-3 0  9991
2 66048  88.9985  42.0014 0002327  87.1636 272.9782 13.51013596 34726
QIANFAN-107             
1 66049U 25233S   26179.60470225  .00000104  00000+0  14263-3 0  9994
2 66049  89.0001  42.0348 0001850  84.9582 275.1781 13.51013038 34739
QIANFAN-108             
1 66050U 25233T   26179.60881528  .00000110  00000+0  15187-3 0  9991
2 66050  88.9994  42.0213 0002284  86.0983 274.0430 13.51014194 34734
QIANFAN-109             
1 68636U 26075A   26179.62293700  .00000061  00000+0  75138-4 0  9997
2 68636  88.9902 319.8428 0001765 112.9292 247.2046 13.51011947 11332
QIANFAN-110             
1 68637U 26075B   26179.63114836  .00000073  00000+0  94971-4 0  9990
2 68637  88.9901 319.8635 0001992  98.2153 261.9224 13.51013155 11330
QIANFAN-111             
1 68638U 26075C   26179.61885837  .00000067  00000+0  85460-4 0  9991
2 68638  88.9901 319.8243 0002018  96.9190 263.2191 13.51009617 11350
QIANFAN-112             
1 68639U 26075D   26179.65569518  .00000067  00000+0  84880-4 0  9996
2 68639  88.9899 319.8295 0001591 107.9896 252.1429 13.51025080 11358
QIANFAN-113             
1 68640U 26075E   26179.62700984  .00000065  00000+0  82115-4 0  9996
2 68640  88.9905 319.8267 0001868  98.8955 261.2408 13.51015997 11352
QIANFAN-114             
1 68641U 26075F   26179.63518741  .00000075  00000+0  98214-4 0  9994
2 68641  88.9900 319.8445 0001986  98.8590 261.2786 13.51014718 11340
QIANFAN-115             
1 68642U 26075G   26179.58989363  .00000056  00000+0  67614-4 0  9990
2 68642  88.9900 319.8563 0001990 104.0808 256.0565 13.51019982 11333
QIANFAN-116             
1 68643U 26075H   26179.57755502  .00000076  00000+0  99658-4 0  9991
2 68643  88.9893 319.8168 0001642 102.6017 257.5317 13.51023220 11348
QIANFAN-117             
1 68644U 26075J   26179.56524176  .00000075  00000+0  98096-4 0  9996
2 68644  88.9898 319.8343 0001837 105.1534 254.9821 13.51021956 11342
QIANFAN-118             
1 68645U 26075K   26179.59812067  .00000068  00000+0  86086-4 0  9997
2 68645  88.9903 319.8395 0002010  95.8351 264.3029 13.51020483 11342
QIANFAN-119             
1 68646U 26075L   26179.64754299  .00000075  00000+0  97271-4 0  9992
2 68646  88.9903 319.8300 0001847 109.1577 250.9774 13.51018207 11355
QIANFAN-120             
1 68647U 26075M   26179.58594165  .00000071  00000+0  91559-4 0  9999
2 68647  88.9905 319.8215 0001961 112.3328 247.8031 13.51018472 11355
QIANFAN-121             
1 68648U 26075N   26179.53637937  .00000078  00000+0  10271-3 0  9998
2 68648  88.9902 319.8313 0002035  97.6178 262.5204 13.51026827 11341
QIANFAN-122             
1 68649U 26075P   26179.60234127  .00000070  00000+0  90048-4 0  9994
2 68649  88.9901 319.8226 0001789 107.4347 252.7000 13.51014362 11343
QIANFAN-123             
1 68650U 26075Q   26179.64350771  .00000074  00000+0  95468-4 0  9999
2 68650  88.9898 319.8080 0001695 113.9543 246.1786 13.51012713 11339
QIANFAN-124             
1 68651U 26075R   26179.59411192  .00000070  00000+0  90137-4 0  9993
2 68651  88.9901 319.8223 0001736 109.1257 251.0082 13.51013816 11350
QIANFAN-125             
1 68652U 26075S   26179.60630164  .00000079  00000+0  10404-3 0  9995
2 68652  88.9900 319.8231 0002007  97.2571 262.8808 13.51025547 11357
QIANFAN-126             
1 68653U 26075T   26179.61466884  .00000056  00000+0  68235-4 0  9994
2 68653  88.9904 319.7884 0001722 113.9245 246.2087 13.51016057 11375
QIANFAN-127             
1 69073U 26104A   26178.83697102 -.01913850  00000+0 -19696+1 0  9997
2 69073  88.9873 340.4390 0008237  73.6639 286.5433 13.79985687  6568
QIANFAN-128             
1 69074U 26104B   26178.78865487 -.02147609  00000+0 -22869+1 0  9993
2 69074  88.9865 340.4689 0009201  68.9827 291.2323 13.78419932  6542
QIANFAN-129             
1 69075U 26104C   26178.82550387 -.02153914  00000+0 -21138+1 0  9993
2 69075  88.9863 340.4190 0012490  47.3898 312.8322 13.83277480  6579
QIANFAN-130             
1 69076U 26104D   26178.91072524  .00000042  00000+0  27018-4 0  9992
2 69076  88.9874 340.4481 0010311  51.2814 308.9275 13.82195799  6560
QIANFAN-131             
1 69077U 26104E   26178.84719069 -.02153700  00000+0 -22105+1 0  9999
2 69077  88.9852 340.4383 0013767  55.5296 304.7170 13.80606249  6560
QIANFAN-132             
1 69078U 26104F   26178.81684674 -.02153738  00000+0 -23788+1 0  9999
2 69078  88.9866 340.4740 0001583 134.1637 225.9658 13.76253440  6548
QIANFAN-133             
1 69079U 26104G   26178.81105209 -.02059427  00000+0 -20615+1 0  9998
2 69079  88.9870 340.4541 0013086  61.7602 298.4886 13.81905419  6556
QIANFAN-134             
1 69080U 26104H   26178.84912949 -.02111212  00000+0 -22730+1 0  9991
2 69080  88.9857 340.4595 0008666  59.8525 300.3499 13.77688112  6558
QIANFAN-135             
1 69081U 26104J   26178.82101901 -.01985684  00000+0 -20925+1 0  9993
2 69081  88.9868 340.4551 0007614  62.1284 298.0654 13.78719671  6556
QIANFAN-136             
1 69082U 26104K   26178.81971245 -.02153979  00000+0 -23069+1 0  9996
2 69082  88.9864 340.4546 0010490  68.3453 291.8830 13.78081540  6553
QIANFAN-137             
1 69083U 26104L   26178.82905824 -.02124207  00000+0 -17408+1 0  9990
2 69083  88.9869 340.3810 0012269  67.5403 292.7070 13.93735018  6597
QIANFAN-138             
1 69084U 26104M   26178.81060220 -.02102400  00000+0 -22775+1 0  9996
2 69084  88.9862 340.4534 0005407  83.4999 276.6783 13.77311145  6559
QIANFAN-139             
1 69085U 26104N   26178.85020720 -.02124363  00000+0 -22089+1 0  9992
2 69085  88.9865 340.4411 0011597  63.8633 296.3726 13.79783522  6562
QIANFAN-140             
1 69086U 26104P   26178.69877223 -.02025203  00000+0 -20687+1 0  9998
2 69086  88.9869 340.4575 0011014  71.8118 288.4248 13.80644951  6542
QIANFAN-141             
1 69087U 26104Q   26178.82450676 -.03189795  00000+0 -30789+1 0  9995
2 69087  88.9864 340.4434 0027800 257.0196 102.7867 13.80718872  6567
QIANFAN-142             
1 69088U 26104R   26178.79524629  .00000045  00000+0  26853-4 0  9998
2 69088  88.9877 340.4318 0008049  49.8476 310.3400 13.88175036  6562
QIANFAN-143             
1 69089U 26104S   26178.78139888 -.02066061  00000+0 -20123+1 0  9991
2 69089  88.9871 340.4303 0012350  47.2364 312.9842 13.83544725  6567
QIANFAN-144             
1 69090U 26104T   26178.86729926 -.02127770  00000+0 -21355+1 0  9993
2 69090  88.9862 340.4222 0014424  37.5995 322.6179 13.81881491  6579
QIANFAN-145             
1 69104U 26108A   26178.85515340 -.01971362  00000+0 -18868+1 0  9993
2 69104  89.0095  21.0777 0019717  70.5692 289.7606 13.84328876  5824
QIANFAN-146             
1 69105U 26108B   26178.85932034 -.02032406  00000+0 -15099+1 0  9998
2 69105  89.0106  21.0256 0020117  72.4663 287.8712 13.99088884  5853
QIANFAN-147             
1 69106U 26108C   26178.88881713 -.02125251  00000+0 -19245+1 0  9997
2 69106  89.0098  21.0640 0016434  91.0132 269.2923 13.87918954  5839
QIANFAN-148             
1 69107U 26108D   26178.89218323 -.02116249  00000+0 -19808+1 0  9992
2 69107  89.0090  21.0632 0017175  74.7281 285.5787 13.85959421  5830
QIANFAN-149             
1 69108U 26108E   26178.83260154 -.02119355  00000+0 -20487+1 0  9992
2 69108  89.0087  21.0757 0019010  66.7139 293.6029 13.84051295  5827
QIANFAN-150             
1 69109U 26108F   26178.84801027 -.02097972  00000+0 -18556+1 0  9998
2 69109  89.0083  21.0589 0014964  88.6489 271.6398 13.89247255  5835
QIANFAN-151             
1 69110U 26108G   26178.86323228 -.02145825  00000+0 -20146+1 0  9993
2 69110  89.0090  21.0628 0017670  78.6296 281.6858 13.85835504  5839
QIANFAN-152             
1 69111U 26108H   26178.83974118 -.02094468  00000+0 -19104+1 0  9999
2 69111  89.0092  21.0582 0014639  90.1856 270.0993 13.87446372  5839
QIANFAN-153             
1 69112U 26108J   26178.85245970 -.02154163  00000+0 -20302+1 0  9990
2 69112  89.0089  21.0575 0017354  74.4352 285.8733 13.85631784  5838
QIANFAN-154             
1 69113U 26108K   26178.91156000  .00000058  00000+0  37591-4 0  9994
2 69113  89.0105  21.0506 0017509  71.3891 288.9180 13.88272437  5848
QIANFAN-155             
1 69114U 26108L   26178.84192959 -.02077464  00000+0 -18974+1 0  9999
2 69114  89.0099  21.0593 0015341  85.3532 274.9392 13.87330467  5832
QIANFAN-156             
1 69115U 26108M   26178.87234912 -.02064279  00000+0 -18178+1 0  9995
2 69115  89.0102  21.0479 0014793  70.8020 289.4752 13.89436190  5846
QIANFAN-157             
1 69116U 26108N   26178.87356517 -.02084477  00000+0 -16677+1 0  9996
2 69116  89.0091  21.0253 0024005  79.1026 281.2850 13.94932789  5850
QIANFAN-158             
1 69117U 26108P   26178.83542233 -.02101450  00000+0 -17644+1 0  9991
2 69117  89.0095  21.0389 0019392  80.6341 279.7025 13.92237003  5845
QIANFAN-159             
1 69118U 26108Q   26178.84680457 -.02096695  00000+0 -18296+1 0  9992
2 69118  89.0083  21.0383 0015712  88.3824 271.9148 13.90025441  5849
QIANFAN-160             
1 69119U 26108R   26178.84903319 -.02061610  00000+0 -18600+1 0  9996
2 69119  89.0096  21.0430 0012906  75.9170 284.3435 13.88031146  5848
QIANFAN-161             
1 69120U 26108S   26178.94945855  .00000045  00000+0  22305-4 0  9992
2 69120  89.0107  21.0203 0017524  74.7454 285.5659 13.96987528  5860
QIANFAN-162             
1 69121U 26108T   26178.88515854 -.02103285  00000+0 -17653+1 0  9998
2 69121  89.0093  21.0282 0018083  80.3457 279.9759 13.92275123  5853
QIANFAN-163             
1 69325U 26121A   26171.83152253  .00000035  00000+0  30105-4 0  9993
2 69325  89.0159 300.1473 0020476 178.2353 181.8879 13.59758614  2659
QIANFAN-164             
1 69326U 26121B   26179.64266019  .00000125  00000+0  15612-3 0  9992
2 69326  89.0178 299.3642 0021051 155.7406 204.4745 13.57845910  3713
QIANFAN-165             
1 69382U 26124A   26179.56342100  .00000104  00000+0  45543-4 0  9998
2 69382  88.9984   0.7541 0003565 106.4023 253.7557 14.16014164  3429
QIANFAN-166             
1 69383U 26124B   26179.55056462  .00000107  00000+0  45926-4 0  9999
2 69383  88.9985   0.7524 0003024 101.4854 258.6674 14.17061423  3424
QIANFAN-167             
1 69384U 26124C   26179.55502084  .00000097  00000+0  41590-4 0  9997
2 69384  88.9984   0.7528 0003209 138.8749 221.2681 14.16527687  3422
QIANFAN-168             
1 69385U 26124D   26179.61108027  .00000098  00000+0  40752-4 0  9994
2 69385  88.9984   0.7427 0003921 115.7833 244.3761 14.17874673  3437
QIANFAN-169             
1 69386U 26124E   26179.60537597  .00000100  00000+0  41497-4 0  9993
2 69386  88.9984   0.7418 0004305 129.6046 230.5523 14.18288400  3436
QIANFAN-170             
1 69387U 26124F   26179.59556667  .00000094  00000+0  38190-4 0  9999
2 69387  88.9983   0.7402 0003791 111.9491 248.2102 14.19185176  3431
QIANFAN-171             
1 69388U 26124G   26179.58552674  .00000095  00000+0  37950-4 0  9997
2 69388  88.9984   0.7388 0003440 150.5377 209.6007 14.20069274  3436
QIANFAN-172             
1 69389U 26124H   26179.59011076  .00000104  00000+0  42284-4 0  9992
2 69389  88.9984   0.7395 0003543 132.6099 227.5391 14.19640022  3430
QIANFAN-173             
1 69390U 26124J   26179.58067619  .00000103  00000+0  41080-4 0  9999
2 69390  88.9984   0.7381 0003730 124.6687 235.4855 14.20511390  3439
QIANFAN-174             
1 69391U 26124K   26179.57470128  .00000111  00000+0  44690-4 0  9991
2 69391  88.9984   0.7372 0003994 129.6628 230.4915 14.20880055  3431
QIANFAN-175             
1 69392U 26124L   26179.57067373  .00000107  00000+0  42537-4 0  9999
2 69392  88.9983   0.7365 0004664 141.9209 218.2312 14.21341454  3431
QIANFAN-176             
1 69393U 26124M   26179.56508330  .00000105  00000+0  40941-4 0  9997
2 69393  88.9984   0.7357 0003616 145.4222 214.7205 14.21842758  3439
QIANFAN-177             
1 69394U 26124N   26179.55618547  .00000111  00000+0  43178-4 0  9991
2 69394  88.9984   0.7343 0004593 123.0597 237.1036 14.22732171  3436
QIANFAN-178             
1 69395U 26124P   26179.56045950  .00000114  00000+0  44690-4 0  9998
2 69395  88.9983   0.7349 0003945 132.1943 227.9584 14.22275803  3437
QIANFAN-179             
1 69396U 26124Q   26179.55185841  .00000111  00000+0  42601-4 0  9999
2 69396  88.9983   0.7335 0003939 128.7236 231.4308 14.23098855  3437
QIANFAN-180             
1 69397U 26124R   26179.54733367  .00000123  00000+0  47634-4 0  9995
2 69397  88.9983   0.7330 0004271 137.7286 222.4236 14.23620570  3433
QIANFAN-181             
1 69398U 26124S   26179.55614442  .00000095  00000+0  40270-4 0  9996
2 69398  88.9983   0.7530 0002986 105.1815 254.9704 14.16650699  3420
QIANFAN-182             
1 69399U 26124T   26179.60086086  .00000102  00000+0  42453-4 0  9994
2 69399  88.9984   0.7412 0003347 124.2148 235.9359 14.18740102  3431
QIANFAN-183             
1 69401U 26125A   26179.57220848  .00000353  00000+0  17022-3 0  9992
2 69401  88.9954 279.1612 0015468 139.1396 221.0955 14.16466679  3310
QIANFAN-184             
1 69402U 26125B   26179.56354824  .00000370  00000+0  17747-3 0  9997
2 69402  88.9955 279.1601 0016342 133.5598 226.6950 14.16886771  3319
QIANFAN-185             
1 69403U 26125C   26179.64008218  .00000368  00000+0  17900-3 0  9998
2 69403  88.9956 279.1528 0017182 133.8615 226.3996 14.16091607  3329
QIANFAN-186             
1 69404U 26125D   26179.55476572  .00000367  00000+0  17388-3 0  9990
2 69404  88.9955 279.1588 0015634 134.8860 225.3601 14.17437624  3313
QIANFAN-187             
1 69405U 26125E   26179.54589745  .00000371  00000+0  17314-3 0  9991
2 69405  88.9955 279.1573 0016141 135.9689 224.2789 14.18348343  3318
QIANFAN-188             
1 69406U 26125F   26179.53486229  .00000390  00000+0  17834-3 0  9992
2 69406  88.9955 279.1555 0016119 139.4091 220.8304 14.19440661  3312
QIANFAN-189             
1 69407U 26125G   26179.53958847  .00000369  00000+0  17062-3 0  9992
2 69407  88.9955 279.1564 0015364 136.8872 223.3524 14.18759564  3318
QIANFAN-190             
1 69408U 26125H   26179.53487118  .00000368  00000+0  16848-3 0  9991
2 69408  88.9956 279.1558 0016145 138.4767 221.7652 14.19222631  3317
QIANFAN-191             
1 69409U 26125J   26179.59539840  .00000386  00000+0  17408-3 0  9991
2 69409  88.9955 279.1461 0015564 137.1382 223.1024 14.20094063  3321
QIANFAN-192             
1 69410U 26125K   26179.59033598  .00000394  00000+0  17648-3 0  9997
2 69410  88.9956 279.1455 0016433 137.4910 222.7556 14.20520079  3329
QIANFAN-193             
1 69411U 26125L   26179.58409786  .00000396  00000+0  17592-3 0  9993
2 69411  88.9955 279.1445 0016313 137.8637 222.3811 14.20962653  3323
QIANFAN-194             
1 69412U 26125M   26179.57956346  .00000388  00000+0  17107-3 0  9995
2 69412  88.9955 279.1437 0015605 141.3828 218.8482 14.21404363  3313
QIANFAN-195             
1 69413U 26125N   26179.57534616  .00000401  00000+0  17566-3 0  9993
2 69413  88.9955 279.1431 0016800 140.1085 220.1344 14.21801776  3321
QIANFAN-196             
1 69414U 26125P   26179.64067859  .00000391  00000+0  16921-3 0  9994
2 69414  88.9956 279.1343 0016915 140.3292 219.9140 14.22296916  3330
QIANFAN-197             
1 69415U 26125Q   26179.56638396  .00000400  00000+0  17196-3 0  9992
2 69415  88.9955 279.1417 0015181 137.6444 222.5923 14.22741332  3318
QIANFAN-198             
1 69416U 26125R   26179.64178353  .00000393  00000+0  17112-3 0  9993
2 69416  88.9955 279.1345 0015497 136.8924 223.3484 14.22068073  3330
QIANFAN-199             
1 69417U 26125S   26179.55876964  .00000407  00000+0  17215-3 0  9997
2 69417  88.9955 279.1405 0017208 138.0262 222.2253 14.23631612  3326
QIANFAN-200             
1 69418U 26125T   26179.59962592  .00000378  00000+0  17216-3 0  9993
2 69418  88.9955 279.1468 0016248 136.0080 224.2407 14.19641591  3320
