ORBCOMM FM06            
1 25118U 97084G   26156.63783515  .00001481  00000+0  43786-3 0  9997
2 25118  45.0131 108.3096 0002063 296.0666 234.1512 14.47533176492718
ORBCOMM FM04            
1 25159U 98007C   26156.82851538  .00001086  00000+0  41736-3 0  9994
2 25159 107.9626 146.0420 0040969 344.3536  15.6336 14.35720081474963
ORBCOMM FM19            
1 25415U 98046C   26156.69075514  .00001087  00000+0  39105-3 0  9997
2 25415  44.9943 298.2069 0004110 235.7695 139.1507 14.39477445455122
ORBCOMM FM20            
1 25416U 98046D   26156.68922861  .00000788  00000+0  30441-3 0  9994
2 25416  44.9950 306.0101 0001476 211.2266 148.8494 14.38050508455130
ORBCOMM FM27            
1 25481U 98053G   26156.31687977  .00000999  00000+0  36574-3 0  9997
2 25481  45.0066  31.7321 0000356  22.4245 337.6619 14.39118024448524
ORBCOMM FM32            
1 25982U 99065C   26156.47268570  .00000600  00000+0  24753-3 0  9993
2 25982  45.0146 228.6893 0005279 336.7137  23.3472 14.37116040385407
ORBCOMM FM109           
1 40086U 14040A   26156.24991078  .00000458  00000+0  13321-3 0  9996
2 40086  47.0015 147.9247 0001511 210.8185 149.2612 14.58829502632600
ORBCOMM FM114           
1 41179U 15081A   26152.97982418  .00000602  00000+0  16356-3 0  9992
2 41179  47.0052  73.9009 0001546 135.7645 224.3365 14.58838571555535
ORBCOMM FM110           
1 41182U 15081D   26153.99571428  .00000757  00000+0  19640-3 0  9994
2 41182  47.0024  68.5419 0003230 358.8742   1.2136 14.58854978555550
ORBCOMM FM118           
1 41183U 15081E   26153.00264808  .00003490  00000+0  77410-3 0  9994
2 41183  47.0044  73.5648 0003601 319.9456  40.1164 14.58855670555514
ORBCOMM FM112           
1 41184U 15081F   26156.15783895  .00000729  00000+0  19041-3 0  9994
2 41184  47.0001 327.1297 0002934 162.7897 197.3089 14.58885738557192
ORBCOMM FM113           
1 41185U 15081G   26156.20258946  .00000539  00000+0  15023-3 0  9990
2 41185  47.0019 327.2885 0001524 173.9999 186.0905 14.58845078557181
ORBCOMM FM108           
1 41187U 15081J   26156.50751746  .00000700  00000+0  18440-3 0  9997
2 41187  47.0046 237.4186 0002310 171.2053 188.8874 14.58857926558377
ORBCOMM FM117           
1 41188U 15081K   26156.95241018  .00000685  00000+0  18110-3 0  9999
2 41188  47.0008 233.9523 0002864 175.5307 184.5605 14.58855403558480
ORBCOMM FM116           
1 41189U 15081L   26156.17961067  .00000759  00000+0  19679-3 0  9990
2 41189  47.0034 327.3957 0001292 353.0293   7.0575 14.58864242557182
