QIANFAN-1               
1 60379U 24140A   26067.08824527  .00000079  00000+0  10314-3 0  9990
2 60379  88.9711 290.4519 0016846 334.1709  25.8599 13.50999917 78874
QIANFAN-2               
1 60380U 24140B   26067.11696643  .00000092  00000+0  12369-3 0  9999
2 60380  88.9697 290.2763 0011406 306.4594  53.5505 13.51004087 78937
QIANFAN-3               
1 60381U 24140C   26067.12513335  .00000101  00000+0  13738-3 0  9999
2 60381  88.9690 290.4016 0012849 319.6291  40.3905 13.51000104 78840
QIANFAN-4               
1 60382U 24140D   26067.10055082  .00000100  00000+0  13692-3 0  9996
2 60382  88.9714 290.3234 0011707 309.2535  50.7577 13.51000480 78967
QIANFAN-5               
1 60383U 24140E   26067.14994571  .00000089  00000+0  11952-3 0  9999
2 60383  88.9689 290.4243 0014430 330.8479  29.1865 13.51002392 78833
QIANFAN-6               
1 60384U 24140F   26067.09646149  .00000090  00000+0  12053-3 0  9994
2 60384  88.9716 290.1990 0011954 315.7118  44.3075 13.51002179 79028
QIANFAN-7               
1 60385U 24140G   26067.11008640  .00000367  00000+0  14241-3 0  9994
2 60385  88.9729 283.6952 0016802 115.8938 244.3991 14.27774111 82573
QIANFAN-8               
1 60386U 24140H   26067.10467606  .00000090  00000+0  12126-3 0  9998
2 60386  88.9717 290.4370 0015460 316.6297  43.3637 13.51003727 78875
QIANFAN-9               
1 60387U 24140J   26067.15405567  .00000080  00000+0  10502-3 0  9997
2 60387  88.9716 290.5055 0015146 316.3061  43.6891 13.50998439 78869
QIANFAN-10              
1 60388U 24140K   26067.15805800  .00000089  00000+0  11899-3 0  9991
2 60388  88.9724 289.8604 0013117 291.9572  68.0184 13.50996877 78995
QIANFAN-11              
1 60389U 24140L   26067.12115537  .00000094  00000+0  12671-3 0  9995
2 60389  88.9651 290.3878 0013166 316.9207  43.0912 13.51003718 78640
QIANFAN-12              
1 60390U 24140M   26067.14173616  .00000084  00000+0  11189-3 0  9993
2 60390  88.9694 290.4664 0012232 326.2644  33.7727 13.51001415 78771
QIANFAN-13              
1 60391U 24140N   26067.11290648  .00000085  00000+0  11308-3 0  9990
2 60391  88.9707 290.5798 0012130 329.3077  30.7363 13.51001831 78794
QIANFAN-14              
1 60392U 24140P   26067.13752464  .00000090  00000+0  12072-3 0  9997
2 60392  88.9686 290.4566 0015793 327.3577  32.6596 13.51001732 78805
QIANFAN-15              
1 60393U 24140Q   26067.14590517  .00000074  00000+0  96865-4 0  9993
2 60393  88.9709 290.4325 0011221 314.5643  45.4592 13.50999536 78792
QIANFAN-16              
1 60394U 24140R   26067.13340267  .00000103  00000+0  14151-3 0  9998
2 60394  88.9712 290.5565 0013853 332.3819  27.6595 13.50998246 78703
QIANFAN-17              
1 60395U 24140S   26067.12938381  .00000092  00000+0  12378-3 0  9994
2 60395  88.9723 290.6122 0014052 325.5439  34.4800 13.51004905 79662
QIANFAN-18              
1 60396U 24140T   26067.10884367  .00000084  00000+0  11156-3 0  9991
2 60396  88.9715 290.1416 0012940 307.1600  52.8369 13.51004058 79051
QIANFAN-19              
1 61552U 24185A   26067.12018888  .00000665  00000+0  34004-3 0  9996
2 61552  88.9761  68.1370 0008393  44.5701 315.6159 14.14390339 81735
QIANFAN-20              
1 61553U 24185B   26067.12780058  .00000646  00000+0  36565-3 0  9995
2 61553  88.9759  68.5461 0007862  76.9826 283.2235 14.08936688 81512
QIANFAN-21              
1 61554U 24185C   26067.13738529  .00000872  00000+0  38249-3 0  9995
2 61554  88.9680  66.9559 0013019  86.0975 274.1705 14.22732372 82112
QIANFAN-22              
1 61555U 24185D   26067.10390296  .00000352  00000+0  29269-3 0  9993
2 61555  88.9743  69.8752 0008642  94.2581 265.9578 13.86340476 80764
QIANFAN-23              
1 61556U 24185E   26067.11649226  .00000757  00000+0  37403-3 0  9993
2 61556  88.9754  67.9069 0009374  52.4091 307.7946 14.16395931 81835
QIANFAN-24              
1 61557U 24185F   26067.13834894  .00001071  00000+0  46093-3 0  9998
2 61557  88.9738  67.1697 0010335  31.8911 328.2905 14.23937726 82171
QIANFAN-25              
1 61558U 24185G   26067.12772181  .00000589  00000+0  35090-3 0  9996
2 61558  88.9751  68.5055 0011891  58.8626 301.3721 14.05997953 81502
QIANFAN-26              
1 61559U 24185H   26067.07913160  .00000287  00000+0  27367-3 0  9998
2 61559  88.9748  70.5219 0007771 107.1513 253.0505 13.77862739 80423
QIANFAN-27              
1 61560U 24185J   26067.13359960  .00000718  00000+0  28689-3 0  9996
2 61560  88.9751  66.9120 0008397  25.3070 334.8534 14.27446730 82341
QIANFAN-28              
1 61561U 24185K   26067.14176792  .00001225  00000+0  48608-3 0  9995
2 61561  88.9767  66.9183 0007991  26.4922 333.6679 14.28219012 82366
QIANFAN-29              
1 61562U 24185L   26067.13221633  .00000203  00000+0  29576-3 0  9998
2 61562  88.9720  72.4687 0010588 152.8658 207.3048 13.51044720 79329
QIANFAN-30              
1 61563U 24185M   26067.09766111  .00000204  00000+0  30163-3 0  9994
2 61563  88.9740  72.0303 0008856 137.7742 222.4092 13.50019707 79585
QIANFAN-31              
1 61564U 24185N   26067.08058235  .00000244  00000+0  32062-3 0  9999
2 61564  88.9725  71.6982 0008504 129.5910 230.5997 13.58004223 79740
QIANFAN-32              
1 61565U 24185P   26067.09301048  .00000160  00000+0  22966-3 0  9993
2 61565  88.9784  72.1912 0009948 165.7708 194.3725 13.50764728 79566
QIANFAN-33              
1 61566U 24185Q   26067.09332566  .00000519  00000+0  36510-3 0  9991
2 61566  88.9739  69.2726 0009236  67.6422 292.5732 13.96625569 81077
QIANFAN-34              
1 61567U 24185R   26067.13667848  .00000603  00000+0  38408-3 0  9993
2 61567  88.9716  68.7178 0008272  70.8258 289.3817 14.02385942 81322
QIANFAN-35              
1 61568U 24185S   26067.11337998  .00001211  00000+0  48124-3 0  9994
2 61568  88.9748  66.8373 0007179  25.1309 335.0234 14.28125042 82367
QIANFAN-36              
1 61569U 24185T   26067.14215457  .00000119  00000+0  15356-3 0  9990
2 61569  88.9719  72.1305 0007198 139.9687 220.1998 13.55614284 79496
QIANFAN-37              
1 62238U 24232B   26067.09190892  .00000105  00000+0  14400-3 0  9990
2 62238  89.0057  32.7091 0001786  97.8466 262.2888 13.51005749110694
QIANFAN-38              
1 62239U 24232C   26067.19060852  .00000107  00000+0  14710-3 0  9990
2 62239  89.0064  32.6208 0013194 315.3828  44.6260 13.51004322110768
QIANFAN-39              
1 62240U 24232D   26067.13757866  .00000571  00000+0  23546-3 0  9996
2 62240  89.0062  27.5409 0016887 151.0820 209.1312 14.25439176113550
QIANFAN-40              
1 62241U 24232E   26067.07539925  .00000107  00000+0  14716-3 0  9998
2 62241  89.0092  32.2408 0012502 324.9688  35.0640 13.51003514111110
QIANFAN-41              
1 62242U 24232F   26067.15773093  .00000107  00000+0  14704-3 0  9991
2 62242  89.0062  32.5742 0012507 311.4509  48.5567 13.51005200110783
QIANFAN-42              
1 62243U 24232G   26067.11967909  .00000550  00000+0  23062-3 0  9998
2 62243  89.0060  27.6029 0015506 156.5015 203.6889 14.24532910113527
QIANFAN-43              
1 62244U 24232H   26067.07951093  .00000106  00000+0  14556-3 0  9996
2 62244  89.0066  32.6511 0014179 316.6743  43.3292 13.51005193 79387
QIANFAN-44              
1 62245U 24232J   26067.06718052  .00000097  00000+0  13244-3 0  9994
2 62245  89.0065  32.4617 0012319 314.3860  45.6281 13.51003114110853
QIANFAN-45              
1 62246U 24232K   26067.10835508  .00000203  00000+0  29624-3 0  9994
2 62246  89.0068  32.6072 0012922 313.3926  46.6148 13.51006147110780
QIANFAN-46              
1 62247U 24232L   26067.13299835  .00000081  00000+0  10687-3 0  9998
2 62247  89.0064  32.6701 0013193 319.3850  40.6316 13.51003709110747
QIANFAN-47              
1 62248U 24232M   26067.06304728  .00000096  00000+0  12977-3 0  9999
2 62248  89.0060  32.6067 0013586 318.4708  41.5410 13.51003629110765
QIANFAN-48              
1 62249U 24232N   26067.10008586  .00000098  00000+0  13285-3 0  9993
2 62249  89.0064  32.6082 0015903 320.1699  39.8284 13.51003792110772
QIANFAN-49              
1 62250U 24232P   26067.08774863  .00000101  00000+0  13805-3 0  9993
2 62250  89.0063  32.6212 0012837 315.7148  44.2975 13.51002956 79367
QIANFAN-50              
1 62251U 24232Q   26067.11242178  .00000109  00000+0  15041-3 0  9999
2 62251  89.0069  32.6315 0014532 316.3051  43.6949 13.51003923 79394
QIANFAN-51              
1 62252U 24232R   26067.17005721  .00000090  00000+0  12154-3 0  9998
2 62252  89.0062  32.6144 0012139 321.4497  38.5786 13.51004671 79393
QIANFAN-52              
1 62253U 24232S   26067.12480732  .00000097  00000+0  13216-3 0  9990
2 62253  89.0059  32.4893 0013896 311.9703  48.0263 13.51001232 79479
QIANFAN-53              
1 62254U 24232T   26067.17826168  .00000106  00000+0  14569-3 0  9996
2 62254  89.0066  32.5948 0012812 313.6124  46.3963 13.51003981 79441
QIANFAN-54              
1 62255U 24232U   26067.14538193  .00000095  00000+0  12879-3 0  9991
2 62255  89.0058  32.2691 0002941  35.5883 324.5463 13.51003328110941
QIANFAN-55              
1 62785U 25016A   26067.09738481  .00000045  00000+0  50453-4 0  9992
2 62785  88.9690  94.3772 0019478 101.2949 259.0392 13.50996463 58714
QIANFAN-56              
1 62786U 25016B   26067.11375308  .00000035  00000+0  34685-4 0  9999
2 62786  88.9663  94.1890 0018116 103.2916 257.0256 13.50998340 58766
QIANFAN-57              
1 62787U 25016C   26067.07266677  .00000051  00000+0  60718-4 0  9997
2 62787  88.9695  94.3733 0001391 101.9761 258.1546 13.50997346 58725
QIANFAN-58              
1 62788U 25016D   26067.11786257  .00000037  00000+0  38202-4 0  9991
2 62788  88.9664  94.1738 0016040  96.5640 263.7337 13.50998886 58772
QIANFAN-59              
1 62789U 25016E   26067.14270157  .00000053  00000+0  62661-4 0  9996
2 62789  88.9688  94.2653 0016360  99.7523 260.5477 13.51006478 58774
QIANFAN-60              
1 62790U 25016F   26067.10155821  .00000036  00000+0  37403-4 0  9991
2 62790  88.9669  94.2248 0017961  96.8322 263.4874 13.51009479 58753
QIANFAN-61              
1 62791U 25016G   26067.13446875  .00001290  00000+0  19775-2 0  9990
2 62791  88.9735  94.4423 0016885  96.2352 264.0723 13.51007726 58771
QIANFAN-62              
1 62792U 25016H   26067.13853683  .00000058  00000+0  70216-4 0  9990
2 62792  88.9683  94.2642 0018262  96.5260 263.7971 13.50996796 58760
QIANFAN-63              
1 62793U 25016J   26067.08919818  .00000042  00000+0  45839-4 0  9994
2 62793  88.9689  94.2266 0018317 101.3813 258.9397 13.50995382 58790
QIANFAN-64              
1 62794U 25016K   26067.13034811  .00000046  00000+0  52516-4 0  9996
2 62794  88.9676  94.1848 0016253  95.0502 265.2505 13.51005745 58791
QIANFAN-65              
1 62795U 25016L   26067.12613423  .00000048  00000+0  55528-4 0  9996
2 62795  88.9672  94.2083 0016102  96.5299 263.7686 13.51008968 58773
QIANFAN-66              
1 62796U 25016M   26067.15496248  .00000032  00000+0  31018-4 0  9995
2 62796  88.9692  94.1921 0017200  92.6516 267.6604 13.50997066 58829
QIANFAN-67              
1 62797U 25016N   26067.08496287  .00000030  00000+0  27273-4 0  9997
2 62797  88.9682  94.2166 0017175  98.8752 261.4344 13.50995415 58786
QIANFAN-68              
1 62798U 25016P   26067.07685571  .00000045  00000+0  50993-4 0  9994
2 62798  88.9686  94.2658 0017231  97.3479 262.9631 13.51005459 58764
QIANFAN-69              
1 62799U 25016Q   26067.09331850  .00000042  00000+0  46244-4 0  9996
2 62799  88.9664  94.1151 0017989  98.2463 262.0728 13.51005502 58803
QIANFAN-70              
1 62800U 25016R   26067.10975044  .00000029  00000+0  26147-4 0  9995
2 62800  88.9685  94.2700 0017563  89.7524 270.5640 13.50997229 58768
QIANFAN-71              
1 62801U 25016S   26067.10558208  .00000035  00000+0  35941-4 0  9994
2 62801  88.9679  94.2446 0017889 101.3294 258.9868 13.50996722 58764
QIANFAN-72              
1 62802U 25016T   26067.12205186  .00000034  00000+0  34316-4 0  9995
2 62802  88.9670  94.2480 0021117 107.8557 252.4900 13.50996392 58754
QIANFAN-73              
1 63159U 25046A   26067.14890278  .00000186  00000+0  27005-3 0  9992
2 63159  88.9754 311.2018 0013228 234.5806 125.4111 13.50999240 58940
QIANFAN-74              
1 63160U 25046B   26067.13250081  .00000185  00000+0  26761-3 0  9992
2 63160  88.9754 311.0923 0001921  79.0194 281.1173 13.50999158 59008
QIANFAN-75              
1 63161U 25046C   26067.11966685  .00000065  00000+0  82558-4 0  9999
2 63161  88.9758 311.3284 0014341 238.4554 121.5197 13.50972172 58871
QIANFAN-76              
1 63162U 25046D   26067.11595230  .00000147  00000+0  20972-3 0  9996
2 63162  88.9756 311.3088 0011904 238.8135 121.1850 13.51002830 58882
QIANFAN-77              
1 63163U 25046E   26067.11737280  .00000383  00000+0  26906-3 0  9995
2 63163  88.9751 308.6139 0014774 166.4720 193.6856 13.96176554 60368
QIANFAN-78              
1 63164U 25046F   26067.15713514  .00000202  00000+0  29423-3 0  9991
2 63164  88.9754 311.1678 0013236 241.6613 118.3203 13.50999584 58967
QIANFAN-79              
1 63165U 25046G   26067.11199586  .00000199  00000+0  28983-3 0  9990
2 63165  88.9758 311.2834 0013102 239.9332 120.0520 13.51009658 58908
QIANFAN-80              
1 63166U 25046H   26067.12831213  .00000170  00000+0  24500-3 0  9992
2 63166  88.9755 310.9862 0011911 244.4777 115.5143 13.50999136 59069
QIANFAN-81              
1 63167U 25046J   26067.10649267  .00000143  00000+0  20290-3 0  9999
2 63167  88.9755 311.0563 0013056 232.3802 127.6165 13.50984804 59016
QIANFAN-82              
1 63168U 25046K   26067.14069622  .00000182  00000+0  26344-3 0  9994
2 63168  88.9755 311.0967 0011063 239.9058 120.0997 13.51000499 59006
QIANFAN-83              
1 63169U 25046L   26067.13944211  .00000277  00000+0  34403-3 0  9990
2 63169  88.9755 310.7055 0012635 217.8552 142.1718 13.62022885 59226
QIANFAN-84              
1 63170U 25046M   26067.09452969  .00000210  00000+0  30685-3 0  9996
2 63170  88.9755 311.2340 0014016 236.6413 123.3397 13.50962895 58922
QIANFAN-85              
1 63171U 25046N   26067.09129611  .00000165  00000+0  23629-3 0  9991
2 63171  88.9755 311.1057 0011477 238.8747 121.1278 13.51003164 58996
QIANFAN-86              
1 63172U 25046P   26067.09953376  .00000179  00000+0  25834-3 0  9990
2 63172  88.9757 310.9690 0009296 243.5285 116.4913 13.51002391 59079
QIANFAN-87              
1 63173U 25046Q   26067.14486059  .00000202  00000+0  29388-3 0  9991
2 63173  88.9753 311.0726 0010013 237.6998 122.3184 13.51010837 59016
QIANFAN-88              
1 63174U 25046R   26067.16120550  .00000165  00000+0  23732-3 0  9990
2 63174  88.9755 311.0276 0010338 247.4114 112.5943 13.50999058 59045
QIANFAN-89              
1 63175U 25046S   26067.12431319  .00000156  00000+0  22373-3 0  9995
2 63175  88.9756 311.2205 0014883 237.1460 122.8258 13.51009550 58930
QIANFAN-90              
1 63176U 25046T   26067.15314840  .00000197  00000+0  28619-3 0  9992
2 63176  88.9756 311.1900 0011843 234.8094 125.1949 13.51009585 58955
QIANFAN-91              
1 66033U 25233A   26067.11163102  .00000045  00000+0  51322-4 0  9994
2 66033  88.9935  53.4075 0001990  92.2323 267.9056 13.51004710 19531
QIANFAN-92              
1 66034U 25233B   26067.11979521  .00000033  00000+0  31781-4 0  9999
2 66034  88.9919  53.3949 0001978  85.8491 274.2886 13.51005985 19530
QIANFAN-93              
1 66035U 25233C   26067.12803005  .00000049  00000+0  57243-4 0  9992
2 66035  88.9945  53.4186 0001955  90.6463 269.4913 13.51005070 19534
QIANFAN-94              
1 66036U 25233D   26067.18961541  .00000034  00000+0  33704-4 0  9999
2 66036  88.9942  53.3190 0002074  87.5010 272.6378 13.50992012 19599
QIANFAN-95              
1 66037U 25233E   26067.12376383  .00000041  00000+0  45029-4 0  9999
2 66037  88.9940  52.8719 0002110  92.7531 267.3862 13.51015360 19835
QIANFAN-96              
1 66038U 25233F   26067.07458561  .00000050  00000+0  58239-4 0  9990
2 66038  88.9937  53.4229 0001996  94.1005 266.0374 13.51004885 19528
QIANFAN-97              
1 66039U 25233G   26067.13217749  .00000035  00000+0  35802-4 0  9993
2 66039  88.9940  53.3977 0001987  92.2564 267.8814 13.51004173 19541
QIANFAN-98              
1 66040U 25233H   26067.14035320  .00000069  00000+0  89016-4 0  9992
2 66040  88.9930  53.1388 0002469  83.6217 276.5215 13.51004802 19687
QIANFAN-99              
1 66041U 25233J   26067.07045167  .00000048  00000+0  55764-4 0  9995
2 66041  88.9941  53.4074 0002366  87.4839 272.6583 13.51005009 19532
QIANFAN-100             
1 66042U 25233K   26067.13625565  .00000067  00000+0  85234-4 0  9995
2 66042  88.9952  53.3164 0001963  91.1127 269.0249 13.51005870 19599
QIANFAN-101             
1 66043U 25233L   26067.09256570  .00000786  00000+0  31844-3 0  9992
2 66043  88.9942  52.1684 0017064 111.8049 248.4962 14.26738207 20219
QIANFAN-102             
1 66044U 25233M   26067.08265941  .00000034  00000+0  34665-4 0  9995
2 66044  88.9939  53.3182 0002112  88.0593 272.0800 13.50992588 19581
QIANFAN-103             
1 66045U 25233N   26067.08694101  .00000041  00000+0  44890-4 0  9999
2 66045  88.9941  53.4101 0001938  91.5288 268.6085 13.51006304 19536
QIANFAN-104             
1 66046U 25233P   26067.09083296  .00000049  00000+0  57666-4 0  9991
2 66046  88.9946  53.3072 0002094  85.4288 274.7102 13.51010407 19586
QIANFAN-105             
1 66047U 25233Q   26067.09905367  .00000044  00000+0  50180-4 0  9993
2 66047  88.9959  53.1360 0002082  91.8071 268.3319 13.50981641 19694
QIANFAN-106             
1 66048U 25233R   26067.09512456  .00000045  00000+0  51769-4 0  9992
2 66048  88.9928  53.3811 0002391  84.8101 275.3323 13.51005343 19547
QIANFAN-107             
1 66049U 25233S   26067.10338748  .00000043  00000+0  47558-4 0  9994
2 66049  88.9943  53.3967 0001977  90.5075 269.6302 13.51003380 19542
QIANFAN-108             
1 66050U 25233T   26067.10748906  .00000038  00000+0  40560-4 0  9997
2 66050  88.9937  53.3912 0002360  84.3204 275.8216 13.51004862 19548
