KUIPER-00008            
1 63724U 25088A   26086.30538352 -.00086146  00000+0 -12347-1 0  9990
2 63724  51.9042   9.5345 0001833 115.2707 244.8444 14.76622705 50666
KUIPER-00009            
1 63725U 25088B   26087.52427139  .00006269  00000+0  78231-3 0  9998
2 63725  51.9043  23.0250 0005631 156.5056 203.6166 14.83462016 50578
KUIPER-00010            
1 63726U 25088C   26087.48094664 -.00000088  00000+0  17501-4 0  9995
2 63726  51.9045   0.0026 0000779  82.6388 277.4663 14.79926104 50515
KUIPER-00011            
1 63727U 25088D   26087.77674085  .00002262  00000+0  32585-3 0  9992
2 63727  51.9037   6.2549 0000808  88.3782 271.7273 14.79907635 50588
KUIPER-00012            
1 63728U 25088E   26087.69161699  .00005555  00000+0  75681-3 0  9998
2 63728  51.9035 351.5560 0000940 110.6600 249.4463 14.79946671 50734
KUIPER-00013            
1 63729U 25088F   26087.82526179 -.00002730  00000+0 -32903-3 0  9996
2 63729  51.9032  23.4813 0001990 108.9431 251.1748 14.79948100 50405
KUIPER-00014            
1 63730U 25088G   26087.85848305  .00007460  00000+0  92417-3 0  9998
2 63730  51.9030  23.9665 0001512 165.1271 194.9738 14.83528035 50210
KUIPER-00015            
1 63731U 25088H   26087.54435237  .00004998  00000+0  68288-3 0  9993
2 63731  51.9002  34.7525 0000478  88.1000 272.0017 14.80010987 50496
KUIPER-00016            
1 63732U 25088J   26087.85505947  .00007419  00000+0  91744-3 0  9998
2 63732  51.9016  26.5022 0004696 137.4309 222.7020 14.83608193 50175
KUIPER-00018            
1 63733U 25088K   26087.76594656 -.00000434  00000+0 -27935-4 0  9998
2 63733  51.9050  16.2169 0000703  77.8742 282.2299 14.79912915 50315
KUIPER-00019            
1 63734U 25088L   26087.53816933  .00006541  00000+0  81396-3 0  9992
2 63734  51.9016  15.4759 0000804  89.4679 270.6377 14.83519890 50301
KUIPER-00020            
1 63735U 25088M   26087.76326841  .00006354  00000+0  86163-3 0  9991
2 63735  51.9031  18.7465 0002672 135.4003 224.7174 14.79938723 50486
KUIPER-00021            
1 63736U 25088N   26087.18920798  .00007994  00000+0  98855-3 0  9991
2 63736  51.9031  21.9475 0002990 131.1886 228.9336 14.83517335 50224
KUIPER-00023            
1 63737U 25088P   26087.22025739  .00004137  00000+0  57121-3 0  9995
2 63737  51.9024  23.6011 0002022 156.7563 203.3491 14.79944031 50505
KUIPER-00024            
1 63738U 25088Q   26087.77405843  .00002387  00000+0  34185-3 0  9994
2 63738  51.9063   8.7272 0000945  81.0136 279.0934 14.79962051 50885
KUIPER-00025            
1 63739U 25088R   26087.75835973 -.00000159  00000+0  84059-5 0  9997
2 63739  51.9036  16.5471 0001568 320.9563  39.1288 14.83680406 50631
KUIPER-00027            
1 63740U 25088S   26087.77134316 -.00004425  00000+0 -55180-3 0  9996
2 63740  51.9044  11.2067 0000663  96.3227 263.7811 14.79933712 50443
KUIPER-00028            
1 63741U 25088T   26087.73995764  .00005738  00000+0  77896-3 0  9999
2 63741  51.9028   8.8091 0001591  89.3390 270.7755 14.80049768 50883
KUIPER-00029            
1 63742U 25088U   26087.74297709  .00000003  00000+0  29341-4 0  9998
2 63742  51.9054   6.3483 0000646  82.6589 277.4447 14.79928260 50442
KUIPER-00030            
1 63743U 25088V   26087.55256049  .00004593  00000+0  63081-3 0  9996
2 63743  51.9040  27.1354 0001258 146.0696 214.0347 14.79950459 50429
KUIPER-00031            
1 63744U 25088W   26087.76620846  .00007340  00000+0  90243-3 0  9993
2 63744  51.9023  10.8238 0001226 184.3602 175.7352 14.83863839 50382
KUIPER-00032            
1 63745U 25088X   26087.84104889  .00017725  00000+0  47668-3 0  9998
2 63745  51.8681 291.5699 0004956 179.9821 180.1167 15.37952845 52491
KUIPER-00033            
1 63746U 25088Y   26087.90780940 -.00006250  00000+0 -79131-3 0  9997
2 63746  51.9052  40.5913 0000865  97.3983 262.7078 14.79949260 50468
KUIPER-00034            
1 63747U 25088Z   26087.74567097  .00005639  00000+0  76796-3 0  9998
2 63747  51.9036   3.8339 0000930  83.2177 276.8892 14.79939007 50645
KUIPER-00035            
1 63748U 25088AA  26087.54710160  .00007172  00000+0  89008-3 0  9992
2 63748  51.9017  30.0208 0003970 119.3467 240.7894 14.83504500 50319
KUIPER-00037            
1 63749U 25088AB  26087.54975564 -.00012556  00000+0 -16204-2 0  9995
2 63749  51.9036  29.6575 0000814  95.0280 265.0775 14.79949005 51103
KUIPER-00038            
1 63750U 25088AC  26087.49865042  .00005952  00000+0  80763-3 0  9992
2 63750  51.9035  14.9210 0000909  94.5208 265.5859 14.80009028 50309
KUIPER-00039            
1 64500U 25134A   26087.87628859  .00004209  00000+0  58053-3 0  9994
2 64500  51.9010 148.2515 0000481  67.9466 292.1547 14.79953056 42915
KUIPER-00040            
1 64501U 25134B   26087.89967801  .00005320  00000+0  66722-3 0  9997
2 64501  51.8990 158.9593 0011239 335.1628  24.8793 14.83502080 42767
KUIPER-00041            
1 64502U 25134C   26087.59271914  .00004327  00000+0  59643-3 0  9998
2 64502  51.8987 161.9937 0001026  42.8168 317.2874 14.79919760 42697
KUIPER-00042            
1 64503U 25134D   26087.57649664  .00004907  00000+0  62093-3 0  9995
2 64503  51.8983 157.8680 0005479 355.5652   4.5262 14.83298890 42754
KUIPER-00043            
1 64504U 25134E   26087.43732722  .00004046  00000+0  55939-3 0  9994
2 64504  51.9013 150.1296 0000610  86.0440 274.0593 14.79933804 42850
KUIPER-00044            
1 64505U 25134F   26087.64465271  .00005212  00000+0  65512-3 0  9994
2 64505  51.8986 162.6274 0006176 347.8960  12.1854 14.83468483 42695
KUIPER-00046            
1 64506U 25134G   26087.59536161  .00000662  00000+0  11582-3 0  9998
2 64506  51.8976 159.4461 0000481  93.2505 266.8512 14.79929163 42733
KUIPER-00047            
1 64507U 25134H   26087.80557401  .00004053  00000+0  51387-3 0  9998
2 64507  51.8987 131.1528 0001417 114.4807 245.6305 14.83617214 43145
KUIPER-00048            
1 64508U 25134J   26087.55733970 -.00002826  00000+0 -34223-3 0  9996
2 64508  51.8979 132.1444 0000615 100.6884 259.4148 14.79889923 43114
KUIPER-00049            
1 64509U 25134K   26087.87735395  .00004678  00000+0  58949-3 0  9991
2 64509  51.9006 143.4857 0000746 216.7802 143.3111 14.83561867 42988
KUIPER-00050            
1 64510U 25134L   26087.91668981  .00025905  00000+0  32530-2 0  9997
2 64510  51.8987 125.5189 0000468 140.1788 133.7761 14.81959172  4104
KUIPER-00051            
1 64511U 25134M   26087.85060402  .00003796  00000+0  52655-3 0  9990
2 64511  51.9001 140.8767 0001205  90.1332 269.9769 14.79940707 43018
KUIPER-00053            
1 64513U 25134P   26087.54902506  .00002159  00000+0  31171-3 0  9990
2 64513  51.9007 139.6982 0000429 301.9912  58.1009 14.79980949 43001
KUIPER-00054            
1 64514U 25134Q   26087.82491850  .00003988  00000+0  55173-3 0  9996
2 64514  51.8980 133.4470 0000773  59.8722 300.2317 14.79938428 43115
KUIPER-00055            
1 64515U 25134R   26087.95903276 -.00260197  00000+0 -12231-1 0  9996
2 64515  51.8961  88.9556 0000498 356.5299   3.5677 15.20298085 43751
KUIPER-00056            
1 64516U 25134S   26087.85330557  .00003808  00000+0  52825-3 0  9999
2 64516  51.9013 138.3778 0000517  95.9699 264.1323 14.79925672 43055
KUIPER-00057            
1 64517U 25134T   26087.84518658  .00004310  00000+0  59424-3 0  9990
2 64517  51.8991 145.8723 0000419  78.6539 281.4470 14.79915989 42947
KUIPER-00058            
1 64518U 25134U   26087.88436673  .00003015  00000+0  42426-3 0  9996
2 64518  51.9002 140.6565 0000688  58.8382 301.2648 14.79934738 43024
KUIPER-00059            
1 64519U 25134V   26087.82222446  .00003795  00000+0  52651-3 0  9998
2 64519  51.8994 135.9816 0000199 316.1206  43.9740 14.79932514 43081
KUIPER-00060            
1 64520U 25134W   26087.85597838  .00000081  00000+0  39573-4 0  9997
2 64520  51.9013 135.8685 0000610  91.4454 268.6579 14.79919944 43072
KUIPER-00061            
1 64521U 25134X   26087.88167117  .00004044  00000+0  55916-3 0  9995
2 64521  51.9004 143.2258 0000574  76.3080 283.7947 14.79929562 42970
KUIPER-00062            
1 64522U 25134Y   26087.87900828  .00004145  00000+0  57304-3 0  9994
2 64522  51.8954 145.7619 0000598  95.3216 264.7815 14.79885942 42954
KUIPER-00063            
1 64523U 25134Z   26087.87081990  .00004287  00000+0  59085-3 0  9990
2 64523  51.9022 153.2848 0000370  36.0169 324.0819 14.79939000 42844
KUIPER-00064            
1 64524U 25134AA  26087.87353156  .00004218  00000+0  58158-3 0  9991
2 64524  51.9017 150.6945 0000415  70.6143 289.4864 14.79960982 42885
KUIPER-00065            
1 64525U 25134AB  26087.86810998  .00004255  00000+0  58642-3 0  9992
2 64525  51.9036 155.8797 0000690  68.8123 291.2913 14.79960907 42794
KUIPER-00066            
1 64526U 25134AC  26087.91668981 -.01888507  00000+0 -14296+0 0  9998
2 64526  51.8826  93.7895 0002300 110.6849 214.7150 15.05616648  4747
KUIPER-00069            
1 64816U 25151A   26087.82503711  .00005560  00000+0  75741-3 0  9991
2 64816  51.9015 196.0094 0000548  71.5998 288.5024 14.79947399 39590
KUIPER-00070            
1 64817U 25151B   26087.76430490 -.00000441  00000+0 -28900-4 0  9999
2 64817  51.8985 221.2108 0000674 100.0070 260.0968 14.79930989 39243
KUIPER-00071            
1 64818U 25151C   26087.63193346  .00004696  00000+0  64454-3 0  9999
2 64818  51.8999 219.3201 0000464  72.0522 288.0491 14.79931188 38071
KUIPER-00072            
1 64819U 25151D   26087.82209743  .00005455  00000+0  74739-3 0  9991
2 64819  51.8965 198.4571 0000284  58.7441 301.3549 14.79735466 38381
KUIPER-00073            
1 64820U 25151E   26087.66573210 -.00002824  00000+0 -34148-3 0  9997
2 64820  51.8981 219.1612 0000518  75.9164 284.1856 14.79943651 39265
KUIPER-00074            
1 64821U 25151F   26087.91668981 -.00102573  00000+0 -15406-2 0  9993
2 64821  51.8977 196.8914 0004114  27.3093 237.8921 15.54506467  5529
KUIPER-00075            
1 64822U 25151G   26087.83185100  .00047782  00000+0  11021-2 0  9999
2 64822  51.8681 128.5827 0004486   6.1979 353.9064 15.42083386 39350
KUIPER-00076            
1 64823U 25151H   26087.74402062 -.00004363  00000+0 -54340-3 0  9991
2 64823  51.9015 208.8300 0000897  89.6733 270.4332 14.79955494 38231
KUIPER-00077            
1 64824U 25151J   26087.73866285  .00005184  00000+0  70819-3 0  9991
2 64824  51.9010 213.8666 0000570  81.1970 278.9057 14.79947336 38161
KUIPER-00078            
1 64825U 25151K   26087.64009623  .00005313  00000+0  72531-3 0  9994
2 64825  51.8993 211.7893 0000444  80.1263 279.9749 14.79939115 38181
KUIPER-00079            
1 64826U 25151L   26087.87090210 -.00002837  00000+0 -34335-3 0  9992
2 64826  51.8982 215.7400 0000518  66.4036 293.6981 14.79922863 39347
KUIPER-00080            
1 64827U 25151M   26087.76971978 -.00000438  00000+0 -28403-4 0  9995
2 64827  51.8996 216.1963 0000593 104.7877 255.3151 14.79944264 38133
KUIPER-00082            
1 64828U 25151N   26087.74941871  .00003834  00000+0  53156-3 0  9996
2 64828  51.9006 203.8210 0000525  64.1436 295.9580 14.79941862 38306
KUIPER-00083            
1 64829U 25151P   26087.80890602  .00004813  00000+0  65968-3 0  9991
2 64829  51.8991 211.0458 0000483  96.8456 263.2561 14.79948446 39393
KUIPER-00084            
1 64830U 25151Q   26087.79806643  .00005555  00000+0  75739-3 0  9994
2 64830  51.8989 221.0778 0000498 106.6136 253.4881 14.79918521 38069
KUIPER-00085            
1 64831U 25151R   26087.71568238 -.00000172  00000+0  64234-5 0  9993
2 64831  51.9048 204.0021 0000601  91.3573 268.7458 14.79946531 38296
KUIPER-00086            
1 64832U 25151S   26087.83994972  .00000764  00000+0  12917-3 0  9990
2 64832  51.9016 213.4190 0000894 107.1625 252.9435 14.79948316 38171
KUIPER-00087            
1 64833U 25151T   26087.72374750  .00003227  00000+0  45209-3 0  9992
2 64833  51.8969 196.4098 0000655  73.7167 286.3867 14.79932371 38397
KUIPER-00089            
1 64834U 25151U   26087.71839822  .00004801  00000+0  65804-3 0  9990
2 64834  51.8986 201.4448 0000427 126.4896 233.6106 14.79950536 38333
KUIPER-00090            
1 64835U 25151V   26087.59137092 -.00006808  00000+0 -86510-3 0  9995
2 64835  51.8996 194.5358 0000571  95.9847 264.1180 14.79924076 38413
KUIPER-00091            
1 64836U 25151W   26087.72105069  .00005205  00000+0  71131-3 0  9991
2 64836  51.9005 198.9421 0000526 110.6810 249.4209 14.79928415 38363
KUIPER-00092            
1 64837U 25151X   26087.57794339  .00005038  00000+0  68929-3 0  9994
2 64837  51.8993 207.0721 0000653 109.3251 250.7782 14.79939097 39459
KUIPER-00093            
1 64838U 25151Y   26087.71029038  .00005374  00000+0  73289-3 0  9996
2 64838  51.8989 208.9673 0000658 110.5497 249.5536 14.79964005 38226
KUIPER-00094            
1 64839U 25151Z   26087.64411681  .00010292  00000+0  74411-3 0  9991
2 64839  51.8882 175.2539 0006371   2.4075 357.6928 15.04545136 38691
KUIPER-00081            
1 65132U 25171A   26087.96795806  .00004401  00000+0  60622-3 0  9993
2 65132  51.9003  62.8236 0000969  85.5522 274.5551 14.79916057 35898
KUIPER-00088            
1 65133U 25171B   26087.67896375  .00003764  00000+0  52245-3 0  9998
2 65133  51.8995  81.6084 0000792  84.6250 275.4803 14.79932978 35609
KUIPER-00095            
1 65134U 25171C   26087.90309278  .00004730  00000+0  64912-3 0  9994
2 65134  51.8987  60.6823 0000831 135.4857 224.6172 14.79922613 35915
KUIPER-00096            
1 65135U 25171D   26087.92339861  .00003565  00000+0  49632-3 0  9995
2 65135  51.8989  73.0283 0000966  75.7813 284.3257 14.79942636 35748
KUIPER-00097            
1 65136U 25171E   26087.92072122  .00004490  00000+0  61756-3 0  9999
2 65136  51.9018  75.6731 0000729  79.2651 280.8393 14.79936971 35696
KUIPER-00098            
1 65137U 25171F   26087.37770016  .00003959  00000+0  54810-3 0  9998
2 65137  51.9002  80.4496 0000599  29.9913 330.1084 14.79929032 34932
KUIPER-00099            
1 65138U 25171G   26087.35473808 -.00016585  00000+0 -21512-2 0  9999
2 65138  51.9073  70.5365 0001141  66.3532 293.7550 14.79945127 35725
KUIPER-00100            
1 65139U 25171H   26087.72890524  .00003987  00000+0  55160-3 0  9996
2 65139  51.9011  66.3631 0000724  79.6896 280.4148 14.79936543 35811
KUIPER-00102            
1 65140U 25171J   26087.65866197  .00004148  00000+0  57265-3 0  9997
2 65140  51.8982  69.1931 0000800  54.5862 305.5175 14.79944076 35766
KUIPER-00103            
1 65141U 25171K   26087.40344603  .00003861  00000+0  53516-3 0  9990
2 65141  51.8988  87.8141 0000291  85.7004 274.3992 14.79935431 35485
KUIPER-00104            
1 65142U 25171L   26087.68719401  .00004057  00000+0  56110-3 0  9994
2 65142  51.9015  74.0297 0000782  48.5697 311.5332 14.79911361 35701
KUIPER-00105            
1 65143U 25171M   26087.37577015  .00003882  00000+0  53820-3 0  9994
2 65143  51.9000  83.0300 0000508 133.0897 227.0108 14.79912885 35556
KUIPER-00106            
1 65144U 25171N   26087.93417842  .00007482  00000+0  66045-3 0  9991
2 65144  51.8932  67.5241 0007383 159.5610 200.5656 14.97243013 35829
KUIPER-00107            
1 65145U 25171P   26087.66398916 -.00002158  00000+0 -25427-3 0  9998
2 65145  51.9005  64.1855 0000719  94.6991 265.4053 14.79905187 35843
KUIPER-00108            
1 65146U 25171Q   26087.68435456  .00001328  00000+0  20315-3 0  9999
2 65146  51.9022  76.6160 0000529  58.8947 301.2067 14.79928024 35672
KUIPER-00109            
1 65147U 25171R   26087.92609723  .00004626  00000+0  63541-3 0  9999
2 65147  51.9019  70.4900 0000747  84.0068 276.0979 14.79931684 35778
KUIPER-00110            
1 65148U 25171S   26087.27107496  .00003529  00000+0  49186-3 0  9998
2 65148  51.9003  85.9688 0000712 316.3130  43.7776 14.79921219 35495
KUIPER-00111            
1 65149U 25171T   26087.70474770  .00003641  00000+0  50608-3 0  9995
2 65149  51.8966  88.9582 0000421  34.7420 325.3570 14.79949929 35498
KUIPER-00112            
1 65150U 25171U   26087.35210683 -.00001303  00000+0 -14196-3 0  9996
2 65150  51.8989  73.0810 0000900  89.5651 270.5415 14.79931771 35686
KUIPER-00114            
1 65151U 25171V   26087.70193651  .00003521  00000+0  49063-3 0  9994
2 65151  51.8993  91.5290 0000715  61.1408 298.9626 14.79938110 35456
KUIPER-00115            
1 65152U 25171W   26087.71002733 -.00001140  00000+0 -12058-3 0  9997
2 65152  51.9003  83.9830 0000765  53.6311 306.4722 14.79930165 35565
KUIPER-00116            
1 65153U 25171X   26087.40076386 -.00006170  00000+0 -78137-3 0  9997
2 65153  51.8999  90.3879 0000451  30.3867 329.7121 14.79918956 35446
KUIPER-00118            
1 65154U 25171Y   26087.39806839  .00003689  00000+0  51258-3 0  9995
2 65154  51.8996  92.8574 0000648  83.0828 277.0208 14.79934549 35417
KUIPER-00119            
1 65155U 25171Z   26087.95150280  .00004426  00000+0  60807-3 0  9990
2 65155  51.8998  77.9910 0000765 103.2348 256.8700 14.80015603 35662
KUIPER-00120            
1 65762U 25217A   26087.91828858 -.00000983  00000+0 -10007-3 0  9997
2 65762  51.9008 328.0379 0000517 101.5526 258.5494 14.79897974 27580
KUIPER-00132            
1 65763U 25217B   26087.76044272  .00021968  00000+0  54176-3 0  9990
2 65763  51.8582 270.8708 0006558  39.3224 320.8239 15.40454198 28364
KUIPER-00133            
1 65764U 25217C   26087.95211836 -.00002851  00000+0 -34531-3 0  9999
2 65764  51.9067 327.9484 0001761  91.8316 268.2849 14.79900759 27591
KUIPER-00139            
1 65765U 25217D   26087.87170828 -.00003982  00000+0 -27974-3 0  9995
2 65765  51.8858 305.9715 0007948  19.7154 340.4124 15.02014812 27899
KUIPER-00142            
1 65766U 25217E   26087.86983014  .00004312  00000+0  59419-3 0  9999
2 65766  51.9004 310.7768 0000661 100.4758 259.6279 14.79935583 27824
KUIPER-00145            
1 65767U 25217F   26087.86696997 -.00000747  00000+0 -69083-4 0  9990
2 65767  51.9005 313.3034 0000796 102.5299 257.5753 14.79903123 27787
KUIPER-00147            
1 65768U 25217G   26087.89811829 -.00000599  00000+0 -49579-4 0  9990
2 65768  51.9021 315.6591 0000640 126.7766 233.3255 14.79894432 27752
KUIPER-00148            
1 65769U 25217H   26087.91668981  .00001570  00000+0  16100-3 0  9994
2 65769  51.8895 296.0399 0007728  54.0257 289.1401 14.96027764  5743
KUIPER-00150            
1 65770U 25217J   26087.95490609  .00004830  00000+0  66139-3 0  9999
2 65770  51.9027 325.4184 0000361 104.9305 255.1697 14.79975292 27627
KUIPER-00151            
1 65771U 25217K   26087.89542778 -.00000266  00000+0 -59047-5 0  9991
2 65771  51.9021 318.1777 0000772  98.0359 262.0691 14.79900542 27725
KUIPER-00152            
1 65772U 25217L   26087.87520972  .00004205  00000+0  58009-3 0  9992
2 65772  51.9017 305.7593 0000861 111.0436 249.0619 14.79942263 27899
KUIPER-00153            
1 65773U 25217M   26087.91668981  .00003964  00000+0  49936-3 0  9991
2 65773  51.8986 299.8032 0011990   9.2241 255.3828 14.83912504  4237
KUIPER-00155            
1 65774U 25217N   26087.82056064  .00018017  00000+0  75438-3 0  9996
2 65774  51.8751 280.9637 0005618  15.4144 344.7007 15.23595507 28234
KUIPER-00156            
1 65775U 25217P   26087.84692463  .00023762  00000+0  31353-2 0  9998
2 65775  51.9039 300.9207 0000274  74.1165 285.9828 14.79929176 27957
KUIPER-00158            
1 65776U 25217Q   26087.90602648  .00005113  00000+0  68539-3 0  9999
2 65776  51.8983 320.3829 0001525 102.1366 257.9768 14.80780030 27695
KUIPER-00163            
1 65777U 25217R   26087.91668981  .00914342  00000+0  20027-1 0  9994
2 65777  51.9017 315.9700 0000724 324.9693   1.6385 15.40962561  5053
KUIPER-00165            
1 65778U 25217S   26087.90351568 -.00003888  00000+0 -48173-3 0  9994
2 65778  51.9031 310.6356 0000881 112.3604 247.7452 14.79896967 27828
KUIPER-00166            
1 65779U 25217T   26087.88319770  .00004146  00000+0  57202-3 0  9990
2 65779  51.9031 298.2529 0001032  98.1083 261.9996 14.79974877 27999
KUIPER-00167            
1 65780U 25217U   26087.89272513  .00000849  00000+0  14053-3 0  9999
2 65780  51.8983 320.6447 0000883 123.1639 236.9408 14.79897425 27683
KUIPER-00168            
1 65781U 25217V   26087.84414717  .00003930  00000+0  54414-3 0  9998
2 65781  51.9023 303.4029 0000707  89.9845 270.1198 14.79936610 27921
KUIPER-00169            
1 65782U 25217W   26087.83873416  .00000306  00000+0  69239-4 0  9999
2 65782  51.9020 308.4297 0000681 101.0188 259.0851 14.79909218 27856
KUIPER-00170            
1 65783U 25217X   26087.90088655  .00000775  00000+0  13076-3 0  9998
2 65783  51.8991 313.1356 0001151 100.1609 259.9483 14.79913217 27790
KUIPER-00172            
1 65785U 25217Z   26087.88358037  .00002960  00000+0  45058-3 0  9994
2 65785  51.8988 294.3303 0002145  49.1208 310.9938 14.76582694 28052
KUIPER-00173            
1 65786U 25217AA  26087.91685543  .00003881  00000+0  58201-3 0  9991
2 65786  51.9024 307.8470 0000900 117.1230 242.9823 14.76526500 27867
KUIPER-00174            
1 65787U 25217AB  26087.87788277  .00003840  00000+0  53213-3 0  9998
2 65787  51.9030 303.2833 0000895 116.9900 243.1154 14.79956452 27925
KUIPER-00176            
1 65788U 25217AC  26087.86151644 -.00000807  00000+0 -76982-4 0  9991
2 65788  51.9010 318.3215 0000769  93.8372 266.2678 14.79898469 27718
KUIPER-00101            
1 65947U 25228A   26087.80633847  .00003923  00000+0  54328-3 0  9993
2 65947  51.8980 276.0421 0000647 107.2218 252.8815 14.79938241 26067
KUIPER-00113            
1 65948U 25228B   26087.77796149  .00003900  00000+0  54008-3 0  9995
2 65948  51.8978 271.1844 0000726 108.6336 251.4705 14.79945051 26121
KUIPER-00117            
1 65949U 25228C   26087.80903428  .00004146  00000+0  57241-3 0  9995
2 65949  51.8974 273.5491 0000819  93.0114 267.0942 14.79944041 26096
KUIPER-00121            
1 65950U 25228D   26087.91568980  .00004218  00000+0  58157-3 0  9996
2 65950  51.8993 268.0754 0000645 117.1456 242.9572 14.79957523 26184
KUIPER-00122            
1 65951U 25228E   26087.83739785  .00004067  00000+0  56282-3 0  9990
2 65951  51.8997 278.4006 0001000 116.5528 243.5537 14.79884791 26031
KUIPER-00123            
1 65952U 25228F   26087.80363935  .00003773  00000+0  52355-3 0  9998
2 65952  51.8987 278.5691 0000661 100.5778 259.5259 14.79942774 26027
KUIPER-00124            
1 65953U 25228G   26087.87926131  .00004337  00000+0  59739-3 0  9999
2 65953  51.8982 270.7220 0000650  98.9629 261.1407 14.79943258 26143
KUIPER-00125            
1 65954U 25228H   26087.76031050  .00004370  00000+0  60229-3 0  9998
2 65954  51.8999 256.2746 0000793  97.2369 262.8683 14.79904823 26335
KUIPER-00126            
1 65955U 25228J   26087.90764026  .00002273  00000+0  32744-3 0  9992
2 65955  51.8982 275.6204 0000811  96.8158 263.2897 14.79888716 26079
KUIPER-00127            
1 65956U 25228K   26087.77746755  .00002845  00000+0  43669-3 0  9990
2 65956  51.8991 268.1005 0001041 255.3297 104.7548 14.76331919 26176
KUIPER-00128            
1 65957U 25228L   26087.67933657 -.00001135  00000+0 -11988-3 0  9991
2 65957  51.9000 269.1487 0000719 107.1491 252.9550 14.79937497 26147
KUIPER-00129            
1 65958U 25228M   26087.78604044  .00004413  00000+0  60661-3 0  9991
2 65958  51.9002 263.6606 0001010 108.8992 251.2080 14.79993297 26231
KUIPER-00130            
1 65959U 25228N   26087.74960840  .00004097  00000+0  56611-3 0  9995
2 65959  51.9016 266.3327 0000666 109.1943 250.9091 14.79935850 16488
KUIPER-00134            
1 65960U 25228P   26087.87330131  .00041720  00000+0  10578-2 0  9990
2 65960  51.8722 227.4026 0005548  25.8512 334.2752 15.39273673 26742
KUIPER-00135            
1 65961U 25228Q   26087.78338107  .00004214  00000+0  58142-3 0  9999
2 65961  51.9012 266.2447 0000712 104.8051 255.2991 14.79933012 26197
KUIPER-00136            
1 65962U 25228R   26087.75230560  .00004060  00000+0  56125-3 0  9999
2 65962  51.8996 263.8522 0000767 137.5907 222.5115 14.79932111 26226
KUIPER-00137            
1 65963U 25228S   26087.75492814 -.00000714  00000+0 -64651-4 0  9990
2 65963  51.9033 261.3066 0000303  91.2116 268.8882 14.79931243 26263
KUIPER-00138            
1 65964U 25228T   26087.85884712  .00004569  00000+0  62762-3 0  9994
2 65964  51.8979 258.3233 0000755 104.8921 255.2125 14.79957046 26315
KUIPER-00140            
1 65965U 25228U   26087.78876417  .00004360  00000+0  60045-3 0  9991
2 65965  51.8996 261.2184 0000708 116.3463 243.7572 14.79939315 26261
KUIPER-00141            
1 65966U 25228V   26087.72654689  .00004442  00000+0  61158-3 0  9998
2 65966  51.9024 256.5108 0000515  82.5294 277.5727 14.79911298 26324
KUIPER-00146            
1 65967U 25228W   26087.75747148 -.00003375  00000+0 -41427-3 0  9998
2 65967  51.9025 258.8812 0001629  92.3614 267.7535 14.79898203 26299
KUIPER-00149            
1 65968U 25228X   26087.86428542  .00004601  00000+0  63180-3 0  9996
2 65968  51.9009 253.3148 0000689 126.2336 233.8690 14.79955665 26389
KUIPER-00154            
1 65969U 25228Y   26087.83326450  .00005140  00000+0  70306-3 0  9996
2 65969  51.8993 250.9545 0000745  97.1633 262.9414 14.79912682 26417
KUIPER-00157            
1 65970U 25228Z   26087.83050435  .00004758  00000+0  65234-3 0  9993
2 65970  51.9016 253.5787 0000275  89.2677 270.8317 14.79957068 26373
KUIPER-00144            
1 67133U 25301A   26087.91668981 -.00020407  00000+0 -92752-3 0  9994
2 67133  51.8845 332.7201 0006022  99.2642  73.7617 15.19801606  4454
KUIPER-00164            
1 67134U 25301B   26087.91668981 -.00027161  00000+0 -36488-2 0  9992
2 67134  51.9044 340.4025 0001262   2.6674 196.6406 14.78758375  5833
KUIPER-00175            
1 67135U 25301C   26087.91668981 -.01186051  00000+0 -87256-1 0  9996
2 67135  51.8912 334.2910 0001292  99.7747  46.0982 15.06184445  4437
KUIPER-00179            
1 67136U 25301D   26087.91668981 -.00037728  00000+0 -49786-2 0  9999
2 67136  51.8992 340.1342 0001914 102.5495  14.1871 14.79669880  5473
KUIPER-00181            
1 67137U 25301E   26087.73790430  .00002756  00000+0  42240-3 0  9995
2 67137  51.9045 353.3322 0001917 133.0835 227.0287 14.76506390 16547
KUIPER-00183            
1 67138U 25301F   26087.91668981 -.00011940  00000+0 -78923-3 0  9995
2 67138  51.8859 335.3821 0011855 126.5216  70.7033 15.06055865  5894
KUIPER-00184            
1 67139U 25301G   26087.91668981 -.01048297  00000+0 -85876-1 0  9995
2 67139  51.9036 335.2072 0009372 124.7654 145.6163 15.01729349  5837
KUIPER-00186            
1 67140U 25301H   26087.89139518  .00005395  00000+0  73527-3 0  9994
2 67140  51.9038 353.2043 0000875 108.8928 251.2129 14.79984296 16404
KUIPER-00187            
1 67141U 25301J   26087.88873929  .00005393  00000+0  73527-3 0  9993
2 67141  51.9056 355.7304 0001181 100.0633 260.0463 14.79969329 16364
KUIPER-00188            
1 67142U 25301K   26087.84272575  .00030776  00000+0  80047-3 0  9998
2 67142  51.8694 332.5763 0009217 118.0422 242.1498 15.38613727 16685
KUIPER-00191            
1 67143U 25301L   26087.93055861 -.00011074  00000+0 -14260-2 0  9991
2 67143  51.9026 348.0578 0000531  97.7225 262.3797 14.79933888 16500
KUIPER-00196            
1 67144U 25301M   26087.93058253  .00021096  00000+0  57269-3 0  9990
2 67144  51.8730 331.6997 0004212  82.5599 277.5866 15.37542878 16708
KUIPER-00204            
1 67145U 25301N   26087.91248866  .00018003  00000+0  69921-3 0  9992
2 67145  51.8832 338.9108 0002006  50.6823 309.4337 15.26131858 16710
KUIPER-00210            
1 67146U 25301P   26087.89679765  .00005285  00000+0  72111-3 0  9999
2 67146  51.9019 348.1690 0000797  95.5891 264.5162 14.79967164 16649
KUIPER-00221            
1 67147U 25301Q   26087.92252606  .00005543  00000+0  75527-3 0  9996
2 67147  51.9035 355.5615 0000863 114.0375 246.0678 14.79945806 16371
KUIPER-00232            
1 67148U 25301R   26087.91668981 -.00046507  00000+0 -63290-2 0  9993
2 67148  51.9003 339.7472 0000868 182.2030 340.6899 14.78478149  5118
KUIPER-00241            
1 67149U 25301S   26087.92785862  .00005271  00000+0  71923-3 0  9997
2 67149  51.9053 350.5463 0000785  92.9488 267.1565 14.79971834 16774
KUIPER-00245            
1 67150U 25301T   26087.91975099 -.00009492  00000+0 -12182-2 0  9993
2 67150  51.9058 358.0966 0001022 112.6171 247.4900 14.79920395 16338
KUIPER-00246            
1 67151U 25301U   26087.88628208  .00002937  00000+0  44960-3 0  9992
2 67151  51.9016 343.0576 0001016 123.2512 236.8547 14.76354328 16562
KUIPER-00247            
1 67152U 25301V   26087.91668981 -.00832080  00000+0 -51890-1 0  9999
2 67152  51.8879 334.3802 0011623 127.0311 293.1964 15.11527039  4644
KUIPER-00248            
1 67153U 25301W   26087.87620556  .00042342  00000+0  11131-2 0  9998
2 67153  51.8704 332.7754 0010494 112.0764 248.1339 15.38120019 16859
KUIPER-00249            
1 67154U 25301X   26087.91668981 -.00006512  00000+0 -28606-3 0  9995
2 67154  51.8746 332.9037 0007306 124.7593 250.4836 15.19690255  4263
KUIPER-00250            
1 67155U 25301Y   26087.88970141  .00002951  00000+0  45040-3 0  9998
2 67155  51.9014 345.2544 0001471 130.1387 229.9703 14.76475109 16541
KUIPER-00251            
1 67156U 25301Z   26087.91668981 -.00863154  00000+0 -60434-1 0  9993
2 67156  51.8924 334.1533 0009077 121.0910 338.1436 15.07469570  4001
KUIPER-00252            
1 67157U 25301AA  26087.91668981 -.01619852  00000+0 -14753+0 0  9990
2 67157  51.8887 335.6115 0006768 132.9346  56.4850 14.98077011  5476
KUIPER-00261            
1 67158U 25301AB  26087.88498551  .00003094  00000+0  47059-3 0  9992
2 67158  51.9041 345.6136 0002259  41.0226 319.0905 14.76497787 16509
KUIPER-00265            
1 67159U 25301AC  26087.91712903  .00005475  00000+0  74614-3 0  9999
2 67159  51.9040   0.5934 0001187  93.8564 266.2534 14.79957393 16330
KUIPER-00159            
1 67764U 26030A   26087.82381201  .00037119  00000+0  10323-2 0  9990
2 67764  51.8852 126.8387 0005860  93.6430 266.5226 15.36473496  8038
KUIPER-00160            
1 67765U 26030B   26087.82784042  .00028783  00000+0  80897-3 0  9992
2 67765  51.8826 126.8486 0005793 107.4961 252.6659 15.36272224  8030
KUIPER-00177            
1 67766U 26030C   26087.91668981 -.01404306  00000+0 -12800+0 0  9993
2 67766  51.8962 128.6052 0006170  92.6726 318.1513 14.98119568  5914
KUIPER-00178            
1 67767U 26030D   26087.91668981  .00010946  00000+0  65568-3 0  9997
2 67767  51.8895 127.9222 0008489 107.5780  37.4922 15.11438083  3759
KUIPER-00180            
1 67768U 26030E   26087.81636230  .00008360  00000+0  30418-3 0  9992
2 67768  51.8821 128.2345 0015218 127.6419 232.5948 15.28983908  8018
KUIPER-00197            
1 67769U 26030F   26087.80638418  .00031080  00000+0  85246-3 0  9996
2 67769  51.8836 126.7206 0002671  78.8970 281.2317 15.37002751  8033
KUIPER-00198            
1 67770U 26030G   26087.36022988  .00037064  00000+0  10240-2 0  9997
2 67770  51.8826 128.9675 0003992  93.8818 266.2625 15.36686393  7968
KUIPER-00199            
1 67771U 26030H   26087.79935424  .00027911  00000+0  81988-3 0  9991
2 67771  51.8808 127.3967 0010991 122.3035 237.9017 15.34863512  8028
KUIPER-00200            
1 67772U 26030J   26087.52736916  .00037891  00000+0  10138-2 0  9994
2 67772  51.8814 127.8500 0001545  11.5820 348.5203 15.37676523  7998
KUIPER-00203            
1 67773U 26030K   26087.91668981  .00000342  00000+0  71351-4 0  9991
2 67773  51.9036 132.5294 0009376 130.6636 106.1949 14.81798343  5869
KUIPER-00205            
1 67774U 26030L   26087.80594493  .00027612  00000+0  75610-3 0  9996
2 67774  51.8813 126.7087 0004662  74.5733 285.5769 15.37110606  8030
KUIPER-00208            
1 67775U 26030M   26087.91668981  .00034467  00000+0  17006-2 0  9993
2 67775  51.8873 127.8532 0018308 118.5098   1.8076 15.17449851  1307
KUIPER-00209            
1 67776U 26030N   26087.83257050  .00018843  00000+0  67982-3 0  9995
2 67776  51.8858 128.3456 0012436 121.2835 238.9368 15.28477698  8012
KUIPER-00213            
1 67777U 26030P   26087.58611302  .00027504  00000+0  89957-3 0  9992
2 67777  51.8818 128.9528 0016280 129.6918 230.5505 15.31381854  7988
KUIPER-00214            
1 67778U 26030Q   26087.53403386  .00034778  00000+0  93763-3 0  9990
2 67778  51.8845 127.9063 0001858  36.6662 323.4452 15.37481260  7992
KUIPER-00215            
1 67779U 26030R   26087.40453102  .00028418  00000+0  82871-3 0  9990
2 67779  51.8842 129.2672 0010364 118.2797 241.9236 15.35089765  7962
KUIPER-00218            
1 67780U 26030S   26087.83954262  .00030212  00000+0  85979-3 0  9999
2 67780  51.8832 126.9357 0007429 108.1295 252.0501 15.35847374  8031
KUIPER-00220            
1 67781U 26030T   26087.52775815  .00049814  00000+0  14348-2 0  9990
2 67781  51.8818 128.5820 0008822 114.2779 245.9129 15.35221930  7986
KUIPER-00222            
1 67782U 26030U   26087.91668981  .00062522  00000+0  20488-2 0  9992
2 67782  51.8805 127.4489 0016784 127.0636 216.0275 15.30922847  4485
KUIPER-00223            
1 67783U 26030V   26087.80412392  .00025382  00000+0  74988-3 0  9992
2 67783  51.8817 127.4367 0012766 121.4723 238.7513 15.34715774  8028
KUIPER-00225            
1 67784U 26030W   26087.81946649  .00029698  00000+0  82760-3 0  9992
2 67784  51.8823 126.7959 0005114  90.2631 269.8941 15.36524802  8038
KUIPER-00226            
1 67785U 26030X   26087.82756335  .00018323  00000+0  64010-3 0  9996
2 67785  51.8837 128.3039 0019710 131.1359 229.1329 15.29445972  8019
KUIPER-00259            
1 67786U 26030Y   26087.51920170  .00054613  00000+0  15570-2 0  9991
2 67786  51.8825 128.5246 0008559 105.7767 254.4164 15.35504867  7987
KUIPER-00260            
1 67787U 26030Z   26087.41259671  .00028438  00000+0  77654-3 0  9990
2 67787  51.8801 128.5680 0002381  75.7778 284.3473 15.37187462  7883
KUIPER-00262            
1 67788U 26030AA  26087.79600569  .00039589  00000+0  10673-2 0  9994
2 67788  51.8811 126.6469 0001439  56.7925 303.3199 15.37422430  8037
KUIPER-00266            
1 67789U 26030AB  26087.91668981  .00040568  00000+0  13776-2 0  9997
2 67789  51.8821 127.9037 0022871 138.0960 339.3533 15.29851221  5190
KUIPER-00268            
1 67790U 26030AC  26087.49025759  .00041784  00000+0  11523-2 0  9991
2 67790  51.8846 128.3558 0003659  79.8847 280.2553 15.36689151  7985
KUIPER-00270            
1 67791U 26030AD  26087.40064688  .00036270  00000+0  10548-2 0  9997
2 67791  51.8814 129.2251 0011212 117.3981 242.8147 15.35041666  7965
KUIPER-00274            
1 67792U 26030AE  26087.83129347  .00019402  00000+0  68329-3 0  9998
2 67792  51.8838 128.3382 0017853 136.2948 223.9453 15.29173474  8010
KUIPER-00275            
1 67793U 26030AF  26087.39621639  .00030940  00000+0  89643-3 0  9993
2 67793  51.8852 129.2171 0010426 110.6861 249.5243 15.35247943  7966
KUIPER-00276            
1 67794U 26030AG  26087.82996385  .00009750  00000+0  34730-3 0  9997
2 67794  51.8845 128.3264 0017934 126.6992 233.5643 15.29439524  8010
KUIPER-00279            
1 67795U 26030AH  26087.83550190  .00032461  00000+0  91984-3 0  9998
2 67795  51.8800 126.8925 0006593 101.7366 258.4361 15.35949866  8034
