IRIDIUM 106             
1 41917U 17003A   26110.25738660  .00000059  00000+0  14019-4 0  9992
2 41917  86.3924 112.7805 0002680  88.7824 271.3679 14.34217888484909
IRIDIUM 103             
1 41918U 17003B   26110.24470003  .00000014  00000+0 -19714-5 0  9996
2 41918  86.3923 112.6855 0002213  97.8879 262.2568 14.34217802484920
IRIDIUM 109             
1 41919U 17003C   26110.25104380  .00000024  00000+0  16017-5 0  9993
2 41919  86.3927 112.7417 0002286  91.8904 268.2554 14.34217899484896
IRIDIUM 102             
1 41920U 17003D   26110.28909967  .00000054  00000+0  12337-4 0  9995
2 41920  86.3925 112.6505 0002301  88.5565 271.5894 14.34218000484986
IRIDIUM 105             
1 41921U 17003E   26110.24962009  .00000194  00000+0  61936-4 0  9992
2 41921  86.3933  81.0935 0002277  88.0835 272.0622 14.34398501486835
IRIDIUM 104             
1 41922U 17003F   26110.30178337  .00000045  00000+0  90770-5 0  9997
2 41922  86.3926 112.6869 0002043  94.4773 265.6656 14.34217973484979
IRIDIUM 114             
1 41923U 17003G   26109.95928451  .00000023  00000+0  10991-5 0  9990
2 41923  86.3927 112.8135 0002089  94.9232 265.2202 14.34217783484909
IRIDIUM 108             
1 41924U 17003H   26109.91780583  .00000072  00000+0  18557-4 0  9998
2 41924  86.3926  81.1241 0002292  84.4052 275.7405 14.34217663486758
IRIDIUM 112             
1 41925U 17003J   26110.29544278 -.00000006  00000+0 -93297-5 0  9995
2 41925  86.3923 112.5176 0002041  91.3917 268.7513 14.34217387484978
IRIDIUM 111             
1 41926U 17003K   26110.28275704  .00000034  00000+0  50509-5 0  9998
2 41926  86.3923 112.5923 0002302  92.2557 267.8902 14.34217930484953
IRIDIUM 113             
1 42803U 17039A   26110.19295274  .00000006  00000+0 -48041-5 0  9994
2 42803  86.3999 346.4253 0001812  88.3614 271.7790 14.34217662462878
IRIDIUM 123             
1 42804U 17039B   26110.09489541  .00000052  00000+0  11444-4 0  9992
2 42804  86.4018  17.9110 0002306  88.4342 271.7118 14.34217962461621
IRIDIUM 120             
1 42805U 17039C   26110.18661054  .00000143  00000+0  44162-4 0  9998
2 42805  86.3990 346.2183 0002251  83.0602 277.0850 14.34218739462869
IRIDIUM 115             
1 42806U 17039D   26110.01933232  .00000250  00000+0  68280-4 0  9997
2 42806  86.4527 346.4090 0002488  89.0280 271.1206 14.43282202465876
IRIDIUM 118             
1 42807U 17039E   26110.19637636  .00000065  00000+0  16227-4 0  9994
2 42807  86.4018  17.8670 0002157  85.4838 274.6604 14.34218658461631
IRIDIUM 117             
1 42808U 17039F   26110.14563618  .00000061  00000+0  14691-4 0  9997
2 42808  86.4021  17.8467 0002274  88.4092 271.7364 14.34218054461658
IRIDIUM 126             
1 42809U 17039G   26110.17100586  .00000154  00000+0  48098-4 0  9993
2 42809  86.4017  17.8859 0002145  89.1287 271.0154 14.34218198461637
IRIDIUM 124             
1 42810U 17039H   26110.02252888  .00000128  00000+0  32151-4 0  9996
2 42810  86.4464 314.6983 0002260  89.4687 270.6773 14.43293618466723
IRIDIUM 128             
1 42811U 17039J   26110.30128141  .00000093  00000+0  26016-4 0  9996
2 42811  86.3982  49.3395 0002425  82.7206 277.4265 14.34218284461680
IRIDIUM 121             
1 42812U 17039K   26110.19005672  .00000206  00000+0  66469-4 0  9999
2 42812  86.4017  17.9053 0002245  82.7600 277.3852 14.34216761461512
IRIDIUM 133             
1 42955U 17061A   26110.19345726  .00000172  00000+0  54359-4 0  9996
2 42955  86.3980  49.5008 0002297  86.4299 273.7160 14.34218042446464
IRIDIUM 100             
1 42956U 17061B   26110.25688366  .00000114  00000+0  33771-4 0  9995
2 42956  86.3980  49.3942 0002286  86.3224 273.8233 14.34218105446478
IRIDIUM 122             
1 42957U 17061C   26110.15540214  .00000029  00000+0  33830-5 0  9996
2 42957  86.3972  49.4367 0002152  87.9706 272.1736 14.34217727446464
IRIDIUM 129             
1 42958U 17061D   26110.25053972  .00000085  00000+0  23432-4 0  9996
2 42958  86.3982  49.4635 0001934  84.3627 275.7790 14.34218660446493
IRIDIUM 119             
1 42959U 17061E   26110.21882773  .00000095  00000+0  26794-4 0  9997
2 42959  86.3979  49.4721 0002167  88.8616 271.2828 14.34218098446502
IRIDIUM 107             
1 42960U 17061F   26110.23785867  .00000117  00000+0  34641-4 0  9992
2 42960  86.3979  49.4850 0002457  90.3846 269.7631 14.34220276446518
IRIDIUM 132             
1 42961U 17061G   26110.24419829  .00000096  00000+0  27119-4 0  9994
2 42961  86.3981  49.4623 0002298  86.3866 273.7592 14.34217737446519
IRIDIUM 136             
1 42962U 17061H   26110.27591095  .00000178  00000+0  56407-4 0  9997
2 42962  86.3983  49.4555 0002251  88.5082 271.6371 14.34218730446537
IRIDIUM 139             
1 42963U 17061J   26110.28225343  .00000149  00000+0  45977-4 0  9997
2 42963  86.3984  49.5140 0002352  85.4559 274.6906 14.34218649446544
IRIDIUM 125             
1 42964U 17061K   26110.19980021  .00000049  00000+0  10477-4 0  9995
2 42964  86.3984  49.6083 0002196  99.7510 260.3934 14.34217758446546
IRIDIUM 135             
1 43070U 17083A   26110.17392583 -.00000008  00000+0 -98663-5 0  9997
2 43070  86.3994 346.2737 0002050  84.9108 275.2322 14.34217505435832
IRIDIUM 138             
1 43071U 17083B   26110.19929516  .00000023  00000+0  12976-5 0  9990
2 43071  86.4006 345.9498 0001805  92.6168 267.5235 14.34217829435822
IRIDIUM 116             
1 43072U 17083C   26110.02804634  .00000073  00000+0  18835-4 0  9990
2 43072  86.3994 346.3215 0002402  82.6083 277.5386 14.34218085435833
IRIDIUM 130             
1 43073U 17083D   26110.20563903  .00000038  00000+0  63861-5 0  9993
2 43073  86.4001 346.5168 0002432  87.5163 272.6311 14.34217840435808
IRIDIUM 151             
1 43074U 17083E   26109.97096201  .00000070  00000+0  17877-4 0  9999
2 43074  86.3997 346.4019 0002188  84.0157 276.1289 14.34218216435798
IRIDIUM 134             
1 43075U 17083F   26110.00901711  .00000174  00000+0  54981-4 0  9999
2 43075  86.4002 346.3935 0002346  88.0564 272.0901 14.34216876435768
IRIDIUM 137             
1 43076U 17083G   26110.02170321  .00000119  00000+0  35397-4 0  9996
2 43076  86.4000 346.4796 0002324  73.4554 286.6897 14.34219141435837
IRIDIUM 141             
1 43077U 17083H   26110.01535936  .00000148  00000+0  45727-4 0  9993
2 43077  86.3996 346.3163 0002083  86.0089 274.1345 14.34218788435839
IRIDIUM 153             
1 43078U 17083J   26110.03730809 -.00000021  00000+0 -14410-4 0  9999
2 43078  86.3939 314.8012 0001936  94.2920 265.8497 14.34217277436941
IRIDIUM 131             
1 43079U 17083K   26109.93290602  .00000185  00000+0  58975-4 0  9992
2 43079  86.4001 346.5327 0002075  84.7461 275.3971 14.34218950435753
IRIDIUM 144             
1 43249U 18030A   26109.97388312 -.00000136  00000+0 -55698-4 0  9991
2 43249  86.3936 314.7582 0002189  86.5879 273.5567 14.34216410421796
IRIDIUM 149             
1 43250U 18030B   26110.04999431 -.00000078  00000+0 -34807-4 0  9997
2 43250  86.3936 314.6941 0001984  88.4934 271.6489 14.34216701421820
IRIDIUM 157             
1 43251U 18030C   26110.06902148 -.00000032  00000+0 -18318-4 0  9998
2 43251  86.3940 314.7381 0002057  89.1239 271.0193 14.34217150421806
IRIDIUM 140             
1 43252U 18030D   26110.08805007 -.00000058  00000+0 -27661-4 0  9996
2 43252  86.3940 314.7428 0002119  88.8619 271.2820 14.34216825421869
IRIDIUM 145             
1 43253U 18030E   26110.07536466  .00000075  00000+0  19874-4 0  9990
2 43253  86.3942 314.7208 0002447  84.5076 275.6399 14.34217578421799
IRIDIUM 146             
1 43254U 18030F   26110.26564232 -.00000049  00000+0 -24591-4 0  9999
2 43254  86.3938 314.6533 0002173  86.5828 273.5616 14.34216956421831
IRIDIUM 148             
1 43255U 18030G   26110.02462806  .00000078  00000+0  20659-4 0  9999
2 43255  86.3943 314.7968 0002106  85.2205 274.9232 14.34215520421837
IRIDIUM 142             
1 43256U 18030H   26110.27198764  .00000024  00000+0  16615-5 0  9995
2 43256  86.3939 314.5843 0002346  85.6609 274.4855 14.34214795421830
IRIDIUM 150             
1 43257U 18030J   26110.03096530  .00000108  00000+0  31592-4 0  9991
2 43257  86.3941 314.7995 0002203  88.7951 271.3497 14.34218265421823
IRIDIUM 143             
1 43258U 18030K   26110.29101238  .00000074  00000+0  19253-4 0  9994
2 43258  86.3943 314.7810 0002270  86.9403 273.2053 14.34217979421794
IRIDIUM 161             
1 43478U 18047C   26110.00041966  .00000118  00000+0  28933-4 0  9990
2 43478  86.4446 112.8068 0002025  88.6986 271.4446 14.43279553416743
IRIDIUM 152             
1 43479U 18047D   26109.98465527  .00000004  00000+0 -54669-5 0  9990
2 43479  86.3918 112.6738 0002183  92.0189 268.1256 14.34217643414144
IRIDIUM 147             
1 43480U 18047E   26110.06076621  .00000014  00000+0 -22174-5 0  9993
2 43480  86.3922 112.6462 0002374  88.6275 271.5193 14.34217713414151
IRIDIUM 110             
1 43481U 18047F   26110.27641309  .00000019  00000+0 -28883-6 0  9997
2 43481  86.3924 112.6462 0001926  92.1811 267.9605 14.34217845414177
IRIDIUM 162             
1 43482U 18047G   26110.27144286  .00000109  00000+0  26538-4 0  9992
2 43482  86.4445 112.5850 0002360  93.0845 267.0626 14.43279668416770
IRIDIUM 160             
1 43569U 18061A   26110.29201688  .00000138  00000+0  42362-4 0  9991
2 43569  86.3929  81.0025 0002158  85.6734 274.4708 14.34218946405071
IRIDIUM 166             
1 43570U 18061B   26110.24763643  .00000181  00000+0  57416-4 0  9996
2 43570  86.3931  80.9724 0002385  86.1017 274.0451 14.34215231405099
IRIDIUM 158             
1 43571U 18061C   26110.21590802  .00000102  00000+0  29226-4 0  9990
2 43571  86.3932  80.9957 0002244  90.8137 269.3316 14.34218051405054
IRIDIUM 165             
1 43572U 18061D   26110.24127825  .00000172  00000+0  54340-4 0  9997
2 43572  86.3931  81.0302 0002375  85.3889 274.7578 14.34217919405083
IRIDIUM 155             
1 43573U 18061E   26110.20322318  .00000043  00000+0  83019-5 0  9991
2 43573  86.3926  80.9178 0002339  89.3044 270.8420 14.34217772405040
IRIDIUM 154             
1 43574U 18061F   26110.25396323  .00000118  00000+0  35026-4 0  9991
2 43574  86.3931  81.0276 0002398  84.3883 275.7586 14.34218570405100
IRIDIUM 163             
1 43575U 18061G   26110.23493456  .00000177  00000+0  56302-4 0  9990
2 43575  86.3929  80.9526 0002189  90.1257 270.0190 14.34216155405074
IRIDIUM 156             
1 43576U 18061H   26110.20956505  .00000146  00000+0  44920-4 0  9996
2 43576  86.3929  80.9706 0002412  89.3273 270.8199 14.34218284405063
IRIDIUM 164             
1 43577U 18061J   26110.26030614  .00000136  00000+0  41374-4 0  9996
2 43577  86.3930  80.9887 0002333  82.6963 277.4498 14.34218069405112
IRIDIUM 159             
1 43578U 18061K   26110.22859469  .00000176  00000+0  55916-4 0  9991
2 43578  86.3928  80.9400 0002145  87.3781 272.7660 14.34217885405071
IRIDIUM 180             
1 43922U 19002A   26110.08855226  .00000050  00000+0  10843-4 0  9992
2 43922  86.4018  17.8745 0002080  83.8105 276.3328 14.34217981380660
IRIDIUM 176             
1 43923U 19002B   26110.18253556  .00000638  00000+0  97325-4 0  9994
2 43923  86.6136  17.7870 0002567  82.9933 277.1577 14.72253017390715
IRIDIUM 168             
1 43924U 19002C   26110.08222848  .00000237  00000+0  77622-4 0  9997
2 43924  86.4016  17.9528 0002177  85.2571 274.8874 14.34209732380642
IRIDIUM 173             
1 43925U 19002D   26110.20906087 -.00000010  00000+0 -10690-4 0  9999
2 43925  86.4013  17.7910 0002105  87.8643 272.2794 14.34217730380642
IRIDIUM 169             
1 43926U 19002E   26110.24273437  .00000210  00000+0  62265-4 0  9995
2 43926  86.4237  49.4063 0002672  97.6915 262.4587 14.38610132381898
IRIDIUM 172             
1 43927U 19002F   26110.20271898  .00000028  00000+0  29408-5 0  9991
2 43927  86.4018  17.8015 0002097  83.6570 276.4865 14.34217862380651
IRIDIUM 175             
1 43928U 19002G   26109.91212953  .00000088  00000+0  20136-4 0  9999
2 43928  86.4493 314.8986 0005196  69.5480 290.6279 14.43589673390573
IRIDIUM 171             
1 43929U 19002H   26110.11392307  .00000018  00000+0 -49120-6 0  9996
2 43929  86.4021  18.1381 0002249  84.1731 275.9722 14.34217865380638
IRIDIUM 170             
1 43930U 19002J   26110.18871193  .00000583  00000+0  88481-4 0  9997
2 43930  86.6137  17.7872 0002293  84.0467 276.1011 14.72257241390723
IRIDIUM 167             
1 43931U 19002K   26110.03781290  .00000006  00000+0 -50045-5 0  9997
2 43931  86.4015  17.8922 0002419  85.1655 274.9817 14.34217518380624
IRIDIUM 181             
1 56726U 23068S   26110.14708199  .00000210  00000+0  56304-4 0  9998
2 56726  86.4469  81.0505 0002224  79.3778 280.7674 14.43309986154062
IRIDIUM 177             
1 56727U 23068T   26110.18530290  .00000690  00000+0  87316-4 0  9997
2 56727  86.2002 356.3390 0002205  91.2295 268.9178 14.80223955157781
IRIDIUM 174             
1 56728U 23068U   26110.17635413  .00000655  00000+0  99990-4 0  9992
2 56728  86.6143  17.9339 0002258  88.1175 272.0301 14.72251903157481
IRIDIUM 178             
1 56729U 23068V   26110.24190631  .00000767  00000+0  97411-4 0  9999
2 56729  86.6551  49.5639 0002633  80.6117 279.5402 14.80241554157797
IRIDIUM 179             
1 56730U 23068W   26110.10132528  .00000811  00000+0  10321-3 0  9991
2 56730  86.6776  58.4318 0002970  85.6092 274.5469 14.80241586157773
