QIANFAN-1               
1 60379U 24140A   26131.81944098  .00000070  00000+0  88940-4 0  9991
2 60379  88.9699 283.7072 0019072 137.6859 222.5768 13.51009059 87610
QIANFAN-2               
1 60380U 24140B   26131.84811008  .00000070  00000+0  89211-4 0  9992
2 60380  88.9686 283.5229 0014714 112.1743 248.0971 13.51004321 87670
QIANFAN-3               
1 60381U 24140C   26131.85635039  .00000079  00000+0  10408-3 0  9992
2 60381  88.9678 283.6434 0015739 123.3478 236.9182 13.51005277 87589
QIANFAN-4               
1 60382U 24140D   26131.83171156  .00000079  00000+0  10331-3 0  9991
2 60382  88.9703 283.5813 0014928 114.5128 245.7581 13.51007488 87703
QIANFAN-5               
1 60383U 24140E   26131.80700080  .00000064  00000+0  80384-4 0  9993
2 60383  88.9678 283.6735 0016826 133.7295 226.5253 13.51006967 87564
QIANFAN-6               
1 60384U 24140F   26131.82757747  .00000062  00000+0  76285-4 0  9991
2 60384  88.9705 283.4580 0014988 119.6642 240.6004 13.51007435 87762
QIANFAN-7               
1 60385U 24140G   26131.86696138  .00000269  00000+0  10278-3 0  9990
2 60385  88.9741 276.0463 0012692 264.2195  95.7553 14.27803922 91819
QIANFAN-8               
1 60386U 24140H   26131.76166332  .00000066  00000+0  83723-4 0  9999
2 60386  88.9706 283.7044 0018416 122.2927 238.0011 13.51009183 87603
QIANFAN-9               
1 60387U 24140J   26131.81118132  .00000068  00000+0  85578-4 0  9993
2 60387  88.9703 283.7718 0018116 121.9452 238.3464 13.51009372 87598
QIANFAN-10              
1 60388U 24140K   26131.81535387  .00000087  00000+0  11592-3 0  9994
2 60388  88.9715 283.1334 0016693 101.7228 258.5798 13.51010186 87729
QIANFAN-11              
1 60389U 24140L   26131.85218914  .00000079  00000+0  10339-3 0  9992
2 60389  88.9639 283.6043 0016158 121.3071 238.9664 13.51009494 87383
QIANFAN-12              
1 60390U 24140M   26131.79881727  .00000060  00000+0  73720-4 0  9999
2 60390  88.9682 283.7188 0014871 128.4446 231.8043 13.51006690 87500
QIANFAN-13              
1 60391U 24140N   26131.84403661  .00000065  00000+0  82418-4 0  9992
2 60391  88.9694 283.8324 0014654 130.6575 229.5853 13.51006742 87538
QIANFAN-14              
1 60392U 24140P   26131.79458377  .00000081  00000+0  10671-3 0  9990
2 60392  88.9674 283.7032 0018333 131.4963 228.7765 13.51007776 87531
QIANFAN-15              
1 60393U 24140Q   26131.80286973  .00000057  00000+0  69066-4 0  9990
2 60393  88.9697 283.6945 0014296 118.5172 241.7421 13.51009760 87529
QIANFAN-16              
1 60394U 24140R   26131.86467950  .00000071  00000+0  91269-4 0  9999
2 60394  88.9700 283.8126 0016201 134.4194 225.8287 13.51004321 87449
QIANFAN-17              
1 60395U 24140S   26131.86040566  .00000073  00000+0  94014-4 0  9993
2 60395  88.9711 283.8754 0016701 128.8264 231.4381 13.51005169 88405
QIANFAN-18              
1 60396U 24140T   26131.83987850  .00000062  00000+0  76753-4 0  9995
2 60396  88.9705 283.4006 0016220 113.3931 246.8928 13.51009413 87795
QIANFAN-19              
1 61552U 24185A   26131.85184375  .00000277  00000+0  13728-3 0  9992
2 61552  88.9846  60.7205 0006868 162.2037 197.9392 14.14449087 90880
QIANFAN-20              
1 61553U 24185B   26131.82570376  .00000192  00000+0  10297-3 0  9994
2 61553  88.9841  61.1971 0003747 203.3864 156.7150 14.08995441 90629
QIANFAN-21              
1 61554U 24185C   26131.84086697  .00000434  00000+0  18703-3 0  9994
2 61554  88.9764  59.3800 0008414 227.2436 132.8048 14.22815418 91319
QIANFAN-22              
1 61555U 24185D   26131.84557830  .00000007  00000+0 -54878-5 0  9999
2 61555  88.9826  62.7821 0004195 256.5423 103.5280 13.86374329 89739
QIANFAN-23              
1 61556U 24185E   26131.82680477  .00000371  00000+0  17930-3 0  9991
2 61556  88.9838  60.4626 0007011 173.8429 186.2846 14.16471640 90992
QIANFAN-24              
1 61557U 24185F   26131.85724201  .00000471  00000+0  19883-3 0  9999
2 61557  88.9823  59.6200 0009472 154.4810 205.6852 14.24027909 91388
QIANFAN-25              
1 61558U 24185G   26131.81859735  .00000301  00000+0  17528-3 0  9993
2 61558  88.9826  61.1854 0008916 207.4406 152.6307 14.06046873 90596
QIANFAN-26              
1 61559U 24185H   26131.85575135  .00000195  00000+0  18206-3 0  9992
2 61559  88.9832  63.5292 0003588 289.6582  70.4197 13.77897074 89342
QIANFAN-27              
1 61560U 24185J   26131.83437450  .00000326  00000+0  12687-3 0  9992
2 61560  88.9832  59.3300 0008525 140.5923 219.5893 14.27508692 91575
QIANFAN-28              
1 61561U 24185K   26131.80632257  .00000504  00000+0  19606-3 0  9998
2 61561  88.9851  59.3434 0008228 138.0140 222.1687 14.28333527 91595
QIANFAN-29              
1 61562U 24185L   26131.86073731  .00000083  00000+0  11023-3 0  9998
2 61562  88.9805  65.7756 0009441 348.7731  11.3208 13.51067775 88066
QIANFAN-30              
1 61563U 24185M   26131.80124110  .00000029  00000+0  26904-4 0  9996
2 61563  88.9824  65.3647 0006798 340.1558  19.9327 13.50042447 88310
QIANFAN-31              
1 61564U 24185N   26131.84604941  .00000152  00000+0  19327-3 0  9993
2 61564  88.9808  64.9238 0005912 329.4501  30.6309 13.58028513 88539
QIANFAN-32              
1 61565U 24185P   26131.83516294  .00000129  00000+0  18198-3 0  9995
2 61565  88.9866  65.5411 0010051   3.8509 356.2718 13.50781465 88305
QIANFAN-33              
1 61566U 24185Q   26131.85975500  .00000290  00000+0  19948-3 0  9990
2 61566  88.9825  62.0518 0005750 202.1239 157.9690 13.96677745 90117
QIANFAN-34              
1 61567U 24185R   26131.85124063  .00000286  00000+0  17705-3 0  9995
2 61567  88.9801  61.4178 0004522 193.9594 166.1462 14.02441298 90393
QIANFAN-35              
1 61568U 24185S   26131.85258627  .00000492  00000+0  19150-3 0  9995
2 61568  88.9832  59.2407 0007624 134.1820 226.0002 14.28224373 91605
QIANFAN-36              
1 61569U 24185T   26131.80061071  .00000139  00000+0  18289-3 0  9996
2 61569  88.9800  65.3901 0005686 348.2200  11.8820 13.55628046 88253
QIANFAN-37              
1 62238U 24232B   26131.82281667  .00000100  00000+0  13588-3 0  9995
2 62238  89.0105  26.2299 0002526  63.9842 296.1569 13.51007721119436
QIANFAN-38              
1 62239U 24232C   26131.77347390  .00000122  00000+0  17005-3 0  9998
2 62239  89.0112  26.1609 0016052 116.5478 243.7321 13.51007183119489
QIANFAN-39              
1 62240U 24232D   26131.78894766  .00000296  00000+0  11915-3 0  9991
2 62240  89.0093  20.2061 0014589 314.3169  45.6827 14.25504010122762
QIANFAN-40              
1 62241U 24232E   26131.80638444  .00000124  00000+0  17246-3 0  9997
2 62241  89.0139  25.7842 0014893 123.3436 236.9143 13.51006932119854
QIANFAN-41              
1 62242U 24232F   26131.81460741  .00000039  00000+0  42071-4 0  9992
2 62242  89.0110  26.1057 0015553 112.7225 247.5572 13.51011320119513
QIANFAN-42              
1 62243U 24232G   26131.81224051  .00000277  00000+0  11329-3 0  9990
2 62243  89.0091  20.2729 0013682 321.9232  38.0993 14.24594260122734
QIANFAN-43              
1 62244U 24232H   26131.81050316  .00000117  00000+0  16182-3 0  9997
2 62244  89.0114  26.1779 0016965 117.9237 242.3635 13.51008463 88127
QIANFAN-44              
1 62245U 24232J   26131.79815491  .00000112  00000+0  15482-3 0  9995
2 62245  89.0113  25.9876 0015256 114.7544 245.5197 13.51005148119591
QIANFAN-45              
1 62246U 24232K   26131.83928647  .00000107  00000+0  14699-3 0  9992
2 62246  89.0117  26.1353 0015927 114.5308 245.7506 13.51009027119529
QIANFAN-46              
1 62247U 24232L   26131.78990978  .00000106  00000+0  14465-3 0  9993
2 62247  89.0112  26.2030 0015849 119.6862 240.5869 13.51007362119471
QIANFAN-47              
1 62248U 24232M   26131.79404057  .00000109  00000+0  14965-3 0  9991
2 62248  89.0108  26.1296 0016296 119.0465 241.2321 13.51007335119505
QIANFAN-48              
1 62249U 24232N   26131.83108648  .00000110  00000+0  15114-3 0  9993
2 62249  89.0112  26.1335 0018476 121.9879 238.3071 13.51006294119511
QIANFAN-49              
1 62250U 24232P   26131.81873051  .00000111  00000+0  15228-3 0  9997
2 62250  89.0111  26.1461 0015691 116.1611 244.1156 13.51005267 88106
QIANFAN-50              
1 62251U 24232Q   26131.84341565  .00000122  00000+0  16942-3 0  9997
2 62251  89.0117  26.1600 0017317 117.8314 242.4594 13.51007486 88138
QIANFAN-51              
1 62252U 24232R   26131.82695567  .00000112  00000+0  15531-3 0  9992
2 62252  89.0111  26.1463 0014731 120.4107 239.8502 13.51007247 88120
QIANFAN-52              
1 62253U 24232S   26131.78171823  .00000112  00000+0  15395-3 0  9990
2 62253  89.0107  26.0187 0016907 114.1923 246.0997 13.51016475 88201
QIANFAN-53              
1 62254U 24232T   26131.83518869  .00000108  00000+0  14884-3 0  9999
2 62254  89.0114  26.1291 0015769 114.7313 245.5482 13.51007049 88177
QIANFAN-54              
1 62255U 24232U   26131.80224273  .00000110  00000+0  15111-3 0  9997
2 62255  89.0105  25.7978 0003049 119.8697 240.2758 13.51005622119677
QIANFAN-55              
1 62785U 25016A   26131.82834139  .00000084  00000+0  11101-3 0  9991
2 62785  88.9721  87.6441 0015062 277.1224  82.8215 13.51010727 67459
QIANFAN-56              
1 62786U 25016B   26131.84484976  .00000078  00000+0  10255-3 0  9996
2 62786  88.9695  87.4386 0013739 280.0814  79.8787 13.51012144 67504
QIANFAN-57              
1 62787U 25016C   26131.87777500  .00000084  00000+0  11201-3 0  9997
2 62787  88.9726  87.6355 0003150  79.8188 280.3319 13.51010373 67470
QIANFAN-58              
1 62788U 25016D   26131.84901433  .00000077  00000+0  10128-3 0  9998
2 62788  88.9696  87.4241 0011561 271.5059  88.4767 13.51009923 67510
QIANFAN-59              
1 62789U 25016E   26131.87350346  .00000038  00000+0  39664-4 0  9997
2 62789  88.9720  87.5307 0012010 275.7991  84.1791 13.51008756 67517
QIANFAN-60              
1 62790U 25016F   26131.83237297  .00000090  00000+0  12081-3 0  9995
2 62790  88.9700  87.4778 0013479 271.4916  88.4691 13.51006542 67492
QIANFAN-61              
1 62791U 25016G   26131.86533730  .00000076  00000+0  99325-4 0  9991
2 62791  88.9767  87.7392 0012414 270.7793  89.1936 13.51010250 67518
QIANFAN-62              
1 62792U 25016H   26131.86955444  .00000078  00000+0  10308-3 0  9997
2 62792  88.9714  87.5264 0013795 271.0634  88.8937 13.51008815 67508
QIANFAN-63              
1 62793U 25016J   26131.89410884  .00000080  00000+0  10506-3 0  9998
2 62793  88.9721  87.4854 0013895 277.2299  82.7272 13.51011617 67540
QIANFAN-64              
1 62794U 25016K   26131.86123375  .00000074  00000+0  95828-4 0  9996
2 62794  88.9708  87.4427 0011775 269.3142  90.6660 13.51009928 67536
QIANFAN-65              
1 62795U 25016L   26131.85706551  .00000075  00000+0  97713-4 0  9995
2 62795  88.9704  87.4638 0011641 271.4315  88.5503 13.51007059 67518
QIANFAN-66              
1 62796U 25016M   26131.88594075  .00000075  00000+0  97691-4 0  9990
2 62796  88.9724  87.4605 0012699 266.0030  93.9669 13.51011505 67562
QIANFAN-67              
1 62797U 25016N   26131.89006168  .00000073  00000+0  93997-4 0  9996
2 62797  88.9714  87.4709 0012721 274.1345  85.8352 13.51011659 67538
QIANFAN-68              
1 62798U 25016P   26131.88195640  .00000071  00000+0  91500-4 0  9996
2 62798  88.9717  87.5223 0012775 271.6605  88.3083 13.50990056 67517
QIANFAN-69              
1 62799U 25016Q   26131.82418492  .00000086  00000+0  11436-3 0  9999
2 62799  88.9697  87.3655 0013540 273.3916  86.5686 13.51010521 67540
QIANFAN-70              
1 62800U 25016R   26131.84063632  .00000080  00000+0  10507-3 0  9998
2 62800  88.9717  87.5338 0013072 262.0547  97.9120 13.51011743 67503
QIANFAN-71              
1 62801U 25016S   26131.83656130  .00000080  00000+0  10535-3 0  9990
2 62801  88.9711  87.5047 0013483 277.4900  82.4720 13.51011591 67500
QIANFAN-72              
1 62802U 25016T   26131.85305271  .00000076  00000+0  98976-4 0  9991
2 62802  88.9701  87.5017 0016854 285.0993  74.8293 13.51010138 67493
QIANFAN-73              
1 63159U 25046A   26131.80613051  .00000087  00000+0  11506-3 0  9998
2 63159  88.9682 304.4739 0016483  55.0308 305.2388 13.51013147 67671
QIANFAN-74              
1 63160U 25046B   26131.86360088  .00000089  00000+0  11913-3 0  9999
2 63160  88.9682 304.3571 0001837  93.2614 266.8747 13.51002220 67746
QIANFAN-75              
1 63161U 25046C   26131.85123354  .00000040  00000+0  43258-4 0  9997
2 63161  88.9684 304.5945 0017626  57.5683 302.7170 13.51014042 67619
QIANFAN-76              
1 63162U 25046D   26131.84713054  .00000148  00000+0  21065-3 0  9999
2 63162  88.9684 304.5745 0015165  58.8690 301.3946 13.51003546 67620
QIANFAN-77              
1 63163U 25046E   26131.83376148  .00000082  00000+0  50109-4 0  9997
2 63163  88.9688 301.3455 0013777 340.0994  19.9644 13.96190434 69393
QIANFAN-78              
1 63164U 25046F   26131.81422301  .00000046  00000+0  52180-4 0  9990
2 63164  88.9683 304.4404 0016608  60.4877 299.7928 13.51003836 67690
QIANFAN-79              
1 63165U 25046G   26131.84308317  .00000102  00000+0  13916-3 0  9990
2 63165  88.9686 304.5507 0016361  58.9700 301.3056 13.51005558 67642
QIANFAN-80              
1 63166U 25046H   26131.85952234  .00000028  00000+0  24782-4 0  9996
2 63166  88.9684 304.2517 0015298  63.2914 296.9802 13.51004792 67808
QIANFAN-81              
1 63167U 25046J   26131.83915003  .00000003  00000+0 -13936-4 0  9991
2 63167  88.9680 304.3219 0016272  53.1415 307.1225 13.51013750 67754
QIANFAN-82              
1 63168U 25046K   26131.79775786  .00000046  00000+0  52385-4 0  9996
2 63168  88.9683 304.3699 0014361  60.3476 299.9103 13.51006639 67733
QIANFAN-83              
1 63169U 25046L   26131.86124009  .00000079  00000+0  86828-4 0  9996
2 63169  88.9685 303.8439 0015141  38.7682 321.4559 13.62034603 68031
QIANFAN-84              
1 63170U 25046M   26131.82795907  .00000138  00000+0  19469-3 0  9997
2 63170  88.9684 304.4997 0017337  56.0613 304.2183 13.51027227 67666
QIANFAN-85              
1 63171U 25046N   26131.82258145  .00000045  00000+0  51202-4 0  9995
2 63171  88.9682 304.3707 0014796  59.0081 301.2521 13.51011259 67730
QIANFAN-86              
1 63172U 25046P   26131.83083638  .00000031  00000+0  29489-4 0  9997
2 63172  88.9685 304.2354 0012705  63.6208 296.6246 13.50999644 67813
QIANFAN-87              
1 63173U 25046Q   26131.80205273  .00000100  00000+0  13570-3 0  9996
2 63173  88.9681 304.3443 0013184  59.4784 300.7666 13.51012024 67748
QIANFAN-88              
1 63174U 25046R   26131.81834058  .00000036  00000+0  37022-4 0  9994
2 63174  88.9684 304.3009 0013808  66.3045 293.9554 13.51005068 67772
QIANFAN-89              
1 63175U 25046S   26131.85551147  .00000022  00000+0  15852-4 0  9996
2 63175  88.9684 304.4863 0018127  56.1191 304.1682 13.51000555 67672
QIANFAN-90              
1 63176U 25046T   26131.81012186  .00000119  00000+0  16460-3 0  9990
2 63176  88.9684 304.4635 0015078  56.0897 304.1686 13.51008170 67680
QIANFAN-91              
1 66033U 25233A   26131.47215554  .00000114  00000+0  15805-3 0  9996
2 66033  89.0021  46.8965 0002370  69.5525 290.5880 13.51016984 28226
QIANFAN-92              
1 66034U 25233B   26131.55445823  .00000029  00000+0  25618-4 0  9999
2 66034  89.0004  46.8658 0002343  74.6313 285.5097 13.51005226 28231
QIANFAN-93              
1 66035U 25233C   26131.78486269  .00000117  00000+0  16322-3 0  9993
2 66035  89.0031  46.8846 0002375  70.6542 289.4866 13.51004280 28265
QIANFAN-94              
1 66036U 25233D   26131.84658843  .00000109  00000+0  15034-3 0  9990
2 66036  89.0028  46.7830 0002226  73.1766 286.9629 13.51016987 28328
QIANFAN-95              
1 66037U 25233E   26131.78077485  .00000111  00000+0  15265-3 0  9990
2 66037  89.0025  46.3344 0002232  68.1532 291.9856 13.51003945 28568
QIANFAN-96              
1 66038U 25233F   26131.80542250  .00000107  00000+0  14750-3 0  9994
2 66038  89.0023  46.8760 0002357  68.4016 291.7386 13.51016877 28263
QIANFAN-97              
1 66039U 25233G   26131.78898420  .00000121  00000+0  16862-3 0  9997
2 66039  89.0026  46.8605 0002338  70.1867 289.9536 13.51016202 28277
QIANFAN-98              
1 66040U 25233H   26131.79717226  .00000119  00000+0  16624-3 0  9997
2 66040  89.0015  46.5946 0001812  77.0195 283.1159 13.51006964 28415
QIANFAN-99              
1 66041U 25233J   26131.80128544  .00000115  00000+0  15972-3 0  9990
2 66041  89.0026  46.8630 0001944  72.4248 287.7115 13.51016825 28278
QIANFAN-100             
1 66042U 25233K   26131.79308793  .00000123  00000+0  17177-3 0  9993
2 66042  89.0037  46.7868 0002366  71.0087 289.1320 13.51005902 28322
QIANFAN-101             
1 66043U 25233L   26131.82553765  .00000181  00000+0  68843-4 0  9990
2 66043  89.0023  44.7362 0012627 262.9712  97.0046 14.26787876 29447
QIANFAN-102             
1 66044U 25233M   26131.81367436  .00000112  00000+0  15410-3 0  9993
2 66044  89.0025  46.7723 0002186  72.5705 287.5685 13.51016602 28329
QIANFAN-103             
1 66045U 25233N   26131.66794668 -.01800423  00000+0 -31676+1 0  9993
2 66045  89.0023  46.8808 0003522 242.4796 117.5995 13.47153713 28254
QIANFAN-104             
1 66046U 25233P   26131.82190808  .00000118  00000+0  16441-3 0  9994
2 66046  89.0031  46.7661 0002198  75.2380 284.9014 13.51006049 28322
QIANFAN-105             
1 66047U 25233Q   26131.45980195  .00000121  00000+0  16915-3 0  9990
2 66047  89.0045  46.6408 0002223  69.4874 290.6516 13.51005468 28389
QIANFAN-106             
1 66048U 25233R   26131.60274242 -.01981041  00000+0 -34161+1 0  9999
2 66048  89.0009  46.8506 0002503 259.3888 100.6980 13.48168342 28255
QIANFAN-107             
1 66049U 25233S   26131.46398288  .00000121  00000+0  16837-3 0  9992
2 66049  89.0030  46.8914 0002353  71.4985 288.6421 13.51015304 28235
QIANFAN-108             
1 66050U 25233T   26131.83833747  .00000104  00000+0  14289-3 0  9999
2 66050  89.0023  46.8438 0001964  76.2355 283.9014 13.51003810 28281
QIANFAN-109             
1 68636U 26075A   26131.81728265 -.02109947  00000+0 -18028+1 0  9993
2 68636  88.9877 324.8156 0014236 118.5918 241.6690 13.91286176  4844
QIANFAN-110             
1 68637U 26075B   26131.76308027 -.02091832  00000+0 -18477+1 0  9999
2 68637  88.9876 324.8273 0016815 131.1306 229.1321 13.89299688  4831
QIANFAN-111             
1 68638U 26075C   26131.87657446 -.02093972  00000+0 -17579+1 0  9993
2 68638  88.9873 324.8061 0014827 113.3593 246.9143 13.92266858  4853
QIANFAN-112             
1 68639U 26075D   26131.87825124 -.02086423  00000+0 -18022+1 0  9991
2 68639  88.9872 324.8059 0012383 127.8711 232.3584 13.90617537  4857
QIANFAN-113             
1 68640U 26075E   26131.87255493 -.02067806  00000+0 -17307+1 0  9998
2 68640  88.9875 324.8058 0014356 109.4408 250.8320 13.92389967  4850
QIANFAN-114             
1 68641U 26075F   26131.78226590 -.02065496  00000+0 -17602+1 0  9996
2 68641  88.9874 324.8110 0012856 127.3519 232.8828 13.91355969  4840
QIANFAN-115             
1 68642U 26075G   26131.78738691 -.02096235  00000+0 -18237+1 0  9997
2 68642  88.9879 324.8120 0010008 137.7943 222.4002 13.90234140  4845
QIANFAN-116             
1 68643U 26075H   26131.77137647 -.02065256  00000+0 -17057+1 0  9999
2 68643  88.9877 324.8087 0014528 114.1997 246.0698 13.93152813  4847
QIANFAN-117             
1 68644U 26075J   26131.78049053 -.02060438  00000+0 -17322+1 0  9996
2 68644  88.9872 324.8098 0013599 119.1268 241.1269 13.92123681  4848
QIANFAN-118             
1 68645U 26075K   26131.48846747 -.02147831  00000+0 -18191+1 0  9997
2 68645  88.9873 324.8412 0012285 104.7729 255.4807 13.91882758  4801
QIANFAN-119             
1 68646U 26075L   26131.52805035 -.02096450  00000+0 -17125+1 0  9994
2 68646  88.9879 324.8286 0009715  93.6608 266.5679 13.93879688  4814
QIANFAN-120             
1 68647U 26075M   26131.52652253 -.02104632  00000+0 -17026+1 0  9999
2 68647  88.9873 324.8283 0014371  90.2112 270.0710 13.94424134  4812
QIANFAN-121             
1 68648U 26075N   26131.53150442 -.02147904  00000+0 -17165+1 0  9997
2 68648  88.9889 324.8313 0011833  78.9220 281.3287 13.95231895  4812
QIANFAN-122             
1 68649U 26075P   26131.52320053  .00000077  00000+0  45155-4 0  9993
2 68649  88.9884 324.8231 0017118 114.7814 245.5146 13.96922802  4819
QIANFAN-123             
1 68650U 26075Q   26131.34120047  .00000050  00000+0  25068-4 0  9998
2 68650  88.9877 324.8559 0012703 115.3166 244.9330 13.99047909  4758
QIANFAN-124             
1 68651U 26075R   26131.52700815 -.02144862  00000+0 -17529+1 0  9999
2 68651  88.9879 324.8283 0013253  90.3343 269.9351 13.93931311  4815
QIANFAN-125             
1 68652U 26075S   26131.30313155 -.02130716  00000+0 -17045+1 0  9999
2 68652  88.9878 324.8511 0018819 110.7216 249.5980 13.95084879  4786
QIANFAN-126             
1 68653U 26075T   26131.54771786 -.02059017  00000+0 -15754+1 0  9993
2 68653  88.9878 324.8124 0014306  95.0496 265.2315 13.97518222  4827
