GLOBALSTAR M069         
1 31573U 07020C   26143.68684256 -.00000082  00000+0  10196-3 0  9999
2 31573  52.0046 321.4714 0002673  98.4311 343.5258 12.23470295875807
GLOBALSTAR M072         
1 31574U 07020D   26143.83591990 -.00000080  00000+0  61760-4 0  9991
2 31574  51.9897 165.0761 0001370 261.3695 269.9050 11.91658324872075
GLOBALSTAR M066         
1 32265U 07048C   26143.73008846 -.00000081  00000+0  11246-3 0  9995
2 32265  51.9561 128.1207 0004980 349.9483 182.5573 12.30388789857212
GLOBALSTAR M079         
1 37188U 10054A   26143.85083830 -.00000107  00000+0 -16830-4 0  9999
2 37188  52.0015 182.7542 0000143 276.9986 253.7797 12.62265836719475
GLOBALSTAR M074         
1 37189U 10054B   26143.87734544 -.00000100  00000+0  22068-4 0  9999
2 37189  51.9992 181.9426 0000175 100.5573  70.7417 12.62268296720087
GLOBALSTAR M076         
1 37190U 10054C   26143.82435889 -.00000098  00000+0  31765-4 0  9996
2 37190  52.0005 182.3039 0000179  26.1368 144.9236 12.62261807719790
GLOBALSTAR M077         
1 37191U 10054D   26143.74855527 -.00000064  00000+0  25326-3 0  9991
2 37191  51.9956 241.3251 0003107 130.1013  38.5056 11.67547200718282
GLOBALSTAR M075         
1 37192U 10054E   26143.42184464 -.00000096  00000+0  42162-4 0  9995
2 37192  51.9940 225.5983 0000455 141.1484 299.3174 12.62266946718817
GLOBALSTAR M073         
1 37193U 10054F   26143.75884566 -.00000100  00000+0  22007-4 0  9994
2 37193  52.0033 138.6516 0000349 352.0701 179.5034 12.62267144720847
GLOBALSTAR M083         
1 37739U 11033A   26143.81699301 -.00000100  00000+0  18792-4 0  9992
2 37739  51.9854  86.7351 0000525  19.3213 357.9475 12.62262505689873
GLOBALSTAR M088         
1 37740U 11033B   26143.86938191 -.00000091  00000+0  73311-4 0  9999
2 37740  52.0235 352.9479 0000880  88.5441 284.9375 12.62268077685429
GLOBALSTAR M091         
1 37741U 11033C   26143.72388744 -.00000085  00000+0  10329-3 0  9990
2 37741  52.0005 316.3909 0000723 111.5563 261.7443 12.62263276686195
GLOBALSTAR M085         
1 37742U 11033D   26143.82338780 -.00000093  00000+0  60391-4 0  9991
2 37742  52.0130 267.3586 0000529 139.4715  26.3225 12.62263294686714
GLOBALSTAR M081         
1 37743U 11033E   26143.76664889 -.00000091  00000+0  69478-4 0  9990
2 37743  51.9963 269.9957 0000578 116.9226  30.3888 12.62264405686858
GLOBALSTAR M089         
1 37744U 11033F   26143.73322602 -.00000100  00000+0  23666-4 0  9992
2 37744  51.9923 224.2620 0000596 108.8644  67.1545 12.62266527687698
GLOBALSTAR M084         
1 38040U 11080A   26143.87368443 -.00000090  00000+0  76547-4 0  9996
2 38040  52.0003  91.2990 0000748  48.9819 345.5630 12.62267124665696
GLOBALSTAR M080         
1 38041U 11080B   26143.84139916 -.00000095  00000+0  49954-4 0  9992
2 38041  52.0053  93.1072 0000109 135.1333 242.5419 12.62268989665810
GLOBALSTAR M082         
1 38042U 11080C   26143.78150963 -.00000100  00000+0  18955-4 0  9995
2 38042  52.0092  48.7879 0000370  75.5166 320.0054 12.62269391666519
GLOBALSTAR M092         
1 38043U 11080D   26143.70625287 -.00000112  00000+0 -46885-4 0  9991
2 38043  52.0065 139.4141 0000202  49.3530 123.1602 12.62266914664953
GLOBALSTAR M090         
1 38044U 11080E   26143.72495336 -.00000088  00000+0  90768-4 0  9994
2 38044  52.0144  42.9084 0000636  57.6759 319.7167 12.62268531666624
GLOBALSTAR M086         
1 38045U 11080F   26143.75087463 -.00000095  00000+0  51619-4 0  9996
2 38045  51.9915  42.7992 0001395  22.0514  12.5115 12.62286098666576
GLOBALSTAR M097         
1 39072U 13005A   26143.85303088 -.00000088  00000+0  88746-4 0  9994
2 39072  52.0058 317.4091 0000626 102.6092 257.4844 12.62251159613831
GLOBALSTAR M093         
1 39073U 13005B   26143.74737536 -.00000088  00000+0  86371-4 0  9994
2 39073  52.0116 311.0695 0000489  97.7728 262.3194 12.62265148613773
GLOBALSTAR M094         
1 39074U 13005C   26143.66816083 -.00000105  00000+0 -54961-5 0  9993
2 39074  51.9952 225.4531 0000238 166.2994 193.7879 12.62268124615378
GLOBALSTAR M096         
1 39075U 13005D   26143.76074799 -.00000092  00000+0  68044-4 0  9995
2 39075  52.0081 273.9524 0000534 130.2546 229.8367 12.62264848614301
GLOBALSTAR M078         
1 39076U 13005E   26143.89203848 -.00000202  00000+0 -55051-3 0  9996
2 39076  51.9896 357.5938 0000795 161.3800 198.7095 12.62260258612940
GLOBALSTAR M095         
1 39077U 13005F   26143.83965582 -.00000088  00000+0  88952-4 0  9999
2 39077  52.0100 355.3241 0000460 105.5565 254.5353 12.62263008612798
GLOBALSTAR M087         
1 52888U 22064A   26143.69464545 -.00000107  00000+0 -20280-4 0  9999
2 52888  51.9968 137.0185 0000228 317.1041  42.9808 12.62268781188040
