KUIPER-00008            
1 63724U 25088A   26124.51570089  .00004737  00000+0  64912-3 0  9990
2 63724  51.9001 201.1463 0000587  88.9020 271.2010 14.79983932 56317
KUIPER-00009            
1 63725U 25088B   26124.53049655 -.00012560  00000+0 -16225-2 0  9991
2 63725  51.9014 218.6953 0000998 120.7497 239.3563 14.79910263 56065
KUIPER-00010            
1 63726U 25088C   26124.48725628  .00003389  00000+0  47359-3 0  9997
2 63726  51.9004 196.3636 0000336  91.8299 268.2702 14.79904167 55992
KUIPER-00011            
1 63727U 25088D   26124.51296997 -.00000830  00000+0 -79891-4 0  9991
2 63727  51.8994 203.8084 0000521  92.9964 267.1058 14.79918489 56027
KUIPER-00012            
1 63728U 25088E   26124.42781078  .00007410  00000+0  99906-3 0  9998
2 63728  51.8983 189.1099 0000723  76.0713 284.0330 14.79970880 56177
KUIPER-00013            
1 63729U 25088F   26124.29152183  .00004215  00000+0  58136-3 0  9993
2 63729  51.9009 222.2329 0000438 212.1373 147.9563 14.79949453 55807
KUIPER-00014            
1 63730U 25088G   26124.52805378  .00004710  00000+0  64658-3 0  9998
2 63730  51.9003 221.1318 0000819 135.9055 224.1973 14.79924565 55654
KUIPER-00015            
1 63731U 25088H   26124.48333478  .00003434  00000+0  47917-3 0  9992
2 63731  51.8994 231.4075 0000461  94.7432 265.3583 14.79935427 55968
KUIPER-00016            
1 63732U 25088J   26124.45691729  .00004228  00000+0  58070-3 0  9990
2 63732  51.8992 223.9609 0000367 120.0915 240.0084 14.80115598 55608
KUIPER-00018            
1 63733U 25088K   26124.50219486 -.00002162  00000+0 -25482-3 0  9991
2 63733  51.9029 213.7799 0000558  96.6859 263.4167 14.79915493 55752
KUIPER-00019            
1 63734U 25088L   26124.50858350  .00003857  00000+0  57851-3 0  9996
2 63734  51.9005 212.3187 0000465  84.7591 275.3423 14.76527097 55776
KUIPER-00020            
1 63735U 25088M   26124.43197442 -.00002154  00000+0 -25370-3 0  9999
2 63735  51.9031 216.6042 0000210 189.3239 170.7719 14.79932398 55911
KUIPER-00021            
1 63736U 25088N   26122.97993283  .00057869  00000+0  76358-2 0  9996
2 63736  51.8999 222.9865 0000334 104.3661 255.7338 14.79482723 55531
KUIPER-00023            
1 63737U 25088P   26124.42838949 -.00005178  00000+0 -65304-3 0  9994
2 63737  51.8999 219.0604 0000285  69.5779 290.5214 14.79783769 56015
KUIPER-00024            
1 63738U 25088Q   26124.51029727 -.00002810  00000+0 -33986-3 0  9992
2 63738  51.9022 206.2899 0000806  96.6861 263.4193 14.79926071 56324
KUIPER-00025            
1 63739U 25088R   26124.53589078  .00004049  00000+0  55920-3 0  9991
2 63739  51.9050 213.6577 0000353  57.7980 302.3017 14.79980253 56081
KUIPER-00027            
1 63740U 25088S   26124.50760145  .00003387  00000+0  47303-3 0  9996
2 63740  51.9007 208.7642 0000537  91.6739 268.4285 14.79939260 55884
KUIPER-00028            
1 63741U 25088T   26124.47651477  .00004210  00000+0  58065-3 0  9993
2 63741  51.8989 206.3627 0000523  96.6448 263.4574 14.79948435 56327
KUIPER-00029            
1 63742U 25088U   26124.46634603  .00003706  00000+0  55511-3 0  9997
2 63742  51.9006 204.5268 0002561  42.7913 317.3247 14.76686513 55871
KUIPER-00030            
1 63743U 25088V   26124.49096015 -.00002844  00000+0 -34362-3 0  9995
2 63743  51.9006 223.7931 0000234 317.9127  42.1817 14.80010670 55899
KUIPER-00031            
1 63744U 25088W   26124.53514390  .00004881  00000+0  60439-3 0  9997
2 63744  51.9001 207.1771 0001410 330.2504  29.8380 14.84217548 55846
KUIPER-00032            
1 63745U 25088X   26124.34638690  .00012484  00000+0  32801-3 0  9997
2 63745  51.8663 114.7209 0004710 334.3346  25.7407 15.38977057 58110
KUIPER-00033            
1 63746U 25088Y   26124.03629723  .00004457  00000+0  61307-3 0  9995
2 63746  51.8999 240.8345 0000603 102.8670 257.2360 14.79946124 55819
KUIPER-00034            
1 63747U 25088Z   26124.48192110 -.00002383  00000+0 -28374-3 0  9995
2 63747  51.9009 201.3924 0000840  90.6620 269.4438 14.79927214 56080
KUIPER-00035            
1 63748U 25088AA  26124.45494852 -.00001090  00000+0 -11399-3 0  9994
2 63748  51.9039 226.4971 0000218  87.0274 273.0713 14.79921631 55788
KUIPER-00037            
1 63749U 25088AB  26124.43342913  .00005029  00000+0  63201-3 0  9996
2 63749  51.9013 225.9919 0000049 147.1122 212.9845 14.83534224 56578
KUIPER-00038            
1 63750U 25088AC  26124.43737206 -.00002924  00000+0 -35476-3 0  9997
2 63750  51.9014 211.5844 0000677  89.7640 270.3400 14.79926999 55777
KUIPER-00039            
1 64500U 25134A   26124.34242025  .00003556  00000+0  49543-3 0  9993
2 64500  51.9038 347.0039 0000797 108.9072 251.1976 14.79920233 48316
KUIPER-00040            
1 64501U 25134B   26124.02795831  .00004140  00000+0  57245-3 0  9995
2 64501  51.9002 358.4967 0001542  97.6446 262.4691 14.79879737 48122
KUIPER-00041            
1 64502U 25134C   26124.05883363  .00004062  00000+0  56155-3 0  9999
2 64502  51.9005   0.7379 0000768 105.6317 254.4730 14.79927055 48094
KUIPER-00042            
1 64503U 25134D   26124.50002315  .00012101  00000+0  16028-2 0  9997
2 64503  51.8997 353.7670 0000719  25.9467 316.9756 14.80212782  3263
KUIPER-00043            
1 64504U 25134E   26124.30863219 -.00003251  00000+0 -39771-3 0  9993
2 64504  51.9036 347.0915 0000824 112.3387 247.7663 14.79923316 48319
KUIPER-00044            
1 64505U 25134F   26124.50002315  .00011414  00000+0  15010-2 0  9995
2 64505  51.9003 358.7703 0000212 144.9746 225.0652 14.80565364  5608
KUIPER-00046            
1 64506U 25134G   26124.33161814 -.00002388  00000+0 -28442-3 0  9993
2 64506  51.9011 356.9942 0000999 107.8705 252.2366 14.79924878 48178
KUIPER-00047            
1 64507U 25134H   26124.26005508  .00003361  00000+0  46931-3 0  9996
2 64507  51.9000 329.8291 0000639 106.9982 253.1050 14.79963407 48543
KUIPER-00048            
1 64508U 25134J   26124.29375078 -.00002773  00000+0 -33493-3 0  9999
2 64508  51.9000 329.6944 0000889 103.5772 256.5289 14.79922511 48557
KUIPER-00049            
1 64509U 25134K   26124.31402363  .00002414  00000+0  34550-3 0  9996
2 64509  51.9006 342.0612 0000813  98.9676 261.1378 14.79944557 48388
KUIPER-00050            
1 64510U 25134L   26124.26537771 -.00000626  00000+0 -53138-4 0  9993
2 64510  51.9034 324.8018 0000772  98.3420 261.7630 14.79929768 48625
KUIPER-00051            
1 64511U 25134M   26124.30634198  .00002835  00000+0  43330-3 0  9994
2 64511  51.9016 340.2592 0001005 235.4268 124.6598 14.76531661 48403
KUIPER-00053            
1 64513U 25134P   26123.85514410  .00002149  00000+0  29898-3 0  9990
2 64513  51.9015 338.8983 0002059  61.7584 298.3587 14.81627640 48385
KUIPER-00054            
1 64514U 25134Q   26124.29105606  .00003624  00000+0  50403-3 0  9998
2 64514  51.8999 332.1889 0000669 109.9368 250.1666 14.79940646 48518
KUIPER-00055            
1 64515U 25134R   26124.51100654  .00016165  00000+0  22137-2 0  9998
2 64515  51.9017 283.8257 0001243 139.5547 220.5507 14.78584737 49216
KUIPER-00056            
1 64516U 25134S   26124.31942751 -.00003652  00000+0 -45043-3 0  9990
2 64516  51.9034 337.1326 0000675  95.4847 264.6193 14.79920894 48451
KUIPER-00057            
1 64517U 25134T   26124.31133106  .00001183  00000+0  18423-3 0  9994
2 64517  51.9014 344.6180 0000642 101.8934 258.2101 14.79927123 48342
KUIPER-00058            
1 64518U 25134U   26124.28296170  .00003626  00000+0  50427-3 0  9996
2 64518  51.9013 339.7054 0000671  96.8852 263.2187 14.79941892 48418
KUIPER-00059            
1 64519U 25134V   26124.28834344  .00000302  00000+0  68663-4 0  9998
2 64519  51.9013 334.7277 0000772 107.4699 252.6348 14.79944493 48489
KUIPER-00060            
1 64520U 25134W   26124.32194293 -.00004083  00000+0 -50705-3 0  9996
2 64520  51.9039 334.6245 0000589 111.4603 248.6423 14.79916018 48479
KUIPER-00061            
1 64521U 25134X   26123.87412727  .00003791  00000+0  52417-3 0  9996
2 64521  51.9019 344.0602 0001127 107.2312 252.8774 14.80087835 48305
KUIPER-00062            
1 64522U 25134Y   26123.33215218  .00001322  00000+0  20240-3 0  9991
2 64522  51.8977 348.9744 0000781  93.1835 266.9217 14.79941056 48205
KUIPER-00063            
1 64523U 25134Z   26124.33701339  .00003145  00000+0  44121-3 0  9996
2 64523  51.9043 352.0410 0000525 107.9304 252.1715 14.79945685 48244
KUIPER-00064            
1 64524U 25134AA  26124.33968207 -.00000001  00000+0  28844-4 0  9990
2 64524  51.9043 349.4516 0000869  84.4050 275.7012 14.79946848 48287
KUIPER-00065            
1 64525U 25134AB  26124.33434247  .00003631  00000+0  50509-3 0  9996
2 64525  51.9056 354.6406 0000693 105.6389 254.4650 14.79928474 48191
KUIPER-00066            
1 64526U 25134AC  26124.50298935 -.00003305  00000+0 -40485-3 0  9990
2 64526  51.9021 291.1830 0000499 132.7104 227.3900 14.79920889 49112
KUIPER-00069            
1 64816U 25151A   26124.02106481  .00004538  00000+0  62371-3 0  9997
2 64816  51.9033  35.9561 0000637 111.5596 248.5434 14.79944510 44957
KUIPER-00070            
1 64817U 25151B   26124.50056444  .00004059  00000+0  56088-3 0  9990
2 64817  51.9002  58.7607 0000705  95.8307 264.2736 14.79946848 44684
KUIPER-00071            
1 64818U 25151C   26124.50326044  .00004220  00000+0  58199-3 0  9992
2 64818  51.9024  56.2791 0000789  92.3408 267.7645 14.79949240 43531
KUIPER-00072            
1 64819U 25151D   26124.49107591  .00004613  00000+0  63380-3 0  9999
2 64819  51.8992  36.3007 0001036  96.2263 263.8817 14.79926163 43810
KUIPER-00073            
1 64820U 25151E   26123.86171913 -.00002664  00000+0 -32061-3 0  9998
2 64820  51.9040  59.1052 0001189  92.3822 267.7277 14.79930341 44623
KUIPER-00074            
1 64821U 25151F   26124.23051089  .00181629  00000+0  10864-2 0  9995
2 64821  51.8970  12.0077 0005570 189.1439 170.9464 15.76760611 44124
KUIPER-00075            
1 64822U 25151G   26124.49709882  .00042103  00000+0  93068-3 0  9996
2 64822  51.8691 309.8349 0004777 114.3783 245.7705 15.43408513 45016
KUIPER-00076            
1 64823U 25151H   26124.48037109  .00004170  00000+0  57543-3 0  9992
2 64823  51.9022  46.3854 0001471  86.8621 273.2510 14.79951765 43672
KUIPER-00077            
1 64824U 25151J   26124.06971796  .00003982  00000+0  55138-3 0  9994
2 64824  51.9023  53.2149 0000890  95.5148 264.5916 14.79908695 43546
KUIPER-00078            
1 64825U 25151K   26124.51134829  .00004302  00000+0  59275-3 0  9996
2 64825  51.9014  48.7460 0000806  94.3681 265.7374 14.79950041 43642
KUIPER-00079            
1 64826U 25151L   26124.06702382  .00004260  00000+0  58740-3 0  9991
2 64826  51.9001  55.6796 0000844  96.1556 263.9503 14.79940806 44701
KUIPER-00080            
1 64827U 25151M   26124.50595220  .00004432  00000+0  60975-3 0  9996
2 64827  51.9007  53.7469 0000700 100.8068 259.2974 14.79949819 43573
KUIPER-00082            
1 64828U 25151N   26124.48567994  .00004185  00000+0  57741-3 0  9993
2 64828  51.9025  41.3781 0000744 104.5894 255.5151 14.79946826 43740
KUIPER-00083            
1 64829U 25151P   26124.47758810 -.00002080  00000+0 -24394-3 0  9994
2 64829  51.9005  48.9001 0001227  92.6219 267.4884 14.79929359 44829
KUIPER-00084            
1 64830U 25151Q   26124.33172779  .00003175  00000+0  44551-3 0  9996
2 64830  51.9012  59.5295 0000692 114.1222 245.9812 14.79905828 43478
KUIPER-00085            
1 64831U 25151R   26124.45192266  .00003717  00000+0  51615-3 0  9994
2 64831  51.9043  41.5632 0000647  96.6311 263.4725 14.79945949 43737
KUIPER-00086            
1 64832U 25151S   26124.50865400 -.00001366  00000+0 -15026-3 0  9994
2 64832  51.9038  51.2734 0000908  85.2787 274.8279 14.79926586 43606
KUIPER-00087            
1 64833U 25151T   26124.45999347 -.00003791  00000+0 -46874-3 0  9996
2 64833  51.9025  33.9619 0000890 109.8151 250.2907 14.79920618 43831
KUIPER-00089            
1 64834U 25151U   26124.04943216  .00003865  00000+0  53569-3 0  9995
2 64834  51.9022  40.7907 0000684  98.2483 261.8557 14.79934966 43712
KUIPER-00090            
1 64835U 25151V   26124.46270558  .00004330  00000+0  59663-3 0  9993
2 64835  51.9001  31.4842 0000654  96.2592 263.8445 14.79934504 43874
KUIPER-00091            
1 64836U 25151W   26124.45706492  .00003894  00000+0  53854-3 0  9994
2 64836  51.9026  36.4974 0000956  91.5375 268.5697 14.80014709 43807
KUIPER-00092            
1 64837U 25151X   26124.17909174 -.00004137  00000+0 -51397-3 0  9999
2 64837  51.9010  45.2232 0000753 103.4093 256.6953 14.79929829 44878
KUIPER-00093            
1 64838U 25151Y   26124.51389935  .00004296  00000+0  59332-3 0  9996
2 64838  51.9012  46.2201 0000696  79.8249 280.2792 14.79847138 43676
KUIPER-00094            
1 64839U 25151Z   26124.37308763  .00006848  00000+0  49767-3 0  9997
2 64839  51.8903   6.3910 0007061 123.8631 236.3015 15.04864417 44227
KUIPER-00081            
1 65132U 25171A   26123.69125603 -.00001496  00000+0 -16734-3 0  9994
2 65132  51.8984 264.8561 0000735  94.4447 265.6600 14.79929105 41189
KUIPER-00088            
1 65133U 25171B   26124.41521775  .00003586  00000+0  49893-3 0  9998
2 65133  51.8995 279.1595 0000717 101.3425 258.7618 14.79946088 41048
KUIPER-00095            
1 65134U 25171C   26124.36925910 -.00000602  00000+0 -49917-4 0  9998
2 65134  51.8981 259.4223 0000558 107.6649 252.4374 14.79929478 41317
KUIPER-00096            
1 65135U 25171D   26124.11942697  .00004154  00000+0  57350-3 0  9996
2 65135  51.8997 272.9672 0000579 106.0417 254.0609 14.79941292 41106
KUIPER-00097            
1 65136U 25171E   26124.38685005 -.00003319  00000+0 -40662-3 0  9995
2 65136  51.9018 274.4254 0000591  84.8763 275.2267 14.79925760 41091
KUIPER-00098            
1 65137U 25171F   26124.45168465  .00003734  00000+0  51872-3 0  9994
2 65137  51.9013 276.5115 0000619  97.9442 262.1591 14.79920697 40421
KUIPER-00099            
1 65138U 25171G   26124.36117899  .00003887  00000+0  53879-3 0  9998
2 65138  51.9030 266.9053 0000615 100.1848 259.9183 14.79917121 41204
KUIPER-00100            
1 65139U 25171H   26124.39759973 -.00007566  00000+0 -96427-3 0  9993
2 65139  51.9016 264.2175 0001203 110.7589 249.3503 14.79943093 41248
KUIPER-00102            
1 65140U 25171J   26124.39493737  .00003682  00000+0  51181-3 0  9999
2 65140  51.8973 266.7395 0000696  98.9356 261.1685 14.79921977 41202
KUIPER-00103            
1 65141U 25171K   26124.40982674  .00003407  00000+0  47585-3 0  9993
2 65141  51.8991 284.1676 0000688 111.0371 249.0665 14.79918336 40964
KUIPER-00104            
1 65142U 25171L   26124.42330508  .00003474  00000+0  48453-3 0  9998
2 65142  51.9008 271.5874 0000607 109.1631 250.9397 14.79925876 41144
KUIPER-00105            
1 65143U 25171M   26124.44898310 -.00001761  00000+0 -20209-3 0  9999
2 65143  51.9006 279.0859 0000473 119.4312 240.6698 14.79931525 41047
KUIPER-00106            
1 65144U 25171N   26124.37356257  .00005704  00000+0  50395-3 0  9999
2 65144  51.8938 261.8806 0007003 288.6034  71.4175 14.97632967 41282
KUIPER-00107            
1 65145U 25171P   26124.40032443 -.00000667  00000+0 -58519-4 0  9994
2 65145  51.9000 261.7410 0000605 113.0067 247.0960 14.79933400 41281
KUIPER-00108            
1 65146U 25171Q   26124.42058682  .00003637  00000+0  50560-3 0  9995
2 65146  51.9012 274.1768 0000191 211.3283 148.7668 14.79949999 41115
KUIPER-00109            
1 65147U 25171R   26124.39225506  .00003890  00000+0  53912-3 0  9998
2 65147  51.9017 269.2448 0000638 103.3708 256.7325 14.79918934 41170
KUIPER-00110            
1 65148U 25171S   26124.48004168 -.00007712  00000+0 -98371-3 0  9995
2 65148  51.8985 281.4303 0000909  92.1530 267.9537 14.79934625 41005
KUIPER-00111            
1 65149U 25171T   26124.44087838  .00003519  00000+0  49019-3 0  9991
2 65149  51.8975 286.5000 0000589 104.0183 256.0844 14.79944685 40934
KUIPER-00112            
1 65150U 25171U   26124.42563331  .00003669  00000+0  50890-3 0  9993
2 65150  51.9015 269.1447 0000530 146.8657 213.2338 14.80026356 41178
KUIPER-00114            
1 65151U 25171V   26124.16806816  .00003554  00000+0  49481-3 0  9990
2 65151  51.8989 290.2738 0000600  98.8585 261.2445 14.79944749 40859
KUIPER-00115            
1 65152U 25171W   26124.44629014  .00003639  00000+0  50612-3 0  9997
2 65152  51.9014 281.5380 0000545  98.2958 261.8066 14.79928335 41008
KUIPER-00116            
1 65153U 25171X   26124.13702375  .00003919  00000+0  54270-3 0  9991
2 65153  51.9003 287.9420 0000601 111.0475 249.0551 14.79937746 40881
KUIPER-00118            
1 65154U 25171Y   26124.47148347 -.00030381  00000+0 -39767-2 0  9990
2 65154  51.8993 288.9125 0001564  97.6735 262.4405 14.79904892 40905
KUIPER-00119            
1 65155U 25171Z   26124.42173722  .00003932  00000+0  55209-3 0  9991
2 65155  51.8994 276.7642 0001150  50.3354 309.7710 14.79337681 41068
KUIPER-00120            
1 65762U 25217A   26124.38462211  .00002470  00000+0  35300-3 0  9991
2 65762  51.8974 166.7807 0000535  96.8429 263.2594 14.79922654 32980
KUIPER-00132            
1 65763U 25217B   26124.33450400  .00036974  00000+0  87142-3 0  9991
2 65763  51.8567  92.9553 0005901 152.6828 207.4472 15.41544697 34000
KUIPER-00133            
1 65764U 25217C   26124.41836495  .00002365  00000+0  33894-3 0  9995
2 65764  51.9012 166.7077 0000088 155.2406 204.8561 14.79950349 32991
KUIPER-00139            
1 65765U 25217D   26124.26248181  .00004187  00000+0  33340-3 0  9998
2 65765  51.8831 139.2920 0008215 129.0910 231.0794 15.02319194 33367
KUIPER-00142            
1 65766U 25217E   26124.47102005  .00002486  00000+0  35495-3 0  9999
2 65766  51.8981 148.9225 0000376  76.4266 283.6738 14.79943215 33246
KUIPER-00145            
1 65767U 25217F   26124.46833255  .00009022  00000+0  12114-2 0  9992
2 65767  51.8968 151.4498 0000857 113.1227 246.9825 14.79914143 33206
KUIPER-00147            
1 65768U 25217G   26124.29674948 -.00004357  00000+0 -54304-3 0  9992
2 65768  51.8958 154.7002 0000719  88.3803 271.7241 14.79919301 33145
KUIPER-00148            
1 65769U 25217H   26124.33421204  .00001939  00000+0  30765-3 0  9999
2 65769  51.9029 135.1122 0001763 193.2795 166.8120 14.76314788 33424
KUIPER-00150            
1 65770U 25217J   26124.28599553  .00002382  00000+0  34117-3 0  9996
2 65770  51.8994 164.7656 0000401  69.5634 290.5371 14.79949631 33002
KUIPER-00151            
1 65771U 25217K   26124.36161794 -.00003558  00000+0 -43811-3 0  9997
2 65771  51.9002 156.9279 0000434  40.3737 319.7258 14.79925849 33121
KUIPER-00152            
1 65772U 25217L   26124.34137427  .00002099  00000+0  30437-3 0  9999
2 65772  51.8995 144.5069 0000386  39.9520 320.1471 14.79920038 33298
KUIPER-00153            
1 65773U 25217M   26124.32849345  .00001780  00000+0  28383-3 0  9990
2 65773  51.9001 139.4369 0000364 317.3822  42.7110 14.76475706 33367
KUIPER-00155            
1 65774U 25217N   26124.50002315 -.00009543  00000+0 -11322-2 0  9990
2 65774  51.9006 111.3928 0001286 109.7790 157.2782 14.83174231  5019
KUIPER-00156            
1 65775U 25217P   26124.44805078  .00001994  00000+0  29043-3 0  9991
2 65775  51.9008 139.0769 0000480  72.8875 287.2139 14.79940413 33379
KUIPER-00163            
1 65777U 25217R   26124.49904625  .00105845  00000+0  62343-3 0  9996
2 65777  51.8963 131.5174 0003518  47.4217 312.7083 15.77377784 33488
KUIPER-00165            
1 65778U 25217S   26124.43723645  .00002133  00000+0  30863-3 0  9990
2 65778  51.8991 149.0849 0000435  54.9508 305.1495 14.79947965 33235
KUIPER-00166            
1 65779U 25217T   26124.28195125  .00002194  00000+0  31679-3 0  9993
2 65779  51.9016 137.3072 0000472  72.1904 287.9110 14.79920042 33380
KUIPER-00167            
1 65780U 25217U   26124.35896316  .00002202  00000+0  31782-3 0  9998
2 65780  51.8947 159.3728 0000507  92.3941 267.7080 14.79922579 33086
KUIPER-00168            
1 65781U 25217V   26124.44536103  .00002094  00000+0  30359-3 0  9992
2 65781  51.8992 141.5526 0000463  78.2470 281.8544 14.79932198 33346
KUIPER-00169            
1 65782U 25217W   26124.43999185  .00002071  00000+0  30060-3 0  9999
2 65782  51.8997 146.5820 0000463  77.4635 282.6379 14.79920178 33270
KUIPER-00170            
1 65783U 25217X   26124.43403662  .00002106  00000+0  30451-3 0  9993
2 65783  51.8967 151.5763 0000374  24.2519 335.8461 14.80024854 33206
KUIPER-00172            
1 65785U 25217Z   26124.43082203  .00001674  00000+0  26755-3 0  9990
2 65785  51.8961 133.5450 0001474 128.4400 231.6693 14.76685954 33459
KUIPER-00173            
1 65786U 25217AA  26124.33897299  .00010565  00000+0  14086-2 0  9991
2 65786  51.8986 147.0316 0000837 339.9319  20.1610 14.80052340 33258
KUIPER-00174            
1 65787U 25217AB  26124.27650307  .00000603  00000+0  10800-3 0  9995
2 65787  51.9016 142.3381 0000503  59.2805 300.8207 14.79949259 33315
KUIPER-00176            
1 65788U 25217AC  26124.39538007  .00002539  00000+0  36171-3 0  9990
2 65788  51.8983 156.7671 0000400  82.9347 277.1661 14.79950522 33123
KUIPER-00101            
1 65947U 25228A   26124.27236417  .00002261  00000+0  32543-3 0  9997
2 65947  51.8966 114.7796 0000538  58.2786 301.8229 14.79941109 31469
KUIPER-00113            
1 65948U 25228B   26124.37925295  .00002433  00000+0  34798-3 0  9993
2 65948  51.8971 109.3270 0000526  42.6109 317.4894 14.79934774 31546
KUIPER-00117            
1 65949U 25228C   26124.27512772  .00002259  00000+0  32533-3 0  9996
2 65949  51.8982 112.2874 0000610  67.5799 292.5228 14.79926473 31492
KUIPER-00121            
1 65950U 25228D   26124.38176953  .00002391  00000+0  34253-3 0  9995
2 65950  51.8982 106.8188 0000862  48.7881 311.3156 14.79939720 31582
KUIPER-00122            
1 65951U 25228E   26124.37102235  .00002386  00000+0  34192-3 0  9993
2 65951  51.8976 116.8433 0000547  66.6428 293.4592 14.79923658 31448
KUIPER-00123            
1 65952U 25228F   26124.26989014  .00002148  00000+0  31109-3 0  9991
2 65952  51.8969 117.3087 0000736  94.1644 265.9403 14.79873240 31422
KUIPER-00124            
1 65953U 25228G   26124.34531318  .00002594  00000+0  36896-3 0  9994
2 65953  51.8975 109.4617 0000667  77.8795 282.2242 14.79946000 31540
KUIPER-00125            
1 65954U 25228H   26124.36151966 -.00003344  00000+0 -40986-3 0  9995
2 65954  51.8996  94.4235 0000776  69.5732 290.5314 14.79926771 31751
KUIPER-00126            
1 65955U 25228J   26124.37367933 -.00002400  00000+0 -28582-3 0  9990
2 65955  51.8976 114.3619 0000650  94.9254 265.1782 14.79948321 31471
KUIPER-00127            
1 65956U 25228K   26124.50004694  .00017092  00000+0  22654-2 0  9992
2 65956  51.8991 106.2647 0001385  63.3684 296.7420 14.79931489 31604
KUIPER-00128            
1 65957U 25228L   26124.34802993 -.00003504  00000+0 -43096-3 0  9992
2 65957  51.8984 107.0014 0000744  63.5731 296.5307 14.79923016 31572
KUIPER-00129            
1 65958U 25228M   26124.31966058  .00002596  00000+0  36931-3 0  9991
2 65958  51.8988 102.1088 0000654  55.1781 304.9243 14.79945350 31642
KUIPER-00130            
1 65959U 25228N   26124.35074138  .00002681  00000+0  38055-3 0  9999
2 65959  51.9021 104.4896 0000637  67.5574 292.5456 14.79938746 21909
KUIPER-00134            
1 65960U 25228P   26124.08980615  .00017004  00000+0  42622-3 0  9997
2 65960  51.8742  51.6466 0006346 141.7918 218.3521 15.40141868 32323
KUIPER-00135            
1 65961U 25228Q   26124.31699083  .00002531  00000+0  36090-3 0  9991
2 65961  51.9009 104.6977 0000624  65.9583 294.1444 14.79931895 31609
KUIPER-00136            
1 65962U 25228R   26124.21896343  .00002402  00000+0  34449-3 0  9992
2 65962  51.8995 102.6017 0000870  46.7779 313.3256 14.79868110 31629
KUIPER-00137            
1 65963U 25228S   26124.22108477  .00002633  00000+0  37437-3 0  9994
2 65963  51.9024 100.0625 0000653  87.5791 272.5246 14.79918654 31665
KUIPER-00138            
1 65964U 25228T   26124.32506186  .00007319  00000+0  98835-3 0  9990
2 65964  51.8974  97.0635 0000537 104.7215 255.3807 14.79916094 31713
KUIPER-00140            
1 65965U 25228U   26124.32237301  .00002758  00000+0  39067-3 0  9995
2 65965  51.8978  99.6610 0000617  72.9436 287.1594 14.79934660 31679
KUIPER-00141            
1 65966U 25228V   26124.19267839 -.00005705  00000+0 -72012-3 0  9994
2 65966  51.9021  95.2654 0000698  84.8405 275.2637 14.79923932 31729
KUIPER-00146            
1 65967U 25228W   26124.35884338  .00002668  00000+0  37892-3 0  9992
2 65967  51.9019  97.0401 0000758  74.8171 285.2875 14.79925486 31713
KUIPER-00149            
1 65968U 25228X   26124.33045419  .00002903  00000+0  40957-3 0  9998
2 65968  51.9006  92.0635 0000739  60.8108 299.2928 14.79943225 31780
KUIPER-00154            
1 65969U 25228Y   26124.29939558  .00002934  00000+0  41373-3 0  9997
2 65969  51.8990  89.6990 0000654  91.2509 268.8528 14.79925211 31814
KUIPER-00157            
1 65970U 25228Z   26124.16164802  .00002754  00000+0  39017-3 0  9999
2 65970  51.9020  92.9304 0000689  67.6541 292.4494 14.79927202 31758
KUIPER-00144            
1 67133U 25301A   26124.40789743  .00001532  00000+0  24871-3 0  9993
2 67133  51.8996 168.4519 0000397  12.7062 347.3909 14.76455827 22133
KUIPER-00164            
1 67134U 25301B   26124.43095777  .00001762  00000+0  28131-3 0  9992
2 67134  51.9028 179.8272 0001716 108.1707 251.9441 14.76464766 22150
KUIPER-00175            
1 67135U 25301C   26124.43204109  .00003231  00000+0  33783-3 0  9996
2 67135  51.8938 169.4379 0000487  53.7179 306.3833 14.92181849 22195
KUIPER-00179            
1 67136U 25301D   26124.40490625  .00002569  00000+0  36621-3 0  9991
2 67136  51.8964 179.2297 0000653  93.0490 267.0547 14.79897336 22163
KUIPER-00181            
1 67137U 25301E   26124.45896001  .00003018  00000+0  42428-3 0  9997
2 67137  51.9024 191.5000 0001521  43.7823 316.3260 14.79982560 21970
KUIPER-00183            
1 67138U 25301F   26124.41301176  .00003636  00000+0  37369-3 0  9992
2 67138  51.8934 170.4261 0008501 253.0616 106.9420 14.92562765 22277
KUIPER-00184            
1 67139U 25301G   26124.44380323  .00001547  00000+0  25105-3 0  9991
2 67139  51.8978 173.3570 0001936  85.8383 274.2799 14.76423687 22345
KUIPER-00186            
1 67140U 25301H   26124.49272409  .00003396  00000+0  47435-3 0  9997
2 67140  51.9007 191.3618 0000514  86.4453 273.6568 14.79922628 21821
KUIPER-00187            
1 67141U 25301J   26124.49002913  .00002964  00000+0  41767-3 0  9991
2 67141  51.9023 193.8920 0000539  94.5978 265.5046 14.79934238 21788
KUIPER-00188            
1 67142U 25301K   26124.50002315 -.00001244  00000+0 -12692-3 0  9997
2 67142  51.9009 161.1609 0001304 358.2254 191.8841 14.82101501  5827
KUIPER-00191            
1 67143U 25301L   26124.46432485  .00003099  00000+0  43528-3 0  9998
2 67143  51.8995 186.5089 0000391  89.3020 270.7988 14.79936608 21919
KUIPER-00196            
1 67144U 25301M   26124.37951073  .00023826  00000+0  62312-3 0  9990
2 67144  51.8686 155.2296 0001926 196.4195 163.6730 15.38622553 22315
KUIPER-00204            
1 67145U 25301N   26124.38733041  .00012149  00000+0  47584-3 0  9995
2 67145  51.8773 165.5671 0002569  86.9325 273.1951 15.26176912 22284
KUIPER-00210            
1 67146U 25301P   26124.43058560  .00002503  00000+0  35734-3 0  9995
2 67146  51.8990 186.6171 0000481  88.8655 271.2362 14.79923748 22057
KUIPER-00221            
1 67147U 25301Q   26124.45624051  .00002892  00000+0  40798-3 0  9999
2 67147  51.9011 194.0161 0000410  83.8183 276.2826 14.79948091 21785
KUIPER-00232            
1 67148U 25301R   26123.42096952  .00075920  00000+0  10601-1 0  9999
2 67148  51.8963 183.5819 0001027 128.2125 231.8929 14.76928209 21832
KUIPER-00241            
1 67149U 25301S   26124.46164382 -.00000947  00000+0 -95277-4 0  9992
2 67149  51.9052 189.0045 0000400 101.4500 258.6507 14.79928757 22188
KUIPER-00245            
1 67150U 25301T   26124.45355685 -.00004200  00000+0 -52242-3 0  9991
2 67150  51.8987 196.5542 0000616  85.5179 274.5853 14.79923116 21740
KUIPER-00246            
1 67151U 25301U   26124.16587266  .00002883  00000+0  40699-3 0  9998
2 67151  51.8993 182.7954 0000493  79.9260 280.1758 14.79930757 21930
KUIPER-00247            
1 67152U 25301V   26124.50002315  .00023812  00000+0  31506-2 0  9995
2 67152  51.8939 171.3184 0000458 132.4508 152.0663 14.79810391  5778
KUIPER-00248            
1 67153U 25301W   26124.50002315 -.00980667  00000+0 -45868-1 0  9993
2 67153  51.8776 156.1996 0004919 227.6196 334.9047 15.22033431  4324
KUIPER-00249            
1 67154U 25301X   26124.30160409  .00001761  00000+0  28115-3 0  9996
2 67154  51.8981 169.5986 0001944  55.6563 304.4582 14.76480617 22104
KUIPER-00250            
1 67155U 25301Y   26124.46705774  .00002691  00000+0  38181-3 0  9991
2 67155  51.8977 183.9565 0000439  61.9719 298.1288 14.79935487 21951
KUIPER-00251            
1 67156U 25301Z   26124.50002315  .00018146  00000+0  24041-2 0  9999
2 67156  51.8982 171.3669 0002361 104.0284   0.3755 14.79911174  5294
KUIPER-00252            
1 67157U 25301AA  26124.50002315  .00017504  00000+0  23341-2 0  9999
2 67157  51.8980 173.8184 0000354  91.6848  27.4739 14.79660904  5721
KUIPER-00261            
1 67158U 25301AB  26124.43327547 -.00000674  00000+0 -59439-4 0  9990
2 67158  51.9002 184.1548 0000547 115.9629 244.1390 14.79924177 21913
KUIPER-00265            
1 67159U 25301AC  26124.45085463 -.00000737  00000+0 -67705-4 0  9996
2 67159  51.9027 199.0515 0000651 104.6162 255.4873 14.79936052 21740
KUIPER-00159            
1 67764U 26030A   26124.49829816  .00044308  00000+0  11952-2 0  9991
2 67764  51.8796 309.6809 0003864 221.8543 138.2149 15.37345950 13676
KUIPER-00160            
1 67765U 26030B   26124.24331860  .00041673  00000+0  11239-2 0  9992
2 67765  51.8842 310.9400 0006070 247.4697 112.5648 15.37370573 13631
KUIPER-00177            
1 67766U 26030C   26124.26266719  .00003381  00000+0  47216-3 0  9994
2 67766  51.9012 327.3762 0000677 118.6281 241.4750 14.79947878 13404
KUIPER-00178            
1 67767U 26030D   26124.25912117  .00002194  00000+0  34318-3 0  9994
2 67767  51.9009 326.2977 0000785  78.8087 281.2962 14.76420737 13424
KUIPER-00180            
1 67768U 26030E   26124.23418808 -.00008008  00000+0 -10229-2 0  9997
2 67768  51.8983 322.4996 0000829  87.0028 273.1029 14.79920512 13478
KUIPER-00197            
1 67769U 26030F   26123.94515773  .00031980  00000+0  84690-3 0  9991
2 67769  51.8832 311.9727 0002241 227.4556 132.6242 15.38075664 13597
KUIPER-00198            
1 67770U 26030G   26124.50002315  .00001374  00000+0  17642-3 0  9996
2 67770  51.8983 313.9575 0001205 263.1441 142.5188 14.87356399  4441
KUIPER-00199            
1 67771U 26030H   26124.50919281  .00022106  00000+0  63218-3 0  9992
2 67771  51.8819 310.4498 0010934 256.1958 103.7811 15.35843489 13661
KUIPER-00200            
1 67772U 26030J   26124.25786563  .00013774  00000+0  66985-3 0  9995
2 67772  51.8867 313.1349 0001381 284.2003  75.8822 15.18669292 13603
KUIPER-00203            
1 67773U 26030K   26123.85203394  .00003750  00000+0  52103-3 0  9997
2 67773  51.9070 334.1959 0001027  70.3029 289.8044 14.79895560 13271
KUIPER-00205            
1 67774U 26030L   26123.94049000  .00033267  00000+0  87502-3 0  9997
2 67774  51.8824 311.9222 0004138 213.7718 146.3006 15.38260704 13590
KUIPER-00208            
1 67775U 26030M   26123.85742344  .00002217  00000+0  34589-3 0  9997
2 67775  51.8992 324.9108 0006476 254.4285 105.5961 14.76498422 13400
KUIPER-00209            
1 67776U 26030N   26124.23981382  .00002117  00000+0  33236-3 0  9995
2 67776  51.9011 322.2690 0001033 328.3441  31.7458 14.76406709 13475
KUIPER-00213            
1 67777U 26030P   26124.50002315  .00028353  00000+0  37180-2 0  9997
2 67777  51.8961 318.9192 0001562 350.1155 330.6906 14.80096197  4054
KUIPER-00214            
1 67778U 26030Q   26124.50002315  .00024323  00000+0  33292-2 0  9991
2 67778  51.9007 316.3813 0001280  31.6571 104.3341 14.78364724  5836
KUIPER-00215            
1 67779U 26030R   26124.51340543  .00003189  00000+0  10389-3 0  9991
2 67779  51.8848 310.5067 0010968 258.2839 101.6916 15.34874515 13668
KUIPER-00218            
1 67780U 26030S   26124.50002315  .00004184  00000+0  58229-3 0  9995
2 67780  51.8979 317.8895 0000618  82.0951 183.3713 14.79580343  5858
KUIPER-00220            
1 67781U 26030T   26124.22794416  .00029914  00000+0  83894-3 0  9999
2 67781  51.8818 311.5717 0008621 253.6463 106.3576 15.36300330 13627
KUIPER-00222            
1 67782U 26030U   26124.50002315  .00022543  00000+0  20353-2 0  9992
2 67782  51.8956 314.3171 0018012 262.3381 240.3120 14.95289790  3653
KUIPER-00223            
1 67783U 26030V   26124.50002315  .00036340  00000+0  12082-2 0  9993
2 67783  51.8849 310.7472 0011029 253.4994 309.2096 15.30779216  4252
KUIPER-00225            
1 67784U 26030W   26124.50002315 -.01672985  00000+0 -12998+0 0  9991
2 67784  51.8966 311.9330 0004622 294.5386 314.5237 15.04203958  5164
KUIPER-00226            
1 67785U 26030X   26124.26299066 -.00070435  00000+0 -27969-2 0  9994
2 67785  51.8848 314.7123 0018154 260.3649  99.5282 15.24828736 13587
KUIPER-00259            
1 67786U 26030Y   26124.50002315 -.01191110  00000+0 -85659-1 0  9995
2 67786  51.9018 311.7810 0008844 243.7927 156.7908 15.06962466  5397
KUIPER-00260            
1 67787U 26030Z   26124.50002315 -.02178601  00000+0 -13360+0 0  9995
2 67787  51.8891 310.3320 0001753 296.6516  35.2996 15.13159693  5150
KUIPER-00262            
1 67788U 26030AA  26124.50002315 -.01774476  00000+0 -11835+0 0  9992
2 67788  51.8916 310.4857 0000724 140.4025 178.3791 15.10019540  5002
KUIPER-00266            
1 67789U 26030AB  26124.25333360  .00012805  00000+0  50883-3 0  9990
2 67789  51.8848 314.6493 0022096 268.4176  91.4275 15.25440460 13582
KUIPER-00268            
1 67790U 26030AC  26124.50002315 -.00344264  00000+0 -10430-1 0  9994
2 67790  51.8854 309.5696 0003517 237.4994 181.1847 15.35014325  5536
KUIPER-00270            
1 67791U 26030AD  26124.23630301  .00012973  00000+0  37379-3 0  9997
2 67791  51.8828 311.6239 0011006 252.1112 107.8674 15.36025610 13625
KUIPER-00274            
1 67792U 26030AE  26124.50002315  .00015007  00000+0  16383-2 0  9998
2 67792  51.8991 315.7431 0019496 270.1572 333.3572 14.87939217  4194
KUIPER-00275            
1 67793U 26030AF  26124.22827527  .00021288  00000+0  60505-3 0  9992
2 67793  51.8849 311.6027 0009939 240.4325 119.5671 15.36070558 13621
KUIPER-00276            
1 67794U 26030AG  26124.26502478 -.00034256  00000+0 -12886-2 0  9991
2 67794  51.8853 314.7355 0019039 238.5756 121.3365 15.26267555 13583
KUIPER-00279            
1 67795U 26030AH  26123.75018777  .00024684  00000+0  70538-3 0  9990
2 67795  51.8808 313.6185 0006786 239.3721 120.6597 15.35833163 13559
KUIPER-00131            
1 68573U 26072A   26124.50002315 -.00006110  00000+0 -41619-3 0  9990
2 68573  51.8978  30.0468 0006711 208.6703 110.3181 15.04111299  5587
KUIPER-00189            
1 68574U 26072B   26124.50002315  .00000431  00000+0  57809-4 0  9998
2 68574  51.8945  31.6776 0000529 164.0141  58.7226 14.98081682  5155
KUIPER-00192            
1 68575U 26072C   26124.50002315 -.02167708  00000+0 -11226+0 0  9992
2 68575  51.8844  28.9009 0004796 225.7443  22.2286 15.19594954  4271
KUIPER-00193            
1 68576U 26072D   26124.50002315  .00023349  00000+0  62128-3 0  9992
2 68576  51.8776  28.1253 0003551 189.8238  51.1162 15.38100054  4188
KUIPER-00194            
1 68577U 26072E   26124.50002315  .00016459  00000+0  55749-3 0  9998
2 68577  51.8808  28.2442 0003088 181.3575  11.8513 15.30698439  5390
KUIPER-00229            
1 68578U 26072F   26124.50002315 -.01792873  00000+0 -11865+0 0  9990
2 68578  51.8844  29.8953 0007943 234.5752 258.7377 15.10268491  5701
KUIPER-00230            
1 68579U 26072G   26124.50002315  .00021576  00000+0  59181-3 0  9990
2 68579  51.8782  27.9849 0001490 182.7326 125.2873 15.37210716  4184
KUIPER-00231            
1 68580U 26072H   26124.44987366  .00026485  00000+0  69245-3 0  9999
2 68580  51.8774  28.2912 0002607 179.0999 180.9993 15.38570614  4658
KUIPER-00234            
1 68581U 26072J   26124.50002315 -.00003706  00000+0 -11944-3 0  9995
2 68581  51.8833  28.1928 0001320 209.4987 341.4967 15.28446303  4546
KUIPER-00236            
1 68582U 26072K   26124.44449963  .00027638  00000+0  71632-3 0  9991
2 68582  51.8790  28.2552 0002230 168.4431 191.6608 15.38816044  4655
KUIPER-00244            
1 68583U 26072L   26124.45205028  .00023358  00000+0  61501-3 0  9994
2 68583  51.8785  28.3064 0003591 198.7119 161.3736 15.38424501  4658
KUIPER-00253            
1 68584U 26072M   26124.13649953  .00027079  00000+0  72427-3 0  9992
2 68584  51.8757  29.9364 0004721 206.4157 153.6590 15.37850539  4603
KUIPER-00254            
1 68585U 26072N   26124.01708692  .00047799  00000+0  12855-2 0  9995
2 68585  51.8751  30.6332 0006985 193.6534 166.4265 15.37389535  4583
KUIPER-00263            
1 68586U 26072P   26124.50002315  .00021712  00000+0  59398-3 0  9990
2 68586  51.8779  27.9772 0001658 152.7508 159.9792 15.37288950  3737
KUIPER-00269            
1 68587U 26072Q   26124.45784977  .00036596  00000+0  96765-3 0  9991
2 68587  51.8759  28.3427 0004417 189.8308 170.2593 15.38051172  4655
KUIPER-00272            
1 68588U 26072R   26124.50002315 -.02150306  00000+0 -12031+0 0  9997
2 68588  51.8881  28.9055 0004738 223.7968 316.4060 15.16907303  4184
KUIPER-00285            
1 68589U 26072S   26124.46359870  .00027831  00000+0  74320-3 0  9999
2 68589  51.8753  28.3798 0006234 209.6175 150.4460 15.37877504  4651
KUIPER-00286            
1 68590U 26072T   26124.45617432  .00025693  00000+0  68096-3 0  9998
2 68590  51.8767  28.3317 0004410 198.2145 161.8684 15.38162486  4650
KUIPER-00289            
1 68591U 26072U   26124.03432520  .00024024  00000+0  67048-3 0  9999
2 68591  51.8675  30.7297 0010695 226.3875 133.6225 15.36556206  4583
KUIPER-00290            
1 68592U 26072V   26124.42406243  .00023765  00000+0  66580-3 0  9997
2 68592  51.8658  28.8377 0010833 223.3405 136.6730 15.36441317  4649
KUIPER-00293            
1 68593U 26072W   26124.43378039  .00018639  00000+0  53960-3 0  9992
2 68593  51.8657  28.9004 0011043 227.5105 132.4948 15.35573025  4640
KUIPER-00294            
1 68594U 26072X   26124.02945926  .00019473  00000+0  54541-3 0  9996
2 68594  51.8694  30.7043 0009723 221.9882 138.0360 15.36589642  4584
KUIPER-00296            
1 68595U 26072Y   26124.15183704  .00025746  00000+0  70556-3 0  9993
2 68595  51.8720  30.0314 0007985 217.1159 142.9276 15.37106136  4608
KUIPER-00297            
1 68596U 26072Z   26124.03271528  .00040158  00000+0  11137-2 0  9996
2 68596  51.8658  30.7121 0008991 205.0917 154.9633 15.36500686  4582
KUIPER-00300            
1 68597U 26072AA  26124.14795804  .00030331  00000+0  82191-3 0  9998
2 68597  51.8693  30.0008 0007891 216.9596 143.0847 15.37367068  4606
KUIPER-00301            
1 68598U 26072AB  26124.15425370  .00026416  00000+0  72483-3 0  9990
2 68598  51.8676  30.0370 0008569 220.3949 139.6402 15.37048878  4607
KUIPER-00304            
1 68599U 26072AC  26124.15607985  .00024810  00000+0  68511-3 0  9998
2 68599  51.8682  30.0505 0009142 218.5144 141.5191 15.36881963  4605
KUIPER-00317            
1 68600U 26072AD  26124.15113493  .00029487  00000+0  80591-3 0  9994
2 68600  51.8708  30.0245 0008849 213.3553 146.6877 15.37108356  4604
KUIPER-00320            
1 68601U 26072AE  26124.03684825  .00025016  00000+0  70817-3 0  9998
2 68601  51.8613  30.7337 0010833 223.0334 136.9805 15.36085829  4588
KUIPER-00299            
1 68864U 26095A   26124.50002315  .00003290  00000+0  10236-3 0  9993
2 68864  51.8709  93.6795 0009338 139.6349   2.2313 15.36267670  1725
KUIPER-00353            
1 68865U 26095B   26124.50002315  .00003687  00000+0  10596-3 0  9993
2 68865  51.8830  93.5679 0001220  85.1411 104.4960 15.38430944  1639
KUIPER-00357            
1 68866U 26095C   26124.50002315  .00004428  00000+0  12723-3 0  9992
2 68866  51.8813  93.5990 0003744 110.3579  67.5964 15.37922999  1948
KUIPER-00364            
1 68867U 26095D   26124.50002315  .00004109  00000+0  11962-3 0  9993
2 68867  51.8794  93.6126 0003920 118.8382  54.1493 15.37710291  1309
KUIPER-00375            
1 68868U 26095E   26124.50002315  .00003516  00000+0  10189-3 0  9995
2 68868  51.8820  93.5798 0001595  95.5598  91.4202 15.38315432  2199
KUIPER-00433            
1 68869U 26095F   26124.50002315  .00003145  00000+0  97573-4 0  9997
2 68869  51.8733  93.6659 0007790 133.0205  15.3872 15.36518481  1303
KUIPER-00437            
1 68870U 26095G   26124.50002315  .00002354  00000+0  74974-4 0  9990
2 68870  51.8778  93.6536 0007556 131.2574  22.2652 15.36868758  1439
KUIPER-00448            
1 68871U 26095H   26124.50002315  .00004034  00000+0  11745-3 0  9994
2 68871  51.8820  93.6027 0003723 114.1227  61.3930 15.37760930  1730
KUIPER-00459            
1 68872U 26095J   26124.50002315  .00001866  00000+0  63370-4 0  9997
2 68872  51.8696  93.6955 0011144 140.3085 353.6279 15.35967442  1672
KUIPER-00468            
1 68873U 26095K   26124.50002315  .00004409  00000+0  12833-3 0  9991
2 68873  51.8810  93.6187 0005059 121.1568  47.6485 15.37528892  1302
KUIPER-00476            
1 68874U 26095L   26124.50002315  .00001687  00000+0  57858-4 0  9994
2 68874  51.8722  93.6827 0009653 135.5248   4.6688 15.36235482  2199
KUIPER-00478            
1 68875U 26095M   26124.50002315  .00001621  00000+0  55507-4 0  9992
2 68875  51.8758  93.6699 0008435 137.3085   8.6942 15.36544370  1300
KUIPER-00480            
1 68876U 26095N   26124.50002315  .00002190  00000+0  70253-4 0  9990
2 68876  51.8756  93.6476 0006785 126.3553  30.8167 15.36981635  2234
KUIPER-00482            
1 68877U 26095P   26124.50002315  .00003726  00000+0  10800-3 0  9998
2 68877  51.8827  93.5852 0002713 104.9258  77.7640 15.38129541  1734
KUIPER-00483            
1 68878U 26095Q   26124.50002315  .00002222  00000+0  73677-4 0  9991
2 68878  51.8711  93.7042 0010863 144.5060 345.1573 15.35814611  1302
KUIPER-00488            
1 68879U 26095R   26124.50002315  .00002056  00000+0  69187-4 0  9998
2 68879  51.8657  93.7058 0011130 147.0031 341.4631 15.35733453  2223
KUIPER-00489            
1 68880U 26095S   26124.50002315  .00001660  00000+0  57164-4 0  9992
2 68880  51.8736  93.6827 0009970 139.9469   0.1369 15.36215081  2219
KUIPER-00499            
1 68881U 26095T   26124.50002315 -.00012718  00000+0 -34557-3 0  9991
2 68881  51.8682  93.6936 0010203 143.7984 350.9893 15.36064108  1306
KUIPER-00500            
1 68882U 26095U   26124.50002315  .00001910  00000+0  62163-4 0  9997
2 68882  51.8796  93.6355 0005856 128.3339  33.2343 15.37226844  2220
KUIPER-00502            
1 68883U 26095V   26124.50002315  .00001294  00000+0  45489-4 0  9995
2 68883  51.8785  93.6321 0006189 125.1793  38.4347 15.37265012  1726
KUIPER-00503            
1 68884U 26095W   26124.50002315  .00015563  00000+0  43885-3 0  9997
2 68884  51.8746  93.6661 0008278 134.6465  13.5203 15.36562283  1581
KUIPER-00504            
1 68885U 26095X   26124.50002315 -.01050619  00000+0 -36287-1 0  9998
2 68885  51.8707  93.7511 0012408 151.4687 321.7959 15.32032590  1386
KUIPER-00505            
1 68886U 26095Y   26124.50002315  .00004337  00000+0  12601-3 0  9998
2 68886  51.8802  93.6155 0004534 114.1823  56.7767 15.37625346  1783
KUIPER-00507            
1 68887U 26095Z   26124.50002315  .00003397  00000+0  98069-4 0  9997
2 68887  51.8827  93.5633 0000956  65.0384 128.7888 15.38548543  1307
KUIPER-00511            
1 68888U 26095AA  26124.50002315  .00002105  00000+0  67987-4 0  9999
2 68888  51.8766  93.6501 0007137 127.6616  27.8350 15.36956500  1303
KUIPER-00512            
1 68889U 26095AB  26124.50002315  .00004401  00000+0  12864-3 0  9994
2 68889  51.8777  93.6286 0005529 123.6016  42.2680 15.37401027  2093
KUIPER-00519            
1 68890U 26095AC  26124.50002315  .00004004  00000+0  11494-3 0  9993
2 68890  51.8823  93.5826 0002289  88.7966  95.9827 15.38224115  1731
KUIPER-00521            
1 68891U 26095AD  26124.50002315  .00003562  00000+0  10240-3 0  9990
2 68891  51.8828  93.5654 0001666  65.6102 126.2490 15.38526792  2089
KUIPER-00524            
1 68892U 26095AE  26124.50002315  .00003345  00000+0  98387-4 0  9999
2 68892  51.8808  93.5964 0002733 109.9494  70.0748 15.38014793  2067
