ORBCOMM FM06            
1 25118U 97084G   26212.39660443  .00000944  00000+0  29282-3 0  9995
2 25118  45.0121 199.8695 0001927 282.8002 230.6114 14.47657046500792
ORBCOMM FM04            
1 25159U 98007C   26213.12409226  .00000572  00000+0  24087-3 0  9993
2 25159 107.9627 261.9108 0042088 248.2196 111.4463 14.35807540483043
ORBCOMM FM19            
1 25415U 98046C   26212.56325752  .00000964  00000+0  35131-3 0  9996
2 25415  44.9947  32.6121 0004006 166.1262 237.3181 14.39571616463174
ORBCOMM FM20            
1 25416U 98046D   26212.82051339  .00000704  00000+0  27671-3 0  9995
2 25416  44.9946  39.8069 0001151 151.8213 208.2697 14.38123647463219
ORBCOMM FM27            
1 25481U 98053G   26213.16955304  .00000873  00000+0  32474-3 0  9992
2 25481  45.0047 121.6884 0001217   4.3448 355.7411 14.39214762456714
ORBCOMM FM32            
1 25982U 99065C   26213.33568031  .00000551  00000+0  23070-3 0  9993
2 25982  45.0167 319.5259 0006830 268.3573  91.6493 14.37190198393589
ORBCOMM FM109           
1 40086U 14040A   26213.09397639  .00000184  00000+0  75162-4 0  9994
2 40086  47.0018 239.1663 0000606  26.0947 333.9969 14.58882843640902
ORBCOMM FM110           
1 41182U 15081D   26213.16664665  .00000583  00000+0  15935-3 0  9996
2 41182  47.0012 148.7559 0003742 286.8041  73.2434 14.58942010564198
ORBCOMM FM118           
1 41183U 15081E   26213.20125795  .00000527  00000+0  14757-3 0  9997
2 41183  47.0032 148.9360 0003480 253.5061 106.5443 14.58924847564306
ORBCOMM FM112           
1 41184U 15081F   26212.99941152  .00000523  00000+0  14662-3 0  9997
2 41184  46.9993  58.3317 0002698  50.7607 309.3518 14.58960523565498
ORBCOMM FM113           
1 41185U 15081G   26213.25163303  .00000375  00000+0  11538-3 0  9996
2 41185  47.0010  57.5399 0001201  44.2018 315.8963 14.58898519565519
ORBCOMM FM108           
1 41187U 15081J   26213.28175482  .00000612  00000+0  16540-3 0  9994
2 41187  47.0063 328.9818 0001541  38.0257 322.0737 14.58933803566665
ORBCOMM FM117           
1 41188U 15081K   26213.31612502  .00000587  00000+0  16030-3 0  9993
2 41188  47.0027 327.4426 0001966  49.8334 310.2724 14.58920389566718
ORBCOMM FM116           
1 41189U 15081L   26213.29615969  .00000469  00000+0  13522-3 0  9993
2 41189  47.0026  57.3255 0001801 272.3215  87.7464 14.58926689565520
