IRIDIUM 106             
1 41917U 17003A   26083.95464895  .00000248  00000+0  81581-4 0  9992
2 41917  86.3951 123.7822 0002438 103.5056 256.6412 14.34220942481132
IRIDIUM 103             
1 41918U 17003B   26083.94196932  .00000024  00000+0  16438-5 0  9998
2 41918  86.3951 123.6875 0001969  91.9837 268.1584 14.34217927481154
IRIDIUM 109             
1 41919U 17003C   26083.94831229  .00000008  00000+0 -41711-5 0  9999
2 41919  86.3952 123.7430 0002199  94.3227 265.8220 14.34217882481128
IRIDIUM 102             
1 41920U 17003D   26083.91659744 -.00000116  00000+0 -48429-4 0  9991
2 41920  86.3951 123.6813 0002209  93.8431 266.3018 14.34216156481209
IRIDIUM 105             
1 41921U 17003E   26083.95019604  .00000151  00000+0  46637-4 0  9997
2 41921  86.3910  92.1035 0002215  90.3497 269.7952 14.34399395483069
IRIDIUM 104             
1 41922U 17003F   26083.85951469  .00000054  00000+0  12321-4 0  9996
2 41922  86.3949 123.7467 0002071  86.7729 273.3704 14.34218387481187
IRIDIUM 114             
1 41923U 17003G   26083.86585860  .00000025  00000+0  19756-5 0  9994
2 41923  86.3951 123.7277 0002023  91.8237 268.3190 14.34217837481168
IRIDIUM 108             
1 41924U 17003H   26083.96392046 -.00000095  00000+0 -40883-4 0  9991
2 41924  86.3906  91.9880 0002305  89.7665 270.3795 14.34216095483036
IRIDIUM 112             
1 41925U 17003J   26083.85317380  .00000073  00000+0  19146-4 0  9990
2 41925  86.3948 123.5790 0002234  90.7361 269.4091 14.34218128481182
IRIDIUM 111             
1 41926U 17003K   26083.56141433  .00000030  00000+0  35421-5 0  9991
2 41926  86.3949 123.7696 0002169  95.1358 265.0085 14.34217964481129
IRIDIUM 113             
1 42803U 17039A   26083.75070675  .00000326  00000+0  10948-3 0  9998
2 42803  86.4032 357.4649 0002056  77.8089 282.3337 14.34219443459081
IRIDIUM 123             
1 42804U 17039B   26083.93170043  .00000050  00000+0  10692-4 0  9990
2 42804  86.4000  28.8350 0002014  89.0400 271.1027 14.34217931457878
IRIDIUM 120             
1 42805U 17039C   26083.46526787  .00000076  00000+0  20143-4 0  9999
2 42805  86.4022 357.3777 0002282  87.6900 272.4557 14.34218313459039
IRIDIUM 115             
1 42806U 17039D   26083.74294674  .00000406  00000+0  11463-3 0  9999
2 42806  86.4557 357.3789 0002046  95.3484 264.7951 14.43280877462082
IRIDIUM 118             
1 42807U 17039E   26083.89364447  .00000045  00000+0  90566-5 0  9994
2 42807  86.3997  28.8493 0002167  83.8817 276.2626 14.34218114457860
IRIDIUM 117             
1 42808U 17039F   26083.91267136  .00000040  00000+0  72095-5 0  9997
2 42808  86.4001  28.7999 0002012  88.7409 271.4017 14.34218140457891
IRIDIUM 126             
1 42809U 17039G   26083.86827359  .00000129  00000+0  39137-4 0  9998
2 42809  86.4002  28.8682 0002005  84.0277 276.1147 14.34218367457861
IRIDIUM 124             
1 42810U 17039H   26083.95435616  .00000360  00000+0  10100-3 0  9996
2 42810  86.4509 325.5997 0002109  87.5440 272.6003 14.43285734462967
IRIDIUM 128             
1 42811U 17039J   26083.64970721  .00000096  00000+0  27284-4 0  9992
2 42811  86.3936  60.4830 0002293  92.9490 267.1968 14.34218137457866
IRIDIUM 121             
1 42812U 17039K   26083.88729865  .00000265  00000+0  87721-4 0  9990
2 42812  86.4002  28.8874 0002289  85.4894 274.6563 14.34220260457749
IRIDIUM 133             
1 42955U 17061A   26083.89072522  .00000087  00000+0  24101-4 0  9990
2 42955  86.3937  60.4979 0002172  89.5250 270.6194 14.34218171442695
IRIDIUM 100             
1 42956U 17061B   26083.95415079  .00000216  00000+0  70152-4 0  9997
2 42956  86.3936  60.3919 0002208  89.5604 270.5844 14.34218556442701
IRIDIUM 122             
1 42957U 17061C   26083.92243830 -.00000057  00000+0 -27415-4 0  9998
2 42957  86.3933  60.4054 0002018  88.5350 271.6077 14.34217331442706
IRIDIUM 129             
1 42958U 17061D   26083.87803904  .00000210  00000+0  67928-4 0  9999
2 42958  86.3936  60.4899 0002203  79.3057 280.8387 14.34218247442719
IRIDIUM 119             
1 42959U 17061E   26083.91609447  .00000160  00000+0  50136-4 0  9998
2 42959  86.3936  60.4694 0002105  85.3454 274.7982 14.34217791442730
IRIDIUM 107             
1 42960U 17061F   26083.93512358  .00000047  00000+0  96134-5 0  9999
2 42960  86.3935  60.4820 0002012  94.1174 266.0252 14.34217766442743
IRIDIUM 132             
1 42961U 17061G   26083.94146607  .00000113  00000+0  33119-4 0  9998
2 42961  86.3934  60.4595 0002147  90.6024 269.5418 14.34218166442743
IRIDIUM 136             
1 42962U 17061H   26083.90341035  .00000256  00000+0  84199-4 0  9999
2 42962  86.3939  60.4819 0002082  87.4774 272.6660 14.34219039442757
IRIDIUM 139             
1 42963U 17061J   26083.97952149  .00000068  00000+0  17077-4 0  9993
2 42963  86.3938  60.5104 0002212  90.3892 269.7558 14.34218035442774
IRIDIUM 125             
1 42964U 17061K   26083.89706607  .00000143  00000+0  43828-4 0  9998
2 42964  86.3941  60.6048 0001623  86.8741 273.2641 14.34218553442773
IRIDIUM 135             
1 43070U 17083A   26083.73165755  .00000197  00000+0  63213-4 0  9996
2 43070  86.4025 357.3151 0002198  85.9987 274.1460 14.34216905432044
IRIDIUM 138             
1 43071U 17083B   26083.19887792  .00000104  00000+0  30194-4 0  9999
2 43071  86.4042 357.2202 0001904  75.4014 284.7393 14.34218422431956
IRIDIUM 116             
1 43072U 17083C   26083.72530800  .00000301  00000+0  10024-3 0  9992
2 43072  86.4025 357.3048 0002356  90.5877 269.5589 14.34221306432060
IRIDIUM 130             
1 43073U 17083D   26083.69360172  .00000599  00000+0  20683-3 0  9993
2 43073  86.4033 357.5849 0002136  91.9215 268.2226 14.34217641432003
IRIDIUM 151             
1 43074U 17083E   26083.73800019  .00000282  00000+0  93655-4 0  9997
2 43074  86.4029 357.3553 0002257  85.7570 274.3883 14.34217284432031
IRIDIUM 134             
1 43075U 17083F   26083.98536085  .00000205  00000+0  66151-4 0  9990
2 43075  86.4031 357.2591 0002144  88.0580 272.0861 14.34215258432038
IRIDIUM 137             
1 43076U 17083G   26083.50966343  .00000273  00000+0  90404-4 0  9996
2 43076  86.4030 357.5487 0002575  87.1613 272.9877 14.34216076432035
IRIDIUM 141             
1 43077U 17083H   26083.99169840  .00000228  00000+0  74277-4 0  9997
2 43077  86.4025 357.1828 0002095  83.1242 277.0192 14.34220326432103
IRIDIUM 153             
1 43078U 17083J   26083.94388170  .00000193  00000+0  61968-4 0  9996
2 43078  86.3986 325.7121 0001902  82.7021 277.4391 14.34217013433208
IRIDIUM 131             
1 43079U 17083K   26083.14179495  .00000132  00000+0  40061-4 0  9991
2 43079  86.4032 357.7178 0002198  82.0058 278.1387 14.34218732431918
IRIDIUM 144             
1 43249U 18030A   26083.60137913  .00000236  00000+0  77097-4 0  9997
2 43249  86.3983 325.7864 0002195  89.4286 270.7161 14.34220013418018
IRIDIUM 149             
1 43250U 18030B   26083.95657015  .00000250  00000+0  82052-4 0  9990
2 43250  86.3983 325.6060 0002103  84.4214 275.7221 14.34218566418081
IRIDIUM 157             
1 43251U 18030C   26083.20814091  .00000221  00000+0  71896-4 0  9990
2 43251  86.3985 325.9701 0002145  86.1223 274.0218 14.34217411417955
IRIDIUM 140             
1 43252U 18030D   26083.78531736  .00000104  00000+0  30015-4 0  9994
2 43252  86.3986 325.7418 0002082  87.9718 272.1717 14.34216896418093
IRIDIUM 145             
1 43253U 18030E   26083.91216886  .00000283  00000+0  93835-4 0  9993
2 43253  86.3987 325.6611 0002321  93.9558 266.1903 14.34217949418049
IRIDIUM 146             
1 43254U 18030F   26083.96290926  .00000023  00000+0  11848-5 0  9993
2 43254  86.3984 325.6524 0002235  89.0810 271.0642 14.34217946418065
IRIDIUM 148             
1 43255U 18030G   26083.93119695  .00000114  00000+0  33765-4 0  9996
2 43255  86.3987 325.7074 0002213  86.1936 273.9513 14.34217390418097
IRIDIUM 142             
1 43256U 18030H   26083.62040988  .00000146  00000+0  45152-4 0  9999
2 43256  86.3982 325.7295 0002296  93.0595 267.0863 14.34218245418011
IRIDIUM 150             
1 43257U 18030J   26083.58869591  .00000320  00000+0  10707-3 0  9995
2 43257  86.3987 325.8561 0002131  87.7224 272.4216 14.34216740418033
IRIDIUM 143             
1 43258U 18030K   26083.63943674  .00000053  00000+0  11949-4 0  9990
2 43258  86.3994 325.9243 0002200  90.3652 269.7796 14.34217644417970
IRIDIUM 161             
1 43478U 18047C   26083.86270652  .00000319  00000+0  88957-4 0  9994
2 43478  86.4471 123.7411 0002324  85.0395 275.1071 14.43283472412972
IRIDIUM 152             
1 43479U 18047D   26083.54238581  .00000070  00000+0  17914-4 0  9994
2 43479  86.3945 123.7354 0002207  91.4663 268.6786 14.34218370410358
IRIDIUM 147             
1 43480U 18047E   26083.82780369  .00000006  00000+0 -48067-5 0  9997
2 43480  86.3948 123.6194 0002283  96.0344 264.1112 14.34217662410396
IRIDIUM 110             
1 43481U 18047F   26083.83414413  .00000018  00000+0 -51456-6 0  9993
2 43481  86.3949 123.7067 0002184  83.6676 276.4768 14.34218301410381
IRIDIUM 162             
1 43482U 18047G   26083.85639384  .00000320  00000+0  89062-4 0  9999
2 43482  86.4471 123.6358 0002168  96.0249 264.1199 14.43284603412967
IRIDIUM 160             
1 43569U 18061A   26083.98928681  .00000009  00000+0 -39367-5 0  9995
2 43569  86.3908  92.0115 0002161  87.9107 272.2336 14.34217599401301
IRIDIUM 166             
1 43570U 18061B   26083.94488870  .00000031  00000+0  41131-5 0  9990
2 43570  86.3906  91.9816 0002345  93.2538 266.8926 14.34217926401329
IRIDIUM 158             
1 43571U 18061C   26083.98294440  .00000014  00000+0 -21875-5 0  9998
2 43571  86.3906  91.9757 0001975  91.5562 268.5860 14.34217684401293
IRIDIUM 165             
1 43572U 18061D   26083.93854690  .00000052  00000+0  11585-4 0  9990
2 43572  86.3908  92.0390 0002357  93.4609 266.6857 14.34217933401314
IRIDIUM 155             
1 43573U 18061E   26083.76095377  .00000028  00000+0  29468-5 0  9994
2 43573  86.3904  91.9864 0002143  94.3240 265.8201 14.34217746401258
IRIDIUM 154             
1 43574U 18061F   26083.95123210  .00000069  00000+0  17626-4 0  9991
2 43574  86.3907  92.0362 0002386  93.4124 266.7345 14.34218137401330
IRIDIUM 163             
1 43575U 18061G   26083.37405438 -.00000047  00000+0 -23826-4 0  9990
2 43575  86.3905  92.1959 0002028  90.4904 269.6525 14.34217295401222
IRIDIUM 156             
1 43576U 18061H   26083.97660214  .00000090  00000+0  24936-4 0  9991
2 43576  86.3905  91.9508 0002186  95.5014 264.6431 14.34218203401303
IRIDIUM 164             
1 43577U 18061J   26083.74826862  .00000046  00000+0  94249-5 0  9996
2 43577  86.3907  92.0855 0002438  90.8108 269.3367 14.34217638401317
IRIDIUM 159             
1 43578U 18061K   26083.99562989 -.00000001  00000+0 -74721-5 0  9997
2 43578  86.3903  91.9203 0002153  87.1356 273.0086 14.34217488401310
IRIDIUM 180             
1 43922U 19002A   26083.57651365  .00000132  00000+0  40053-4 0  9990
2 43922  86.4001  28.9445 0002189  83.1994 276.9451 14.34218954376862
IRIDIUM 176             
1 43923U 19002B   26083.87902582  .00001054  00000+0  16325-3 0  9992
2 43923  86.6121  28.7731 0002544  87.7561 272.3947 14.72256676386843
IRIDIUM 168             
1 43924U 19002C   26083.91901581  .00000215  00000+0  69884-4 0  9993
2 43924  86.4007  28.8763 0002168  85.5235 274.6209 14.34217119376894
IRIDIUM 173             
1 43925U 19002D   26083.34818053  .00000199  00000+0  63843-4 0  9992
2 43925  86.3997  29.0069 0002028  85.6358 274.5069 14.34218457376794
IRIDIUM 169             
1 43926U 19002E   26083.39419894  .00000314  00000+0  96064-4 0  9998
2 43926  86.4192  60.6321 0001660 103.6229 256.5154 14.38611417378035
IRIDIUM 172             
1 43927U 19002F   26083.89998690  .00000107  00000+0  31198-4 0  9997
2 43927  86.4001  28.7842 0002247  81.4903 278.6548 14.34218267376887
IRIDIUM 175             
1 43928U 19002G   26079.13639215  .00000403  00000+0  94158-4 0  9999
2 43928  86.3620 327.7639 0003554 109.6658 250.4932 14.52281057386133
IRIDIUM 171             
1 43929U 19002H   26083.60188163  .00000241  00000+0  79059-4 0  9991
2 43929  86.4008  29.2056 0002236  89.9958 270.1494 14.34220248376834
IRIDIUM 170             
1 43930U 19002J   26083.34146347  .00001024  00000+0  15844-3 0  9993
2 43930  86.6120  29.0007 0002603  84.8035 275.3479 14.72265591386771
IRIDIUM 167             
1 43931U 19002K   26083.87461673  .00000067  00000+0  16944-4 0  9993
2 43931  86.4003  28.8166 0002162  95.1235 265.0208 14.34218304376874
IRIDIUM 181             
1 56726U 23068S   26083.94057252  .00000104  00000+0  24845-4 0  9999
2 56726  86.4443  92.0165 0002625  86.7494 273.4007 14.43310940150281
IRIDIUM 177             
1 56727U 23068T   26083.75296008  .00001356  00000+0  17493-3 0  9993
2 56727  86.2016   8.8770 0002052  80.7371 279.4082 14.80243378153873
IRIDIUM 174             
1 56728U 23068U   26083.87286025  .00001071  00000+0  16586-3 0  9991
2 56728  86.6129  28.9176 0002454  77.5839 282.5653 14.72258483153610
IRIDIUM 178             
1 56729U 23068V   26083.94487689  .00001370  00000+0  17696-3 0  9994
2 56729  86.6509  60.5550 0002875  91.6443 268.5108 14.80222743153906
IRIDIUM 179             
1 56730U 23068W   26083.93949675  .00000550  00000+0  68914-4 0  9992
2 56730  86.6733  69.2927 0002544  95.4163 264.7349 14.80239666153902
