IRIDIUM 106             
1 41917U 17003A   26087.16399996  .00000534  00000+0  18354-3 0  9993
2 41917  86.3943 122.4403 0002456 102.0647 258.0824 14.34217385481594
IRIDIUM 103             
1 41918U 17003B   26087.15132273  .00000141  00000+0  43409-4 0  9990
2 41918  86.3944 122.3458 0001944  93.7577 266.3841 14.34217716481616
IRIDIUM 109             
1 41919U 17003C   26087.15766567 -.00000071  00000+0 -32477-4 0  9997
2 41919  86.3949 122.4009 0002067  94.0490 266.0942 14.34216823481583
IRIDIUM 102             
1 41920U 17003D   26087.19571847  .00000271  00000+0  89833-4 0  9996
2 41920  86.3943 122.3105 0002327  93.5378 266.6084 14.34218162481674
IRIDIUM 105             
1 41921U 17003E   26087.08938490  .00000076  00000+0  20100-4 0  9991
2 41921  86.3908  90.7889 0002180  90.0020 270.1426 14.34398011483513
IRIDIUM 104             
1 41922U 17003F   26087.13863344  .00000149  00000+0  46198-4 0  9999
2 41922  86.3942 122.3759 0002022  87.0944 273.0483 14.34217455481656
IRIDIUM 114             
1 41923U 17003G   26087.14497955  .00000110  00000+0  32227-4 0  9998
2 41923  86.3945 122.3566 0002038  92.2909 267.8520 14.34217942481634
IRIDIUM 108             
1 41924U 17003H   26087.10350573  .00000015  00000+0 -16350-5 0  9994
2 41924  86.3906  90.6737 0002275  88.6139 271.5317 14.34216527483485
IRIDIUM 112             
1 41925U 17003J   26087.13229439  .00000010  00000+0 -35121-5 0  9996
2 41925  86.3946 122.2076 0002046  90.3189 269.8241 14.34217624481651
IRIDIUM 111             
1 41926U 17003K   26087.18937858 -.00000047  00000+0 -23881-4 0  9993
2 41926  86.3948 122.2523 0002072  94.7684 265.3749 14.34217009481648
IRIDIUM 113             
1 42803U 17039A   26087.16935686  .00000323  00000+0  10810-3 0  9994
2 42803  86.4030 356.0382 0001998  78.3773 281.7647 14.34221766459570
IRIDIUM 123             
1 42804U 17039B   26087.07128391  .00000230  00000+0  75015-4 0  9998
2 42804  86.4006  27.5238 0002086  89.1579 270.9855 14.34218539458324
IRIDIUM 120             
1 42805U 17039C   26087.16300026  .00000208  00000+0  67038-4 0  9997
2 42805  86.4019 355.8339 0002300  86.8350 273.3109 14.34218410459562
IRIDIUM 115             
1 42806U 17039D   26087.20948235  .00000343  00000+0  95997-4 0  9998
2 42806  86.4554 355.9322 0002208  94.2446 265.9008 14.43277633462589
IRIDIUM 118             
1 42807U 17039E   26087.10299700 -.00000028  00000+0 -17048-4 0  9997
2 42807  86.4006  27.5095 0001979  82.9668 277.1753 14.34217293458320
IRIDIUM 117             
1 42808U 17039F   26087.19179284  .00000328  00000+0  11008-3 0  9991
2 42808  86.4003  27.4302 0002084  88.5794 271.5640 14.34218674458369
IRIDIUM 126             
1 42809U 17039G   26087.07762654  .00000250  00000+0  82100-4 0  9994
2 42809  86.4006  27.5278 0002050  84.9349 275.2080 14.34218316458323
IRIDIUM 124             
1 42810U 17039H   26087.21288950  .00000366  00000+0  10265-3 0  9994
2 42810  86.4503 324.2378 0002115  87.8970 272.2473 14.43288252463436
IRIDIUM 128             
1 42811U 17039J   26087.20790206  .00000256  00000+0  84207-4 0  9992
2 42811  86.3942  58.9945 0002351  91.6778 268.4687 14.34218666458378
IRIDIUM 121             
1 42812U 17039K   26087.09664663  .00000285  00000+0  94598-4 0  9993
2 42812  86.4002  27.5469 0002305  85.0078 275.1381 14.34216329458201
IRIDIUM 133             
1 42955U 17061A   26087.16984631  .00000144  00000+0  44202-4 0  9995
2 42955  86.3945  59.1261 0002244  89.3283 270.8170 14.34218091443167
IRIDIUM 100             
1 42956U 17061B   26087.16350346  .00000284  00000+0  94316-4 0  9992
2 42956  86.3941  59.0491 0002214  89.0906 271.0544 14.34218195443167
IRIDIUM 122             
1 42957U 17061C   26087.20155939 -.00000016  00000+0 -12827-4 0  9991
2 42957  86.3941  59.0337 0001970  89.0017 271.1405 14.34217175443173
IRIDIUM 129             
1 42958U 17061D   26087.15716058  .00000021  00000+0  50298-6 0  9991
2 42958  86.3941  59.1184 0002059  78.3826 281.7600 14.34217318443187
IRIDIUM 119             
1 42959U 17061E   26087.19521624  .00000028  00000+0  30153-5 0  9993
2 42959  86.3943  59.0976 0002076  85.6337 274.5096 14.34217205443202
IRIDIUM 107             
1 42960U 17061F   26086.93516975  .00000006  00000+0 -50216-5 0  9998
2 42960  86.3941  59.2274 0001945  94.8680 265.2738 14.34217570443173
IRIDIUM 132             
1 42961U 17061G   26087.15081848 -.00000005  00000+0 -88852-5 0  9997
2 42961  86.3941  59.1172 0002089  90.1045 270.0391 14.34217432443204
IRIDIUM 136             
1 42962U 17061H   26086.97322550  .00000203  00000+0  65253-4 0  9992
2 42962  86.3942  59.1976 0002092  87.6502 272.4934 14.34218417443192
IRIDIUM 139             
1 42963U 17061J   26086.97956832  .00000215  00000+0  69612-4 0  9995
2 42963  86.3942  59.2555 0002237  89.9682 270.1770 14.34218201443208
IRIDIUM 125             
1 42964U 17061K   26087.17618726  .00000213  00000+0  69098-4 0  9992
2 42964  86.3944  59.2330 0001638  90.1412 269.9971 14.34218247443244
IRIDIUM 135             
1 43070U 17083A   26087.15031512  .00000237  00000+0  77411-4 0  9999
2 43070  86.4025 355.8881 0002202  85.8403 274.3045 14.34218427432531
IRIDIUM 138             
1 43071U 17083B   26087.17568528  .00000300  00000+0  10012-3 0  9998
2 43071  86.4038 355.5607 0001884  77.5637 282.5770 14.34218523432523
IRIDIUM 116             
1 43072U 17083C   26087.14396655  .00000238  00000+0  77886-4 0  9999
2 43072  86.4023 355.8777 0002381  89.5174 270.6294 14.34215089432557
IRIDIUM 130             
1 43073U 17083D   26087.11225908 -.00000039  00000+0 -21020-4 0  9999
2 43073  86.4032 356.1581 0002178  92.6535 267.4910 14.34217696432493
IRIDIUM 151             
1 43074U 17083E   26087.15665730  .00000162  00000+0  50778-4 0  9992
2 43074  86.4027 355.9284 0002220  85.4082 274.7367 14.34218307432521
IRIDIUM 134             
1 43075U 17083F   26087.19471468  .00000297  00000+0  98834-4 0  9994
2 43075  86.4028 355.9194 0002151  88.6986 271.4456 14.34217631432492
IRIDIUM 137             
1 43076U 17083G   26087.20740346  .00000304  00000+0  10157-3 0  9991
2 43076  86.4026 356.0051 0002666  84.9206 275.2294 14.34215743432562
IRIDIUM 141             
1 43077U 17083H   26087.13128356  .00000266  00000+0  88022-4 0  9999
2 43077  86.4026 355.8722 0002149  83.1530 276.9911 14.34213784432558
IRIDIUM 153             
1 43078U 17083J   26087.15323347  .00000223  00000+0  72713-4 0  9992
2 43078  86.3981 324.3709 0001857  84.3376 275.8032 14.34218374433665
IRIDIUM 131             
1 43079U 17083K   26087.18836971  .00000292  00000+0  97228-4 0  9992
2 43079  86.4029 356.0289 0002180  82.2308 277.9136 14.34218910432491
IRIDIUM 144             
1 43249U 18030A   26087.15957545  .00000240  00000+0  78513-4 0  9991
2 43249  86.3978 324.2994 0002219  88.9488 271.1962 14.34217235418527
IRIDIUM 149             
1 43250U 18030B   26087.16591791  .00000259  00000+0  85333-4 0  9999
2 43250  86.3977 324.2647 0002080  84.7696 275.3737 14.34220257418540
IRIDIUM 157             
1 43251U 18030C   26087.18494684  .00000148  00000+0  45864-4 0  9997
2 43251  86.3979 324.3080 0002124  86.4916 273.6522 14.34218075418524
IRIDIUM 140             
1 43252U 18030D   26087.20397483  .00000177  00000+0  55982-4 0  9994
2 43252  86.3981 324.3130 0002103  87.8826 272.2610 14.34218213418589
IRIDIUM 145             
1 43253U 18030E   26087.19129104 -.00000072  00000+0 -32786-4 0  9999
2 43253  86.3976 324.2904 0002285  93.5408 266.6050 14.34216722418514
IRIDIUM 146             
1 43254U 18030F   26087.17226265  .00000203  00000+0  65400-4 0  9997
2 43254  86.3980 324.3111 0002253  88.5629 271.5824 14.34217971418527
IRIDIUM 148             
1 43255U 18030G   26087.14054882  .00000142  00000+0  43606-4 0  9995
2 43255  86.3983 324.3663 0002186  86.2282 273.9164 14.34218109418558
IRIDIUM 142             
1 43256U 18030H   26087.17860581  .00000256  00000+0  84357-4 0  9994
2 43256  86.3978 324.2424 0002333  91.9991 268.1472 14.34218250418523
IRIDIUM 150             
1 43257U 18030J   26087.14689140  .00000173  00000+0  54796-4 0  9994
2 43257  86.3980 324.3692 0002110  88.1943 271.9495 14.34217817418540
IRIDIUM 143             
1 43258U 18030K   26087.19763326 -.00000022  00000+0 -14821-4 0  9999
2 43258  86.3986 324.4372 0002154  90.5631 269.5812 14.34216856418483
IRIDIUM 161             
1 43478U 18047C   26087.19057560  .00000344  00000+0  96220-4 0  9995
2 43478  86.4465 122.3495 0002228  84.5085 275.6370 14.43285811413455
IRIDIUM 152             
1 43479U 18047D   26087.17035114  .00000145  00000+0  44759-4 0  9994
2 43479  86.3939 122.2183 0002167  90.7558 269.3886 14.34217590410874
IRIDIUM 147             
1 43480U 18047E   26086.82785209 -.00000060  00000+0 -28314-4 0  9991
2 43480  86.3942 122.3650 0002246  94.4871 265.6581 14.34216701410826
IRIDIUM 110             
1 43481U 18047F   26087.18303474  .00000280  00000+0  92907-4 0  9993
2 43481  86.3943 122.3065 0002097  84.0746 276.0688 14.34217565410865
IRIDIUM 162             
1 43482U 18047G   26087.11493032  .00000307  00000+0  85401-4 0  9998
2 43482  86.4463 122.2731 0002193  96.2555 263.8895 14.43286645413438
IRIDIUM 160             
1 43569U 18061A   26087.05910175  .00000017  00000+0 -91653-6 0  9992
2 43569  86.3910  90.7264 0002142  87.2419 272.9022 14.34217543401748
IRIDIUM 166             
1 43570U 18061B   26087.08447308 -.00000085  00000+0 -37348-4 0  9995
2 43570  86.3908  90.6672 0002229  92.1795 267.9656 14.34216826401770
IRIDIUM 158             
1 43571U 18061C   26086.98299096  .00000009  00000+0 -39050-5 0  9991
2 43571  86.3908  90.7198 0002001  91.7772 268.3653 14.34217523401725
IRIDIUM 165             
1 43572U 18061D   26087.07812958  .00000045  00000+0  89115-5 0  9997
2 43572  86.3908  90.7246 0002374  92.8710 267.2758 14.34218004401760
IRIDIUM 155             
1 43573U 18061E   26087.10984292 -.00000011  00000+0 -11096-4 0  9990
2 43573  86.3904  90.5843 0002073  94.2628 265.8804 14.34217393401731
IRIDIUM 154             
1 43574U 18061F   26087.09081582 -.00000007  00000+0 -96682-5 0  9999
2 43574  86.3909  90.7220 0002301  92.6559 267.4901 14.34217500401788
IRIDIUM 163             
1 43575U 18061G   26087.07178642  .00000000  00000+0 -70664-5 0  9996
2 43575  86.3907  90.6478 0002050  90.4999 269.6432 14.34217284401755
IRIDIUM 156             
1 43576U 18061H   26086.97664848  .00000000  00000+0 -71823-5 0  9991
2 43576  86.3906  90.6948 0002090  95.7256 264.4178 14.34217601401736
IRIDIUM 164             
1 43577U 18061J   26087.23669507  .00000031  00000+0  38273-5 0  9994
2 43577  86.3906  90.6249 0002441  89.4636 270.6839 14.34217475401814
IRIDIUM 159             
1 43578U 18061K   26087.06544449  .00000022  00000+0  74338-6 0  9996
2 43578  86.3907  90.6352 0002133  86.7709 273.3731 14.34217623401759
IRIDIUM 180             
1 43922U 19002A   26087.06494191  .00000292  00000+0  97308-4 0  9992
2 43922  86.4006  27.4874 0002202  82.1944 277.9502 14.34217910377362
IRIDIUM 176             
1 43923U 19002B   26087.07352816  .00000537  00000+0  81212-4 0  9990
2 43923  86.6122  27.4386 0002593  87.2388 272.9126 14.72248411387318
IRIDIUM 168             
1 43924U 19002C   26086.91906241  .00000192  00000+0  61398-4 0  9990
2 43924  86.4007  27.6234 0002140  85.0884 275.0556 14.34218076377321
IRIDIUM 173             
1 43925U 19002D   26087.11568206  .00000242  00000+0  79296-4 0  9991
2 43925  86.4003  27.4333 0002080  85.9335 274.2099 14.34218286377336
IRIDIUM 169             
1 43926U 19002E   26087.15021582  .00000341  00000+0  10483-3 0  9999
2 43926  86.4198  59.0607 0001826 104.5656 255.5745 14.38607924378570
IRIDIUM 172             
1 43927U 19002F   26087.10933989  .00000133  00000+0  40312-4 0  9992
2 43927  86.4005  27.4437 0002205  81.1997 278.9448 14.34217975377340
IRIDIUM 175             
1 43928U 19002G   26087.17642618  .00000360  00000+0  10023-3 0  9993
2 43928  86.4533 324.4037 0004979 113.6623 246.5101 14.43580246387296
IRIDIUM 171             
1 43929U 19002H   26087.09031115  .00000325  00000+0  10916-3 0  9991
2 43929  86.4011  27.7490 0002295  88.8575 271.2884 14.34217888377338
IRIDIUM 170             
1 43930U 19002J   26086.87580868  .00000977  00000+0  15111-3 0  9997
2 43930  86.6127  27.5240 0002478  82.6615 277.4884 14.72246568387294
IRIDIUM 167             
1 43931U 19002K   26087.08396898  .00000278  00000+0  92284-4 0  9991
2 43931  86.4003  27.4760 0002273  94.5312 265.6143 14.34218772377336
IRIDIUM 181             
1 56726U 23068S   26087.06039550  .00000168  00000+0  43949-4 0  9993
2 56726  86.4442  90.7108 0002550  85.4447 274.7045 14.43308750150735
IRIDIUM 177             
1 56727U 23068T   26087.20069164  .00001415  00000+0  18283-3 0  9992
2 56727  86.2017   7.2419 0002158  85.0105 275.1362 14.80217616154384
IRIDIUM 174             
1 56728U 23068U   26087.06733476  .00000777  00000+0  11939-3 0  9992
2 56728  86.6132  27.5830 0002378  79.7871 280.3614 14.72254599154080
IRIDIUM 178             
1 56729U 23068V   26087.18976727  .00001394  00000+0  18007-3 0  9993
2 56729  86.6512  59.1980 0002838  90.0349 270.1198 14.80231761154389
IRIDIUM 179             
1 56730U 23068W   26087.04916524  .00001166  00000+0  15007-3 0  9993
2 56730  86.6731  68.0013 0002638  97.1720 262.9802 14.80221975154364
