QIANFAN-1               
1 60379U 24140A   26143.81761832  .00000087  00000+0  11584-3 0  9994
2 60379  88.9713 282.4590 0019587 106.6033 253.7271 13.51010341 89230
QIANFAN-2               
1 60380U 24140B   26143.84631749  .00000087  00000+0  11598-3 0  9997
2 60380  88.9699 282.2731 0014662  82.6227 277.6590 13.51005658 89297
QIANFAN-3               
1 60381U 24140C   26143.85455361  .00000087  00000+0  11522-3 0  9990
2 60381  88.9692 282.3927 0015939  93.3648 266.9327 13.51006622 89205
QIANFAN-4               
1 60382U 24140D   26143.82989069  .00000093  00000+0  12542-3 0  9995
2 60382  88.9717 282.3337 0014943  84.9046 275.3810 13.51009096 89323
QIANFAN-5               
1 60383U 24140E   26143.80519372  .00000082  00000+0  10824-3 0  9999
2 60383  88.9691 282.4227 0017262 103.2445 257.0633 13.51008256 89180
QIANFAN-6               
1 60384U 24140F   26143.82575994  .00000095  00000+0  12804-3 0  9998
2 60384  88.9718 282.2105 0015129  89.9623 270.3262 13.51008828 89385
QIANFAN-7               
1 60385U 24140G   26143.85104381  .00000377  00000+0  14651-3 0  9995
2 60385  88.9756 274.6346 0013726 218.8704 141.1504 14.27811388 93526
QIANFAN-8               
1 60386U 24140H   26143.83391654  .00000080  00000+0  10432-3 0  9999
2 60386  88.9719 282.4494 0018594  91.4662 268.8620 13.51005259 89230
QIANFAN-9               
1 60387U 24140J   26143.80934875  .00000084  00000+0  11123-3 0  9997
2 60387  88.9717 282.5241 0018291  91.3817 268.9430 13.51010669 89214
QIANFAN-10              
1 60388U 24140K   26143.81350525  .00000095  00000+0  12782-3 0  9997
2 60388  88.9729 281.8872 0016411  71.4751 288.8182 13.51011545 89341
QIANFAN-11              
1 60389U 24140L   26143.85035916  .00000089  00000+0  11839-3 0  9991
2 60389  88.9653 282.3490 0016323  91.2527 269.0494 13.51005952 89008
QIANFAN-12              
1 60390U 24140M   26143.87107243  .00000084  00000+0  11046-3 0  9993
2 60390  88.9696 282.4609 0015200  98.4178 261.8697 13.51008036 89139
QIANFAN-13              
1 60391U 24140N   26143.84222895  .00000082  00000+0  10815-3 0  9993
2 60391  88.9708 282.5836 0015021 100.8495 259.4347 13.51008091 89156
QIANFAN-14              
1 60392U 24140P   26143.86683226  .00000090  00000+0  12094-3 0  9995
2 60392  88.9687 282.4443 0018719 100.5085 259.8176 13.51009170 89169
QIANFAN-15              
1 60393U 24140Q   26143.87509448  .00000077  00000+0  10031-3 0  9994
2 60393  88.9711 282.4384 0014406  88.8604 271.4197 13.51010976 89154
QIANFAN-16              
1 60394U 24140R   26143.86289539  .00000093  00000+0  12550-3 0  9996
2 60394  88.9713 282.5645 0016662 104.0043 256.2962 13.51005737 89062
QIANFAN-17              
1 60395U 24140S   26143.85861259  .00000087  00000+0  11556-3 0  9999
2 60395  88.9724 282.6286 0017032  98.4553 261.8529 13.51006473 90028
QIANFAN-18              
1 60396U 24140T   26143.83804110  .00000084  00000+0  11120-3 0  9995
2 60396  88.9719 282.1531 0016202  83.3537 276.9457 13.51010822 89415
QIANFAN-19              
1 61552U 24185A   26143.80749334  .00000303  00000+0  15096-3 0  9992
2 61552  88.9850  59.3563 0008282 129.2993 230.8930 14.14456285 92573
QIANFAN-20              
1 61553U 24185B   26143.82759610  .00000277  00000+0  15203-3 0  9993
2 61553  88.9846  59.8393 0005329 164.8596 195.2748 14.09000978 92319
QIANFAN-21              
1 61554U 24185C   26143.79659610  .00000439  00000+0  18937-3 0  9996
2 61554  88.9767  57.9856 0009799 182.4428 177.6718 14.22825050 93010
QIANFAN-22              
1 61555U 24185D   26143.82659660  .00000181  00000+0  14542-3 0  9998
2 61555  88.9831  61.4748 0004814 203.7137 156.3813 13.86381552 91392
QIANFAN-23              
1 61556U 24185E   26143.83603492  .00000413  00000+0  20031-3 0  9990
2 61556  88.9842  59.0866 0008586 138.0980 222.0867 14.16480577 92690
QIANFAN-24              
1 61557U 24185F   26143.80278200  .00000466  00000+0  19652-3 0  9998
2 61557  88.9827  58.2321 0010955 120.4376 239.7900 14.24040829 93086
QIANFAN-25              
1 61558U 24185G   26143.84563264  .00000386  00000+0  22683-3 0  9999
2 61558  88.9833  59.8298 0010616 171.1070 189.0303 14.06054935 92280
QIANFAN-26              
1 61559U 24185H   26143.83781366  .00000204  00000+0  19099-3 0  9990
2 61559  88.9838  62.2413 0003580 230.5569 129.5281 13.77901814 90992
QIANFAN-27              
1 61560U 24185J   26143.82093294  .00000323  00000+0  12547-3 0  9990
2 61560  88.9836  57.9307 0009593 109.1969 251.0264 14.27515841 93284
QIANFAN-28              
1 61561U 24185K   26143.78593735  .00000513  00000+0  19955-3 0  9992
2 61561  88.9855  57.9456 0009368 106.9691 253.2531 14.28346808 93308
QIANFAN-29              
1 61562U 24185L   26143.85836728  .00000076  00000+0  98566-4 0  9993
2 61562  88.9811  64.5407 0008308 310.8620  49.1810 13.51069579 89682
QIANFAN-30              
1 61563U 24185M   26143.80798032  .00000141  00000+0  20304-3 0  9991
2 61563  88.9830  64.1333 0005727 299.7493  60.3088 13.50045099 89933
QIANFAN-31              
1 61564U 24185N   26143.85591206  .00000125  00000+0  15558-3 0  9998
2 61564  88.9815  63.6731 0004946 284.7740  75.2867 13.58031750 90168
QIANFAN-32              
1 61565U 24185P   26143.83532929  .00000089  00000+0  11987-3 0  9995
2 61565  88.9872  64.3139 0008740 329.0438  31.0197 13.50783776 89927
QIANFAN-33              
1 61566U 24185Q   26143.82409713  .00000304  00000+0  20945-3 0  9993
2 61566  88.9830  60.7236 0007290 161.5092 198.6351 13.96687849 91787
QIANFAN-34              
1 61567U 24185R   26143.83781093  .00000379  00000+0  23743-3 0  9990
2 61567  88.9807  60.0709 0005783 152.7422 207.4062 14.02450374 92074
QIANFAN-35              
1 61568U 24185S   26143.83312117  .00000533  00000+0  20814-3 0  9996
2 61568  88.9835  57.8404 0008634 104.3235 255.8919 14.28236464 93311
QIANFAN-36              
1 61569U 24185T   26143.83172426  .00000135  00000+0  17672-3 0  9990
2 61569  88.9807  64.1414 0004461 307.6613  52.4135 13.55630874 89885
QIANFAN-37              
1 62238U 24232B   26143.89505006  .00000081  00000+0  10685-3 0  9994
2 62238  89.0095  25.0215 0002141  60.5127 299.6238 13.51009981121064
QIANFAN-38              
1 62239U 24232C   26143.77165553  .00000091  00000+0  12251-3 0  9993
2 62239  89.0102  24.9607 0016567  86.1662 274.1383 13.51009386121105
QIANFAN-39              
1 62240U 24232D   26143.79233272  .00000293  00000+0  11799-3 0  9991
2 62240  89.0081  18.8428 0013753 269.0224  90.9393 14.25510987124470
QIANFAN-40              
1 62241U 24232E   26143.80457014  .00000094  00000+0  12595-3 0  9990
2 62241  89.0129  24.5873 0015550  92.9976 267.2955 13.51009199121472
QIANFAN-41              
1 62242U 24232F   26143.81280713  .00000088  00000+0  11680-3 0  9999
2 62242  89.0100  24.9052 0015980  82.5745 277.7222 13.51005367121130
QIANFAN-42              
1 62243U 24232G   26143.89352389  .00000278  00000+0  11359-3 0  9991
2 62243  89.0080  18.9025 0012648 276.5271  83.4482 14.24600918124450
QIANFAN-43              
1 62244U 24232H   26143.80868141  .00000103  00000+0  14086-3 0  9998
2 62244  89.0104  24.9780 0017501  87.2708 273.0446 13.51005270 89746
QIANFAN-44              
1 62245U 24232J   26143.79635375  .00000094  00000+0  12729-3 0  9999
2 62245  89.0103  24.7874 0015731  84.6376 275.6569 13.51007384121214
QIANFAN-45              
1 62246U 24232K   26143.83749970  .00000083  00000+0  10994-3 0  9992
2 62246  89.0106  24.9355 0016394  84.2349 276.0671 13.51004918121147
QIANFAN-46              
1 62247U 24232L   26143.78812010  .00000079  00000+0  10331-3 0  9993
2 62247  89.0102  25.0028 0016422  89.2368 271.0664 13.51005752121099
QIANFAN-47              
1 62248U 24232M   26143.79222162  .00000090  00000+0  12062-3 0  9994
2 62248  89.0098  24.9289 0016855  88.4937 271.8144 13.51009634121122
QIANFAN-48              
1 62249U 24232N   26143.90334105  .00000092  00000+0  12426-3 0  9995
2 62249  89.0102  24.9259 0019094  90.6713 269.6626 13.51008692121146
QIANFAN-49              
1 62250U 24232P   26143.81692854  .00000094  00000+0  12666-3 0  9993
2 62250  89.0101  24.9457 0016199  85.8586 274.4416 13.51007599 89727
QIANFAN-50              
1 62251U 24232Q   26143.84160042  .00000055  00000+0  66675-4 0  9993
2 62251  89.0106  24.9604 0017857  87.1305 273.1889 13.51004282 89752
QIANFAN-51              
1 62252U 24232R   26143.82513809  .00000075  00000+0  96965-4 0  9992
2 62252  89.0101  24.9459 0015321  90.2103 270.0804 13.51009421 89743
QIANFAN-52              
1 62253U 24232S   26143.77988377  .00000095  00000+0  12786-3 0  9993
2 62253  89.0096  24.8178 0017366  83.6618 276.6511 13.51006433 89828
QIANFAN-53              
1 62254U 24232T   26143.83337080  .00000085  00000+0  11331-3 0  9994
2 62254  89.0104  24.9291 0016238  84.4534 275.8469 13.51009248 89795
QIANFAN-54              
1 62255U 24232U   26143.80043572  .00000092  00000+0  12448-3 0  9990
2 62255  89.0095  24.5967 0003773 103.8026 256.3546 13.51007788121292
QIANFAN-55              
1 62785U 25016A   26143.82649389  .00000106  00000+0  14518-3 0  9995
2 62785  88.9732  86.4003 0015094 237.4637 122.5057 13.51012423 69075
QIANFAN-56              
1 62786U 25016B   26143.84298883  .00000099  00000+0  13491-3 0  9997
2 62786  88.9706  86.1916 0013706 239.9020 120.0773 13.51013828 69122
QIANFAN-57              
1 62787U 25016C   26143.87592473  .00000113  00000+0  15649-3 0  9997
2 62787  88.9737  86.3922 0003065  69.4885 290.6595 13.51012195 69096
QIANFAN-58              
1 62788U 25016D   26143.84717476  .00000096  00000+0  12935-3 0  9992
2 62788  88.9707  86.1772 0011736 230.4268 129.5847 13.51011656 69130
QIANFAN-59              
1 62789U 25016E   26143.87171278  .00000108  00000+0  14876-3 0  9990
2 62789  88.9730  86.2866 0012054 234.8989 125.1033 13.51005821 69130
QIANFAN-60              
1 62790U 25016F   26143.83056447  .00000111  00000+0  15402-3 0  9998
2 62790  88.9711  86.2315 0013648 231.3415 128.6515 13.51008211 69113
QIANFAN-61              
1 62791U 25016G   26143.86349565  .00000105  00000+0  14466-3 0  9990
2 62791  88.9778  86.5009 0012602 230.1268 129.8776 13.51011916 69132
QIANFAN-62              
1 62792U 25016H   26143.86772590  .00000112  00000+0  15431-3 0  9990
2 62792  88.9725  86.2816 0013972 231.0033 128.9874 13.51010505 69120
QIANFAN-63              
1 62793U 25016J   26143.81819524  .00000065  00000+0  82828-4 0  9997
2 62793  88.9732  86.2489 0013928 237.1242 122.8569 13.51005699 69150
QIANFAN-64              
1 62794U 25016K   26143.85939483  .00000100  00000+0  13625-3 0  9997
2 62794  88.9719  86.1972 0012002 228.4067 131.6057 13.51011597 69156
QIANFAN-65              
1 62795U 25016L   26143.85525128  .00000103  00000+0  14134-3 0  9994
2 62795  88.9715  86.2179 0011820 230.3702 129.6406 13.51008784 69135
QIANFAN-66              
1 62796U 25016M   26143.88408935  .00000096  00000+0  13067-3 0  9999
2 62796  88.9735  86.2169 0012989 225.6231 134.3857 13.51013214 69180
QIANFAN-67              
1 62797U 25016N   26143.81414366  .00000094  00000+0  12739-3 0  9991
2 62797  88.9725  86.2338 0012828 233.8371 126.1594 13.51013357 69147
QIANFAN-68              
1 62798U 25016P   26143.88015348  .00000102  00000+0  13908-3 0  9995
2 62798  88.9728  86.2780 0012938 231.1797 128.8200 13.51011933 69137
QIANFAN-69              
1 62799U 25016Q   26143.82233998  .00000110  00000+0  15198-3 0  9995
2 62799  88.9708  86.1187 0013666 233.2093 126.7804 13.51012267 69168
QIANFAN-70              
1 62800U 25016R   26143.83878454  .00000108  00000+0  14789-3 0  9993
2 62800  88.9728  86.2895 0013452 221.9490 138.0632 13.51013414 69124
QIANFAN-71              
1 62801U 25016S   26143.83470575  .00000115  00000+0  16024-3 0  9998
2 62801  88.9722  86.2596 0013518 237.2432 122.7417 13.51013342 69127
QIANFAN-72              
1 62802U 25016T   26143.85120817  .00000092  00000+0  12469-3 0  9995
2 62802  88.9712  86.2555 0016697 245.9611 113.9793 13.51011758 69115
QIANFAN-73              
1 63159U 25046A   26143.80423992  .00000078  00000+0  10205-3 0  9999
2 63159  88.9689 303.2224 0015398  22.9978 337.1859 13.51014316 69290
QIANFAN-74              
1 63160U 25046B   26143.86182257  .00000089  00000+0  11917-3 0  9996
2 63160  88.9689 303.1057 0001866 100.0803 260.0559 13.51003963 69360
QIANFAN-75              
1 63161U 25046C   26143.84938352  .00000037  00000+0  37820-4 0  9995
2 63161  88.9691 303.3432 0016552  25.4933 334.7031 13.51003713 69238
QIANFAN-76              
1 63162U 25046D   26143.84531154  .00000150  00000+0  21410-3 0  9998
2 63162  88.9691 303.3233 0014116  27.3225 332.8666 13.51007905 69248
QIANFAN-77              
1 63163U 25046E   26143.87396110  .00000083  00000+0  50730-4 0  9996
2 63163  88.9696 299.9908 0012703 297.7735  62.2154 13.96191689 71074
QIANFAN-78              
1 63164U 25046F   26143.81240159  .00000043  00000+0  47179-4 0  9991
2 63164  88.9690 303.1890 0015573  28.8273 331.3735 13.51007414 69317
QIANFAN-79              
1 63165U 25046G   26143.84125994  .00000083  00000+0  10967-3 0  9992
2 63165  88.9693 303.2997 0015299  27.2160 332.9790 13.51006979 69260
QIANFAN-80              
1 63166U 25046H   26143.85771279  .00000029  00000+0  26859-4 0  9995
2 63166  88.9690 303.0005 0014308  32.0161 328.1856 13.51005185 69427
QIANFAN-81              
1 63167U 25046J   26143.83726093 -.00000002  00000+0 -22078-4 0  9990
2 63167  88.9686 303.0706 0015188  20.8299 339.3468 13.51013411 69373
QIANFAN-82              
1 63168U 25046K   26143.86999471  .00000053  00000+0  63529-4 0  9996
2 63168  88.9690 303.1109 0013317  28.9229 331.2657 13.51007117 69367
QIANFAN-83              
1 63169U 25046L   26143.83579963  .00000086  00000+0  95478-4 0  9998
2 63169  88.9692 302.5716 0013828   5.0000 355.1293 13.62036100 69667
QIANFAN-84              
1 63170U 25046M   26143.82593384  .00000133  00000+0  18761-3 0  9994
2 63170  88.9691 303.2484 0016241  23.9026 336.2876 13.51030302 69288
QIANFAN-85              
1 63171U 25046N   26143.82069479  .00000054  00000+0  64713-4 0  9999
2 63171  88.9689 303.1193 0013790  27.5797 332.6083 13.51014667 69357
QIANFAN-86              
1 63172U 25046P   26143.82906044  .00000035  00000+0  35211-4 0  9998
2 63172  88.9691 302.9843 0011775  33.1308 327.0578 13.51012446 69431
QIANFAN-87              
1 63173U 25046Q   26143.87423734  .00000091  00000+0  12283-3 0  9999
2 63173  88.9689 303.0851 0012149  28.3270 331.8539 13.51013581 69374
QIANFAN-88              
1 63174U 25046R   26143.81653023  .00000049  00000+0  56862-4 0  9995
2 63174  88.9691 303.0498 0012879  35.6543 324.5466 13.51005636 69391
QIANFAN-89              
1 63175U 25046S   26143.85372740  .00000084  00000+0  11156-3 0  9999
2 63175  88.9690 303.2350 0017088  23.9208 336.2733 13.51012755 69291
QIANFAN-90              
1 63176U 25046T   26143.80827265  .00000118  00000+0  16408-3 0  9995
2 63176  88.9691 303.2123 0013984  24.3961 335.7849 13.51010358 69304
QIANFAN-91              
1 66033U 25233A   26143.76657412  .00000121  00000+0  16956-3 0  9990
2 66033  89.0019  45.6566 0002145  67.9394 292.1985 13.51005210 29880
QIANFAN-92              
1 66034U 25233B   26143.77483674  .00000117  00000+0  16251-3 0  9992
2 66034  89.0003  45.6315 0002264  73.5465 286.5935 13.51008280 29882
QIANFAN-93              
1 66035U 25233C   26143.78306113  .00000121  00000+0  16937-3 0  9992
2 66035  89.0030  45.6759 0002204  69.0117 291.1270 13.51007232 29883
QIANFAN-94              
1 66036U 25233D   26143.77069273  .00000118  00000+0  16363-3 0  9994
2 66036  89.0026  45.5813 0002119  73.4253 286.7130 13.51005750 29938
QIANFAN-95              
1 66037U 25233E   26143.77897602  .00000118  00000+0  16483-3 0  9993
2 66037  89.0024  45.1249 0002011  68.8280 291.3086 13.51006915 30180
QIANFAN-96              
1 66038U 25233F   26143.80363237  .00000121  00000+0  16897-3 0  9993
2 66038  89.0021  45.6663 0002101  66.8380 293.2992 13.51006073 29889
QIANFAN-97              
1 66039U 25233G   26143.78715749  .00000125  00000+0  17434-3 0  9992
2 66039  89.0025  45.6512 0002142  69.0834 291.0546 13.51006063 29892
QIANFAN-98              
1 66040U 25233H   26143.79536354  .00000114  00000+0  15856-3 0  9992
2 66040  89.0013  45.3840 0001877  83.8419 276.2946 13.51006240 30033
QIANFAN-99              
1 66041U 25233J   26143.79945875  .00000124  00000+0  17338-3 0  9993
2 66041  89.0026  45.6538 0001866  77.5599 282.5761 13.51005901 29892
QIANFAN-100             
1 66042U 25233K   26143.79127204  .00000128  00000+0  17985-3 0  9994
2 66042  89.0035  45.5789 0002170  69.1148 291.0235 13.51008866 29946
QIANFAN-101             
1 66043U 25233L   26143.74802713  .00000195  00000+0  74631-4 0  9991
2 66043  89.0020  43.3712 0013346 217.5722 142.4540 14.26792283 31146
QIANFAN-102             
1 66044U 25233M   26143.81182910  .00000113  00000+0  15625-3 0  9997
2 66044  89.0024  45.5628 0002069  73.1205 287.0173 13.51005889 29942
QIANFAN-103             
1 66045U 25233N   26143.74191016  .00000122  00000+0  17036-3 0  9995
2 66045  89.0026  45.6642 0002199  68.5413 291.5972 13.51006845 29888
QIANFAN-104             
1 66046U 25233P   26143.74602823  .00000122  00000+0  17074-3 0  9991
2 66046  89.0030  45.5650 0002143  75.6069 284.5320 13.51009003 29931
QIANFAN-105             
1 66047U 25233Q   26143.75424102  .00000132  00000+0  18582-3 0  9991
2 66047  89.0042  45.4040 0002038  70.2883 289.8488 13.51008535 30041
QIANFAN-106             
1 66048U 25233R   26143.82421176  .00000123  00000+0  17218-3 0  9993
2 66048  89.0013  45.6174 0001914  81.3078 278.8290 13.51006087 29891
QIANFAN-107             
1 66049U 25233S   26143.75833810  .00000129  00000+0  18048-3 0  9996
2 66049  89.0037  45.6543 0002247  68.2418 291.8973 13.51006390 29890
QIANFAN-108             
1 66050U 25233T   26143.76247973  .00000128  00000+0  17996-3 0  9998
2 66050  89.0020  45.6417 0001965  80.8574 279.2799 13.51006547 29893
QIANFAN-109             
1 68636U 26075A   26143.27161735  .00000039  00000+0  30592-4 0  9991
2 68636  88.9899 323.5820 0010785  73.9196 286.3152 13.69018712  6428
QIANFAN-110             
1 68637U 26075B   26143.30604439  .00000038  00000+0  30407-4 0  9993
2 68637  88.9902 323.5846 0010734  77.4949 282.7411 13.66775869  6429
QIANFAN-111             
1 68638U 26075C   26143.29760713  .00000042  00000+0  29489-4 0  9993
2 68638  88.9892 323.5651 0010854  84.8508 275.3896 13.75841539  6432
QIANFAN-112             
1 68639U 26075D   26143.24192935  .00000044  00000+0  33623-4 0  9991
2 68639  88.9877 323.5784 0010022  76.8085 283.4197 13.73198947  6420
QIANFAN-113             
1 68640U 26075E   26143.38996463  .00000044  00000+0  35790-4 0  9993
2 68640  88.9853 323.5735 0012212  73.1990 287.0511 13.70136015  6447
QIANFAN-114             
1 68641U 26075F   26143.31627542  .00000038  00000+0  30014-4 0  9993
2 68641  88.9871 323.5695 0009564  83.5872 276.6377 13.67225441  6434
QIANFAN-115             
1 68642U 26075G   26143.77675313 -.02028217  00000+0 -29358+1 0  9991
2 68642  88.9872 323.5278 0005374  72.8217 287.3527 13.59372397  6498
QIANFAN-116             
1 68643U 26075H   26143.78806374 -.02086904  00000+0 -26373+1 0  9997
2 68643  88.9859 323.5107 0013957  58.8740 301.3788 13.67882325  6500
QIANFAN-117             
1 68644U 26075J   26143.73464185 -.01902835  00000+0 -25182+1 0  9999
2 68644  88.9872 323.5211 0012753  85.7300 274.5317 13.65354078  6490
QIANFAN-118             
1 68645U 26075K   26143.02139464 -.01982586  00000+0 -27297+1 0  9991
2 68645  88.9869 323.6011 0004743  97.4517 262.7179 13.62406740  6391
QIANFAN-119             
1 68646U 26075L   26143.11296015 -.01995720  00000+0 -26007+1 0  9990
2 68646  88.9877 323.5784 0012323  76.5464 283.7068 13.65814588  6418
QIANFAN-120             
1 68647U 26075M   26143.10486630 -.01938029  00000+0 -24792+1 0  9992
2 68647  88.9873 323.5771 0013514  89.6016 270.6692 13.66831570  6411
QIANFAN-121             
1 68648U 26075N   26143.11221957 -.01913370  00000+0 -26159+1 0  9994
2 68648  88.9875 323.5778 0007823  81.8803 278.3242 13.63382618  6412
QIANFAN-122             
1 68649U 26075P   26143.09931721 -.01873898  00000+0 -24476+1 0  9999
2 68649  88.9872 323.5765 0012805  80.7923 279.4684 13.66095030  6417
QIANFAN-123             
1 68650U 26075Q   26143.11288185 -.02027782  00000+0 -24044+1 0  9998
2 68650  88.9864 323.5777 0009119  85.2280 274.9924 13.71681207  6389
QIANFAN-124             
1 68651U 26075R   26143.10857830 -.01944406  00000+0 -25482+1 0  9994
2 68651  88.9876 323.5776 0010729  78.0168 282.2194 13.65367854  6413
QIANFAN-125             
1 68652U 26075S   26143.24741768  .00000038  00000+0  29198-4 0  9995
2 68652  88.9876 323.5618 0009730  69.9688 290.2520 13.68426844  6437
QIANFAN-126             
1 68653U 26075T   26143.09584265 -.01909022  00000+0 -23585+1 0  9990
2 68653  88.9872 323.5571 0012123  94.4908 265.7639 13.69605549  6429
QIANFAN-127             
1 69073U 26104A   26143.70403402 -.01604997  00000+0 -83123+0 0  9997
2 69073  88.9865 344.4172 0007879 218.5478 141.5149 14.18748009  1617
QIANFAN-128             
1 69074U 26104B   26143.72380928 -.01688568  00000+0 -97251+0 0  9990
2 69074  88.9863 344.4199 0006682 152.4240 207.7301 14.13223396  1616
QIANFAN-129             
1 69075U 26104C   26143.83920118  .00000097  00000+0  34278-4 0  9991
2 69075  88.9869 344.3996 0003172 160.8310 199.3004 14.26564670  1634
QIANFAN-130             
1 69076U 26104D   26143.78770198 -.01702480  00000+0 -96215+0 0  9999
2 69076  88.9864 344.4108 0006143 167.5930 192.5410 14.14286163  1629
QIANFAN-131             
1 69077U 26104E   26143.84870449  .00000068  00000+0  24185-4 0  9999
2 69077  88.9868 344.4009 0002620 179.4706 180.6488 14.22029218  1632
QIANFAN-132             
1 69078U 26104F   26143.72240023 -.01666906  00000+0 -95999+0 0  9994
2 69078  88.9864 344.4196 0008086 188.9898 171.1145 14.13168330  1617
QIANFAN-133             
1 69079U 26104G   26143.78508907 -.01665308  00000+0 -91717+0 0  9998
2 69079  88.9863 344.4103 0007262 180.5588 179.5593 14.15589675  1625
QIANFAN-134             
1 69080U 26104H   26143.85479492  .00000111  00000+0  44503-4 0  9992
2 69080  88.9868 344.4019 0003604 155.2125 204.9240 14.20842544  1636
QIANFAN-135             
1 69081U 26104J   26143.85313124  .00000093  00000+0  35960-4 0  9998
2 69081  88.9869 344.4017 0003081 197.5410 162.5675 14.21138833  1632
QIANFAN-136             
1 69082U 26104K   26143.85173889  .00000091  00000+0  35245-4 0  9995
2 69082  88.9868 344.4014 0003468 186.6643 173.4502 14.21449650  1637
QIANFAN-137             
1 69083U 26104L   26143.84238765  .00000102  00000+0  36806-4 0  9997
2 69083  88.9868 344.4000 0003630 169.5152 190.6118 14.25595934  1634
QIANFAN-138             
1 69084U 26104M   26143.84792027  .00000070  00000+0  24967-4 0  9993
2 69084  88.9869 344.4009 0002756 181.9344 178.1837 14.22291068  1631
QIANFAN-139             
1 69085U 26104N   26143.84630584  .00000263  00000+0  11116-3 0  9998
2 69085  88.9869 344.4007 0002825 171.9760 188.1477 14.22599768  1637
QIANFAN-140             
1 69086U 26104P   26143.84481286  .00000262  00000+0  11011-3 0  9995
2 69086  88.9868 344.4003 0002921 177.9352 182.1852 14.22877387  1630
QIANFAN-141             
1 69087U 26104Q   26143.70184741 -.02071208  00000+0 -10405+1 0  9992
2 69087  88.9859 344.4165 0002453 148.8356 211.2980 14.20761230  1612
QIANFAN-142             
1 69088U 26104R   26143.77045959 -.02094717  00000+0 -10211+1 0  9992
2 69088  88.9931 344.3938 0005766 128.5594 231.6114 14.22404165  1629
QIANFAN-143             
1 69089U 26104S   26143.84065449  .00000093  00000+0  32973-4 0  9990
2 69089  88.9868 344.3997 0003697 167.4879 192.6406 14.25634393  1635
QIANFAN-144             
1 69090U 26104T   26143.69990218 -.02071353  00000+0 -10028+1 0  9990
2 69090  88.9863 344.4161 0005806 111.0425 249.1388 14.22716096  1615
