QIANFAN-1               
1 60379U 24140A   26232.84040236  .00000045  00000+0  51602-4 0  9994
2 60379  88.9690 273.2215 0016721 202.7796 157.2615 13.51024431101259
QIANFAN-2               
1 60380U 24140B   26232.86935744  .00000028  00000+0  25131-4 0  9994
2 60380  88.9677 273.0238 0013047 172.3950 187.7401 13.51033260101319
QIANFAN-3               
1 60381U 24140C   26232.87757044  .00000050  00000+0  58305-4 0  9995
2 60381  88.9669 273.1365 0013725 185.3675 174.7332 13.51021483101227
QIANFAN-4               
1 60382U 24140D   26232.85273501  .00000043  00000+0  47106-4 0  9994
2 60382  88.9694 273.1000 0013210 174.9726 185.1561 13.51023997101347
QIANFAN-5               
1 60383U 24140E   26232.82814081  .00000042  00000+0  46212-4 0  9992
2 60383  88.9669 273.1661 0014534 197.7873 162.2771 13.51029673101200
QIANFAN-6               
1 60384U 24140F   26232.92272296  .00000053  00000+0  62767-4 0  9995
2 60384  88.9696 272.9706 0013109 180.6874 179.4262 13.51023012101416
QIANFAN-7               
1 60385U 24140G   26232.92267204  .00000224  00000+0  84434-4 0  9994
2 60385  88.9730 264.1616 0012601 298.2701  61.7221 14.27885628106236
QIANFAN-8               
1 60386U 24140H   26232.85704372  .00000045  00000+0  50577-4 0  9991
2 60386  88.9697 273.2181 0016430 185.0290 175.0698 13.51019360101259
QIANFAN-9               
1 60387U 24140J   26232.90624704  .00000053  00000+0  64069-4 0  9998
2 60387  88.9695 273.2832 0016155 184.4830 175.6179 13.51020155101241
QIANFAN-10              
1 60388U 24140K   26232.83630892  .00000045  00000+0  50611-4 0  9995
2 60388  88.9706 272.6641 0015443 161.9224 198.2480 13.51020340101367
QIANFAN-11              
1 60389U 24140L   26232.87344278  .00000041  00000+0  44166-4 0  9994
2 60389  88.9631 273.0583 0014193 183.3146 176.7913 13.51020022101029
QIANFAN-12              
1 60390U 24140M   26232.89401284  .00000050  00000+0  58838-4 0  9990
2 60390  88.9674 273.2089 0012744 190.7266 169.3616 13.51022416101157
QIANFAN-13              
1 60391U 24140N   26232.93923005  .00000045  00000+0  51050-4 0  9999
2 60391  88.9934 273.3684 0012493 192.8146 167.2689 13.51022270101188
QIANFAN-14              
1 60392U 24140P   26232.88989574  .00000051  00000+0  59628-4 0  9993
2 60392  88.9665 273.1841 0016122 195.3254 164.7411 13.51025357101188
QIANFAN-15              
1 60393U 24140Q   26232.89816044  .00000055  00000+0  66369-4 0  9990
2 60393  88.9688 273.1996 0012465 179.0172 181.1006 13.51026028101177
QIANFAN-16              
1 60394U 24140R   26232.88572660  .00000041  00000+0  45475-4 0  9993
2 60394  88.9691 273.3280 0013925 198.3627 161.7023 13.51024228101084
QIANFAN-17              
1 60395U 24140S   26232.88166912  .00000051  00000+0  60168-4 0  9990
2 60395  88.9702 273.4018 0014544 192.0979 167.9825 13.51020347102040
QIANFAN-18              
1 60396U 24140T   26232.93516106  .00000057  00000+0  68784-4 0  9999
2 60396  88.9696 272.9134 0014532 174.3208 185.8111 13.51019915101440
QIANFAN-19              
1 61552U 24185A   26232.94194828  .00000319  00000+0  15916-3 0  9996
2 61552  88.9813  49.1553 0005719 199.7226 160.3741 14.14514092105170
QIANFAN-20              
1 61553U 24185B   26232.95192932  .00000236  00000+0  12795-3 0  9992
2 61553  88.9807  49.7265 0003249 258.2828 101.7991 14.09055121104863
QIANFAN-21              
1 61554U 24185C   26232.89856875  .00000428  00000+0  18386-3 0  9994
2 61554  88.9732  47.5624 0008251 263.8297  96.1954 14.22908751105684
QIANFAN-22              
1 61555U 24185D   26232.88870728  .00000214  00000+0  17320-3 0  9997
2 61555  88.9789  51.7286 0004869 323.0796  37.0040 13.86419830103730
QIANFAN-23              
1 61556U 24185E   26232.91385676  .00000302  00000+0  14446-3 0  9999
2 61556  88.9807  48.8508 0005973 210.7865 149.2973 14.16536800105309
QIANFAN-24              
1 61557U 24185F   26232.89889879  .00000270  00000+0  11099-3 0  9996
2 61557  88.9789  47.8484 0008978 184.9844 175.1260 14.24130700105763
QIANFAN-25              
1 61558U 24185G   26232.94280329  .00000274  00000+0  15836-3 0  9995
2 61558  88.9794  49.7603 0009241 272.1894  87.8230 14.06111125104803
QIANFAN-26              
1 61559U 24185H   26232.93942883  .00000149  00000+0  13586-3 0  9996
2 61559  88.9794  52.6355 0005116 354.0881   6.0224 13.77935211103266
QIANFAN-27              
1 61560U 24185J   26232.91153019  .00000410  00000+0  16076-3 0  9999
2 61560  88.9802  47.5001 0007498 166.2336 193.9065 14.27580335105992
QIANFAN-28              
1 61561U 24185K   26232.89318922  .00000576  00000+0  22426-3 0  9992
2 61561  88.9819  47.5164 0007462 164.6570 195.4853 14.28455045106021
QIANFAN-29              
1 61562U 24185L   26232.95140492  .00000138  00000+0  19496-3 0  9992
2 61562  88.9763  55.3421 0011308  51.5828 308.6337 13.51086843101714
QIANFAN-30              
1 61563U 24185M   26232.89412748  .00000128  00000+0  18158-3 0  9995
2 61563  88.9784  54.9697 0008812  41.5708 318.6111 13.50068798101955
QIANFAN-31              
1 61564U 24185N   26232.93431127  .00000145  00000+0  18397-3 0  9997
2 61564  88.9769  54.3686 0007905  30.5493 329.6121 13.58056083102251
QIANFAN-32              
1 61565U 24185P   26232.94723508  .00000118  00000+0  16427-3 0  9998
2 61565  88.9824  55.1723 0011526  66.2647 293.9712 13.50800617101953
QIANFAN-33              
1 61566U 24185Q   26232.94554866  .00000264  00000+0  18083-3 0  9990
2 61566  88.9790  50.8001 0005483 258.9488 101.1072 13.96737669104223
QIANFAN-34              
1 61567U 24185R   26232.95005567  .00000250  00000+0  15352-3 0  9992
2 61567  88.9769  50.0311 0004237 257.1346 102.9361 14.02502207104569
QIANFAN-35              
1 61568U 24185S   26232.94777406  .00000536  00000+0  20887-3 0  9996
2 61568  88.9801  47.3930 0006768 159.5136 200.6331 14.28330666106039
QIANFAN-36              
1 61569U 24185T   26232.92048189  .00000058  00000+0  66090-4 0  9990
2 61569  88.9760  54.8672 0007691  46.5600 313.6193 13.55643868101954
QIANFAN-37              
1 62238U 24232B   26232.91816527  .00000084  00000+0  11090-3 0  9993
2 62238  89.0114  16.0886 0002569  96.3746 263.7698 13.51026160133083
QIANFAN-38              
1 62239U 24232C   26232.94286117  .00000079  00000+0  10320-3 0  9992
2 62239  89.0120  16.0189 0014627 181.9877 178.1219 13.51024575133144
QIANFAN-39              
1 62240U 24232D   26232.93895029  .00000281  00000+0  11282-3 0  9994
2 62240  89.0108   8.7000 0015033 343.5724  16.4980 14.25544261137178
QIANFAN-40              
1 62241U 24232E   26232.90172334  .00000066  00000+0  83828-4 0  9996
2 62241  89.0148  15.6776 0013383 189.3703 170.7201 13.51024690133509
QIANFAN-41              
1 62242U 24232F   26232.90995519  .00000093  00000+0  12466-3 0  9994
2 62242  89.0119  15.9690 0014157 177.8939 182.2274 13.51025848133165
QIANFAN-42              
1 62243U 24232G   26232.88640262  .00000277  00000+0  11318-3 0  9993
2 62243  89.0107   8.7902 0014186 351.7951   8.3007 14.24632176137129
QIANFAN-43              
1 62244U 24232H   26232.90583005  .00000084  00000+0  11098-3 0  9999
2 62244  89.0123  16.0458 0015516 183.8183 176.2852 13.51025486101779
QIANFAN-44              
1 62245U 24232J   26232.89352322  .00000072  00000+0  92598-4 0  9996
2 62245  89.0121  15.8538 0013843 180.0368 180.0785 13.51025816133241
QIANFAN-45              
1 62246U 24232K   26232.93465765  .00000069  00000+0  88894-4 0  9998
2 62246  89.0125  16.0051 0014518 179.9390 180.1766 13.51024666133175
QIANFAN-46              
1 62247U 24232L   26232.88523996  .00000073  00000+0  94485-4 0  9992
2 62247  89.0121  16.0687 0014367 185.5761 174.5232 13.51025786133128
QIANFAN-47              
1 62248U 24232M   26232.88937890  .00000078  00000+0  10272-3 0  9991
2 62248  89.0117  15.9912 0014816 184.9499 175.1508 13.51024739133156
QIANFAN-48              
1 62249U 24232N   26232.92636993  .00000075  00000+0  97564-4 0  9994
2 62249  89.0121  15.9991 0016983 188.3905 171.6965 13.51018979133164
QIANFAN-49              
1 62250U 24232P   26232.91410295  .00000083  00000+0  10998-3 0  9994
2 62250  89.0120  16.0109 0014265 181.7261 178.3843 13.51026269101751
QIANFAN-50              
1 62251U 24232Q   26232.93873584  .00000072  00000+0  93494-4 0  9992
2 62251  89.0125  16.0302 0015874 183.7817 176.3216 13.51025635101789
QIANFAN-51              
1 62252U 24232R   26232.92230065  .00000069  00000+0  88211-4 0  9990
2 62252  89.0119  16.0103 0013224 186.3645 173.7340 13.51024835101776
QIANFAN-52              
1 62253U 24232S   26232.95111930  .00000092  00000+0  12391-3 0  9994
2 62253  89.0115  15.8712 0015499 179.4903 180.6266 13.51026581101866
QIANFAN-53              
1 62254U 24232T   26232.93055298  .00000068  00000+0  86516-4 0  9991
2 62254  89.0123  15.9968 0014344 180.0732 180.0420 13.51023698101824
QIANFAN-54              
1 62255U 24232U   26232.89764137  .00000073  00000+0  94751-4 0  9992
2 62255  89.0114  15.6564 0001640 170.5450 189.5732 13.51025399133320
QIANFAN-55              
1 62785U 25016A   26232.84958980  .00000026  00000+0  22332-4 0  9991
2 62785  88.9673  77.1560 0017080 349.3561  10.7227 13.51008537 81094
QIANFAN-56              
1 62786U 25016B   26232.86600329  .00000028  00000+0  24046-4 0  9991
2 62786  88.9647  76.9237 0015781 352.5201   7.5713 13.51026045 81141
QIANFAN-57              
1 62787U 25016C   26232.89897673  .00000030  00000+0  27828-4 0  9999
2 62787  88.9678  77.1520 0002487 100.5256 259.6176 13.51025040 81118
QIANFAN-58              
1 62788U 25016D   26232.94418522  .00000021  00000+0  14047-4 0  9997
2 62788  88.9648  76.9024 0013432 345.7111  14.3658 13.51018205 81168
QIANFAN-59              
1 62789U 25016E   26232.82066735  .00000034  00000+0  34621-4 0  9994
2 62789  88.9671  77.0482 0013936 349.7168  10.3696 13.51022455 81148
QIANFAN-60              
1 62790U 25016F   26232.85366057  .00000037  00000+0  37999-4 0  9993
2 62790  88.9652  76.9684 0015345 345.1935  14.8765 13.51025627 81138
QIANFAN-61              
1 62791U 25016G   26232.88661201  .00000027  00000+0  22634-4 0  9995
2 62791  88.9719  77.2980 0014297 345.1269  14.9460 13.51025411 81157
QIANFAN-62              
1 62792U 25016H   26232.89068052  .00000035  00000+0  36378-4 0  9991
2 62792  88.9666  77.0309 0015634 344.6797  15.3878 13.51017916 81146
QIANFAN-63              
1 62793U 25016J   26232.91537091  .00000022  00000+0  14814-4 0  9996
2 62793  88.9673  76.9969 0015885 350.0452  10.0382 13.51021074 81188
QIANFAN-64              
1 62794U 25016K   26232.95658265  .00000024  00000+0  18774-4 0  9999
2 62794  88.9659  76.9330 0013578 343.7716  16.2999 13.51025404 81187
QIANFAN-65              
1 62795U 25016L   26232.95228246  .00000011  00000+0 -16102-5 0  9993
2 62795  88.9656  76.9505 0013502 345.6227  14.4538 13.51021591 81164
QIANFAN-66              
1 62796U 25016M   26232.90709148  .00000027  00000+0  23873-4 0  9992
2 62796  88.9675  76.9747 0014437 340.6717  19.3885 13.51027385 81202
QIANFAN-67              
1 62797U 25016N   26232.91124953  .00000024  00000+0  18755-4 0  9999
2 62797  88.9665  76.9751 0014648 347.7526  12.3267 13.51027088 81170
QIANFAN-68              
1 62798U 25016P   26232.90296306  .00000031  00000+0  29904-4 0  9997
2 62798  88.9669  77.0301 0014650 345.5494  14.5236 13.51019885 81155
QIANFAN-69              
1 62799U 25016Q   26232.84531285  .00000019  00000+0  10897-4 0  9996
2 62799  88.9648  76.8521 0015424 346.7749  13.2996 13.51022401 81180
QIANFAN-70              
1 62800U 25016R   26232.93594278  .00000048  00000+0  56430-4 0  9995
2 62800  88.9668  77.0335 0014690 336.7933  23.2553 13.51021338 81154
QIANFAN-71              
1 62801U 25016S   26232.93186046  .00000028  00000+0  24909-4 0  9990
2 62801  88.9662  76.9983 0015455 350.1805   9.9042 13.51024842 81151
QIANFAN-72              
1 62802U 25016T   26232.94830970  .00000012  00000+0 -14210-6 0  9994
2 62802  88.9653  76.9854 0018957 356.0751   4.0248 13.51018586 81145
QIANFAN-73              
1 63159U 25046A   26232.90127277  .00000099  00000+0  13469-3 0  9994
2 63159  88.9690 293.9592 0017191 115.3546 244.9388 13.51022680 81329
QIANFAN-74              
1 63160U 25046B   26232.88473789  .00000095  00000+0  12817-3 0  9997
2 63160  88.9690 293.8506 0002268  95.0643 265.0767 13.51030771 81387
QIANFAN-75              
1 63161U 25046C   26232.87263273  .00000063  00000+0  79047-4 0  9996
2 63161  88.9692 294.0889 0018326 118.7323 241.5673 13.51026087 81253
QIANFAN-76              
1 63162U 25046D   26232.86843734  .00000080  00000+0  10539-3 0  9991
2 63162  88.9692 294.0693 0015792 118.7148 241.5592 13.51021753 81262
QIANFAN-77              
1 63163U 25046E   26232.88396223  .00000226  00000+0  15404-3 0  9998
2 63163  88.9692 290.0051 0015424  25.9641 334.2306 13.96239945 83499
QIANFAN-78              
1 63164U 25046F   26232.90981807  .00000004  00000+0 -12414-4 0  9994
2 63164  88.9691 293.9267 0017209 120.5943 239.6908 13.51011362 81340
QIANFAN-79              
1 63165U 25046G   26232.86417006  .00000110  00000+0  15112-3 0  9999
2 63165  88.9694 294.0478 0016962 119.4150 240.8697 13.51028403 81288
QIANFAN-80              
1 63166U 25046H   26232.88079096  .00000107  00000+0  14662-3 0  9990
2 63166  88.9691 293.7461 0015738 123.0214 237.2451 13.51025769 81444
QIANFAN-81              
1 63167U 25046J   26232.86005015  .00000109  00000+0  14967-3 0  9999
2 63167  88.9691 293.8157 0017115 114.2125 246.0817 13.51021524 81395
QIANFAN-82              
1 63168U 25046K   26231.11404423 -.01876387  00000+0 -32860+1 0  9994
2 63168  88.9689 294.0414 0015583 139.8926 220.3377 13.47589457 81149
QIANFAN-83              
1 63169U 25046L   26232.87294034  .00000108  00000+0  12420-3 0  9994
2 63169  88.9692 293.1401 0016448  95.0031 265.3005 13.62060862 81789
QIANFAN-84              
1 63170U 25046M   26232.84772249  .00000084  00000+0  11142-3 0  9995
2 63170  88.9692 293.9939 0017908 117.2557 243.0421 13.51021917 81306
QIANFAN-85              
1 63171U 25046N   26232.84362089  .00000106  00000+0  14553-3 0  9997
2 63171  88.9691 293.8641 0015444 118.7239 241.5467 13.51025461 81379
QIANFAN-86              
1 63172U 25046P   26232.85186119  .00000104  00000+0  14223-3 0  9999
2 63172  88.9693 293.7313 0013276 121.6709 238.5739 13.51021347 81459
QIANFAN-87              
1 63173U 25046Q   26232.89727735  .00000098  00000+0  13251-3 0  9991
2 63173  88.9689 293.8289 0013849 117.4440 242.8121 13.51029557 81396
QIANFAN-88              
1 63174U 25046R   26232.83958186  .00000104  00000+0  14188-3 0  9990
2 63174  88.9692 293.7956 0014152 125.0677 235.1804 13.51025733 81414
QIANFAN-89              
1 63175U 25046S   26232.87652852  .00000113  00000+0  15591-3 0  9995
2 63175  88.9691 293.9806 0018829 117.6212 242.6854 13.51021038 81318
QIANFAN-90              
1 63176U 25046T   26232.90531830  .00000097  00000+0  13111-3 0  9999
2 63176  88.9692 293.9507 0015812 115.7921 244.4864 13.51025305 81337
QIANFAN-91              
1 66033U 25233A   26232.93788605  .00000058  00000+0  70816-4 0  9992
2 66033  89.0003  36.6348 0002230  91.0633 269.0774 13.51017016 41925
QIANFAN-92              
1 66034U 25233B   26232.94611179  .00000060  00000+0  74089-4 0  9994
2 66034  88.9987  36.5951 0002058  94.9844 265.1542 13.51016072 41929
QIANFAN-93              
1 66035U 25233C   26232.95425092  .00000043  00000+0  47847-4 0  9996
2 66035  89.0014  36.6637 0002210  92.6835 267.4569 13.51018691 41923
QIANFAN-94              
1 66036U 25233D   26232.94195583  .00000062  00000+0  76968-4 0  9992
2 66036  89.0010  36.5660 0002031  91.9140 268.2244 13.51018316 41975
QIANFAN-95              
1 66037U 25233E   26232.95017381  .00000056  00000+0  68382-4 0  9997
2 66037  89.0008  36.1070 0002185  88.3775 271.7627 13.51019112 42226
QIANFAN-96              
1 66038U 25233F   26232.90084169  .00000061  00000+0  75461-4 0  9993
2 66038  89.0005  36.6538 0002272  91.0325 269.1086 13.51017746 41913
QIANFAN-97              
1 66039U 25233G   26232.95841710  .00000057  00000+0  69811-4 0  9999
2 66039  89.0009  36.6343 0002210  91.5636 268.5768 13.51018056 41931
QIANFAN-98              
1 66040U 25233H   26232.89256979  .00000059  00000+0  72500-4 0  9992
2 66040  88.9998  36.3649 0001707  83.7110 276.4235 13.51017482 42068
QIANFAN-99              
1 66041U 25233J   26232.89666766  .00000065  00000+0  82785-4 0  9995
2 66041  89.0010  36.6450 0001899  84.4564 275.6804 13.51017755 41922
QIANFAN-100             
1 66042U 25233K   26232.88839553  .00000050  00000+0  59155-4 0  9990
2 66042  89.0020  36.5801 0002203  92.5440 267.5963 13.51017366 41975
QIANFAN-101             
1 66043U 25233L   26232.95445451  .00000366  00000+0  14491-3 0  9992
2 66043  89.0010  33.1263 0012972 295.6496  64.3357 14.26842165 43867
QIANFAN-102             
1 66044U 25233M   26232.90904231  .00000047  00000+0  53547-4 0  9996
2 66044  89.0006  36.5519 0002024  90.3322 269.8061 13.51017574 41978
QIANFAN-103             
1 66045U 25233N   26232.91312736  .00000037  00000+0  38631-4 0  9997
2 66045  89.0009  36.6484 0002232  92.4776 267.6631 13.51018407 41921
QIANFAN-104             
1 66046U 25233P   26232.91724049  .00000040  00000+0  43022-4 0  9996
2 66046  89.0014  36.5531 0001957  92.3978 267.7398 13.51023649 41976
QIANFAN-105             
1 66047U 25233Q   26232.92550755  .00000062  00000+0  77168-4 0  9991
2 66047  89.0027  36.4039 0002152  89.1153 271.0245 13.51023338 42087
QIANFAN-106             
1 66048U 25233R   26232.92142332  .00000050  00000+0  58388-4 0  9990
2 66048  88.9996  36.5970 0001765  85.2355 274.8997 13.51017450 41921
QIANFAN-107             
1 66049U 25233S   26232.92965175  .00000057  00000+0  69300-4 0  9992
2 66049  89.0011  36.6388 0002184  92.6392 267.5010 13.51016900 41930
QIANFAN-108             
1 66050U 25233T   26232.93371038  .00000066  00000+0  83591-4 0  9992
2 66050  89.0005  36.6216 0001780  86.7834 273.3521 13.51018523 41936
QIANFAN-109             
1 68636U 26075A   26232.87351524  .00000094  00000+0  12614-3 0  9998
2 68636  88.9910 314.4152 0002727  97.7885 262.3575 13.51031019 18528
QIANFAN-110             
1 68637U 26075B   26232.88186183  .00000106  00000+0  14473-3 0  9996
2 68637  88.9910 314.4359 0002281 104.4462 255.6943 13.51028233 18528
QIANFAN-111             
1 68638U 26075C   26232.79549705  .00000102  00000+0  13893-3 0  9991
2 68638  88.9909 314.4038 0002250 103.5261 256.6141 13.51027774 18535
QIANFAN-112             
1 68639U 26075D   26232.83248633  .00000089  00000+0  11887-3 0  9998
2 68639  88.9908 314.4083 0002788 102.6384 257.5079 13.51020071 18530
QIANFAN-113             
1 68640U 26075E   26232.87768537  .00000111  00000+0  15284-3 0  9995
2 68640  88.9914 314.4010 0002406 105.1845 254.9572 13.51026010 18545
QIANFAN-114             
1 68641U 26075F   26232.88591837  .00000109  00000+0  15064-3 0  9997
2 68641  88.9909 314.4163 0002292 103.6547 256.4859 13.51024298 18534
QIANFAN-115             
1 68642U 26075G   26232.84066647  .00000095  00000+0  12857-3 0  9991
2 68642  88.9909 314.4281 0002379 100.4103 259.7316 13.51020877 18527
QIANFAN-116             
1 68643U 26075H   26232.90237311  .00000092  00000+0  12339-3 0  9999
2 68643  88.9902 314.3773 0002662 104.2779 255.8668 13.51021620 18548
QIANFAN-117             
1 68644U 26075J   26232.89007499  .00000110  00000+0  15186-3 0  9994
2 68644  88.9907 314.3972 0002525 100.8946 259.2489 13.51019464 18543
QIANFAN-118             
1 68645U 26075K   26232.84889000  .00000102  00000+0  13933-3 0  9995
2 68645  88.9911 314.4125 0002243 106.8378 253.3020 13.51021257 18530
QIANFAN-119             
1 68646U 26075L   26232.89819770  .00000101  00000+0  13755-3 0  9999
2 68646  88.9911 314.4032 0002592  98.3162 261.8283 13.51019315 18549
QIANFAN-120             
1 68647U 26075M   26232.83651973  .00000097  00000+0  13100-3 0  9991
2 68647  88.9913 314.3955 0002592  95.3288 264.8159 13.51028349 18543
QIANFAN-121             
1 68648U 26075N   26232.86129656  .00000107  00000+0  14729-3 0  9993
2 68648  88.9911 314.3965 0002230 104.4030 255.7369 13.51020308 18548
QIANFAN-122             
1 68649U 26075P   26232.85309208  .00000106  00000+0  14611-3 0  9995
2 68649  88.9910 314.3947 0002596 100.1932 259.9512 13.51023719 18531
QIANFAN-123             
1 68650U 26075Q   26232.89418999  .00000103  00000+0  14026-3 0  9996
2 68650  88.9906 314.3785 0002801  97.8109 262.3361 13.51029040 18527
QIANFAN-124             
1 68651U 26075R   26232.84487867  .00000107  00000+0  14723-3 0  9990
2 68651  88.9909 314.3942 0002672 100.3626 259.7826 13.51023365 18548
QIANFAN-125             
1 68652U 26075S   26232.85718450  .00000105  00000+0  14436-3 0  9996
2 68652  88.9909 314.3949 0002252 104.9764 255.1637 13.51020381 18548
QIANFAN-126             
1 68653U 26075T   26232.86535148  .00000096  00000+0  13049-3 0  9997
2 68653  88.9913 314.3623 0002773  97.6968 262.4498 13.51025619 18562
QIANFAN-127             
1 69073U 26104A   26232.87060723  .00000128  00000+0  17969-3 0  9991
2 69073  88.9943 334.8694 0002171 109.8879 250.2507 13.51022184 13897
QIANFAN-128             
1 69074U 26104B   26232.87887792  .00000120  00000+0  16764-3 0  9999
2 69074  88.9921 334.8990 0001767 108.3696 251.7647 13.51029273 13879
QIANFAN-129             
1 69075U 26104C   26232.90344527  .00000119  00000+0  16625-3 0  9992
2 69075  88.9924 334.8301 0001918 109.6611 250.4747 13.51034161 13912
QIANFAN-130             
1 69076U 26104D   26232.94058894  .00000122  00000+0  17086-3 0  9992
2 69076  88.9926 334.8915 0002403 111.7524 248.3883 13.51028717 13886
QIANFAN-131             
1 69077U 26104E   26232.88713964  .00000100  00000+0  13695-3 0  9990
2 69077  88.9919 334.8594 0001931 101.6732 258.4636 13.51020547 13898
QIANFAN-132             
1 69078U 26104F   26232.87466346  .00000124  00000+0  17303-3 0  9995
2 69078  88.9922 334.9167 0002254 109.7299 250.4096 13.51027292 13869
QIANFAN-133             
1 69079U 26104G   26232.88304203  .00000110  00000+0  15110-3 0  9999
2 69079  88.9925 334.8649 0001723  98.8716 261.2631 13.51020379 13885
QIANFAN-134             
1 69080U 26104H   26232.83776173  .00000127  00000+0  17733-3 0  9996
2 69080  88.9929 334.8947 0001747 105.7312 254.4032 13.51023693 13878
QIANFAN-135             
1 69081U 26104J   26232.89113255  .00000110  00000+0  15168-3 0  9991
2 69081  88.9923 334.8819 0001739 113.7662 246.3671 13.51027095 13889
QIANFAN-136             
1 69082U 26104K   26232.89949902  .00000114  00000+0  15764-3 0  9994
2 69082  88.9925 334.8834 0001714 100.6680 259.4664 13.51026714 13881
QIANFAN-137             
1 69083U 26104L   26232.89537322  .00000107  00000+0  14678-3 0  9999
2 69083  88.9934 334.7578 0002219 107.4523 252.6871 13.51026666 13957
QIANFAN-138             
1 69084U 26104M   26232.84596703  .00000122  00000+0  17069-3 0  9997
2 69084  88.9919 334.8908 0001948 115.5245 244.6108 13.51021025 13877
QIANFAN-139             
1 69085U 26104N   26232.90773131  .00000123  00000+0  17145-3 0  9993
2 69085  88.9921 334.8655 0002144 111.2105 248.9276 13.51016499 13891
QIANFAN-140             
1 69086U 26104P   26232.91578298  .00000123  00000+0  17121-3 0  9996
2 69086  88.9921 334.8680 0001816 115.9787 244.1551 13.51029986 13891
QIANFAN-141             
1 69087U 26104Q   26232.77599045  .00000110  00000+0  15222-3 0  9990
2 69087  88.9918 334.8475 0001762 109.9457 250.1884 13.51023410 13899
QIANFAN-142             
1 69088U 26104R   26232.85825782  .00000115  00000+0  15873-3 0  9997
2 69088  88.9917 334.8388 0001960 113.8904 246.2453 13.51025783 13908
QIANFAN-143             
1 69089U 26104S   26232.92826163  .00000110  00000+0  15194-3 0  9991
2 69089  88.9928 334.8351 0001953  99.8401 260.2971 13.51022213 13915
QIANFAN-144             
1 69090U 26104T   26232.86236897  .00000115  00000+0  15985-3 0  9998
2 69090  88.9926 334.8605 0002124 114.3761 245.7612 13.51026307 13895
QIANFAN-145             
1 69104U 26108A   26232.94105143  .00000074  00000+0  96209-4 0  9999
2 69104  89.0151  15.5696 0000928 174.3050 185.8112 13.51035081 13183
QIANFAN-146             
1 69105U 26108B   26232.89622132  .00000091  00000+0  12470-3 0  9992
2 69105  89.0152  15.4098 0018808 285.9340  73.9738 13.50007394 13273
QIANFAN-147             
1 69106U 26108C   26232.94904368  .00000082  00000+0  10768-3 0  9991
2 69106  89.0153  15.5726 0002025 101.6957 258.4422 13.51020663 13170
QIANFAN-148             
1 69107U 26108D   26232.93662165  .00000081  00000+0  10728-3 0  9992
2 69107  89.0146  15.5658 0001791  99.1901 260.9453 13.51020018 13172
QIANFAN-149             
1 69108U 26108E   26232.94477322  .00000088  00000+0  11767-3 0  9994
2 69108  89.0146  15.5863 0001839 108.2458 251.8893 13.51019501 13175
QIANFAN-150             
1 69109U 26108F   26232.95298500  .00000086  00000+0  11470-3 0  9994
2 69109  89.0151  15.5372 0001877 108.3484 251.7871 13.51020238 13195
QIANFAN-151             
1 69110U 26108G   26232.90787655  .00000089  00000+0  11878-3 0  9990
2 69110  89.0151  15.5655 0002017  94.0268 266.1114 13.51015286 13174
QIANFAN-152             
1 69111U 26108H   26232.88722443  .00000074  00000+0  95404-4 0  9994
2 69111  89.0147  15.5604 0002244 104.8390 255.3010 13.51024560 13183
QIANFAN-153             
1 69112U 26108J   26232.95711873  .00000079  00000+0  10437-3 0  9995
2 69112  89.0143  15.5310 0002014 105.6366 254.5008 13.51039263 13196
QIANFAN-154             
1 69113U 26108K   26232.89144206  .00000070  00000+0  90125-4 0  9993
2 69113  89.0154  15.5832 0001917 103.4140 256.7225 13.51022603 13178
QIANFAN-155             
1 69114U 26108L   26232.89545251  .00000078  00000+0  10253-3 0  9990
2 69114  89.0151  15.5481 0001950 107.3288 252.8077 13.51033428 13189
QIANFAN-156             
1 69115U 26108M   26232.91603222  .00000084  00000+0  11126-3 0  9994
2 69115  89.0166  15.5429 0001859  96.2843 263.8520 13.51032860 13206
QIANFAN-157             
1 69116U 26108N   26232.90342251  .00000097  00000+0  13353-3 0  9994
2 69116  89.0148  15.4729 0018191 289.6493  70.2695 13.49890335 13237
QIANFAN-158             
1 69117U 26108P   26232.92019397  .00000139  00000+0  19744-3 0  9996
2 69117  89.0149  15.5122 0001910  95.0342 265.1027 13.51031250 13218
QIANFAN-159             
1 69118U 26108Q   26232.91187589  .00000085  00000+0  11296-3 0  9999
2 69118  89.0140  15.5220 0001996  96.2564 263.8814 13.51036152 13206
QIANFAN-160             
1 69119U 26108R   26232.85436175  .00000032  00000+0  31734-4 0  9993
2 69119  89.0155  15.5607 0001961 111.0971 249.0390 13.51019312 13183
QIANFAN-161             
1 69120U 26108S   26232.93262162  .00000071  00000+0  91847-4 0  9991
2 69120  89.0163  15.4673 0001955  94.8042 265.3333 13.51034329 13246
QIANFAN-162             
1 69121U 26108T   26232.92429558  .00000071  00000+0  91886-4 0  9998
2 69121  89.0152  15.4966 0002167 102.4102 257.7292 13.51039448 13212
QIANFAN-163             
1 69325U 26121A   26232.66665179  .00000111  00000+0  15331-3 0  9996
2 69325  89.0150 294.1008 0001348 108.9018 251.2279 13.51030838 10873
QIANFAN-164             
1 69326U 26121B   26232.70782155  .00000110  00000+0  15118-3 0  9998
2 69326  89.0148 294.0878 0001624  97.3910 262.7425 13.51032122 10883
QIANFAN-165             
1 69382U 26124A   26232.86192805 -.01698298  00000+0 -27745+1 0  9996
2 69382  89.0053 355.0992 0009718 351.1816   8.9164 13.51645495 10774
QIANFAN-166             
1 69383U 26124B   26232.86970118  .00000091  00000+0  12304-3 0  9991
2 69383  89.0075 355.1037 0002044  95.2598 264.8786 13.51016372 10777
QIANFAN-167             
1 69384U 26124C   26232.87389696  .00000094  00000+0  12680-3 0  9998
2 69384  89.0048 355.1170 0001935 106.2834 253.8530 13.51025621 10761
QIANFAN-168             
1 69385U 26124D   26232.95093826 -.01993738  00000+0 -34263+1 0  9992
2 69385  89.0040 355.0899 0003855 171.2255 188.8963 13.48411660 10780
QIANFAN-169             
1 69386U 26124E   26232.88128892 -.02027338  00000+0 -34731+1 0  9992
2 69386  89.0038 355.0975 0014631 330.3774  29.6545 13.48641604 10771
QIANFAN-170             
1 69387U 26124F   26232.88590241 -.02097851  00000+0 -35396+1 0  9999
2 69387  89.0065 355.0627 0008423 330.5367  29.5308 13.49790769 10794
QIANFAN-171             
1 69388U 26124G   26232.89406597 -.02086463  00000+0 -35014+1 0  9995
2 69388  89.0070 355.0714 0008321 353.3374   6.7665 13.50113538 10794
QIANFAN-172             
1 69389U 26124H   26232.88885789 -.01884332  00000+0 -32934+1 0  9997
2 69389  89.0054 355.0664 0002253 314.2823  45.8141 13.47782613 10799
QIANFAN-173             
1 69390U 26124J   26232.89693438 -.01886303  00000+0 -32988+1 0  9997
2 69390  89.0043 355.0655 0013951 328.2946  31.7362 13.47710904 10790
QIANFAN-174             
1 69391U 26124K   26232.90727592 -.01883391  00000+0 -33495+1 0  9997
2 69391  89.0023 355.0274 0013808 335.3954  24.6534 13.46622574 10803
QIANFAN-175             
1 69392U 26124L   26232.91378498 -.01980774  00000+0 -34107+1 0  9990
2 69392  89.0076 355.0564 0003174 256.3368 103.7429 13.48260638 10803
QIANFAN-176             
1 69393U 26124M   26232.84343564 -.01884747  00000+0 -32951+1 0  9997
2 69393  89.0037 355.0552 0014649 325.2549  34.7643 13.47722241 10784
QIANFAN-177             
1 69394U 26124N   26232.85516663 -.02058136  00000+0 -33785+1 0  9993
2 69394  89.0047 355.0398 0011342 353.3699   6.7300 13.51455900 10801
QIANFAN-178             
1 69395U 26124P   26232.84851913 -.02050222  00000+0 -35143+1 0  9991
2 69395  88.9992 355.0133 0011939 328.7755  31.2684 13.48666946 10816
QIANFAN-179             
1 69396U 26124Q   26232.93008289 -.01928777  00000+0 -33517+1 0  9993
2 69396  89.0025 355.0119 0010540 332.6445  27.4149 13.48237923 10820
QIANFAN-180             
1 69397U 26124R   26232.93446281 -.02014599  00000+0 -34571+1 0  9992
2 69397  89.0032 355.0312 0013015 333.7329  26.3159 13.48517383 10816
QIANFAN-181             
1 69398U 26124S   26232.90194508 -.02093168  00000+0 -36256+1 0  9993
2 69398  89.0052 355.1214 0010722 297.8317  62.1746 13.48088653 10767
QIANFAN-182             
1 69399U 26124T   26232.90527452 -.01884296  00000+0 -32966+1 0  9995
2 69399  89.0028 355.0988 0003391 289.0193  71.0589 13.47716932 10768
QIANFAN-183             
1 69401U 26125A   26232.86557906 -.01915758  00000+0 -32118+1 0  9999
2 69401  88.9861 273.4449 0004630 129.9247 230.2311 13.50527788 10674
QIANFAN-184             
1 69402U 26125B   26232.87577580 -.02130314  00000+0 -35958+1 0  9994
2 69402  88.9897 273.4562 0020153 340.4500  19.5875 13.49764791 10678
QIANFAN-185             
1 69403U 26125C   26232.90556125 -.00000095  00000+0 -15649-3 0  9999
2 69403  88.9924 273.3893 0022783 349.9454  10.1240 13.54652891 10710
QIANFAN-186             
1 69404U 26125D   26232.87129614 -.02036540  00000+0 -33634+1 0  9992
2 69404  88.9906 273.4555 0022111 342.0323  18.0044 13.50951873 10673
QIANFAN-187             
1 69405U 26125E   26232.80701746 -.02055933  00000+0 -33170+1 0  9990
2 69405  88.9876 273.4465 0027396 341.8389  18.1782 13.52429255 10675
QIANFAN-188             
1 69406U 26125F   26232.88634088 -.01922933  00000+0 -33460+1 0  9997
2 69406  88.9899 273.4396 0018354 338.1464  21.8900 13.48094577 10685
QIANFAN-189             
1 69407U 26125G   26232.97009418  .00000041  00000+0  44385-4 0  9997
2 69407  88.9892 273.4284 0001596  94.4127 265.7207 13.51027398 10683
QIANFAN-190             
1 69408U 26125H   26232.95785692  .00000023  00000+0  16515-4 0  9995
2 69408  88.9894 273.4270 0002002  89.0718 271.0662 13.51031937 10690
QIANFAN-191             
1 69409U 26125J   26232.90838053  .00000045  00000+0  51537-4 0  9998
2 69409  88.9908 273.4399 0006283 343.7266  16.3683 13.51033203 10682
QIANFAN-192             
1 69410U 26125K   26232.96599169  .00000042  00000+0  45704-4 0  9994
2 69410  88.9914 273.4326 0001677  95.9735 264.1608 13.51029194 10695
QIANFAN-193             
1 69411U 26125L   26232.76824513 -.02092864  00000+0 -35667+1 0  9997
2 69411  88.9888 273.4358 0014436 335.4518  24.5943 13.49112105 10679
QIANFAN-194             
1 69412U 26125M   26232.91115056 -.01882757  00000+0 -32957+1 0  9996
2 69412  88.9921 273.4256 0004958 158.0613 202.0750 13.47674789 10687
QIANFAN-195             
1 69413U 26125N   26232.83964700  .00000044  00000+0  50611-4 0  9995
2 69413  88.9927 273.4157 0023895 342.5962  17.4367 13.50115452 10696
QIANFAN-196             
1 69414U 26125P   26232.92897705  .00000047  00000+0  54339-4 0  9990
2 69414  88.9931 273.4109 0008601 339.2911  20.7891 13.51027607 10700
QIANFAN-197             
1 69415U 26125Q   26232.86305287 -.02108619  00000+0 -35787+1 0  9993
2 69415  88.9911 273.4007 0008384 340.8910  19.1925 13.49436883 10696
QIANFAN-198             
1 69416U 26125R   26232.85086766  .00000020  00000+0  12380-4 0  9992
2 69416  88.9900 273.4125 0001789  92.8041 267.3315 13.51018551 10698
QIANFAN-199             
1 69417U 26125S   26232.88615795  .00000059  00000+0  64631-4 0  9994
2 69417  88.9903 273.3644 0021775 336.0160  23.9979 13.57850375 10729
QIANFAN-200             
1 69418U 26125T   26232.83028118  .00000038  00000+0  40745-4 0  9994
2 69418  88.9910 273.4471 0001678  92.7927 267.3416 13.51024993 10671
QIANFAN-201             
1 69800U 26153A   26232.86193531  .00000390  00000+0  20069-3 0  9992
2 69800  88.9965 354.8732 0010226  70.8845 289.3447 14.13292394  6747
QIANFAN-202             
1 69801U 26153B   26232.91302830  .00000426  00000+0  21567-3 0  9997
2 69801  88.9965 354.8620 0010585  71.9363 288.2976 14.14348997  6746
QIANFAN-203             
1 69802U 26153C   26232.86453144  .00000344  00000+0  18263-3 0  9995
2 69802  88.9965 354.8923 0009606  74.2498 285.9747 14.11307953  6733
QIANFAN-204             
1 69803U 26153D   26232.91321988  .00000417  00000+0  21723-3 0  9998
2 69803  88.9966 354.8813 0009839  72.7399 287.4863 14.12791875  6742
QIANFAN-205             
1 69804U 26153E   26232.88696236  .00000352  00000+0  19126-3 0  9998
2 69804  88.9965 354.8952 0009777  72.3107 287.9144 14.10163796  6739
QIANFAN-206             
1 69805U 26153F   26232.86867598  .00000404  00000+0  19787-3 0  9999
2 69805  88.9965 354.8742 0009842  78.1361 282.0930 14.15954764  6744
QIANFAN-207             
1 69806U 26153G   26232.91486594  .00000419  00000+0  22408-3 0  9999
2 69806  88.9965 354.8812 0009862  69.9279 290.2967 14.11283404  6744
QIANFAN-208             
1 69807U 26153H   26232.90080054  .00000426  00000+0  21079-3 0  9991
2 69807  88.9965 354.8792 0008946  82.3649 277.8554 14.15504202  6754
QIANFAN-209             
1 69808U 26153J   26232.85556925  .00000392  00000+0  21090-3 0  9996
2 69808  88.9966 354.8908 0010090  70.8328 289.3948 14.10881486  6734
QIANFAN-210             
1 69809U 26153K   26232.91138680  .00000415  00000+0  22095-3 0  9990
2 69809  88.9966 354.8811 0010547  73.8753 286.3593 14.11486299  6748
QIANFAN-211             
1 69810U 26153L   26232.87380623  .00000312  00000+0  15537-3 0  9992
2 69810  88.9966 354.8749 0009919  74.4416 285.7866 14.14524926  6743
QIANFAN-212             
1 69811U 26153M   26232.87801582  .00000368  00000+0  18933-3 0  9999
2 69811  88.9965 354.8755 0011315  76.7970 283.4478 14.13078031  6747
QIANFAN-213             
1 69812U 26153N   26232.87857259  .00000359  00000+0  18625-3 0  9990
2 69812  88.9964 354.8754 0009958  73.2086 287.0192 14.12636649  6743
QIANFAN-214             
1 69813U 26153P   26232.92033194  .00000427  00000+0  20595-3 0  9996
2 69813  88.9965 354.8445 0010114  76.5650 283.6665 14.16839448  6766
QIANFAN-215             
1 69814U 26153Q   26232.91385697  .00000479  00000+0  21110-3 0  9995
2 69814  88.9964 354.8241 0010331  81.7706 278.4656 14.21790401  6775
QIANFAN-216             
1 69815U 26153R   26232.89138344  .00000456  00000+0  21527-3 0  9995
2 69815  88.9964 354.8400 0009833  81.5861 278.6442 14.18158192  6763
QIANFAN-217             
1 69816U 26153S   26232.85260884  .00000533  00000+0  21413-3 0  9997
2 69816  88.9963 354.8147 0010024  84.3415 275.8921 14.26790040  6776
QIANFAN-218             
1 69817U 26153T   26232.85116926  .00000511  00000+0  20494-3 0  9999
2 69817  88.9967 354.8161 0009688  82.5834 277.6460 14.26833934  6774
QIANFAN-219             
1 69848U 26155A   26232.88045354 -.02109109  00000+0 -20442+1 0  9991
2 69848  89.0042  56.8457 0038395  92.5076 268.0490 13.83621018  6561
QIANFAN-220             
1 69849U 26155B   26232.91407447  .00000046  00000+0  29801-4 0  9999
2 69849  89.0059  56.8884 0033355  96.4883 264.0086 13.83562578  6544
QIANFAN-221             
1 69850U 26155C   26232.93427471  .00000106  00000+0  47193-4 0  9993
2 69850  89.0052  56.7799 0032851 105.3483 255.1338 14.14827977  6609
QIANFAN-222             
1 69851U 26155D   26232.88201542 -.01940942  00000+0 -20072+1 0  9994
2 69851  89.0048  56.8822 0034924  94.7185 265.7972 13.79493279  6544
QIANFAN-223             
1 69852U 26155E   26232.80023640 -.02035588  00000+0 -21056+1 0  9993
2 69852  89.0053  56.8895 0035922  95.3557 265.1711 13.79655073  6536
QIANFAN-224             
1 69853U 26155F   26232.89188549 -.01960652  00000+0 -18779+1 0  9999
2 69853  89.0027  56.8585 0036612  99.8474 260.6833 13.84047341  6554
QIANFAN-225             
1 69854U 26155G   26232.86736404 -.02028267  00000+0 -21757+1 0  9994
2 69854  89.0045  56.8786 0032459  96.8825 263.6036 13.77522061  6546
QIANFAN-226             
1 69855U 26155H   26232.85075296 -.02032510  00000+0 -21070+1 0  9993
2 69855  89.0043  56.8767 0036762  94.4907 266.0461 13.79505189  6543
QIANFAN-227             
1 69856U 26155J   26232.83830717 -.02108640  00000+0 -21500+1 0  9995
2 69856  89.0038  56.8778 0038349  92.0572 268.4988 13.80619669  6546
QIANFAN-228             
1 69857U 26155K   26232.89534453 -.02108047  00000+0 -21326+1 0  9997
2 69857  89.0049  56.8668 0039223  92.8628 267.7031 13.81071064  6553
QIANFAN-229             
1 69858U 26155L   26232.83826105 -.01974943  00000+0 -18612+1 0  9999
2 69858  89.0049  56.8572 0034361  94.5489 265.9608 13.85065813  6559
QIANFAN-230             
1 69859U 26155M   26232.82989370 -.02034185  00000+0 -21559+1 0  9993
2 69859  89.0049  56.8921 0033457  97.3280 263.1691 13.78241751  6532
QIANFAN-231             
1 69860U 26155N   26232.88794683 -.02107941  00000+0 -20421+1 0  9990
2 69860  89.0047  56.8473 0038616  91.0089 269.5505 13.83643514  6560
QIANFAN-232             
1 69861U 26155P   26232.87231115 -.02040316  00000+0 -19589+1 0  9991
2 69861  89.0042  56.8431 0029206  96.9299 263.5195 13.84180381  6560
QIANFAN-233             
1 69862U 26155Q   26232.87347555 -.02109310  00000+0 -20357+1 0  9993
2 69862  89.0046  56.8465 0037788  92.8496 267.6999 13.83884076  6568
QIANFAN-234             
1 69863U 26155R   26232.90735340 -.01976667  00000+0 -17324+1 0  9997
2 69863  89.0048  56.8313 0027634  96.2724 264.1597 13.89408500  6571
QIANFAN-235             
1 69864U 26155S   26232.91655164  .00000097  00000+0  40560-4 0  9998
2 69864  89.0053  56.7775 0032831 105.2064 255.2759 14.17433513  6601
QIANFAN-236             
1 69865U 26155T   26232.72090708 -.02062336  00000+0 -20557+1 0  9993
2 69865  89.0052  56.8768 0034873  86.3195 274.1961 13.81928454  6536
QIANFAN-237             
1 69866U 26155U   26232.93276242  .00000048  00000+0  27729-4 0  9996
2 69866  89.0055  56.8357 0034386  95.0430 265.4670 13.89444890  6560
QIANFAN-238             
1 69867U 26155V   26232.84241633 -.02054473  00000+0 -20338+1 0  9993
2 69867  89.0052  56.8406 0030803  91.9877 268.4820 13.82378583  6561
