ORBCOMM FM06            
1 25118U 97084G   26205.40006213  .00000914  00000+0  28484-3 0  9998
2 25118  45.0122 233.5568 0001945 261.7406 113.2566 14.47641324499787
ORBCOMM FM04            
1 25159U 98007C   26205.59960526  .00000684  00000+0  27942-3 0  9997
2 25159 107.9632 246.4233 0042049 260.9552  98.6829 14.35796480481961
ORBCOMM FM19            
1 25415U 98046C   26205.62077535  .00000931  00000+0  34070-3 0  9993
2 25415  44.9941  65.6159 0003425 124.8255 264.7146 14.39556404462174
ORBCOMM FM20            
1 25416U 98046D   26205.31797901  .00000674  00000+0  26698-3 0  9997
2 25416  44.9942  75.3894 0000826  76.2726 283.8214 14.38111446462131
ORBCOMM FM27            
1 25481U 98053G   26205.25620497  .00000882  00000+0  32774-3 0  9998
2 25481  45.0042 159.2780 0001905 326.3342  33.7385 14.39198338455571
ORBCOMM FM32            
1 25982U 99065C   26205.48069817  .00000573  00000+0  23828-3 0  9993
2 25982  45.0170 356.7084 0006477 234.6052 125.4192 14.37177782392458
ORBCOMM FM109           
1 40086U 14040A   26205.56052756  .00000163  00000+0  70707-4 0  9992
2 40086  47.0030 274.7861 0001005 353.7976   6.2897 14.58876409639805
ORBCOMM FM110           
1 41182U 15081D   26205.35955502  .00000840  00000+0  21369-3 0  9995
2 41182  47.0005 185.6737 0003832 257.9740 102.0716 14.58931039563050
ORBCOMM FM118           
1 41183U 15081E   26205.39407857  .00000699  00000+0  18399-3 0  9996
2 41183  47.0027 185.8514 0003339 224.1880 135.8740 14.58914825563160
ORBCOMM FM112           
1 41184U 15081F   26205.05545425  .00000631  00000+0  16944-3 0  9994
2 41184  46.9990  95.8996 0003139   8.2762 351.8175 14.58949187564331
ORBCOMM FM113           
1 41185U 15081G   26205.10188823  .00000393  00000+0  11929-3 0  9999
2 41185  47.0008  96.0762 0001691 358.5656   1.5225 14.58889513564322
ORBCOMM FM108           
1 41187U 15081J   26205.47461309  .00000612  00000+0  16544-3 0  9996
2 41187  47.0062   5.8957 0002042 359.6807   0.4077 14.58920868565524
ORBCOMM FM117           
1 41188U 15081K   26205.50891370  .00000589  00000+0  16070-3 0  9993
2 41188  47.0024   4.3584 0002417   9.0566 351.0363 14.58907744565573
ORBCOMM FM116           
1 41189U 15081L   26205.42050603  .00000570  00000+0  15658-3 0  9992
2 41189  47.0023  94.5663 0001769 253.9294 106.1397 14.58916782564374
