GLOBALSTAR M069         
1 31573U 07020C   26225.96155763 -.00000065  00000+0  25203-3 0  9993
2 31573  52.0028  88.6012 0001080 281.4274 188.3940 12.23473480885873
GLOBALSTAR M072         
1 31574U 07020D   26225.51831384 -.00000058  00000+0  35297-3 0  9991
2 31574  51.9949 307.6176 0001547  80.2883  24.0060 11.91659206881813
GLOBALSTAR M066         
1 32265U 07048C   26225.53402003 -.00000086  00000+0  72381-4 0  9990
2 32265  51.9571 253.2880 0004956 161.8054   4.0254 12.30390723867281
GLOBALSTAR M079         
1 37188U 10054A   26225.39064170 -.00000077  00000+0  14683-3 0  9993
2 37188  52.0048 294.5376 0000787 120.1634 320.5092 12.62266940729774
GLOBALSTAR M074         
1 37189U 10054B   26225.48147332 -.00000071  00000+0  18015-3 0  9993
2 37189  52.0023 293.5182 0000461 131.7920 241.3510 12.62262359730392
GLOBALSTAR M076         
1 37190U 10054C   26225.52867566 -.00000074  00000+0  16618-3 0  9998
2 37190  52.0034 293.5827 0000695 135.6730 332.0376 12.62263104730110
GLOBALSTAR M077         
1 37191U 10054D   26225.93612310 -.00000079  00000+0 -22621-4 0  9997
2 37191  51.9975  32.7187 0002060 285.2063 243.3274 11.67547947727889
GLOBALSTAR M075         
1 37192U 10054E   26225.79247507 -.00000089  00000+0  82911-4 0  9992
2 37192  51.9973 334.7986 0000680 100.9534  67.2103 12.62268170729219
GLOBALSTAR M073         
1 37193U 10054F   26225.47555403 -.00000091  00000+0  73843-4 0  9992
2 37193  52.0041 249.9090 0000526 131.0146  34.4867 12.62267570731167
GLOBALSTAR M083         
1 37739U 11033A   26225.93505359 -.00000114  00000+0 -57095-4 0  9990
2 37739  51.9843 196.6583 0000427 104.7145 290.4397 12.62258320700242
GLOBALSTAR M088         
1 37740U 11033B   26225.83917694 -.00000078  00000+0  14272-3 0  9997
2 37740  52.0210 103.5171 0000672  64.2428  14.5730 12.62269832695777
GLOBALSTAR M091         
1 37741U 11033C   26225.85789882 -.00000097  00000+0  39694-4 0  9993
2 37741  51.9999  66.3404 0000956  75.1631  28.9481 12.62264499696561
GLOBALSTAR M085         
1 37742U 11033D   26225.76643339 -.00000110  00000+0 -37370-4 0  9996
2 37742  52.0144  17.9607 0001018  90.3002  17.9257 12.62264568697066
GLOBALSTAR M081         
1 37743U 11033E   26225.62829269 -.00000109  00000+0 -27539-4 0  9994
2 37743  51.9977  20.7512 0000870  98.7602 341.4808 12.62265736697198
GLOBALSTAR M089         
1 37744U 11033F   26225.76528229 -.00000099  00000+0  24694-4 0  9998
2 37744  51.9954 334.4837 0000490 128.7575  35.6304 12.62267742698058
GLOBALSTAR M084         
1 38040U 11080A   26225.90458424 -.00000118  00000+0 -80453-4 0  9993
2 38040  51.9986 201.5699 0000115 156.9143 220.4363 12.62269906676050
GLOBALSTAR M080         
1 38041U 11080B   26225.95899913 -.00000122  00000+0 -10229-3 0  9999
2 38041  52.0038 203.1446 0000642  45.1985 348.4111 12.62258168676181
GLOBALSTAR M082         
1 38042U 11080C   26225.81229508 -.00000113  00000+0 -52774-4 0  9994
2 38042  52.0066 159.0955 0000709  55.9251 322.0930 12.62274922676875
GLOBALSTAR M092         
1 38043U 11080D   26225.58360624 -.00000110  00000+0 -32910-4 0  9991
2 38043  52.0071 250.1946 0000278 117.8116  59.4953 12.62268365675299
GLOBALSTAR M090         
1 38044U 11080E   26225.23739115 -.00000112  00000+0 -48567-4 0  9996
2 38044  52.0114 154.8201 0000673  72.4686  90.3892 12.62269789676916
GLOBALSTAR M086         
1 38045U 11080F   26225.95231753 -.00000105  00000+0 -86981-5 0  9996
2 38045  51.9890 152.4781 0001080 149.2711 289.7367 12.62288492676955
GLOBALSTAR M097         
1 39072U 13005A   26225.72959921 -.00000093  00000+0  61846-4 0  9992
2 39072  52.0047  68.1699 0000919  80.6616 279.4355 12.62271315624171
GLOBALSTAR M093         
1 39073U 13005B   26225.86132096 -.00000097  00000+0  36980-4 0  9999
2 39073  52.0107  61.1389 0001086  89.1338 270.9654 12.62266666624147
GLOBALSTAR M094         
1 39074U 13005C   26225.70284042 -.00000102  00000+0  11823-4 0  9998
2 39074  51.9982 335.6827 0000909 108.4454 251.6512 12.62264251625733
GLOBALSTAR M096         
1 39075U 13005D   26225.71622643 -.00000114  00000+0 -58148-4 0  9998
2 39075  52.0088  24.4853 0001041  90.2255 269.8731 12.62275904624651
GLOBALSTAR M078         
1 39076U 13005E   26225.84793776 -.00000127  00000+0 -13091-3 0  9990
2 39076  51.9873 108.0183 0001490  47.9304 312.1689 12.62261361623294
GLOBALSTAR M095         
1 39077U 13005F   26225.95374700 -.00000080  00000+0  13023-3 0  9997
2 39077  52.0076 105.3810 0001120  65.8518 294.2466 12.62264236623168
GLOBALSTAR M087         
1 52888U 22064A   26225.25418206 -.00000099  00000+0  27446-4 0  9995
2 52888  51.9982 248.7175 0000519 104.2976 255.7948 12.62262555198346
