KUIPER-00008            
1 63724U 25088A   26152.20298489  .00004989  00000+0  68215-3 0  9997
2 63724  51.9002  78.7120 0000968  94.1437 265.9636 14.79984997 60412
KUIPER-00009            
1 63725U 25088B   26152.21758150  .00004198  00000+0  57835-3 0  9993
2 63725  51.9018  96.2662 0000608  47.9977 312.1037 14.80008599 60161
KUIPER-00010            
1 63726U 25088C   26152.17453158  .00000294  00000+0  67573-4 0  9993
2 63726  51.9035  73.9350 0000926  99.5960 260.5107 14.79940948 60092
KUIPER-00011            
1 63727U 25088D   26152.20022524  .00000130  00000+0  46113-4 0  9993
2 63727  51.9009  81.3765 0000815  77.6091 282.4963 14.79936323 60125
KUIPER-00012            
1 63728U 25088E   26151.98004056  .00001045  00000+0  16602-3 0  9993
2 63728  51.9024  67.2797 0000593 105.1943 254.9085 14.79934204 60256
KUIPER-00013            
1 63729U 25088F   26152.24887530  .00000880  00000+0  14447-3 0  9991
2 63729  51.8998  98.6066 0001014  55.8308 304.2750 14.79934157 59947
KUIPER-00014            
1 63730U 25088G   26152.21507779  .00002444  00000+0  34931-3 0  9992
2 63730  51.9016  98.7003 0000573  64.9106 295.1916 14.79950682 59751
KUIPER-00015            
1 63731U 25088H   26152.10303692  .00000530  00000+0  98584-4 0  9998
2 63731  51.8989 109.2694 0000731  63.2325 296.8712 14.79931056 60056
KUIPER-00016            
1 63732U 25088J   26152.07733681  .00002040  00000+0  29654-3 0  9999
2 63732  51.9005 101.8290 0000754  94.0672 266.0377 14.79923026 59691
KUIPER-00018            
1 63733U 25088K   26152.25695990  .00000673  00000+0  11728-3 0  9993
2 63733  51.9031  91.0549 0000804  89.4101 270.6953 14.79932956 59861
KUIPER-00019            
1 63734U 25088L   26152.08103877  .00003033  00000+0  42655-3 0  9999
2 63734  51.9002  90.6009 0000367 112.5009 247.5992 14.79942567 59859
KUIPER-00020            
1 63735U 25088M   26152.25427002  .00000460  00000+0  89406-4 0  9995
2 63735  51.9011  93.5752 0001386  34.1521 325.9530 14.79933228 60032
KUIPER-00021            
1 63736U 25088N   26152.22048883  .00002219  00000+0  31999-3 0  9996
2 63736  51.9008  93.6856 0001318  92.0966 268.0147 14.79940948 59863
KUIPER-00023            
1 63737U 25088P   26152.25156709 -.00000745  00000+0 -68631-4 0  9995
2 63737  51.9018  96.0352 0000628  81.5726 278.5308 14.79959162 60138
KUIPER-00024            
1 63738U 25088Q   26151.99493896  .00000096  00000+0  41554-4 0  9999
2 63738  51.9040  84.7599 0000700  60.3292 299.7740 14.79935262 60393
KUIPER-00025            
1 63739U 25088R   26152.02059845  .00001342  00000+0  20497-3 0  9994
2 63739  51.9032  92.1252 0000787  85.9318 274.1734 14.79946157 60150
KUIPER-00027            
1 63740U 25088S   26152.19480395  .00001750  00000+0  25863-3 0  9997
2 63740  51.9027  86.3331 0000763 102.6703 257.4344 14.79917259 59989
KUIPER-00028            
1 63741U 25088T   26152.23127969  .00002400  00000+0  34368-3 0  9991
2 63741  51.8999  83.6285 0000709  95.5787 264.5256 14.79929044 60435
KUIPER-00029            
1 63742U 25088U   26152.91670139 -.00024123  00000+0 -31518-2 0  9990
2 63742  51.9018  79.2758 0001802  95.0961  86.8453 14.79863057  5185
KUIPER-00030            
1 63743U 25088V   26152.24617002  .00002093  00000+0  30347-3 0  9997
2 63743  51.9012 101.0666 0000834  82.5257 277.5800 14.79927554 60005
KUIPER-00031            
1 63744U 25088W   26152.24900464  .00002063  00000+0  32494-3 0  9997
2 63744  51.9012  84.8994 0002091  66.9830 293.1352 14.76368400 59941
KUIPER-00032            
1 63745U 25088X   26151.93860698  .00018205  00000+0  46223-3 0  9997
2 63745  51.8674 340.8908 0004708  67.8502 292.2985 15.39703317 62360
KUIPER-00033            
1 63746U 25088Y   26152.26376604  .00001638  00000+0  24383-3 0  9999
2 63746  51.8980 116.0135 0000762  73.1689 286.9357 14.79934966 59995
KUIPER-00034            
1 63747U 25088Z   26152.23666380  .00002342  00000+0  33604-3 0  9999
2 63747  51.9025  78.6625 0000734  98.8247 261.2799 14.79948319 60194
KUIPER-00035            
1 63748U 25088AA  26152.07464976  .00001494  00000+0  22491-3 0  9998
2 63748  51.9004 104.3596 0000780  57.8745 302.2293 14.79937700 59875
KUIPER-00037            
1 63749U 25088AB  26152.27009345 -.00009223  00000+0 -11821-2 0  9990
2 63749  51.8967 102.3525 0000486  99.4710 260.6307 14.79948742 60705
KUIPER-00038            
1 63750U 25088AC  26152.19213231  .00000569  00000+0  10371-3 0  9996
2 63750  51.9004  88.8561 0001108  82.0779 278.0309 14.79934257 59881
KUIPER-00039            
1 64500U 25134A   26152.43480571 -.00002113  00000+0 -24824-3 0  9999
2 64500  51.8997 222.7838 0000985 127.9203 232.1849 14.79941434 52477
KUIPER-00040            
1 64501U 25134B   26152.52533413  .00000877  00000+0  14401-3 0  9997
2 64501  51.8974 232.4723 0000135 196.4677 163.6281 14.79932787 52342
KUIPER-00041            
1 64502U 25134C   26151.54344297  .00003128  00000+0  43899-3 0  9994
2 64502  51.8985 239.1991 0000561 106.1115 253.9909 14.79939783 52167
KUIPER-00042            
1 64503U 25134D   26152.52801477  .00000955  00000+0  15430-3 0  9997
2 64503  51.8985 229.8219 0000481  66.9336 293.1677 14.79933362 52385
KUIPER-00043            
1 64504U 25134E   26151.59067963  .00002913  00000+0  41085-3 0  9999
2 64504  51.9005 226.4557 0000301 101.8538 258.2458 14.79940491 52359
KUIPER-00044            
1 64505U 25134F   26152.52261486  .00002416  00000+0  34571-3 0  9990
2 64505  51.8978 234.8488 0000619  94.8749 265.2284 14.79941415 52319
KUIPER-00046            
1 64506U 25134G   26152.22142551  .00002499  00000+0  35661-3 0  9991
2 64506  51.8972 233.6606 0000481 101.8356 258.2661 14.79940816 52307
KUIPER-00047            
1 64507U 25134H   26152.14979159 -.00001173  00000+0 -12487-3 0  9996
2 64507  51.8974 206.4964 0000453  89.4016 270.6998 14.79930812 52674
KUIPER-00048            
1 64508U 25134J   26152.45368516  .00000417  00000+0  83672-4 0  9993
2 64508  51.8972 205.1670 0000306  84.0021 276.0976 14.79935137 52724
KUIPER-00049            
1 64509U 25134K   26152.20383937  .00001228  00000+0  18997-3 0  9999
2 64509  51.8985 218.7335 0000430  81.6649 278.4363 14.79937577 52517
KUIPER-00050            
1 64510U 25134L   26152.42530577  .00002953  00000+0  41613-3 0  9996
2 64510  51.8985 200.2768 0000339  69.4475 290.6524 14.79940329 52798
KUIPER-00051            
1 64511U 25134M   26152.00002315  .00024683  00000+0  32624-2 0  9990
2 64511  51.8995 218.3269 0001025  47.8855  73.1841 14.79834263  5255
KUIPER-00053            
1 64513U 25134P   26152.65691410  .00002002  00000+0  28013-3 0  9992
2 64513  51.8995 211.1948 0001526 136.5475 223.5609 14.81676897 52651
KUIPER-00054            
1 64514U 25134Q   26152.18091921  .00003193  00000+0  44752-3 0  9992
2 64514  51.8970 208.8575 0000400  19.1294 340.9683 14.79943497 52644
KUIPER-00055            
1 64515U 25134R   26152.46860789  .00012902  00000+0  17155-2 0  9994
2 64515  51.8992 160.2053 0001401  75.3125 284.7993 14.79998489 53359
KUIPER-00056            
1 64516U 25134S   26152.47935174 -.00002748  00000+0 -33154-3 0  9994
2 64516  51.9013 212.6153 0000348  58.1839 301.9158 14.79937053 52622
KUIPER-00057            
1 64517U 25134T   26152.20114999  .00003521  00000+0  49050-3 0  9990
2 64517  51.8983 221.2869 0000443  79.2243 280.8769 14.79941074 52471
KUIPER-00058            
1 64518U 25134U   26152.17277438  .00001821  00000+0  26775-3 0  9995
2 64518  51.8995 216.3825 0000475  64.2008 295.9003 14.79936974 52549
KUIPER-00059            
1 64519U 25134V   26152.17817009  .00000091  00000+0  40950-4 0  9990
2 64519  51.8957 211.3981 0000611  88.5571 271.5462 14.79931367 52610
KUIPER-00060            
1 64520U 25134W   26152.14442153  .00002363  00000+0  33891-3 0  9992
2 64520  51.9006 211.6027 0000455  82.0568 278.0446 14.79931118 52598
KUIPER-00061            
1 64521U 25134X   26152.16979588  .00003637  00000+0  50586-3 0  9997
2 64521  51.8992 218.9459 0000143 336.6446  23.4510 14.79927463 52499
KUIPER-00062            
1 64522U 25134Y   26152.16738803  .00001560  00000+0  23354-3 0  9997
2 64522  51.8951 221.4548 0000610  43.1750 316.9260 14.79936117 52476
KUIPER-00063            
1 64523U 25134Z   26152.42941924  .00000390  00000+0  80192-4 0  9991
2 64523  51.9005 227.8243 0000598  85.7199 274.3832 14.79928497 52401
KUIPER-00064            
1 64524U 25134AA  26152.43210804  .00000265  00000+0  63772-4 0  9995
2 64524  51.9009 225.2362 0000807  95.7017 264.4037 14.79932520 52446
KUIPER-00065            
1 64525U 25134AB  26152.42672940  .00001154  00000+0  18030-3 0  9992
2 64525  51.9021 230.4243 0000584  79.9554 280.1474 14.79939480 52351
KUIPER-00066            
1 64526U 25134AC  26152.46035380  .00002189  00000+0  31594-3 0  9997
2 64526  51.9003 167.5615 0000562  11.2917 348.8058 14.79940174 53255
KUIPER-00069            
1 64816U 25151A   26152.51864503  .00000330  00000+0  72274-4 0  9998
2 64816  51.8996 269.9436 0000578  72.4364 287.6661 14.79931103 49175
KUIPER-00070            
1 64817U 25151B   26152.59242246  .00004847  00000+0  66230-3 0  9992
2 64817  51.8998 294.5322 0000588 151.0540 209.0455 14.80062371 48843
KUIPER-00071            
1 64818U 25151C   26152.59566074  .00001041  00000+0  16560-3 0  9995
2 64818  51.9025 292.0578 0000814 126.0530 234.0508 14.79933528 47693
KUIPER-00072            
1 64819U 25151D   26152.65098910  .00005006  00000+0  68499-3 0  9995
2 64819  51.8976 271.7707 0000490 104.0381 256.0636 14.79946414 47982
KUIPER-00073            
1 64820U 25151E   26152.62949991  .00004997  00000+0  68433-3 0  9994
2 64820  51.9008 291.8945 0000138  68.1413 291.9564 14.79913293 48880
KUIPER-00074            
1 64821U 25151F   26152.91670139  .00069251  00000+0  31746-3 0  9993
2 64821  51.8883 224.3299 0008793 334.7200 171.0580 15.82986800  1801
KUIPER-00075            
1 64822U 25151G   26152.46289760  .00041406  00000+0  89503-3 0  9996
2 64822  51.8652 173.2798 0002640 220.7409 139.3384 15.44085714 49333
KUIPER-00076            
1 64823U 25151H   26152.57268350  .00002579  00000+0  36715-3 0  9996
2 64823  51.9013 282.1647 0000540 139.7747 220.3255 14.79938373 47836
KUIPER-00077            
1 64824U 25151J   26152.56729303  .00003393  00000+0  47387-3 0  9998
2 64824  51.9007 287.2030 0000474  91.4523 268.6494 14.79934020 47761
KUIPER-00078            
1 64825U 25151K   26152.67128155  .00001471  00000+0  22197-3 0  9996
2 64825  51.8996 284.2235 0000551 109.7822 250.3200 14.79935368 47818
KUIPER-00079            
1 64826U 25151L   26152.56459123  .00001314  00000+0  20126-3 0  9993
2 64826  51.9004 289.6623 0000651  99.1106 260.9930 14.79934551 48921
KUIPER-00080            
1 64827U 25151M   26152.59834924  .00001815  00000+0  26703-3 0  9996
2 64827  51.8995 289.5213 0000578 105.5303 254.5724 14.79928737 47730
KUIPER-00082            
1 64828U 25151N   26152.64559612  .00002712  00000+0  38457-3 0  9997
2 64828  51.9014 276.8582 0000668 115.7394 244.3638 14.79928935 47916
KUIPER-00083            
1 64829U 25151P   26152.84010464  .00000568  00000+0  10349-3 0  9994
2 64829  51.8991 283.4830 0000514 123.5266 236.5746 14.79932172 49020
KUIPER-00084            
1 64830U 25151Q   26152.69424291  .00002047  00000+0  29735-3 0  9999
2 64830  51.9000 294.1164 0000557  68.4066 291.6956 14.79948017 47674
KUIPER-00085            
1 64831U 25151R   26152.54431944  .00001816  00000+0  26712-3 0  9992
2 64831  51.9013 277.3462 0000512  92.3448 267.7573 14.79936842 47890
KUIPER-00086            
1 64832U 25151S   26152.60105676  .00001370  00000+0  20861-3 0  9994
2 64832  51.9004 287.0500 0000643 101.7524 258.3510 14.79934748 47763
KUIPER-00087            
1 64833U 25151T   26152.75498994  .00001087  00000+0  17153-3 0  9994
2 64833  51.8981 268.8385 0000535  85.1485 274.9538 14.79934297 48029
KUIPER-00089            
1 64834U 25151U   26152.54700780  .00002272  00000+0  32690-3 0  9991
2 64834  51.9001 274.7742 0000564  94.6742 265.4285 14.79939301 47934
KUIPER-00090            
1 64835U 25151V   26152.62262689  .00002430  00000+0  34759-3 0  9996
2 64835  51.8968 266.9557 0000382  86.9252 273.1754 14.79938262 48046
KUIPER-00091            
1 64836U 25151W   26152.54968983  .00004831  00000+0  66215-3 0  9997
2 64836  51.9018 272.2777 0000640  57.9204 302.1821 14.79936896 47969
KUIPER-00092            
1 64837U 25151X   26152.54161404 -.00000931  00000+0 -93112-4 0  9997
2 64837  51.9008 279.8071 0000457  93.7441 266.3574 14.79943621 49070
KUIPER-00093            
1 64838U 25151Y   26152.60644008  .00002696  00000+0  38249-3 0  9998
2 64838  51.9006 281.9964 0000866 132.9799 227.1236 14.79931237 47832
KUIPER-00094            
1 64839U 25151Z   26152.91670139 -.00034247  00000+0 -39247-2 0  9994
2 64839  51.9016 235.8665 0003919 208.5705  25.0854 14.85459352  5744
KUIPER-00081            
1 65132U 25171A   26152.39143611  .00002438  00000+0  34859-3 0  9995
2 65132  51.8984 137.9439 0000593  59.5924 300.5097 14.79937270 45430
KUIPER-00088            
1 65133U 25171B   26152.44007786  .00002154  00000+0  31139-3 0  9997
2 65133  51.8979 155.2329 0000488  34.4138 325.6856 14.79943989 45196
KUIPER-00095            
1 65134U 25171C   26152.39411539 -.00000057  00000+0  21589-4 0  9997
2 65134  51.8974 135.4896 0000511  78.3151 281.7868 14.79921760 45468
KUIPER-00096            
1 65135U 25171D   26152.41441689  .00002246  00000+0  32348-3 0  9995
2 65135  51.8974 147.8446 0000517  57.5809 302.5204 14.79938096 45299
KUIPER-00097            
1 65136U 25171E   26152.41173196  .00001181  00000+0  18397-3 0  9996
2 65136  51.9000 150.5033 0000737  31.1387 328.9619 14.79929772 45245
KUIPER-00098            
1 65137U 25171F   26152.40901928  .00000897  00000+0  14666-3 0  9996
2 65137  51.8991 152.8871 0000669  43.6409 316.4606 14.79932740 44567
KUIPER-00099            
1 65138U 25171G   26152.38604204  .00002482  00000+0  35444-3 0  9990
2 65138  51.8999 142.9849 0000890  38.2634 321.8392 14.79943557 45355
KUIPER-00100            
1 65139U 25171H   26152.35497544  .00001996  00000+0  29074-3 0  9996
2 65139  51.8995 140.5952 0000377  65.8348 294.2654 14.79929440 45381
KUIPER-00102            
1 65140U 25171J   26152.41979947  .00000115  00000+0  44144-4 0  9995
2 65140  51.8956 142.8092 0000556  67.1792 292.9229 14.79928404 45356
KUIPER-00103            
1 65141U 25171K   26152.43469279  .00002195  00000+0  31679-3 0  9998
2 65141  51.8975 160.2387 0000401  52.0163 308.0836 14.79939289 45113
KUIPER-00104            
1 65142U 25171L   26152.38064295  .00001281  00000+0  19703-3 0  9991
2 65142  51.8974 147.9658 0000869  42.4406 317.6623 14.79932426 45281
KUIPER-00105            
1 65143U 25171M   26152.40630345  .00002156  00000+0  31187-3 0  9992
2 65143  51.8975 155.4588 0000660  94.4304 265.6734 14.79914093 45186
KUIPER-00106            
1 65144U 25171N   26152.91670139  .00006275  00000+0  68902-3 0  9995
2 65144  51.8972 132.2716 0006786  28.3736 128.6394 14.88756633  4910
KUIPER-00107            
1 65145U 25171P   26151.95250324  .00001949  00000+0  28464-3 0  9991
2 65145  51.8988 139.9068 0000574  63.7806 296.3215 14.79927690 45364
KUIPER-00108            
1 65146U 25171Q   26152.37795874  .00000636  00000+0  11239-3 0  9997
2 65146  51.8998 150.5547 0000309  68.1433 291.9563 14.79931119 45254
KUIPER-00109            
1 65147U 25171R   26152.01190076  .00002661  00000+0  37799-3 0  9991
2 65147  51.8998 147.1158 0000427  82.3228 277.7783 14.79930292 45264
KUIPER-00110            
1 65148U 25171S   26152.43739726  .00000841  00000+0  13929-3 0  9996
2 65148  51.8997 157.8046 0000810  57.9351 302.1690 14.79929675 45149
KUIPER-00111            
1 65149U 25171T   26152.39822514  .00002083  00000+0  30221-3 0  9994
2 65149  51.8948 162.8649 0000503  85.0681 275.0339 14.79926898 45072
KUIPER-00112            
1 65150U 25171U   26151.56970583 -.00073056  00000+0 -96833-2 0  9994
2 65150  51.9006 149.0866 0001723  16.9020 343.2000 14.79823345 45192
KUIPER-00114            
1 65151U 25171V   26152.46307399  .00002133  00000+0  30866-3 0  9995
2 65151  51.8978 165.1525 0000424  67.9993 292.1015 14.79934655 45042
KUIPER-00115            
1 65152U 25171W   26152.40359051  .00002301  00000+0  33067-3 0  9995
2 65152  51.8985 157.9112 0000542  91.5104 268.5921 14.79931410 45140
KUIPER-00116            
1 65153U 25171X   26152.02683090  .00002587  00000+0  36824-3 0  9997
2 65153  51.8982 164.6134 0000376  63.9612 296.1389 14.79937387 45019
KUIPER-00118            
1 65154U 25171Y   26151.34881893  .00003072  00000+0  43175-3 0  9990
2 65154  51.8975 170.0657 0000523  93.7993 266.3029 14.79935577 44883
KUIPER-00119            
1 65155U 25171Z   26152.91670139  .00031253  00000+0  41063-2 0  9999
2 65155  51.8986 150.7215 0001271 112.0939 254.3641 14.79965963  5692
KUIPER-00120            
1 65762U 25217A   26152.13936264  .00001283  00000+0  19728-3 0  9996
2 65762  51.9009  44.0447 0000581 112.8272 247.2752 14.79937492 37095
KUIPER-00132            
1 65763U 25217B   26152.66030416  .00045071  00000+0  10378-2 0  9993
2 65763  51.8554 315.0183 0006276 262.7945  97.2330 15.42149265 38378
KUIPER-00133            
1 65764U 25217C   26152.10560268  .00002328  00000+0  33423-3 0  9991
2 65764  51.9023  44.2831 0000678 104.9308 255.1730 14.79943022 37091
KUIPER-00139            
1 65765U 25217D   26152.91670139 -.00008511  00000+0 -76690-3 0  9995
2 65765  51.8933   8.3060 0008492 231.1760 249.0652 14.94001883  4651
KUIPER-00142            
1 65766U 25217E   26152.02317635  .00001645  00000+0  24470-3 0  9995
2 65766  51.9016  27.0854 0000525 104.7423 255.3597 14.79930313 37324
KUIPER-00145            
1 65767U 25217F   26151.95296117  .00001682  00000+0  24962-3 0  9995
2 65767  51.9011  29.9146 0000690 108.7114 251.3923 14.79934702 37278
KUIPER-00147            
1 65768U 25217G   26151.84896374  .00001056  00000+0  16755-3 0  9991
2 65768  51.9007  32.8620 0000977  74.4249 285.6821 14.79933051 37228
KUIPER-00148            
1 65769U 25217H   26152.02831316  .00003924  00000+0  59646-3 0  9990
2 65769  51.9059  13.4273 0001103 119.4669 240.6402 14.75912348 37513
KUIPER-00150            
1 65770U 25217J   26152.10829901  .00003654  00000+0  50801-3 0  9992
2 65770  51.9020  41.7380 0000614  95.6104 264.4928 14.79939392 37127
KUIPER-00151            
1 65771U 25217K   26152.11639272  .00000935  00000+0  15166-3 0  9998
2 65771  51.9020  34.1992 0000816 101.7626 258.3428 14.79935215 37234
KUIPER-00152            
1 65772U 25217L   26152.02857247  .00001956  00000+0  28552-3 0  9990
2 65772  51.9001  22.0739 0000895 115.9493 244.1562 14.79939187 37396
KUIPER-00153            
1 65773U 25217M   26152.03398979  .00005103  00000+0  69679-3 0  9997
2 65773  51.9035  17.1186 0000997 121.1222 238.9839 14.80000069 37463
KUIPER-00155            
1 65774U 25217N   26151.99610260  .00003302  00000+0  46187-3 0  9990
2 65774  51.9023 349.7494 0000625 133.3344 226.7670 14.79942839 37843
KUIPER-00156            
1 65775U 25217P   26152.06773648  .00004619  00000+0  63419-3 0  9999
2 65775  51.9039  16.9497 0000592 121.9927 238.1094 14.79948071 37469
KUIPER-00163            
1 65777U 25217R   26152.91670139  .00129537  00000+0  56067-3 0  9994
2 65777  51.8927 345.0514 0003035 243.5823 260.2469 15.84001594  3971
KUIPER-00165            
1 65778U 25217S   26151.85436153  .00000951  00000+0  15367-3 0  9999
2 65778  51.9018  27.8478 0000915 110.8517 249.2543 14.79934492 37295
KUIPER-00166            
1 65779U 25217T   26152.03666953  .00000819  00000+0  13642-3 0  9991
2 65779  51.9024  14.5815 0000794 138.7912 221.3110 14.79932360 37499
KUIPER-00167            
1 65780U 25217U   26152.11366424  .00013784  00000+0  18314-2 0  9997
2 65780  51.8969  36.6296 0000678 120.1982 239.9047 14.79978759 37192
KUIPER-00168            
1 65781U 25217V   26152.06503579  .00000860  00000+0  14182-3 0  9997
2 65781  51.9009  19.4200 0000613  95.9312 264.1720 14.79932241 37439
KUIPER-00169            
1 65782U 25217W   26152.05964798  .00001132  00000+0  17743-3 0  9990
2 65782  51.9012  24.4516 0001064 131.8640 228.2413 14.79935336 37365
KUIPER-00170            
1 65783U 25217X   26152.05407339 -.00003648  00000+0 -44927-3 0  9994
2 65783  51.8999  29.4411 0000434 113.7062 246.3946 14.79982256 37292
KUIPER-00172            
1 65785U 25217Z   26152.91670139  .00002211  00000+0  31939-3 0  9993
2 65785  51.8997   8.1576 0002050  13.0616 344.2955 14.79867860  5444
KUIPER-00173            
1 65786U 25217AA  26152.02588414  .00001842  00000+0  27049-3 0  9996
2 65786  51.9026  24.6016 0001019  84.4264 275.6815 14.79937271 37357
KUIPER-00174            
1 65787U 25217AB  26152.03126428  .00005283  00000+0  72114-3 0  9997
2 65787  51.9039  19.6145 0000908 113.3413 246.7645 14.79954775 37429
KUIPER-00176            
1 65788U 25217AC  26152.08262358  .00000280  00000+0  65733-4 0  9998
2 65788  51.9022  34.3352 0000928 109.7381 250.3682 14.79937010 37224
KUIPER-00101            
1 65947U 25228A   26152.70246157  .00001984  00000+0  28915-3 0  9997
2 65947  51.8996 349.0578 0000592 104.8896 255.2132 14.79935707 35672
KUIPER-00113            
1 65948U 25228B   26151.93126706  .00000819  00000+0  13639-3 0  9992
2 65948  51.8982 347.4859 0000548  97.6566 262.4458 14.79931436 35627
KUIPER-00117            
1 65949U 25228C   26152.70515964  .00001946  00000+0  28420-3 0  9993
2 65949  51.8986 346.5659 0000707 106.3358 253.7682 14.79938661 35702
KUIPER-00121            
1 65950U 25228D   26152.87937933  .00001992  00000+0  29024-3 0  9999
2 65950  51.8992 340.8014 0000830 111.2393 248.8659 14.79936413 35807
KUIPER-00122            
1 65951U 25228E   26151.85563834  .00000252  00000+0  62044-4 0  9990
2 65951  51.8995 355.3045 0000711 108.3787 251.7253 14.79928943 35518
KUIPER-00123            
1 65952U 25228F   26152.69976757  .00002647  00000+0  37609-3 0  9994
2 65952  51.9006 351.5822 0000604  99.9514 260.1517 14.79937024 35638
KUIPER-00124            
1 65953U 25228G   26152.70785620  .00003486  00000+0  48595-3 0  9992
2 65953  51.8994 344.0387 0000885 120.1910 239.9140 14.79942530 35741
KUIPER-00125            
1 65954U 25228H   26152.65651165  .00001971  00000+0  28743-3 0  9993
2 65954  51.8984 329.3014 0000603 118.2823 241.8200 14.79935081 35947
KUIPER-00126            
1 65955U 25228J   26151.85834373  .00003200  00000+0  44850-3 0  9993
2 65955  51.9006 352.8227 0000735 110.1785 249.9256 14.79939819 35544
KUIPER-00127            
1 65956U 25228K   26151.98460770  .00002951  00000+0  41582-3 0  9995
2 65956  51.9005 344.7295 0000918 122.6983 237.4069 14.79940301 35676
KUIPER-00128            
1 65957U 25228L   26152.71055925  .00000917  00000+0  14923-3 0  9999
2 65957  51.8991 341.5828 0000721 134.7262 225.3759 14.79934440 35773
KUIPER-00129            
1 65958U 25228M   26152.68218626  .00001667  00000+0  24758-3 0  9995
2 65958  51.9020 336.6905 0000507 120.1940 239.9073 14.79936014 35840
KUIPER-00130            
1 65959U 25228N   26152.51066940  .00002333  00000+0  33493-3 0  9995
2 65959  51.9031 339.9742 0000660 107.0835 253.0200 14.79935138 26075
KUIPER-00134            
1 65960U 25228P   26152.63388934  .00018463  00000+0  45037-3 0  9998
2 65960  51.8715 272.9658 0005726 255.4123 104.6231 15.40910911 36722
KUIPER-00135            
1 65961U 25228Q   26152.67950254  .00004678  00000+0  64225-3 0  9996
2 65961  51.9036 339.2848 0000932 104.2129 255.8937 14.79931590 35806
KUIPER-00136            
1 65962U 25228R   26151.97308768  .00004649  00000+0  63867-3 0  9995
2 65962  51.9003 339.8686 0000390  91.0181 269.0826 14.79912977 35730
KUIPER-00137            
1 65963U 25228S   26152.65112089  .00001952  00000+0  28497-3 0  9995
2 65963  51.9025 334.3531 0000598 140.4504 219.6502 14.79937610 35870
KUIPER-00138            
1 65964U 25228T   26152.68757600  .00002273  00000+0  32705-3 0  9997
2 65964  51.8973 331.6405 0000503  90.3358 269.7662 14.79938064 35910
KUIPER-00140            
1 65965U 25228U   26152.68488810  .00001935  00000+0  28276-3 0  9994
2 65965  51.8999 334.2413 0000531  81.4850 278.6172 14.79935690 35878
KUIPER-00141            
1 65966U 25228V   26152.69001086  .00004665  00000+0  63905-3 0  9993
2 65966  51.9030 329.2558 0000678 129.8985 230.2037 14.80026132 35944
KUIPER-00146            
1 65967U 25228W   26152.65382515  .00002135  00000+0  30895-3 0  9991
2 65967  51.9028 331.9272 0000744 116.3017 243.8022 14.79937140 35904
KUIPER-00149            
1 65968U 25228X   26152.69297368  .00001066  00000+0  16880-3 0  9997
2 65968  51.9007 326.6479 0000605 117.0359 243.0665 14.79933388 35988
KUIPER-00154            
1 65969U 25228Y   26152.66190457  .00001983  00000+0  28899-3 0  9997
2 65969  51.8993 324.2794 0000601 105.8073 254.2956 14.79936679 36018
KUIPER-00157            
1 65970U 25228Z   26152.65922208  .00004401  00000+0  60592-3 0  9999
2 65970  51.9021 326.9211 0000636 108.3067 251.7965 14.79935782 35975
KUIPER-00144            
1 67133U 25301A   26152.09303096  .00002990  00000+0  45617-3 0  9992
2 67133  51.9019  46.7021 0001225  67.9631 292.1460 14.76453976 26227
KUIPER-00164            
1 67134U 25301B   26152.11513073  .00002895  00000+0  44185-3 0  9997
2 67134  51.9035  58.0783 0001051 153.4192 206.6823 14.76528744 26248
KUIPER-00175            
1 67135U 25301C   26152.09233666  .00005451  00000+0  55222-3 0  9997
2 67135  51.8965  44.7319 0001069  64.0389 296.0689 14.92264669 26324
KUIPER-00179            
1 67136U 25301D   26151.95706387  .00001902  00000+0  27840-3 0  9999
2 67136  51.8994  57.3887 0000657  52.3626 307.7396 14.79935970 26244
KUIPER-00181            
1 67137U 25301E   26152.14617312 -.00000063  00000+0  20825-4 0  9996
2 67137  51.9013  69.0705 0001672  98.0644 262.0508 14.79931491 26075
KUIPER-00183            
1 67138U 25301F   26152.13372400  .00004979  00000+0  50168-3 0  9993
2 67138  51.8956  45.3782 0009170 349.7065  10.3714 14.92646601 26419
KUIPER-00184            
1 67139U 25301G   26152.91670139  .00018638  00000+0  25742-2 0  9996
2 67139  51.8994  48.1211 0001187  15.2264 224.3602 14.78131896  5044
KUIPER-00186            
1 67140U 25301H   26152.17993187  .00002605  00000+0  37058-3 0  9998
2 67140  51.9020  68.9301 0001267 142.8881 217.2170 14.79930827 25920
KUIPER-00187            
1 67141U 25301J   26152.17724542  .00001464  00000+0  22100-3 0  9990
2 67141  51.9042  71.4661 0000708  82.1488 277.9555 14.79936580 25888
KUIPER-00188            
1 67142U 25301K   26152.11088399  .00005037  00000+0  68837-3 0  9995
2 67142  51.9034  39.3466 0000382 172.5027 187.5941 14.79985014 26328
KUIPER-00191            
1 67143U 25301L   26152.15157453 -.00008076  00000+0 -10322-2 0  9991
2 67143  51.9047  64.0758 0000701 156.3148 203.7847 14.79908165 26015
KUIPER-00196            
1 67144U 25301M   26152.91670139 -.00022843  00000+0 -12907-2 0  9996
2 67144  51.8961  18.5332 0003765 301.7654 124.0688 15.12282741  4458
KUIPER-00204            
1 67145U 25301N   26152.91670139 -.00024976  00000+0 -30102-2 0  9993
2 67145  51.9000  33.3060 0002300   3.3461  72.2344 14.83235537  4318
KUIPER-00210            
1 67146U 25301P   26152.18532761  .00001104  00000+0  17376-3 0  9996
2 67146  51.9006  63.8841 0000669  97.3121 262.7917 14.79936841 26162
KUIPER-00221            
1 67147U 25301Q   26152.14347539  .00002721  00000+0  38568-3 0  9992
2 67147  51.9003  71.5860 0000889  99.8231 260.2832 14.79939299 25887
KUIPER-00232            
1 67148U 25301R   26151.92331432  .00000875  00000+0  14373-3 0  9999
2 67148  51.9015  57.5931 0001538 116.5469 243.5651 14.79949277 26056
KUIPER-00241            
1 67149U 25301S   26152.14886984  .00001502  00000+0  22592-3 0  9992
2 67149  51.9046  66.5832 0000706  60.1604 299.9429 14.79938369 26285
KUIPER-00245            
1 67150U 25301T   26152.07323320  .00004970  00000+0  68062-3 0  9990
2 67150  51.9031  74.4260 0000821  97.4206 262.6850 14.79922480 25835
KUIPER-00246            
1 67151U 25301U   26152.12318866  .00002009  00000+0  29246-3 0  9998
2 67151  51.9002  59.1624 0001092 132.7098 227.3956 14.79937109 26077
KUIPER-00247            
1 67152U 25301V   26152.13395088 -.00008112  00000+0 -10361-2 0  9991
2 67152  51.8964  49.1100 0000819  98.8808 261.2248 14.79941523 26198
KUIPER-00248            
1 67153U 25301W   26152.91670139 -.00018485  00000+0 -26004-2 0  9996
2 67153  51.8988  27.6178 0001734  28.4774  61.0360 14.76595920  5774
KUIPER-00249            
1 67154U 25301X   26152.13667343  .00002586  00000+0  36805-3 0  9998
2 67154  51.9000  46.6411 0000892  91.9053 268.2012 14.79941859 26228
KUIPER-00250            
1 67155U 25301Y   26152.15422242  .00003448  00000+0  48107-3 0  9994
2 67155  51.9011  61.5188 0001114 176.9046 183.1924 14.79938131 26059
KUIPER-00251            
1 67156U 25301Z   26151.89762848  .00003489  00000+0  48633-3 0  9993
2 67156  51.9012  50.2135 0000911 159.9777 200.1221 14.79937158 26344
KUIPER-00252            
1 67157U 25301AA  26152.16500936  .00013096  00000+0  17415-2 0  9991
2 67157  51.9019  51.4841 0000845 106.8482 253.2573 14.79980704 26163
KUIPER-00261            
1 67158U 25301AB  26152.18802138  .00000439  00000+0  86592-4 0  9994
2 67158  51.9037  61.4281 0000675  97.9549 262.1490 14.79929403 26029
KUIPER-00265            
1 67159U 25301AC  26152.20561627  .00001252  00000+0  19319-3 0  9999
2 67159  51.9035  76.3253 0001317  73.6238 286.4869 14.79935370 25851
KUIPER-00159            
1 67764U 26030A   26152.44502466  .00025697  00000+0  68695-3 0  9993
2 67764  51.8833 174.5184 0006352 349.4258  10.6595 15.37887579 17971
KUIPER-00160            
1 67765U 26030B   26152.05840326  .00028872  00000+0  76345-3 0  9990
2 67765  51.8796 176.3919 0007358   3.3043 356.7991 15.38154128 17917
KUIPER-00177            
1 67766U 26030C   26152.15250190  .00003012  00000+0  42382-3 0  9999
2 67766  51.8988 204.0481 0000459 100.3620 259.7394 14.79938546 17533
KUIPER-00178            
1 67767U 26030D   26152.14715692  .00002100  00000+0  32930-3 0  9997
2 67767  51.8988 203.6549 0000338  52.8178 307.2813 14.76472357 17545
KUIPER-00180            
1 67768U 26030E   26152.12413185  .00001043  00000+0  16581-3 0  9997
2 67768  51.8951 199.1689 0000460  65.4420 294.6591 14.79934122 17601
KUIPER-00197            
1 67769U 26030F   26152.91670139  .00032204  00000+0  33252-2 0  9995
2 67769  51.8994 175.6538 0004507  30.9932 134.2661 14.89873887  5685
KUIPER-00198            
1 67770U 26030G   26151.55821494 -.00000076  00000+0  18976-4 0  9999
2 67770  51.8970 194.1688 0000387  81.7249 278.3757 14.79927067 17622
KUIPER-00199            
1 67771U 26030H   26152.42806700  .00022010  00000+0  63234-3 0  9997
2 67771  51.8788 175.8400 0011633   2.5920 357.5124 15.35693966 17956
KUIPER-00200            
1 67772U 26030J   26152.09176277  .00011212  00000+0  54480-3 0  9995
2 67772  51.8852 182.3500 0003453  37.0458 323.0759 15.18890508 17834
KUIPER-00203            
1 67773U 26030K   26151.53923879  .00000702  00000+0  12112-3 0  9990
2 67773  51.9053 211.7809 0000526  81.0175 279.0847 14.79905792 17376
KUIPER-00205            
1 67774U 26030L   26152.91670139  .00035296  00000+0  18749-2 0  9999
2 67774  51.8904 172.7645 0003570 323.1218 264.0347 15.14977502  1522
KUIPER-00208            
1 67775U 26030M   26152.15025841 -.00004037  00000+0 -54445-3 0  9995
2 67775  51.8980 200.4675 0006885 345.1964  14.8794 14.76434963 17589
KUIPER-00209            
1 67776U 26030N   26152.42800854  .00002847  00000+0  40227-3 0  9999
2 67776  51.8978 197.9122 0000106 238.7050 121.3902 14.79927927 17649
KUIPER-00213            
1 67777U 26030P   26152.66706408  .00002429  00000+0  34747-3 0  9992
2 67777  51.8939 194.3524 0000924  64.0395 296.0663 14.79938558 17718
KUIPER-00214            
1 67778U 26030Q   26152.09577023  .00003193  00000+0  44756-3 0  9999
2 67778  51.8982 194.3701 0000403  80.1910 279.9098 14.79934978 17666
KUIPER-00215            
1 67779U 26030R   26152.91670139  .00032813  00000+0  31927-2 0  9999
2 67779  51.8988 177.4008 0010134  13.2647 139.0828 14.92216818  5914
KUIPER-00218            
1 67780U 26030S   26152.47257527  .00002088  00000+0  32815-3 0  9993
2 67780  51.8963 194.8588 0000471  89.9550 270.1464 14.76415461 17699
KUIPER-00220            
1 67781U 26030T   26152.91670139  .00043396  00000+0  20743-2 0  9994
2 67781  51.8876 174.2317 0008457  11.3284 149.4708 15.18558359  5664
KUIPER-00222            
1 67782U 26030U   26152.46989005  .00000917  00000+0  14927-3 0  9990
2 67782  51.8966 190.2869 0000317  10.0495 350.0474 14.79933154 17751
KUIPER-00223            
1 67783U 26030V   26152.91670139  .00035547  00000+0  50513-2 0  9993
2 67783  51.8985 180.5398 0000959  83.0302 303.3408 14.76577363  4332
KUIPER-00225            
1 67784U 26030W   26152.48960342  .00001825  00000+0  29054-3 0  9993
2 67784  51.8965 187.4849 0003191  13.3573 346.7472 14.76449530 17795
KUIPER-00226            
1 67785U 26030X   26152.07001013  .00007918  00000+0  34038-3 0  9997
2 67785  51.8834 183.0339 0018411   6.2801 353.8407 15.23420702 17827
KUIPER-00259            
1 67786U 26030Y   26152.11341932  .00002161  00000+0  33881-3 0  9990
2 67786  51.8967 189.0015 0001261 113.6613 246.4480 14.76374797 17749
KUIPER-00260            
1 67787U 26030Z   26151.36147199  .00002657  00000+0  40927-3 0  9995
2 67787  51.8993 189.7916 0001866 145.1200 214.9884 14.76408819 17571
KUIPER-00262            
1 67788U 26030AA  26152.10391004  .00002491  00000+0  35627-3 0  9992
2 67788  51.8987 186.7708 0000749  86.1533 273.9515 14.79858706 17778
KUIPER-00266            
1 67789U 26030AB  26152.91670139  .00037277  00000+0  37545-2 0  9991
2 67789  51.8969 180.9133 0020002  19.4576  44.7201 14.90666848  5733
KUIPER-00268            
1 67790U 26030AC  26152.91670139  .00037440  00000+0  46704-2 0  9992
2 67790  51.9013 178.1800 0000909 132.0668 208.4801 14.82054235  5753
KUIPER-00270            
1 67791U 26030AD  26152.91670139 -.01130082  00000+0 -39413-1 0  9990
2 67791  51.8806 173.2996 0010888   0.0554 279.2184 15.31954858  5766
KUIPER-00274            
1 67792U 26030AE  26152.11442492  .00002157  00000+0  33839-3 0  9998
2 67792  51.8998 194.0538 0004366  24.6089 335.5080 14.76366472 17672
KUIPER-00275            
1 67793U 26030AF  26152.91670139  .00037825  00000+0  17491-2 0  9993
2 67793  51.8860 173.6808 0009000 358.5931  83.7675 15.19765800  2570
KUIPER-00276            
1 67794U 26030AG  26152.72023618 -.00208428  00000+0 -89751-2 0  9996
2 67794  51.8801 179.9027 0016593 332.5683  27.4420 15.22862484 17927
KUIPER-00279            
1 67795U 26030AH  26152.70866569  .00016179  00000+0  47372-3 0  9997
2 67795  51.8783 173.9657 0007537 349.1764  10.9058 15.35352933 18003
KUIPER-00131            
1 68573U 26072A   26152.49022948 -.00003310  00000+0 -40542-3 0  9996
2 68573  51.8993 265.0571 0000856 100.4801 259.6258 14.79925595  8792
KUIPER-00189            
1 68574U 26072B   26152.63012624  .00002650  00000+0  40867-3 0  9997
2 68574  51.8984 266.6623 0000889 273.6054  86.4805 14.76352278  8789
KUIPER-00192            
1 68575U 26072C   26152.49285802  .00003945  00000+0  54493-3 0  9990
2 68575  51.9000 262.5479 0000522  74.9531 285.1489 14.80026055  8838
KUIPER-00193            
1 68576U 26072D   26152.91670139 -.00025019  00000+0 -14311-2 0  9991
2 68576  51.8855 252.0581 0002983 330.2732  57.6490 15.11901894  5141
KUIPER-00194            
1 68577U 26072E   26152.91670139 -.00028667  00000+0 -37412-2 0  9991
2 68577  51.9014 258.1787 0000946 172.1762  92.4286 14.80001500  5665
KUIPER-00229            
1 68578U 26072F   26151.75474516  .00003177  00000+0  48356-3 0  9991
2 68578  51.9017 268.0332 0001978 158.1632 201.9414 14.76380062  8695
KUIPER-00230            
1 68579U 26072G   26152.52691045  .00025961  00000+0  70215-3 0  9990
2 68579  51.8762 252.4764 0002071 311.3326  48.7483 15.37535873  8970
KUIPER-00231            
1 68580U 26072H   26152.58733144  .00016018  00000+0  43801-3 0  9999
2 68580  51.8753 252.1342 0002598 337.7080  22.3794 15.37519619  8988
KUIPER-00234            
1 68581U 26072J   26152.91670139 -.00046543  00000+0 -66228-2 0  9996
2 68581  51.8990 257.1468 0002165 157.3780  96.3445 14.76586263  5712
KUIPER-00236            
1 68582U 26072K   26152.53644436  .00027908  00000+0  76263-3 0  9999
2 68582  51.8774 252.5435 0002953 311.7912  48.2822 15.37174068  8974
KUIPER-00244            
1 68583U 26072L   26152.91670139 -.00010077  00000+0 -37079-3 0  9994
2 68583  51.8804 250.9608 0002678 348.2369 204.1182 15.26258126  4590
KUIPER-00253            
1 68584U 26072M   26152.91670139 -.00023304  00000+0 -14537-2 0  9995
2 68584  51.8863 252.3243 0007550 352.3406 166.3419 15.08710013  5567
KUIPER-00254            
1 68585U 26072N   26152.91670139 -.00027105  00000+0 -22770-2 0  9997
2 68585  51.8936 253.8500 0009035 345.3771 116.6313 14.97636666  5938
KUIPER-00263            
1 68586U 26072P   26152.58632548  .00015410  00000+0  41564-3 0  9990
2 68586  51.8770 252.1303 0001569 318.8989  41.1880 15.37979238  8987
KUIPER-00269            
1 68587U 26072Q   26152.52177068  .00038865  00000+0  10025-2 0  9992
2 68587  51.8745 252.4426 0004867 307.4749  52.5795 15.38782919  8970
KUIPER-00272            
1 68588U 26072R   26152.59415198  .00003593  00000+0  49913-3 0  9998
2 68588  51.8976 262.0949 0000484  78.3709 281.7308 14.80011249  8844
KUIPER-00285            
1 68589U 26072S   26152.79068862  .00032943  00000+0  85575-3 0  9998
2 68589  51.8752 251.2419 0007477 322.9810  37.0660 15.38632083  9011
KUIPER-00286            
1 68590U 26072T   26152.91670139 -.00009781  00000+0 -25386-3 0  9990
2 68590  51.8732 250.4941 0004632 315.6696  89.5558 15.37218320  5728
KUIPER-00289            
1 68591U 26072U   26152.91670139 -.00007405  00000+0 -22366-3 0  9997
2 68591  51.8690 251.2593 0011818 343.2665  19.2329 15.32040928  5224
KUIPER-00290            
1 68592U 26072V   26152.91486120 -.00351875  00000+0 -10665-1 0  9993
2 68592  51.8658 251.2592 0013100 335.6459  24.3906 15.34921334  9021
KUIPER-00293            
1 68593U 26072W   26152.91670139 -.00030614  00000+0 -34296-2 0  9991
2 68593  51.8996 255.7876 0015622 347.5931 209.8550 14.86237016  2042
KUIPER-00294            
1 68594U 26072X   26152.58282973  .00015377  00000+0  43825-3 0  9996
2 68594  51.8689 252.8051 0012141 329.6997  30.3286 15.36202020  8975
KUIPER-00296            
1 68595U 26072Y   26152.29761828  .00033191  00000+0  88445-3 0  9997
2 68595  51.8708 253.9135 0009161 328.9315  31.1129 15.37829317  8933
KUIPER-00297            
1 68596U 26072Z   26152.91670139 -.00028475  00000+0 -26740-2 0  9991
2 68596  51.8913 254.7334 0009973 353.8685 174.2217 14.93317327  5657
KUIPER-00300            
1 68597U 26072AA  26152.91670139 -.01627372  00000+0 -11544+0 0  9997
2 68597  51.8861 252.7382 0008204 351.3250  64.4361 15.07430487  5130
KUIPER-00301            
1 68598U 26072AB  26152.62445350  .00025290  00000+0  67463-3 0  9994
2 68598  51.8654 252.3259 0010226 330.5758  29.4652 15.37932810  8989
KUIPER-00304            
1 68599U 26072AC  26152.43634673  .00026475  00000+0  71288-3 0  9998
2 68599  51.8664 253.3215 0010607 330.6522  29.3868 15.37612883  8957
KUIPER-00317            
1 68600U 26072AD  26152.62139816  .00017459  00000+0  47033-3 0  9994
2 68600  51.8696 252.3261 0009587 325.5792  34.4573 15.37881422  8982
KUIPER-00320            
1 68601U 26072AE  26152.91670139 -.00031065  00000+0 -13310-2 0  9996
2 68601  51.8728 251.6561 0011855 335.2252 161.7620 15.21992567  5254
KUIPER-00299            
1 68864U 26095A   26152.91670139  .00040887  00000+0  21094-2 0  9990
2 68864  51.8853 317.9653 0009219 261.6337 145.6005 15.15910796  4770
KUIPER-00353            
1 68865U 26095B   26152.91670139  .00072448  00000+0  19526-2 0  9996
2 68865  51.8853 315.9683 0000701 255.5700  99.0204 15.37159134  5741
KUIPER-00357            
1 68866U 26095C   26152.91670139 -.00567015  00000+0 -18186-1 0  9998
2 68866  51.8844 316.0849 0002500 237.9695  65.6399 15.34163837  4952
KUIPER-00364            
1 68867U 26095D   26152.91670139 -.01555550  00000+0 -64530-1 0  9995
2 68867  51.8859 316.5065 0001839 273.5600 190.5508 15.26451558  5356
KUIPER-00375            
1 68868U 26095E   26152.91670139  .00072389  00000+0  19432-2 0  9999
2 68868  51.8843 315.9878 0001452 237.5169 109.2730 15.37282855  5860
KUIPER-00433            
1 68869U 26095F   26152.91670139  .00048053  00000+0  51286-2 0  9994
2 68869  51.8971 320.6956 0005924 267.4001 339.3861 14.88340344  5356
KUIPER-00437            
1 68870U 26095G   26152.81971575  .00031466  00000+0  85002-3 0  9997
2 68870  51.8803 316.7931 0007566 242.2284 117.7936 15.37446529  5368
KUIPER-00448            
1 68871U 26095H   26152.91670139  .00074680  00000+0  22652-2 0  9997
2 68871  51.8851 316.1477 0003593 244.2787  14.2597 15.33435524  2299
KUIPER-00459            
1 68872U 26095J   26152.45590824  .00043348  00000+0  12428-2 0  9996
2 68872  51.8705 318.8232 0009965 245.3328 114.6621 15.35417982  5306
KUIPER-00468            
1 68873U 26095K   26152.67442378 -.00337255  00000+0 -10610-1 0  9996
2 68873  51.8829 317.3299 0004511 316.1557  43.9070 15.33796222  5345
KUIPER-00476            
1 68874U 26095L   26152.83940246  .00032362  00000+0  92259-3 0  9992
2 68874  51.8761 316.9072 0008485 249.4791 110.5285 15.35748288  5369
KUIPER-00478            
1 68875U 26095M   26152.69644424  .00030152  00000+0  82078-3 0  9999
2 68875  51.8782 317.4601 0007642 253.0913 106.9236 15.37230764  5348
KUIPER-00480            
1 68876U 26095N   26152.68506782  .00031763  00000+0  85289-3 0  9999
2 68876  51.8770 317.3865 0006161 236.3223 123.7177 15.37637112  5349
KUIPER-00482            
1 68877U 26095P   26152.91670139  .00073823  00000+0  19854-2 0  9991
2 68877  51.8852 315.9929 0001488 206.8706 137.0496 15.37216624  5715
KUIPER-00483            
1 68878U 26095Q   26152.91670139  .00039485  00000+0  39538-2 0  9999
2 68878  51.8969 319.8501 0009979 269.8095 246.8115 14.90980970  5444
KUIPER-00488            
1 68879U 26095R   26152.71851279  .00024525  00000+0  70431-3 0  9991
2 68879  51.8684 317.5724 0011007 260.7659  99.2082 15.35645920  5347
KUIPER-00489            
1 68880U 26095S   26152.77539069  .00039337  00000+0  11124-2 0  9999
2 68880  51.8770 317.2295 0010341 256.6376 103.3457 15.35891434  5352
KUIPER-00499            
1 68881U 26095T   26152.65481375  .00027975  00000+0  81271-3 0  9999
2 68881  51.8666 317.9000 0008555 238.9952 121.0194 15.35232673  5332
KUIPER-00500            
1 68882U 26095U   26152.91670139  .00041040  00000+0  32864-2 0  9999
2 68882  51.8938 318.8048 0003715 260.3069 185.3709 14.99756505  4145
KUIPER-00502            
1 68883U 26095V   26152.67950273  .00032640  00000+0  87253-3 0  9992
2 68883  51.8805 317.3544 0005852 239.3913 120.6497 15.37763654  5347
KUIPER-00503            
1 68884U 26095W   26152.91670139  .00038007  00000+0  20470-2 0  9990
2 68884  51.8897 317.5077 0005045 255.7739  85.8413 15.14447342  5959
KUIPER-00504            
1 68885U 26095X   26152.91670139  .00020196  00000+0  26561-2 0  9998
2 68885  51.9027 322.9814 0001255 357.2330 202.4968 14.80156485  5745
KUIPER-00505            
1 68886U 26095Y   26152.91670139  .00038643  00000+0  14721-2 0  9990
2 68886  51.8876 316.5207 0003261 250.0697 169.6544 15.26343284  4296
KUIPER-00507            
1 68887U 26095Z   26152.92056953  .00034257  00000+0  92003-3 0  9991
2 68887  51.8861 315.9834 0000396   4.5745 355.5245 15.37608689  5382
KUIPER-00511            
1 68888U 26095AA  26152.81688082  .00032576  00000+0  87601-3 0  9994
2 68888  51.8782 316.7708 0006819 238.1894 121.8429 15.37575256  5369
KUIPER-00512            
1 68889U 26095AB  26152.91670139  .00052990  00000+0  32388-2 0  9993
2 68889  51.8915 317.5216 0003134 267.7166 345.5694 15.09744362  5801
KUIPER-00519            
1 68890U 26095AC  26152.91670139  .00073303  00000+0  19694-2 0  9991
2 68890  51.8846 315.9909 0000907 181.4903 163.4184 15.37250603  2813
KUIPER-00521            
1 68891U 26095AD  26152.65805356  .00033447  00000+0  87732-3 0  9998
2 68891  51.8849 317.2181 0001884 190.4801 169.6147 15.38349018  5344
KUIPER-00524            
1 68892U 26095AE  26152.66238652  .00052651  00000+0  13553-2 0  9996
2 68892  51.8831 317.2514 0001992 238.8863 121.1929 15.38717237  5344
KUIPER-00370            
1 68919U 26098A   26152.33335648  .00025505  00000+0  88416-3 0  9995
2 68919  51.8710 144.8494 0015386  97.1558 202.9492 15.29554670  5848
KUIPER-00380            
1 68920U 26098B   26152.56261933  .00016754  00000+0  52858-3 0  9994
2 68920  51.8744 143.2763 0009148  78.1900 282.0111 15.32943964  4947
KUIPER-00386            
1 68921U 26098C   26152.91670139  .00061529  00000+0  17516-2 0  9997
2 68921  51.8717 141.1552 0003504 111.4613 250.2268 15.35524993  4875
KUIPER-00388            
1 68922U 26098D   26152.36194444 -.00007520  00000+0 -24696-3 0  9998
2 68922  51.8740 144.9109 0022228  84.1053 276.2464 15.29212640  4905
KUIPER-00405            
1 68923U 26098E   26152.39166314  .00030291  00000+0  97322-3 0  9992
2 68923  51.8749 144.3820 0014048  88.2084 272.0509 15.31935608  4913
KUIPER-00408            
1 68924U 26098F   26152.34434071  .00017117  00000+0  59146-3 0  9990
2 68924  51.8745 144.8087 0015380  88.9955 271.2790 15.29922952  4901
KUIPER-00409            
1 68925U 26098G   26152.91670139  .00049391  00000+0  14996-2 0  9993
2 68925  51.8733 141.4421 0008408  94.8620 127.1417 15.33565724  5969
KUIPER-00410            
1 68926U 26098H   26152.91670139  .00061658  00000+0  21494-2 0  9995
2 68926  51.8723 141.9957 0013450  94.3941 214.3823 15.28973488  5629
KUIPER-00412            
1 68927U 26098J   26152.91670139  .00057978  00000+0  16038-2 0  9994
2 68927  51.8768 141.0263 0002495 138.0094 293.1546 15.36449673  5925
KUIPER-00413            
1 68928U 26098K   26152.23752792  .00019219  00000+0  66742-3 0  9990
2 68928  51.8728 145.5729 0024854 101.4447 258.9329 15.29496692  4884
KUIPER-00414            
1 68929U 26098L   26152.91670139  .00035310  00000+0  13710-2 0  9996
2 68929  51.8785 142.3897 0022682  92.4874  15.8131 15.25522802  4654
KUIPER-00415            
1 68930U 26098M   26152.37234489  .00030238  00000+0  94306-3 0  9997
2 68930  51.8784 144.2617 0010261  79.1961 281.0179 15.32930664  4910
KUIPER-00416            
1 68931U 26098N   26150.23293363  .00021462  00000+0  59977-3 0  9991
2 68931  51.8725 153.9300 0001286 107.3098 252.8029 15.36633522  4595
KUIPER-00420            
1 68932U 26098P   26151.35587405  .00029829  00000+0  85933-3 0  9995
2 68932  51.8745 148.7076 0003681  89.9964 270.1444 15.35488807  4764
KUIPER-00421            
1 68933U 26098Q   26152.35362593  .00031176  00000+0  93488-3 0  9998
2 68933  51.8758 144.1412 0008867  75.3789 284.8179 15.34173701  4915
KUIPER-00425            
1 68934U 26098R   26152.41055733 -.00053241  00000+0 -18136-2 0  9996
2 68934  51.8725 144.4932 0019232  95.4183 264.8995 15.29696442  4919
KUIPER-00430            
1 68935U 26098S   26152.35434869 -.00000852  00000+0 -16268-4 0  9997
2 68935  51.8762 144.8720 0020507  95.5078 264.8245 15.29779659  4900
KUIPER-00431            
1 68936U 26098T   26152.91670139  .00042864  00000+0  15408-2 0  9992
2 68936  51.8743 142.2426 0017910  93.9186  92.2878 15.28070000  5900
KUIPER-00432            
1 68937U 26098U   26152.38157764  .00031161  00000+0  10124-2 0  9996
2 68937  51.8756 144.3122 0010592  83.3177 276.9012 15.31603228  4912
KUIPER-00434            
1 68938U 26098V   26152.54546021  .00023210  00000+0  68583-3 0  9992
2 68938  51.8707 143.1641 0008032  81.5363 278.6533 15.34809434  4945
KUIPER-00436            
1 68939U 26098W   26152.37532542  .00031949  00000+0  99169-3 0  9999
2 68939  51.8747 144.2721 0011327  88.7716 271.4566 15.33042514  4914
KUIPER-00438            
1 68940U 26098X   26152.47729238  .00024976  00000+0  75549-3 0  9990
2 68940  51.8755 143.4544 0006296 112.0098 248.1557 15.34036862  4935
KUIPER-00439            
1 68941U 26098Y   26152.23303072  .00022967  00000+0  72531-3 0  9995
2 68941  51.8757 144.8261 0007186  91.1987 268.9821 15.32709965  4890
KUIPER-00440            
1 68942U 26098Z   26152.34856718  .00039555  00000+0  11699-2 0  9996
2 68942  51.8766 144.1115 0004595 102.7186 257.4314 15.34519873  4915
KUIPER-00442            
1 68943U 26098AA  26152.87208760  .00016234  00000+0  49100-3 0  9991
2 68943  51.8764 141.6181 0006731  90.9526 269.2231 15.34329932  4991
KUIPER-00446            
1 68944U 26098AB  26152.34938366  .00027338  00000+0  81852-3 0  9993
2 68944  51.8731 144.1047 0006552  81.5964 278.5764 15.34308621  4916
KUIPER-00451            
1 68945U 26098AC  26151.95103242  .00017072  00000+0  62274-3 0  9998
2 68945  51.8743 146.6798 0013792  86.2068 274.0492 15.28171321  4840
KUIPER-00452            
1 68946U 26098AD  26152.39529531  .00017436  00000+0  50283-3 0  9992
2 68946  51.8727 143.6683 0004101  79.8290 280.3159 15.35788996  4921
KUIPER-00453            
1 68947U 26098AE  26152.91670139  .00058040  00000+0  16035-2 0  9994
2 68947  51.8737 141.0147 0003087 127.7356 304.8742 15.36486958  5721
KUIPER-00454            
1 68948U 26098AF  26151.97517094  .00018338  00000+0  66398-3 0  9994
2 68948  51.8777 146.8310 0016467  82.7788 277.5067 15.28327705  4849
KUIPER-00455            
1 68949U 26098AG  26152.56335649  .00024060  00000+0  84588-3 0  9995
2 68949  51.8757 144.0082 0019909  91.5642 268.7622 15.29055705  4933
KUIPER-00458            
1 68950U 26098AH  26151.99976848  .00027044  00000+0  77385-3 0  9997
2 68950  51.8746 145.5248 0004275  92.4160 267.7315 15.35750939  4866
