EUTELSAT 139 WEST A     
1 28187U 04008A   26043.60108034 -.00000268  00000+0  00000+0 0  9990
2 28187   5.5120  73.5212 0001254 130.3713  77.4831  1.00840941 80107
EUTELSAT 174A           
1 28924U 05052A   26043.72224096  .00000014  00000+0  00000+0 0  9997
2 28924   3.9019  78.0929 0006085 248.2323 250.4284  1.00270099 51084
EUTELSAT 33F            
1 29270U 06032A   26043.76566118  .00000162  00000+0  00000+0 0  9993
2 29270   1.3393  83.7503 0003441 246.6484 121.1064  1.00273600 46063
EUTELSAT HOTBIRD 13C    
1 33459U 08065A   26043.74902110 -.00000277  00000+0  00000+0 0  9997
2 33459   2.6295  80.7094 0003660 256.3802  25.0346  1.00271924 46094
EUTELSAT 36B            
1 36101U 09065A   26043.76912786  .00000119  00000+0  00000+0 0  9991
2 36101   0.1754  75.5219 0005679 250.2776 144.3960  1.00270204 59462
EUTELSAT KA-SAT 9A      
1 37258U 10069A   26043.76089450  .00000068  00000+0  00000+0 0  9997
2 37258   0.0555 344.1256 0002025 162.6577 278.9011  1.00270665 42753
EUTELSAT 7 WEST A       
1 37816U 11051A   26043.75768780 -.00000053  00000+0  00000+0 0  9993
2 37816   0.0667  17.3914 0002343 228.8227 162.0260  1.00272777 52629
EUTELSAT 16A            
1 37836U 11057A   26043.76228117  .00000111  00000+0  00000+0 0  9991
2 37836   0.0592 338.1415 0005478 343.7719 111.3034  1.00271845  6083
EUTELSAT 21B            
1 38992U 12062B   26043.76340784  .00000137  00000+0  00000+0 0  9995
2 38992   0.0688 346.9841 0002915 331.5688 120.6756  1.00265856 48586
EUTELSAT 70B            
1 39020U 12069A   26043.75114088 -.00000036  00000+0  00000+0 0  9999
2 39020   0.0642 357.9644 0002742 298.0626 187.6430  1.00271191 48265
EUTELSAT 117 WEST A     
1 39122U 13012A   26043.66469401  .00000000  00000+0  00000+0 0  9993
2 39122   0.0231  81.0357 0002916 259.7387 284.4364  1.00271780 47185
EUTELSAT 7B             
1 39163U 13022A   26043.76054781  .00000055  00000+0  00000+0 0  9991
2 39163   0.0715 336.1261 0006006  10.4912  76.9629  1.00270758 46692
EXPRESS-AT1             
1 39612U 14010A   26042.99816694  .00000087  00000+0  00000+0 0  9996
2 39612   0.0232 263.3034 0000457 102.4385 191.6206  1.00271280 43564
EXPRESS-AT2             
1 39613U 14010B   26043.00183369 -.00000273  00000+0  00000+0 0  9994
2 39613   0.0127 103.5021 0001172 173.7054   5.3376  1.00271219 43244
EUTELSAT 3B             
1 39773U 14030A   26043.75968115  .00000027  00000+0  00000+0 0  9991
2 39773   0.0632 357.7229 0001808 261.1811 160.4515  1.00272090 42812
EUTELSAT 115 WEST B     
1 40425U 15010B   26043.66504068 -.00000018  00000+0  00000+0 0  9990
2 40425   0.0115 212.7817 0000298  54.2935   0.1279  1.00273343 40140
EUTELSAT 8 WEST B       
1 40875U 15039B   26043.75751447 -.00000058  00000+0  00000+0 0  9999
2 40875   0.0674 348.3209 0004000 333.2431  85.9236  1.00272491 38409
EUTELSAT 9B             
1 41310U 16005A   26043.76089450  .00000069  00000+0  00000+0 0  9998
2 41310   0.0273  65.0050 0004544 243.2105 117.4689  1.00272216 36863
EUTELSAT 65 WEST A      
1 41382U 16014A   26043.53226667 -.00000269  00000+0  00000+0 0  9998
2 41382   0.0514 349.7346 0002112 330.9206 308.3062  1.00273174 36281
EUTELSAT 117 WEST B     
1 41589U 16038B   26043.66460734 -.00000004  00000+0  00000+0 0  9999
2 41589   0.0120 218.3964 0000457  49.9432 356.6161  1.00273538 35412
EUTELSAT 172B           
1 42741U 17029B   26043.72189429  .00000001  00000+0  00000+0 0  9993
2 42741   0.0194 159.3540 0000108 294.5447 120.7066  1.00271316 32485
EUTELSAT 7C             
1 44334U 19034B   26043.76054781  .00000056  00000+0  00000+0 0  9997
2 44334   0.0764 178.8276 0003427 136.6367 108.1152  1.00274864  5582
EUTELSAT 5 WEST B       
1 44624U 19067A   26043.75812115 -.00000035  00000+0  00000+0 0  9995
2 44624   0.1056 301.4663 0002956  33.3829  75.8417  1.00271682 23180
EUTELSAT KONNECT        
1 45027U 20005B   26043.76054781  .00000057  00000+0  00000+0 0  9998
2 45027   0.0645  97.3225 0001027 206.8011 119.6653  1.00271336 23088
EUTELSAT QUANTUM        
1 49056U 21069B   26043.76860786  .00000133  00000+0  00000+0 0  9990
2 49056   0.0151  58.2808 0002814 268.2557 140.6578  1.00270919 16685
EUTELSAT KONNECT VHTS   
1 53765U 22110A   26043.75968115  .00000024  00000+0  00000+0 0  9993
2 53765   0.0567 101.6281 0002757 197.8325 119.5231  1.00270048  5583
EUTELSAT HOTBIRD 13F    
1 54048U 22134A   26043.76167449  .00000094  00000+0  00000+0 0  9993
2 54048   0.0655 282.3356 0002156  85.1633  62.4788  1.00271320 12125
EUTELSAT HOTBIRD 13G    
1 54225U 22146A   26043.76167449  .00000094  00000+0  00000+0 0  9993
2 54225   0.0523 244.0651 0001903 291.2161 254.6888  1.00271369  6216
EUTELSAT 10B            
1 54259U 22157A   26043.76106784  .00000075  00000+0  00000+0 0  9996
2 54259   0.0555 100.1676 0002331 355.1449 331.4388  1.00270527 11773
EUTELSAT 36D            
1 59346U 24059A   26043.76618119  .00000163  00000+0  00000+0 0  9999
2 59346   0.0137 101.8535 0000340 289.9808  62.6289  1.00271989  6909
