EUTELSAT 174A           
1 28924U 05052A   26114.67460061 -.00000003  00000+0  00000+0 0  9993
2 28924   4.0862  77.1639 0006352 315.9813 236.3931  1.00272066 51799
EUTELSAT 33F            
1 29270U 06032A   26114.78936079  .00000142  00000+0  00000+0 0  9999
2 29270   1.5252  82.7892 0003463 309.6587 137.6311  1.00273349 46772
EUTELSAT HOTBIRD 13C    
1 33459U 08065A   26114.91543961 -.00000295  00000+0  00000+0 0  9990
2 33459   2.8154  79.7893 0004120 318.0524  94.3804  1.00270537 46811
EUTELSAT 36B            
1 36101U 09065A   26114.94419551  .00000098  00000+0  00000+0 0  9998
2 36101   0.3581  79.7851 0005816 312.2485 211.3596  1.00268865 60179
EUTELSAT KA-SAT 9A      
1 37258U 10069A   26114.64197426  .00000047  00000+0  00000+0 0  9993
2 37258   0.0613 355.4323 0003884 141.4781 315.9035  1.00267511 43478
EUTELSAT 7 WEST A       
1 37816U 11051A   26114.92393297 -.00000075  00000+0  00000+0 0  9992
2 37816   0.0791  34.2803 0002380  66.9679  76.9999  1.00271391 53348
EUTELSAT 16A            
1 37836U 11057A   26114.95530833  .00000089  00000+0  00000+0 0  9996
2 37836   0.0524   4.3034 0005696  32.6307 175.9499  1.00269766  6806
EUTELSAT 21B            
1 38992U 12062B   26114.95530833  .00000115  00000+0  00000+0 0  9997
2 38992   0.0708 353.5930 0002950  39.2416 185.6658  1.00269618 49293
EUTELSAT 70B            
1 39020U 12069A   26114.92907192 -.00000058  00000+0  00000+0 0  9997
2 39020   0.0688  14.2900 0005105  17.4451 226.1687  1.00271354 48970
EUTELSAT 117 WEST A     
1 39122U 13012A   26114.64002972 -.00000027  00000+0  00000+0 0  9996
2 39122   0.0216 301.5290 0002447  72.2640 312.4920  1.00272627 47892
EUTELSAT 7B             
1 39163U 13022A   26114.96086624  .00000033  00000+0  00000+0 0  9999
2 39163   0.0744  18.0343 0005896 358.5230 189.3261  1.00270823 47411
EXPRESS-AT1             
1 39612U 14010A   26114.93675969  .00000051  00000+0  00000+0 0  9999
2 39612   0.1205  83.9632 0001689  17.8306 145.9380  1.00288092 44289
EXPRESS-AT2             
1 39613U 14010B   26114.79386747  .00000064  00000+0  00000+0 0  9991
2 39613   0.0112 217.4392 0000264  89.4401 247.7228  1.00271801 43968
EUTELSAT 3B             
1 39773U 14030A   26114.96086624  .00000005  00000+0  00000+0 0  9995
2 39773   0.0694  14.9025 0003951  14.6526 172.4315  1.00272154 43533
EUTELSAT 115 WEST B     
1 40425U 15010B   26114.95413398 -.00000039  00000+0  00000+0 0  9999
2 40425   0.0108 105.1416 0000093 288.1947  48.2458  1.00270500 40858
EUTELSAT 8 WEST B       
1 40875U 15039B   26114.92375964 -.00000080  00000+0  00000+0 0  9998
2 40875   0.0693 353.6845 0003950  41.6961 142.1224  1.00271298 39123
EUTELSAT 9B             
1 41310U 16005A   26114.85581269  .00000047  00000+0  00000+0 0  9998
2 41310   0.0704  71.2208 0003471 285.0952 173.6440  1.00272501 37584
EUTELSAT 65 WEST A      
1 41382U 16014A   26114.91249293 -.00000291  00000+0  00000+0 0  9994
2 41382   0.0576  25.9246 0002211 355.1886  95.1156  1.00273277 36991
EUTELSAT 117 WEST B     
1 41589U 16038B   26114.64002972 -.00000026  00000+0  00000+0 0  9996
2 41589   0.0099 102.4011 0000037 298.5591 285.1288  1.00271217 36122
EUTELSAT 172B           
1 42741U 17029B   26114.67425395 -.00000021  00000+0  00000+0 0  9994
2 42741   0.0154 181.6343 0000235  41.5739  44.2113  1.00269056 33207
EUTELSAT 7C             
1 44334U 19034B   26114.96086624  .00000034  00000+0  00000+0 0  9995
2 44334   0.0741 181.2790 0003239 194.2954 190.3203  1.00270916  6304
EUTELSAT 5 WEST B       
1 44624U 19067A   26114.92436631 -.00000057  00000+0  00000+0 0  9992
2 44624   0.0685   6.2240 0003103  26.3796 148.1121  1.00271044 23906
EUTELSAT KONNECT        
1 45027U 20005B   26114.96086624  .00000035  00000+0  00000+0 0  9996
2 45027   0.0700  89.5203 0002050 205.9116 270.6716  1.00270420 23803
EUTELSAT QUANTUM        
1 49056U 21069B   26114.94419551  .00000111  00000+0  00000+0 0  9995
2 49056   0.0316  29.9017 0002332 359.8411 210.8173  1.00272554 17393
EUTELSAT KONNECT VHTS   
1 53765U 22110A   26114.64067425  .00000002  00000+0  00000+0 0  9990
2 53765   0.0625  92.6490 0003486 268.5370  84.8191  1.00269934  6295
EUTELSAT HOTBIRD 13F    
1 54048U 22134A   26114.85667935  .00000073  00000+0  00000+0 0  9994
2 54048   0.0505 288.4876 0001938  66.3694 179.4294  1.00271632 12844
EUTELSAT HOTBIRD 13G    
1 54225U 22146A   26114.78537410  .00000073  00000+0  00000+0 0  9990
2 54225   0.0370 232.3068 0002019 313.7745 322.4605  1.00272110  6930
EUTELSAT 10B            
1 54259U 22157A   26114.71342745  .00000054  00000+0  00000+0 0  9996
2 54259   0.0617  90.9525 0000772   9.4867  19.1199  1.00271930 12490
EUTELSAT 36D            
1 59346U 24059A   26114.64726094  .00000141  00000+0  00000+0 0  9993
2 59346   0.0165 240.1665 0000198  56.5772 184.7886  1.00271786  7613
