IRIDIUM 7               
1 24793U 97020B   26089.00033674  .00000489  00000+0  16094-3 0  9994
2 24793  86.3936  57.0686 0001854  89.4038 270.7372 14.36201101512919
IRIDIUM 5               
1 24795U 97020D   26089.13109694  .00005878  00000+0  44738-3 0  9999
2 24795  86.3862 311.5302 0101389 188.0618 171.8990 14.97811370528215
IRIDIUM 4               
1 24796U 97020E   26088.94336434  .00000510  00000+0  16512-3 0  9999
2 24796  86.3940  53.7780 0002096  85.7852 274.3585 14.37110396513505
IRIDIUM 914             
1 24836U 97030A   26089.18537939  .00000612  00000+0  18370-3 0  9992
2 24836  86.3905  61.4321 0002657  51.8588 308.2851 14.41180879648310
IRIDIUM 16              
1 24841U 97030F   26089.22897208  .00000522  00000+0  16284-3 0  9993
2 24841  86.3970  85.1044 0002266 146.4793 213.6549 14.38999168508131
IRIDIUM 911             
1 24842U 97030G   26089.03722723  .00000699  00000+0  18247-3 0  9998
2 24842  86.4394  83.6330 0012603 217.0379 142.9956 14.48040201516440
IRIDIUM 17              
1 24870U 97034B   26089.11073549  .00000455  00000+0  14354-3 0  9992
2 24870  86.3915 114.5979 0003264 118.2034 241.9494 14.38136554504670
IRIDIUM 920             
1 24871U 97034C   26089.25224920  .00000518  00000+0  15229-3 0  9991
2 24871  86.3909  93.0722 0010291 208.0164 152.0484 14.41839923507792
IRIDIUM 26              
1 24903U 97043A   26089.25428940  .00000433  00000+0  13840-3 0  9998
2 24903  86.4009 350.3886 0002024  90.5966 269.5464 14.37434876497837
IRIDIUM 22              
1 24907U 97043E   26089.21442521  .00000372  00000+0  12078-3 0  9993
2 24907  86.4019 354.1892 0002208  89.9615 270.1835 14.36212306497828
DUMMY MASS 1            
1 24925U 97048A   26089.25710068  .00000527  00000+0  55329-4 0  9995
2 24925  86.3399   2.9502 0005688 191.0446 169.0656 14.87296464547642
DUMMY MASS 2            
1 24926U 97048B   26089.19984224  .00000534  00000+0  56427-4 0  9994
2 24926  86.3399   4.6352 0005909 207.5871 152.5041 14.87046011547406
IRIDIUM 29              
1 24944U 97051A   26089.20149366  .00000479  00000+0  15576-3 0  9997
2 24944  86.3999  23.8011 0002365  85.3760 274.7708 14.36761414494334
IRIDIUM 33              
1 24946U 97051C   26089.22513409  .00000335  00000+0  11055-3 0  9993
2 24946  86.3916  23.0842 0006446 211.2010 148.8805 14.35113547493763
IRIDIUM 28              
1 24948U 97051E   26089.20430611  .00000455  00000+0  14517-3 0  9995
2 24948  86.4009  21.1575 0001824  98.0647 262.0758 14.37655244494936
IRIDIUM 36              
1 24967U 97056C   26089.19224492  .00000497  00000+0  15839-3 0  9991
2 24967  86.3951  52.7581 0002205  94.5277 265.6172 14.37890448493310
IRIDIUM 39              
1 25042U 97069D   26089.28559163  .00000891  00000+0  22587-3 0  9992
2 25042  86.3849  88.4656 0019833  72.6513 287.6859 14.49679988490405
IRIDIUM 38              
1 25043U 97069E   26089.11083763  .00000467  00000+0  14685-3 0  9992
2 25043  86.3913 112.9457 0001162 149.2953 210.8313 14.38429473487055
IRIDIUM 42              
1 25077U 97077A   26089.05260889  .00000427  00000+0  13834-3 0  9998
2 25077  86.3929 119.5052 0001473  97.2705 262.8660 14.36637511482234
IRIDIUM 44              
1 25078U 97077B   26089.27693979  .00000424  00000+0  12711-3 0  9993
2 25078  86.3897 100.5467 0003199 125.3194 234.8305 14.40525021484886
IRIDIUM 45              
1 25104U 97082A   26089.00177176  .00031379  00000+0  74569-3 0  9998
2 25104  86.3465 267.5211 0085060 330.4658  29.1802 15.37731783495722
IRIDIUM 24              
1 25105U 97082B   26089.08378411  .00000606  00000+0  17710-3 0  9996
2 25105  86.3907 319.0279 0010167 203.5440 156.5296 14.42463136484422
IRIDIUM 57              
1 25273U 98019B   26089.21452504  .00000423  00000+0  13870-3 0  9994
2 25273  86.4000  25.2898 0002089  89.8442 270.2994 14.36140624465837
IRIDIUM 63              
1 25286U 98021B   26089.08733578  .00000409  00000+0  13178-3 0  9994
2 25286  86.3987 322.1931 0002355  85.3877 274.7590 14.36839484464895
IRIDIUM 69              
1 25319U 98026A   26089.18786835  .00000548  00000+0  16327-3 0  9994
2 25319  86.4004 334.5372 0003674 124.7792 235.3754 14.41342522464251
IRIDIUM 71              
1 25320U 98026B   26089.09848559  .00000480  00000+0  14188-3 0  9996
2 25320  86.3994 329.2409 0001528 152.8258 207.3022 14.41424522464772
IRIDIUM 73              
1 25344U 98032C   26089.07371465  .00000659  00000+0  15752-3 0  9990
2 25344  86.4356 285.3721 0002860  93.9709 266.1824 14.52143725472043
IRIDIUM 82              
1 25467U 98051A   26089.18487521  .00082335  00000+0  92464-3 0  9996
2 25467  86.3571 326.4755 0040998 271.7227  87.9342 15.61281509468072
