EUTELSAT 139 WEST A     
1 28187U 04008A   26112.34719987 -.00000162  00000+0  00000+0 0  9996
2 28187   5.6900  72.5672 0000586 121.0947  84.6412  0.98807123 80809
EUTELSAT 174A           
1 28924U 05052A   26112.53559604  .00000001  00000+0  00000+0 0  9995
2 28924   4.0803  77.1880 0006276 313.2747 186.9252  1.00271421 51772
EUTELSAT 33F            
1 29270U 06032A   26112.93419515  .00000145  00000+0  00000+0 0  9998
2 29270   1.5200  82.8064 0003404 306.1772 191.4000  1.00272235 46754
EUTELSAT HOTBIRD 13C    
1 33459U 08065A   26112.80183645 -.00000292  00000+0  00000+0 0  9992
2 33459   2.8095  79.8121 0004024 314.7855  54.6505  1.00271138 46795
EUTELSAT 36B            
1 36101U 09065A   26112.94866642  .00000101  00000+0  00000+0 0  9998
2 36101   0.3531  79.7022 0005811 313.4086 209.9234  1.00274070 60154
EUTELSAT KA-SAT 9A      
1 37258U 10069A   26112.34489102  .00000052  00000+0  00000+0 0  9999
2 37258   0.0616 358.9106 0004251 142.3086 202.3866  1.00266305 43443
EUTELSAT 7 WEST A       
1 37816U 11051A   26112.21641789 -.00000069  00000+0  00000+0 0  9997
2 37816   0.0754  30.5052 0002823  95.9010 154.4562  1.00271130 53311
EUTELSAT 16A            
1 37836U 11057A   26112.91946081  .00000093  00000+0  00000+0 0  9991
2 37836   0.0528 352.9897 0005848  46.1013 158.9044  1.00273522  6781
EUTELSAT 21B            
1 38992U 12062B   26112.92395804  .00000119  00000+0  00000+0 0  9993
2 38992   0.0714 349.2245 0002968  48.0031 167.9974  1.00274088 49270
EUTELSAT 70B            
1 39020U 12069A   26112.92544810 -.00000054  00000+0  00000+0 0  9995
2 39020   0.0680  10.0351 0005128  20.3330 224.2587  1.00271172 48954
EUTELSAT 117 WEST A     
1 39122U 13012A   26112.84527316 -.00000024  00000+0  00000+0 0  9997
2 39122   0.0387  59.0775 0002475 311.1965  28.1227  1.00272676 47873
EUTELSAT 7B             
1 39163U 13022A   26112.57381620  .00000038  00000+0  00000+0 0  9993
2 39163   0.0730  12.9321 0005877   1.7737  49.4981  1.00269986 47382
EXPRESS-AT1             
1 39612U 14010A   26112.95611593  .00000055  00000+0  00000+0 0  9996
2 39612   0.1145  83.2695 0001579  17.4369 151.9262  1.00287372 44261
EXPRESS-AT2             
1 39613U 14010B   26112.95315841  .00000068  00000+0  00000+0 0  9998
2 39613   0.0148 240.3343 0000525  53.4040 316.3986  1.00270859 43942
EUTELSAT 3B             
1 39773U 14030A   26112.57294954  .00000010  00000+0  00000+0 0  9993
2 39773   0.0683   9.0607 0003890  17.5564  33.3650  1.00271332 43509
EUTELSAT 115 WEST B     
1 40425U 15010B   26112.84684889 -.00000036  00000+0  00000+0 0  9997
2 40425   0.0112 100.9001 0000287 327.4468 332.5274  1.00273042 40833
EUTELSAT 8 WEST B       
1 40875U 15039B   26112.52379060 -.00000075  00000+0  00000+0 0  9997
2 40875   0.0700 348.4513 0003932  45.4519 357.2482  1.00271037 39099
EUTELSAT 9B             
1 41310U 16005A   26112.57407620  .00000052  00000+0  00000+0 0  9999
2 41310   0.0656  68.0815 0003529 284.9027  73.2987  1.00271537 37559
EUTELSAT 65 WEST A      
1 41382U 16014A   26112.67767383 -.00000286  00000+0  00000+0 0  9994
2 41382   0.0570  19.3398 0002088   6.0335   4.1074  1.00268674 36964
EUTELSAT 117 WEST B     
1 41589U 16038B   26112.84527316 -.00000022  00000+0  00000+0 0  9996
2 41589   0.0053  37.1609 0000241 254.8733 106.1773  1.00269812 36106
EUTELSAT 172B           
1 42741U 17029B   26112.79211560 -.00000017  00000+0  00000+0 0  9997
2 42741   0.0135 197.7900 0000305  71.0847  39.1335  1.00269364 33187
EUTELSAT 7C             
1 44334U 19034B   26112.57381620  .00000038  00000+0  00000+0 0  9998
2 44334   0.0743 182.0674 0003225 189.7379  52.4009  1.00270321  6279
EUTELSAT 5 WEST B       
1 44624U 19067A   26112.57130286 -.00000052  00000+0  00000+0 0  9993
2 44624   0.0682   0.1360 0003129  32.2773  18.8921  1.00273903 23871
EUTELSAT KONNECT        
1 45027U 20005B   26112.57390287  .00000039  00000+0  00000+0 0  9998
2 45027   0.0691  89.1866 0002160 205.8084 129.4557  1.00269711 23779
EUTELSAT QUANTUM        
1 49056U 21069B   26112.94530457  .00000115  00000+0  00000+0 0  9996
2 49056   0.0273  19.5664 0002283   6.4946 212.9256  1.00271453 17371
EUTELSAT KONNECT VHTS   
1 53765U 22110A   26112.34489102  .00000008  00000+0  00000+0 0  9991
2 53765   0.0642  92.7669 0002866 264.7159 339.7710  1.00269741  6270
EUTELSAT HOTBIRD 13F    
1 54048U 22134A   26112.73530111  .00000077  00000+0  00000+0 0  9998
2 54048   0.0539 287.8222 0001965  66.6565 134.0290  1.00271654 12824
EUTELSAT HOTBIRD 13G    
1 54225U 22146A   26112.20530782  .00000079  00000+0  00000+0 0  9996
2 54225   0.0402 234.9479 0002044 314.8889 107.3435  1.00271498  6905
EUTELSAT 10B            
1 54259U 22157A   26112.34489102  .00000059  00000+0  00000+0 0  9997
2 54259   0.0623  91.5326 0000692  23.6667 229.3562  1.00268391 12463
EUTELSAT 36D            
1 59346U 24059A   26112.97622278  .00000144  00000+0  00000+0 0  9999
2 59346   0.0181 231.1097 0000294  37.5445 329.6623  1.00273522  7599
