QIANFAN-1               
1 60379U 24140A   26056.64533751  .00000084  00000+0  11112-3 0  9999
2 60379  88.9729 291.5360 0017859   4.4020 355.7285 13.50998065 77461
QIANFAN-2               
1 60380U 24140B   26056.60001800  .00000084  00000+0  11159-3 0  9993
2 60380  88.9715 291.3696 0012317 339.0102  21.0542 13.51002120 77514
QIANFAN-3               
1 60381U 24140C   26056.60816517  .00000082  00000+0  10875-3 0  9995
2 60381  88.9707 291.4958 0013837 351.0783   9.0120 13.51002698 77423
QIANFAN-4               
1 60382U 24140D   26056.58357428  .00000066  00000+0  83389-4 0  9997
2 60382  88.9732 291.4148 0012637 341.6411  18.4283 13.50998340 77547
QIANFAN-5               
1 60383U 24140E   26056.63299039  .00000075  00000+0  98134-4 0  9991
2 60383  88.9707 291.5184 0015437   1.4820 358.6374 13.51000430 77418
QIANFAN-6               
1 60384U 24140F   26056.57950001  .00000064  00000+0  79893-4 0  9997
2 60384  88.9733 291.2903 0012928 347.6101  12.4731 13.51000184 77602
QIANFAN-7               
1 60385U 24140G   26056.59745311  .00000346  00000+0  13386-3 0  9993
2 60385  88.9744 284.9344 0015757 147.3498 212.8674 14.27766210 81071
QIANFAN-8               
1 60386U 24140H   26056.58773019  .00000070  00000+0  90005-4 0  9997
2 60386  88.9735 291.5281 0016433 348.1142  11.9619 13.51001683 77451
QIANFAN-9               
1 60387U 24140J   26056.63706906  .00000082  00000+0  10918-3 0  9992
2 60387  88.9733 291.5968 0016113 347.8240  12.2520 13.50996530 77449
QIANFAN-10              
1 60388U 24140K   26056.64106471  .00000082  00000+0  10797-3 0  9990
2 60388  88.9742 290.9508 0013879 325.1846  34.8396 13.51002109 77576
QIANFAN-11              
1 60389U 24140L   26056.60420748  .00000081  00000+0  10758-3 0  9999
2 60389  88.9669 291.4861 0014143 348.5598  11.5230 13.51001704 77222
QIANFAN-12              
1 60390U 24140M   26056.62477005  .00000062  00000+0  76870-4 0  9998
2 60390  88.9712 291.5600 0013238 357.2534   2.8542 13.50999401 77358
QIANFAN-13              
1 60391U 24140N   26056.59594392  .00000080  00000+0  10483-3 0  9991
2 60391  88.9724 291.6721 0013157   0.0779   0.0372 13.50999835 77375
QIANFAN-14              
1 60392U 24140P   26056.62056493  .00000078  00000+0  10250-3 0  9990
2 60392  88.9703 291.5511 0016810 358.1767   1.9320 13.50999654 77385
QIANFAN-15              
1 60393U 24140Q   26056.62892250  .00000075  00000+0  97289-4 0  9995
2 60393  88.9727 291.5245 0012186 346.6078  13.4748 13.50997613 77379
QIANFAN-16              
1 60394U 24140R   26056.61641339  .00000061  00000+0  76113-4 0  9993
2 60394  88.9730 291.6481 0014912   2.8789 357.2445 13.50997467 77286
QIANFAN-17              
1 60395U 24140S   26056.61244696  .00000072  00000+0  92511-4 0  9991
2 60395  88.9741 291.7028 0015064 356.5550   3.5495 13.51002922 78248
QIANFAN-18              
1 60396U 24140T   26056.59189670  .00000070  00000+0  89898-4 0  9991
2 60396  88.9733 291.2330 0013857 339.5037  20.5556 13.51002088 77632
QIANFAN-19              
1 61552U 24185A   26056.57891093  .00000410  00000+0  20711-3 0  9998
2 61552  88.9756  69.3505 0009087  71.0663 289.1508 14.14377784 80242
QIANFAN-20              
1 61553U 24185B   26056.54574878  .00000442  00000+0  24733-3 0  9998
2 61553  88.9753  69.7537 0008124 101.0315 259.1783 14.08923939 80028
QIANFAN-21              
1 61554U 24185C   26056.58750681  .00000571  00000+0  24829-3 0  9990
2 61554  88.9673  68.1971 0012740 114.5162 245.7359 14.22715909 80610
QIANFAN-22              
1 61555U 24185D   26056.56606844  .00000213  00000+0  17294-3 0  9991
2 61555  88.9738  71.0350 0008285 119.1704 241.0298 13.86334306 79301
QIANFAN-23              
1 61556U 24185E   26056.59012144  .00000524  00000+0  25690-3 0  9993
2 61556  88.9748  69.1236 0009924  79.1042 281.1262 14.16381776 80344
QIANFAN-24              
1 61557U 24185F   26056.52711700  .00000639  00000+0  27251-3 0  9993
2 61557  88.9732  68.4135 0011313  60.9447 299.2877 14.23917306 80669
QIANFAN-25              
1 61558U 24185G   26056.52357928  .00000448  00000+0  26499-3 0  9993
2 61558  88.9745  69.7110 0011966  86.9072 273.3479 14.05986551 80015
QIANFAN-26              
1 61559U 24185H   26056.54913501  .00000266  00000+0  25248-3 0  9990
2 61559  88.9744  71.6638 0007218 131.4225 228.7563 13.77857109 78977
QIANFAN-27              
1 61560U 24185J   26056.54845632  .00000504  00000+0  19954-3 0  9993
2 61560  88.9744  68.1582 0009449  54.1749 306.0322 14.27432459 80832
QIANFAN-28              
1 61561U 24185K   26056.56230291  .00000775  00000+0  30548-3 0  9997
2 61561  88.9760  68.1636 0009051  54.7307 305.4733 14.28194526 80858
QIANFAN-29              
1 61562U 24185L   26056.54148921  .00000174  00000+0  25048-3 0  9996
2 61562  88.9717  73.5687 0009597 182.3888 177.7219 13.51040063 77894
QIANFAN-30              
1 61563U 24185M   26056.57302070  .00000170  00000+0  24774-3 0  9998
2 61563  88.9737  73.1196 0007968 164.8096 195.3296 13.50015464 78162
QIANFAN-31              
1 61564U 24185N   26056.54409090  .00000196  00000+0  25410-3 0  9992
2 61564  88.9721  72.8053 0007693 155.9089 204.2427 13.57999439 78315
QIANFAN-32              
1 61565U 24185P   26056.57417130  .00000130  00000+0  18408-3 0  9997
2 61565  88.9781  73.2765 0008942 196.1066 163.9802 13.50761365 78144
QIANFAN-33              
1 61566U 24185Q   26056.56137483  .00000360  00000+0  25021-3 0  9991
2 61566  88.9734  70.4523 0009404  93.0172 267.2082 13.96615344 79606
QIANFAN-34              
1 61567U 24185R   26056.57659533  .00000355  00000+0  22211-3 0  9990
2 61567  88.9711  69.9150 0007952  96.3543 263.8543 14.02375171 79844
QIANFAN-35              
1 61568U 24185S   26056.53322307  .00000721  00000+0  28423-3 0  9991
2 61568  88.9741  68.0848 0008254  53.2716 306.9236 14.28102864 80858
QIANFAN-36              
1 61569U 24185T   26056.58711149  .00000127  00000+0  16534-3 0  9993
2 61569  88.9716  73.2357 0006273 166.9321 193.1996 13.55611570 78064
QIANFAN-37              
1 62238U 24232B   26056.57495422  .00000061  00000+0  76088-4 0  9990
2 62238  89.0036  33.7673 0001490  93.3293 266.8028 13.50998409109270
QIANFAN-38              
1 62239U 24232C   26056.52553975  .00000066  00000+0  83434-4 0  9992
2 62239  89.0042  33.6931 0014193 347.5585  12.5214 13.51002777109320
QIANFAN-39              
1 62240U 24232D   26056.53752288  .00000318  00000+0  12850-3 0  9996
2 62240  89.0041  28.7486 0015500 185.4450 174.6577 14.25429216112042
QIANFAN-40              
1 62241U 24232E   26056.55845039  .00000077  00000+0  10079-3 0  9999
2 62241  89.0071  33.2953 0013524 356.0790   4.0253 13.51001934109698
QIANFAN-41              
1 62242U 24232F   26056.56672430  .00000065  00000+0  82983-4 0  9995
2 62242  89.0041  33.6393 0013477 343.7629  16.3088 13.50999592109359
QIANFAN-42              
1 62243U 24232G   26056.58313290  .00000304  00000+0  12494-3 0  9999
2 62243  89.0039  28.8018 0014120 191.0315 169.0570 14.24523511112025
QIANFAN-43              
1 62244U 24232H   26056.56257635  .00000062  00000+0  77075-4 0  9996
2 62244  89.0044  33.7083 0015166 348.2438  11.8357 13.51003674 77964
QIANFAN-44              
1 62245U 24232J   26056.55022753  .00000062  00000+0  77198-4 0  9993
2 62245  89.0043  33.5191 0013284 346.2594  13.8194 13.51001567109430
QIANFAN-45              
1 62246U 24232K   26056.51732547  .00000069  00000+0  88421-4 0  9997
2 62246  89.0046  33.6716 0013933 345.5691  14.5060 13.50999298109356
QIANFAN-46              
1 62247U 24232L   26056.54198867  .00000055  00000+0  66555-4 0  9991
2 62247  89.0042  33.7350 0014184 351.1087   8.9811 13.51002152109311
QIANFAN-47              
1 62248U 24232M   26056.54610026  .00000067  00000+0  84538-4 0  9992
2 62248  89.0039  33.6645 0014576 349.9989  10.0869 13.51002112109341
QIANFAN-48              
1 62249U 24232N   26056.58314301  .00000064  00000+0  80383-4 0  9995
2 62249  89.0042  33.6657 0016906 351.4127   8.6732 13.51002344109350
QIANFAN-49              
1 62250U 24232P   26056.57079490  .00000059  00000+0  72547-4 0  9990
2 62250  89.0042  33.6788 0013816 347.4590  12.6215 13.51001425 77942
QIANFAN-50              
1 62251U 24232Q   26056.52141441  .00000070  00000+0  90681-4 0  9994
2 62251  89.0047  33.6960 0015508 348.0798  11.9984 13.51002369 77962
QIANFAN-51              
1 62252U 24232R   26056.57905413  .00000063  00000+0  78526-4 0  9993
2 62252  89.0041  33.6795 0013151 353.0633   7.0334 13.51003181 77967
QIANFAN-52              
1 62253U 24232S   26056.53377775  .00000060  00000+0  74809-4 0  9991
2 62253  89.0037  33.5547 0014858 344.1382  15.9301 13.50999770 78043
QIANFAN-53              
1 62254U 24232T   26056.58725264  .00000076  00000+0  99501-4 0  9990
2 62254  89.0045  33.6594 0013785 345.7253  14.3506 13.51002447 78012
QIANFAN-54              
1 62255U 24232U   26056.55435682  .00000070  00000+0  89992-4 0  9997
2 62255  89.0037  33.3347 0003564  51.3431 308.8039 13.51001791109512
QIANFAN-55              
1 62785U 25016A   26056.58036033  .00000054  00000+0  64476-4 0  9998
2 62785  88.9704  95.4714 0019143 128.8361 231.4503 13.50995597 57297
QIANFAN-56              
1 62786U 25016B   26056.52268000  .00000037  00000+0  37710-4 0  9996
2 62786  88.9678  95.2935 0017747 130.8614 229.4079 13.50997594 57332
QIANFAN-57              
1 62787U 25016C   26056.55565846  .00000048  00000+0  55673-4 0  9998
2 62787  88.9709  95.4668 0001397  89.4281 270.7030 13.50996447 57305
QIANFAN-58              
1 62788U 25016D   26056.52679669  .00000048  00000+0  54996-4 0  9992
2 62788  88.9679  95.2784 0015789 123.6127 236.6534 13.50998015 57346
QIANFAN-59              
1 62789U 25016E   26056.55161161  .00000041  00000+0  44293-4 0  9991
2 62789  88.9702  95.3673 0016091 126.9455 233.3173 13.50994012 57345
QIANFAN-60              
1 62790U 25016F   26056.51046516  .00000044  00000+0  48952-4 0  9994
2 62790  88.9683  95.3287 0017690 124.2533 236.0296 13.50992014 57324
QIANFAN-61              
1 62791U 25016G   26056.54339330  .00000049  00000+0  57632-4 0  9997
2 62791  88.9750  95.5392 0016629 123.4126 236.8618 13.50993310 57347
QIANFAN-62              
1 62792U 25016H   26056.54745371  .00000046  00000+0  52874-4 0  9994
2 62792  88.9697  95.3667 0018004 123.9711 236.3154 13.50996034 57330
QIANFAN-63              
1 62793U 25016J   26056.57216585  .00000054  00000+0  64117-4 0  9990
2 62793  88.9703  95.3207 0017982 128.7374 231.5388 13.50994499 57374
QIANFAN-64              
1 62794U 25016K   26056.53928037  .00000052  00000+0  61182-4 0  9996
2 62794  88.9690  95.2881 0016025 122.0968 238.1741 13.50992610 57368
QIANFAN-65              
1 62795U 25016L   26056.53514747  .00000051  00000+0  60057-4 0  9995
2 62795  88.9687  95.3119 0015852 123.5724 236.6944 13.51008135 57340
QIANFAN-66              
1 62796U 25016M   26056.48982004  .00000043  00000+0  48291-4 0  9992
2 62796  88.9706  95.3014 0017013 120.0835 240.2006 13.50996297 57381
QIANFAN-67              
1 62797U 25016N   26056.56793266  .00000046  00000+0  52218-4 0  9999
2 62797  88.9697  95.3115 0016883 125.9683 234.3037 13.50994643 57361
QIANFAN-68              
1 62798U 25016P   26056.55987680  .00000035  00000+0  34593-4 0  9998
2 62798  88.9700  95.3603 0016968 124.4526 235.8232 13.50992592 57345
QIANFAN-69              
1 62799U 25016Q   26056.57632023  .00000054  00000+0  65390-4 0  9999
2 62799  88.9678  95.2119 0017702 125.5029 234.7777 13.50992914 57382
QIANFAN-70              
1 62800U 25016R   26056.51867403  .00000036  00000+0  37400-4 0  9999
2 62800  88.9700  95.3722 0017427 117.0078 243.2854 13.50996534 57334
QIANFAN-71              
1 62801U 25016S   26056.58856095  .00000041  00000+0  45093-4 0  9995
2 62801  88.9694  95.3399 0017548 128.5855 231.6871 13.50996033 57346
QIANFAN-72              
1 62802U 25016T   26056.53096035  .00000044  00000+0  49360-4 0  9995
2 62802  88.9684  95.3519 0020661 135.9520 224.3282 13.50995738 57325
QIANFAN-73              
1 63159U 25046A   26056.63189363  .00000140  00000+0  19778-3 0  9998
2 63159  88.9772 312.2895 0013164 269.5575  90.4068 13.50995874 57528
QIANFAN-74              
1 63160U 25046B   26056.61549503  .00000152  00000+0  21687-3 0  9999
2 63160  88.9771 312.1800 0001855  77.3148 282.8211 13.50995266 57587
QIANFAN-75              
1 63161U 25046C   26056.60265004  .00000148  00000+0  21105-3 0  9990
2 63161  88.9773 312.4161 0014426 273.0634  86.8866 13.50999209 57451
QIANFAN-76              
1 63162U 25046D   26056.59905133  .00000150  00000+0  21342-3 0  9999
2 63162  88.9772 312.3965 0011982 274.2764  85.7018 13.51011278 57463
QIANFAN-77              
1 63163U 25046E   26056.58202514  .00000326  00000+0  22715-3 0  9992
2 63163  88.9768 309.7906 0013583 200.8274 159.2351 13.96168297 58892
QIANFAN-78              
1 63164U 25046F   26056.64013171  .00000152  00000+0  21707-3 0  9996
2 63164  88.9771 312.2556 0013383 276.5521  83.4106 13.51002151 57544
QIANFAN-79              
1 63165U 25046G   26056.59506752  .00000163  00000+0  23422-3 0  9991
2 63165  88.9775 312.3707 0013183 274.9472  85.0174 13.51005835 57481
QIANFAN-80              
1 63166U 25046H   26056.53724866  .00000154  00000+0  21980-3 0  9991
2 63166  88.9772 312.0815 0012086 280.0539  79.9248 13.50999828 57633
QIANFAN-81              
1 63167U 25046J   26056.58937188  .00000152  00000+0  21687-3 0  9992
2 63167  88.9772 312.1439 0012989 267.4637  92.5027 13.50981473 57595
QIANFAN-82              
1 63168U 25046K   26056.62369844  .00000158  00000+0  22654-3 0  9997
2 63168  88.9772 312.1843 0011136 275.7419  84.2462 13.50996886 57582
QIANFAN-83              
1 63169U 25046L   26056.63400560  .00000187  00000+0  22724-3 0  9990
2 63169  88.9772 311.8127 0012270 253.5889 106.3920 13.62016408 57793
QIANFAN-84              
1 63170U 25046M   26056.57729117  .00000156  00000+0  22368-3 0  9997
2 63170  88.9772 312.3215 0014119 271.1477  88.8056 13.50981840 57503
QIANFAN-85              
1 63171U 25046N   26056.57431881  .00000146  00000+0  20831-3 0  9998
2 63171  88.9771 312.1935 0011541 274.4992  85.4841 13.50999581 57577
QIANFAN-86              
1 63172U 25046P   26056.58255172  .00000155  00000+0  22194-3 0  9991
2 63172  88.9774 312.0564 0009454 280.2754  79.7331 13.50998672 57658
QIANFAN-87              
1 63173U 25046Q   26056.62794209  .00000161  00000+0  23058-3 0  9993
2 63173  88.9770 312.1605 0010057 274.0542  85.9459 13.51007085 57592
QIANFAN-88              
1 63174U 25046R   26056.64420162  .00000112  00000+0  15537-3 0  9999
2 63174  88.9772 312.1152 0010584 283.3639  76.6332 13.51001148 57622
QIANFAN-89              
1 63175U 25046S   26056.53332108  .00000144  00000+0  20472-3 0  9999
2 63175  88.9773 312.3158 0014914 271.8192  88.1251 13.51005949 57507
QIANFAN-90              
1 63176U 25046T   26056.63621846  .00000153  00000+0  21912-3 0  9991
2 63176  88.9773 312.2776 0011838 270.3092  89.6703 13.51005707 57531
QIANFAN-91              
1 66033U 25233A   26056.52060020  .00000030  00000+0  28570-4 0  9995
2 66033  88.9918  54.4856 0001852  91.9459 268.1904 13.50992880 18103
QIANFAN-92              
1 66034U 25233B   26056.52875680  .00000033  00000+0  33239-4 0  9993
2 66034  88.9902  54.4748 0001950  85.9116 274.2258 13.50995996 18100
QIANFAN-93              
1 66035U 25233C   26056.53699249  .00000055  00000+0  66136-4 0  9996
2 66035  88.9929  54.4957 0001852  90.1390 269.9973 13.50995670 18109
QIANFAN-94              
1 66036U 25233D   26056.52443934  .00000030  00000+0  27378-4 0  9992
2 66036  88.9925  54.4039 0002017  89.1210 271.0172 13.50991412 18150
QIANFAN-95              
1 66037U 25233E   26056.45877690  .00000080  00000+0  10519-3 0  9998
2 66037  88.9923  53.9572 0014123 156.7726 203.4066 13.50971894 18398
QIANFAN-96              
1 66038U 25233F   26056.55761847  .00000041  00000+0  45439-4 0  9993
2 66038  88.9920  54.4933 0001830  93.9599 266.1762 13.50993245 18106
QIANFAN-97              
1 66039U 25233G   26056.54114577  .00000045  00000+0  50683-4 0  9996
2 66039  88.9924  54.4753 0001862  91.6003 268.5361 13.50994444 18115
QIANFAN-98              
1 66040U 25233H   26056.54934007  .00000040  00000+0  43271-4 0  9996
2 66040  88.9913  54.2175 0002428  89.7128 270.4301 13.51004041 18253
QIANFAN-99              
1 66041U 25233J   26056.55348311  .00000044  00000+0  49058-4 0  9998
2 66041  88.9924  54.4774 0002268  92.5968 267.5443 13.50994416 18111
QIANFAN-100             
1 66042U 25233K   26056.54521574  .00000046  00000+0  52839-4 0  9995
2 66042  88.9935  54.3927 0001848  90.5548 269.5815 13.50995919 18167
QIANFAN-101             
1 66043U 25233L   26056.57228084  .00000529  00000+0  21244-3 0  9990
2 66043  88.9925  53.3836 0016150 142.6658 217.5661 14.26724376 18712
QIANFAN-102             
1 66044U 25233M   26056.56561503  .00000043  00000+0  48341-4 0  9995
2 66044  88.9922  54.3884 0002041  89.9808 270.1577 13.50991933 18169
QIANFAN-103             
1 66045U 25233N   26056.56996998  .00000057  00000+0  69962-4 0  9993
2 66045  88.9925  54.4800 0001832  90.4756 269.6605 13.50989458 18117
QIANFAN-104             
1 66046U 25233P   26056.57392686  .00000048  00000+0  55093-4 0  9999
2 66046  88.9929  54.3768 0002080  87.3561 272.7828 13.51009593 18160
QIANFAN-105             
1 66047U 25233Q   26056.58192385  .00000046  00000+0  53294-4 0  9994
2 66047  88.9943  54.2040 0001953  92.7930 267.3445 13.50981018 18274
QIANFAN-106             
1 66048U 25233R   26056.57816456  .00000050  00000+0  58338-4 0  9995
2 66048  88.9911  54.4525 0002355  90.2193 269.9228 13.50995155 18129
QIANFAN-107             
1 66049U 25233S   26056.58641143  .00000038  00000+0  39494-4 0  9994
2 66049  88.9927  54.4664 0001869  90.0121 270.1244 13.50992336 18129
QIANFAN-108             
1 66050U 25233T   26056.59052232  .00000032  00000+0  31333-4 0  9990
2 66050  88.9920  54.4616 0002318  89.3123 270.8294 13.50994344 18127
