ORBCOMM FM06            
1 25118U 97084G   26149.45948043  .00001312  00000+0  39281-3 0  9996
2 25118  45.0124 142.8647 0002291 272.7520 253.9143 14.47507526491671
ORBCOMM FM04            
1 25159U 98007C   26149.44292691  .00001155  00000+0  44099-3 0  9995
2 25159 107.9623 130.8425 0040693 357.1608   2.9296 14.35700030473901
ORBCOMM FM19            
1 25415U 98046C   26149.54675199  .00001176  00000+0  41953-3 0  9991
2 25415  44.9950 332.1630 0003551 205.4893 192.6028 14.39457624454098
ORBCOMM FM20            
1 25416U 98046D   26148.90842112  .00000870  00000+0  33126-3 0  9995
2 25416  44.9954 342.9077 0000708 180.3823 179.7024 14.38034953454011
ORBCOMM FM27            
1 25481U 98053G   26149.09719697  .00001190  00000+0  42706-3 0  9997
2 25481  45.0058  66.0204 0001020 337.4569  22.6235 14.39098834447488
ORBCOMM FM32            
1 25982U 99065C   26149.45149113  .00000748  00000+0  29692-3 0  9994
2 25982  45.0154 261.9219 0005618 306.5656  53.4675 14.37103264384396
ORBCOMM FM109           
1 40086U 14040A   26149.46955367  .00000408  00000+0  12267-3 0  9996
2 40086  47.0016 179.9814 0001141 185.1600 174.9274 14.58820418631617
ORBCOMM FM114           
1 41179U 15081A   26149.14449735  .00000561  00000+0  15488-3 0  9996
2 41179  47.0045  92.0331 0001384 110.7735 249.3299 14.58831949554972
ORBCOMM FM110           
1 41182U 15081D   26149.20160169  .00000816  00000+0  20901-3 0  9997
2 41182  47.0017  91.2087 0003545 336.8178  23.2548 14.58845485554850
ORBCOMM FM118           
1 41183U 15081E   26149.16738652  .00000717  00000+0  18787-3 0  9990
2 41183  47.0039  91.6979 0003875 305.2012  54.8510 14.58863130554959
ORBCOMM FM112           
1 41184U 15081F   26148.96681875  .00000853  00000+0  21661-3 0  9998
2 41184  47.0006   1.1323 0002561 123.4397 236.6734 14.58871797556149
ORBCOMM FM113           
1 41185U 15081G   26149.01137373  .00000544  00000+0  15137-3 0  9993
2 41185  47.0021   1.2887 0001143 131.6382 228.4602 14.58833765556138
ORBCOMM FM108           
1 41187U 15081J   26148.56299354  .00000822  00000+0  21017-3 0  9995
2 41187  47.0051 274.9782 0001973 125.8333 234.2737 14.58840336557214
ORBCOMM FM117           
1 41188U 15081K   26149.35031514  .00000824  00000+0  21057-3 0  9992
2 41188  47.0014 269.8953 0002515 135.1394 224.9696 14.58839379557373
ORBCOMM FM116           
1 41189U 15081L   26148.98847755  .00000872  00000+0  22080-3 0  9993
2 41189  47.0038   1.3954 0001743 327.1630  32.9148 14.58849947556132
