IRIDIUM 106             
1 41917U 17003A   26058.14030381  .00000151  00000+0  46690-4 0  9999
2 41917  86.4000 134.5676 0001828 102.7989 257.3411 14.34217230477434
IRIDIUM 103             
1 41918U 17003B   26058.19738820 -.00000069  00000+0 -31719-4 0  9994
2 41918  86.4001 134.4438 0002168  87.6841 272.4603 14.34217156477468
IRIDIUM 109             
1 41919U 17003C   26058.20373015 -.00000046  00000+0 -23354-4 0  9999
2 41919  86.4001 134.4985 0002086  95.8490 264.2944 14.34217337477431
IRIDIUM 102             
1 41920U 17003D   26058.17201653  .00000201  00000+0  64806-4 0  9993
2 41920  86.4000 134.4382 0002204  97.4683 262.6763 14.34217383477518
IRIDIUM 105             
1 41921U 17003E   26058.13910646  .00000260  00000+0  85355-4 0  9996
2 41921  86.3933 102.9096 0002272  93.5809 266.5646 14.34395502479365
IRIDIUM 104             
1 41922U 17003F   26058.11493498  .00000042  00000+0  79509-5 0  9999
2 41922  86.3999 134.5028 0002461  90.8188 269.3290 14.34217311477493
IRIDIUM 114             
1 41923U 17003G   26058.19104512  .00000022  00000+0  76351-6 0  9995
2 41923  86.3999 134.4547 0002287  91.1773 268.9684 14.34217487477484
IRIDIUM 108             
1 41924U 17003H   26058.14956564  .00000014  00000+0 -19855-5 0  9990
2 41924  86.3922 102.7929 0002299  95.6566 264.4892 14.34217746479331
IRIDIUM 112             
1 41925U 17003J   26058.17835990  .00000013  00000+0 -24665-5 0  9997
2 41925  86.3996 134.3071 0002242  95.6828 264.4623 14.34217112477507
IRIDIUM 111             
1 41926U 17003K   26058.16567420  .00000111  00000+0  32685-4 0  9995
2 41926  86.3998 134.3806 0002135  94.5224 265.6215 14.34217329477482
IRIDIUM 113             
1 42803U 17039A   26057.86656506 -.00000038  00000+0 -20464-4 0  9991
2 42803  86.4010   8.2690 0002174  82.9589 277.1854 14.34217264455370
IRIDIUM 123             
1 42804U 17039B   26058.18711579  .00000155  00000+0  48434-4 0  9995
2 42804  86.3952  39.5950 0002069  82.4196 277.7234 14.34217409454180
IRIDIUM 120             
1 42805U 17039C   26057.86021942  .00000205  00000+0  65985-4 0  9994
2 42805  86.4006   8.0673 0002081  87.8312 272.3122 14.34216063455361
IRIDIUM 115             
1 42806U 17039D   26057.32789005  .00000393  00000+0  11086-3 0  9997
2 42806  86.4539   8.4039 0001890  81.1139 279.0276 14.43282337458278
IRIDIUM 118             
1 42807U 17039E   26057.93975329  .00000163  00000+0  51279-4 0  9995
2 42807  86.3953  39.6970 0002285  86.1072 274.0385 14.34216757454149
IRIDIUM 117             
1 42808U 17039F   26057.88901479  .00000121  00000+0  36198-4 0  9992
2 42808  86.3954  39.6772 0002124  84.6010 275.5428 14.34218038454168
IRIDIUM 126             
1 42809U 17039G   26058.19345998  .00000103  00000+0  29677-4 0  9990
2 42809  86.3952  39.5988 0002211  82.3782 277.7665 14.34218106454188
IRIDIUM 124             
1 42810U 17039H   26057.74722185  .00000401  00000+0  11323-3 0  9998
2 42810  86.4540 336.5450 0002122  83.3528 276.7915 14.43263592459189
IRIDIUM 128             
1 42811U 17039J   26058.11442879  .00000044  00000+0  84923-5 0  9991
2 42811  86.3905  71.1721 0002015  94.2067 265.9359 14.34217489454201
IRIDIUM 121             
1 42812U 17039K   26057.93341372  .00000202  00000+0  65139-4 0  9990
2 42812  86.3953  39.7344 0002205  91.0040 269.1408 14.34218027454023
IRIDIUM 133             
1 42955U 17061A   26058.07637330  .00000032  00000+0  44732-5 0  9999
2 42955  86.3908  71.3032 0002149  90.4425 269.7017 14.34217628438990
IRIDIUM 100             
1 42956U 17061B   26058.07003025  .00000031  00000+0  41212-5 0  9997
2 42956  86.3907  71.2271 0002178  90.4429 269.7016 14.34217664438999
IRIDIUM 122             
1 42957U 17061C   26058.10808370  .00000091  00000+0  25391-4 0  9993
2 42957  86.3908  71.2111 0002164  87.8763 272.2680 14.34217511439000
IRIDIUM 129             
1 42958U 17061D   26058.13345762  .00000008  00000+0 -42112-5 0  9998
2 42958  86.3907  71.2664 0002469  89.4106 270.7372 14.34217522439025
IRIDIUM 119             
1 42959U 17061E   26058.10174450  .00000027  00000+0  26952-5 0  9994
2 42959  86.3909  71.2749 0002317  87.0074 273.1387 14.34217672439032
IRIDIUM 107             
1 42960U 17061F   26058.12077125  .00000036  00000+0  56246-5 0  9998
2 42960  86.3908  71.2875 0001981  84.7544 275.3878 14.34217738439048
IRIDIUM 132             
1 42961U 17061G   26058.12711351 -.00000204  00000+0 -79830-4 0  9997
2 42961  86.3907  71.2654 0002109  88.6896 271.4541 14.34216764439041
IRIDIUM 136             
1 42962U 17061H   26058.08905932  .00000033  00000+0  47079-5 0  9992
2 42962  86.3908  71.2872 0002207  87.6508 272.4941 14.34217631439053
IRIDIUM 139             
1 42963U 17061J   26058.09540173  .00000030  00000+0  35266-5 0  9998
2 42963  86.3910  71.3447 0002115  90.6074 269.5364 14.34217600439069
IRIDIUM 125             
1 42964U 17061K   26058.08271586 -.00000026  00000+0 -16283-4 0  9991
2 42964  86.3910  71.4094 0002094  74.6256 285.5171 14.34217367439074
IRIDIUM 135             
1 43070U 17083A   26057.84753677  .00000312  00000+0  10435-3 0  9991
2 43070  86.4010   8.1203 0002207  86.1575 273.9874 14.34214561428333
IRIDIUM 138             
1 43071U 17083B   26058.15198147  .00000031  00000+0  40736-5 0  9999
2 43071  86.4023   7.6720 0002451  79.0878 281.0594 14.34217857428367
IRIDIUM 116             
1 43072U 17083C   26057.84119393 -.00000028  00000+0 -17188-4 0  9993
2 43072  86.4009   8.1107 0001838  92.2710 267.8697 14.34217289428351
IRIDIUM 130             
1 43073U 17083D   26057.60017450  .00000301  00000+0  10031-3 0  9990
2 43073  86.4015   8.4753 0001900  85.2286 274.9126 14.34216630428264
IRIDIUM 151             
1 43074U 17083E   26057.78411081 -.00000009  00000+0 -10130-4 0  9996
2 43074  86.4007   8.1899 0002037  86.1671 273.9758 14.34217478428311
IRIDIUM 134             
1 43075U 17083F   26057.68262900 -.00000020  00000+0 -14255-4 0  9995
2 43075  86.4012   8.2384 0001943  83.3333 276.8084 14.34217476428263
IRIDIUM 137             
1 43076U 17083G   26057.83485175  .00000001  00000+0 -66373-5 0  9991
2 43076  86.4008   8.2655 0002102  98.3099 261.8335 14.34217373428352
IRIDIUM 141             
1 43077U 17083H   26057.61921858  .00000287  00000+0  95509-4 0  9998
2 43077  86.4008   8.1922 0002281  83.5136 276.6319 14.34216937428323
IRIDIUM 153             
1 43078U 17083J   26058.12953086 -.00000048  00000+0 -24077-4 0  9993
2 43078  86.4018 336.4926 0002139  77.4472 282.6963 14.34217204429504
IRIDIUM 131             
1 43079U 17083K   26057.32744028  .00000192  00000+0  61400-4 0  9998
2 43079  86.4014   8.4927 0002271  86.6320 273.5135 14.34219883428211
IRIDIUM 144             
1 43249U 18030A   26058.13587211 -.00000029  00000+0 -17594-4 0  9995
2 43249  86.4012 336.4216 0001911  86.3881 273.7533 14.34217509414360
IRIDIUM 149             
1 43250U 18030B   26058.14221541  .00000236  00000+0  77046-4 0  9995
2 43250  86.4016 336.3871 0002196  84.4389 275.7057 14.34217265414384
IRIDIUM 157             
1 43251U 18030C   26057.74263133  .00000016  00000+0 -13088-5 0  9998
2 43251  86.4015 336.6048 0002055  85.0516 275.0914 14.34217845414307
IRIDIUM 140             
1 43252U 18030D   26058.18027129 -.00000032  00000+0 -18442-4 0  9998
2 43252  86.4016 336.4349 0001942  83.4129 276.7287 14.34217269414421
IRIDIUM 145             
1 43253U 18030E   26058.09781564  .00000179  00000+0  56895-4 0  9993
2 43253  86.4017 336.4419 0001811  90.8399 269.3004 14.34216791414342
IRIDIUM 146             
1 43254U 18030F   26058.14855763 -.00000029  00000+0 -17462-4 0  9996
2 43254  86.4016 336.4334 0001861  87.2256 272.9152 14.34217366414360
IRIDIUM 148             
1 43255U 18030G   26058.11684521  .00000282  00000+0  93564-4 0  9992
2 43255  86.4017 336.4881 0002151  86.1097 274.0345 14.34216965414397
IRIDIUM 142             
1 43256U 18030H   26058.15490066 -.00000038  00000+0 -20745-4 0  9998
2 43256  86.4015 336.3651 0001763  89.9682 270.1715 14.34217070414362
IRIDIUM 150             
1 43257U 18030J   26058.12318576  .00000119  00000+0  35514-4 0  9999
2 43257  86.4020 336.4910 0002012  83.8388 276.3037 14.34218771414388
IRIDIUM 143             
1 43258U 18030K   26058.17392830 -.00000033  00000+0 -18923-4 0  9992
2 43258  86.4023 336.5580 0001796  87.0114 273.1287 14.34217229414320
IRIDIUM 161             
1 43478U 18047C   26058.14095800  .00000341  00000+0  95486-4 0  9997
2 43478  86.4520 134.4893 0002549  94.5464 265.6028 14.43279694409266
IRIDIUM 152             
1 43479U 18047D   26058.14664616  .00000210  00000+0  67775-4 0  9990
2 43479  86.3995 134.3473 0002250  94.2406 265.9047 14.34216779406713
IRIDIUM 147             
1 43480U 18047E   26058.08322072 -.00000008  00000+0 -98149-5 0  9999
2 43480  86.3995 134.3767 0002057 100.5072 259.6355 14.34217434406706
IRIDIUM 110             
1 43481U 18047F   26058.15933316 -.00000047  00000+0 -23965-4 0  9993
2 43481  86.3999 134.4339 0002498  91.6527 268.4955 14.34217215406702
IRIDIUM 162             
1 43482U 18047G   26058.20398413  .00000332  00000+0  92815-4 0  9998
2 43482  86.4517 134.3554 0002149  91.1327 269.0120 14.43278681409263
IRIDIUM 160             
1 43569U 18061A   26058.17493698 -.00000026  00000+0 -16390-4 0  9993
2 43569  86.3931 102.8162 0002264  94.6441 265.5013 14.34217296397607
IRIDIUM 166             
1 43570U 18061B   26058.13053787  .00000204  00000+0  65646-4 0  9996
2 43570  86.3926 102.7869 0002144  97.1803 262.9636 14.34217197397627
IRIDIUM 158             
1 43571U 18061C   26058.16858905  .00000233  00000+0  76125-4 0  9991
2 43571  86.3931 102.7811 0002172  89.3360 270.8085 14.34219975397591
IRIDIUM 165             
1 43572U 18061D   26058.12419475 -.00000125  00000+0 -51860-4 0  9994
2 43572  86.3932 102.8434 0002030  98.2289 261.9137 14.34216896397618
IRIDIUM 155             
1 43573U 18061E   26058.15590855 -.00000034  00000+0 -19356-4 0  9993
2 43573  86.3927 102.7046 0001961  92.5929 267.5491 14.34217194397584
IRIDIUM 154             
1 43574U 18061F   26058.13690102  .00000238  00000+0  78002-4 0  9995
2 43574  86.3932 102.8413 0002156  99.0994 261.0446 14.34219077397638
IRIDIUM 163             
1 43575U 18061G   26058.11785301 -.00000010  00000+0 -10507-4 0  9996
2 43575  86.3931 102.7679 0002111  91.7267 268.4171 14.34217410397606
IRIDIUM 156             
1 43576U 18061H   26058.16225072  .00000016  00000+0 -14168-5 0  9999
2 43576  86.3930 102.7563 0001914  93.1846 266.9569 14.34217534397608
IRIDIUM 164             
1 43577U 18061J   26058.14322369  .00000001  00000+0 -66504-5 0  9990
2 43577  86.3930 102.8026 0002191  98.5494 261.5951 14.34217460397648
IRIDIUM 159             
1 43578U 18061K   26058.11151098  .00000152  00000+0  47074-4 0  9993
2 43578  86.3930 102.7549 0002417  93.1618 266.9854 14.34218747397604
IRIDIUM 180             
1 43922U 19002A   26058.18077498  .00000279  00000+0  92408-4 0  9991
2 43922  86.3950  39.5588 0002351  87.2651 272.8814 14.34217766373221
IRIDIUM 176             
1 43923U 19002B   26057.43959633  .00001181  00000+0  18344-3 0  9998
2 43923  86.6074  39.8276 0002365  86.7201 273.4286 14.72250726382954
IRIDIUM 168             
1 43924U 19002C   26057.47674683  .00000054  00000+0  12093-4 0  9996
2 43924  86.3954  39.9276 0002227  87.8880 272.2571 14.34217872373106
IRIDIUM 173             
1 43925U 19002D   26057.95243865  .00000309  00000+0  10318-3 0  9994
2 43925  86.3952  39.6219 0002194  84.0249 276.1197 14.34219096373152
IRIDIUM 169             
1 43926U 19002E   26058.07591064  .00000171  00000+0  49276-4 0  9999
2 43926  86.4164  71.2304 0001780  71.6835 288.4557 14.38607379374391
IRIDIUM 172             
1 43927U 19002F   26057.94609873  .00000176  00000+0  55819-4 0  9998
2 43927  86.3950  39.6321 0002381  87.8431 272.3037 14.34217389373163
IRIDIUM 175             
1 43928U 19002G   26058.18264881  .00001057  00000+0  16373-3 0  9992
2 43928  86.1547 337.6424 0001940 114.4993 245.6426 14.72252006383050
IRIDIUM 171             
1 43929U 19002H   26057.43869108  .00000071  00000+0  18232-4 0  9995
2 43929  86.3960  40.1387 0001996  90.2033 269.9391 14.34217178373084
IRIDIUM 170             
1 43930U 19002J   26058.19341183  .00000956  00000+0  14773-3 0  9996
2 43930  86.6072  39.5155 0002555  92.3174 267.8336 14.72245137383073
IRIDIUM 167             
1 43931U 19002K   26058.19980215  .00000339  00000+0  11409-3 0  9990
2 43931  86.3952  39.5476 0001846  87.5930 272.5477 14.34218218373191
IRIDIUM 181             
1 56726U 23068S   26058.15004743  .00000324  00000+0  90293-4 0  9995
2 56726  86.4467 102.8089 0002542 100.7714 259.3773 14.43310814146561
IRIDIUM 177             
1 56727U 23068T   26057.92916778  .00001436  00000+0  18547-3 0  9996
2 56727  86.1983  21.1295 0002472  82.4861 277.6641 14.80233529150059
IRIDIUM 174             
1 56728U 23068U   26057.90919228  .00001224  00000+0  19020-3 0  9990
2 56728  86.6079  39.7708 0002658  85.4310 274.7210 14.72246976149793
IRIDIUM 178             
1 56729U 23068V   26058.05346920  .00000526  00000+0  65702-4 0  9994
2 56729  86.6480  71.3898 0002191 101.8553 258.2914 14.80236800150071
IRIDIUM 179             
1 56730U 23068W   26058.11569894  .00000503  00000+0  62786-4 0  9994
2 56730  86.6718  80.0238 0002236  92.4480 267.6998 14.80233653150086
