EUTELSAT 139 WEST A     
1 28187U 04008A   26053.87490936 -.00000262  00000+0  00000+0 0  9999
2 28187   5.5376  73.3854 0000860 113.7791 223.8822  1.00836144 80201
EUTELSAT 174A           
1 28924U 05052A   26053.92050999  .00000011  00000+0  00000+0 0  9996
2 28924   3.9276  77.9516 0006204 255.7768 324.4117  1.00271128 51180
EUTELSAT 33F            
1 29270U 06032A   26053.95476392  .00000158  00000+0  00000+0 0  9994
2 29270   1.3651  83.6032 0003516 247.9408 198.0795  1.00270695 46165
EUTELSAT HOTBIRD 13C    
1 33459U 08065A   26053.87612271 -.00000280  00000+0  00000+0 0  9992
2 33459   2.6551  80.5713 0003658 258.6336  78.6671  1.00272072 46190
EUTELSAT 36B            
1 36101U 09065A   26053.89605612  .00000115  00000+0  00000+0 0  9999
2 36101   0.2009  76.7173 0005850 258.2416 190.8856  1.00272512 59563
EUTELSAT KA-SAT 9A      
1 37258U 10069A   26053.74525540  .00000065  00000+0  00000+0 0  9998
2 37258   0.0542   2.8979 0002376 135.4821 291.5315  1.00273164 42854
EUTELSAT 7 WEST A       
1 37816U 11051A   26053.88461608 -.00000057  00000+0  00000+0 0  9991
2 37816   0.0651 344.5210 0002140 260.0979 219.3054  1.00270557 52736
EUTELSAT 16A            
1 37836U 11057A   26053.88929609  .00000107  00000+0  00000+0 0  9994
2 37836   0.0567   9.9449 0005478 327.2520 151.7076  1.00273202  6197
EUTELSAT 21B            
1 38992U 12062B   26053.98406667  .00000133  00000+0  00000+0 0  9999
2 38992   0.0703  10.9847 0002833 323.4553 194.2722  1.00273230 48684
EUTELSAT 70B            
1 39020U 12069A   26053.90004281 -.00000040  00000+0  00000+0 0  9995
2 39020   0.0647 346.4839 0002336 323.5162 237.2783  1.00271652 48363
EUTELSAT 117 WEST A     
1 39122U 13012A   26053.64896827 -.00000009  00000+0  00000+0 0  9998
2 39122   0.0314 292.6530 0002987  42.0764 294.6283  1.00270660 47280
EUTELSAT 7B             
1 39163U 13022A   26053.81614909  .00000051  00000+0  00000+0 0  9998
2 39163   0.0687 357.0495 0006222 351.4595 104.9990  1.00272587 46804
EXPRESS-AT1             
1 39612U 14010A   26053.89718280  .00000081  00000+0  00000+0 0  9993
2 39612   0.0363 274.9951 0000870 331.2076 285.5594  1.00274357 43676
EXPRESS-AT2             
1 39613U 14010B   26053.91382288  .00000000  00000+0  00000+0 0  9993
2 39613   0.0163 133.0779 0001921 144.8862 343.6721  1.00273098 43351
EUTELSAT 3B             
1 39773U 14030A   26053.88669608  .00000023  00000+0  00000+0 0  9997
2 39773   0.0643 343.7085 0001761 280.5662 210.7909  1.00270599 42926
EUTELSAT 115 WEST B     
1 40425U 15010B   26053.64940161 -.00000021  00000+0  00000+0 0  9991
2 40425   0.0079 264.7891 0000186 178.1287 188.4918  1.00271340 40246
EUTELSAT 8 WEST B       
1 40875U 15039B   26053.88452941 -.00000063  00000+0  00000+0 0  9997
2 40875   0.0692  12.8151 0003877 321.5185 128.8583  1.00271893 38514
EUTELSAT 9B             
1 41310U 16005A   26053.88782276  .00000064  00000+0  00000+0 0  9993
2 41310   0.0241  62.7128 0004676 249.8107 168.8438  1.00270318 36973
EUTELSAT 65 WEST A      
1 41382U 16014A   26053.87317603 -.00000273  00000+0  00000+0 0  9992
2 41382   0.0559  21.1383 0002303 306.7536  74.0057  1.00269600 36382
EUTELSAT 117 WEST B     
1 41589U 16038B   26053.64896827 -.00000007  00000+0  00000+0 0  9997
2 41589   0.0082 266.2562 0000230 179.9113 183.0024  1.00268718 35519
EUTELSAT 172B           
1 42741U 17029B   26053.92016332 -.00000003  00000+0  00000+0 0  9991
2 42741   0.0169 157.3852 0000302  74.4133  64.2713  1.00270608 32590
EUTELSAT 7C             
1 44334U 19034B   26053.23586484  .00000052  00000+0  00000+0 0  9996
2 44334   0.0744 177.1998 0003422 141.5195 285.3150  1.00270360  5686
EUTELSAT 5 WEST B       
1 44624U 19067A   26053.88513608 -.00000039  00000+0  00000+0 0  9999
2 44624   0.0861 312.2691 0003127  25.4088 128.7202  1.00271682 23296
EUTELSAT KONNECT        
1 45027U 20005B   26053.88747609  .00000054  00000+0  00000+0 0  9997
2 45027   0.0641  98.5668 0001174 202.6408 178.2564  1.00277816 23198
EUTELSAT QUANTUM        
1 49056U 21069B   26053.94211500  .00000000  00000+0  00000+0 0  9998
2 49056   0.0172  94.0376 0003042 234.2403 211.4224  1.00272497 16782
EUTELSAT KONNECT VHTS   
1 53765U 22110A   26053.88660941  .00000019  00000+0  00000+0 0  9998
2 53765   0.0563 102.5911 0003056 201.1581 170.8759  1.00268742  5690
EUTELSAT HOTBIRD 13F    
1 54048U 22134A   26053.79836142  .00000090  00000+0  00000+0 0  9996
2 54048   0.0560 294.1394 0002142  61.5263  97.4288  1.00272465 12231
EUTELSAT HOTBIRD 13G    
1 54225U 22146A   26053.88868942  .00000091  00000+0  00000+0 0  9990
2 54225   0.0530 239.4990 0001958 318.0157 288.1840  1.00277647  6328
EUTELSAT 10B            
1 54259U 22157A   26053.88808275  .00000071  00000+0  00000+0 0  9990
2 54259   0.0555 101.7019 0001053  25.4353 355.3379  1.00266788 11883
EUTELSAT 36D            
1 59346U 24059A   26053.89319611  .00000159  00000+0  00000+0 0  9994
2 59346   0.0165 139.3301 0000968 155.3869 215.4872  1.00281086  7003
