IRIDIUM 106             
1 41917U 17003A   26246.23622599  .00000041  00000+0  75143-5 0  9990
2 41917  86.3923  55.8982 0002179  81.8335 278.3108 14.34218534504394
IRIDIUM 103             
1 41918U 17003B   26246.22354082  .00000021  00000+0  59480-6 0  9994
2 41918  86.3923  55.8031 0002335  91.7582 268.3882 14.34218245504418
IRIDIUM 109             
1 41919U 17003C   26246.22988608  .00000025  00000+0  17091-5 0  9997
2 41919  86.3924  55.8611 0002199  90.6952 269.4496 14.34218347504383
IRIDIUM 102             
1 41920U 17003D   26246.26794280  .00000031  00000+0  40932-5 0  9991
2 41920  86.3922  55.7671 0002111  89.5873 270.5564 14.34217810504474
IRIDIUM 105             
1 41921U 17003E   26246.22654085  .00000132  00000+0  39985-4 0  9993
2 41921  86.3988  24.2287 0002155  98.7559 261.3881 14.34216390506320
IRIDIUM 104             
1 41922U 17003F   26246.28064146  .00000031  00000+0  38331-5 0  9996
2 41922  86.3924  55.8055 0002310  97.2518 262.8941 14.34216638504467
IRIDIUM 114             
1 41923U 17003G   26246.28696957  .00000026  00000+0  21239-5 0  9991
2 41923  86.3923  55.7859 0002251  91.9968 268.1485 14.34217727504442
IRIDIUM 108             
1 41924U 17003H   26246.24548711  .00000163  00000+0  51153-4 0  9991
2 41924  86.3982  24.1057 0002090  94.2032 265.9403 14.34219610506290
IRIDIUM 112             
1 41925U 17003J   26246.27428526  .00000020  00000+0  19284-6 0  9999
2 41925  86.3920  55.6295 0002161  92.1194 268.0249 14.34217801504460
IRIDIUM 111             
1 41926U 17003K   26246.26159701  .00000042  00000+0  80398-5 0  9992
2 41926  86.3921  55.7073 0002195  89.8954 270.2494 14.34218274504441
IRIDIUM 113             
1 42803U 17039A   26245.82295382 -.00000011  00000+0 -10945-4 0  9991
2 42803  86.3943 289.7323 0002200  96.2793 263.8653 14.34217370482319
IRIDIUM 123             
1 42804U 17039B   26246.28304006  .00000137  00000+0  41992-4 0  9990
2 42804  86.4000 321.0112 0002321  92.1143 268.0319 14.34219437481141
IRIDIUM 120             
1 42805U 17039C   26246.23522206  .00000079  00000+0  20982-4 0  9991
2 42805  86.3929 289.3322 0002199  90.0237 270.1211 14.34217282482360
IRIDIUM 115             
1 42806U 17039D   26246.25442786  .00000111  00000+0  26860-4 0  9996
2 42806  86.4467 289.4638 0002454  89.5690 270.5792 14.43277623485524
IRIDIUM 118             
1 42807U 17039E   26246.24497995  .00000134  00000+0  40714-4 0  9997
2 42807  86.4000 321.0248 0002206  95.2995 264.8453 14.34220333481134
IRIDIUM 117             
1 42808U 17039F   26246.26401024  .00000134  00000+0  40874-4 0  9995
2 42808  86.3999 320.9737 0002260  93.6563 266.4891 14.34219863481168
IRIDIUM 126             
1 42809U 17039G   26246.21961099  .00000137  00000+0  41898-4 0  9994
2 42809  86.4000 321.0447 0002329  96.1694 263.9767 14.34220118481138
IRIDIUM 124             
1 42810U 17039H   26245.98025427  .00000095  00000+0  22312-4 0  9998
2 42810  86.4429 257.8194 0002425  90.1010 270.0469 14.43280232486331
IRIDIUM 128             
1 42811U 17039J   26246.28011988  .00000179  00000+0  56886-4 0  9996
2 42811  86.4024 352.5117 0002132  91.6453 268.4987 14.34219663481176
IRIDIUM 121             
1 42812U 17039K   26246.23863780  .00000147  00000+0  45500-4 0  9993
2 42812  86.4001 321.0650 0002182  94.1261 266.0184 14.34220269481015
IRIDIUM 133             
1 42955U 17061A   26246.24206471  .00000148  00000+0  45940-4 0  9994
2 42955  86.4026 352.6471 0002170  93.5772 266.5672 14.34218852465966
IRIDIUM 100             
1 42956U 17061B   26246.30548991  .00000136  00000+0  41445-4 0  9991
2 42956  86.4024 352.5374 0002152  94.2452 265.8990 14.34219448465977
IRIDIUM 122             
1 42957U 17061C   26246.27377025  .00000146  00000+0  45008-4 0  9996
2 42957  86.4024 352.5511 0002250  94.9221 265.2232 14.34220818465977
IRIDIUM 129             
1 42958U 17061D   26246.29914674  .00000133  00000+0  40449-4 0  9996
2 42958  86.4025 352.6083 0002199  99.8140 260.3304 14.34219711465998
IRIDIUM 119             
1 42959U 17061E   26246.26743343  .00000173  00000+0  54638-4 0  9996
2 42959  86.4026 352.6178 0002257  95.1456 264.9998 14.34219976466004
IRIDIUM 107             
1 42960U 17061F   26246.21669202  .00000119  00000+0  35373-4 0  9999
2 42960  86.4026 352.6606 0002335  90.1950 269.9513 14.34219972466007
IRIDIUM 132             
1 42961U 17061G   26246.29280530  .00000133  00000+0  40399-4 0  9991
2 42961  86.4026 352.6077 0002178  94.7233 265.4212 14.34219236466010
IRIDIUM 136             
1 42962U 17061H   26246.25475032  .00000160  00000+0  50078-4 0  9996
2 42962  86.4026 352.6308 0002129  94.2965 265.8474 14.34219398466025
IRIDIUM 139             
1 42963U 17061J   26246.26109096  .00000150  00000+0  46335-4 0  9992
2 42963  86.4027 352.6912 0002159  92.9236 267.2207 14.34219891466036
IRIDIUM 125             
1 42964U 17061K   26246.24840822  .00000144  00000+0  44473-4 0  9994
2 42964  86.4029 352.7590 0002700  95.8085 264.3419 14.34219522466043
IRIDIUM 135             
1 43070U 17083A   26246.08300048  .00000077  00000+0  20276-4 0  9990
2 43070  86.3934 289.4554 0002244  93.6285 266.5167 14.34217053455312
IRIDIUM 138             
1 43071U 17083B   26245.96883395 -.00000015  00000+0 -12304-4 0  9995
2 43071  86.3949 289.2101 0002282  96.0374 264.1082 14.34217275455285
IRIDIUM 116             
1 43072U 17083C   26245.65804606 -.00000002  00000+0 -78657-5 0  9990
2 43072  86.3935 289.6178 0002047  86.1492 273.9938 14.34217461455273
IRIDIUM 130             
1 43073U 17083D   26246.11471296  .00000017  00000+0 -10930-5 0  9993
2 43073  86.3943 289.7099 0002200  87.5380 272.6067 14.34217571455280
IRIDIUM 151             
1 43074U 17083E   26245.67073140  .00000020  00000+0  16508-6 0  9991
2 43074  86.3937 289.6720 0002106  92.0198 268.1239 14.34217511455248
IRIDIUM 134             
1 43075U 17083F   26246.05762966  .00000022  00000+0  69358-6 0  9999
2 43075  86.3938 289.5194 0002197  91.8120 268.3328 14.34217554455266
IRIDIUM 137             
1 43076U 17083G   26246.14008248  .00000001  00000+0 -67366-5 0  9990
2 43076  86.3939 289.5793 0001804  90.8536 269.2867 14.34217511455347
IRIDIUM 141             
1 43077U 17083H   26245.57559169  .00000017  00000+0 -90495-6 0  9997
2 43077  86.3936 289.6420 0002301  94.2241 265.9218 14.34217854455261
IRIDIUM 153             
1 43078U 17083J   26246.29522230  .00000097  00000+0  27529-4 0  9990
2 43078  86.3908 257.8030 0002420  92.4496 267.6977 14.34218719456475
IRIDIUM 131             
1 43079U 17083K   26245.56290650  .00000029  00000+0  32459-5 0  9992
2 43079  86.3941 289.8385 0002250  94.6072 265.5381 14.34217924455197
IRIDIUM 144             
1 43249U 18030A   26246.23179525  .00000068  00000+0  17284-4 0  9997
2 43249  86.3906 257.7567 0002225  88.1384 272.0066 14.34217333441326
IRIDIUM 149             
1 43250U 18030B   26246.23814025  .00000055  00000+0  12539-4 0  9994
2 43250  86.3905 257.7203 0002338  91.7451 268.4013 14.34218187441345
IRIDIUM 157             
1 43251U 18030C   26246.25716601  .00000059  00000+0  14132-4 0  9993
2 43251  86.3907 257.7672 0002312  90.8370 269.3091 14.34218667441327
IRIDIUM 140             
1 43252U 18030D   26246.27619418  .00000070  00000+0  17775-4 0  9993
2 43252  86.3907 257.7716 0002324  90.5214 269.6248 14.34218652441381
IRIDIUM 145             
1 43253U 18030E   26246.26350937  .00000066  00000+0  16439-4 0  9992
2 43253  86.3906 257.7490 0002198  83.9001 276.2445 14.34218438441317
IRIDIUM 146             
1 43254U 18030F   26246.24447892  .00000063  00000+0  15296-4 0  9995
2 43254  86.3906 257.7689 0002250  88.2434 271.9019 14.34218880441326
IRIDIUM 148             
1 43255U 18030G   26246.28253628  .00000051  00000+0  11207-4 0  9997
2 43255  86.3907 257.7974 0002204  91.5996 268.5452 14.34217212441369
IRIDIUM 142             
1 43256U 18030H   26246.25082323  .00000053  00000+0  12034-4 0  9998
2 43256  86.3904 257.6967 0002196  87.5038 272.6410 14.34218688441324
IRIDIUM 150             
1 43257U 18030J   26246.21911173  .00000073  00000+0  19111-4 0  9994
2 43257  86.3906 257.8289 0002302  88.7829 271.3630 14.34218445441349
IRIDIUM 143             
1 43258U 18030K   26246.26985035  .00000060  00000+0  14354-4 0  9998
2 43258  86.3910 257.9033 0002313  87.6976 272.4485 14.34220325441289
IRIDIUM 161             
1 43478U 18047C   26245.54220825  .00000047  00000+0  79545-5 0  9998
2 43478  86.4444  56.0984 0002166  95.5546 264.5902 14.43279908436298
IRIDIUM 152             
1 43479U 18047D   26246.24257275  .00000039  00000+0  69953-5 0  9999
2 43479  86.3919  55.6672 0002177  91.1259 269.0186 14.34217906433672
IRIDIUM 147             
1 43480U 18047E   26246.24891336  .00000038  00000+0  64114-5 0  9996
2 43480  86.3920  55.6711 0002090  87.2615 272.8820 14.34217933433673
IRIDIUM 110             
1 43481U 18047F   26246.25525743  .00000034  00000+0  52248-5 0  9995
2 43481  86.3922  55.7624 0002192  97.6556 262.4889 14.34218303433663
IRIDIUM 162             
1 43482U 18047G   26246.22921523  .00000065  00000+0  13256-4 0  9998
2 43482  86.4443  55.7010 0002212  88.9851 271.1603 14.43279937436389
IRIDIUM 160             
1 43569U 18061A   26246.27085451  .00000150  00000+0  46520-4 0  9991
2 43569  86.3985  24.1350 0002099  93.7294 266.4141 14.34220118424568
IRIDIUM 166             
1 43570U 18061B   26246.29622750  .00000153  00000+0  47445-4 0  9994
2 43570  86.3984  24.0738 0002107  90.7034 269.4403 14.34219568424591
IRIDIUM 158             
1 43571U 18061C   26246.26451507  .00000155  00000+0  48355-4 0  9995
2 43571  86.3984  24.0970 0002208  93.0228 267.1220 14.34219490424555
IRIDIUM 165             
1 43572U 18061D   26246.22011684  .00000157  00000+0  48899-4 0  9995
2 43572  86.3985  24.1635 0002110  90.0116 270.1322 14.34219509424571
IRIDIUM 155             
1 43573U 18061E   26246.25183164  .00000156  00000+0  48483-4 0  9990
2 43573  86.3981  24.0154 0002187  90.9053 269.2394 14.34218519424541
IRIDIUM 154             
1 43574U 18061F   26246.30257109  .00000142  00000+0  43693-4 0  9991
2 43574  86.3985  24.1316 0002081  90.6674 269.4760 14.34219150424604
IRIDIUM 163             
1 43575U 18061G   26246.28354113  .00000136  00000+0  41670-4 0  9998
2 43575  86.3983  24.0524 0002174  94.2192 265.9253 14.34219709424575
IRIDIUM 156             
1 43576U 18061H   26246.25817058  .00000175  00000+0  55394-4 0  9999
2 43576  86.3982  24.0705 0002251  89.8610 270.2844 14.34222591424564
IRIDIUM 164             
1 43577U 18061J   26246.30891271  .00000143  00000+0  43915-4 0  9996
2 43577  86.3984  24.0907 0002047  90.6014 269.5417 14.34219582424611
IRIDIUM 159             
1 43578U 18061K   26246.27720055  .00000144  00000+0  44468-4 0  9999
2 43578  86.3983  24.0393 0002163  94.6284 265.5159 14.34219466424577
IRIDIUM 180             
1 43922U 19002A   26246.20693439  .00000138  00000+0  42349-4 0  9995
2 43922  86.3999 321.0027 0002205  95.9493 264.1954 14.34221065400170
IRIDIUM 176             
1 43923U 19002B   26246.25388273  .00000418  00000+0  62423-4 0  9994
2 43923  86.6120 320.9158 0002377  94.0574 266.0915 14.72253549410738
IRIDIUM 168             
1 43924U 19002C   26246.27035409  .00000140  00000+0  42886-4 0  9990
2 43924  86.4002 321.0556 0002196  95.9297 264.2149 14.34219390400160
IRIDIUM 173             
1 43925U 19002D   26246.25766738  .00000139  00000+0  42527-4 0  9995
2 43925  86.3998 320.9466 0002259  95.1133 265.0321 14.34219876400141
IRIDIUM 169             
1 43926U 19002E   26246.22426326  .00000244  00000+0  73090-4 0  9995
2 43926  86.4281 352.5786 0002565  89.0085 271.1408 14.38606927401441
IRIDIUM 172             
1 43927U 19002F   26246.25132620  .00000137  00000+0  41766-4 0  9996
2 43927  86.3999 320.9575 0002216  95.7326 264.4123 14.34219557400158
IRIDIUM 175             
1 43928U 19002G   26245.97684673  .00000088  00000+0  20108-4 0  9997
2 43928  86.4460 257.9920 0002717  10.9734 349.1526 14.43643432410202
IRIDIUM 171             
1 43929U 19002H   26246.23230022  .00000134  00000+0  40942-4 0  9993
2 43929  86.4008 321.2802 0002197  92.6184 267.5263 14.34218748400144
IRIDIUM 170             
1 43930U 19002J   26246.19209550  .00000386  00000+0  57327-4 0  9996
2 43930  86.6118 320.9433 0002409  96.2577 263.8915 14.72247677410732
IRIDIUM 167             
1 43931U 19002K   26246.29572095  .00000131  00000+0  39610-4 0  9998
2 43931  86.3999 320.9619 0002236  87.9061 272.2391 14.34220146400153
IRIDIUM 181             
1 56726U 23068S   26246.31001088  .00000200  00000+0  53429-4 0  9994
2 56726  86.4522  24.1196 0002044  95.0292 265.1143 14.43313090173703
IRIDIUM 177             
1 56727U 23068T   26245.80301371  .00000536  00000+0  67333-4 0  9997
2 56727  86.1940 291.9483 0002598  93.8466 266.3052 14.80048058177842
IRIDIUM 174             
1 56728U 23068U   26245.70396283  .00000590  00000+0  89690-4 0  9993
2 56728  86.6127 321.3026 0002631  97.5928 262.5588 14.72247426177425
IRIDIUM 178             
1 56729U 23068V   26246.26542514  .00000667  00000+0  84700-4 0  9998
2 56729  86.6594 352.7494 0002422  93.5849 266.5649 14.80046203177912
IRIDIUM 179             
1 56730U 23068W   26245.78677492  .00000669  00000+0  84932-4 0  9999
2 56730  86.6828   2.1529 0002374  89.7405 270.4089 14.80048723177843
