IRIDIUM 106             
1 41917U 17003A   26162.23493275  .00000012  00000+0 -26939-5 0  9992
2 41917  86.3962  91.0444 0001806  82.1290 278.0111 14.34217592492358
IRIDIUM 103             
1 41918U 17003B   26162.22224889  .00000023  00000+0  11228-5 0  9991
2 41918  86.3961  90.9495 0002412  79.5578 280.5890 14.34217106492370
IRIDIUM 109             
1 41919U 17003C   26162.22859108  .00000019  00000+0 -42554-6 0  9993
2 41919  86.3962  91.0063 0002202  83.1924 276.9523 14.34217660492342
IRIDIUM 102             
1 41920U 17003D   26162.19687847  .00000042  00000+0  79349-5 0  9996
2 41920  86.3961  90.9431 0002238  85.8253 274.3198 14.34217551492421
IRIDIUM 105             
1 41921U 17003E   26162.22524706  .00000171  00000+0  53904-4 0  9996
2 41921  86.3971  59.3629 0002549  85.1194 275.0293 14.34217704494283
IRIDIUM 104             
1 41922U 17003F   26162.20956399  .00000193  00000+0  61720-4 0  9991
2 41922  86.3963  90.9803 0002524  82.4907 277.6576 14.34217974492419
IRIDIUM 114             
1 41923U 17003G   26162.21590626  .00000006  00000+0 -49420-5 0  9998
2 41923  86.3960  90.9609 0002277  81.7355 278.4099 14.34217490492394
IRIDIUM 108             
1 41924U 17003H   26162.17442740  .00000047  00000+0  96212-5 0  9992
2 41924  86.3965  59.2745 0002253  87.0810 273.0644 14.34217516494240
IRIDIUM 112             
1 41925U 17003J   26162.20322087  .00000033  00000+0  48212-5 0  9990
2 41925  86.3958  90.8085 0002370  84.7412 275.4054 14.34217253492419
IRIDIUM 111             
1 41926U 17003K   26162.19054081  .00000165  00000+0  51850-4 0  9992
2 41926  86.3961  90.8840 0002266  81.7543 278.3910 14.34215396492395
IRIDIUM 113             
1 42803U 17039A   26162.17050048  .00000048  00000+0  10196-4 0  9991
2 42803  86.3966 324.6945 0002315  89.7880 270.3581 14.34217598470327
IRIDIUM 123             
1 42804U 17039B   26162.28174552  .00000157  00000+0  49018-4 0  9997
2 42804  86.3971 356.1067 0002046  84.3488 275.7941 14.34217304469103
IRIDIUM 120             
1 42805U 17039C   26162.16414761  .00000238  00000+0  77796-4 0  9998
2 42805  86.3955 324.4803 0002002  93.8527 266.2898 14.34214030470317
IRIDIUM 115             
1 42806U 17039D   26162.15611891  .00000286  00000+0  79102-4 0  9997
2 42806  86.4492 324.6116 0002000  87.4341 272.7089 14.43281384473396
IRIDIUM 118             
1 42807U 17039E   26162.24369139 -.00000036  00000+0 -19865-4 0  9998
2 42807  86.3968 356.1204 0002098  87.6582 272.4854 14.34217350469099
IRIDIUM 117             
1 42808U 17039F   26162.26271953  .00000044  00000+0  85478-5 0  9998
2 42808  86.3972 356.0704 0002146  85.9860 274.1581 14.34217676469124
IRIDIUM 126             
1 42809U 17039G   26162.07878332  .00000004  00000+0 -57709-5 0  9995
2 42809  86.3967 356.1979 0002122  85.1100 275.0338 14.34217253469072
IRIDIUM 124             
1 42810U 17039H   26161.88194568  .00000234  00000+0  63452-4 0  9992
2 42810  86.4477 292.9957 0002170  92.6409 267.5040 14.43278661474209
IRIDIUM 128             
1 42811U 17039J   26162.13929095  .00000023  00000+0  13252-5 0  9993
2 42811  86.3974  27.6791 0002004  86.0467 274.0958 14.34217524469113
IRIDIUM 121             
1 42812U 17039K   26162.23734896  .00000161  00000+0  50339-4 0  9997
2 42812  86.3971 356.1595 0002124  90.1369 270.0070 14.34217232468973
IRIDIUM 133             
1 42955U 17061A   26162.17100073  .00000090  00000+0  24928-4 0  9993
2 42955  86.3975  27.7835 0002128  85.5174 274.6265 14.34217093453918
IRIDIUM 100             
1 42956U 17061B   26162.16465825  .00000097  00000+0  27657-4 0  9991
2 42956  86.3971  27.7049 0002124  85.3010 274.8428 14.34218797453910
IRIDIUM 122             
1 42957U 17061C   26162.13294785  .00000037  00000+0  62353-5 0  9991
2 42957  86.3973  27.7184 0002198  84.3435 275.8011 14.34217801453918
IRIDIUM 129             
1 42958U 17061D   26162.08854972  .00000082  00000+0  22185-4 0  9994
2 42958  86.3975  27.8039 0002418  87.5929 272.5544 14.34218003453920
IRIDIUM 119             
1 42959U 17061E   26162.12660587  .00000046  00000+0  93041-5 0  9997
2 42959  86.3974  27.7838 0002270  84.1940 275.9515 14.34217757453940
IRIDIUM 107             
1 42960U 17061F   26162.14563266 -.00000028  00000+0 -16967-4 0  9990
2 42960  86.3969  27.7968 0001917  80.2967 279.8445 14.34217296453957
IRIDIUM 132             
1 42961U 17061G   26162.15197533  .00000123  00000+0  36805-4 0  9999
2 42961  86.3974  27.7740 0002210  84.4031 275.7417 14.34217437453958
IRIDIUM 136             
1 42962U 17061H   26162.11392377  .00000157  00000+0  48832-4 0  9999
2 42962  86.3976  27.7965 0002220  84.2115 275.9334 14.34215252453966
IRIDIUM 139             
1 42963U 17061J   26162.12026295  .00000065  00000+0  15989-4 0  9999
2 42963  86.3976  27.8558 0002047  85.9433 274.1997 14.34217607453977
IRIDIUM 125             
1 42964U 17061K   26162.17734669  .00000007  00000+0 -45923-5 0  9995
2 42964  86.3972  27.8924 0002273  73.8055 286.3391 14.34217511453997
IRIDIUM 135             
1 43070U 17083A   26161.94216646  .00000029  00000+0  33552-5 0  9990
2 43070  86.3962 324.6271 0002161  91.3788 268.7655 14.34217681443255
IRIDIUM 138             
1 43071U 17083B   26162.17684287  .00000109  00000+0  31873-4 0  9999
2 43071  86.3977 324.2235 0002388  87.9541 272.1928 14.34218043443274
IRIDIUM 116             
1 43072U 17083C   26162.00559221  .00000035  00000+0  53623-5 0  9997
2 43072  86.3959 324.5864 0001885  95.2789 264.8622 14.34217473443289
IRIDIUM 130             
1 43073U 17083D   26161.97387820 -.00000104  00000+0 -44358-4 0  9990
2 43073  86.3964 324.8745 0001839  88.9003 271.2403 14.34217327443225
IRIDIUM 151             
1 43074U 17083E   26162.15781459  .00000040  00000+0  71792-5 0  9998
2 43074  86.3962 324.5805 0002125  92.0496 268.0944 14.34217609443271
IRIDIUM 134             
1 43075U 17083F   26162.19586994  .00000001  00000+0 -67420-5 0  9991
2 43075  86.3958 324.5724 0001982  89.7481 270.3942 14.34217545443244
IRIDIUM 137             
1 43076U 17083G   26162.20855527  .00000042  00000+0  80089-5 0  9995
2 43076  86.3963 324.6598 0002079 103.4108 256.7320 14.34217532443311
IRIDIUM 141             
1 43077U 17083H   26162.20221268  .00000071  00000+0  18289-4 0  9999
2 43077  86.3959 324.4935 0002207  90.7280 269.4169 14.34217920443315
IRIDIUM 153             
1 43078U 17083J   26162.08462318  .00000011  00000+0 -32999-5 0  9999
2 43078  86.3955 293.0229 0002204  90.7564 269.3884 14.34217527444408
IRIDIUM 131             
1 43079U 17083K   26162.18952772 -.00000002  00000+0 -77711-5 0  9991
2 43079  86.3962 324.6845 0002101  91.8268 268.3169 14.34217316443243
IRIDIUM 144             
1 43249U 18030A   26162.09096530  .00000019  00000+0 -17113-6 0  9992
2 43249  86.3952 292.9495 0001962  96.1135 264.0284 14.34217426429263
IRIDIUM 149             
1 43250U 18030B   26162.09730790  .00000026  00000+0  22698-5 0  9997
2 43250  86.3951 292.9140 0002142  93.4906 266.6535 14.34217733429288
IRIDIUM 157             
1 43251U 18030C   26161.90703036  .00000013  00000+0 -22994-5 0  9996
2 43251  86.3953 293.0465 0002077  94.3172 265.8261 14.34217549429232
IRIDIUM 140             
1 43252U 18030D   26162.06559482  .00000016  00000+0 -14284-5 0  9995
2 43252  86.3953 292.9928 0002011  93.0061 267.1365 14.34217587429317
IRIDIUM 145             
1 43253U 18030E   26162.12267744  .00000173  00000+0  54621-4 0  9991
2 43253  86.3954 292.9410 0001894  98.6779 261.4632 14.34217344429258
IRIDIUM 146             
1 43254U 18030F   26162.10365057  .00000020  00000+0 -81386-7 0  9999
2 43254  86.3955 292.9612 0002089  95.9002 264.2432 14.34217649429268
IRIDIUM 148             
1 43255U 18030G   26162.07193799 -.00000011  00000+0 -11030-4 0  9995
2 43255  86.3955 293.0177 0002093  97.2596 262.8838 14.34217192429295
IRIDIUM 142             
1 43256U 18030H   26162.10999236  .00000145  00000+0  44666-4 0  9997
2 43256  86.3951 292.8907 0002026  97.1445 262.9982 14.34216716429267
IRIDIUM 150             
1 43257U 18030J   26162.07827999  .00000011  00000+0 -29775-5 0  9998
2 43257  86.3953 293.0203 0002009  93.1365 267.0061 14.34217589429285
IRIDIUM 143             
1 43258U 18030K   26162.05925250  .00000179  00000+0  56994-4 0  9992
2 43258  86.3958 293.1205 0002064  95.2141 264.9291 14.34217785429212
IRIDIUM 161             
1 43478U 18047C   26162.20654569  .00000258  00000+0  70606-4 0  9997
2 43478  86.4482  90.9716 0002554  86.8449 273.3044 14.43279537424274
IRIDIUM 152             
1 43479U 18047D   26162.24127674 -.00000009  00000+0 -10273-4 0  9994
2 43479  86.3957  90.8180 0002245  83.6257 276.5194 14.34217368421636
IRIDIUM 147             
1 43480U 18047E   26162.17785015  .00000048  00000+0  10051-4 0  9992
2 43480  86.3959  90.8497 0002164  84.9764 275.1679 14.34217724421626
IRIDIUM 110             
1 43481U 18047F   26162.18419371  .00000017  00000+0 -92797-6 0  9999
2 43481  86.3959  90.9387 0002477  84.9258 275.2221 14.34217565421617
IRIDIUM 162             
1 43482U 18047G   26162.20025058  .00000258  00000+0  70758-4 0  9995
2 43482  86.4480  90.8653 0002328  83.0335 277.1130 14.43278191424260
IRIDIUM 160             
1 43569U 18061A   26162.19979767 -.00000009  00000+0 -10306-4 0  9999
2 43569  86.3962  59.3006 0002175  85.7237 274.4207 14.34217369412512
IRIDIUM 166             
1 43570U 18061B   26162.22516768  .00000207  00000+0  66677-4 0  9993
2 43570  86.3968  59.2407 0002135  86.0708 274.0732 14.34217856412540
IRIDIUM 158             
1 43571U 18061C   26162.19345443  .00000070  00000+0  18037-4 0  9995
2 43571  86.3965  59.2640 0002237  81.9886 278.1564 14.34217729412504
IRIDIUM 165             
1 43572U 18061D   26162.21882240  .00000119  00000+0  35607-4 0  9996
2 43572  86.3969  59.2997 0002084  85.7198 274.4236 14.34216776412531
IRIDIUM 155             
1 43573U 18061E   26162.18076913  .00000017  00000+0 -11074-5 0  9996
2 43573  86.3962  59.1847 0002155  82.2759 277.8682 14.34217726412495
IRIDIUM 154             
1 43574U 18061F   26162.23151014  .00000017  00000+0 -89812-6 0  9995
2 43574  86.3969  59.2970 0002102  87.8114 272.3322 14.34217582412557
IRIDIUM 163             
1 43575U 18061G   26162.21247408  .00000171  00000+0  53850-4 0  9998
2 43575  86.3964  59.2205 0002290  83.4347 276.7109 14.34216272412525
IRIDIUM 156             
1 43576U 18061H   26162.18711078  .00000149  00000+0  46186-4 0  9993
2 43576  86.3963  59.2381 0002115  79.7265 280.4170 14.34216611412519
IRIDIUM 164             
1 43577U 18061J   26162.23785248  .00000071  00000+0  18383-4 0  9992
2 43577  86.3967  59.2573 0002088  88.7305 271.4130 14.34217604412565
IRIDIUM 159             
1 43578U 18061K   26162.20613970  .00000109  00000+0  31746-4 0  9992
2 43578  86.3964  59.2076 0002319  84.5804 275.5657 14.34217120412524
IRIDIUM 180             
1 43922U 19002A   26162.06609816  .00000015  00000+0 -16539-5 0  9990
2 43922  86.3968 356.1571 0002136  88.9429 271.2011 14.34217783388117
IRIDIUM 176             
1 43923U 19002B   26162.24578708  .00000648  00000+0  98840-4 0  9991
2 43923  86.6092 356.0264 0002235  91.5869 268.5604 14.72258953398377
IRIDIUM 168             
1 43924U 19002C   26161.98998819  .00000040  00000+0  72999-5 0  9995
2 43924  86.3974 356.2661 0002183  89.0976 271.0470 14.34217723388085
IRIDIUM 173             
1 43925U 19002D   26162.25637619  .00000008  00000+0 -43309-5 0  9993
2 43925  86.3965 356.0436 0002124  86.5959 273.5480 14.34217115388108
IRIDIUM 169             
1 43926U 19002E   26162.13133374  .00000117  00000+0  31574-4 0  9990
2 43926  86.4231  27.7254 0002074  70.8841 289.2582 14.38605924389354
IRIDIUM 172             
1 43927U 19002F   26162.25003255  .00000168  00000+0  52781-4 0  9997
2 43927  86.3971 356.0545 0002267  89.7215 270.4241 14.34216774388118
IRIDIUM 175             
1 43928U 19002G   26162.10681199  .00000269  00000+0  73532-4 0  9990
2 43928  86.4508 293.0630 0001709 202.5293 157.5834 14.43609386398100
IRIDIUM 171             
1 43929U 19002H   26162.09146732 -.00000256  00000+0 -98405-4 0  9992
2 43929  86.3975 356.4260 0001915  85.9632 274.1783 14.34217558388081
IRIDIUM 170             
1 43930U 19002J   26162.25196972  .00000645  00000+0  98383-4 0  9998
2 43930  86.6091 356.0261 0002363  88.1720 271.9768 14.72259366398380
IRIDIUM 167             
1 43931U 19002K   26162.08512588  .00000054  00000+0  12114-4 0  9997
2 43931  86.3971 356.1455 0001849  87.0532 273.0876 14.34217873388082
IRIDIUM 181             
1 56726U 23068S   26162.21346045  .00000261  00000+0  71496-4 0  9996
2 56726  86.4503  59.2877 0002322  89.7302 270.4165 14.43311417161574
IRIDIUM 177             
1 56727U 23068T   26161.96801033  .00000881  00000+0  11242-3 0  9991
2 56727  86.1959 331.7460 0002414  87.4984 272.6513 14.80218319165445
IRIDIUM 174             
1 56728U 23068U   26162.23961810  .00000662  00000+0  10105-3 0  9997
2 56728  86.6098 356.1782 0002549  84.9771 275.1737 14.72255447165145
IRIDIUM 178             
1 56729U 23068V   26162.15994741  .00000804  00000+0  10242-3 0  9998
2 56729  86.6543  27.8793 0002681  87.6458 272.5071 14.80223080165479
IRIDIUM 179             
1 56730U 23068W   26162.15456348  .00000953  00000+0  12193-3 0  9998
2 56730  86.6782  36.8433 0002405  87.9824 272.1673 14.80235035165478
