EUTELSAT 174A           
1 28924U 05052A   26160.61578653  .00000025  00000+0  00000+0 0  9998
2 28924   4.1993  76.6189 0006301   2.4099 214.6230  1.00269878 52257
EUTELSAT 33F            
1 29270U 06032A   26160.70490182  .00000173  00000+0  00000+0 0  9996
2 29270   1.6412  82.3263 0003348 352.7277 109.9257  1.00275185 47239
EUTELSAT HOTBIRD 13C    
1 33459U 08065A   26160.54575561 -.00000266  00000+0  00000+0 0  9999
2 33459   2.9296  79.2803 0003635   1.2492 323.5594  1.00270483 47263
EUTELSAT 36B            
1 36101U 09065A   26160.56579731  .00000129  00000+0  00000+0 0  9999
2 36101   0.4709  81.0160 0005998 356.2910  74.8040  1.00271095 60639
EUTELSAT KA-SAT 9A      
1 37258U 10069A   26160.70013513  .00000079  00000+0  00000+0 0  9990
2 37258   0.0607  10.3939 0003946 122.0623  26.6729  1.00272375 43931
EUTELSAT 7 WEST A       
1 37816U 11051A   26160.69692845 -.00000043  00000+0  00000+0 0  9993
2 37816   0.0605 356.1295 0004165  95.1235  50.3930  1.00271191 53808
EUTELSAT 16A            
1 37836U 11057A   26160.84402006  .00000121  00000+0  00000+0 0  9992
2 37836   0.0422 358.9445 0005898  82.6338 136.4589  1.00271418  7260
EUTELSAT 21B            
1 38992U 12062B   26160.70256181  .00000147  00000+0  00000+0 0  9997
2 38992   0.0654 356.1981 0003047  79.1688  97.1969  1.00271657 49759
EUTELSAT 70B            
1 39020U 12069A   26160.85489294 -.00000026  00000+0  00000+0 0  9993
2 39020   0.0611 359.6371 0003992  71.7474 205.0859  1.00271807 49436
EUTELSAT 117 WEST A     
1 39122U 13012A   26160.32059764  .00000004  00000+0  00000+0 0  9997
2 39122   0.0468  66.3574 0002750  16.0687 173.8873  1.00272054 48358
EUTELSAT 7B             
1 39163U 13022A   26160.69970179  .00000065  00000+0  00000+0 0  9992
2 39163   0.0698  13.3399 0004906  22.5139 121.1040  1.00271431 47870
EXPRESS-AT1             
1 39612U 14010A   26160.95926848  .00000048  00000+0  00000+0 0  9993
2 39612   0.2376  85.7681 0003908  36.7374 182.6795  1.00302222 44745
EXPRESS-AT2             
1 39613U 14010B   26160.70942241  .00000096  00000+0  00000+0 0  9995
2 39613   0.0155 286.3277 0000209  64.1972 218.9491  1.00270653 44422
EUTELSAT 3B             
1 39773U 14030A   26160.69892179  .00000037  00000+0  00000+0 0  9991
2 39773   0.0610 358.2701 0003929  80.9865  73.5359  1.00272666 43990
EUTELSAT 115 WEST B     
1 40425U 15010B   26159.96266212 -.00000008  00000+0  00000+0 0  9996
2 40425   0.0228 162.5014 0000097 167.0892 159.4034  1.00271121 41317
EUTELSAT 8 WEST B       
1 40875U 15039B   26160.69675512 -.00000049  00000+0  00000+0 0  9990
2 40875   0.0636 358.8404 0003877  76.8069  65.2510  1.00271501 39585
EUTELSAT 9B             
1 41310U 16005A   26160.70013513  .00000079  00000+0  00000+0 0  9990
2 41310   0.0614  72.6377 0001784 333.6851 112.7887  1.00272660 38046
EUTELSAT 65 WEST A      
1 41382U 16014A   26160.40023299 -.00000259  00000+0  00000+0 0  9999
2 41382   0.0503   9.2450 0002248  59.6000 267.8320  1.00272213 37448
EUTELSAT 117 WEST B     
1 41589U 16038B   26160.03340278  .00000004  00000+0  00000+0 0  9999
2 41589   0.0422 159.6913 0000345 138.3370 214.4010  1.00276750 36580
EUTELSAT 172B           
1 42741U 17029B   26160.80360442  .00000012  00000+0  00000+0 0  9990
2 42741   0.0413 137.0712 0000069  80.5941 141.8127  1.00272109 33665
EUTELSAT 7C             
1 44334U 19034B   26160.69970179  .00000066  00000+0  00000+0 0  9998
2 44334   0.0735 173.9808 0003093 249.6594  93.3263  1.00270994  6762
EUTELSAT 5 WEST B       
1 44624U 19067A   26160.69736179 -.00000025  00000+0  00000+0 0  9992
2 44624   0.0630 348.8093 0003092  89.7199  65.6028  1.00271949 24368
EUTELSAT KONNECT        
1 45027U 20005B   26160.12939094  .00000067  00000+0  00000+0 0  9998
2 45027   0.0706  99.2729 0001450 119.5425  92.5263  1.00273234 24250
EUTELSAT QUANTUM        
1 49056U 21069B   26160.63639589  .00000143  00000+0  00000+0 0  9992
2 49056   0.0115 358.7621 0002263  75.5744 100.4800  1.00272619 17852
EUTELSAT KONNECT VHTS   
1 53765U 22110A   26160.62755586  .00000034  00000+0  00000+0 0  9996
2 53765   0.0647 103.4177 0002603 320.1706  63.0435  1.00269352  6766
EUTELSAT HOTBIRD 13F    
1 54048U 22134A   26160.13051760  .00000104  00000+0  00000+0 0  9994
2 54048   0.0486 290.4942 0002085  68.8413 318.1724  1.00271656 13295
EUTELSAT HOTBIRD 13G    
1 54225U 22146A   26160.34445410  .00000103  00000+0  00000+0 0  9995
2 54225   0.0480 235.0729 0001626 312.2826 207.3694  1.00266735  7388
EUTELSAT 10B            
1 54259U 22157A   26160.84289339  .00000085  00000+0  00000+0 0  9994
2 54259   0.0603 102.4463 0001757   8.3990 100.8354  1.00268480 12952
EUTELSAT 36D            
1 59346U 24059A   26160.49155233  .00000173  00000+0  00000+0 0  9993
2 59346   0.0188  16.0447 0000348 163.8870 290.7760  1.00270881  8079
