QIANFAN-1               
1 60379U 24140A   26149.15013255  .00000086  00000+0  11449-3 0  9995
2 60379  88.9717 281.9049 0019574  92.8876 267.4515 13.51011262 89959
QIANFAN-2               
1 60380U 24140B   26149.17884609  .00000089  00000+0  11887-3 0  9997
2 60380  88.9704 281.7183 0014421  69.3155 290.9540 13.51006553 90014
QIANFAN-3               
1 60381U 24140C   26149.18707959  .00000089  00000+0  11843-3 0  9993
2 60381  88.9697 281.8375 0015788  80.0298 280.2634 13.51007629 89924
QIANFAN-4               
1 60382U 24140D   26149.16240566  .00000091  00000+0  12211-3 0  9991
2 60382  88.9721 281.7798 0014704  71.5809 288.6939 13.51010087 90048
QIANFAN-5               
1 60383U 24140E   26149.13771543  .00000094  00000+0  12702-3 0  9991
2 60383  88.9696 281.8674 0017218  89.7670 270.5454 13.51009184 89905
QIANFAN-6               
1 60384U 24140F   26149.15827714  .00000077  00000+0  10087-3 0  9991
2 60384  88.9723 281.6567 0014954  76.6596 283.6221 13.51009673 90106
QIANFAN-7               
1 60385U 24140G   26149.17728094  .00000579  00000+0  22818-3 0  9997
2 60385  88.9760 274.0078 0014454 200.3184 159.7438 14.27817375 94281
QIANFAN-8               
1 60386U 24140H   26149.16644782  .00000090  00000+0  11990-3 0  9995
2 60386  88.9724 281.8956 0018439  77.7959 282.5256 13.51006142 89955
QIANFAN-9               
1 60387U 24140J   26149.14185848  .00000099  00000+0  13437-3 0  9994
2 60387  88.9722 281.9703 0018119  77.7441 282.5738 13.51011654 89933
QIANFAN-10              
1 60388U 24140K   26149.14600817  .00000102  00000+0  13914-3 0  9998
2 60388  88.9733 281.3339 0016066  57.7014 302.5690 13.51012560 90061
QIANFAN-11              
1 60389U 24140L   26149.18288762  .00000092  00000+0  12418-3 0  9990
2 60389  88.9658 281.7917 0016150  77.7805 282.5154 13.51006906 89728
QIANFAN-12              
1 60390U 24140M   26149.12953122  .00000088  00000+0  11775-3 0  9995
2 60390  88.9701 281.9137 0015100  85.4104 274.8772 13.51008948 89848
QIANFAN-13              
1 60391U 24140N   26149.17475098  .00000092  00000+0  12372-3 0  9991
2 60391  88.9713 282.0292 0014960  87.6782 272.6082 13.51008972 89875
QIANFAN-14              
1 60392U 24140P   26149.12528693  .00000078  00000+0  10205-3 0  9994
2 60392  88.9692 281.8965 0018639  87.0960 273.2323 13.51010078 89870
QIANFAN-15              
1 60393U 24140Q   26149.13354051  .00000084  00000+0  11113-3 0  9997
2 60393  88.9716 281.8918 0014223  75.8870 284.3861 13.51011819 89869
QIANFAN-16              
1 60394U 24140R   26149.12136394  .00000084  00000+0  11042-3 0  9996
2 60394  88.9718 282.0182 0016623  90.8079 269.4977 13.51006676 89779
QIANFAN-17              
1 60395U 24140S   26149.11707733  .00000078  00000+0  10115-3 0  9990
2 60395  88.9729 282.0828 0016938  85.1958 275.1127 13.51007388 90731
QIANFAN-18              
1 60396U 24140T   26149.17054927  .00000093  00000+0  12508-3 0  9992
2 60396  88.9723 281.5992 0015967  69.8693 290.4174 13.51011694 90139
QIANFAN-19              
1 61552U 24185A   26149.18397469  .00000468  00000+0  23710-3 0  9991
2 61552  88.9852  58.7429 0008747 115.6513 244.5578 14.14461051 93334
QIANFAN-20              
1 61553U 24185B   26149.08284436  .00000364  00000+0  20237-3 0  9996
2 61553  88.9848  59.2448 0006053 148.6840 211.4706 14.09004857 93050
QIANFAN-21              
1 61554U 24185C   26149.14147909  .00000656  00000+0  28584-3 0  9994
2 61554  88.9768  57.3623 0010561 164.8531 195.2979 14.22832323 93774
QIANFAN-22              
1 61555U 24185D   26149.09534307  .00000288  00000+0  23787-3 0  9992
2 61555  88.9833  60.9001 0005430 184.1357 175.9770 13.86384110 92125
QIANFAN-23              
1 61556U 24185E   26149.20483586  .00000486  00000+0  23700-3 0  9993
2 61556  88.9843  58.4716 0009122 124.0515 236.1540 14.16486772 93456
QIANFAN-24              
1 61557U 24185F   26149.14310164  .00000691  00000+0  29421-3 0  9992
2 61557  88.9828  57.6118 0011409 106.3172 253.9275 14.24048347 93846
QIANFAN-25              
1 61558U 24185G   26149.18304889  .00000506  00000+0  29971-3 0  9999
2 61558  88.9836  59.2285 0011214 156.4566 203.7132 14.06060069 93037
QIANFAN-26              
1 61559U 24185H   26149.13895590  .00000249  00000+0  23550-3 0  9990
2 61559  88.9839  61.6716 0004010 207.2446 152.8510 13.77904375 91727
QIANFAN-27              
1 61560U 24185J   26149.07817071  .00000473  00000+0  18650-3 0  9997
2 61560  88.9837  57.3171 0009810  96.1349 264.0963 14.27520776 94034
QIANFAN-28              
1 61561U 24185K   26149.18022203  .00000820  00000+0  32238-3 0  9999
2 61561  88.9856  57.3162 0009632  93.6669 266.5627 14.28355998 94076
QIANFAN-29              
1 61562U 24185L   26149.19064403  .00000087  00000+0  11611-3 0  9996
2 61562  88.9813  63.9919 0007979 292.2903  67.7402 13.51070379 90400
QIANFAN-30              
1 61563U 24185M   26149.14429588  .00000153  00000+0  22210-3 0  9992
2 61563  88.9833  63.5862 0005370 278.7762  81.2780 13.50047909 90650
QIANFAN-31              
1 61564U 24185N   26149.16087455  .00000186  00000+0  24113-3 0  9998
2 61564  88.9817  63.1208 0004817 262.5779  97.4829 13.58033444 90882
QIANFAN-32              
1 61565U 24185P   26149.16873213  .00000083  00000+0  11064-3 0  9991
2 61565  88.9874  63.7686 0008216 311.7660  48.2788 13.50784583 90646
QIANFAN-33              
1 61566U 24185Q   26149.19727808  .00000365  00000+0  25321-3 0  9997
2 61566  88.9832  60.1272 0008014 145.7717 214.3978 13.96692318 92538
QIANFAN-34              
1 61567U 24185R   26149.18892896  .00000472  00000+0  29814-3 0  9997
2 61567  88.9810  59.4700 0006254 140.6634 219.5001 14.02455793 92826
QIANFAN-35              
1 61568U 24185S   26149.08770308  .00000753  00000+0  29619-3 0  9995
2 61568  88.9837  57.2263 0008832  91.8952 268.3255 14.28244245 94067
QIANFAN-36              
1 61569U 24185T   26149.14607404  .00000119  00000+0  15335-3 0  9995
2 61569  88.9809  63.5899 0004129 285.8849  74.1849 13.55632191 90605
QIANFAN-37              
1 62238U 24232B   26149.15351432  .00000118  00000+0  16402-3 0  9995
2 62238  89.0091  24.4947 0001936  61.1775 298.9570 13.51005425121770
QIANFAN-38              
1 62239U 24232C   26149.17823278  .00000119  00000+0  16573-3 0  9990
2 62239  89.0098  24.4194 0016557  72.6204 287.6756 13.51010567121832
QIANFAN-39              
1 62240U 24232D   26149.19735084  .00000393  00000+0  16004-3 0  9994
2 62240  89.0076  18.2284 0013822 248.0927 111.8797 14.25514981125247
QIANFAN-40              
1 62241U 24232E   26149.13708693  .00000120  00000+0  16659-3 0  9999
2 62241  89.0125  24.0549 0015610  79.7566 280.5344 13.51010343122191
QIANFAN-41              
1 62242U 24232F   26149.14533705  .00000116  00000+0  16108-3 0  9995
2 62242  89.0096  24.3712 0015935  69.3016 290.9842 13.51006514121854
QIANFAN-42              
1 62243U 24232G   26149.16151132  .00000372  00000+0  15396-3 0  9990
2 62243  89.0075  18.3045 0012610 255.8829 104.0962 14.24604649125200
QIANFAN-43              
1 62244U 24232H   26149.14121249  .00000124  00000+0  17383-3 0  9998
2 62244  89.0100  24.4443 0017503  73.7994 286.5082 13.51006423 90469
QIANFAN-44              
1 62245U 24232J   26149.12887659  .00000130  00000+0  18207-3 0  9994
2 62245  89.0098  24.2536 0015701  71.3738 288.9117 13.51008466121936
QIANFAN-45              
1 62246U 24232K   26149.17003176  .00000127  00000+0  17784-3 0  9999
2 62246  89.0102  24.4019 0016367  70.8923 289.3999 13.51006089121864
QIANFAN-46              
1 62247U 24232L   26149.19471273  .00000123  00000+0  17163-3 0  9996
2 62247  89.0098  24.4616 0016446  75.7203 284.5773 13.51006872121828
QIANFAN-47              
1 62248U 24232M   26149.19880771  .00000051  00000+0  60414-4 0  9992
2 62248  89.0094  24.3875 0016858  74.9416 285.3599 13.51005218121856
QIANFAN-48              
1 62249U 24232N   26149.16179664  .00000139  00000+0  19567-3 0  9991
2 62249  89.0098  24.3995 0019133  77.2231 283.1057 13.51009863121859
QIANFAN-49              
1 62250U 24232P   26149.14945050  .00000122  00000+0  17002-3 0  9995
2 62250  89.0097  24.4119 0016188  72.5787 287.7133 13.51008694 90446
QIANFAN-50              
1 62251U 24232Q   26149.17413499  .00000127  00000+0  17704-3 0  9990
2 62251  89.0102  24.4267 0017857  73.6027 286.7085 13.51005542 90478
QIANFAN-51              
1 62252U 24232R   26149.15765368  .00000134  00000+0  18909-3 0  9990
2 62252  89.0096  24.4120 0015355  77.0395 283.2470 13.51010574 90466
QIANFAN-52              
1 62253U 24232S   26149.18647233  .00000120  00000+0  16734-3 0  9993
2 62253  89.0092  24.2762 0017333  70.0247 290.2769 13.51007616 90552
QIANFAN-53              
1 62254U 24232T   26149.16588602  .00000141  00000+0  19869-3 0  9991
2 62254  89.0100  24.3954 0016213  71.1648 289.1260 13.51010415 90510
QIANFAN-54              
1 62255U 24232U   26149.20702220  .00000130  00000+0  18348-3 0  9990
2 62255  89.0090  24.0551 0003975  96.5604 263.6000 13.51008904122024
QIANFAN-55              
1 62785U 25016A   26149.15900436  .00000116  00000+0  16030-3 0  9992
2 62785  88.9737  85.8478 0015395 220.0996 139.9020 13.51013592 69798
QIANFAN-56              
1 62786U 25016B   26149.10143047  .00000113  00000+0  15615-3 0  9990
2 62786  88.9711  85.6454 0013983 222.5340 137.4729 13.51014912 69835
QIANFAN-57              
1 62787U 25016C   26149.13436632  .00000104  00000+0  14315-3 0  9995
2 62787  88.9742  85.8477 0002945  65.4855 294.6603 13.51013336 69801
QIANFAN-58              
1 62788U 25016D   26149.10562492  .00000113  00000+0  15697-3 0  9991
2 62788  88.9712  85.6311 0012091 212.9679 147.0719 13.51012765 69848
QIANFAN-59              
1 62789U 25016E   26149.20424821  .00000102  00000+0  13990-3 0  9998
2 62789  88.9735  85.7341 0012379 217.1568 142.8727 13.51006944 69856
QIANFAN-60              
1 62790U 25016F   26149.16309161  .00000113  00000+0  15648-3 0  9998
2 62790  88.9717  85.6779 0013997 213.9375 146.0882 13.51009359 69838
QIANFAN-61              
1 62791U 25016G   26149.19600784  .00000114  00000+0  15741-3 0  9992
2 62791  88.9783  85.9510 0012968 212.6575 147.3776 13.51013071 69857
QIANFAN-62              
1 62792U 25016H   26149.20024413  .00000100  00000+0  13578-3 0  9995
2 62792  88.9730  85.7288 0014324 213.6851 146.3391 13.51011626 69841
QIANFAN-63              
1 62793U 25016J   26149.15073766  .00000119  00000+0  16628-3 0  9994
2 62793  88.9737  85.6968 0014229 219.9111 140.0995 13.51005447 69873
QIANFAN-64              
1 62794U 25016K   26149.19190816  .00000110  00000+0  15144-3 0  9998
2 62794  88.9724  85.6441 0012379 210.8520 149.1904 13.51012729 69875
QIANFAN-65              
1 62795U 25016L   26149.18777560  .00000118  00000+0  16410-3 0  9990
2 62795  88.9720  85.6645 0012181 212.7184 147.3213 13.51009918 69853
QIANFAN-66              
1 62796U 25016M   26149.14253463  .00000121  00000+0  16886-3 0  9999
2 62796  88.9740  85.6723 0013379 208.5085 151.5336 13.51014328 69894
QIANFAN-67              
1 62797U 25016N   26149.14664994  .00000113  00000+0  15686-3 0  9993
2 62797  88.9730  85.6810 0013161 216.2638 143.7622 13.51014497 69865
QIANFAN-68              
1 62798U 25016P   26149.13860308  .00000104  00000+0  14232-3 0  9996
2 62798  88.9733  85.7330 0013288 213.8910 146.1393 13.51013010 69843
QIANFAN-69              
1 62799U 25016Q   26149.15485109  .00000121  00000+0  16814-3 0  9998
2 62799  88.9713  85.5650 0014001 215.7623 144.2591 13.51013417 69885
QIANFAN-70              
1 62800U 25016R   26149.17131559  .00000105  00000+0  14333-3 0  9996
2 62800  88.9733  85.7368 0013874 204.7911 155.2575 13.51005265 69845
QIANFAN-71              
1 62801U 25016S   26149.16721208  .00000104  00000+0  14206-3 0  9990
2 62801  88.9727  85.7066 0013818 219.7060 140.3081 13.51014430 69844
QIANFAN-72              
1 62802U 25016T   26149.18372081  .00000120  00000+0  16796-3 0  9998
2 62802  88.9718  85.7019 0016919 228.6717 131.2978 13.51012887 69833
QIANFAN-73              
1 63159U 25046A   26149.13672784  .00000049  00000+0  56658-4 0  9997
2 63159  88.9691 302.6666 0014822   7.8832 352.2549 13.51014912 70016
QIANFAN-74              
1 63160U 25046B   26149.12029730  .00000083  00000+0  11000-3 0  9994
2 63160  88.9692 302.5577 0001898 102.5844 257.5519 13.51004848 70071
QIANFAN-75              
1 63161U 25046C   26149.18191315  .00000017  00000+0  82899-5 0  9993
2 63161  88.9693 302.7875 0015968  10.4338 349.7141 13.51004013 69958
QIANFAN-76              
1 63162U 25046D   26149.17782223  .00000158  00000+0  22669-3 0  9990
2 63162  88.9694 302.7676 0013547  12.4184 347.7298 13.51009994 69966
QIANFAN-77              
1 63163U 25046E   26149.17738108  .00000226  00000+0  15445-3 0  9994
2 63163  88.9698 299.3946 0012584 278.1506  81.8243 13.96193380 71816
QIANFAN-78              
1 63164U 25046F   26149.14491301  .00000148  00000+0  20991-3 0  9998
2 63164  88.9693 302.6334 0014992  13.9051 346.2510 13.51009474 70035
QIANFAN-79              
1 63165U 25046G   26149.17377669  .00000060  00000+0  73887-4 0  9998
2 63165  88.9696 302.7442 0014735  12.2461 347.9046 13.51007734 69983
QIANFAN-80              
1 63166U 25046H   26149.11617558  .00000029  00000+0  25721-4 0  9996
2 63166  88.9693 302.4525 0013752  17.4958 342.6664 13.51005522 70136
QIANFAN-81              
1 63167U 25046J   26149.16975397  .00000005  00000+0 -11193-4 0  9993
2 63167  88.9693 302.5150 0014635   5.6372 354.4941 13.51013349 70092
QIANFAN-82              
1 63168U 25046K   26149.12845036  .00000041  00000+0  44608-4 0  9992
2 63168  88.9693 302.5629 0012762  14.2979 345.8531 13.51007532 70076
QIANFAN-83              
1 63169U 25046L   26149.12517076  .00000085  00000+0  93625-4 0  9994
2 63169  88.9695 302.0099 0013225 348.9651  11.1214 13.62036956 70383
QIANFAN-84              
1 63170U 25046M   26149.15835698  .00000130  00000+0  18302-3 0  9991
2 63170  88.9694 302.6927 0015666   8.8204 351.3220 13.51031668 70005
QIANFAN-85              
1 63171U 25046N   26149.15318336  .00000038  00000+0  40296-4 0  9992
2 63171  88.9692 302.5635 0013212  12.7186 347.4296 13.51014942 70079
QIANFAN-86              
1 63172U 25046P   26149.16155953  .00000027  00000+0  23819-4 0  9998
2 63172  88.9695 302.4287 0011227  18.6445 341.5115 13.51012636 70154
QIANFAN-87              
1 63173U 25046Q   26149.13266757  .00000075  00000+0  97766-4 0  9996
2 63173  88.9691 302.5370 0011574  13.7301 346.4163 13.51014407 70084
QIANFAN-88              
1 63174U 25046R   26149.14905522  .00000028  00000+0  24705-4 0  9999
2 63174  88.9693 302.4940 0012326  21.2217 338.9443 13.51006031 70110
QIANFAN-89              
1 63175U 25046S   26149.11215909  .00000017  00000+0  77644-5 0  9999
2 63175  88.9693 302.6870 0016515   9.0277 351.1168 13.51012927 70009
QIANFAN-90              
1 63176U 25046T   26149.14077639  .00000086  00000+0  11435-3 0  9999
2 63176  88.9694 302.6567 0013396   9.3472 350.7926 13.51011336 70020
QIANFAN-91              
1 66033U 25233A   26149.17316836  .00000158  00000+0  22648-3 0  9998
2 66033  89.0018  45.1112 0002013  68.3050 291.8315 13.51006852 30618
QIANFAN-92              
1 66034U 25233B   26149.18141894  .00000169  00000+0  24332-3 0  9994
2 66034  89.0001  45.0852 0002184  73.1798 286.9592 13.51009941 30617
QIANFAN-93              
1 66035U 25233C   26149.18964738  .00000173  00000+0  24870-3 0  9997
2 66035  89.0029  45.1311 0002076  69.0365 291.1009 13.51008941 30613
QIANFAN-94              
1 66036U 25233D   26149.17728509  .00000165  00000+0  23668-3 0  9996
2 66036  89.0025  45.0364 0002064  74.1868 285.9510 13.51007406 30667
QIANFAN-95              
1 66037U 25233E   26149.18556375  .00000174  00000+0  25017-3 0  9998
2 66037  89.0022  44.5798 0001908  70.6922 289.4435 13.51008598 30914
QIANFAN-96              
1 66038U 25233F   26149.13616068  .00000162  00000+0  23233-3 0  9995
2 66038  89.0021  45.1285 0001981  67.8991 292.2370 13.51007642 30602
QIANFAN-97              
1 66039U 25233G   26149.19374843  .00000167  00000+0  24070-3 0  9999
2 66039  89.0023  45.1061 0002035  69.8715 290.2655 13.51007756 30626
QIANFAN-98              
1 66040U 25233H   26149.20195395  .00000161  00000+0  23059-3 0  9996
2 66040  89.0012  44.8383 0001929  85.9919 274.1452 13.51007931 30761
QIANFAN-99              
1 66041U 25233J   26149.20605052  .00000161  00000+0  23020-3 0  9991
2 66041  89.0024  45.1088 0001850  80.1046 280.0314 13.51007554 30621
QIANFAN-100             
1 66042U 25233K   26149.19785172  .00000164  00000+0  23615-3 0  9995
2 66042  89.0035  45.0345 0002075  69.6036 290.5338 13.51010565 30673
QIANFAN-101             
1 66043U 25233L   26149.14820226  .00000321  00000+0  12654-3 0  9997
2 66043  89.0019  42.7527 0013990 198.2478 161.8215 14.26795717 31913
QIANFAN-102             
1 66044U 25233M   26149.14435809  .00000166  00000+0  23916-3 0  9997
2 66044  89.0023  45.0251 0002011  74.5757 285.5617 13.51007516 30668
QIANFAN-103             
1 66045U 25233N   26149.14849830  .00000168  00000+0  24142-3 0  9995
2 66045  89.0025  45.1193 0002074  68.8590 291.2782 13.51008450 30617
QIANFAN-104             
1 66046U 25233P   26149.15260736  .00000165  00000+0  23639-3 0  9996
2 66046  89.0030  45.0203 0002092  76.1021 284.0363 13.51010713 30661
QIANFAN-105             
1 66047U 25233Q   26149.16082201  .00000157  00000+0  22493-3 0  9995
2 66047  89.0042  44.8599 0001924  71.3083 288.8277 13.51010200 30777
QIANFAN-106             
1 66048U 25233R   26148.63830012  .00000158  00000+0  22593-3 0  9990
2 66048  89.0011  45.1315 0001940  83.2014 276.9358 13.51007552 30547
QIANFAN-107             
1 66049U 25233S   26148.79461735  .00000153  00000+0  21825-3 0  9992
2 66049  89.0027  45.1451 0002083  70.1184 290.0192 13.51006882 30579
QIANFAN-108             
1 66050U 25233T   26149.16906910  .00000156  00000+0  22302-3 0  9999
2 66050  89.0020  45.0965 0001965  82.0822 278.0552 13.51008153 30627
QIANFAN-109             
1 68636U 26075A   26149.14641934 -.02082951  00000+0 -31960+1 0  9990
2 68636  88.9867 322.9700 0013238  48.5056 311.7232 13.55784528  7223
QIANFAN-110             
1 68637U 26075B   26149.18905178 -.02049370  00000+0 -32756+1 0  9990
2 68637  88.9871 322.9762 0015841  42.0574 318.1791 13.53111209  7222
QIANFAN-111             
1 68638U 26075C   26148.99071898 -.02110197  00000+0 -28532+1 0  9995
2 68638  88.9873 322.9641 0011798  71.6866 288.5575 13.63766591  7210
QIANFAN-112             
1 68639U 26075D   26149.02883465 -.02106084  00000+0 -30875+1 0  9995
2 68639  88.9869 322.9715 0006894  58.6911 301.4919 13.58729547  7216
QIANFAN-113             
1 68640U 26075E   26149.03790341 -.02094328  00000+0 -31526+1 0  9999
2 68640  88.9884 322.9708 0011892  53.4313 306.7934 13.57020964  7211
QIANFAN-114             
1 68641U 26075F   26148.97625847 -.02118092  00000+0 -33195+1 0  9999
2 68641  88.9871 322.9810 0015187  76.9664 283.3183 13.54503592  7207
QIANFAN-115             
1 68642U 26075G   26149.15562862 -.02054245  00000+0 -32954+1 0  9999
2 68642  88.9870 322.9696 0013575  46.5762 313.6518 13.52901481  7228
QIANFAN-116             
1 68643U 26075H   26148.99349544 -.02108016  00000+0 -31461+1 0  9999
2 68643  88.9870 322.9651 0008850  57.6568 302.5442 13.57602844  7215
QIANFAN-117             
1 68644U 26075J   26149.01538861 -.02134248  00000+0 -31574+1 0  9997
2 68644  88.9871 322.9682 0010211  47.9414 312.2609 13.58203675  7210
QIANFAN-118             
1 68645U 26075K   26148.24505481  .00000044  00000+0  43330-4 0  9993
2 68645  88.9876 323.0578 0010208  61.4652 298.7530 13.57841284  7105
QIANFAN-119             
1 68646U 26075L   26148.10505129 -.02032461  00000+0 -31318+1 0  9999
2 68646  88.9878 323.0576 0013522  61.2339 299.0171 13.55412255  7091
QIANFAN-120             
1 68647U 26075M   26147.87434655 -.02146964  00000+0 -32215+1 0  9999
2 68647  88.9873 323.0785 0009947  56.1943 304.0157 13.57338063  7063
QIANFAN-121             
1 68648U 26075N   26148.10612318 -.02008655  00000+0 -31043+1 0  9993
2 68648  88.9874 323.0560 0014504  65.3214 294.9448 13.55170057  7092
QIANFAN-122             
1 68649U 26075P   26148.08736521 -.01964972  00000+0 -29822+1 0  9998
2 68649  88.9872 323.0536 0012342  60.7184 299.5202 13.56239238  7094
QIANFAN-123             
1 68650U 26075Q   26148.00946983 -.01994473  00000+0 -27988+1 0  9997
2 68650  88.9870 323.0599 0006785  66.5564 293.6306 13.61238638  7058
QIANFAN-124             
1 68651U 26075R   26148.10121162 -.02070150  00000+0 -31848+1 0  9991
2 68651  88.9877 323.0563 0012234  65.2728 294.9698 13.55595513  7094
QIANFAN-125             
1 68652U 26075S   26147.87123822 -.02017014  00000+0 -30791+1 0  9996
2 68652  88.9870 323.0792 0011764  70.8050 289.4376 13.55980677  7067
QIANFAN-126             
1 68653U 26075T   26148.07188565 -.02113646  00000+0 -29702+1 0  9993
2 68653  88.9873 323.0337 0006123  87.5213 272.6645 13.61396404  7109
QIANFAN-127             
1 69073U 26104A   26149.19318389  .00000151  00000+0  62012-4 0  9993
2 69073  88.9864 343.7828 0004461 155.5393 204.6010 14.21689083  2390
QIANFAN-128             
1 69074U 26104B   26149.15875742  .00000142  00000+0  62077-4 0  9992
2 69074  88.9865 343.7966 0003757 150.8751 209.2648 14.18044145  2385
QIANFAN-129             
1 69075U 26104C   26149.17219301  .00000158  00000+0  60742-4 0  9992
2 69075  88.9864 343.7797 0003994 162.2812 197.8521 14.25498526  2392
QIANFAN-130             
1 69076U 26104D   26149.14930378  .00000148  00000+0  64257-4 0  9998
2 69076  88.9864 343.7951 0003912 140.5478 219.5997 14.18733357  2386
QIANFAN-131             
1 69077U 26104E   26149.20206887  .00000139  00000+0  58219-4 0  9998
2 69077  88.9863 343.7841 0003278 158.0088 202.1244 14.20504072  2397
QIANFAN-132             
1 69078U 26104F   26149.15681772  .00000145  00000+0  63556-4 0  9990
2 69078  88.9864 343.7962 0004174 150.3211 209.8215 14.18145326  2383
QIANFAN-133             
1 69079U 26104G   26149.14590917  .00000139  00000+0  59668-4 0  9992
2 69079  88.9864 343.7945 0003636 161.6274 198.5047 14.19027136  2387
QIANFAN-134             
1 69080U 26104H   26149.14200444  .00000148  00000+0  63521-4 0  9990
2 69080  88.9864 343.7938 0004701 144.8239 215.3262 14.19322647  2381
QIANFAN-135             
1 69081U 26104J   26149.20929602  .00000144  00000+0  61429-4 0  9993
2 69081  88.9864 343.7854 0003401 176.1964 183.9253 14.19620190  2393
QIANFAN-136             
1 69082U 26104K   26149.20681269  .00000148  00000+0  62861-4 0  9993
2 69082  88.9863 343.7848 0003921 162.0808 198.0521 14.19912475  2399
QIANFAN-137             
1 69083U 26104L   26149.17765126  .00000121  00000+0  45280-4 0  9992
2 69083  88.9864 343.7804 0004642 155.3853 204.7562 14.25194532  2392
QIANFAN-138             
1 69084U 26104M   26149.19986786  .00000151  00000+0  63095-4 0  9999
2 69084  88.9864 343.7838 0003449 163.6038 196.5264 14.20799977  2397
QIANFAN-139             
1 69085U 26104N   26149.19670480  .00000153  00000+0  63632-4 0  9990
2 69085  88.9864 343.7833 0003493 151.7850 208.3531 14.21100514  2395
QIANFAN-140             
1 69086U 26104P   26149.19379911  .00000147  00000+0  60639-4 0  9993
2 69086  88.9864 343.7829 0003490 157.2507 202.8839 14.21390320  2394
QIANFAN-141             
1 69087U 26104Q   26149.19101562  .00000133  00000+0  53960-4 0  9993
2 69087  88.9864 343.7825 0003150 151.3387 208.7978 14.21631689  2390
QIANFAN-142             
1 69088U 26104R   26149.18769206  .00000131  00000+0  52962-4 0  9997
2 69088  88.9864 343.7819 0004482 144.5118 215.6372 14.21950429  2390
QIANFAN-143             
1 69089U 26104S   26149.18179036  .00000126  00000+0  49379-4 0  9996
2 69089  88.9864 343.7809 0003740 145.0271 215.1168 14.23168939  2399
QIANFAN-144             
1 69090U 26104T   26149.18425950  .00000153  00000+0  62069-4 0  9998
2 69090  88.9864 343.7814 0003260 133.2546 226.8918 14.22579821  2395
QIANFAN-9 OBJECT A      
1 69104U 26108A   26149.11969698 -.01839740  00000+0 -10743+1 0  9996
2 69104  89.0123  24.3442 0019124 176.9005 183.2303 14.12086179  1649
QIANFAN-9 OBJECT B      
1 69105U 26108B   26149.09735668 -.01763946  00000+0 -91857+0 0  9990
2 69105  89.0127  24.3412 0010483 166.9311 193.2152 14.18825241  1649
QIANFAN-9 OBJECT C      
1 69106U 26108C   26149.11256404 -.01893903  00000+0 -10894+1 0  9990
2 69106  89.0121  24.3431 0016939 164.5100 195.6608 14.13038334  1643
QIANFAN-9 OBJECT D      
1 69107U 26108D   26149.03867326 -.01926904  00000+0 -10987+1 0  9994
2 69107  89.0119  24.3505 0016304 175.4249 184.7090 14.13588655  1633
QIANFAN-9 OBJECT E      
1 69108U 26108E   26149.10918766 -.01914693  00000+0 -10847+1 0  9995
2 69108  89.0126  24.3427 0015585 174.6991 185.4364 14.13922830  1640
QIANFAN-9 OBJECT F      
1 69109U 26108F   26149.10417384 -.01966153  00000+0 -10939+1 0  9996
2 69109  89.0124  24.3421 0016615 186.5887 173.5084 14.14996049  1645
QIANFAN-9 OBJECT G      
1 69110U 26108G   26149.03107940 -.01937325  00000+0 -10499+1 0  9994
2 69110  89.0124  24.3496 0014798 199.5519 160.5104 14.16369576  1634
QIANFAN-9 OBJECT H      
1 69111U 26108H   26149.10026134 -.01895578  00000+0 -10386+1 0  9996
2 69111  89.0123  24.3406 0016267 189.1644 170.9249 14.15681370  1646
QIANFAN-9 OBJECT J      
1 69112U 26108J   26148.81511981 -.01764194  00000+0 -93684+0 0  9993
2 69112  89.0125  24.3728 0011551 193.2187 166.8701 14.17771132  1606
QIANFAN-9 OBJECT K      
1 69113U 26108K   26149.02409257 -.01705847  00000+0 -89938+0 0  9997
2 69113  89.0127  24.3485 0012728 196.1920 163.8864 14.18007342  1639
QIANFAN-9 OBJECT L      
1 69114U 26108L   26149.09480145 -.01865235  00000+0 -97027+0 0  9996
2 69114  89.0126  24.3410 0010967 185.0845 175.0235 14.18450040  1648
QIANFAN-9 OBJECT M      
1 69115U 26108M   26149.02340100 -.01869636  00000+0 -95746+0 0  9991
2 69115  89.0130  24.3490 0012568 191.5692 168.5211 14.19284801  1634
QIANFAN-9 OBJECT N      
1 69116U 26108N   26149.09101122 -.01829523  00000+0 -91231+0 0  9994
2 69116  89.0126  24.3402 0014040 186.2126 173.8892 14.20610259  1640
QIANFAN-9 OBJECT P      
1 69117U 26108P   26149.09257545 -.01921364  00000+0 -98598+0 0  9995
2 69117  89.0125  24.3407 0015802 192.4172 167.6631 14.19256197  1649
QIANFAN-9 OBJECT Q      
1 69118U 26108Q   26149.02130492 -.01943589  00000+0 -98927+0 0  9999
2 69118  89.0129  24.3485 0015434 189.2235 170.8674 14.19740720  1637
QIANFAN-9 OBJECT R      
1 69119U 26108R   26149.02080370 -.01958444  00000+0 -99036+0 0  9997
2 69119  89.0129  24.3481 0015086 186.6404 173.4588 14.20121271  1635
QIANFAN-9 OBJECT S      
1 69120U 26108S   26149.09058343 -.01942906  00000+0 -98065+0 0  9998
2 69120  89.0125  24.3406 0012932 182.8595 177.2523 14.20206158  1646
QIANFAN-9 OBJECT T      
1 69121U 26108T   26148.95017405 -.01900978  00000+0 -95701+0 0  9994
2 69121  89.0125  24.3561 0013287 185.3753 174.7297 14.20255108  1624
