ORBCOMM-X               
1 21576U 91050C   26062.64241105  .00000409  00000+0  13360-3 0  9993
2 21576  98.3080 128.5317 0004755 115.8355 244.3326 14.43511652819540
ORBCOMM FM01            
1 23545U 95017A   26062.64321827  .00008728  00000+0  81344-3 0  9997
2 23545  69.9623 145.1031 0007333 279.8612  80.1716 14.94524433651219
ORBCOMM FM02            
1 23546U 95017B   26062.61970066  .00011708  00000+0  10319-2 0  9995
2 23546  69.9638 163.2237 0008565 280.9150  79.1044 14.96591887650897
ORBCOMM FM08            
1 25112U 97084A   26062.54936916  .00002488  00000+0  71753-3 0  9995
2 25112  45.0120 201.7576 0006632 138.3361 221.7997 14.46951505478922
ORBCOMM FM10            
1 25113U 97084B   26062.43505176  .00002409  00000+0  69986-3 0  9992
2 25113  45.0132 205.1923 0004316 106.5917 253.5409 14.46677202654040
ORBCOMM FM11            
1 25114U 97084C   26062.55455693  .00002119  00000+0  62405-3 0  9991
2 25114  45.0122 205.7335 0005205 105.1744 254.9683 14.46413924479014
ORBCOMM FM12            
1 25115U 97084D   26062.58220113  .00002142  00000+0  62986-3 0  9992
2 25115  45.0129 205.3213 0004241 106.2499 253.8820 14.46442748478815
ORBCOMM FM09            
1 25116U 97084E   26062.43350654  .00002087  00000+0  61689-3 0  9998
2 25116  45.0134 207.2709 0005179  87.6016 272.5429 14.46268274478993
ORBCOMM FM05            
1 25117U 97084F   26062.56420793  .00002626  00000+0  75354-3 0  9998
2 25117  45.0125 201.6569 0002102 131.6628 228.4404 14.47063159478166
ORBCOMM FM06            
1 25118U 97084G   26062.46891374  .00002477  00000+0  71033-3 0  9999
2 25118  45.0122 201.5286 0001414 159.5080 249.4263 14.47237655479076
ORBCOMM FM07            
1 25119U 97084H   26062.40233770  .00002215  00000+0  63924-3 0  9994
2 25119  45.0116 202.5893 0002648 114.4628 245.6500 14.47241742479055
ORBCOMM FM03            
1 25158U 98007B   26062.61110689  .00001097  00000+0  42400-3 0  9992
2 25158 107.9640 308.8065 0043287 156.6167 203.6954 14.35285750461253
ORBCOMM FM04            
1 25159U 98007C   26062.62117257  .00001103  00000+0  42503-3 0  9994
2 25159 107.9626 312.2220 0039061 153.8536 206.4587 14.35514518461445
ORBCOMM FM17            
1 25413U 98046A   26062.38030104  .00000886  00000+0  35218-3 0  9990
2 25413  44.9935 113.7563 0000393  70.1974 289.8916 14.35729260440415
ORBCOMM FM18            
1 25414U 98046B   26062.31402941  .00001755  00000+0  60373-3 0  9992
2 25414  44.9940  24.3325 0002666 162.3121 197.7821 14.39424501441572
ORBCOMM FM19            
1 25415U 98046C   26062.10520204  .00001589  00000+0  55300-3 0  9992
2 25415  44.9954  27.7157 0001351 160.3174 300.6176 14.39247248441494
ORBCOMM FM20            
1 25416U 98046D   26061.99487748  .00001211  00000+0  44444-3 0  9993
2 25416  44.9952  35.0139 0001569 282.8438  77.2234 14.37878014441502
ORBCOMM FM16            
1 25417U 98046E   26062.35862610  .00001618  00000+0  55595-3 0  9990
2 25417  44.9947  21.2364 0002874 187.5181 172.5625 14.39812654441592
ORBCOMM FM15            
1 25418U 98046F   26060.94344064  .00000411  00000+0  17640-3 0  9991
2 25418  44.9980  33.9056 0002671 186.0202 174.0615 14.39427017441378
ORBCOMM FM14            
1 25419U 98046G   26062.06957453  .00001525  00000+0  52609-3 0  9990
2 25419  44.9966  25.9741 0001412 201.4331 158.6459 14.39870589441518
ORBCOMM FM13            
1 25420U 98046H   26062.00744504  .00001327  00000+0  47706-3 0  9999
2 25420  44.9982  36.9412 0003037 152.7795 207.3213 14.38426972440490
ORBCOMM FM21            
1 25475U 98053A   26062.56772200  .00001153  00000+0  42440-3 0  9999
2 25475  45.0072 120.5606 0000988 220.0748 140.0028 14.37999520434578
ORBCOMM FM22            
1 25476U 98053B   26062.47047172  .00001340  00000+0  47390-3 0  9990
2 25476  45.0063 113.6056 0001066 121.1908 238.9045 14.39221719434619
ORBCOMM FM23            
1 25477U 98053C   26062.59824958  .00001273  00000+0  46116-3 0  9999
2 25477  45.0073 122.1001 0000584 147.0558 213.0327 14.38259810434730
ORBCOMM FM24            
1 25478U 98053D   26062.63589302  .00001378  00000+0  48911-3 0  9997
2 25478  45.0070 118.1912 0000760 180.8116 179.2731 14.38905722434805
ORBCOMM FM25            
1 25479U 98053E   26062.54332309  .00001359  00000+0  48317-3 0  9990
2 25479  45.0061 116.9432 0002796 132.9374 227.1710 14.38869101435085
ORBCOMM FM26            
1 25480U 98053F   26062.31811414  .00001078  00000+0  40121-3 0  9999
2 25480  45.0061 116.4515 0005058 141.5637 218.5572 14.37804982434934
ORBCOMM FM27            
1 25481U 98053G   26062.59421584  .00001419  00000+0  50218-3 0  9992
2 25481  45.0047 116.8006 0001715 240.6685 119.3993 14.38912751435029
ORBCOMM FM28            
1 25482U 98053H   26062.32764241  .00001228  00000+0  43998-3 0  9999
2 25482  45.0058  55.2731 0003554 190.9293 169.1479 14.39008673435671
ORBCOMM FM30            
1 25980U 99065A   26062.00073916  .00000961  00000+0  36150-3 0  9998
2 25980  45.0317 304.0510 0005708 231.6061 128.4275 14.37965286371694
ORBCOMM FM31            
1 25981U 99065B   26061.98653302  .00000950  00000+0  35875-3 0  9999
2 25981  45.0229 297.5605 0003509 263.3192  96.7257 14.37888168371243
ORBCOMM FM32            
1 25982U 99065C   26062.06431784  .00001051  00000+0  39925-3 0  9991
2 25982  45.0162 315.4948 0005768 257.0431 102.9773 14.36950083371827
ORBCOMM FM33            
1 25983U 99065D   26062.43055133  .00001327  00000+0  45509-3 0  9994
2 25983  45.0272 205.7217 0008263 279.5289  80.4627 14.40769741373445
ORBCOMM FM36            
1 25984U 99065E   26062.65814394  .00001467  00000+0  51698-3 0  9992
2 25984  45.0393 300.4817 0002253 154.7007 205.3953 14.38964421371788
ORBCOMM FM35            
1 25985U 99065F   26062.62248638  .00001293  00000+0  47139-3 0  9994
2 25985  45.0400 307.8224 0003439 269.6007  90.4447 14.37857198372114
ORBCOMM FM34            
1 25986U 99065G   26062.66242161  .00001165  00000+0  43031-3 0  9999
2 25986  45.0396 308.1405 0002960 212.1928 147.8741 14.37771357372236
ORBCOMM FM38            
1 33060U 08031A   26062.59261406  .00002739  00000+0  36237-3 0  9997
2 33060  48.4388 157.7814 0003831  79.1391 280.9956 14.82700349953225
ORBCOMM FM41            
1 33061U 08031B   26062.63030371  .00002622  00000+0  35177-3 0  9991
2 33061  48.4424 166.3165 0003140  59.0307  76.3643 14.82235738952706
ORBCOMM FM29            
1 33062U 08031C   26062.58943360  .00002847  00000+0  37808-3 0  9999
2 33062  48.4374 173.9468 0004746  60.2324  64.5111 14.82408625952613
ORBCOMM FM39            
1 33063U 08031D   26062.59406852  .00002581  00000+0  35866-3 0  9998
2 33063  48.4385 201.1921 0005918  27.4773 332.6454 14.80790774952222
ORBCOMM FM37            
1 33064U 08031E   26062.61839766  .00002578  00000+0  35658-3 0  9991
2 33064  48.4381 189.1963 0004381  48.4944  70.4075 14.80985174952480
ORBCOMM FM40            
1 33065U 08031F   26062.57865799  .00003272  00000+0  41841-3 0  9995
2 33065  48.4400 168.7537 0005186  67.4298  55.4756 14.83619187952659
VESSELSAT 1             
1 37840U 11058C   26062.07155261  .00000389  00000+0  67500-4 0  9991
2 37840  19.9630 327.2998 0013722 154.1814 205.9277 14.11418703742927
ORBCOMM FM109           
1 40086U 14040A   26062.48612581  .00000747  00000+0  19479-3 0  9998
2 40086  47.0020 231.1854 0001152 108.1548 251.9464 14.58710652618918
ORBCOMM FM107           
1 40087U 14040B   26062.43261404  .00000978  00000+0  24334-3 0  9990
2 40087  47.0036 232.2924 0000693 354.1328   5.9550 14.58794506618984
ORBCOMM FM106           
1 40088U 14040C   26062.28526300  .00001465  00000+0  27097-3 0  9994
2 40088  47.0612  34.0708 0016341 194.6073 165.4348 14.70283276621593
ORBCOMM FM111           
1 40089U 14040D   26062.59527718  .00004294  00000+0  47918-3 0  9990
2 40089  46.9992 206.6291 0028354 354.2606   5.7963 14.88298535628847
ORBCOMM FM104           
1 40090U 14040E   26062.57111575  .00000720  00000+0  19526-3 0  9994
2 40090  47.0043 268.3991 0016482 309.6025  50.3404 14.57155998618440
ORBCOMM FM103           
1 40091U 14040F   26062.41997010  .00000883  00000+0  22364-3 0  9998
2 40091  47.0039 233.0687 0001251  11.3791 348.7123 14.58697162601946
ORBCOMM FM114           
1 41179U 15081A   26062.57255877  .00000786  00000+0  20306-3 0  9993
2 41179  47.0042 141.2880 0001266  74.5268 285.5758 14.58718203542338
ORBCOMM FM119           
1 41180U 15081B   26062.16063690  .00000899  00000+0  22735-3 0  9993
2 41180  47.0007  52.5931 0000874 216.6176 143.4650 14.58660169543525
ORBCOMM FM105           
1 41181U 15081C   26062.24435444  .00000339  00000+0  13974-3 0  9997
2 41181  47.0008  82.5406 0001305   7.6324 352.4576 14.45487326538228
ORBCOMM FM110           
1 41182U 15081D   26062.56178373  .00001282  00000+0  30825-3 0  9990
2 41182  47.0014 140.8129 0003547 295.0481  65.0036 14.58720495542205
ORBCOMM FM118           
1 41183U 15081E   26062.59636075  .00001228  00000+0  29689-3 0  9998
2 41183  47.0033 140.9629 0003884 264.1090  95.9353 14.58716363542315
ORBCOMM FM112           
1 41184U 15081F   26062.32535052  .00000953  00000+0  23851-3 0  9992
2 41184  46.9996  50.7461 0001017  48.6959 311.4014 14.58716570543499
ORBCOMM FM113           
1 41185U 15081G   26062.37105889  .00000913  00000+0  22989-3 0  9996
2 41185  47.0012  50.8971 0000592  57.1173 302.9770 14.58717779543483
ORBCOMM FM115           
1 41186U 15081H   26062.46501537  .00001038  00000+0  23407-3 0  9992
2 41186  46.9973 245.8766 0001142 205.3366 154.7466 14.63105304545735
ORBCOMM FM108           
1 41187U 15081J   26062.12823717  .00001167  00000+0  28386-3 0  9997
2 41187  47.0060 323.5848 0002218  56.0117 304.0979 14.58728544544593
ORBCOMM FM117           
1 41188U 15081K   26062.09375520  .00001107  00000+0  27116-3 0  9992
2 41188  47.0023 322.4166 0002542  66.8447 293.2706 14.58720328544633
ORBCOMM FM116           
1 41189U 15081L   26062.14302163  .00000958  00000+0  23956-3 0  9993
2 41189  47.0028  51.9647 0002691 289.7792  70.2803 14.58710608543451
