IRIDIUM 106             
1 41917U 17003A   26234.51512061  .00000059  00000+0  13953-4 0  9999
2 41917  86.3915  60.8052 0002380  82.9492 277.1975 14.34217738502717
IRIDIUM 103             
1 41918U 17003B   26234.22335882  .00000057  00000+0  13351-4 0  9992
2 41918  86.3915  60.8270 0002278  93.5813 266.5643 14.34217505502694
IRIDIUM 109             
1 41919U 17003C   26234.50877905  .00000057  00000+0  13313-4 0  9999
2 41919  86.3916  60.7681 0002192  90.3825 269.7622 14.34217603502707
IRIDIUM 102             
1 41920U 17003D   26234.47706285  .00000051  00000+0  11035-4 0  9992
2 41920  86.3917  60.7035 0002186  87.7361 272.4085 14.34217117502783
IRIDIUM 105             
1 41921U 17003E   26234.43566007 -.00000022  00000+0 -14949-4 0  9992
2 41921  86.3965  29.1568 0001901  98.6817 261.4594 14.34217148504631
IRIDIUM 104             
1 41922U 17003F   26234.07114957  .00000058  00000+0  13670-4 0  9993
2 41922  86.3916  60.9170 0002109  97.2081 262.9354 14.34218384502719
IRIDIUM 114             
1 41923U 17003G   26234.00770821  .00000044  00000+0  86279-5 0  9996
2 41923  86.3915  60.9266 0002217  92.3747 267.7702 14.34217696502681
IRIDIUM 108             
1 41924U 17003H   26234.45461176  .00000105  00000+0  30419-4 0  9998
2 41924  86.3960  29.0350 0002082  92.0414 268.1020 14.34217555504606
IRIDIUM 112             
1 41925U 17003J   26234.06479434  .00000061  00000+0  14747-4 0  9999
2 41925  86.3911  60.7416 0002120  90.8215 269.3224 14.34217985502712
IRIDIUM 111             
1 41926U 17003K   26234.05211001  .00000060  00000+0  14511-4 0  9991
2 41926  86.3914  60.8191 0002199  89.3091 270.8357 14.34217842502691
IRIDIUM 113             
1 42803U 17039A   26234.45068491  .00000045  00000+0  91649-5 0  9993
2 42803  86.3962 294.4880 0002270  96.8377 263.3078 14.34217937480685
IRIDIUM 123             
1 42804U 17039B   26233.79447920 -.00000005  00000+0 -89999-5 0  9991
2 42804  86.4011 326.2261 0002283  94.4163 265.7294 14.34217435479351
IRIDIUM 120             
1 42805U 17039C   26234.37457378  .00000041  00000+0  75578-5 0  9991
2 42805  86.3949 294.2935 0002347  91.0694 269.0771 14.34217862480663
IRIDIUM 115             
1 42806U 17039D   26234.19086002  .00000077  00000+0  16984-4 0  9998
2 42806  86.4488 294.5078 0002510  93.8974 266.2514 14.43280206483789
IRIDIUM 118             
1 42807U 17039E   26234.17503441  .00000233  00000+0  76037-4 0  9997
2 42807  86.4012 326.0642 0002161  89.7359 270.4084 14.34218450479409
IRIDIUM 117             
1 42808U 17039F   26234.54290451  .00000014  00000+0 -20478-5 0  9990
2 42808  86.4009 325.8684 0002218  95.4573 264.6875 14.34217702479484
IRIDIUM 126             
1 42809U 17039G   26234.49850669  .00000005  00000+0 -53231-5 0  9991
2 42809  86.4011 325.9392 0002194  98.3907 261.7537 14.34217520479459
IRIDIUM 124             
1 42810U 17039H   26234.33266666  .00000233  00000+0  63189-4 0  9998
2 42810  86.4434 262.6959 0002560  90.8679 269.2816 14.43279373484651
IRIDIUM 128             
1 42811U 17039J   26233.86132747  .00000059  00000+0  14178-4 0  9998
2 42811  86.4014 357.6963 0002273  90.9263 269.2194 14.34218131479396
IRIDIUM 121             
1 42812U 17039K   26233.75008070 -.00000061  00000+0 -28974-4 0  9992
2 42812  86.4012 326.2799 0002104  93.8989 266.2447 14.34217221479223
IRIDIUM 133             
1 42955U 17061A   26233.89304039  .00000024  00000+0  14618-5 0  9992
2 42955  86.4014 357.8021 0002211  92.9044 267.2405 14.34217863464199
IRIDIUM 100             
1 42956U 17061B   26233.88669786  .00000002  00000+0 -62708-5 0  9995
2 42956  86.4012 357.7222 0002071  92.9810 267.1622 14.34217538464194
IRIDIUM 122             
1 42957U 17061C   26233.85498518 -.00000009  00000+0 -10379-4 0  9990
2 42957  86.4012 357.7360 0002137  95.5972 264.5467 14.34217504464190
IRIDIUM 129             
1 42958U 17061D   26233.88035467  .00000197  00000+0  63115-4 0  9996
2 42958  86.4016 357.7927 0002118  99.4305 260.7131 14.34216553464218
IRIDIUM 119             
1 42959U 17061E   26233.84864229  .00000006  00000+0 -49191-5 0  9998
2 42959  86.4014 357.8025 0002120  96.4201 263.7237 14.34217743464225
IRIDIUM 107             
1 42960U 17061F   26233.86767092  .00000192  00000+0  61372-4 0  9991
2 42960  86.4015 357.8156 0002420  93.2500 266.8973 14.34218120464235
IRIDIUM 132             
1 42961U 17061G   26234.29262339  .00000061  00000+0  14735-4 0  9990
2 42961  86.4016 357.6173 0002241  93.9312 266.2140 14.34218133464293
IRIDIUM 136             
1 42962U 17061H   26233.83595607  .00000182  00000+0  57888-4 0  9997
2 42962  86.4013 357.8150 0002137  92.7244 267.4197 14.34216921464246
IRIDIUM 139             
1 42963U 17061J   26234.12137401  .00000004  00000+0 -55820-5 0  9994
2 42963  86.4016 357.7590 0002123  92.2369 267.9070 14.34217521464292
IRIDIUM 125             
1 42964U 17061K   26233.89938386 -.00000042  00000+0 -22210-4 0  9998
2 42964  86.4018 357.9136 0002548 102.1258 258.0224 14.34217616464277
IRIDIUM 135             
1 43070U 17083A   26234.15258317  .00000003  00000+0 -60841-5 0  9999
2 43070  86.3955 294.4448 0002158  95.2313 264.9129 14.34217508453602
IRIDIUM 138             
1 43071U 17083B   26234.10818514  .00000026  00000+0  21738-5 0  9992
2 43071  86.3968 294.1690 0002300  97.4681 262.6776 14.34217748453580
IRIDIUM 116             
1 43072U 17083C   26234.14624072  .00000021  00000+0  46107-6 0  9994
2 43072  86.3954 294.4326 0002225  86.7251 273.4199 14.34217634453623
IRIDIUM 130             
1 43073U 17083D   26234.18429676  .00000012  00000+0 -27035-5 0  9991
2 43073  86.3964 294.6988 0002468  90.1678 269.9800 14.34217638453579
IRIDIUM 151             
1 43074U 17083E   26234.43800003  .00000027  00000+0  24580-5 0  9994
2 43074  86.3955 294.3699 0002165  92.8216 267.3227 14.34217635453636
IRIDIUM 134             
1 43075U 17083F   26234.40628712  .00000016  00000+0 -13731-5 0  9992
2 43075  86.3957 294.3923 0002229  93.0589 267.0861 14.34217570453590
IRIDIUM 137             
1 43076U 17083G   26234.41897140  .00000043  00000+0  83913-5 0  9995
2 43076  86.3960 294.4812 0002039  86.1510 273.9919 14.34217862453661
IRIDIUM 141             
1 43077U 17083H   26234.13355505  .00000089  00000+0  24589-4 0  9992
2 43077  86.3954 294.4273 0002252  95.8969 264.2484 14.34218080453627
IRIDIUM 153             
1 43078U 17083J   26234.50434491  .00000038  00000+0  65595-5 0  9993
2 43078  86.3916 262.7383 0002379  95.6559 264.4908 14.34217768454782
IRIDIUM 131             
1 43079U 17083K   26234.39994428  .00000125  00000+0  37485-4 0  9995
2 43079  86.3961 294.5063 0002190  95.5775 264.5671 14.34217470453597
IRIDIUM 144             
1 43249U 18030A   26234.51067829  .00000132  00000+0  39963-4 0  9998
2 43249  86.3913 262.6629 0002317  89.5542 270.5919 14.34221707439643
IRIDIUM 149             
1 43250U 18030B   26234.16818771  .00000031  00000+0  40366-5 0  9999
2 43250  86.3912 262.7727 0002290  93.3269 266.8189 14.34217656439615
IRIDIUM 157             
1 43251U 18030C   26234.53605786  .00000031  00000+0  39698-5 0  9997
2 43251  86.3915 262.6735 0002309  91.9724 268.1736 14.34217792439645
IRIDIUM 140             
1 43252U 18030D   26234.34577965  .00000063  00000+0  15425-4 0  9990
2 43252  86.3914 262.7657 0002355  91.5512 268.5954 14.34218062439671
IRIDIUM 145             
1 43253U 18030E   26234.47263209  .00000072  00000+0  18597-4 0  9991
2 43253  86.3914 262.6845 0002402  85.3026 274.8444 14.34218032439620
IRIDIUM 146             
1 43254U 18030F   26234.17452936  .00000050  00000+0  10825-4 0  9998
2 43254  86.3913 262.8212 0002349  89.5044 270.6421 14.34218002439598
IRIDIUM 148             
1 43255U 18030G   26234.49165926  .00000048  00000+0  10056-4 0  9997
2 43255  86.3915 262.7326 0002174  91.4559 268.6886 14.34217838439672
IRIDIUM 142             
1 43256U 18030H   26234.32041007  .00000035  00000+0  54907-5 0  9993
2 43256  86.3912 262.6909 0002306  87.7292 272.4167 14.34217738439613
IRIDIUM 150             
1 43257U 18030J   26234.14916029  .00000037  00000+0  59985-5 0  9992
2 43257  86.3914 262.8811 0002375  90.9939 269.1529 14.34217637439613
IRIDIUM 143             
1 43258U 18030K   26234.47899002  .00000178  00000+0  56467-4 0  9997
2 43258  86.3918 262.8383 0002382  89.4584 270.6884 14.34219994439595
IRIDIUM 161             
1 43478U 18047C   26234.51860691  .00000074  00000+0  16023-4 0  9995
2 43478  86.4435  60.7144 0002072  92.4740 267.6698 14.43280225434700
IRIDIUM 152             
1 43479U 18047D   26234.45169314  .00000159  00000+0  49668-4 0  9998
2 43479  86.3913  60.6040 0002149  90.0576 270.0866 14.34217226431984
IRIDIUM 147             
1 43480U 18047E   26234.52780409  .00000061  00000+0  14779-4 0  9999
2 43480  86.3912  60.5787 0002169  86.0338 274.1105 14.34217973431996
IRIDIUM 110             
1 43481U 18047F   26234.46438073  .00000064  00000+0  15720-4 0  9990
2 43481  86.3914  60.6989 0002004  95.8042 264.3383 14.34217472431973
IRIDIUM 162             
1 43482U 18047G   26234.44297204  .00000038  00000+0  52431-5 0  9990
2 43482  86.4434  60.6362 0002252  88.4554 271.6905 14.43279883434684
IRIDIUM 160             
1 43569U 18061A   26234.13113976 -.00000053  00000+0 -25823-4 0  9994
2 43569  86.3963  29.2096 0002106  92.1133 268.0304 14.34217375422828
IRIDIUM 166             
1 43570U 18061B   26234.43558441 -.00000042  00000+0 -22088-4 0  9997
2 43570  86.3961  29.0322 0002076  88.9010 271.2423 14.34217274422894
IRIDIUM 158             
1 43571U 18061C   26234.40387086 -.00000010  00000+0 -10720-4 0  9995
2 43571  86.3963  29.0555 0002100  93.3393 266.8043 14.34217653422852
IRIDIUM 165             
1 43572U 18061D   26234.42924116  .00000201  00000+0  64590-4 0  9993
2 43572  86.3966  29.0923 0002187  88.3104 271.8343 14.34219617422888
IRIDIUM 155             
1 43573U 18061E   26234.46095279  .00000203  00000+0  65349-4 0  9992
2 43573  86.3961  28.9447 0002235  91.4011 268.7440 14.34219181422855
IRIDIUM 154             
1 43574U 18061F   26234.44192385  .00000204  00000+0  65786-4 0  9993
2 43574  86.3966  29.0897 0002160  88.7230 271.4213 14.34219857422906
IRIDIUM 163             
1 43575U 18061G   26234.42289616  .00000225  00000+0  73356-4 0  9991
2 43575  86.3963  29.0106 0002132  93.8603 266.2836 14.34217043422871
IRIDIUM 156             
1 43576U 18061H   26234.39753242  .00000201  00000+0  64678-4 0  9990
2 43576  86.3962  29.0286 0002331  90.8222 269.3240 14.34219117422861
IRIDIUM 164             
1 43577U 18061J   26233.95988959  .00000093  00000+0  26179-4 0  9990
2 43577  86.3963  29.2531 0002130  88.2147 271.9293 14.34218082422847
IRIDIUM 159             
1 43578U 18061K   26234.41655606  .00000158  00000+0  49268-4 0  9999
2 43578  86.3962  28.9975 0002112  93.6282 266.5156 14.34219283422870
IRIDIUM 180             
1 43922U 19002A   26233.78815125  .00000506  00000+0  17376-3 0  9992
2 43922  86.4013 326.1889 0002168  95.0150 265.1293 14.34218085398394
IRIDIUM 176             
1 43923U 19002B   26234.49546826  .00000668  00000+0  10205-3 0  9994
2 43923  86.6133 325.8276 0002370  92.6614 267.4875 14.72249940409007
IRIDIUM 168             
1 43924U 19002C   26234.54924700  .00000035  00000+0  53734-5 0  9996
2 43924  86.4012 325.9500 0002082  95.9848 264.1585 14.34217715398482
IRIDIUM 173             
1 43925U 19002D   26234.18771936  .00000032  00000+0  43452-5 0  9991
2 43925  86.4009 325.9868 0002278  95.6261 264.5194 14.34217865398418
IRIDIUM 169             
1 43926U 19002E   26234.12157305  .00000249  00000+0  75020-4 0  9999
2 43926  86.4269 357.6312 0002698  94.7248 265.4258 14.38611134399709
IRIDIUM 172             
1 43927U 19002F   26234.18137670  .00000020  00000+0 -40942-7 0  9995
2 43927  86.4008 325.9978 0002091  96.1210 264.0224 14.34217630398424
IRIDIUM 175             
1 43928U 19002G   26234.47081921  .00000215  00000+0  57498-4 0  9991
2 43928  86.4468 262.8073 0004070  39.0098 321.1396 14.43641463408544
IRIDIUM 171             
1 43929U 19002H   26233.74373751  .00000127  00000+0  38208-4 0  9996
2 43929  86.4020 326.4940 0002239  93.1876 266.9576 14.34217577398357
IRIDIUM 170             
1 43930U 19002J   26233.75400384  .00000630  00000+0  95976-4 0  9996
2 43930  86.6130 326.1391 0002337  96.3590 263.7893 14.72256750408905
IRIDIUM 167             
1 43931U 19002K   26233.73739387  .00000177  00000+0  56091-4 0  9994
2 43931  86.4009 326.2067 0002337  89.9044 270.2420 14.34217893398351
IRIDIUM 181             
1 56726U 23068S   26234.45468937  .00000249  00000+0  67864-4 0  9997
2 56726  86.4500  29.0742 0002014  90.1692 269.9740 14.43307996171999
IRIDIUM 177             
1 56727U 23068T   26234.17406569  .00000883  00000+0  11326-3 0  9995
2 56727  86.1964 297.4705 0002484  95.6955 264.4549 14.80032717176128
IRIDIUM 174             
1 56728U 23068U   26234.21741860  .00000727  00000+0  11136-3 0  9993
2 56728  86.6139 326.0995 0002537 100.9995 259.1508 14.72248411175734
IRIDIUM 178             
1 56729U 23068V   26233.82512713  .00000877  00000+0  11254-3 0  9990
2 56729  86.6584 357.9392 0002441  93.6117 266.5383 14.80039487176072
IRIDIUM 179             
1 56730U 23068W   26233.88736806  .00000868  00000+0  11131-3 0  9993
2 56730  86.6811   7.0828 0002494  91.0211 269.1297 14.80044425176081
