QIANFAN-1               
1 60379U 24140A   26250.91154067  .00000059  00000+0  72981-4 0  9998
2 60379  88.9670 271.3389 0018550 151.4760 208.7410 13.51025594103697
QIANFAN-2               
1 60380U 24140B   26250.86630474  .00000058  00000+0  70849-4 0  9995
2 60380  88.9657 271.1465 0014524 125.0414 235.2102 13.51034315103747
QIANFAN-3               
1 60381U 24140C   26250.87467722  .00000062  00000+0  76303-4 0  9997
2 60381  88.9649 271.2578 0015402 136.4586 223.7784 13.51022719103650
QIANFAN-4               
1 60382U 24140D   26250.92391038  .00000039  00000+0  41674-4 0  9997
2 60382  88.9674 271.2181 0014733 127.1736 233.0763 13.51020917103782
QIANFAN-5               
1 60383U 24140E   26250.97326558  .00000062  00000+0  76848-4 0  9995
2 60383  88.9648 271.2719 0016345 146.9786 213.2389 13.51030899103656
QIANFAN-6               
1 60384U 24140F   26250.91981002  .00000046  00000+0  51551-4 0  9997
2 60384  88.9675 271.0968 0014717 132.4262 227.8137 13.51023894103841
QIANFAN-7               
1 60385U 24140G   26250.86272623  .00000148  00000+0  53806-4 0  9992
2 60385  88.9719 262.0448 0013062 228.5091 131.4983 14.27890886108798
QIANFAN-8               
1 60386U 24140H   26250.92818222  .00000039  00000+0  41578-4 0  9993
2 60386  88.9676 271.3367 0018109 135.4882 224.7728 13.51025795103697
QIANFAN-9               
1 60387U 24140J   26250.97743883  .00000069  00000+0  88397-4 0  9992
2 60387  88.9674 271.4015 0017817 135.0512 225.2086 13.51021379103684
QIANFAN-10              
1 60388U 24140K   26250.90749039  .00000052  00000+0  62151-4 0  9997
2 60388  88.9686 270.7844 0016690 114.6090 245.6802 13.51021427103802
QIANFAN-11              
1 60389U 24140L   26250.87057231  .00000055  00000+0  65874-4 0  9998
2 60389  88.9610 271.1726 0015846 134.4912 225.7537 13.51020874103459
QIANFAN-12              
1 60390U 24140M   26250.89110862  .00000040  00000+0  42583-4 0  9998
2 60390  88.9654 271.3310 0014483 141.3777 218.8413 13.51023318103588
QIANFAN-13              
1 60391U 24140N   26250.86226525  .00000057  00000+0  69222-4 0  9997
2 60391  88.9914 271.5453 0014243 143.4479 216.7647 13.51023337103604
QIANFAN-14              
1 60392U 24140P   26250.88702564  .00000028  00000+0  23779-4 0  9997
2 60392  88.9645 271.3046 0017887 145.1277 215.1050 13.51018605103618
QIANFAN-15              
1 60393U 24140Q   26250.96926383  .00000070  00000+0  89308-4 0  9991
2 60393  88.9668 271.3166 0014055 130.9217 229.3153 13.51027560103618
QIANFAN-16              
1 60394U 24140R   26250.88280148  .00000039  00000+0  41566-4 0  9994
2 60394  88.9671 271.4533 0015723 147.9233 212.2878 13.51025068103516
QIANFAN-17              
1 60395U 24140S   26250.87879594  .00000045  00000+0  50219-4 0  9995
2 60395  88.9681 271.5291 0016292 142.2814 217.9483 13.51021292104470
QIANFAN-18              
1 60396U 24140T   26250.85822909  .00000046  00000+0  51639-4 0  9990
2 60396  88.9676 271.0473 0016035 126.5328 233.7303 13.51020690103862
QIANFAN-19              
1 61552U 24185A   26250.90994227  .00000293  00000+0  14525-3 0  9999
2 61552  88.9835  47.0984 0007942 145.4922 214.6782 14.14525044107719
QIANFAN-20              
1 61553U 24185B   26250.91845853  .00000300  00000+0  16533-3 0  9991
2 61553  88.9830  47.6871 0005287 183.4138 176.7010 14.09066043107396
QIANFAN-21              
1 61554U 24185C   26250.90126803  .00000461  00000+0  19852-3 0  9993
2 61554  88.9755  45.4566 0009895 194.5714 165.5194 14.22923882108244
QIANFAN-22              
1 61555U 24185D   26250.93181983  .00000170  00000+0  13560-3 0  9994
2 61555  88.9809  49.7526 0004534 242.6463 117.4247 13.86426094106233
QIANFAN-23              
1 61556U 24185E   26250.85622334  .00000302  00000+0  14466-3 0  9999
2 61556  88.9829  46.7889 0008264 153.5621 206.5990 14.16546837107840
QIANFAN-24              
1 61557U 24185F   26250.88614652  .00000393  00000+0  16424-3 0  9993
2 61557  88.9813  45.7520 0011118 132.2280 227.9858 14.24147885108325
QIANFAN-25              
1 61558U 24185G   26250.87575333  .00000404  00000+0  23777-3 0  9997
2 61558  88.9818  47.7327 0011485 207.5875 152.4699 14.06122674107324
QIANFAN-26              
1 61559U 24185H   26250.87570086  .00000173  00000+0  16012-3 0  9995
2 61559  88.9814  50.7001 0003723 280.9058  79.1689 13.77940715105736
QIANFAN-27              
1 61560U 24185J   26250.85537252  .00000504  00000+0  19873-3 0  9999
2 61560  88.9825  45.3996 0009268 118.4238 241.7892 14.27595060108559
QIANFAN-28              
1 61561U 24185K   26250.89606270  .00000502  00000+0  19465-3 0  9996
2 61561  88.9842  45.4093 0009188 116.5837 243.6300 14.28475021108597
QIANFAN-29              
1 61562U 24185L   26250.94757178  .00000126  00000+0  17577-3 0  9991
2 61562  88.9781  53.4814 0009712   3.4503 356.6714 13.51091424104144
QIANFAN-30              
1 61563U 24185M   26250.90385908  .00000134  00000+0  19169-3 0  9994
2 61563  88.9802  53.1145 0007078 352.4913   7.6130 13.50073208104388
QIANFAN-31              
1 61564U 24185N   26250.91188075  .00000145  00000+0  18392-3 0  9991
2 61564  88.9787  52.4883 0006045 338.1574  21.9323 13.58061163104691
QIANFAN-32              
1 61565U 24185P   26250.87314944  .00000103  00000+0  14094-3 0  9992
2 61565  88.9841  53.3306 0010112  20.8790 339.2772 13.50804090104372
QIANFAN-33              
1 61566U 24185Q   26250.92711522  .00000286  00000+0  19648-3 0  9994
2 61566  88.9811  48.7969 0007091 190.2646 169.8387 13.96747227106736
QIANFAN-34              
1 61567U 24185R   26250.85777923  .00000372  00000+0  23286-3 0  9993
2 61567  88.9788  48.0122 0005557 178.3143 181.8057 14.02512352107071
QIANFAN-35              
1 61568U 24185S   26250.88217492  .00000484  00000+0  18788-3 0  9992
2 61568  88.9824  45.2907 0008397 113.6880 246.5196 14.28348102108597
QIANFAN-36              
1 61569U 24185T   26250.93003641  .00000071  00000+0  83970-4 0  9996
2 61569  88.9778  52.9899 0005905 358.9514   1.1626 13.55645933104399
QIANFAN-37              
1 62238U 24232B   26250.91517515  .00000077  00000+0  10016-3 0  9997
2 62238  89.0143  14.2925 0002262  88.8539 271.2872 13.51028672135513
QIANFAN-38              
1 62239U 24232C   26250.79179825  .00000074  00000+0  96224-4 0  9995
2 62239  89.0149  14.2387 0016164 134.1454 226.1030 13.51026973135550
QIANFAN-39              
1 62240U 24232D   26250.90839491  .00000285  00000+0  11422-3 0  9992
2 62240  89.0132   6.6666 0013786 276.6357  83.3267 14.25554196139734
QIANFAN-40              
1 62241U 24232E   26250.89878076  .00000077  00000+0  10075-3 0  9995
2 62241  89.0177  13.8877 0015092 140.6709 219.5542 13.51027176135939
QIANFAN-41              
1 62242U 24232F   26250.90699663  .00000077  00000+0  10005-3 0  9994
2 62242  89.0147  14.1738 0015633 130.2145 230.0377 13.51028370135590
QIANFAN-42              
1 62243U 24232G   26250.93758176  .00000277  00000+0  11303-3 0  9997
2 62243  89.0131   6.7502 0012639 284.9711  75.0082 14.24641623139697
QIANFAN-43              
1 62244U 24232H   26250.90288114  .00000071  00000+0  91553-4 0  9993
2 62244  89.0151  14.2514 0017088 135.2448 225.0085 13.51027853104206
QIANFAN-44              
1 62245U 24232J   26250.89056638  .00000082  00000+0  10854-3 0  9992
2 62245  89.0150  14.0590 0015353 132.2021 228.0436 13.51028154135678
QIANFAN-45              
1 62246U 24232K   26250.93171787  .00000069  00000+0  87394-4 0  9990
2 62246  89.0153  14.2110 0016020 131.8978 228.3543 13.51026896135606
QIANFAN-46              
1 62247U 24232L   26250.88228644  .00000069  00000+0  88368-4 0  9992
2 62247  89.0149  14.2739 0015976 137.0358 223.2044 13.51027997135555
QIANFAN-47              
1 62248U 24232M   26250.88643858  .00000079  00000+0  10426-3 0  9991
2 62248  89.0145  14.1956 0016410 136.3538 223.8915 13.51027175135582
QIANFAN-48              
1 62249U 24232N   26250.92351081  .00000076  00000+0  98507-4 0  9995
2 62249  89.0149  14.2043 0018630 139.1298 221.1254 13.51021448135590
QIANFAN-49              
1 62250U 24232P   26250.91114059  .00000061  00000+0  75231-4 0  9991
2 62250  89.0148  14.2159 0015811 133.6025 226.6441 13.51028640104184
QIANFAN-50              
1 62251U 24232Q   26250.93578493  .00000080  00000+0  10576-3 0  9991
2 62251  89.0154  14.2362 0017441 135.1222 225.1343 13.51028111104217
QIANFAN-51              
1 62252U 24232R   26250.91935695  .00000078  00000+0  10187-3 0  9996
2 62252  89.0148  14.2152 0014840 137.9914 222.2378 13.51027175104200
QIANFAN-52              
1 62253U 24232S   26250.94815333  .00000055  00000+0  66586-4 0  9996
2 62253  89.0144  14.0754 0016999 131.2867 228.9751 13.51029092104291
QIANFAN-53              
1 62254U 24232T   26250.92762579  .00000075  00000+0  97523-4 0  9995
2 62254  89.0151  14.2023 0015864 132.1049 228.1454 13.51025943104252
QIANFAN-54              
1 62255U 24232U   26250.89466749  .00000079  00000+0  10327-3 0  9992
2 62255  89.0142  13.8603 0003206 143.3092 216.8279 13.51027692135752
QIANFAN-55              
1 62785U 25016A   26250.92074035  .00000060  00000+0  74714-4 0  9999
2 62785  88.9665  75.2697 0015629 293.2765  66.6741 13.51024150 83536
QIANFAN-56              
1 62786U 25016B   26250.93705852  .00000057  00000+0  70039-4 0  9991
2 62786  88.9639  75.0326 0014267 296.4609  63.5078 13.51027300 83588
QIANFAN-57              
1 62787U 25016C   26250.82201358  .00000054  00000+0  65652-4 0  9994
2 62787  88.9670  75.2820 0002565  89.0277 271.1168 13.51027033 83535
QIANFAN-58              
1 62788U 25016D   26250.94128945  .00000056  00000+0  68880-4 0  9996
2 62788  88.9640  75.0192 0012063 288.3868  71.5971 13.51019394 83598
QIANFAN-59              
1 62789U 25016E   26250.81771219  .00000056  00000+0  68454-4 0  9998
2 62789  88.9663  75.1692 0012491 292.9969  66.9864 13.51023772 83570
QIANFAN-60              
1 62790U 25016F   26250.92472292  .00000069  00000+0  88474-4 0  9999
2 62790  88.9645  75.0783 0013982 288.2430  71.7199 13.51027154 83572
QIANFAN-61              
1 62791U 25016G   26250.80955663  .00000065  00000+0  82302-4 0  9995
2 62791  88.9711  75.4354 0012947 288.3508  71.6235 13.51026729 83579
QIANFAN-62              
1 62792U 25016H   26250.81372283  .00000054  00000+0  65257-4 0  9996
2 62792  88.9658  75.1588 0014289 288.3103  71.6493 13.51019166 83560
QIANFAN-63              
1 62793U 25016J   26250.91243168  .00000064  00000+0  80199-4 0  9990
2 62793  88.9665  75.1182 0014422 293.9767  65.9873 13.51022269 83618
QIANFAN-64              
1 62794U 25016K   26250.95359052  .00000064  00000+0  80578-4 0  9996
2 62794  88.9652  75.0519 0012255 286.2906  73.6897 13.51026736 83615
QIANFAN-65              
1 62795U 25016L   26250.94934073  .00000061  00000+0  75924-4 0  9994
2 62795  88.9648  75.0687 0012137 288.3079  71.6752 13.51022882 83593
QIANFAN-66              
1 62796U 25016M   26250.90407379  .00000055  00000+0  66127-4 0  9993
2 62796  88.9668  75.0965 0013186 283.2261  76.7419 13.51028582 83631
QIANFAN-67              
1 62797U 25016N   26250.90823211  .00000062  00000+0  78024-4 0  9998
2 62797  88.9658  75.0952 0013236 291.0534  68.9202 13.51028389 83608
QIANFAN-68              
1 62798U 25016P   26250.90004254  .00000053  00000+0  64006-4 0  9992
2 62798  88.9661  75.1508 0013280 288.6580  71.3129 13.51021158 83583
QIANFAN-69              
1 62799U 25016Q   26250.91641960  .00000061  00000+0  75197-4 0  9997
2 62799  88.9641  74.9613 0014038 290.0176  69.9464 13.51023592 83620
QIANFAN-70              
1 62800U 25016R   26250.93300433  .00000066  00000+0  83526-4 0  9999
2 62800  88.9661  75.1540 0013533 279.1347  80.8273 13.51022920 83583
QIANFAN-71              
1 62801U 25016S   26250.92887086  .00000058  00000+0  71111-4 0  9991
2 62801  88.9655  75.1178 0013997 294.0398  65.9288 13.51026126 83582
QIANFAN-72              
1 62802U 25016T   26250.94539454  .00000074  00000+0  96794-4 0  9999
2 62802  88.9645  75.1031 0017387 301.2818  58.6630 13.51020017 83577
QIANFAN-73              
1 63159U 25046A   26250.89832828  .00000032  00000+0  30761-4 0  9999
2 63159  88.9662 292.0829 0016895  69.5869 290.7095 13.51024761 83754
QIANFAN-74              
1 63160U 25046B   26250.88183690 -.00000001  00000+0 -20625-4 0  9992
2 63160  88.9661 291.9742 0001853  94.7603 265.3760 13.51018875 83814
QIANFAN-75              
1 63161U 25046C   26250.94370009  .00000089  00000+0  11818-3 0  9999
2 63161  88.9664 292.2053 0018083  72.4837 287.8289 13.51029371 83696
QIANFAN-76              
1 63162U 25046D   26250.93957679 -.00000081  00000+0 -14440-3 0  9991
2 63162  88.9662 292.1853 0015504  73.3043 286.9809 13.51022051 83704
QIANFAN-77              
1 63163U 25046E   26250.94358148  .00000104  00000+0  65433-4 0  9992
2 63163  88.9666 287.9729 0013265 327.6668  32.3694 13.96244975 86015
QIANFAN-78              
1 63164U 25046F   26250.90704501  .00000025  00000+0  19505-4 0  9998
2 63164  88.9663 292.0507 0017050  74.9460 285.3576 13.51011319 83776
QIANFAN-79              
1 63165U 25046G   26250.93533277  .00000029  00000+0  26551-4 0  9995
2 63165  88.9667 292.1645 0016704  73.6323 286.6663 13.51020918 83725
QIANFAN-80              
1 63166U 25046H   26250.95186687  .00000070  00000+0  90155-4 0  9994
2 63166  88.9663 291.8624 0015664  77.7615 282.5290 13.51028679 83888
QIANFAN-81              
1 63167U 25046J   26250.93117862  .00000103  00000+0  14093-3 0  9995
2 63167  88.9663 291.9319 0016718  68.3890 291.9041 13.51019863 83831
QIANFAN-82              
1 63168U 25046K   26250.89011198  .00000064  00000+0  80210-4 0  9997
2 63168  88.9664 291.9804 0014693  74.8180 285.4595 13.51019504 83818
QIANFAN-83              
1 63169U 25046L   26250.94463355  .00000101  00000+0  11512-3 0  9990
2 63169  88.9665 291.2204 0015413  47.8483 312.3981 13.62063875 84243
QIANFAN-84              
1 63170U 25046M   26250.91889663 -.00000054  00000+0 -10322-3 0  9990
2 63170  88.9662 292.1099 0017564  71.0164 289.2888 13.51018323 83746
QIANFAN-85              
1 63171U 25046N   26250.91474999  .00000081  00000+0  10718-3 0  9990
2 63171  88.9663 291.9801 0015221  73.5769 286.7054 13.51019544 83813
QIANFAN-86              
1 63172U 25046P   26250.92299463  .00000086  00000+0  11420-3 0  9999
2 63172  88.9665 291.8478 0013165  77.7130 282.5494 13.51024380 83892
QIANFAN-87              
1 63173U 25046Q   26250.89424067  .00000025  00000+0  19804-4 0  9994
2 63173  88.9662 291.9524 0013607  73.3077 286.9566 13.51031787 83826
QIANFAN-88              
1 63174U 25046R   26250.91065919  .00000080  00000+0  10489-3 0  9995
2 63174  88.9664 291.9119 0014150  80.5738 279.7012 13.51028609 83855
QIANFAN-89              
1 63175U 25046S   26250.94766525  .00000064  00000+0  80033-4 0  9995
2 63175  88.9664 292.0968 0018542  71.2121 289.1040 13.51023878 83750
QIANFAN-90              
1 63176U 25046T   26250.90243801  .00000034  00000+0  33800-4 0  9996
2 63176  88.9664 292.0748 0015446  70.6133 289.6686 13.51019561 83769
QIANFAN-91              
1 66033U 25233A   26250.78678402  .00000069  00000+0  87832-4 0  9996
2 66033  89.0032  34.8335 0001963  90.2293 269.9083 13.51028096 44338
QIANFAN-92              
1 66034U 25233B   26250.35073606  .00000068  00000+0  86230-4 0  9995
2 66034  89.0016  34.8358 0001967  98.3087 261.8287 13.50997881 44276
QIANFAN-93              
1 66035U 25233C   26250.35891318  .00000062  00000+0  76808-4 0  9998
2 66035  89.0041  34.9090 0002093  92.3653 267.7738 13.50999722 44275
QIANFAN-94              
1 66036U 25233D   26250.79094320  .00000076  00000+0  99566-4 0  9996
2 66036  89.0042  34.7657 0001864  95.1794 264.9570 13.51026606 44384
QIANFAN-95              
1 66037U 25233E   26250.87322041  .00000080  00000+0  10527-3 0  9994
2 66037  89.0038  34.2994 0001828  89.5073 270.6288 13.51020947 44647
QIANFAN-96              
1 66038U 25233F   26250.82382462  .00000067  00000+0  84721-4 0  9996
2 66038  89.0035  34.8455 0001957  88.3011 271.8364 13.51027644 44330
QIANFAN-97              
1 66039U 25233G   26247.69599208 -.01871554  00000+0 -33637+1 0  9992
2 66039  89.0008  35.1465 0005963  93.6808 266.5022 13.45942555 43926
QIANFAN-98              
1 66040U 25233H   26250.81563177  .00000073  00000+0  95001-4 0  9992
2 66040  89.0029  34.5550 0001477 101.4846 258.6471 13.51027943 44489
QIANFAN-99              
1 66041U 25233J   26250.81972405  .00000071  00000+0  91357-4 0  9999
2 66041  89.0042  34.8379 0001466  93.3685 266.7634 13.51034662 44347
QIANFAN-100             
1 66042U 25233K   26250.81146710  .00000071  00000+0  91444-4 0  9999
2 66042  89.0049  34.7743 0002000  91.4498 268.6883 13.51018979 44390
QIANFAN-101             
1 66043U 25233L   26250.62705147  .00000349  00000+0  13787-3 0  9995
2 66043  89.0040  31.1026 0013426 227.8950 132.1103 14.26855192 46389
QIANFAN-102             
1 66044U 25233M   26250.38769950  .00000078  00000+0  10181-3 0  9995
2 66044  89.0036  34.7886 0001837  94.3969 265.7392 13.51027174 44332
QIANFAN-103             
1 66045U 25233N   26250.83618459  .00000080  00000+0  10542-3 0  9997
2 66045  89.0039  34.8407 0001989  91.4531 268.6848 13.51020121 44341
QIANFAN-104             
1 66046U 25233P   26250.84022933  .00000075  00000+0  97379-4 0  9993
2 66046  89.0043  34.7462 0001834  97.7801 262.3559 13.51025232 44398
QIANFAN-105             
1 66047U 25233Q   26250.40412744  .00000073  00000+0  94589-4 0  9997
2 66047  89.0056  34.6442 0001844  89.9725 270.1638 13.51025037 44443
QIANFAN-106             
1 66048U 25233R   26250.77032264  .00000073  00000+0  95000-4 0  9992
2 66048  89.0026  34.7943 0001546  99.2919 260.8407 13.51028833 44331
QIANFAN-107             
1 66049U 25233S   26250.33419054  .00000074  00000+0  95234-4 0  9991
2 66049  89.0039  34.8838 0001967  92.3545 267.7832 13.51028037 44284
QIANFAN-108             
1 66050U 25233T   26250.78270310  .00000068  00000+0  86289-4 0  9995
2 66050  89.0034  34.8205 0001576  99.9446 260.1883 13.51020323 44348
QIANFAN-109             
1 68636U 26075A   26250.94465106  .00000075  00000+0  97536-4 0  9994
2 68636  88.9886 312.5711 0002403  87.6560 272.4867 13.51019680 20966
QIANFAN-110             
1 68637U 26075B   26250.95290367  .00000074  00000+0  96592-4 0  9991
2 68637  88.9886 312.5918 0002304 100.4786 259.6625 13.51030796 20960
QIANFAN-111             
1 68638U 26075C   26250.94074416  .00000072  00000+0  92487-4 0  9993
2 68638  88.9885 312.5520 0002293  99.9130 260.2280 13.51020107 20983
QIANFAN-112             
1 68639U 26075D   26250.90363716  .00000069  00000+0  88764-4 0  9993
2 68639  88.9884 312.5638 0002591  90.9967 269.1481 13.51022537 20972
QIANFAN-113             
1 68640U 26075E   26250.94875649  .00000080  00000+0  10480-3 0  9994
2 68640  88.9889 312.5575 0002400  98.5294 261.6129 13.51028666 20981
QIANFAN-114             
1 68641U 26075F   26250.88295102  .00000055  00000+0  66903-4 0  9992
2 68641  88.9885 312.5795 0002286  99.5231 260.6179 13.51026759 20969
QIANFAN-115             
1 68642U 26075G   26250.91180622  .00000072  00000+0  93507-4 0  9996
2 68642  88.9885 312.5837 0002229  95.7356 264.4049 13.51023426 20966
QIANFAN-116             
1 68643U 26075H   26250.82537946  .00000059  00000+0  73301-4 0  9997
2 68643  88.9878 312.5469 0002558  94.1139 266.0305 13.51024023 20964
QIANFAN-117             
1 68644U 26075J   26250.81311023  .00000053  00000+0  63955-4 0  9991
2 68644  88.9883 312.5676 0002356  93.5287 266.6134 13.51021852 20967
QIANFAN-118             
1 68645U 26075K   26250.92002560  .00000062  00000+0  78067-4 0  9997
2 68645  88.9887 312.5686 0002329 102.8344 257.3067 13.51023702 20970
QIANFAN-119             
1 68646U 26075L   26250.89529669  .00000063  00000+0  79299-4 0  9997
2 68646  88.9887 312.5668 0002332  90.3797 269.7621 13.51021821 20971
QIANFAN-120             
1 68647U 26075M   26250.90760468  .00000079  00000+0  10356-3 0  9999
2 68647  88.9889 312.5519 0002222  87.8791 272.2614 13.51019151 20987
QIANFAN-121             
1 68648U 26075N   26250.93244497  .00000055  00000+0  66121-4 0  9998
2 68648  88.9886 312.5525 0002264 101.0281 259.1125 13.51022709 20985
QIANFAN-122             
1 68649U 26075P   26250.92419374  .00000062  00000+0  78085-4 0  9996
2 68649  88.9886 312.5505 0002383  91.4427 268.6998 13.51026243 20979
QIANFAN-123             
1 68650U 26075Q   26250.89115921  .00000053  00000+0  62928-4 0  9994
2 68650  88.9882 312.5412 0002462  86.4583 273.6849 13.51031443 20956
QIANFAN-124             
1 68651U 26075R   26250.91598556  .00000068  00000+0  86262-4 0  9990
2 68651  88.9885 312.5498 0002436  90.5576 269.5855 13.51025832 20982
QIANFAN-125             
1 68652U 26075S   26250.92833179  .00000057  00000+0  69145-4 0  9994
2 68652  88.9885 312.5506 0002295 101.1999 258.9411 13.51022819 20986
QIANFAN-126             
1 68653U 26075T   26250.93642782  .00000066  00000+0  83485-4 0  9997
2 68653  88.9889 312.5187 0002437  86.5442 273.5988 13.51028125 21005
QIANFAN-127             
1 69073U 26104A   26250.94172541  .00000090  00000+0  12145-3 0  9990
2 69073  88.9936 333.0324 0002360 106.3659 253.7752 13.51025669 16331
QIANFAN-128             
1 69074U 26104B   26250.94993875  .00000098  00000+0  13391-3 0  9994
2 69074  88.9915 333.0581 0002023 114.6098 245.5265 13.51021792 16318
QIANFAN-129             
1 69075U 26104C   26250.90049495  .00000099  00000+0  13518-3 0  9993
2 69075  88.9917 332.9971 0002189 111.2503 248.8883 13.51021692 16343
QIANFAN-130             
1 69076U 26104D   26250.93755717  .00000101  00000+0  13835-3 0  9994
2 69076  88.9919 333.0589 0002569 103.8533 256.2904 13.51032356 16318
QIANFAN-131             
1 69077U 26104E   26250.88421745  .00000092  00000+0  12450-3 0  9991
2 69077  88.9913 333.0257 0001978 106.5568 253.5800 13.51023942 16323
QIANFAN-132             
1 69078U 26104F   26250.94574487  .00000094  00000+0  12708-3 0  9999
2 69078  88.9915 333.0757 0002409 104.7052 255.4366 13.51020108 16306
QIANFAN-133             
1 69079U 26104G   26250.95415935  .00000101  00000+0  13846-3 0  9996
2 69079  88.9918 333.0247 0001807 110.5999 249.5346 13.51028904 16326
QIANFAN-134             
1 69080U 26104H   26250.90885890  .00000088  00000+0  11814-3 0  9991
2 69080  88.9923 333.0552 0001985 113.1295 247.0066 13.51027255 16317
QIANFAN-135             
1 69081U 26104J   26250.88814198  .00000082  00000+0  10902-3 0  9993
2 69081  88.9916 333.0487 0002188 116.7305 243.4070 13.51020376 16316
QIANFAN-136             
1 69082U 26104K   26250.89649349  .00000108  00000+0  14873-3 0  9999
2 69082  88.9919 333.0507 0001843 111.5703 248.5645 13.51030354 16316
QIANFAN-137             
1 69083U 26104L   26250.89236994  .00000100  00000+0  13656-3 0  9998
2 69083  88.9928 332.9267 0002324 103.8671 256.2738 13.51030099 16383
QIANFAN-138             
1 69084U 26104M   26250.91693436  .00000084  00000+0  11128-3 0  9993
2 69084  88.9913 333.0488 0002418 111.1096 249.0314 13.51021126 16316
QIANFAN-139             
1 69085U 26104N   26250.90484661  .00000089  00000+0  11922-3 0  9998
2 69085  88.9914 333.0320 0002468 106.6739 253.4683 13.51028592 16324
QIANFAN-140             
1 69086U 26104P   26250.91284337  .00000090  00000+0  12092-3 0  9999
2 69086  88.9915 333.0346 0002292 116.5721 243.5665 13.51020867 16327
QIANFAN-141             
1 69087U 26104Q   26250.92115361  .00000101  00000+0  13705-3 0  9996
2 69087  88.9912 332.9984 0002113 114.3812 245.7560 13.51026977 16348
QIANFAN-142             
1 69088U 26104R   26250.92932686  .00000108  00000+0  14811-3 0  9990
2 69088  88.9910 332.9971 0002327 112.3278 247.8120 13.51029470 16340
QIANFAN-143             
1 69089U 26104S   26250.92531802  .00000096  00000+0  13021-3 0  9994
2 69089  88.9921 333.0028 0001938 104.9505 255.1861 13.51025519 16349
QIANFAN-144             
1 69090U 26104T   26250.93343235  .00000103  00000+0  14011-3 0  9997
2 69090  88.9919 333.0203 0002449 109.7220 250.4195 13.51029802 16334
QIANFAN-145             
1 69104U 26108A   26250.93776885  .00000076  00000+0  98661-4 0  9991
2 69104  89.0179  13.7802 0001680  94.6865 265.4478 13.51032506 15615
QIANFAN-146             
1 69105U 26108B   26250.89674345  .00000096  00000+0  12991-3 0  9998
2 69105  89.0181  13.6212 0002035  98.6543 261.4839 13.51038002 15709
QIANFAN-147             
1 69106U 26108C   26250.94612832  .00000069  00000+0  88926-4 0  9990
2 69106  89.0181  13.7836 0002072 103.3033 256.8349 13.51023077 15601
QIANFAN-148             
1 69107U 26108D   26250.93371374  .00000086  00000+0  11513-3 0  9999
2 69107  89.0175  13.7756 0001875 107.5472 252.5884 13.51022608 15605
QIANFAN-149             
1 69108U 26108E   26250.94187231  .00000075  00000+0  97997-4 0  9997
2 69108  89.0174  13.7960 0002142 111.3692 248.7688 13.51022113 15607
QIANFAN-150             
1 69109U 26108F   26250.95007540  .00000061  00000+0  75402-4 0  9995
2 69109  89.0180  13.7479 0002171 110.3986 249.7399 13.51022629 15621
QIANFAN-151             
1 69110U 26108G   26250.90501698  .00000112  00000+0  15563-3 0  9993
2 69110  89.0179  13.7761 0001845  98.9779 261.1581 13.51025796 15600
QIANFAN-152             
1 69111U 26108H   26250.81019592  .00000085  00000+0  11247-3 0  9995
2 69111  89.0175  13.7777 0002305 100.6612 259.4799 13.51026964 15602
QIANFAN-153             
1 69112U 26108J   26250.88012015  .00000077  00000+0  10080-3 0  9991
2 69112  89.0171  13.7476 0002177 105.9140 254.2251 13.51022970 15616
QIANFAN-154             
1 69113U 26108K   26250.88850181  .00000081  00000+0  10756-3 0  9991
2 69113  89.0182  13.7943 0002059 106.6618 253.4760 13.51024931 15609
QIANFAN-155             
1 69114U 26108L   26250.89247428  .00000087  00000+0  11664-3 0  9992
2 69114  89.0179  13.7588 0002188 108.0731 252.0659 13.51021810 15612
QIANFAN-156             
1 69115U 26108M   26250.91301558  .00000074  00000+0  96788-4 0  9998
2 69115  89.0194  13.7563 0001830 104.6257 255.5098 13.51021729 15637
QIANFAN-157             
1 69116U 26108N   26250.90088628  .00000086  00000+0  11479-3 0  9994
2 69116  89.0175  13.6831 0001911 110.6111 249.5246 13.51026409 15661
QIANFAN-158             
1 69117U 26108P   26250.91713935  .00000077  00000+0  10060-3 0  9997
2 69117  89.0177  13.7225 0001828 102.1891 257.9465 13.51033543 15641
QIANFAN-159             
1 69118U 26108Q   26250.90893238  .00000073  00000+0  94920-4 0  9996
2 69118  89.0169  13.7307 0001896 100.6793 259.4572 13.51021658 15632
QIANFAN-160             
1 69119U 26108R   26250.92552667  .00000086  00000+0  11411-3 0  9994
2 69119  89.0184  13.7646 0002286 109.7439 250.3959 13.51021847 15625
QIANFAN-161             
1 69120U 26108S   26250.92952373  .00000081  00000+0  10736-3 0  9998
2 69120  89.0191  13.6801 0001834 100.8675 259.2683 13.51036771 15678
QIANFAN-162             
1 69121U 26108T   26250.62502451  .00000078  00000+0  10189-3 0  9992
2 69121  89.0180  13.7369 0002186 101.1103 259.0294 13.51021050 15601
QIANFAN-163             
1 69325U 26121A   26250.66372364  .00000044  00000+0  49286-4 0  9999
2 69325  89.0121 292.3080 0001953 125.3775 234.7559 13.51022046 13306
QIANFAN-164             
1 69326U 26121B   26250.85299399  .00000068  00000+0  87335-4 0  9990
2 69326  89.0118 292.2797 0001781 111.2364 248.8978 13.51020862 13332
QIANFAN-165             
1 69382U 26124A   26250.93674239  .00000109  00000+0  14971-3 0  9995
2 69382  89.0071 353.2840 0001595 116.0122 244.1194 13.51019698 13218
QIANFAN-166             
1 69383U 26124B   26250.94089607  .00000118  00000+0  16372-3 0  9993
2 69383  89.0089 353.2922 0001855  99.7975 260.3386 13.51020179 13210
QIANFAN-167             
1 69384U 26124C   26250.94497016  .00000120  00000+0  16751-3 0  9995
2 69384  89.0063 353.3006 0002122 108.5657 251.5724 13.51029287 13207
QIANFAN-168             
1 69385U 26124D   26250.87486771  .00000113  00000+0  15692-3 0  9999
2 69385  89.0059 353.2877 0001643  98.3593 261.7744 13.51018603 13205
QIANFAN-169             
1 69386U 26124E   26250.95321699  .00000116  00000+0  16111-3 0  9996
2 69386  89.0058 353.2800 0001942  97.0149 263.1223 13.51021281 13211
QIANFAN-170             
1 69387U 26124F   26250.88324316  .00000011  00000+0 -15253-5 0  9991
2 69387  89.0076 353.2572 0001927  94.6483 265.4888 13.51023387 13227
QIANFAN-171             
1 69388U 26124G   26250.89151118  .00000094  00000+0  12752-3 0  9990
2 69388  89.0090 353.2671 0002107 104.3641 255.7744 13.51016719 13224
QIANFAN-172             
1 69389U 26124H   26250.88737883  .00000097  00000+0  13154-3 0  9999
2 69389  89.0073 353.2594 0001592 110.6346 249.4976 13.51027273 13223
QIANFAN-173             
1 69390U 26124J   26250.89543717  .00000067  00000+0  84724-4 0  9992
2 69390  89.0062 353.2564 0001716  94.9425 265.1923 13.51020145 13228
QIANFAN-174             
1 69391U 26124K   26250.90790118  .00000114  00000+0  15804-3 0  9999
2 69391  89.0042 353.2150 0002092 110.6715 249.4661 13.51028048 13239
QIANFAN-175             
1 69392U 26124L   26250.91205494  .00000112  00000+0  15497-3 0  9995
2 69392  89.0094 353.2532 0001883  98.4579 261.6786 13.51018153 13239
QIANFAN-176             
1 69393U 26124M   26250.91615686  .00000115  00000+0  15998-3 0  9993
2 69393  89.0056 353.2374 0001892  98.8226 261.3140 13.51019006 13223
QIANFAN-177             
1 69394U 26124N   26250.92444845  .00000100  00000+0  13564-3 0  9993
2 69394  89.0066 353.2239 0001993 109.2813 250.8554 13.51028027 13243
QIANFAN-178             
1 69395U 26124P   26250.92023902  .00000112  00000+0  15456-3 0  9996
2 69395  89.0012 353.1868 0001908  98.3400 261.7968 13.51023998 13251
QIANFAN-179             
1 69396U 26124Q   26250.92856664  .00000104  00000+0  14231-3 0  9997
2 69396  89.0044 353.2001 0001898  97.9320 262.2046 13.51027378 13250
QIANFAN-180             
1 69397U 26124R   26250.93262274  .00000010  00000+0 -28400-5 0  9999
2 69397  89.0051 353.2200 0001971  94.0564 266.0812 13.51019814 13248
QIANFAN-181             
1 69398U 26124S   26250.89970681  .00000108  00000+0  14804-3 0  9991
2 69398  89.0072 353.3139 0002109 106.9301 253.2082 13.51021506 13192
QIANFAN-182             
1 69399U 26124T   26250.90379453  .00000110  00000+0  15146-3 0  9997
2 69399  89.0047 353.2870 0001857 100.1776 259.9585 13.51026065 13193
QIANFAN-183             
1 69401U 26125A   26250.86435666  .00000053  00000+0  64153-4 0  9995
2 69401  88.9838 271.6004 0001851 100.5060 259.6300 13.51027205 13109
QIANFAN-184             
1 69402U 26125B   26250.87261232  .00000069  00000+0  88813-4 0  9999
2 69402  88.9889 271.6206 0001879  95.8158 264.3207 13.51028277 13103
QIANFAN-185             
1 69403U 26125C   26250.97135662  .00000047  00000+0  54858-4 0  9996
2 69403  88.9903 271.5486 0001787  96.5332 263.6022 13.51017353 13155
QIANFAN-186             
1 69404U 26125D   26250.86838759  .00000056  00000+0  68057-4 0  9998
2 69404  88.9891 271.6207 0001947  95.3496 264.7877 13.51008034 13101
QIANFAN-187             
1 69405U 26125E   26250.80249610  .00000044  00000+0  48881-4 0  9995
2 69405  88.9891 271.6101 0002002 100.7898 259.3479 13.51007073 13105
QIANFAN-188             
1 69406U 26125F   26250.88487861  .00000044  00000+0  49022-4 0  9994
2 69406  88.9889 271.6018 0001848 101.9377 258.1981 13.51029004 13116
QIANFAN-189             
1 69407U 26125G   26250.89303595  .00000037  00000+0  39113-4 0  9999
2 69407  88.9872 271.5977 0001785 107.9094 252.2252 13.51028242 13102
QIANFAN-190             
1 69408U 26125H   26250.80667484  .00000052  00000+0  61883-4 0  9997
2 69408  88.9873 271.6042 0001841  93.9623 266.1738 13.51032990 13101
QIANFAN-191             
1 69409U 26125J   26250.97954924  .00000066  00000+0  83481-4 0  9997
2 69409  88.9887 271.5970 0001824 101.1224 259.0132 13.51032688 13121
QIANFAN-192             
1 69410U 26125K   26250.88891108  .00000042  00000+0  46578-4 0  9993
2 69410  88.9894 271.6060 0001867 106.1402 253.9954 13.51029907 13116
QIANFAN-193             
1 69411U 26125L   26250.91375487  .00000050  00000+0  59251-4 0  9996
2 69411  88.9872 271.5823 0001728 100.1856 259.9490 13.51027179 13123
QIANFAN-194             
1 69412U 26125M   26250.90961505  .00000053  00000+0  63677-4 0  9998
2 69412  88.9904 271.5934 0001857 101.5379 258.5980 13.51025923 13114
QIANFAN-195             
1 69413U 26125N   26250.76823028 -.01895660  00000+0 -33151+1 0  9999
2 69413  88.9901 271.5923 0002687 243.7855 116.3019 13.47771887 13116
QIANFAN-196             
1 69414U 26125P   26250.92607986  .00000029  00000+0  26820-4 0  9994
2 69414  88.9911 271.5799 0001869  90.5230 269.6135 13.51035075 13135
QIANFAN-197             
1 69415U 26125Q   26250.56401530  .00000040  00000+0  43726-4 0  9999
2 69415  88.9886 271.5914 0001857  98.8319 261.3042 13.51023436 13080
QIANFAN-198             
1 69416U 26125R   26250.92197368  .00000044  00000+0  49464-4 0  9990
2 69416  88.9879 271.5681 0001838 102.1488 257.9869 13.51027846 13132
QIANFAN-199             
1 69417U 26125S   26250.93023118  .00000046  00000+0  51905-4 0  9998
2 69417  88.9883 271.5170 0002044 103.1204 257.0175 13.51025429 13167
QIANFAN-200             
1 69418U 26125T   26250.97543992  .00000055  00000+0  65799-4 0  9996
2 69418  88.9890 271.5971 0001794 104.8721 255.2629 13.51025954 13121
QIANFAN-201             
1 69800U 26153A   26250.87280999 -.01966539  00000+0 -14323+1 0  9990
2 69800  88.9973 352.8533 0006454  33.9946 326.1645 14.00164992  9283
QIANFAN-202             
1 69801U 26153B   26250.95381858  .00000040  00000+0  13680-4 0  9998
2 69801  88.9978 352.8278 0008669  21.5913 338.5638 14.14361686  9296
QIANFAN-203             
1 69802U 26153C   26250.94416916  .00000061  00000+0  26085-4 0  9998
2 69802  88.9979 352.8639 0007783  26.1625 333.9952 14.11320352  9285
QIANFAN-204             
1 69803U 26153D   26250.90305556  .00000031  00000+0  91935-5 0  9996
2 69803  88.9978 352.8582 0007956  24.3548 335.8013 14.12804113  9280
QIANFAN-205             
1 69804U 26153E   26250.91129516  .00000047  00000+0  18414-4 0  9995
2 69804  88.9978 352.8771 0008210  23.6509 336.5051 14.10095564  9273
QIANFAN-206             
1 69805U 26153F   26250.81689221 -.01903843  00000+0 -11110+1 0  9990
2 69805  88.9972 352.8447 0007750  68.2328 291.9682 14.12332591  9281
QIANFAN-207             
1 69806U 26153G   26250.92391585  .00000082  00000+0  37442-4 0  9996
2 69806  88.9978 352.8608 0007959  20.9797 339.1713 14.11295315  9284
QIANFAN-208             
1 69807U 26153H   26250.88062942 -.01982408  00000+0 -13739+1 0  9997
2 69807  88.9971 352.8551 0004490 119.2884 240.8746 14.02998781  9293
QIANFAN-209             
1 69808U 26153J   26250.79752217 -.01934801  00000+0 -12381+1 0  9995
2 69808  88.9974 352.8795 0008522  27.9347 332.2292 14.07330431  9262
QIANFAN-210             
1 69809U 26153K   26250.91785069  .00000063  00000+0  26756-4 0  9997
2 69809  88.9979 352.8604 0008723  24.6923 335.4678 14.11498605  9282
QIANFAN-211             
1 69810U 26153L   26250.91237834  .00000310  00000+0  15406-3 0  9995
2 69810  88.9979 352.8405 0008254  26.3791 333.7814 14.14535695  9292
QIANFAN-212             
1 69811U 26153M   26250.86421081  .00000072  00000+0  31098-4 0  9990
2 69811  88.9978 352.8516 0009581  27.5518 332.6174 14.13090272  9281
QIANFAN-213             
1 69812U 26153N   26250.94121859  .00000058  00000+0  23636-4 0  9993
2 69812  88.9978 352.8443 0008118  23.9248 336.2314 14.12648721  9290
QIANFAN-214             
1 69813U 26153P   26250.85748455 -.01914648  00000+0 -11029+1 0  9992
2 69813  88.9973 352.8133 0009472  44.8277 315.3672 14.13053801  9307
QIANFAN-215             
1 69814U 26153Q   26250.86029090  .00000055  00000+0  18497-4 0  9996
2 69814  88.9977 352.7753 0008707  33.6777 326.4966 14.21805351  9325
QIANFAN-216             
1 69815U 26153R   26250.95503139  .00000055  00000+0  19872-4 0  9996
2 69815  88.9979 352.7906 0007935  35.0719 325.0991 14.18100652  9323
QIANFAN-217             
1 69816U 26153S   26250.87646470  .00000066  00000+0  21258-4 0  9997
2 69816  88.9977 352.7401 0008457  36.5460 323.6309 14.26806571  9342
QIANFAN-218             
1 69817U 26153T   26250.94460412  .00000439  00000+0  17484-3 0  9995
2 69817  88.9980 352.7341 0008115  35.0080 325.1646 14.26851383  9356
QIANFAN-219             
1 69848U 26155A   26250.84961834  .00000042  00000+0  40759-4 0  9996
2 69848  89.0066  54.9816 0037939  45.3426 315.0811 13.58627851  9020
QIANFAN-220             
1 69849U 26155B   26250.81877748  .00000046  00000+0  39907-4 0  9991
2 69849  89.0075  55.0164 0034980  45.0920 315.3070 13.67304160  9001
QIANFAN-221             
1 69850U 26155C   26250.87729942 -.02059433  00000+0 -19312+1 0  9993
2 69850  89.0063  54.8187 0030654  50.8895 309.4994 13.85586589  9119
QIANFAN-222             
1 69851U 26155D   26250.96002884  .00000039  00000+0  36424-4 0  9994
2 69851  89.0071  55.0157 0035405  44.8066 315.5939 13.57843959  9013
QIANFAN-223             
1 69852U 26155E   26250.94167609  .00000042  00000+0  41232-4 0  9997
2 69852  89.0073  55.0146 0035679  44.6144 315.7873 13.57851150  9013
QIANFAN-224             
1 69853U 26155F   26250.89976757  .00000043  00000+0  39642-4 0  9997
2 69853  89.0049  54.9778 0036203  48.3333 312.0914 13.62244614  9025
QIANFAN-225             
1 69854U 26155G   26250.89129778  .00000050  00000+0  51538-4 0  9997
2 69854  89.0064  55.0212 0035575  43.7219 316.6744 13.57849292  9007
QIANFAN-226             
1 69855U 26155H   26250.90586941  .00000043  00000+0  42144-4 0  9994
2 69855  89.0075  55.0065 0036982  45.6858 314.7319 13.58330021  9013
QIANFAN-227             
1 69856U 26155J   26250.79672842  .00000042  00000+0  39225-4 0  9993
2 69856  89.0042  55.0061 0036432  46.1488 314.2669 13.60213654  9006
QIANFAN-228             
1 69857U 26155K   26250.85876833 -.01975005  00000+0 -29797+1 0  9999
2 69857  89.0062  55.0016 0035994  49.5255 310.9027 13.56400547  9016
QIANFAN-229             
1 69858U 26155L   26250.91409721  .00000044  00000+0  40420-4 0  9994
2 69858  89.0069  54.9723 0036027  44.1611 316.2412 13.61697400  9033
QIANFAN-230             
1 69859U 26155M   26250.86975296 -.01985628  00000+0 -28547+1 0  9999
2 69859  89.0061  55.0182 0035634  36.3248 324.0317 13.59456389  9003
QIANFAN-231             
1 69860U 26155N   26250.82432975  .00000044  00000+0  40337-4 0  9991
2 69860  89.0067  54.9777 0038056  44.0274 316.3903 13.62062757  9028
QIANFAN-232             
1 69861U 26155P   26250.72850499 -.02074955  00000+0 -30634+1 0  9997
2 69861  89.0062  54.9804 0024273  43.5682 316.7384 13.58112377  9013
QIANFAN-233             
1 69862U 26155Q   26250.94886786  .00000044  00000+0  40578-4 0  9996
2 69862  89.0073  54.9599 0037433  42.7688 317.6372 13.62527725  9048
QIANFAN-234             
1 69863U 26155R   26250.87323763  .00000041  00000+0  31280-4 0  9997
2 69863  89.0068  54.9303 0034668  42.9719 317.4142 13.72193244  9050
QIANFAN-235             
1 69864U 26155S   26250.91142961  .00000057  00000+0  30194-4 0  9992
2 69864  89.0072  54.7916 0031328  50.3145 310.0788 13.98516191  9132
QIANFAN-236             
1 69865U 26155T   26250.82349429  .00000044  00000+0  41429-4 0  9990
2 69865  89.0071  54.9964 0035080  44.6985 315.6990 13.61447715  9012
QIANFAN-237             
1 69866U 26155U   26250.90093537  .00000040  00000+0  33897-4 0  9992
2 69866  89.0072  54.9538 0037286  43.2711 317.1366 13.65608681  9034
QIANFAN-238             
1 69867U 26155V   26250.81523596  .00000045  00000+0  43969-4 0  9992
2 69867  89.0073  54.9767 0026495  41.7863 318.5310 13.59267077  9027
