EUTELSAT 174A           
1 28924U 05052A   26188.62005955  .00000021  00000+0  00000+0 0  9995
2 28924   4.2671  76.2760 0005925  32.2621 214.2425  1.00269725 52539
EUTELSAT 33F            
1 29270U 06032A   26188.72190972  .00000170  00000+0  00000+0 0  9999
2 29270   1.7114  82.0156 0003585  14.7024 121.9556  1.00274585 47515
EUTELSAT HOTBIRD 13C    
1 33459U 08065A   26188.77668332 -.00000269  00000+0  00000+0 0  9996
2 33459   3.0000  78.9474 0003347  27.1761  48.8933  1.00275992 47550
EUTELSAT 36B            
1 36101U 09065A   26188.72537640  .00000127  00000+0  00000+0 0  9998
2 36101   0.5395  81.2874 0005869  26.0141 130.0012  1.00271081 60910
EUTELSAT KA-SAT 9A      
1 37258U 10069A   26188.71714159  .00000077  00000+0  00000+0 0  9993
2 37258   0.0602  12.7249 0004300 127.7399  52.3720  1.00273301 44212
EUTELSAT 7 WEST A       
1 37816U 11051A   26188.71393491 -.00000045  00000+0  00000+0 0  9993
2 37816   0.0692 330.2630 0004729 152.7750  52.3468  1.00272415 54087
EUTELSAT 16A            
1 37836U 11057A   26188.64726127  .00000119  00000+0  00000+0 0  9990
2 37836   0.0379 355.4434 0005816 107.4977  71.6637  1.00270898  7542
EUTELSAT 21B            
1 38992U 12062B   26188.71965639  .00000145  00000+0  00000+0 0  9991
2 38992   0.0647 358.1383 0003213 108.5844  99.6168  1.00270619 50033
EUTELSAT 70B            
1 39020U 12069A   26188.72927644 -.00000029  00000+0  00000+0 0  9998
2 39020   0.0628 344.0393 0003437 124.4533 150.2342  1.00273827 49715
EUTELSAT 117 WEST A     
1 39122U 13012A   26188.62091448  .00000002  00000+0  00000+0 0  9993
2 39122   0.0100   8.6126 0002760 102.6126 281.0767  1.00271677 48639
EUTELSAT 7B             
1 39163U 13022A   26188.71670824  .00000063  00000+0  00000+0 0  9997
2 39163   0.0641 356.3104 0003847  50.5643 143.8105  1.00271338 48157
EXPRESS-AT1             
1 39612U 14010A   26188.88566494  .00000016  00000+0  00000+0 0  9997
2 39612   0.3076  85.5260 0004580  50.1099 173.9631  1.00308480 45021
EXPRESS-AT2             
1 39613U 14010B   26188.72641641  .00000094  00000+0  00000+0 0  9995
2 39613   0.0164 302.5977 0000278 358.5804 302.0213  1.00270218 44705
EUTELSAT 3B             
1 39773U 14030A   26188.71601492  .00000036  00000+0  00000+0 0  9999
2 39773   0.0634 342.3304 0003929 127.2607  76.9590  1.00274153 44277
EUTELSAT 115 WEST B     
1 40425U 15010B   26188.69261480 -.00000010  00000+0  00000+0 0  9993
2 40425   0.0069 158.9158 0000186 266.7794 354.3886  1.00272351 41581
EUTELSAT 8 WEST B       
1 40875U 15039B   26188.71376156 -.00000050  00000+0  00000+0 0  9997
2 40875   0.0622 357.7468 0003801 103.3075  73.5704  1.00271560 39861
EUTELSAT 9B             
1 41310U 16005A   26188.71714159  .00000078  00000+0  00000+0 0  9994
2 41310   0.0187  36.6324 0001097  76.4631  79.7700  1.00275694 38325
EUTELSAT 65 WEST A      
1 41382U 16014A   26188.48856750 -.00000261  00000+0  00000+0 0  9996
2 41382   0.0737 308.5066 0002212 157.3577 290.2942  1.00272473 37720
EUTELSAT 117 WEST B     
1 41589U 16038B   26188.69218147  .00000003  00000+0  00000+0 0  9999
2 41589   0.0043 194.6007 0000098 339.2111 244.0229  1.00274900 36869
EUTELSAT 172B           
1 42741U 17029B   26188.50761458  .00000010  00000+0  00000+0 0  9997
2 42741   0.0310 127.0818 0000020 206.5956 306.5405  1.00271823 33942
EUTELSAT 7C             
1 44334U 19034B   26188.14644789  .00000064  00000+0  00000+0 0  9991
2 44334   0.0758 181.2588 0003364 273.6653 249.9343  1.00272499  7039
EUTELSAT 5 WEST B       
1 44624U 19067A   26188.71436823 -.00000027  00000+0  00000+0 0  9990
2 44624   0.0653 340.8282 0003154 126.8720  70.1461  1.00271345 24640
EUTELSAT KONNECT        
1 45027U 20005B   26188.07517715  .00000065  00000+0  00000+0 0  9992
2 45027   0.0668  94.2131 0002240 131.4503  93.6723  1.00274681 24538
EUTELSAT QUANTUM        
1 49056U 21069B   26188.72476975  .00000141  00000+0  00000+0 0  9998
2 49056   0.0334 293.0329 0002267 176.2497 125.0428  1.00272755 18131
EUTELSAT KONNECT VHTS   
1 53765U 22110A   26188.57333146  .00000032  00000+0  00000+0 0  9992
2 53765   0.0590  99.0397 0002951 341.7984  53.8065  1.00268582  7042
EUTELSAT HOTBIRD 13F    
1 54048U 22134A   26188.00504632  .00000102  00000+0  00000+0 0  9999
2 54048   0.0529 287.3349 0001870  72.6848 299.7848  1.00271450 13579
EUTELSAT HOTBIRD 13G    
1 54225U 22146A   26188.00504632  .00000102  00000+0  00000+0 0  9999
2 54225   0.0501 218.9099 0002204 320.9510 119.9383  1.00271084  7668
EUTELSAT 10B            
1 54259U 22157A   26188.50338757  .00000083  00000+0  00000+0 0  9994
2 54259   0.0607  95.9726 0002098  21.3931 359.3254  1.00267315 13231
EUTELSAT 36D            
1 59346U 24059A   26188.72242975  .00000171  00000+0  00000+0 0  9997
2 59346   0.0035 119.6588 0000237  88.6780  13.2794  1.00271956  8357
