ORBCOMM FM06            
1 25118U 97084G   26247.42894669  .00000639  00000+0  21055-3 0  9997
2 25118  45.0144  31.1851 0001068 211.2287 178.4618 14.47725904505877
ORBCOMM FM04            
1 25159U 98007C   26247.19275096  .00000389  00000+0  17852-3 0  9991
2 25159 107.9604 332.0276 0041145 190.5641 169.4638 14.35848746487933
ORBCOMM FM19            
1 25415U 98046C   26247.35214685  .00000446  00000+0  18680-3 0  9998
2 25415  44.9925 227.2213 0005309 325.9491 187.7380 14.39618889468189
ORBCOMM FM20            
1 25416U 98046D   26247.27601513  .00000291  00000+0  14148-3 0  9993
2 25416  44.9928 236.3877 0002902 301.4495  58.6069 14.38158381468173
ORBCOMM FM27            
1 25481U 98053G   26247.45996712  .00000387  00000+0  16904-3 0  9999
2 25481  45.0062 318.7954 0002734 246.6952 113.3609 14.39262200461650
ORBCOMM FM32            
1 25982U 99065C   26247.11856638  .00000354  00000+0  16524-3 0  9996
2 25982  45.0150 159.5978 0005547  76.0980 284.0485 14.37226394398448
ORBCOMM FM109           
1 40086U 14040A   26247.54202399  .00000143  00000+0  66393-4 0  9990
2 40086  47.0028  76.2833 0001840 232.5651 127.5068 14.58908947645938
ORBCOMM FM110           
1 41182U 15081D   26247.61317472  .00000230  00000+0  84761-4 0  9997
2 41182  47.0034 345.8622 0001923  89.7564 270.3542 14.58977831569220
ORBCOMM FM118           
1 41183U 15081E   26247.64818801  .00000237  00000+0  86152-4 0  9996
2 41183  47.0056 346.0515 0002078  26.2760 333.8231 14.58961065569339
ORBCOMM FM112           
1 41184U 15081F   26247.44594898  .00000169  00000+0  72009-4 0  9992
2 41184  46.9978 255.4295 0003456 229.4780 130.5805 14.58946016570520
ORBCOMM FM113           
1 41185U 15081G   26247.35687803  .00000121  00000+0  61753-4 0  9994
2 41185  46.9994 256.2692 0002277 237.1789 122.8877 14.58922950570494
ORBCOMM FM108           
1 41187U 15081J   26247.18064063  .00000238  00000+0  86409-4 0  9998
2 41187  47.0042 168.6878 0002255 220.3069 139.7650 14.58966804571612
ORBCOMM FM117           
1 41188U 15081K   26247.21536003  .00000234  00000+0  85598-4 0  9995
2 41188  47.0007 167.1397 0002794 224.7364 135.3297 14.58949419571665
ORBCOMM FM116           
1 41189U 15081L   26247.46969399  .00000145  00000+0  66824-4 0  9993
2 41189  47.0012 255.7350 0000704  12.1457 347.9446 14.58949957570513
