KUIPER-00008            
1 63724U 25088A   26176.17598977 -.00000365  00000+0 -18819-4 0  9996
2 63724  51.9013 332.7035 0000599 100.3604 259.7426 14.79927971 63968
KUIPER-00009            
1 63725U 25088B   26176.19107505  .00004018  00000+0  55625-3 0  9994
2 63725  51.9042 350.2660 0000500 124.7091 235.3919 14.79892057 63718
KUIPER-00010            
1 63726U 25088C   26175.87751125  .00000534  00000+0  99027-4 0  9996
2 63726  51.9031 329.1233 0000837 105.1636 254.9419 14.79934005 63609
KUIPER-00011            
1 63727U 25088D   26176.17331556  .00000289  00000+0  66963-4 0  9993
2 63727  51.8995 335.3669 0000632 104.7370 255.3663 14.79935653 63676
KUIPER-00012            
1 63728U 25088E   26174.80512661 -.00000587  00000+0 -48048-4 0  9997
2 63728  51.9035 326.3500 0000529 112.9663 247.1355 14.79930502 63639
KUIPER-00013            
1 63729U 25088F   26175.20901556  .00000125  00000+0  45451-4 0  9999
2 63729  51.9027 357.0831 0000880 102.8986 257.2074 14.79932848 63348
KUIPER-00014            
1 63730U 25088G   26176.18818900  .00001442  00000+0  21808-3 0  9991
2 63730  51.8983 352.6949 0000670 112.6593 247.4440 14.79927131 63304
KUIPER-00015            
1 63731U 25088H   26175.26576071 -.00000495  00000+0 -35873-4 0  9997
2 63731  51.9043   6.8419 0000793 104.8409 255.2642 14.79930064 63487
KUIPER-00016            
1 63732U 25088J   26176.18546916  .00004635  00000+0  63666-3 0  9993
2 63732  51.9009 355.2243 0000646 109.0405 251.0627 14.79924389 63262
KUIPER-00018            
1 63733U 25088K   26176.16251921  .00000936  00000+0  15181-3 0  9990
2 63733  51.9036 345.3520 0000635 109.5307 250.5724 14.79930729 63408
KUIPER-00019            
1 63734U 25088L   26174.90612265  .00001085  00000+0  17134-3 0  9999
2 63734  51.9022 349.6702 0000652 110.6047 249.4985 14.79935503 63238
KUIPER-00020            
1 63735U 25088M   26175.88970156  .00000961  00000+0  15504-3 0  9995
2 63735  51.9021 349.0633 0000859 120.3219 239.7828 14.79934233 63533
KUIPER-00021            
1 63736U 25088N   26175.18063258  .00000729  00000+0  12458-3 0  9992
2 63736  51.9018 352.1573 0000615 110.1033 249.9996 14.79933606 63261
KUIPER-00023            
1 63737U 25088P   26175.88698656  .00001254  00000+0  19356-3 0  9994
2 63737  51.9017 351.5217 0000696 108.2888 251.8150 14.79927228 63632
KUIPER-00024            
1 63738U 25088Q   26176.17060934  .00000623  00000+0  11070-3 0  9994
2 63738  51.9038 337.8623 0000647 102.5755 257.5279 14.79932195 63971
KUIPER-00025            
1 63739U 25088R   26176.19615584 -.00006278  00000+0 -79508-3 0  9998
2 63739  51.9073 345.2298 0002822  85.3397 274.7888 14.79937183 63732
KUIPER-00027            
1 63740U 25088S   26176.16789287  .00000700  00000+0  12086-3 0  9999
2 63740  51.9012 340.3278 0000755 100.2800 259.8248 14.79923785 63535
KUIPER-00028            
1 63741U 25088T   26175.86671398  .00001442  00000+0  21818-3 0  9996
2 63741  51.9011 339.1125 0000688 108.1457 251.9581 14.79932558 63937
KUIPER-00029            
1 63742U 25088U   26176.18028909  .00004365  00000+0  60068-3 0  9994
2 63742  51.9010 336.4072 0001127 149.9840 210.1187 14.79973446 63521
KUIPER-00030            
1 63743U 25088V   26175.94913413 -.00000658  00000+0 -57380-4 0  9998
2 63743  51.9022 356.2546 0000734 103.5450 256.5594 14.79925454 63518
KUIPER-00031            
1 63744U 25088W   26175.87332705  .00003417  00000+0  51735-3 0  9991
2 63744  51.9019 341.0159 0002466 134.3645 225.7518 14.76422008 63438
KUIPER-00032            
1 63745U 25088X   26174.84492851  .00011139  00000+0  28078-3 0  9991
2 63745  51.8651 229.6599 0003742 133.4937 226.6363 15.40375909 65890
KUIPER-00033            
1 63746U 25088Y   26175.96671097  .00001181  00000+0  18391-3 0  9990
2 63746  51.9016  11.2009 0000733  98.2228 261.8818 14.79942605 63502
KUIPER-00034            
1 63747U 25088Z   26175.87210250 -.00000098  00000+0  16189-4 0  9992
2 63747  51.9026 334.1511 0000693 106.7709 253.3329 14.79927348 63693
KUIPER-00035            
1 63748U 25088AA  26175.91265338  .00001950  00000+0  28457-3 0  9992
2 63748  51.9018 358.9498 0000335 122.9625 237.1370 14.79952011 63403
KUIPER-00037            
1 63749U 25088AB  26175.90559574  .00001012  00000+0  16170-3 0  9998
2 63749  51.9003 357.8358 0000740 109.9307 250.1735 14.79928647 64200
KUIPER-00038            
1 63750U 25088AC  26176.16522154  .00000773  00000+0  13036-3 0  9994
2 63750  51.9075 342.8528 0000681 101.7282 258.3756 14.79932549 63433
KUIPER-00039            
1 64500U 25134A   26176.13779497  .00002254  00000+0  32460-3 0  9999
2 64500  51.9000 117.9711 0000911  90.7364 269.3702 14.79936330 55980
KUIPER-00040            
1 64501U 25134B   26176.16077367  .00003661  00000+0  50892-3 0  9992
2 64501  51.8968 127.9538 0000819  54.1093 305.9945 14.79935112 55849
KUIPER-00041            
1 64502U 25134C   26176.05676897  .00001039  00000+0  16521-3 0  9992
2 64502  51.8973 130.7978 0000780  88.0994 272.0058 14.79935064 55798
KUIPER-00042            
1 64503U 25134D   26176.16344214  .00003821  00000+0  52983-3 0  9993
2 64503  51.8975 125.3058 0000776  82.5788 277.5262 14.79941175 55882
KUIPER-00043            
1 64504U 25134E   26176.03648626  .00003483  00000+0  48559-3 0  9992
2 64504  51.9011 118.3594 0000848  78.9540 281.1517 14.79941417 55970
KUIPER-00044            
1 64505U 25134F   26176.02299862  .00003060  00000+0  43014-3 0  9998
2 64505  51.8985 130.9278 0000712  85.1658 274.9386 14.79940017 55798
KUIPER-00046            
1 64506U 25134G   26176.05946528  .00000517  00000+0  96765-4 0  9996
2 64506  51.8969 128.2449 0000784  80.0904 280.0147 14.79933369 55838
KUIPER-00047            
1 64507U 25134H   26175.98782655  .00003794  00000+0  52630-3 0  9999
2 64507  51.8988 101.0838 0000846  89.3912 270.7147 14.79940851 56203
KUIPER-00048            
1 64508U 25134J   26176.02159642  .00001395  00000+0  21188-3 0  9999
2 64508  51.8982 100.9487 0000974  97.9808 262.1265 14.79936727 56211
KUIPER-00049            
1 64509U 25134K   26176.04187019  .00003439  00000+0  47984-3 0  9994
2 64509  51.9001 113.3217 0000814  81.2362 278.8692 14.79941493 56043
KUIPER-00050            
1 64510U 25134L   26175.99322655  .00001593  00000+0  23796-3 0  9990
2 64510  51.8988  96.0606 0000877 104.9759 255.1300 14.79934034 56282
KUIPER-00051            
1 64511U 25134M   26176.01786157 -.00003471  00000+0 -42652-3 0  9997
2 64511  51.9001 112.1204 0000957  87.8405 272.2667 14.79937989 56053
KUIPER-00053            
1 64513U 25134P   26175.99470480  .00002447  00000+0  33619-3 0  9997
2 64513  51.9000 107.7112 0000617 212.3959 147.6966 14.81655337 56115
KUIPER-00054            
1 64514U 25134Q   26176.01889997  .00004169  00000+0  57548-3 0  9999
2 64514  51.8973 103.4395 0001036  70.7300 289.3774 14.79941108 56170
KUIPER-00055            
1 64515U 25134R   26175.96882373 -.00000052  00000+0  22200-4 0  9990
2 64515  51.9000  56.2876 0000778 102.9428 257.1621 14.79941768 56832
KUIPER-00056            
1 64516U 25134S   26176.11480623  .00004675  00000+0  64179-3 0  9995
2 64516  51.9009 108.1047 0000885  86.2440 273.8623 14.79936415 56128
KUIPER-00057            
1 64517U 25134T   26175.09375858  .00002878  00000+0  40631-3 0  9995
2 64517  51.8983 120.0546 0000812  88.3458 271.7598 14.79935867 55866
KUIPER-00058            
1 64518U 25134U   26176.01080472  .00003634  00000+0  50535-3 0  9999
2 64518  51.8989 110.9685 0000785  78.1191 281.9859 14.79941469 56077
KUIPER-00059            
1 64519U 25134V   26176.01614900  .00007485  00000+0  10091-2 0  9999
2 64519  51.8972 105.9846 0000791 223.9565 136.1335 14.79959598 56145
KUIPER-00060            
1 64520U 25134W   26176.04995473 -.00002765  00000+0 -33379-3 0  9994
2 64520  51.9011 105.8965 0000815  89.0508 271.0548 14.79938880 56133
KUIPER-00061            
1 64521U 25134X   26176.07565500  .00004050  00000+0  55983-3 0  9994
2 64521  51.8992 113.2376 0000899  79.4560 280.6504 14.79939510 56031
KUIPER-00062            
1 64522U 25134Y   26176.14049603  .00015466  00000+0  20548-2 0  9995
2 64522  51.8942 115.4355 0001077  92.1206 267.9880 14.79898458 56025
KUIPER-00063            
1 64523U 25134Z   26176.06486779  .00000822  00000+0  13678-3 0  9993
2 64523  51.9013 123.3119 0000818 100.8156 259.2899 14.79932198 55905
KUIPER-00064            
1 64524U 25134AA  26176.13508455  .00000536  00000+0  99363-4 0  9996
2 64524  51.9008 120.4262 0000843  88.7957 271.3102 14.79934016 55956
KUIPER-00065            
1 64525U 25134AB  26176.06217590  .00003265  00000+0  45712-3 0  9996
2 64525  51.9023 125.9165 0000882 100.9948 259.1113 14.79935108 55854
KUIPER-00066            
1 64526U 25134AC  26175.01528689  .00016487  00000+0  21828-2 0  9996
2 64526  51.9000  67.8257 0000371 114.5210 245.5791 14.80000418 56594
KUIPER-00069            
1 64816U 25151A   26176.22160628  .00002363  00000+0  33886-3 0  9992
2 64816  51.8994 165.1340 0000685  98.3138 261.7902 14.79932796 52689
KUIPER-00070            
1 64817U 25151B   26175.21544427  .00001688  00000+0  25037-3 0  9992
2 64817  51.8965 194.4989 0000517  68.7794 291.3223 14.79925582 52191
KUIPER-00071            
1 64818U 25151C   26175.21852751  .00001805  00000+0  26594-3 0  9995
2 64818  51.8998 192.0252 0000345  14.9338 345.1635 14.79901604 51048
KUIPER-00072            
1 64819U 25151D   26176.15177619  .00016472  00000+0  21821-2 0  9996
2 64819  51.8948 167.8526 0000658  54.8288 305.2735 14.79978942 51465
KUIPER-00073            
1 64820U 25151E   26175.31945278 -.00000035  00000+0  24374-4 0  9996
2 64820  51.8994 191.5605 0000450  27.4390 332.6596 14.79930747 52247
KUIPER-00074            
1 64821U 25151F   26176.16667823  .00135333  17829-4  44181-3 0  9996
2 64821  51.8815 103.3751 0006054  68.8566 119.1144 15.90398922  5481
KUIPER-00075            
1 64822U 25151G   26174.98069909  .00035030  00000+0  74228-3 0  9992
2 64822  51.8670  63.2074 0002403 305.7175  54.3591 15.44753148 52815
KUIPER-00076            
1 64823U 25151H   26176.00552653  .00002323  00000+0  33360-3 0  9992
2 64823  51.8988 178.5450 0000475  60.2596 299.8414 14.79926636 51307
KUIPER-00077            
1 64824U 25151J   26176.13518373  .00002795  00000+0  39546-3 0  9993
2 64824  51.8972 182.9878 0000459  63.2240 296.8770 14.79937576 51256
KUIPER-00078            
1 64825U 25151K   26176.17165713  .00002322  00000+0  33352-3 0  9999
2 64825  51.8988 180.3070 0000477  76.0890 284.0125 14.79933282 51290
KUIPER-00079            
1 64826U 25151L   26175.18708696  .00001717  00000+0  25421-3 0  9998
2 64826  51.8981 189.6238 0000408  76.1115 283.9893 14.79934592 52271
KUIPER-00080            
1 64827U 25151M   26174.74810748  .00004075  00000+0  56281-3 0  9990
2 64827  51.8978 191.5752 0000341  66.9362 293.1636 14.79960175 51013
KUIPER-00082            
1 64828U 25151N   26176.14598324  .00002197  00000+0  31714-3 0  9997
2 64828  51.8992 172.9428 0000583  52.5281 307.5735 14.79928971 51391
KUIPER-00083            
1 64829U 25151P   26176.00284490  .00002341  00000+0  33597-3 0  9991
2 64829  51.8986 181.0606 0000500  78.6967 281.4052 14.79933452 52453
KUIPER-00084            
1 64830U 25151Q   26176.19464411  .00002138  00000+0  30938-3 0  9996
2 64830  51.8999 190.1980 0000421  77.1979 282.9030 14.79930864 51156
KUIPER-00085            
1 64831U 25151R   26176.17976507  .00002376  00000+0  34055-3 0  9997
2 64831  51.9003 172.8369 0000522  74.9285 285.1735 14.79927328 51393
KUIPER-00086            
1 64832U 25151S   26176.16894580  .00002191  00000+0  31640-3 0  9999
2 64832  51.8985 182.8356 0000545  77.1038 282.9985 14.79922360 51253
KUIPER-00087            
1 64833U 25151T   26176.18784638  .00002348  00000+0  33690-3 0  9995
2 64833  51.8978 165.2176 0000565  68.8938 291.2085 14.79938244 51497
KUIPER-00089            
1 64834U 25151U   26176.18244794  .00001146  00000+0  17933-3 0  9997
2 64834  51.8982 170.2601 0000456  70.9726 289.1286 14.79930736 51431
KUIPER-00090            
1 64835U 25151V   26176.19053819  .00002563  00000+0  36497-3 0  9995
2 64835  51.8969 162.7350 0000527  65.1117 294.9900 14.79941473 51531
KUIPER-00091            
1 64836U 25151W   26176.18514538 -.00000894  00000+0 -88329-4 0  9994
2 64836  51.8998 167.7657 0000478  61.8971 298.2040 14.79928986 51463
KUIPER-00092            
1 64837U 25151X   26176.17706699  .00002421  00000+0  34648-3 0  9995
2 64837  51.8976 175.2926 0000529  74.3728 285.7293 14.79931481 52577
KUIPER-00093            
1 64838U 25151Y   26176.17436243  .00002442  00000+0  34916-3 0  9992
2 64838  51.8983 177.7796 0000485  71.1873 288.9141 14.79937250 51324
KUIPER-00094            
1 64839U 25151Z   26175.14233337 -.00016893  00000+0 -21947-2 0  9994
2 64839  51.9027 137.4244 0001186  98.9216 261.1881 14.79890095 51805
KUIPER-00081            
1 65132U 25171A   26174.87883706  .00002831  00000+0  40009-3 0  9999
2 65132  51.8982  38.5039 0001121 107.6023 252.5062 14.79940369 48763
KUIPER-00088            
1 65133U 25171B   26174.92750852  .00000233  00000+0  59587-4 0  9997
2 65133  51.8993  55.7925 0001117  92.6223 267.4868 14.79931527 48520
KUIPER-00095            
1 65134U 25171C   26175.96196287 -.00005944  00000+0 -75129-3 0  9994
2 65134  51.8967  31.2666 0000614 102.7777 257.3254 14.79935997 48950
KUIPER-00096            
1 65135U 25171D   26175.91477697  .00003831  00000+0  53122-3 0  9997
2 65135  51.9004  43.9240 0000680 104.4970 255.6068 14.79937837 48778
KUIPER-00097            
1 65136U 25171E   26174.96668261 -.00000124  00000+0  12700-4 0  9992
2 65136  51.8997  50.7685 0000773 107.3910 252.7137 14.79938617 48588
KUIPER-00098            
1 65137U 25171F   26175.90939874  .00003801  00000+0  52726-3 0  9994
2 65137  51.9008  48.9670 0000744 110.8808 249.2234 14.79941955 48048
KUIPER-00099            
1 65138U 25171G   26174.94100257  .00003128  00000+0  43918-3 0  9998
2 65138  51.9031  43.2505 0000788 106.6538 253.4511 14.79929912 48696
KUIPER-00100            
1 65139U 25171H   26175.99040600  .00003755  00000+0  52129-3 0  9990
2 65139  51.9032  36.0822 0000702 102.9827 257.1214 14.79933252 48880
KUIPER-00102            
1 65140U 25171J   26174.90723168 -.00000070  00000+0  19840-4 0  9991
2 65140  51.8984  43.3651 0000825 104.4182 255.6872 14.79928958 48683
KUIPER-00103            
1 65141U 25171K   26175.93506228  .00005781  00000+0  78669-3 0  9998
2 65141  51.8991  56.3170 0000670 110.6147 249.4887 14.79929601 48593
KUIPER-00104            
1 65142U 25171L   26174.93560372  .00000727  00000+0  12442-3 0  9990
2 65142  51.9001  48.2317 0000828 104.9544 255.1510 14.79931315 48628
KUIPER-00105            
1 65143U 25171M   26175.90670536  .00003806  00000+0  52792-3 0  9996
2 65143  51.9002  51.5407 0000684 100.8433 259.2606 14.79936155 48661
KUIPER-00106            
1 65144U 25171N   26174.87435309 -.00004339  00000+0 -54040-3 0  9991
2 65144  51.9031  34.8650 0001246 106.5575 253.5525 14.79942127 48813
KUIPER-00107            
1 65145U 25171P   26175.99308949  .00003800  00000+0  52722-3 0  9990
2 65145  51.9004  33.5998 0000712 103.3139 256.7903 14.79929595 48924
KUIPER-00108            
1 65146U 25171Q   26175.94585782  .00003753  00000+0  52095-3 0  9998
2 65146  51.9026  46.3425 0000727 104.6991 255.4052 14.79939405 48744
KUIPER-00109            
1 65147U 25171R   26175.91747220  .00003492  00000+0  48671-3 0  9998
2 65147  51.9020  41.4107 0000690 108.6859 251.4178 14.79939263 48802
KUIPER-00110            
1 65148U 25171S   26175.93777485  .00003579  00000+0  49810-3 0  9999
2 65148  51.8999  53.8834 0000750 110.8737 249.2306 14.79940499 48629
KUIPER-00111            
1 65149U 25171T   26175.96610443  .00001871  00000+0  27441-3 0  9992
2 65149  51.8957  58.6407 0000908 109.0547 251.0513 14.79934837 48560
KUIPER-00112            
1 65150U 25171U   26174.93831159  .00002201  00000+0  31767-3 0  9993
2 65150  51.8985  45.7893 0001227 109.6664 250.4431 14.79931136 48651
KUIPER-00114            
1 65151U 25171V   26174.95046771  .00000954  00000+0  15417-3 0  9991
2 65151  51.8975  65.7115 0000721 111.5814 248.5225 14.79925719 48375
KUIPER-00115            
1 65152U 25171W   26175.97153251  .00003958  00000+0  54783-3 0  9993
2 65152  51.9009  53.6952 0000760 104.7287 255.3759 14.79940246 48630
KUIPER-00116            
1 65153U 25171X   26175.93238433  .00002210  00000+0  31877-3 0  9995
2 65153  51.8987  58.9017 0000653 103.2489 256.8547 14.79937504 48559
KUIPER-00118            
1 65154U 25171Y   26174.98425316  .00003071  00000+0  43148-3 0  9998
2 65154  51.9001  65.5487 0000820 106.1768 253.9285 14.79947747 48389
KUIPER-00119            
1 65155U 25171Z   26174.92990366  .00003038  00000+0  42658-3 0  9993
2 65155  51.9007  53.3780 0000979 118.0934 242.0127 14.80012491 48542
KUIPER-00120            
1 65762U 25217A   26174.82938449  .00003230  00000+0  45235-3 0  9999
2 65762  51.8994 303.7079 0000542 113.9993 246.1026 14.79942060 40455
KUIPER-00132            
1 65763U 25217B   26174.81796967  .00030099  00000+0  68273-3 0  9996
2 65763  51.8539 207.0029 0007058 347.5297  12.5516 15.42789322 41791
KUIPER-00133            
1 65764U 25217C   26175.06575325  .00000777  00000+0  13088-3 0  9992
2 65764  51.9037 302.7624 0000455 116.4511 243.6499 14.79935228 40496
KUIPER-00139            
1 65765U 25217D   26174.96576727  .00002519  00000+0  35893-3 0  9992
2 65765  51.8977 270.6749 0000773  86.8771 273.2280 14.79973143 40935
KUIPER-00142            
1 65766U 25217E   26174.57815021 -.00000500  00000+0 -36563-4 0  9999
2 65766  51.8979 287.3459 0000592 104.5645 255.5383 14.79928861 40662
KUIPER-00145            
1 65767U 25217F   26175.04816185  .00002624  00000+0  37299-3 0  9998
2 65767  51.9006 287.7881 0000552 105.6096 254.4927 14.79936093 40697
KUIPER-00147            
1 65768U 25217G   26175.01169832  .00001926  00000+0  28156-3 0  9992
2 65768  51.8992 290.4328 0000481  86.1992 273.9025 14.79935549 40653
KUIPER-00148            
1 65769U 25217H   26174.98205533  .00002225  00000+0  35045-3 0  9995
2 65769  51.9042 272.5658 0000676 204.6443 155.4486 14.76057367 40905
KUIPER-00150            
1 65770U 25217J   26175.06844112  .00002046  00000+0  29736-3 0  9990
2 65770  51.9008 300.2105 0000562 117.0067 243.0953 14.79933829 40528
KUIPER-00151            
1 65771U 25217K   26174.60383444  .00001147  00000+0  17939-3 0  9999
2 65771  51.9018 294.7629 0000585  99.8954 260.2074 14.79932368 40561
KUIPER-00152            
1 65772U 25217L   26174.58354380  .00000033  00000+0  33301-4 0  9999
2 65772  51.9002 282.3393 0000638 104.9499 255.1534 14.79931526 40735
KUIPER-00153            
1 65773U 25217M   26174.58894194  .00002704  00000+0  38344-3 0  9990
2 65773  51.9022 277.3860 0000369  89.9535 270.1470 14.79937538 40808
KUIPER-00155            
1 65774U 25217N   26174.88871320  .00000179  00000+0  52508-4 0  9993
2 65774  51.9016 248.5236 0000304  78.2089 281.8907 14.79927883 41237
KUIPER-00156            
1 65775U 25217P   26174.48764800  .00001480  00000+0  22307-3 0  9993
2 65775  51.9012 277.8148 0000505 108.2378 251.8640 14.79933190 40787
KUIPER-00163            
1 65777U 25217R   26176.16667823  .00136844  18178-4  40495-3 0  9990
2 65777  51.8844 223.8259 0007598   2.9335 313.8037 15.92277001  5864
KUIPER-00165            
1 65778U 25217S   26175.01709001  .00001391  00000+0  21137-3 0  9999
2 65778  51.8994 285.4222 0000486  94.7411 265.3607 14.79934007 40726
KUIPER-00166            
1 65779U 25217T   26174.99681460  .00001842  00000+0  27055-3 0  9990
2 65779  51.9024 273.0590 0000473  98.3707 261.7310 14.79934660 40891
KUIPER-00167            
1 65780U 25217U   26175.07382239  .00002486  00000+0  35496-3 0  9997
2 65780  51.8968 295.0916 0000525  98.8942 261.2080 14.79936304 40592
KUIPER-00168            
1 65781U 25217V   26174.68753446 -.00000293  00000+0 -93978-5 0  9993
2 65781  51.8992 279.3857 0000488  90.9721 269.1297 14.79929174 40780
KUIPER-00169            
1 65782U 25217W   26174.68214154  .00002862  00000+0  40416-3 0  9991
2 65782  51.9013 284.4177 0000500 102.1044 257.9975 14.79937984 40716
KUIPER-00170            
1 65783U 25217X   26174.74427192  .00002613  00000+0  37158-3 0  9990
2 65783  51.8987 289.1051 0000516 100.8237 259.2783 14.79937197 40656
KUIPER-00172            
1 65785U 25217Z   26174.52680305  .00000526  00000+0  98035-4 0  9998
2 65785  51.9009 272.5978 0001522  66.2036 293.9086 14.79930811 40868
KUIPER-00173            
1 65786U 25217AA  26174.71590671  .00000457  00000+0  88893-4 0  9990
2 65786  51.9009 284.2652 0000406  91.2796 268.8213 14.79932276 40713
KUIPER-00174            
1 65787U 25217AB  26174.65377079  .00001646  00000+0  24487-3 0  9998
2 65787  51.9023 279.5841 0000428 104.9703 255.1307 14.79941571 40778
KUIPER-00176            
1 65788U 25217AC  26175.04276470  .00001305  00000+0  20020-3 0  9997
2 65788  51.8978 292.8026 0000556  99.7595 260.3430 14.79933709 40625
KUIPER-00101            
1 65947U 25228A   26174.91977655  .00000991  00000+0  15897-3 0  9990
2 65947  51.8976 250.8103 0000445  90.3658 269.7355 14.79932542 38961
KUIPER-00113            
1 65948U 25228B   26175.90435854  .00002054  00000+0  29828-3 0  9992
2 65948  51.8967 241.4750 0000580  87.6947 272.4081 14.79933667 39176
KUIPER-00117            
1 65949U 25228C   26174.92247593  .00000985  00000+0  15823-3 0  9996
2 65949  51.8960 248.3173 0000438  89.5942 270.5071 14.79931883 38998
KUIPER-00121            
1 65950U 25228D   26174.89410616  .00000503  00000+0  94943-4 0  9999
2 65950  51.8983 243.4525 0000309  94.3142 265.7856 14.79931905 39066
KUIPER-00122            
1 65951U 25228E   26175.89626711  .00001600  00000+0  23880-3 0  9996
2 65951  51.8968 248.9955 0000524  93.3598 266.7424 14.79933598 39073
KUIPER-00123            
1 65952U 25228F   26174.51191073  .00000367  00000+0  77175-4 0  9999
2 65952  51.8977 255.1304 0000238  83.5853 276.5137 14.79931144 38860
KUIPER-00124            
1 65953U 25228G   26175.87058800  .00001498  00000+0  22539-3 0  9999
2 65953  51.8966 241.6107 0000361  93.3275 266.7729 14.79936573 39178
KUIPER-00125            
1 65954U 25228H   26174.87382728  .00001958  00000+0  28570-3 0  9990
2 65954  51.8977 231.0591 0000401  99.6165 260.4843 14.79934413 39239
KUIPER-00126            
1 65955U 25228J   26175.89896441  .00002580  00000+0  36718-3 0  9991
2 65955  51.8968 246.5138 0000238  53.9896 306.1088 14.79937875 39100
KUIPER-00127            
1 65956U 25228K   26175.89014631  .00001805  00000+0  26575-3 0  9994
2 65956  51.8993 239.0224 0000378  92.3720 267.7285 14.79934111 39213
KUIPER-00128            
1 65957U 25228L   26175.87328850  .00000720  00000+0  12347-3 0  9991
2 65957  51.9001 239.1610 0000514  99.9664 260.1357 14.79930850 39209
KUIPER-00129            
1 65958U 25228M   26174.89950422  .00000848  00000+0  14021-3 0  9991
2 65958  51.8985 238.4485 0000427  94.8013 265.2999 14.79934192 39130
KUIPER-00130            
1 65959U 25228N   26175.87599039  .00000492  00000+0  93582-4 0  9999
2 65959  51.9007 236.6589 0000312  83.3865 276.7133 14.79933202 29534
KUIPER-00134            
1 65960U 25228P   26176.17223126  .00037289  00000+0  88233-3 0  9996
2 65960  51.8701 158.4877 0006880 342.9367  17.1389 15.41415861 40353
KUIPER-00135            
1 65961U 25228Q   26174.89681438  .00002131  00000+0  30840-3 0  9997
2 65961  51.9001 241.0449 0000407  96.8254 263.2755 14.79936754 39090
KUIPER-00136            
1 65962U 25228R   26175.87868337  .00002543  00000+0  36251-3 0  9991
2 65962  51.8995 234.1613 0000388  76.9976 283.1029 14.79932255 39273
KUIPER-00137            
1 65963U 25228S   26175.88139227  .00002511  00000+0  35830-3 0  9999
2 65963  51.9018 231.6388 0000437  86.9180 273.1832 14.79934048 39313
KUIPER-00138            
1 65964U 25228T   26174.90486873 -.00001300  00000+0 -14154-3 0  9997
2 65964  51.8975 233.3930 0000197 127.1647 232.9333 14.79948698 39209
KUIPER-00140            
1 65965U 25228U   26174.90219856  .00000953  00000+0  15396-3 0  9993
2 65965  51.8961 235.9930 0000316  99.8720 260.2278 14.79937365 39169
KUIPER-00141            
1 65966U 25228V   26174.43485987  .00002009  00000+0  29250-3 0  9990
2 65966  51.9014 233.1091 0000490  77.3943 282.7074 14.79931998 39168
KUIPER-00146            
1 65967U 25228W   26175.88409339  .00000588  00000+0  10609-3 0  9996
2 65967  51.9012 229.2114 0000397  85.5833 274.5175 14.79934473 39346
KUIPER-00149            
1 65968U 25228X   26174.84275981  .00001174  00000+0  18302-3 0  9996
2 65968  51.8987 228.7052 0000350  83.3422 276.7580 14.79927789 39268
KUIPER-00154            
1 65969U 25228Y   26174.87922371  .00000434  00000+0  85975-4 0  9991
2 65969  51.8982 226.0381 0000456  26.6495 333.4491 14.79934006 39304
KUIPER-00157            
1 65970U 25228Z   26174.87653497  .00001305  00000+0  20007-3 0  9995
2 65970  51.9002 228.6817 0000278  70.3312 289.7680 14.79937702 39262
KUIPER-00144            
1 67133U 25301A   26175.06303799  .00002775  00000+0  39286-3 0  9990
2 67133  51.9026 305.2340 0000425 101.0483 259.0527 14.79933967 29627
KUIPER-00164            
1 67134U 25301B   26175.12768643  .00001839  00000+0  29141-3 0  9990
2 67134  51.9041 316.8641 0000553 235.5037 124.5872 14.76591571 29646
KUIPER-00175            
1 67135U 25301C   26175.06366228  .00003414  00000+0  35468-3 0  9997
2 67135  51.8943 301.1582 0000931  72.8961 287.2108 14.92294298 29751
KUIPER-00179            
1 67136U 25301D   26175.11978627  .00002034  00000+0  29567-3 0  9996
2 67136  51.8988 314.9589 0000568 104.9516 255.1509 14.79933892 29674
KUIPER-00181            
1 67137U 25301E   26174.83596181  .00001797  00000+0  26463-3 0  9993
2 67137  51.9023 328.7400 0000535 116.0991 244.0026 14.79946533 29437
KUIPER-00183            
1 67138U 25301F   26174.83073202  .00003442  00000+0  35351-3 0  9993
2 67138  51.8945 302.9730 0009713  59.8371 300.3558 14.92735750 29802
KUIPER-00184            
1 67139U 25301G   26175.09142675  .00001817  00000+0  26723-3 0  9991
2 67139  51.8993 310.0863 0000484 108.0348 252.0668 14.79935310 29837
KUIPER-00186            
1 67140U 25301H   26175.14008140  .00000695  00000+0  12021-3 0  9996
2 67140  51.9032 327.4098 0000662 101.0068 259.0969 14.79934196 29322
KUIPER-00187            
1 67141U 25301J   26176.15033066  .00003449  00000+0  48116-3 0  9998
2 67141  51.9033 325.4642 0000490 109.6984 250.4031 14.79939338 29437
KUIPER-00188            
1 67142U 25301K   26175.07115530  .00000812  00000+0  13551-3 0  9992
2 67142  51.9043 297.8248 0000504 100.0229 260.0790 14.79933240 29723
KUIPER-00191            
1 67143U 25301L   26175.11170942  .00002617  00000+0  37220-3 0  9990
2 67143  51.8991 322.5479 0000732 100.6456 259.4589 14.79929128 29412
KUIPER-00196            
1 67144U 25301M   26176.16667823  .00040486  00000+0  57827-2 0  9996
2 67144  51.8980 273.7689 0000525 235.0020 207.3108 14.76294904  2987
KUIPER-00204            
1 67145U 25301N   26175.04042147  .00002912  00000+0  41083-3 0  9999
2 67145  51.9003 295.3510 0000334 181.0054 179.0908 14.79928333 29876
KUIPER-00210            
1 67146U 25301P   26175.21299106  .00002752  00000+0  38985-3 0  9997
2 67146  51.9007 322.0557 0000529 107.0796 253.0224 14.79932997 29579
KUIPER-00221            
1 67147U 25301Q   26175.17114594  .00001837  00000+0  26994-3 0  9990
2 67147  51.9002 329.7622 0000781 106.2326 253.8722 14.79935646 29296
KUIPER-00232            
1 67148U 25301R   26175.08603499  .00001634  00000+0  24330-3 0  9995
2 67148  51.8994 315.1654 0000432 108.5417 251.5593 14.79935192 29487
KUIPER-00241            
1 67149U 25301S   26175.10899432  .00002799  00000+0  39582-3 0  9991
2 67149  51.9026 325.0544 0000582 308.0556  52.0354 14.79949503 29682
KUIPER-00245            
1 67150U 25301T   26175.16846202  .00000593  00000+0  10683-3 0  9997
2 67150  51.9057 332.3053 0000764  96.4405 263.6645 14.79930222 29251
KUIPER-00246            
1 67151U 25301U   26175.08333408  .00002208  00000+0  31856-3 0  9998
2 67151  51.9016 317.6385 0000521 100.6167 259.4854 14.79937840 29477
KUIPER-00247            
1 67152U 25301V   26175.09411360  .00001850  00000+0  27157-3 0  9995
2 67152  51.8991 307.5708 0001050 100.4788 259.6293 14.79932904 29599
KUIPER-00248            
1 67153U 25301W   26174.76091604  .00001467  00000+0  23843-3 0  9996
2 67153  51.8987 291.5205 0001803  79.3805 280.7359 14.76647594 29952
KUIPER-00249            
1 67154U 25301X   26175.09682187  .00002513  00000+0  35844-3 0  9993
2 67154  51.8999 305.1105 0000391 112.5963 247.5041 14.79940326 29628
KUIPER-00250            
1 67155U 25301Y   26175.11440614  .00000932  00000+0  15117-3 0  9998
2 67155  51.8994 319.9876 0000517 115.7919 244.3097 14.79932870 29450
KUIPER-00251            
1 67156U 25301Z   26175.06035508  .00006366  00000+0  86330-3 0  9997
2 67156  51.9005 307.7957 0001364 117.5910 242.5191 14.79931078 29771
KUIPER-00252            
1 67157U 25301AA  26174.78754746  .00001440  00000+0  21789-3 0  9993
2 67157  51.8988 311.4487 0000557 121.2127 238.8890 14.79932853 29514
KUIPER-00261            
1 67158U 25301AB  26174.67546560 -.00000728  00000+0 -66482-4 0  9995
2 67158  51.9006 321.9937 0000586 107.9343 252.1683 14.79929784 29356
KUIPER-00265            
1 67159U 25301AC  26175.16575429  .00001741  00000+0  25733-3 0  9994
2 67159  51.9007 334.8014 0000891 106.7139 253.3922 14.79932807 29254
KUIPER-00159            
1 67764U 26030A   26174.99076819  .00027044  00000+0  71046-3 0  9997
2 67764  51.8826  65.4060 0006924  69.6969 290.4762 15.38393874 21441
KUIPER-00160            
1 67765U 26030B   26175.96284172  .00035259  00000+0  90925-3 0  9993
2 67765  51.8799  60.6262 0006182  82.4452 277.7237 15.38831271 21597
KUIPER-00177            
1 67766U 26030C   26175.04512084  .00003166  00000+0  44409-3 0  9997
2 67766  51.9004 102.8194 0000786  97.6804 262.4248 14.79936226 20923
KUIPER-00178            
1 67767U 26030D   26176.09187763  .00002845  00000+0  40264-3 0  9994
2 67767  51.8997  98.1742 0000764 114.6464 245.4577 14.79863671 21085
KUIPER-00180            
1 67768U 26030E   26175.96215875  .00001828  00000+0  26869-3 0  9991
2 67768  51.8978  93.7528 0000783  92.0729 268.0323 14.79939810 21137
KUIPER-00197            
1 67769U 26030F   26176.16667823  .00034610  00000+0  45471-2 0  9993
2 67769  51.8993  72.8612 0000988 147.3808 108.6569 14.79918946  4843
KUIPER-00198            
1 67770U 26030G   26175.93648127  .00003967  00000+0  54900-3 0  9994
2 67770  51.8977  86.3638 0000688 100.0029 260.1011 14.79938674 21231
KUIPER-00199            
1 67771U 26030H   26175.00227967  .00035726  00000+0  99148-3 0  9999
2 67771  51.8813  66.8984 0011440  79.1544 281.0730 15.36511457 21425
KUIPER-00200            
1 67772U 26030J   26176.16667823 -.00029704  00000+0 -30341-2 0  9997
2 67772  51.8993  70.5080 0004195  75.4231 302.1567 14.90038461  5776
KUIPER-00203            
1 67773U 26030K   26175.98513117  .00002274  00000+0  32714-3 0  9991
2 67773  51.9044 103.6942 0000793  86.4012 273.7041 14.79931972 20996
KUIPER-00205            
1 67774U 26030L   26176.16667823  .00040473  00000+0  55541-2 0  9992
2 67774  51.8997  67.8080 0001031  91.8149 330.0134 14.78001077  5057
KUIPER-00208            
1 67775U 26030M   26175.97697630  .00002222  00000+0  34693-3 0  9996
2 67775  51.8976  95.6765 0008125  60.1730 300.0037 14.76469401 21100
KUIPER-00209            
1 67776U 26030N   26176.06342510  .00004057  00000+0  56107-3 0  9994
2 67776  51.8981  93.3937 0000740  73.9249 286.1795 14.79914675 21145
KUIPER-00213            
1 67777U 26030P   26175.96483780  .00003803  00000+0  52749-3 0  9994
2 67777  51.8959  91.3185 0001019 100.1549 259.9528 14.79943159 21163
KUIPER-00214            
1 67778U 26030Q   26176.06885615  .00004682  00000+0  64257-3 0  9993
2 67778  51.8995  88.3604 0000814  98.3384 261.7670 14.79944333 21213
KUIPER-00215            
1 67779U 26030R   26175.93611272  .00002007  00000+0  31681-3 0  9999
2 67779  51.8994  75.8520 0000674  59.6894 300.4133 14.76377726 21387
KUIPER-00218            
1 67780U 26030S   26176.06608807  .00004389  00000+0  60451-3 0  9998
2 67780  51.8962  90.7841 0000812 112.3478 247.7570 14.79920918 21181
KUIPER-00220            
1 67781U 26030T   26176.16667823 -.00013019  00000+0 -10543-2 0  9991
2 67781  51.8957  66.2173 0010053  82.6232 278.0270 14.98545550  5224
KUIPER-00222            
1 67782U 26030U   26175.97025648  .00001110  00000+0  17456-3 0  9991
2 67782  51.8978  86.3639 0001019  92.9714 267.1364 14.79930625 21231
KUIPER-00223            
1 67783U 26030V   26175.94455933  .00004267  00000+0  58832-3 0  9992
2 67783  51.9007  78.7658 0000960 110.5440 249.5625 14.79936601 21345
KUIPER-00225            
1 67784U 26030W   26175.93902140  .00012251  00000+0  16274-2 0  9994
2 67784  51.8972  83.9575 0000623 143.1792 216.9213 14.80079990 21263
KUIPER-00226            
1 67785U 26030X   26176.16667823 -.01482506  00000+0 -12039+0 0  9996
2 67785  51.8888  69.7665 0017492  83.4227  49.0134 15.02511733  5320
KUIPER-00259            
1 67786U 26030Y   26176.04058490  .00004301  00000+0  59315-3 0  9990
2 67786  51.8971  83.4123 0000162  82.8847 277.2133 14.79910782 21280
KUIPER-00260            
1 67787U 26030Z   26176.04318122  .00004259  00000+0  58854-3 0  9991
2 67787  51.8985  80.9918 0000978 126.7584 233.3468 14.79842775 21225
KUIPER-00262            
1 67788U 26030AA  26175.94183939  .00003874  00000+0  53770-3 0  9990
2 67788  51.9000  81.3587 0001116 126.7527 233.3537 14.79866248 21301
KUIPER-00266            
1 67789U 26030AB  26175.97831721  .00000902  00000+0  14744-3 0  9990
2 67789  51.8994  78.6969 0003255 116.6949 243.4347 14.79924716 21348
KUIPER-00268            
1 67790U 26030AC  26176.01478684  .00001566  00000+0  23435-3 0  9997
2 67790  51.9037  76.0409 0000912 110.6756 249.4304 14.79929574 21387
KUIPER-00270            
1 67791U 26030AD  26176.16667823  .00023337  00000+0  24936-2 0  9995
2 67791  51.8969  65.5508 0010500  66.2987  37.3622 14.88626992  5534
KUIPER-00274            
1 67792U 26030AE  26175.96754801  .00001766  00000+0  26062-3 0  9991
2 67792  51.9003  88.7335 0001264 155.4698 204.6324 14.79938770 21207
KUIPER-00275            
1 67793U 26030AF  26176.16667823  .00032515  00000+0  43061-2 0  9995
2 67793  51.9004  67.8631 0002425  56.3745 172.3892 14.79610851  5848
KUIPER-00276            
1 67794U 26030AG  26176.16667823  .00012581  00000+0  16197-2 0  9997
2 67794  51.8981  72.8638 0009107  60.3965   9.3445 14.81356322  5798
KUIPER-00279            
1 67795U 26030AH  26176.16667823 -.01812117  00000+0 -17461+0 0  9996
2 67795  51.8967  63.2782 0009849  59.8202 302.6238 14.96275817  4789
KUIPER-00131            
1 68573U 26072A   26176.12571041  .00000530  00000+0  98549-4 0  9995
2 68573  51.8991 160.5445 0000606  75.1784 284.9245 14.79931734 12299
KUIPER-00189            
1 68574U 26072B   26176.22421058  .00002520  00000+0  35947-3 0  9992
2 68574  51.8973 162.5952 0000623  98.6591 261.4442 14.79927171 12277
KUIPER-00192            
1 68575U 26072C   26176.12840764  .00002540  00000+0  36205-3 0  9991
2 68575  51.8975 158.0305 0000633  72.5156 287.5876 14.79933010 12337
KUIPER-00193            
1 68576U 26072D   26176.16667823 -.00022073  00000+0 -31017-2 0  9999
2 68576  51.9020 147.4220 0000232 211.8743 167.1130 14.76748053  5665
KUIPER-00194            
1 68577U 26072E   26176.23282272  .00002698  00000+0  38321-3 0  9994
2 68577  51.9006 155.0827 0000756  12.3909 347.7071 14.79875907 12386
KUIPER-00229            
1 68578U 26072F   26176.22714091  .00002453  00000+0  35084-3 0  9995
2 68578  51.8997 160.0924 0000471  92.4100 267.6916 14.79905834 12319
KUIPER-00230            
1 68579U 26072G   26176.11651521  .00044719  00000+0  11765-2 0  9992
2 68579  51.8742 138.3392 0003219  47.8595 312.2665 15.38118489 12608
KUIPER-00231            
1 68580U 26072H   26176.12075845 -.00222560  00000+0 -70579-2 0  9996
2 68580  51.8743 138.3454 0004137  68.2161 291.9264 15.33054839 12607
KUIPER-00234            
1 68581U 26072J   26176.15282402  .00001993  00000+0  31361-3 0  9999
2 68581  51.8976 154.9436 0000935 197.7844 162.3085 14.76547835 12373
KUIPER-00236            
1 68582U 26072K   26176.19705562  .00033163  00000+0  88854-3 0  9994
2 68582  51.8740 138.1300 0003860  46.5884 313.5424 15.37693261 12619
KUIPER-00244            
1 68583U 26072L   26176.16667823 -.00018365  00000+0 -25293-2 0  9995
2 68583  51.8981 145.3351 0004750  94.5570 238.4569 14.77481141  4438
KUIPER-00253            
1 68584U 26072M   26176.17311897  .00015083  00000+0  20022-2 0  9991
2 68584  51.9018 147.8456 0000691  67.5632 292.5403 14.79949445 12472
KUIPER-00254            
1 68585U 26072N   26176.20411794  .00002647  00000+0  37604-3 0  9990
2 68585  51.9014 150.2074 0001933  55.7543 304.3602 14.79935381 12447
KUIPER-00263            
1 68586U 26072P   26176.16667823 -.00210104  00000+0 -10268-1 0  9998
2 68586  51.8852 138.6194 0003120  68.0432 273.4331 15.18708819  2503
KUIPER-00269            
1 68587U 26072Q   26176.16667823 -.00023243  00000+0 -13842-2 0  9997
2 68587  51.8935 139.5214 0005164  49.5642 262.1420 15.10400760  5587
KUIPER-00272            
1 68588U 26072R   26176.22971506  .00002616  00000+0  37197-3 0  9990
2 68588  51.8964 157.5755 0001051  61.3064 298.8004 14.79938725 12348
KUIPER-00285            
1 68589U 26072S   26176.16667823 -.01094755  00000+0 -71945-1 0  9993
2 68589  51.8888 139.6318 0008164  50.3541 124.6094 15.09989559  2518
KUIPER-00286            
1 68590U 26072T   26176.16667823 -.01964108  00000+0 -82879-1 0  9991
2 68590  51.8782 138.4650 0005745  29.4317  69.2582 15.26082586  5016
KUIPER-00289            
1 68591U 26072U   26176.16667823 -.00033996  00000+0 -36094-2 0  9992
2 68591  51.8954 143.0948 0012795  75.8993 118.6978 14.88492033  3664
KUIPER-00290            
1 68592U 26072V   26176.17103289 -.00302927  00000+0 -22378-1 0  9997
2 68592  51.8866 142.3547 0012034  57.1755 303.0375 15.04282762 12553
KUIPER-00293            
1 68593U 26072W   26176.16755510  .00002143  00000+0  31015-3 0  9992
2 68593  51.8967 152.8514 0003090  77.7988 282.3320 14.79922913 12407
KUIPER-00294            
1 68594U 26072X   26176.16667823 -.01174714  00000+0 -97165-1 0  9995
2 68594  51.9020 141.2580 0011427  41.5302 131.0963 15.01690062  5167
KUIPER-00296            
1 68595U 26072Y   26176.14239059  .00031601  00000+0  82739-3 0  9997
2 68595  51.8688 138.4679 0009912  52.7812 307.4079 15.38390065 12604
KUIPER-00297            
1 68596U 26072Z   26176.19837600  .00002038  00000+0  32169-3 0  9993
2 68596  51.8986 151.9769 0001151 103.9121 256.1968 14.76318794 12422
KUIPER-00300            
1 68597U 26072AA  26176.19180947  .00002082  00000+0  32722-3 0  9993
2 68597  51.9015 149.0748 0001761  88.7103 271.4060 14.76433520 12461
KUIPER-00301            
1 68598U 26072AB  26176.14435491  .00030661  00000+0  80291-3 0  9994
2 68598  51.8636 138.4438 0010487  54.3059 305.8903 15.38394376 12600
KUIPER-00304            
1 68599U 26072AC  26176.15567995  .00042903  00000+0  11264-2 0  9996
2 68599  51.8661 138.5269 0011691  53.6424 306.5640 15.38140005 12602
KUIPER-00317            
1 68600U 26072AD  26176.16667823 -.01764913  00000+0 -14937+0 0  9993
2 68600  51.8896 141.1519 0011354  61.1840  50.2209 15.01108229  3072
KUIPER-00320            
1 68601U 26072AE  26176.16667823 -.00022320  00000+0 -28341-2 0  9999
2 68601  51.9012 145.3616 0004179  72.0536  62.2735 14.81006045  5785
KUIPER-00299            
1 68864U 26095A   26175.30645516  .00001430  00000+0  23431-3 0  9998
2 68864  51.8990 217.2404 0002281 184.9388 175.1551 14.76443711  8696
KUIPER-00353            
1 68865U 26095B   26176.16667823 -.01110840  00000+0 -43628-1 0  9996
2 68865  51.8878 203.8712 0002078  12.7259  78.7785 15.28200074  4777
KUIPER-00357            
1 68866U 26095C   26176.16667823 -.00040109  00000+0 -43391-2 0  9994
2 68866  51.8983 208.0443 0003626   3.4790 215.9017 14.87877759  3192
KUIPER-00364            
1 68867U 26095D   26176.16667823 -.00035934  00000+0 -50664-2 0  9996
2 68867  51.9039 210.2914 0003690 138.9253  50.9971 14.76848017  3181
KUIPER-00375            
1 68868U 26095E   26176.16667823 -.01235124  00000+0 -68690-1 0  9998
2 68868  51.8934 204.5256 0002231  19.0260 118.9857 15.16324368  5247
KUIPER-00433            
1 68869U 26095F   26174.40937283  .00001877  00000+0  27552-3 0  9991
2 68869  51.8992 225.6433 0000729  79.8019 280.3026 14.79881905  8506
KUIPER-00437            
1 68870U 26095G   26175.30504560  .00021190  00000+0  56495-3 0  9999
2 68870  51.8779 208.0112 0008173 338.7153  21.3493 15.38077053  8820
KUIPER-00448            
1 68871U 26095H   26176.16667823 -.00030310  00000+0 -25516-2 0  9992
2 68871  51.8950 206.4858 0002359  63.9910  83.1316 14.97648106  5878
KUIPER-00459            
1 68872U 26095J   26175.30813994  .00019745  00000+0  58528-3 0  9997
2 68872  51.8697 208.7209 0010580 339.5432  20.5129 15.34792560  8818
KUIPER-00468            
1 68873U 26095K   26174.51221751  .00031207  00000+0  83504-3 0  9993
2 68873  51.8806 211.7138 0004385 320.9210  39.1460 15.37762611  8709
KUIPER-00476            
1 68874U 26095L   26174.90162931  .00012933  00000+0  38282-3 0  9999
2 68874  51.8727 210.5151 0008825 336.7194  23.3391 15.35198560  8750
KUIPER-00478            
1 68875U 26095M   26174.79421831  .00020487  00000+0  55023-3 0  9999
2 68875  51.8754 210.5738 0008946 344.8876  15.1842 15.37866263  8746
KUIPER-00480            
1 68876U 26095N   26174.51803937  .00021028  00000+0  55860-3 0  9992
2 68876  51.8746 211.7264 0006295 328.9263  31.1351 15.38206001  8701
KUIPER-00482            
1 68877U 26095P   26176.16667823 -.01237415  00000+0 -92494-1 0  9992
2 68877  51.8943 205.7425 0002163  20.8927 247.2880 15.05224712  1307
KUIPER-00483            
1 68878U 26095Q   26174.84531827  .00001232  00000+0  20523-3 0  9999
2 68878  51.8980 222.9707 0001980 162.9992 197.1035 14.76617316  8573
KUIPER-00488            
1 68879U 26095R   26176.16667823 -.00005289  00000+0 -18142-3 0  9995
2 68879  51.8714 204.6263 0011050 358.1139  21.7611 15.27353863  5192
KUIPER-00489            
1 68880U 26095S   26175.29364694  .00014367  00000+0  42980-3 0  9992
2 68880  51.8745 208.6496 0010495 338.6972  21.3575 15.34751376  8816
KUIPER-00499            
1 68881U 26095T   26174.79305173  .00014154  00000+0  42876-3 0  9992
2 68881  51.8675 211.2602 0007570 339.6845  20.3838 15.34391139  8737
KUIPER-00500            
1 68882U 26095U   26174.85082046  .00001945  00000+0  28410-3 0  9993
2 68882  51.8992 221.1883 0001007 272.7010  87.3837 14.79921467  8600
KUIPER-00502            
1 68883U 26095V   26175.22573993  .00012506  00000+0  33714-3 0  9990
2 68883  51.8787 208.2358 0006522 334.1574  25.9087 15.38173069  8812
KUIPER-00503            
1 68884U 26095W   26175.29255883  .00001805  00000+0  26557-3 0  9990
2 68884  51.8965 216.7337 0000839  86.6216 273.4843 14.79951804  8702
KUIPER-00504            
1 68885U 26095X   26174.44025450  .00001826  00000+0  26853-3 0  9994
2 68885  51.9004 228.0028 0000334  81.1725 278.9275 14.79921813  8476
KUIPER-00505            
1 68886U 26095Y   26176.16667823 -.00012072  00000+0 -15548-2 0  9997
2 68886  51.9001 210.3731 0000519 149.2208 176.0936 14.80002495  5406
KUIPER-00507            
1 68887U 26095Z   26176.16667823 -.01221323  00000+0 -50955-1 0  9990
2 68887  51.8876 203.8107 0002214  65.6555  38.0576 15.26024171  2343
KUIPER-00511            
1 68888U 26095AA  26175.30054614  .00025147  00000+0  66703-3 0  9997
2 68888  51.8755 207.9746 0007014 335.3624  24.7027 15.38136892  8820
KUIPER-00512            
1 68889U 26095AB  26174.92116763  .00001938  00000+0  28346-3 0  9992
2 68889  51.9006 218.3810 0000391  95.6448 264.4559 14.79891743  8640
KUIPER-00519            
1 68890U 26095AC  26176.16667823 -.01134901  00000+0 -71606-1 0  9995
2 68890  51.8969 204.7076 0001560 101.8011 236.8854 15.11616937  4731
KUIPER-00521            
1 68891U 26095AD  26174.80746227  .00019400  00000+0  50648-3 0  9999
2 68891  51.8827 209.9525 0001349   4.5930 355.5070 15.38810639  8754
KUIPER-00524            
1 68892U 26095AE  26176.16667823 -.01142341  00000+0 -76766-1 0  9996
2 68892  51.9069 205.5360 0002352  71.0669 208.1340 15.09363525  5717
KUIPER-00370            
1 68919U 26098A   26176.20933050  .00024199  00000+0  87632-3 0  9995
2 68919  51.8740  30.9524 0014140 185.8985 174.1833 15.28174854  8557
KUIPER-00380            
1 68920U 26098B   26176.17951389  .00026173  00000+0  88725-3 0  9996
2 68920  51.8761  30.0418 0007630 180.6691 179.4284 15.30349139  8560
KUIPER-00386            
1 68921U 26098C   26174.97350976  .00033354  00000+0  93495-3 0  9997
2 68921  51.8739  34.7343 0002769 208.4592 151.6243 15.36289798  8399
KUIPER-00388            
1 68922U 26098D   26175.90698204  .00042226  00000+0  15460-2 0  9994
2 68922  51.8710  32.6725 0021154 170.5073 189.6313 15.27412863  8505
KUIPER-00405            
1 68923U 26098E   26176.16576917  .00088757  00000+0  30677-2 0  9996
2 68923  51.8664  30.6936 0013790 183.2160 176.8736 15.29072742  8553
KUIPER-00408            
1 68924U 26098F   26176.08344800  .00038106  00000+0  14369-2 0  9995
2 68924  51.8755  31.6233 0012808 182.8017 177.2896 15.26620595  8533
KUIPER-00409            
1 68925U 26098G   26175.89417742  .00029257  00000+0  94578-3 0  9998
2 68925  51.8749  31.1377 0006183 181.0222 179.0751 15.31830187  8524
KUIPER-00410            
1 68926U 26098H   26172.93817301  .00010275  00000+0  39139-3 0  9998
2 68926  51.8745  46.5326 0012682 171.7016 188.4179 15.27227608  8052
KUIPER-00412            
1 68927U 26098J   26175.98905919  .00031759  00000+0  86681-3 0  9994
2 68927  51.8797  29.5705 0002595 235.3334 124.7408 15.37144979  8557
KUIPER-00413            
1 68928U 26098K   26176.16667823 -.01016758  00000+0 -49207-1 0  9991
2 68928  51.8795  31.4973 0023578 190.7864 114.4791 15.20640623  4838
KUIPER-00414            
1 68929U 26098L   26176.16667823 -.00039461  00000+0 -48081-2 0  9997
2 68929  51.8991  35.5118 0017933 180.9075 201.1250 14.82886543  5774
KUIPER-00415            
1 68930U 26098M   26174.87937985  .00022689  00000+0  75974-3 0  9998
2 68930  51.8799  36.3475 0010811 161.0018 199.1372 15.30804180  8362
KUIPER-00416            
1 68931U 26098N   26175.98145600  .00035226  00000+0  95803-3 0  9991
2 68931  51.8769  29.5054 0002241 242.4730 117.6029 15.37204490  8550
KUIPER-00420            
1 68932U 26098P   26175.10667198  .00030201  00000+0  85512-3 0  9991
2 68932  51.8757  34.1442 0003274 206.3222 153.7599 15.36025043  8415
KUIPER-00421            
1 68933U 26098Q   26176.09389646 -.00007854  00000+0 -24580-3 0  9998
2 68933  51.8758  30.2386 0008502 155.4283 204.7107 15.31064771  8554
KUIPER-00425            
1 68934U 26098R   26174.90502187  .00013994  00000+0  53800-3 0  9991
2 68934  51.8726  37.2157 0016784 173.7277 186.3918 15.26555254  8358
KUIPER-00430            
1 68935U 26098S   26174.90818111  .00014820  00000+0  54484-3 0  9997
2 68935  51.8757  37.2523 0021062 173.7833 186.3415 15.27912141  8358
KUIPER-00431            
1 68936U 26098T   26176.16667823 -.01232910  00000+0 -53748-1 0  9995
2 68936  51.8766  31.4787 0016226 168.3687 162.1556 15.24402860  5826
KUIPER-00432            
1 68937U 26098U   26175.96395866  .00024099  00000+0  85584-3 0  9997
2 68937  51.8727  31.5844 0013360 178.8129 181.2888 15.28826317  8523
KUIPER-00434            
1 68938U 26098V   26176.07590520 -.00501835  00000+0 -18074-1 0  9993
2 68938  51.8738  30.1029 0006011 157.8353 202.2892 15.30180163  8554
KUIPER-00436            
1 68939U 26098W   26175.99047975  .00038995  00000+0  13073-2 0  9990
2 68939  51.8771  31.0235 0010712 186.1395 173.9459 15.30479244  8537
KUIPER-00438            
1 68940U 26098X   26174.90319855  .00020423  00000+0  65806-3 0  9990
2 68940  51.8730  35.7517 0005782 189.8427 170.2445 15.32147222  8372
KUIPER-00439            
1 68941U 26098Y   26175.97120924  .00034953  00000+0  11085-2 0  9998
2 68941  51.8777  30.9155 0006192 184.9675 175.1249 15.32353086  8537
KUIPER-00440            
1 68942U 26098Z   26174.89611248  .00024007  00000+0  76686-3 0  9991
2 68942  51.8761  35.7232 0004203 171.8960 188.2093 15.32330836  8375
KUIPER-00442            
1 68943U 26098AA  26176.16667823  .00003170  00000+0  10507-3 0  9992
2 68943  51.8800  29.5045 0005323 172.6519  63.2071 15.34344682  3397
KUIPER-00446            
1 68944U 26098AB  26174.88666126  .00013679  00000+0  41982-3 0  9991
2 68944  51.8755  35.6451 0005237 172.1147 187.9922 15.34017976  8377
KUIPER-00451            
1 68945U 26098AC  26176.16667823 -.01726641  00000+0 -84444-1 0  9991
2 68945  51.8797  31.3757 0011294 170.0517 208.4458 15.21202582  4053
KUIPER-00452            
1 68946U 26098AD  26175.29811166  .00034529  00000+0  98345-3 0  9997
2 68946  51.8737  33.1655 0002934 179.2324 180.8667 15.35773591  8443
KUIPER-00453            
1 68947U 26098AE  26175.98863468  .00029675  00000+0  81250-3 0  9999
2 68947  51.8762  29.5522 0002462 219.9115 140.1691 15.37081696  8558
KUIPER-00454            
1 68948U 26098AF  26175.02502077  .00017093  00000+0  69324-3 0  9990
2 68948  51.8817  37.2698 0015829 161.5326 198.6233 15.24616217  8365
KUIPER-00455            
1 68949U 26098AG  26176.10845117 -.00245709  00000+0 -10124-1 0  9997
2 68949  51.8779  31.7814 0019773 171.8960 188.2344 15.24448026  8530
KUIPER-00458            
1 68950U 26098AH  26174.90198760  .00021188  00000+0  59939-3 0  9990
2 68950  51.8758  35.0231 0003185 189.7783 170.3142 15.36257940  8387
KUIPER-00282            
1 69267U 26118A   26175.97379005  .00025561  00000+0  76991-3 0  9992
2 69267  51.8543  16.0895 0013436 216.1139 143.8939 15.34091339  5175
KUIPER-00383            
1 69268U 26118B   26176.16667823 -.00008044  00000+0 -22720-3 0  9993
2 69268  51.8595  15.1177 0010786 215.1583 150.9604 15.34276825  4647
KUIPER-00527            
1 69269U 26118C   26175.96330196  .00044458  00000+0  12982-2 0  9996
2 69269  51.8641  16.0252 0009578 206.2149 153.8352 15.34836208  5178
KUIPER-00562            
1 69270U 26118D   26175.97498209  .00035684  00000+0  92044-3 0  9998
2 69270  51.8737  15.3752 0001261 144.3803 215.7269 15.38832476  5186
KUIPER-00570            
1 69271U 26118E   26174.14294476  .00489113  00000+0  13187-1 0  9996
2 69271  51.8587  24.8191 0009050 241.2053 118.8024 15.35254459  4895
KUIPER-00572            
1 69272U 26118F   26175.93749100  .00037149  00000+0  10092-2 0  9995
2 69272  51.8646  15.8687 0006310 186.7298 173.3604 15.37197868  5176
KUIPER-00581            
1 69273U 26118G   26175.94327700  .00013383  00000+0  37590-3 0  9992
2 69273  51.8672  15.9025 0008523 204.2905 155.7680 15.36815566  5261
KUIPER-00584            
1 69274U 26118H   26176.16667823 -.00714211  00000+0 -28373-1 0  9998
2 69274  51.8660  15.1878 0011817 225.1239  93.9213 15.27381127  3803
KUIPER-00587            
1 69275U 26118J   26175.94266925  .00033237  00000+0  91749-3 0  9991
2 69275  51.8609  15.8938 0007435 202.1578 157.9088 15.36748890  5170
KUIPER-00590            
1 69276U 26118K   26175.92236808  .00042597  00000+0  11211-2 0  9991
2 69276  51.8674  15.7730 0003957 192.7379 167.3509 15.38125570  5179
KUIPER-00592            
1 69277U 26118L   26176.04887611  .00018083  00000+0  48094-3 0  9993
2 69277  51.8705  15.1223 0003187 162.8051 197.3045 15.38285911  5192
KUIPER-00593            
1 69278U 26118M   26175.98484506  .00039459  00000+0  10354-2 0  9999
2 69278  51.8727  15.4434 0003540 188.1286 171.9644 15.38254955  5241
KUIPER-00594            
1 69279U 26118N   26175.97391529  .00033363  00000+0  86466-3 0  9997
2 69279  51.8720  15.3711 0000919  66.0169 294.0914 15.38719165  5182
KUIPER-00595            
1 69280U 26118P   26175.26219965  .00033489  00000+0  86888-3 0  9991
2 69280  51.8702  18.8508 0000810 236.3353 123.7558 15.38683814  5108
KUIPER-00596            
1 69281U 26118Q   26175.96755753  .00036831  00000+0  11220-2 0  9990
2 69281  51.8635  16.0542 0010681 213.2209 146.8107 15.33574750  5179
KUIPER-00597            
1 69282U 26118R   26175.28559157  .00023636  00000+0  64704-3 0  9991
2 69282  51.8671  18.9967 0007145 204.4890 155.5758 15.37196141  5077
KUIPER-00599            
1 69283U 26118S   26175.93138478  .00011427  00000+0  31653-3 0  9995
2 69283  51.8703  15.8310 0005580 194.1763 165.9068 15.37427867  5179
KUIPER-00600            
1 69284U 26118T   26175.29145660  .00029367  00000+0  80977-3 0  9991
2 69284  51.8648  19.0324 0008726 202.8728 157.1871 15.36836441  5077
KUIPER-00601            
1 69285U 26118U   26175.27654458  .00040202  00000+0  10709-2 0  9996
2 69285  51.8709  18.9449 0005040 196.3563 163.7262 15.37775561  5075
KUIPER-00602            
1 69286U 26118V   26175.26801913  .00022869  00000+0  60400-3 0  9999
2 69286  51.8687  18.8891 0002460 156.3924 203.7176 15.38345039  5074
KUIPER-00603            
1 69287U 26118W   26175.92787308  .00014645  00000+0  39831-3 0  9991
2 69287  51.8681  15.8070 0005053 189.9403 170.1484 15.37756058  5176
KUIPER-00605            
1 69288U 26118X   26175.93626339  .00035593  00000+0  96604-3 0  9995
2 69288  51.8650  15.8575 0006989 191.1584 168.9248 15.37243519  5173
KUIPER-00606            
1 69289U 26118Y   26175.98970274  .00035720  00000+0  94974-3 0  9991
2 69289  51.8709  15.4748 0004490 185.1991 174.8950 15.37890777  5188
KUIPER-00607            
1 69290U 26118Z   26175.92975859  .00014194  00000+0  38881-3 0  9998
2 69290  51.8692  15.8209 0005704 165.6055 194.5095 15.37559725  5173
KUIPER-00608            
1 69291U 26118AA  26174.98146506  .00032058  00000+0  93849-3 0  9997
2 69291  51.8618  20.6959 0007983 205.0787 154.9812 15.34924644  5024
KUIPER-00610            
1 69292U 26118AB  26175.98041612  .00035604  00000+0  93178-3 0  9996
2 69292  51.8719  15.4132 0001785 187.5648 172.5313 15.38387608  5182
KUIPER-00613            
1 69293U 26118AC  26175.96653344  .00036599  00000+0  10795-2 0  9993
2 69293  51.8676  16.0383 0011924 220.1754 139.8351 15.34587029  5170
KUIPER-00618            
1 69294U 26118AD  26176.16910899 -.00273611  00000+0 -73220-2 0  9990
2 69294  51.8688  14.4270 0002957 184.7469 175.3491 15.38553530  5214
KUIPER-00620            
1 69295U 26118AE  26175.97958432  .00050051  00000+0  13064-2 0  9993
2 69295  51.8712  15.4089 0001984 153.8513 206.2574 15.38313264  5188
KUIPER-00423            
1 69592U 26140A   26176.16667823 -.00821559  00000+0 -21911-1 0  9991
2 69592  51.8822   0.0392 0014337 195.5307 118.2554 15.40179487  1307
KUIPER-00428            
1 69593U 26140B   26176.16667823 -.00012644  00000+0 -33913-3 0  9996
2 69593  51.8810   0.2244 0006933 321.6447 261.9279 15.36492519  2392
KUIPER-00481            
1 69594U 26140C   26176.16667823 -.00819165  00000+0 -22327-1 0  9995
2 69594  51.8797   0.0728 0012023 202.8262  94.2058 15.39564355  1891
KUIPER-00490            
1 69595U 26140D   26176.16667823 -.00012439  00000+0 -32270-3 0  9995
2 69595  51.8785   0.1677 0006085 256.6972 352.4727 15.37501928  2370
KUIPER-00493            
1 69596U 26140E   26176.16667823 -.00012082  00000+0 -32660-3 0  9993
2 69596  51.8809   0.2444 0006276 331.3290 242.3607 15.36210199  1860
KUIPER-00496            
1 69597U 26140F   26176.16667823 -.00007672  00000+0 -20880-3 0  9994
2 69597  51.8796   0.2583 0008491 338.6473 226.6528 15.35369817  2403
KUIPER-00513            
1 69598U 26140G   26176.16667823 -.00009454  00000+0 -24149-3 0  9997
2 69598  51.8817   0.1641 0006196 254.6405 358.4402 15.37644255  2245
KUIPER-00516            
1 69599U 26140H   26176.16667823 -.00012513  00000+0 -32729-3 0  9991
2 69599  51.8796   0.1804 0005943 272.8179 330.7268 15.37259386  2398
KUIPER-00517            
1 69600U 26140J   26176.16667823 -.00008004  00000+0 -19575-3 0  9998
2 69600  51.8784   0.1025 0010207 215.1810  66.5734 15.38659225  1954
KUIPER-00520            
1 69601U 26140K   26176.16667823 -.00012559  00000+0 -33008-3 0  9996
2 69601  51.8824   0.1949 0005586 277.0794 321.7835 15.37120349  2326
KUIPER-00522            
1 69602U 26140L   26176.16667823 -.00822030  00000+0 -21893-1 0  9997
2 69602  51.8801   0.0357 0014349 192.1516 123.3090 15.40222652  1894
KUIPER-00528            
1 69603U 26140M   26176.16667823 -.00012583  00000+0 -33241-3 0  9994
2 69603  51.8795   0.1983 0004523 283.0360 311.7049 15.36972661  1303
KUIPER-00532            
1 69604U 26140N   26176.16667823 -.00013672  00000+0 -36766-3 0  9990
2 69604  51.8795   0.2219 0004843 315.5357 267.5657 15.36508900  2393
KUIPER-00533            
1 69605U 26140P   26176.16667823 -.00007969  00000+0 -20011-3 0  9999
2 69605  51.8795   0.1411 0007648 242.2292  20.7457 15.37891555  1878
KUIPER-00534            
1 69606U 26140Q   26176.16667823 -.00000954  00000+0 -13255-4 0  9990
2 69606  51.8828   0.0267 0014813 189.4751 130.1411 15.40040250  2158
KUIPER-00537            
1 69607U 26140R   26176.16667823 -.00011918  00000+0 -32664-3 0  9997
2 69607  51.8813   0.2615 0008068 343.2857 222.9250 15.35756076  2137
KUIPER-00538            
1 69608U 26140S   26176.16667823 -.00007013  00000+0 -17831-3 0  9998
2 69608  51.8817   0.1799 0005587 259.1020 346.3266 15.37318144  2370
KUIPER-00540            
1 69609U 26140T   26176.16667823 -.00012671  00000+0 -33828-3 0  9999
2 69609  51.8820   0.2181 0005416 309.8200 277.6188 15.36649581  1868
KUIPER-00541            
1 69610U 26140U   26176.16667823 -.00009537  00000+0 -24198-3 0  9998
2 69610  51.8827   0.1532 0006955 238.8418  20.1973 15.37853349  2377
KUIPER-00542            
1 69611U 26140V   26176.16667823 -.00008692  00000+0 -21771-3 0  9994
2 69611  51.8795   0.1354 0007474 222.3840  43.5620 15.38104013  1474
KUIPER-00543            
1 69612U 26140W   26176.16667823 -.00012417  00000+0 -33450-3 0  9992
2 69612  51.8789   0.2294 0006623 327.1650 251.3697 15.36343083  1710
KUIPER-00544            
1 69613U 26140X   26176.16667823 -.00008024  00000+0 -20280-3 0  9999
2 69613  51.8794   0.1569 0006424 239.4521  15.8308 15.37720006  1977
KUIPER-00546            
1 69614U 26140Y   26176.16667823 -.00002245  00000+0 -44705-4 0  9998
2 69614  51.8799   0.0194 0015472 189.5273 133.7709 15.40171381  2402
KUIPER-00547            
1 69615U 26140Z   26176.16667823 -.00008032  00000+0 -19393-3 0  9993
2 69615  51.8831   0.0848 0011520 207.7337  84.2509 15.39033456  1304
KUIPER-00549            
1 69616U 26140AA  26176.16667823 -.00012857  00000+0 -34090-3 0  9995
2 69616  51.8795   0.2021 0006152 302.1306 290.7131 15.36869641  2317
KUIPER-00550            
1 69617U 26140AB  26176.16667823 -.00001526  00000+0 -32658-4 0  9996
2 69617  51.8796   0.2680 0006443 351.6843 208.7461 15.35376193  1709
KUIPER-00551            
1 69618U 26140AC  26176.16667823 -.00006426  00000+0 -15039-3 0  9994
2 69618  51.8798   0.0536 0013496 200.0162 106.2930 15.39520300  1301
KUIPER-00554            
1 69619U 26140AD  26176.16667823 -.00006992  00000+0 -16669-3 0  9993
2 69619  51.8797   0.0769 0011878 208.5386  86.2747 15.39164898  2122
KUIPER-00555            
1 69620U 26140AE  26176.16667823 -.00006676  00000+0 -15744-3 0  9997
2 69620  51.8830   0.0663 0012536 201.4193  99.3666 15.39384354  1928
KUIPER-00556            
1 69621U 26140AF  26176.16667823 -.00822883  00000+0 -22214-1 0  9992
2 69621  51.8818   0.0545 0013088 194.1687 112.0342 15.39845309  2122
KUIPER-00557            
1 69622U 26140AG  26176.16667823 -.00008444  00000+0 -20621-3 0  9994
2 69622  51.8820   0.1001 0010783 215.1108  69.1608 15.38781087  1302
KUIPER-00560            
1 69623U 26140AH  26176.16667823 -.00008536  00000+0 -21161-3 0  9997
2 69623  51.8795   0.1202 0008703 223.7785  49.5903 15.38376332  2036
KUIPER-00561            
1 69624U 26140AJ  26176.16667823 -.00009176  00000+0 -22932-3 0  9996
2 69624  51.8830   0.1311 0008084 223.2116  46.5002 15.38245070  2247
KUIPER-00564            
1 69625U 26140AK  26176.16667823 -.00007428  00000+0 -18186-3 0  9991
2 69625  51.8818   0.1131 0009505 214.6381  63.2384 15.38513396  1709
KUIPER-00567            
1 69626U 26140AL  26176.16667823 -.00824786  00000+0 -22115-1 0  9991
2 69626  51.8792   0.0444 0013654 196.4181 114.4860 15.40044346  2438
KUIPER-00573            
1 69627U 26140AM  26176.16667823 -.00007592  00000+0 -18370-3 0  9990
2 69627  51.8796   0.0901 0010561 206.8862  81.4542 15.38888858  2371
