ORBCOMM FM06            
1 25118U 97084G   26112.05050682  .00000952  00000+0  29622-3 0  9992
2 25118  45.0145 322.9273 0000910  17.2018 145.1927 14.47417378486255
ORBCOMM FM04            
1 25159U 98007C   26112.09566739  .00000710  00000+0  28926-3 0  9990
2 25159 107.9612  53.9939 0039075  63.1381 297.3746 14.35622307468542
ORBCOMM FM19            
1 25415U 98046C   26112.13688920  .00000616  00000+0  24162-3 0  9993
2 25415  44.9928 149.9641 0002662 342.8300  52.1946 14.39381014448709
ORBCOMM FM20            
1 25416U 98046D   26112.15708347  .00000419  00000+0  18409-3 0  9990
2 25416  44.9929 157.1787 0001773 269.9472  90.1173 14.37980093448720
ORBCOMM FM27            
1 25481U 98053G   26112.30346844  .00000689  00000+0  26668-3 0  9992
2 25481  45.0048 240.7590 0001110 220.1619 139.9147 14.39032133442186
ORBCOMM FM32            
1 25982U 99065C   26112.25917767  .00000598  00000+0  24728-3 0  9998
2 25982  45.0150  77.9489 0003995 144.6926 215.4187 14.37046158379045
ORBCOMM FM109           
1 40086U 14040A   26112.07429047  .00000308  00000+0  10145-3 0  9996
2 40086  47.0048 356.7715 0002016 316.5925  43.4802 14.58783833626158
ORBCOMM FM114           
1 41179U 15081A   26111.81798012  .00000329  00000+0  10600-3 0  9997
2 41179  47.0045 268.4978 0002637 289.9439  70.1163 14.58793333549529
ORBCOMM FM110           
1 41182U 15081D   26111.80683968  .00000354  00000+0  11135-3 0  9995
2 41182  47.0018 268.0078 0003231 184.2113 175.8746 14.58812427549398
ORBCOMM FM118           
1 41183U 15081E   26112.11548216  .00000376  00000+0  11583-3 0  9998
2 41183  47.0039 266.8732 0002899 148.6640 211.4419 14.58810510549545
ORBCOMM FM112           
1 41184U 15081F   26112.18688154  .00000386  00000+0  11799-3 0  9992
2 41184  46.9981 175.0157 0002769 288.7858  71.2727 14.58809113550773
ORBCOMM FM113           
1 41185U 15081G   26112.23279811  .00000234  00000+0  85768-4 0  9995
2 41185  47.0000 175.1754 0002284 292.5115  67.5529 14.58795557550766
ORBCOMM FM108           
1 41187U 15081J   26112.26381144  .00000399  00000+0  12072-3 0  9992
2 41187  47.0045  86.5818 0003590 297.7124  62.3397 14.58812858551919
ORBCOMM FM117           
1 41188U 15081K   26112.16077557  .00000250  00000+0  89369-4 0  9992
2 41188  47.0005  85.7201 0003989 302.5483  57.5017 14.58805623551948
ORBCOMM FM116           
1 41189U 15081L   26112.21016754  .00000397  00000+0  12029-3 0  9991
2 41189  47.0015 175.2783 0001907 202.3688 157.7115 14.58805919550761
