GLOBALSTAR M069         
1 31573U 07020C   26228.01263448 -.00000102  00000+0 -90013-4 0  9997
2 31573  52.0031  82.7955 0001090 286.6542 221.3571 12.23473332886127
GLOBALSTAR M072         
1 31574U 07020D   26228.18359117 -.00000054  00000+0  41683-3 0  9998
2 31574  51.9944 300.5221 0001534  83.8935 299.5229 11.91659417882130
GLOBALSTAR M066         
1 32265U 07048C   26228.10402603 -.00000088  00000+0  54423-4 0  9991
2 32265  51.9566 245.9101 0004877 167.0117 227.7944 12.30390825867608
GLOBALSTAR M079         
1 37188U 10054A   26228.14826674 -.00000088  00000+0  89734-4 0  9996
2 37188  52.0041 286.1430 0000741 122.5038 255.3521 12.62267019730120
GLOBALSTAR M074         
1 37189U 10054B   26228.17852522 -.00000079  00000+0  13914-3 0  9997
2 37189  52.0019 285.3078 0000413 132.5213 262.3744 12.62262511730731
GLOBALSTAR M076         
1 37190U 10054C   26228.20491176 -.00000083  00000+0  11719-3 0  9993
2 37190  52.0028 285.4358 0000633 139.0259 255.8078 12.62263225730450
GLOBALSTAR M077         
1 37191U 10054D   26227.62730516 -.00000094  00000+0 -29632-3 0  9999
2 37191  51.9977  28.4261 0002070 288.6840 151.2957 11.67547853728081
GLOBALSTAR M075         
1 37192U 10054E   26228.29700120 -.00000086  00000+0  96782-4 0  9993
2 37192  51.9972 327.1732 0000620 104.4628 290.2174 12.62268230729538
GLOBALSTAR M073         
1 37193U 10054F   26228.05966039 -.00000106  00000+0 -11308-4 0  9996
2 37193  52.0038 242.0425 0000485 132.1536 261.6576 12.62267631731493
GLOBALSTAR M083         
1 37739U 11033A   26228.25404056 -.00000110  00000+0 -32070-4 0  9992
2 37739  51.9847 189.5961 0000430 102.5832  35.4810 12.62258361700534
GLOBALSTAR M088         
1 37740U 11033B   26227.99043245 -.00000078  00000+0  14588-3 0  9998
2 37740  52.0210  96.9709 0000694  65.3198  73.9133 12.62269901696043
GLOBALSTAR M091         
1 37741U 11033C   26228.00909046 -.00000105  00000+0 -90017-5 0  9997
2 37741  52.0000  59.7911 0000970  77.2335  86.9735 12.62264517696832
GLOBALSTAR M085         
1 37742U 11033D   26227.83473735 -.00000110  00000+0 -35250-4 0  9992
2 37742  52.0150  11.6660 0000983  93.3588  58.1184 12.62264543697323
GLOBALSTAR M081         
1 37743U 11033E   26228.18224657 -.00000112  00000+0 -47175-4 0  9990
2 37743  51.9980  12.9754 0000836 102.8745  68.5774 12.62265727697515
GLOBALSTAR M089         
1 37744U 11033F   26228.26887490 -.00000094  00000+0  54886-4 0  9995
2 37744  51.9952 326.8613 0000419 124.9884 261.6217 12.62262715698379
GLOBALSTAR M084         
1 38040U 11080A   26228.31252272 -.00000101  00000+0  15280-4 0  9991
2 38040  51.9990 194.2391 0000076 126.7805  37.9767 12.62269952676351
GLOBALSTAR M080         
1 38041U 11080B   26228.10733307 -.00000110  00000+0 -33113-4 0  9998
2 38041  52.0040 196.6050 0000691  47.0927  33.5692 12.62258195676458
GLOBALSTAR M082         
1 38042U 11080C   26228.21614841 -.00000091  00000+0  72328-4 0  9990
2 38042  52.0068 151.7784 0000758  58.8751  88.0155 12.62274915677171
GLOBALSTAR M092         
1 38043U 11080D   26228.00332851 -.00000112  00000+0 -43137-4 0  9997
2 38043  52.0069 242.8289 0000242 109.5133 268.7563 12.62268317675606
GLOBALSTAR M090         
1 38044U 11080E   26228.16370773 -.00000081  00000+0  12758-3 0  9998
2 38044  52.0117 145.9138 0000725  75.0689  71.9306 12.62269862677287
GLOBALSTAR M086         
1 38045U 11080F   26228.09576503 -.00000086  00000+0  97245-4 0  9990
2 38045  51.9893 145.9510 0001048 152.1623 311.9224 12.62288509677224
GLOBALSTAR M097         
1 39072U 13005A   26228.26348033 -.00000107  00000+0 -18741-4 0  9993
2 39072  52.0049  60.4562 0000929  83.7467 276.3506 12.62271323624494
GLOBALSTAR M093         
1 39073U 13005B   26227.84092334 -.00000104  00000+0 -28032-6 0  9990
2 39073  52.0110  55.1134 0001097  92.2620 267.8372 12.62266718624390
GLOBALSTAR M094         
1 39074U 13005C   26228.23673484 -.00000102  00000+0  73849-5 0  9998
2 39074  51.9984 327.9682 0000843 112.3058 247.7898 12.62264277626056
GLOBALSTAR M096         
1 39075U 13005D   26227.77499781 -.00000116  00000+0 -67912-4 0  9992
2 39075  52.0092  18.2185 0001033  92.9323 267.1662 12.62275873624919
GLOBALSTAR M078         
1 39076U 13005E   26227.98591611 -.00000161  00000+0 -31910-3 0  9999
2 39076  51.9871 101.5076 0001529  52.2026 307.8979 12.62260887623569
GLOBALSTAR M095         
1 39077U 13005F   26228.01253731 -.00000080  00000+0  13047-3 0  9993
2 39077  52.0075  99.1142 0001147  69.3590 290.7400 12.62264308623421
GLOBALSTAR M087         
1 52888U 22064A   26228.02563295 -.00000102  00000+0  71334-5 0  9993
2 52888  51.9980 240.2796 0000494 101.3871 258.7051 12.62262542198696
