ORBCOMM-X               
1 21576U 91050C   26089.19020018  .00000386  00000+0  12657-3 0  9992
2 21576  98.3026 154.4320 0004465  55.4906 304.6706 14.43532505823379
ORBCOMM FM01            
1 23545U 95017A   26089.21074166  .00012933  00000+0  11874-2 0  9993
2 23545  69.9599  78.3617 0007210 256.4005 103.6349 14.94959779655187
ORBCOMM FM02            
1 23546U 95017B   26089.28318010  .00013841  00000+0  12022-2 0  9995
2 23546  69.9606  96.0247 0008642 256.5276 103.4920 14.97101592654888
ORBCOMM FM08            
1 25112U 97084A   26088.99195526  .00001787  00000+0  52524-3 0  9992
2 25112  45.0138  74.5744 0007993 271.0494  88.9442 14.47049487482759
ORBCOMM FM10            
1 25113U 97084B   26089.22799124  .00001843  00000+0  54373-3 0  9991
2 25113  45.0148  76.3847 0005692 247.4718 112.5532 14.46770026657921
ORBCOMM FM11            
1 25114U 97084C   26089.21425491  .00001688  00000+0  50428-3 0  9998
2 25114  45.0133  77.6172 0006503 245.9053 114.1119 14.46504824482878
ORBCOMM FM12            
1 25115U 97084D   26088.96512195  .00001716  00000+0  51171-3 0  9996
2 25115  45.0140  78.5310 0005537 246.3509 113.6761 14.46533577482636
ORBCOMM FM09            
1 25116U 97084E   26089.23410793  .00001531  00000+0  46253-3 0  9999
2 25116  45.0146  78.5110 0006326 232.4457 127.5821 14.46354455482879
ORBCOMM FM05            
1 25117U 97084F   26089.21192413  .00001924  00000+0  56153-3 0  9990
2 25117  45.0146  73.4665 0003499 264.8469  95.1983 14.47159341482023
ORBCOMM FM06            
1 25118U 97084G   26089.24460361  .00002059  00000+0  59579-3 0  9999
2 25118  45.0145  72.6834 0002692 279.6624  94.0638 14.47343767482957
ORBCOMM FM07            
1 25119U 97084H   26088.28739508  .00001814  00000+0  52956-3 0  9995
2 25119  45.0132  78.0284 0004002 251.5976 108.4441 14.47340581482806
ORBCOMM FM03            
1 25158U 98007B   26089.23448543  .00001204  00000+0  46043-3 0  9999
2 25158 107.9616   3.5549 0042619 107.8781 252.7014 14.35350186465072
ORBCOMM FM04            
1 25159U 98007C   26089.03131920  .00001172  00000+0  44835-3 0  9997
2 25159 107.9604   6.5474 0038450 105.2914 255.2481 14.35573537465239
ORBCOMM FM17            
1 25413U 98046A   26089.03029030  .00000960  00000+0  37721-3 0  9991
2 25413  44.9959 347.8466 0001713 225.2172 134.8536 14.35784425444249
ORBCOMM FM18            
1 25414U 98046B   26088.20131429  .00001445  00000+0  50440-3 0  9998
2 25414  44.9922 261.2861 0004183 267.7665  92.2705 14.39495809445302
ORBCOMM FM19            
1 25415U 98046C   26089.19047128  .00001450  00000+0  50779-3 0  9991
2 25415  44.9934 259.0136 0003065 260.5117 277.5648 14.39325630445394
ORBCOMM FM20            
1 25416U 98046D   26089.16076094  .00001145  00000+0  42234-3 0  9991
2 25416  44.9938 266.2182 0000484 230.3162 129.7643 14.37938624445414
ORBCOMM FM16            
1 25417U 98046E   26089.07147025  .00001595  00000+0  54782-3 0  9995
2 25417  44.9930 254.1867 0003795 287.2719  72.7715 14.39892091445449
ORBCOMM FM15            
1 25418U 98046F   26089.19018973  .00001396  00000+0  48887-3 0  9996
2 25418  44.9965 259.6516 0003426 289.2140  70.8338 14.39513352445440
ORBCOMM FM14            
1 25419U 98046G   26087.87936096  .00001246  00000+0  43717-3 0  9996
2 25419  44.9949 263.2123 0002372 271.0350  89.0227 14.39948304445234
ORBCOMM FM13            
1 25420U 98046H   26089.23230919  .00001207  00000+0  43761-3 0  9997
2 25420  44.9967 267.7573 0004578 268.6779  91.3545 14.38494222444413
ORBCOMM FM21            
1 25475U 98053A   26089.10611813  .00001044  00000+0  38822-3 0  9998
2 25475  45.0099 354.7456 0001201 278.8745  81.1967 14.38056059438391
ORBCOMM FM22            
1 25476U 98053B   26089.12492996  .00001275  00000+0  45230-3 0  9997
2 25476  45.0091 346.9861 0002423 241.8126 118.2478 14.39297991438456
ORBCOMM FM23            
1 25477U 98053C   26089.06230042  .00001200  00000+0  43673-3 0  9990
2 25477  45.0099 356.5833 0001784 248.2158 111.8501 14.38325169438540
ORBCOMM FM24            
1 25478U 98053D   26089.08795481  .00001234  00000+0  44196-3 0  9994
2 25478  45.0093 352.5980 0001668 260.3794  99.6866 14.38977764438615
ORBCOMM FM25            
1 25479U 98053E   26089.13496456  .00001291  00000+0  46081-3 0  9999
2 25479  45.0087 350.6939 0004052 255.7487 104.2912 14.38939161438916
ORBCOMM FM26            
1 25480U 98053F   26089.13800796  .00001073  00000+0  39898-3 0  9993
2 25480  45.0083 349.3384 0006153 267.5012  92.5132 14.37862834438792
ORBCOMM FM27            
1 25481U 98053G   26089.11561763  .00001276  00000+0  45558-3 0  9995
2 25481  45.0070 350.8717 0001086 321.5494  38.5277 14.38983160438844
ORBCOMM FM28            
1 25482U 98053H   26089.26385920  .00001106  00000+0  40028-3 0  9990
2 25482  45.0050 287.3573 0003906 296.9260  63.1189 14.39071441439552
ORBCOMM FM30            
1 25980U 99065A   26089.23453031  .00001041  00000+0  38733-3 0  9991
2 25980  45.0306 174.9963 0005318 346.1159  13.9542 14.38025212375613
ORBCOMM FM31            
1 25981U 99065B   26089.22179615  .00000909  00000+0  34494-3 0  9996
2 25981  45.0221 168.4955 0002299   4.5328 355.5541 14.37944665375162
ORBCOMM FM32            
1 25982U 99065C   26089.24784688  .00001010  00000+0  38490-3 0  9995
2 25982  45.0147 186.8547 0004367  13.9417 346.1551 14.37008172375736
ORBCOMM FM33            
1 25983U 99065D   26089.26453542  .00001267  00000+0  43618-3 0  9992
2 25983  45.0282  77.9755 0007053  49.0634 311.0826 14.40833532377316
ORBCOMM FM36            
1 25984U 99065E   26089.24805730  .00001410  00000+0  49820-3 0  9992
2 25984  45.0383 174.2896 0004238 273.1094  86.9270 14.39036945375611
ORBCOMM FM35            
1 25985U 99065F   26089.23296413  .00001207  00000+0  44266-3 0  9997
2 25985  45.0389 181.7608 0001990   7.6673 352.4206 14.37924743375943
ORBCOMM FM34            
1 25986U 99065G   26089.20509739  .00000990  00000+0  37226-3 0  9999
2 25986  45.0383 182.4174 0003624 309.1569  50.8957 14.37827083376058
ORBCOMM FM38            
1 33060U 08031A   26089.21053031  .00002836  00000+0  37306-3 0  9994
2 33060  48.4403  30.6389 0004569 200.4271 159.6463 14.82824084957170
ORBCOMM FM41            
1 33061U 08031B   26089.25813922  .00002633  00000+0  35214-3 0  9993
2 33061  48.4437  39.2291 0003671 184.9869 318.3804 14.82352649956655
ORBCOMM FM29            
1 33062U 08031C   26089.28374186  .00002816  00000+0  37327-3 0  9991
2 33062  48.4387  46.4949 0005250 182.9642 321.7359 14.82529823956576
ORBCOMM FM39            
1 33063U 08031D   26089.24646491  .00002061  00000+0  29119-3 0  9991
2 33063  48.4403  74.2689 0005887 149.5826 210.5432 14.80897366956176
ORBCOMM FM37            
1 33064U 08031E   26088.98733030  .00002131  00000+0  29882-3 0  9993
2 33064  48.4399  63.5837 0004661 171.1911 253.4245 14.81086922956393
ORBCOMM FM40            
1 33065U 08031F   26089.25053471  .00003373  00000+0  42899-3 0  9991
2 33065  48.4415  41.1711 0005794 188.8658 311.4372 14.83759652956617
VESSELSAT 1             
1 37840U 11058C   26089.21941314  .00000379  00000+0  61770-4 0  9990
2 37840  19.9606 163.0048 0013786  92.8918 267.3064 14.11424872746761
ORBCOMM FM109           
1 40086U 14040A   26089.06131049  .00000649  00000+0  17391-3 0  9998
2 40086  47.0023 105.5613 0002361 241.0565 119.0084 14.58753122622799
ORBCOMM FM107           
1 40087U 14040B   26089.00626915  .00000687  00000+0  18150-3 0  9990
2 40087  47.0039 106.6623 0000913 216.9220 143.1603 14.58837930622863
ORBCOMM FM106           
1 40088U 14040C   26089.19448076  .00001216  00000+0  22983-3 0  9999
2 40088  47.0595 264.6394 0016691 314.6988  45.2543 14.70353168625552
ORBCOMM FM111           
1 40089U 14040D   26088.23779120  .00003812  00000+0  42678-3 0  9998
2 40089  46.9999  79.5832 0027614 119.8178 240.5471 14.88452103632660
ORBCOMM FM104           
1 40090U 14040E   26089.17479374  .00000545  00000+0  15694-3 0  9990
2 40090  47.0039 142.9557 0015126  71.5032 288.7495 14.57195487622323
ORBCOMM FM103           
1 40091U 14040F   26089.06387608  .00000698  00000+0  18436-3 0  9993
2 40091  47.0042 107.1268 0001326 191.1971 168.8885 14.58742551605837
ORBCOMM FM114           
1 41179U 15081A   26089.14761450  .00000798  00000+0  20535-3 0  9991
2 41179  47.0065  15.6666 0002279 216.2852 143.7879 14.58763207546212
ORBCOMM FM119           
1 41180U 15081B   26087.84630973  .00000513  00000+0  14508-3 0  9991
2 41180  47.0000 291.1800 0001464 268.6411  91.4307 14.58701955547275
ORBCOMM FM105           
1 41181U 15081C   26088.99401872  .00000306  00000+0  13025-3 0  9996
2 41181  47.0020 318.7500 0001533 177.3038 182.7851 14.45510764542094
ORBCOMM FM110           
1 41182U 15081D   26089.06825793  .00001129  00000+0  27562-3 0  9993
2 41182  47.0038  15.5078 0002466  56.5546 303.5575 14.58772988546074
ORBCOMM FM118           
1 41183U 15081E   26089.17138477  .00001126  00000+0  27492-3 0  9991
2 41183  47.0059  15.3402 0003029  15.8742 344.2238 14.58770120546196
ORBCOMM FM112           
1 41184U 15081F   26088.28389092  .00000829  00000+0  21206-3 0  9990
2 41184  46.9987 288.0278 0002060 205.9185 154.1598 14.58770797547280
ORBCOMM FM113           
1 41185U 15081G   26088.26115100  .00000668  00000+0  17779-3 0  9997
2 41185  47.0005 288.5067 0001772 216.3513 143.7253 14.58763951547269
ORBCOMM FM115           
1 41186U 15081H   26088.34560317  .00000769  00000+0  18215-3 0  9999
2 41186  46.9972 122.6620 0001911 284.2065  75.8610 14.63157728549523
ORBCOMM FM108           
1 41187U 15081J   26088.97731640  .00001137  00000+0  27728-3 0  9997
2 41187  47.0047 196.6688 0003159 206.7991 153.2733 14.58774918548512
ORBCOMM FM117           
1 41188U 15081K   26089.01118373  .00001068  00000+0  26269-3 0  9998
2 41188  47.0008 195.1669 0003647 210.9665 149.1006 14.58771224548569
ORBCOMM FM116           
1 41189U 15081L   26089.26599316  .00000814  00000+0  20875-3 0  9991
2 41189  47.0020 283.7498 0001242  55.0454 305.0548 14.58769468547415
