KUIPER-00008            
1 63724U 25088A   26151.79782155  .00005003  00000+0  68405-3 0  9997
2 63724  51.9001  80.5037 0000965  92.9495 267.1577 14.79979283 60359
KUIPER-00009            
1 63725U 25088B   26151.87995101  .00003834  00000+0  53080-3 0  9997
2 63725  51.9017  97.7592 0000591  46.9347 313.1665 14.80003749 60114
KUIPER-00010            
1 63726U 25088C   26151.22911203  .00002954  00000+0  41617-3 0  9993
2 63726  51.9026  78.1133 0000770  89.2706 270.8345 14.79948677 59957
KUIPER-00011            
1 63727U 25088D   26151.79504799  .00000160  00000+0  50024-4 0  9994
2 63727  51.9010  83.1685 0000746  74.9545 285.1500 14.79935726 60061
KUIPER-00012            
1 63728U 25088E   26150.96709250  .00001395  00000+0  21198-3 0  9992
2 63728  51.9023  71.7579 0000696 109.6185 250.4852 14.79938116 60107
KUIPER-00013            
1 63729U 25088F   26151.10087413  .00000368  00000+0  77323-4 0  9991
2 63729  51.8991 103.6840 0001105  29.2440 330.8584 14.79930993 59775
KUIPER-00014            
1 63730U 25088G   26151.87743418  .00002039  00000+0  29626-3 0  9990
2 63730  51.9021 100.1920 0000424  71.4062 288.6946 14.79947606 59709
KUIPER-00015            
1 63731U 25088H   26151.09008703  .00001681  00000+0  24942-3 0  9994
2 63731  51.8986 113.7488 0000765  60.7685 299.3354 14.79933443 59906
KUIPER-00016            
1 63732U 25088J   26150.05143793  .00002209  00000+0  31883-3 0  9998
2 63732  51.9011 110.7894 0000806  79.9967 280.1086 14.79920297 59392
KUIPER-00018            
1 63733U 25088K   26150.83883358 -.00000210  00000+0  14661-5 0  9991
2 63733  51.9025  97.3261 0001070  94.1349 265.9735 14.79931852 59653
KUIPER-00019            
1 63734U 25088L   26151.81092163  .00002144  00000+0  31004-3 0  9992
2 63734  51.9012  91.7951 0000339 116.5853 243.5144 14.79938494 59813
KUIPER-00020            
1 63735U 25088M   26151.84909277  .00000298  00000+0  68146-4 0  9995
2 63735  51.9006  95.3666 0001416  31.5919 328.5128 14.79931511 59972
KUIPER-00021            
1 63736U 25088N   26151.88284324  .00001903  00000+0  27854-3 0  9993
2 63736  51.9007  95.1785 0001283  90.5056 269.6053 14.79937899 59813
KUIPER-00023            
1 63737U 25088P   26151.10358147  .00004002  00000+0  55315-3 0  9990
2 63737  51.8991 101.1117 0000933  71.5416 288.5648 14.79969611 59965
KUIPER-00024            
1 63738U 25088Q   26150.98198809  .00002289  00000+0  32918-3 0  9992
2 63738  51.9041  89.2390 0000771  87.6677 272.4373 14.79937604 60246
KUIPER-00025            
1 63739U 25088R   26151.81800914  .00000889  00000+0  14560-3 0  9990
2 63739  51.9039  93.0170 0000975 161.3825 198.7173 14.79946828 60127
KUIPER-00027            
1 63740U 25088S   26151.18185154  .00000395  00000+0  80820-4 0  9999
2 63740  51.9032  90.8138 0000921 102.2069 257.8997 14.79911039 59839
KUIPER-00028            
1 63741U 25088T   26151.82610154  .00002071  00000+0  30060-3 0  9997
2 63741  51.9003  85.4205 0000692  97.2695 262.8346 14.79925363 60376
KUIPER-00029            
1 63742U 25088U   26151.83335647  .00032963  00000+0  43591-2 0  9995
2 63742  51.9013  84.0645 0001402  77.6247  89.4360 14.79667788  5020
KUIPER-00030            
1 63743U 25088V   26151.70593056  .00001367  00000+0  20835-3 0  9993
2 63743  51.9024 103.4543 0000654 120.6062 239.4965 14.79925635 59922
KUIPER-00031            
1 63744U 25088W   26151.84284892  .00001696  00000+0  27255-3 0  9992
2 63744  51.9011  86.6862 0002058  65.7174 294.4002 14.76364506 59887
KUIPER-00032            
1 63745U 25088X   26150.96500630  .00018552  00000+0  47143-3 0  9993
2 63745  51.8669 345.6158 0004716  63.9456 296.2017 15.39665492 62213
KUIPER-00033            
1 63746U 25088Y   26150.91317069  .00001389  00000+0  21117-3 0  9994
2 63746  51.8982 121.9857 0000667  83.6862 276.4177 14.79933888 59790
KUIPER-00034            
1 63747U 25088Z   26151.83149322  .00001508  00000+0  22666-3 0  9995
2 63747  51.9015  80.4549 0000597  78.6941 281.4088 14.79942858 60134
KUIPER-00035            
1 63748U 25088AA  26151.26429862  .00000458  00000+0  89023-4 0  9997
2 63748  51.8993 107.9405 0000728  83.7735 276.3310 14.79934527 59750
KUIPER-00037            
1 63749U 25088AB  26151.25713095 -.00026430  00000+0 -34428-2 0  9998
2 63749  51.9010 106.8301 0001013  47.8469 312.2580 14.80038308 60551
KUIPER-00038            
1 63750U 25088AC  26151.85448348  .00000651  00000+0  11437-3 0  9993
2 63750  51.9006  90.3492 0001189  81.3638 278.7459 14.79934784 59832
KUIPER-00039            
1 64500U 25134A   26151.62445411  .00000430  00000+0  85426-4 0  9997
2 64500  51.8999 226.3683 0000509  99.1330 260.9690 14.79933519 52355
KUIPER-00040            
1 64501U 25134B   26151.64744377  .00003195  00000+0  44784-3 0  9995
2 64501  51.8980 236.3578 0000417 167.4427 192.6546 14.79941250 52211
KUIPER-00041            
1 64502U 25134C   26151.54344296  .00003128  00000+0  43899-3 0  9993
2 64502  51.8985 239.1991 0000562 106.1115 253.9909 14.79939783 52168
KUIPER-00042            
1 64503U 25134D   26151.65012447  .00003604  00000+0  50143-3 0  9995
2 64503  51.8981 233.7075 0000436  77.1622 282.9390 14.79941907 52255
KUIPER-00043            
1 64504U 25134E   26151.59067963  .00002913  00000+0  41085-3 0  9999
2 64504  51.9005 226.4557 0000301 101.8538 258.2458 14.79940491 52359
KUIPER-00044            
1 64505U 25134F   26151.64473134  .00002607  00000+0  37073-3 0  9999
2 64505  51.8987 238.7296 0000492 130.2707 229.8298 14.79938070 52186
KUIPER-00046            
1 64506U 25134G   26151.68119104  .00001547  00000+0  23180-3 0  9994
2 64506  51.8976 236.0494 0000494 104.4924 255.6093 14.79936825 52223
KUIPER-00047            
1 64507U 25134H   26151.54202355 -.00001651  00000+0 -18762-3 0  9999
2 64507  51.8978 209.1838 0000429  97.7146 262.3865 14.79929595 52584
KUIPER-00048            
1 64508U 25134J   26151.57579630  .00003854  00000+0  53412-3 0  9992
2 64508  51.8979 209.0509 0000327  93.7578 266.3421 14.79943756 52590
KUIPER-00049            
1 64509U 25134K   26151.59607367  .00000615  00000+0  10964-3 0  9991
2 64509  51.8990 221.4209 0000420  91.3865 268.7146 14.79933245 52420
KUIPER-00050            
1 64510U 25134L   26151.54742253  .00002204  00000+0  31801-3 0  9991
2 64510  51.8991 204.1547 0000288 109.2848 250.8146 14.79935609 52662
KUIPER-00051            
1 64511U 25134M   26151.83335647 -.00032386  00000+0 -42467-2 0  9994
2 64511  51.8994 219.0646 0001128  42.8459 269.7661 14.79863858  5222
KUIPER-00053            
1 64513U 25134P   26151.64515988  .00002328  00000+0  32112-3 0  9991
2 64513  51.8996 215.6807 0001584 134.8608 225.2484 14.81675162 52506
KUIPER-00054            
1 64514U 25134Q   26151.57315613  .00004058  00000+0  56083-3 0  9992
2 64514  51.8974 211.5447 0000377  20.9512 339.1465 14.79939881 52553
KUIPER-00055            
1 64515U 25134R   26151.45570455  .00019414  00000+0  25660-2 0  9995
2 64515  51.8995 164.6840 0001361  82.0291 278.0826 14.79970718 53208
KUIPER-00056            
1 64516U 25134S   26151.39886787  .00009183  00000+0  12308-2 0  9994
2 64516  51.8994 217.3923 0000443 200.7277 159.3667 14.79969134 52460
KUIPER-00057            
1 64517U 25134T   26151.59338551  .00002381  00000+0  34119-3 0  9996
2 64517  51.8967 223.9739 0000487  98.3177 261.7841 14.79935542 52386
KUIPER-00058            
1 64518U 25134U   26151.56500807  .00001366  00000+0  20809-3 0  9992
2 64518  51.9004 219.0674 0000439  77.3372 282.7639 14.79935112 52454
KUIPER-00059            
1 64519U 25134V   26151.57039990  .00003966  00000+0  54889-3 0  9997
2 64519  51.8982 214.0869 0000556  93.7521 266.3505 14.79939919 52525
KUIPER-00060            
1 64520U 25134W   26151.60418191  .00001177  00000+0  18339-3 0  9999
2 64520  51.9017 213.9907 0000451  86.7357 273.3657 14.79931747 52517
KUIPER-00061            
1 64521U 25134X   26151.56202671  .00004262  00000+0  58781-3 0  9992
2 64521  51.8998 221.6340 0000159   0.8418 359.2544 14.79922370 52401
KUIPER-00062            
1 64522U 25134Y   26151.49208897  .00002878  00000+0  40631-3 0  9997
2 64522  51.8957 224.4406 0000478 102.0156 258.0860 14.79940803 52373
KUIPER-00063            
1 64523U 25134Z   26151.61905764  .00002628  00000+0  37358-3 0  9994
2 64523  51.9003 231.4071 0000599  81.2786 278.8244 14.79936481 52287
KUIPER-00064            
1 64524U 25134AA  26151.62174787  .00003855  00000+0  53424-3 0  9994
2 64524  51.9028 228.8185 0000517  84.4320 275.6701 14.79943255 52325
KUIPER-00065            
1 64525U 25134AB  26151.61637575  .00000187  00000+0  53499-4 0  9991
2 64525  51.9021 234.0075 0000609  84.2388 275.8644 14.79933926 52232
KUIPER-00066            
1 64526U 25134AC  26151.31235235  .00002986  00000+0  42043-3 0  9997
2 64526  51.9002 172.6378 0000519   8.6108 351.4863 14.79937255 53082
KUIPER-00069            
1 64816U 25151A   26151.77581350  .00003339  00000+0  46669-3 0  9991
2 64816  51.9005 273.2291 0000671 104.1601 255.9436 14.79941088 49064
KUIPER-00070            
1 64817U 25151B   26151.78213566  .00005933  00000+0  80430-3 0  9990
2 64817  51.8998 298.1157 0000652 150.1631 209.9369 14.80054047 48723
KUIPER-00071            
1 64818U 25151C   26151.78530080  .00002597  00000+0  36948-3 0  9992
2 64818  51.9014 295.6400 0001056 143.1063 216.9972 14.79940404 47576
KUIPER-00072            
1 64819U 25151D   26151.77310834  .00003448  00000+0  48104-3 0  9998
2 64819  51.8982 275.6527 0000535 105.5291 254.5730 14.79937473 47857
KUIPER-00073            
1 64820U 25151E   26151.81913115  .00005082  00000+0  69555-3 0  9995
2 64820  51.9011 295.4774 0000198 108.8883 251.2100 14.79903650 48761
KUIPER-00074            
1 64821U 25151F   26151.83335647  .00073694  00000+0  34201-3 0  9990
2 64821  51.8892 229.9349 0008891 330.4139 118.0792 15.82698694  1639
KUIPER-00075            
1 64822U 25151G   26151.55678606  .00052096  00000+0  11234-2 0  9998
2 64822  51.8658 177.7056 0002305 261.7665  98.3063 15.44056226 49190
KUIPER-00076            
1 64823U 25151H   26151.76232808  .00002332  00000+0  33476-3 0  9993
2 64823  51.9008 285.7470 0000383 135.8441 224.2552 14.79937272 47713
KUIPER-00077            
1 64824U 25151J   26151.82446449  .00000257  00000+0  62682-4 0  9995
2 64824  51.9014 290.4869 0000518  99.7902 260.3118 14.79933096 47658
KUIPER-00078            
1 64825U 25151K   26151.79339250  .00003134  00000+0  43983-3 0  9992
2 64825  51.9005 288.1057 0000608 119.4121 240.6902 14.79941560 47685
KUIPER-00079            
1 64826U 25151L   26151.75423221  .00003419  00000+0  47716-3 0  9995
2 64826  51.8989 293.2443 0000685 102.8866 257.2172 14.79941307 48806
KUIPER-00080            
1 64827U 25151M   26151.78798463  .00001271  00000+0  19569-3 0  9991
2 64827  51.9011 293.1045 0000634 125.4475 234.6547 14.79939109 47612
KUIPER-00082            
1 64828U 25151N   26151.76770646  .00001651  00000+0  24556-3 0  9997
2 64828  51.9015 280.7401 0000738 117.1335 242.9702 14.79922257 47782
KUIPER-00083            
1 64829U 25151P   26151.82715319  .00002821  00000+0  39870-3 0  9996
2 64829  51.9011 287.9625 0000369 109.0049 251.0953 14.79945044 48877
KUIPER-00084            
1 64830U 25151Q   26151.81636536  .00004297  00000+0  59215-3 0  9994
2 64830  51.8984 297.9891 0001920 151.1905 208.9164 14.79943242 47542
KUIPER-00085            
1 64831U 25151R   26151.73396420  .00001308  00000+0  20051-3 0  9997
2 64831  51.9017 280.9291 0000548 101.9173 258.1851 14.79933240 47774
KUIPER-00086            
1 64832U 25151S   26151.79069757  .00002625  00000+0  37313-3 0  9996
2 64832  51.9003 290.6333 0000612 105.1242 254.9788 14.79941060 47648
KUIPER-00087            
1 64833U 25151T   26151.74204089  .00003508  00000+0  48878-3 0  9990
2 64833  51.8998 273.3183 0000519  90.7836 269.3186 14.79942556 47874
KUIPER-00089            
1 64834U 25151U   26151.73665433  .00000618  00000+0  11001-3 0  9991
2 64834  51.8998 278.3579 0000607 103.4038 256.6991 14.79931795 47813
KUIPER-00090            
1 64835U 25151V   26151.74473986  .00002859  00000+0  40373-3 0  9996
2 64835  51.8973 270.8383 0000338  88.0615 272.0386 14.79941388 47917
KUIPER-00091            
1 64836U 25151W   26151.53674257  .00004029  00000+0  55732-3 0  9994
2 64836  51.9021 276.7557 0000684  94.6033 265.5007 14.79926863 47819
KUIPER-00092            
1 64837U 25151X   26151.66373418  .00002061  00000+0  29924-3 0  9992
2 64837  51.9002 283.6915 0000474  79.5912 280.5104 14.79932561 48941
KUIPER-00093            
1 64838U 25151Y   26151.79608321  .00001624  00000+0  24203-3 0  9990
2 64838  51.8996 285.5797 0000617  93.9567 266.1465 14.79924707 47714
KUIPER-00094            
1 64839U 25151Z   26151.83335647 -.00022614  00000+0 -24665-2 0  9999
2 64839  51.8985 240.7102 0004256 196.9020 357.4069 14.87253293  5584
KUIPER-00081            
1 65132U 25171A   26151.85119905  .00003026  00000+0  42568-3 0  9994
2 65132  51.8983 140.3321 0000541  62.3788 297.7229 14.79936246 45357
KUIPER-00088            
1 65133U 25171B   26151.42713764  .00003245  00000+0  45433-3 0  9998
2 65133  51.8979 159.7123 0000450  32.9241 327.1749 14.79943481 45043
KUIPER-00095            
1 65134U 25171C   26151.38115699 -.00001411  00000+0 -15609-3 0  9994
2 65134  51.8972 139.9683 0000177  70.7395 289.3586 14.79931950 45310
KUIPER-00096            
1 65135U 25171D   26151.46900242  .00002917  00000+0  41142-3 0  9991
2 65135  51.8974 152.0254 0000485  59.9060 300.1950 14.79936578 45153
KUIPER-00097            
1 65136U 25171E   26151.26372241  .00000309  00000+0  69563-4 0  9993
2 65136  51.8994 155.5795 0000600  29.7302 330.3694 14.79932614 45075
KUIPER-00098            
1 65137U 25171F   26151.32854083  .00000743  00000+0  12640-3 0  9995
2 65137  51.8987 157.6626 0000537  45.2399 314.8607 14.79935119 44402
KUIPER-00099            
1 65138U 25171G   26151.23804181  .00003500  00000+0  48780-3 0  9998
2 65138  51.8999 148.0596 0000672  54.6497 305.4528 14.79941609 45184
KUIPER-00100            
1 65139U 25171H   26151.27449523  .00000474  00000+0  91188-4 0  9996
2 65139  51.8984 145.3720 0000455  62.5653 297.5355 14.79932238 45221
KUIPER-00102            
1 65140U 25171J   26151.40684645  .00003232  00000+0  45266-3 0  9999
2 65140  51.8960 147.2885 0000436  80.7030 279.3982 14.79939775 45205
KUIPER-00103            
1 65141U 25171K   26151.42174949  .00003058  00000+0  42988-3 0  9997
2 65141  51.8967 164.7183 0000318  57.3963 302.7030 14.79937856 44967
KUIPER-00104            
1 65142U 25171L   26151.43522388 -.00000049  00000+0  22565-4 0  9991
2 65142  51.8989 152.1451 0000396  53.5189 306.5810 14.79931531 45148
KUIPER-00105            
1 65143U 25171M   26151.32581270  .00003087  00000+0  43391-3 0  9998
2 65143  51.8974 160.2379 0000691  93.2135 266.8906 14.79912956 45023
KUIPER-00106            
1 65144U 25171N   26151.83335647 -.00012438  00000+0 -12388-2 0  9993
2 65144  51.8946 137.1501 0007229  29.3398  72.3210 14.90469532  4751
KUIPER-00107            
1 65145U 25171P   26151.27720167  .00001952  00000+0  28496-3 0  9992
2 65145  51.8987 142.8928 0000588  63.0246 297.0777 14.79931088 45263
KUIPER-00108            
1 65146U 25171Q   26151.22995046  .00000589  00000+0  10625-3 0  9998
2 65146  51.9009 155.6317 0000282  59.6515 300.4475 14.79933406 45085
KUIPER-00109            
1 65147U 25171R   26151.20154095  .00000562  00000+0  10265-3 0  9999
2 65147  51.9015 150.7012 0000380  77.2782 282.8223 14.79929701 45146
KUIPER-00110            
1 65148U 25171S   26151.22185617  .00000361  00000+0  76402-4 0  9999
2 65148  51.8999 163.1791 0000705  70.4077 289.6961 14.79932349 44967
KUIPER-00111            
1 65149U 25171T   26151.45280406  .00003052  00000+0  42929-3 0  9993
2 65149  51.8954 167.0461 0000533  86.7323 273.3700 14.79926010 44935
KUIPER-00112            
1 65150U 25171U   26151.56970582 -.00073056  00000+0 -96833-2 0  9993
2 65150  51.9006 149.0866 0001724  16.9020 343.2000 14.79823345 45193
KUIPER-00114            
1 65151U 25171V   26151.24753845  .00003129  00000+0  43929-3 0  9991
2 65151  51.8977 170.5276 0000407  69.6060 290.4946 14.79932301 44868
KUIPER-00115            
1 65152U 25171W   26151.45817214  .00002817  00000+0  39840-3 0  9996
2 65152  51.8985 162.0919 0000580  92.4716 267.6313 14.79929296 45002
KUIPER-00116            
1 65153U 25171X   26151.41906438  .00003022  00000+0  42523-3 0  9991
2 65153  51.8980 167.3013 0000385  62.1797 297.9204 14.79936742 44926
KUIPER-00118            
1 65154U 25171Y   26151.34881892  .00003072  00000+0  43175-3 0  9999
2 65154  51.8975 170.0657 0000524  93.7993 266.3029 14.79935577 44884
KUIPER-00119            
1 65155U 25171Z   26151.83335647  .00005842  00000+0  78847-3 0  9997
2 65155  51.8982 155.5129 0001670 120.3822 229.9884 14.80270034  5531
KUIPER-00120            
1 65762U 25217A   26150.92382962  .00003527  00000+0  49133-3 0  9997
2 65762  51.9020  49.4214 0000674  83.7750 276.3289 14.79940864 36914
KUIPER-00132            
1 65763U 25217B   26151.75304633  .00054748  00000+0  12587-2 0  9992
2 65763  51.8574 319.4410 0006139 255.7565 104.2742 15.42110236 38236
KUIPER-00133            
1 65764U 25217C   26151.70042723  .00002447  00000+0  34980-3 0  9998
2 65764  51.9019  46.0726 0000695 106.6481 253.4557 14.79941400 37039
KUIPER-00139            
1 65765U 25217D   26151.83335647 -.00022204  00000+0 -19945-2 0  9991
2 65765  51.8927  13.2092 0008390 226.5197 181.4210 14.94934799  4495
KUIPER-00142            
1 65766U 25217E   26151.68552337  .00000664  00000+0  11614-3 0  9992
2 65766  51.9014  28.5803 0000513  88.9664 271.1357 14.79936960 37277
KUIPER-00145            
1 65767U 25217F   26151.68284227  .00002743  00000+0  38870-3 0  9996
2 65767  51.9020  31.1097 0000664 107.7767 252.3268 14.79936290 37235
KUIPER-00147            
1 65768U 25217G   26151.64637306  .00002940  00000+0  41441-3 0  9990
2 65768  51.9001  33.7608 0001202  61.7215 298.3868 14.79938801 37198
KUIPER-00148            
1 65769U 25217H   26151.01260391  .00004867  00000+0  73242-3 0  9992
2 65769  51.9064  17.8899 0001093 119.0775 241.0296 14.75903381 37369
KUIPER-00150            
1 65770U 25217J   26151.77065182  .00003314  00000+0  46340-3 0  9993
2 65770  51.9019  43.2315 0000595  99.1538 260.9492 14.79936487 37071
KUIPER-00151            
1 65771U 25217K   26151.71121500  .00001885  00000+0  27624-3 0  9990
2 65771  51.9064  35.9963 0000713  93.6109 266.4934 14.79936604 37178
KUIPER-00152            
1 65772U 25217L   26151.69092569  .00001557  00000+0  23317-3 0  9991
2 65772  51.8992  23.5668 0000928 104.8690 255.2375 14.79937717 37341
KUIPER-00153            
1 65773U 25217M   26151.62883019  .00005301  00000+0  72275-3 0  9991
2 65773  51.9038  18.9103 0001003 119.5555 240.5507 14.79995114 37400
KUIPER-00155            
1 65774U 25217N   26151.72598786  .00001500  00000+0  22566-3 0  9992
2 65774  51.9035 350.9467 0000433  85.1124 274.9888 14.79936203 37807
KUIPER-00156            
1 65775U 25217P   26151.05479770  .00000221  00000+0  57949-4 0  9993
2 65775  51.9040  21.4273 0000862 142.0538 218.0485 14.79938029 37313
KUIPER-00163            
1 65777U 25217R   26151.83335647  .00095774  00000+0  42316-3 0  9993
2 65777  51.8928 350.6641 0002852 234.5707 207.9550 15.83691577  3796
KUIPER-00165            
1 65778U 25217S   26151.04400312  .00003647  00000+0  50697-3 0  9998
2 65778  51.9018  31.4307 0000905 109.7127 250.3933 14.79942001 37178
KUIPER-00166            
1 65779U 25217T   26151.02372067  .00004131  00000+0  57049-3 0  9999
2 65779  51.9028  19.0609 0000504 113.1261 246.9755 14.79941038 37341
KUIPER-00167            
1 65780U 25217U   26151.70850225  .00003997  00000+0  55281-3 0  9998
2 65780  51.8980  38.4277 0000874  80.2605 279.8456 14.79946426 37137
KUIPER-00168            
1 65781U 25217V   26151.59232566  .00002584  00000+0  36779-3 0  9990
2 65781  51.9025  21.5126 0000545  90.6036 269.4988 14.79936579 37361
KUIPER-00169            
1 65782U 25217W   26151.04670248  .00004590  00000+0  63058-3 0  9993
2 65782  51.9017  28.9298 0000712 108.1950 251.9090 14.79942850 37213
KUIPER-00170            
1 65783U 25217X   26151.04116463  .00006177  00000+0  83714-3 0  9992
2 65783  51.9000  33.9206 0000845 109.4823 250.6231 14.80003253 37143
KUIPER-00172            
1 65785U 25217Z   26151.83674227  .00199763  00000+0  25688-1 0  9996
2 65785  51.8994  12.9314 0000887 355.3089   4.7864 14.79559947 37509
KUIPER-00173            
1 65786U 25217AA  26151.75576575  .00001660  00000+0  24664-3 0  9998
2 65786  51.9029  25.7964 0001225  93.2184 266.8918 14.79936994 37315
KUIPER-00174            
1 65787U 25217AB  26151.62609184  .00005629  00000+0  76653-3 0  9992
2 65787  51.9041  21.4066 0000876 108.9943 251.1115 14.79947995 37368
KUIPER-00176            
1 65788U 25217AC  26150.93461939  .00005901  00000+0  80214-3 0  9991
2 65788  51.9012  39.4104 0000771  95.8781 264.2270 14.79946445 37059
KUIPER-00101            
1 65947U 25228A   26151.01421943  .00000960  00000+0  15493-3 0  9998
2 65947  51.9000 356.5233 0000651 116.4580 243.6449 14.79934126 35424
KUIPER-00113            
1 65948U 25228B   26151.72867705  .00001180  00000+0  18379-3 0  9998
2 65948  51.8983 348.3817 0000574 103.1046 256.9981 14.79932295 35596
KUIPER-00117            
1 65949U 25228C   26151.01691403  .00003339  00000+0  46669-3 0  9992
2 65949  51.8991 354.0302 0001127 135.5974 224.5078 14.79938405 35455
KUIPER-00121            
1 65950U 25228D   26151.73137551  .00000977  00000+0  15713-3 0  9993
2 65950  51.9004 345.8788 0000853 111.1537 248.9516 14.79931122 35635
KUIPER-00122            
1 65951U 25228E   26151.72057839  .00000329  00000+0  72103-4 0  9991
2 65951  51.8995 355.9017 0000742 108.4806 251.6237 14.79929119 35494
KUIPER-00123            
1 65952U 25228F   26151.68681796  .00001653  00000+0  24577-3 0  9994
2 65952  51.9044 356.0586 0001201 172.9320 187.1659 14.79935186 35483
KUIPER-00124            
1 65953U 25228G   26151.69491522  .00001491  00000+0  22458-3 0  9998
2 65953  51.8982 348.5184 0000740 100.1715 259.9330 14.79933940 35594
KUIPER-00125            
1 65954U 25228H   26151.71109580  .00001902  00000+0  27836-3 0  9994
2 65954  51.9020 333.4869 0000495  52.4432 307.6576 14.79936703 35801
KUIPER-00126            
1 65955U 25228J   26151.72328478  .00003081  00000+0  43289-3 0  9995
2 65955  51.9008 353.4198 0000752 110.5303 249.5740 14.79939097 35529
KUIPER-00127            
1 65956U 25228K   26151.71449022  .00002190  00000+0  31617-3 0  9996
2 65956  51.9014 345.9248 0000957 123.1706 236.9349 14.79937576 35630
KUIPER-00128            
1 65957U 25228L   26151.49502556  .00002708  00000+0  38411-3 0  9998
2 65957  51.9024 346.9579 0000734 109.9473 250.1568 14.79937246 35596
KUIPER-00129            
1 65958U 25228M   26151.53418127  .00003987  00000+0  55163-3 0  9997
2 65958  51.9009 341.7686 0000658 106.6275 253.4760 14.79938886 35671
KUIPER-00130            
1 65959U 25228N   26151.70031294  .00001878  00000+0  27531-3 0  9998
2 65959  51.9032 343.5573 0000495  90.6926 269.4093 14.79934743 25951
KUIPER-00134            
1 65960U 25228P   26151.72590959  .00040326  00000+0  97022-3 0  9993
2 65960  51.8728 277.3824 0005625 252.5958 107.4415 15.40883190 36589
KUIPER-00135            
1 65961U 25228Q   26151.73408350  .00000995  00000+0  15952-3 0  9998
2 65961  51.9031 343.4657 0000715 109.9453 250.1586 14.79931745 35661
KUIPER-00136            
1 65962U 25228R   26151.70296550  .00005504  00000+0  75083-3 0  9995
2 65962  51.9013 341.0635 0000543  98.4882 261.6142 14.79910604 35698
KUIPER-00137            
1 65963U 25228S   26151.70570521  .00002225  00000+0  32076-3 0  9991
2 65963  51.9025 338.5337 0000586 131.2564 228.8448 14.79936083 35730
KUIPER-00138            
1 65964U 25228T   26151.67463220  .00001125  00000+0  17658-3 0  9992
2 65964  51.8974 336.1202 0000708 102.0607 258.0434 14.79933052 35764
KUIPER-00140            
1 65965U 25228U   26151.67194069  .00003063  00000+0  43051-3 0  9994
2 65965  51.8992 338.7193 0000886 116.1814 243.9240 14.79939922 35721
KUIPER-00141            
1 65966U 25228V   26151.67712691  .00005385  00000+0  73344-3 0  9999
2 65966  51.9026 333.7352 0000630 127.9479 232.1541 14.80015724 35795
KUIPER-00146            
1 65967U 25228W   26151.70841037  .00001103  00000+0  17362-3 0  9993
2 65967  51.9030 336.1079 0000759 112.1148 247.9895 14.79931567 35768
KUIPER-00149            
1 65968U 25228X   26151.68002619  .00003119  00000+0  43792-3 0  9991
2 65968  51.9007 331.1269 0000734 115.4947 244.6091 14.79938714 35836
KUIPER-00154            
1 65969U 25228Y   26151.85154917  .00001019  00000+0  16261-3 0  9998
2 65969  51.8993 327.8631 0000603 101.7426 258.3604 14.79932832 35893
KUIPER-00157            
1 65970U 25228Z   26151.71380558  .00002485  00000+0  35476-3 0  9994
2 65970  51.9023 331.0998 0000367  90.6937 269.4067 14.79935844 35839
KUIPER-00144            
1 67133U 25301A   26151.68689640  .00003248  00000+0  49293-3 0  9999
2 67133  51.9013  48.4862 0001068  78.9190 281.1891 14.76452320 26161
KUIPER-00164            
1 67134U 25301B   26151.77670314  .00003237  00000+0  49046-3 0  9992
2 67134  51.9033  59.5665 0000975 146.7229 213.3793 14.76527589 26192
KUIPER-00175            
1 67135U 25301C   26151.69050874  .00006086  00000+0  61374-3 0  9990
2 67135  51.8968  46.5436 0001076  65.6354 294.4726 14.92261859 26269
KUIPER-00179            
1 67136U 25301D   26151.75447336  .00000406  00000+0  82298-4 0  9990
2 67136  51.8981  58.2808 0000849 127.7733 232.3307 14.79932495 26213
KUIPER-00181            
1 67137U 25301E   26150.18780713  .00005945  00000+0  80790-3 0  9993
2 67137  51.9025  77.7311 0001535  91.6031 268.5107 14.79949140 25787
KUIPER-00183            
1 67138U 25301F   26150.92854590  .00006056  00000+0  60502-3 0  9994
2 67138  51.8964  50.8154 0009110 346.0870  13.9846 14.92633357 26239
KUIPER-00184            
1 67139U 25301G   26151.85730486  .00084405  00000+0  11662-1 0  9990
2 67139  51.8984  52.7838 0001419 161.8764 198.2248 14.77313675 26392
KUIPER-00186            
1 67140U 25301H   26150.96439466  .00002005  00000+0  29195-3 0  9995
2 67140  51.9014  74.3061 0000752 104.7015 255.4031 14.79926982 25748
KUIPER-00187            
1 67141U 25301J   26151.77206744  .00002360  00000+0  33848-3 0  9991
2 67141  51.9038  73.2581 0000782  70.6246 289.4801 14.79937999 25821
KUIPER-00188            
1 67142U 25301K   26151.70572000  .00005284  00000+0  72077-3 0  9991
2 67142  51.9037  41.1384 0000407 171.5987 188.4982 14.79980485 26268
KUIPER-00191            
1 67143U 25301L   26151.74638845 -.00005691  00000+0 -71829-3 0  9994
2 67143  51.9026  65.8677 0000634 122.8945 237.2079 14.79922026 25952
KUIPER-00196            
1 67144U 25301M   26151.83335647 -.00003558  00000+0 -17201-3 0  9993
2 67144  51.8874  23.5813 0003887 292.1281 349.0014 15.14984714  5808
KUIPER-00204            
1 67145U 25301N   26151.83335647 -.00028846  00000+0 -32471-2 0  9996
2 67145  51.8987  38.1210 0002088 352.3314  51.1489 14.86109809  5859
KUIPER-00210            
1 67146U 25301P   26150.96979288  .00003163  00000+0  44359-3 0  9997
2 67146  51.8987  69.2577 0000766  97.9762 262.1287 14.79941797 25989
KUIPER-00221            
1 67147U 25301Q   26151.80582794  .00002672  00000+0  37934-3 0  9999
2 67147  51.9029  73.0782 0000844  99.7472 260.3586 14.79940266 25830
KUIPER-00232            
1 67148U 25301R   26151.18049426  .00006491  00000+0  87915-3 0  9998
2 67148  51.9000  60.8768 0001333  97.9971 262.1142 14.79957458 25947
KUIPER-00241            
1 67149U 25301S   26151.06839362  .00003718  00000+0  51636-3 0  9992
2 67149  51.9032  71.3559 0000875 103.3827 256.7233 14.79944353 26121
KUIPER-00245            
1 67150U 25301T   26150.79015518  .00005348  00000+0  73045-3 0  9991
2 67150  51.9029  80.0990 0000840  97.6506 262.4552 14.79906446 25641
KUIPER-00246            
1 67151U 25301U   26150.97518598  .00001036  00000+0  16492-3 0  9991
2 67151  51.9008  64.2407 0000814 108.9533 251.1518 14.79932301 25908
KUIPER-00247            
1 67152U 25301V   26151.12100670 -.00014159  00000+0 -18304-2 0  9993
2 67152  51.8962  53.5869 0000984  55.9775 304.1281 14.79973733 26043
KUIPER-00248            
1 67153U 25301W   26151.83335647 -.00028340  00000+0 -40082-2 0  9991
2 67153  51.8993  32.3827 0001626  26.2271  61.0451 14.76602569  5603
KUIPER-00249            
1 67154U 25301X   26151.73149716  .00002467  00000+0  35242-3 0  9994
2 67154  51.8993  48.4322 0000911  91.0543 269.0523 14.79940548 26169
KUIPER-00250            
1 67155U 25301Y   26151.07375657 -.00002072  00000+0 -24289-3 0  9990
2 67155  51.8988  66.2935 0000748  71.6420 288.4623 14.79918983 25891
KUIPER-00251            
1 67156U 25301Z   26151.76256936  .00003504  00000+0  48842-3 0  9995
2 67156  51.9010  50.8102 0001047 159.7447 200.3557 14.79936455 26326
KUIPER-00252            
1 67157U 25301AA  26151.75984424  .00009204  00000+0  12338-2 0  9998
2 67157  51.9013  53.2748 0000786 100.1233 259.9818 14.79961902 26106
KUIPER-00261            
1 67158U 25301AB  26151.78284179  .00001454  00000+0  21970-3 0  9994
2 67158  51.9017  63.2191 0000912 102.3508 257.7557 14.79929833 25960
KUIPER-00265            
1 67159U 25301AC  26151.80043581  .00001229  00000+0  19011-3 0  9991
2 67159  51.9031  78.1153 0000734 102.7860 257.3185 14.79936755 25792
KUIPER-00159            
1 67764U 26030A   26151.34029895  .00040427  00000+0  10737-2 0  9992
2 67764  51.8832 179.8686 0006964 350.5928   9.4927 15.37854948 17802
KUIPER-00160            
1 67765U 26030B   26151.34370479  .00041392  00000+0  10894-2 0  9996
2 67765  51.8796 179.8497 0007048 356.1117   3.9814 15.38122736 17806
KUIPER-00177            
1 67766U 26030C   26151.54473656  .00002729  00000+0  38686-3 0  9991
2 67766  51.8990 206.7354 0000479 107.7901 252.3113 14.79934846 17446
KUIPER-00178            
1 67767U 26030D   26151.40258640  .00002758  00000+0  42299-3 0  9998
2 67767  51.8990 206.9294 0000301  75.4982 284.6012 14.76471374 17430
KUIPER-00180            
1 67768U 26030E   26151.51636432  .00000783  00000+0  13167-3 0  9998
2 67768  51.8966 201.8561 0000392  73.1662 286.9344 14.79933451 17519
KUIPER-00197            
1 67769U 26030F   26151.83335647 -.00000825  00000+0 -55299-4 0  9990
2 67769  51.8984 180.5294 0004621  19.7955  88.1421 14.92676218  5825
KUIPER-00198            
1 67770U 26030G   26151.55821493 -.00000076  00000+0  18976-4 0  9998
2 67770  51.8970 194.1688 0000387  81.7249 278.3757 14.79927067 17622
KUIPER-00199            
1 67771U 26030H   26151.45191759  .00034740  00000+0  99135-3 0  9992
2 67771  51.8787 180.5472 0011707 359.0268   1.0694 15.35651929 17804
KUIPER-00200            
1 67772U 26030J   26151.36799948  .00013652  00000+0  66007-3 0  9998
2 67772  51.8847 185.7507 0003192  35.6019 324.5173 15.18878199 17725
KUIPER-00203            
1 67773U 26030K   26151.53923878  .00000702  00000+0  12112-3 0  9999
2 67773  51.9053 211.7809 0000527  81.0175 279.0847 14.79905792 17377
KUIPER-00205            
1 67774U 26030L   26151.83335647  .00015831  00000+0  79275-3 0  9996
2 67774  51.8895 177.8196 0003535 322.1013 109.8023 15.17531492  1367
KUIPER-00208            
1 67775U 26030M   26151.54104000 -.00011399  00000+0 -15950-2 0  9998
2 67775  51.8960 203.1473 0006182 341.6840  18.3897 14.76448655 17493
KUIPER-00209            
1 67776U 26030N   26151.55011874  .00003470  00000+0  48404-3 0  9996
2 67776  51.8981 201.7941 0000136 207.9897 152.1058 14.79922920 17514
KUIPER-00213            
1 67777U 26030P   26151.51906196  .00003656  00000+0  50832-3 0  9997
2 67777  51.8946 199.4290 0000929  63.2928 296.8129 14.79934202 17548
KUIPER-00214            
1 67778U 26030Q   26151.42047120  .00001582  00000+0  23646-3 0  9990
2 67778  51.8985 197.3564 0000498 104.7936 255.3082 14.79935799 17566
KUIPER-00215            
1 67779U 26030R   26151.83335647 -.00016348  00000+0 -14671-2 0  9995
2 67779  51.8971 182.2766 0010772  10.6599  75.3252 14.94756482  5906
KUIPER-00218            
1 67780U 26030S   26151.52490389  .00002108  00000+0  33095-3 0  9997
2 67780  51.8964 199.0262 0000493  88.7179 271.3838 14.76412630 17552
KUIPER-00220            
1 67781U 26030T   26151.83335647  .00014277  00000+0  69561-3 0  9994
2 67781  51.8877 179.3208 0009177   8.7006 345.8938 15.18547585  5499
KUIPER-00222            
1 67782U 26030U   26151.52447238  .00000459  00000+0  89144-4 0  9998
2 67782  51.8966 194.4674 0000157 359.8237   0.2725 14.79931546 17612
KUIPER-00223            
1 67783U 26030V   26151.83335647 -.00012227  00000+0 -17081-2 0  9990
2 67783  51.8990 185.3056 0000979  76.0557 308.0408 14.76598192  4175
KUIPER-00225            
1 67784U 26030W   26151.40657449  .00002613  00000+0  40259-3 0  9991
2 67784  51.8968 192.2479 0003061  10.5985 349.5039 14.76448621 17636
KUIPER-00226            
1 67785U 26030X   26151.34839723 -.00001879  00000+0 -63188-4 0  9994
2 67785  51.8836 186.4468 0018501   2.3748 357.7317 15.23441749 17711
KUIPER-00259            
1 67786U 26030Y   26151.50418517  .00002340  00000+0  36440-3 0  9999
2 67786  51.8966 191.6806 0001257 112.1649 247.9445 14.76374143 17655
KUIPER-00260            
1 67787U 26030Z   26151.36147198  .00002657  00000+0  40927-3 0  9994
2 67787  51.8993 189.7915 0001866 145.1199 214.9884 14.76408819 17577
KUIPER-00262            
1 67788U 26030AA  26151.36104455  .00002984  00000+0  42095-3 0  9995
2 67788  51.8987 190.0549 0000750  89.6015 270.5033 14.79857390 17668
KUIPER-00266            
1 67789U 26030AB  26151.83335647 -.00015275  00000+0 -14533-2 0  9991
2 67789  51.9076 185.7927 0020476  15.3581 350.3777 14.92288219  5562
KUIPER-00268            
1 67790U 26030AC  26151.83335647 -.00023367  00000+0 -28264-2 0  9990
2 67790  51.9022 182.9883 0003216  45.0642 271.1796 14.83049408  5584
KUIPER-00270            
1 67791U 26030AD  26151.83335647  .00002141  00000+0  74660-4 0  9999
2 67791  51.8794 178.4901 0011208 358.3220  59.0170 15.34330766  5882
KUIPER-00274            
1 67792U 26030AE  26151.57288036  .00002041  00000+0  32187-3 0  9996
2 67792  51.8996 196.4350 0004280  23.4663 336.6492 14.76364997 17598
KUIPER-00275            
1 67793U 26030AF  26151.83335647  .00013212  00000+0  58583-3 0  9997
2 67793  51.8858 178.7892 0009690 349.2742 279.7327 15.21868391  2414
KUIPER-00276            
1 67794U 26030AG  26151.40818289 -.00025750  00000+0 -10439-2 0  9998
2 67794  51.8809 186.1136 0016066 340.3945  19.6416 15.23691511 17727
KUIPER-00279            
1 67795U 26030AH  26151.34175189 -.00008772  00000+0 -24005-3 0  9997
2 67795  51.8793 180.5548 0009341 346.3667  13.7065 15.35402420 17794
KUIPER-00131            
1 68573U 26072A   26151.74740056  .00002838  00000+0  40085-3 0  9994
2 68573  51.9020 268.3496 0000670  35.1479 324.9527 14.79956309  8685
KUIPER-00189            
1 68574U 26072B   26151.47933242  .00002872  00000+0  44042-3 0  9991
2 68574  51.8988 271.7226 0000833 265.2920  94.7946 14.76347548  8611
KUIPER-00192            
1 68575U 26072C   26151.61502576  .00004842  00000+0  66236-3 0  9998
2 68575  51.9008 266.4286 0000526  68.6417 291.4601 14.80018380  8706
KUIPER-00193            
1 68576U 26072D   26151.83335647  .00012550  00000+0  71739-3 0  9995
2 68576  51.8859 257.0984 0002633 342.3508 263.0133 15.13021420  4971
KUIPER-00194            
1 68577U 26072E   26151.83335647 -.00005037  00000+0 -62804-3 0  9993
2 68577  51.9016 262.9714 0000899 198.4872  50.1871 14.80204371  5505
KUIPER-00229            
1 68578U 26072F   26151.75474515  .00003177  00000+0  48356-3 0  9990
2 68578  51.9017 268.0332 0001979 158.1631 201.9414 14.76380062  8695
KUIPER-00230            
1 68579U 26072G   26151.55193330  .00019163  00000+0  52218-3 0  9996
2 68579  51.8776 257.1940 0002336 325.6087  34.4748 15.37494275  8829
KUIPER-00231            
1 68580U 26072H   26151.67730469 -.00000471  00000+0 -20664-5 0  9997
2 68580  51.8761 256.5311 0005479  29.5173 330.6123 15.37411247  8845
KUIPER-00234            
1 68581U 26072J   26151.83335647 -.00007662  00000+0 -10407-2 0  9995
2 68581  51.8987 261.9142 0002294 156.4724  93.4608 14.77297777  5541
KUIPER-00236            
1 68582U 26072K   26151.69126473  .00040451  00000+0  11001-2 0  9997
2 68582  51.8782 256.6320 0003133 315.1589  44.9145 15.37139185  8848
KUIPER-00244            
1 68583U 26072L   26151.83335647  .00021211  00000+0  76007-3 0  9990
2 68583  51.8797 256.1138 0002859 329.6812  23.2724 15.28683864  4421
KUIPER-00253            
1 68584U 26072M   26151.83335647 -.01093176  00000+0 -72493-1 0  9996
2 68584  51.8844 257.3439 0007067 348.9698  41.3353 15.09671537  5405
KUIPER-00254            
1 68585U 26072N   26151.83335647 -.00024420  00000+0 -20063-2 0  9999
2 68585  51.8919 258.7914 0008618 345.4624  30.2488 14.98438873  5762
KUIPER-00263            
1 68586U 26072P   26151.67661363  .00020005  00000+0  53664-3 0  9996
2 68586  51.8770 256.5322 0001557 312.6710  47.4145 15.37950913  8844
KUIPER-00269            
1 68587U 26072Q   26151.67747110  .00033019  00000+0  85496-3 0  9999
2 68587  51.8747 256.5339 0005043 308.6699  51.3837 15.38743671  8846
KUIPER-00272            
1 68588U 26072R   26151.51373169  .00004552  00000+0  62461-3 0  9999
2 68588  51.8985 266.8734 0000501  88.9482 271.1537 14.80003798  8682
KUIPER-00285            
1 68589U 26072S   26151.75144742  .00021626  00000+0  56709-3 0  9998
2 68589  51.8748 256.2751 0007053 318.6703  41.3749 15.38582743  8857
KUIPER-00286            
1 68590U 26072T   26151.80345288 -.00218540  00000+0 -58075-2 0  9996
2 68590  51.8748 255.8763 0005367 309.6534  50.3980 15.38522928  8862
KUIPER-00289            
1 68591U 26072U   26151.83335647  .00039848  00000+0  11893-2 0  9995
2 68591  51.8677 256.4721 0011828 335.6408 164.7276 15.34173479  5058
KUIPER-00290            
1 68592U 26072V   26151.67837037  .00037179  00000+0  10337-2 0  9995
2 68592  51.8661 257.2240 0013459 326.7814  33.2326 15.36410551  8833
KUIPER-00293            
1 68593U 26072W   26151.83335647  .00011519  00000+0  12572-2 0  9997
2 68593  51.8970 260.6390 0015386 343.0314 172.1199 14.88218454  1882
KUIPER-00294            
1 68594U 26072X   26151.54196046  .00034467  00000+0  96361-3 0  9990
2 68594  51.8682 257.8304 0011294 323.5826  36.4391 15.36300572  8814
KUIPER-00296            
1 68595U 26072Y   26151.51778095  .00033948  00000+0  90518-3 0  9999
2 68595  51.8711 257.6863 0009026 323.8297  36.2078 15.37800430  8810
KUIPER-00297            
1 68596U 26072Z   26151.83335647  .00008549  00000+0  77804-3 0  9999
2 68596  51.8891 259.6219 0010476 347.6087 110.1440 14.95853702  5487
KUIPER-00300            
1 68597U 26072AA  26151.83335647  .00008192  00000+0  50597-3 0  9994
2 68597  51.8859 257.7378 0009155 343.8158 304.3121 15.10656773  4968
KUIPER-00301            
1 68598U 26072AB  26151.64972697  .00019648  00000+0  52761-3 0  9999
2 68598  51.8655 257.0441 0009813 328.5609  31.4791 15.37892556  8830
KUIPER-00304            
1 68599U 26072AC  26151.65640389  .00034774  00000+0  93284-3 0  9993
2 68599  51.8667 257.0934 0010865 327.8875  32.1449 15.37583227  8837
KUIPER-00317            
1 68600U 26072AD  26151.51667270  .00030956  00000+0  82511-3 0  9998
2 68600  51.8689 257.6728 0009520 319.6255  40.4024 15.37853692  8813
KUIPER-00320            
1 68601U 26072AE  26151.83335647 -.00008257  00000+0 -32340-3 0  9990
2 68601  51.8703 256.7854 0011994 330.7870 344.4248 15.23854424  5097
KUIPER-00299            
1 68864U 26095A   26151.83335647  .00008483  00000+0  42624-3 0  9991
2 68864  51.8829 323.0466 0009023 255.9784 353.4036 15.18019068  5924
KUIPER-00353            
1 68865U 26095B   26151.83335647  .00051198  00000+0  13881-2 0  9995
2 68865  51.8847 321.2041 0000826 251.9834 223.7299 15.37130350  5848
KUIPER-00357            
1 68866U 26095C   26151.83335647 -.01122011  00000+0 -34141-1 0  9993
2 68866  51.8838 321.2997 0002661 227.9648 204.6452 15.36303615  4791
KUIPER-00364            
1 68867U 26095D   26151.83335647  .00033327  00000+0  11955-2 0  9991
2 68867  51.8850 321.6629 0002104 251.9212  10.7018 15.28399180  5190
KUIPER-00375            
1 68868U 26095E   26151.83335647  .00050594  00000+0  13664-2 0  9996
2 68868  51.8837 321.2247 0001594 234.4131 233.0066 15.37255698  5701
KUIPER-00433            
1 68869U 26095F   26151.83335647  .00010441  00000+0  10725-2 0  9999
2 68869  51.8945 325.5443 0005998 255.8836 299.9920 14.90835705  5181
KUIPER-00437            
1 68870U 26095G   26151.84467764  .00036328  00000+0  98056-3 0  9994
2 68870  51.8799 321.5085 0007397 240.5062 119.5188 15.37401992  5211
KUIPER-00448            
1 68871U 26095H   26151.83335647  .00043494  00000+0  12795-2 0  9995
2 68871  51.8844 321.3621 0002973 234.6608 157.1660 15.34650830  2137
KUIPER-00459            
1 68872U 26095J   26151.67484234  .00035429  00000+0  10182-2 0  9992
2 68872  51.8729 322.5891 0010521 242.2589 117.7330 15.35433803  5187
KUIPER-00468            
1 68873U 26095K   26151.69978862  .00019963  00000+0  53548-3 0  9999
2 68873  51.8831 322.0456 0004963 213.8207 146.2464 15.37947682  5191
KUIPER-00476            
1 68874U 26095L   26151.73315365  .00033774  00000+0  96056-3 0  9995
2 68874  51.8756 322.2409 0008590 239.1603 120.8538 15.35801037  5190
KUIPER-00478            
1 68875U 26095M   26151.85129544  .00041738  00000+0  11316-2 0  9995
2 68875  51.8785 321.5476 0007751 248.6157 111.4003 15.37196610  5218
KUIPER-00480            
1 68876U 26095N   26151.77514721  .00032935  00000+0  88493-3 0  9992
2 68876  51.8770 321.7889 0005927 232.0160 128.0292 15.37599940  5203
KUIPER-00482            
1 68877U 26095P   26151.68427397  .00048466  00000+0  12180-2 0  9990
2 68877  51.8849 321.9466 0009452 258.8060 101.1866 15.39448816  5190
KUIPER-00483            
1 68878U 26095Q   26151.83335647  .00008607  00000+0  82942-3 0  9991
2 68878  51.8954 324.7379 0009195 270.2657 184.9082 14.93585673  5276
KUIPER-00488            
1 68879U 26095R   26151.67726994  .00034413  00000+0  97896-3 0  9991
2 68879  51.8679 322.5947 0011080 251.6694 108.3087 15.35760659  5189
KUIPER-00489            
1 68880U 26095S   26151.79937142  .00022350  00000+0  63786-3 0  9993
2 68880  51.8760 321.9384 0010186 250.5552 109.4334 15.35907145  5200
KUIPER-00499            
1 68881U 26095T   26151.67838620  .00056972  00000+0  16305-2 0  9993
2 68881  51.8699 322.6093 0008091 249.1764 110.8355 15.35369127  5186
KUIPER-00500            
1 68882U 26095U   26151.83335647  .00024299  00000+0  18317-2 0  9995
2 68882  51.8926 323.7460 0003617 258.8329  91.4014 15.02324055  3979
KUIPER-00502            
1 68883U 26095V   26151.83464653  .00034046  00000+0  91043-3 0  9995
2 68883  51.8815 321.4462 0005952 233.2278 126.8164 15.37731134  5214
KUIPER-00503            
1 68884U 26095W   26151.83335647  .00020146  00000+0  10147-2 0  9997
2 68884  51.8875 322.5626 0004907 247.3854 301.1400 15.17155911  5784
KUIPER-00504            
1 68885U 26095X   26151.83335647  .00008939  00000+0  11306-2 0  9992
2 68885  51.9024 327.7824 0007489 272.8252 266.3012 14.82433983  5579
KUIPER-00505            
1 68886U 26095Y   26151.83335647  .00039387  00000+0  13967-2 0  9999
2 68886  51.8869 321.6845 0003224 241.7239 338.6761 15.28694669  4131
KUIPER-00507            
1 68887U 26095Z   26151.75064010  .00036111  00000+0  97053-3 0  9995
2 68887  51.8841 321.6397 0000746 132.2241 227.8810 15.37560800  5209
KUIPER-00511            
1 68888U 26095AA  26151.84192442  .00039579  00000+0  10628-2 0  9990
2 68888  51.8787 321.4872 0006536 234.8342 125.2033 15.37528302  5219
KUIPER-00512            
1 68889U 26095AB  26151.83335647  .00015346  00000+0  90591-3 0  9990
2 68889  51.8938 322.5538 0002967 258.8065 220.3013 15.11688271  5636
KUIPER-00519            
1 68890U 26095AC  26151.83335647  .00050459  00000+0  13643-2 0  9998
2 68890  51.8839 321.2274 0000978 185.2864 280.3868 15.37222987  5945
KUIPER-00521            
1 68891U 26095AD  26151.83335647  .00052466  00000+0  13699-2 0  9990
2 68891  51.8845 321.2174 0000628 155.2247 314.7963 15.38282169  5796
KUIPER-00524            
1 68892U 26095AE  26150.84379913  .00039243  00000+0  10168-2 0  9991
2 68892  51.8813 326.0609 0001992 239.3258 120.7533 15.38649047  5069
KUIPER-00370            
1 68919U 26098A   26151.49495345 -.00013600  00000+0 -45055-3 0  9999
2 68919  51.8721 148.8611 0014827  95.3873 264.8803 15.29844104  4772
KUIPER-00380            
1 68920U 26098B   26150.21565885  .00004819  00000+0  16040-3 0  9999
2 68920  51.8733 154.5482 0009362  69.8912 290.3079 15.32981014  4589
KUIPER-00386            
1 68921U 26098C   26151.83335647  .00064270  00000+0  18308-2 0  9995
2 68921  51.8711 146.3796 0003362 109.1500  20.0816 15.35484230  4700
KUIPER-00388            
1 68922U 26098D   26151.57772983 -.00041784  00000+0 -14311-2 0  9992
2 68922  51.8740 148.6548 0022130  82.3358 278.0137 15.29349079  4783
KUIPER-00405            
1 68923U 26098E   26151.21744612  .00025452  00000+0  81763-3 0  9990
2 68923  51.8736 150.0115 0014331  86.2988 273.9634 15.32030596  4738
KUIPER-00408            
1 68924U 26098F   26151.83335647  .00052116  00000+0  17689-2 0  9995
2 68924  51.8741 147.2504 0015472  89.7519 334.4025 15.29889661  5908
KUIPER-00409            
1 68925U 26098G   26150.98672707  .00011059  00000+0  34475-3 0  9996
2 68925  51.8742 150.7210 0008328  83.0392 277.1541 15.33718278  4704
KUIPER-00410            
1 68926U 26098H   26151.55362522 -.00121244  00000+0 -41987-2 0  9997
2 68926  51.8725 148.5044 0013627  87.3705 272.8838 15.29673401  4781
KUIPER-00412            
1 68927U 26098J   26151.66667823 -.00007897  00000+0 -20829-3 0  9992
2 68927  51.8757 147.0631 0002374 129.5940 223.0202 15.36431599  5827
KUIPER-00413            
1 68928U 26098K   26151.25743794  .00025554  00000+0  88112-3 0  9997
2 68928  51.8741 150.2573 0025191  97.2871 263.0977 15.29539780  4733
KUIPER-00414            
1 68929U 26098L   26151.83335647 -.00899189  00000+0 -35547-1 0  9993
2 68929  51.8774 147.5458 0022369  88.5051 183.2041 15.27494189  4486
KUIPER-00415            
1 68930U 26098M   26151.26404075  .00039918  00000+0  12407-2 0  9999
2 68930  51.8773 149.5853 0010965  76.1140 284.1064 15.32896213  4744
KUIPER-00416            
1 68931U 26098N   26150.23293363  .00021462  00000+0  59977-3 0  9991
2 68931  51.8725 153.9300 0001286 107.3098 252.8029 15.36633522  4595
KUIPER-00420            
1 68932U 26098P   26151.35587404  .00029829  00000+0  85933-3 0  9994
2 68932  51.8745 148.7076 0003682  89.9964 270.1444 15.35488807  4765
KUIPER-00421            
1 68933U 26098Q   26151.24624134  .00014671  00000+0  44579-3 0  9995
2 68933  51.8766 149.4685 0008982  62.6191 297.5708 15.34252734  4742
KUIPER-00425            
1 68934U 26098R   26151.36530252 -.00018719  00000+0 -62348-3 0  9999
2 68934  51.8729 149.4879 0019044  92.8911 267.4252 15.29859794  4757
KUIPER-00430            
1 68935U 26098S   26151.50507935  .00025719  00000+0  88419-3 0  9991
2 68935  51.8757 148.9312 0020455  92.6364 267.6961 15.29735344  4778
KUIPER-00431            
1 68936U 26098T   26151.37876568  .00001551  00000+0  68122-4 0  9996
2 68936  51.8746 149.5768 0017438  87.4542 272.8437 15.28332318  4753
KUIPER-00432            
1 68937U 26098U   26151.20710147  .00034458  00000+0  11157-2 0  9995
2 68937  51.8728 149.9396 0011361  80.4346 279.7921 15.31654804  4732
KUIPER-00434            
1 68938U 26098V   26151.56875082  .00022029  00000+0  65230-3 0  9998
2 68938  51.8716 147.8662 0007959  78.2061 281.9817 15.34776950  4795
KUIPER-00436            
1 68939U 26098W   26151.26710596  .00041358  00000+0  12799-2 0  9991
2 68939  51.8731 149.5932 0010801  89.1092 271.1130 15.33020431  4746
KUIPER-00438            
1 68940U 26098X   26151.36985747  .00030893  00000+0  92655-3 0  9998
2 68940  51.8747 148.7866 0006251  82.8480 277.3216 15.34190894  4764
KUIPER-00439            
1 68941U 26098Y   26151.38538976 -.00014048  00000+0 -42608-3 0  9998
2 68941  51.8766 148.8964 0007234  90.2800 269.9014 15.32773684  4762
KUIPER-00440            
1 68942U 26098Z   26151.24141503  .00031278  00000+0  92935-3 0  9990
2 68942  51.8771 149.4364 0004724 107.2707 252.8795 15.34488239  4742
KUIPER-00442            
1 68943U 26098AA  26151.24370269  .00017087  00000+0  51589-3 0  9996
2 68943  51.8772 149.4550 0007006  84.0096 276.1687 15.34344346  4749
KUIPER-00446            
1 68944U 26098AB  26151.24207485  .00032075  00000+0  95889-3 0  9991
2 68944  51.8729 149.4316 0006577  84.0889 276.0846 15.34272325  4747
KUIPER-00451            
1 68945U 26098AC  26151.36246110  .00011441  00000+0  42209-3 0  9995
2 68945  51.8755 149.4862 0013613  84.7922 275.4614 15.28158908  4757
KUIPER-00452            
1 68946U 26098AD  26151.41921096  .00033211  00000+0  94662-3 0  9994
2 68946  51.8724 148.3782 0004090  73.8564 286.2872 15.35766574  4773
KUIPER-00453            
1 68947U 26098AE  26151.01736969  .00047412  00000+0  13149-2 0  9992
2 68947  51.8742 150.1896 0002771 116.5900 243.5371 15.36458304  4718
KUIPER-00454            
1 68948U 26098AF  26151.25587279  .00017639  00000+0  63914-3 0  9991
2 68948  51.8772 150.2596 0016464  81.2605 279.0242 15.28331307  4731
KUIPER-00455            
1 68949U 26098AG  26151.19094293 -.00005856  00000+0 -18849-3 0  9991
2 68949  51.8754 150.5657 0019854  86.1850 274.1403 15.29429302  4723
KUIPER-00458            
1 68950U 26098AH  26151.21887860  .00030143  00000+0  86176-3 0  9999
2 68950  51.8744 149.2905 0003872  86.2870 273.8558 15.35722180  4747
