GLOBALSTAR M069         
1 31573U 07020C   26125.40723152 -.00000062  00000+0  28683-3 0  9996
2 31573  52.0061  13.2090 0002544  62.9817 109.0235 12.23470498873567
GLOBALSTAR M072         
1 31574U 07020D   26125.51335580 -.00000047  00000+0  50456-3 0  9999
2 31574  51.9925 213.8560 0001412 208.2773 164.3330 11.91657668869895
GLOBALSTAR M066         
1 32265U 07048C   26125.41585080 -.00000080  00000+0  12033-3 0  9994
2 32265  51.9571 180.6979 0004563 309.7717  63.3869 12.30388090854961
GLOBALSTAR M079         
1 37188U 10054A   26125.45917351 -.00000076  00000+0  15283-3 0  9993
2 37188  52.0042 238.7407 0000408 152.9211 282.6330 12.62265331717152
GLOBALSTAR M074         
1 37189U 10054B   26125.55163029 -.00000069  00000+0  19238-3 0  9996
2 37189  52.0017 237.7312 0000526 112.7189 263.0209 12.62267816717774
GLOBALSTAR M076         
1 37190U 10054C   26125.26091328 -.00000076  00000+0  15284-3 0  9993
2 37190  52.0028 238.8139 0000311 105.0359 269.9901 12.62272533717454
GLOBALSTAR M077         
1 37191U 10054D   26125.39064838 -.00000091  00000+0 -24690-3 0  9993
2 37191  51.9969 287.9203 0003302  97.5363 275.8508 11.67547280716149
GLOBALSTAR M075         
1 37192U 10054E   26125.35337191 -.00000093  00000+0  59143-4 0  9998
2 37192  51.9952 280.6124 0000765 112.3872 262.1064 12.62266317716539
GLOBALSTAR M073         
1 37193U 10054F   26125.51172146 -.00000079  00000+0  13670-3 0  9992
2 37193  52.0054 194.1979 0000168 188.0495 185.3482 12.62266725718546
GLOBALSTAR M083         
1 37739U 11033A   26125.36626647 -.00000110  00000+0 -33864-4 0  9994
2 37739  51.9842 142.9261 0000120 279.1519  94.5037 12.62262748687540
GLOBALSTAR M088         
1 37740U 11033B   26125.29693171 -.00000100  00000+0  20400-4 0  9994
2 37740  52.0230  49.4607 0000642  62.7589 113.5671 12.62263167683078
GLOBALSTAR M091         
1 37741U 11033C   26125.46696765 -.00000091  00000+0  70351-4 0  9995
2 37741  52.0024  11.9722 0000666  89.3126  81.5232 12.62262987683885
GLOBALSTAR M085         
1 37742U 11033D   26125.49839169 -.00000093  00000+0  61430-4 0  9996
2 37742  52.0139 323.1324 0000721 111.1929 262.6787 12.62263108684408
GLOBALSTAR M081         
1 37743U 11033E   26125.00139271 -.00000085  00000+0  10250-3 0  9995
2 37743  51.9974 327.1312 0000710  90.7775  62.8966 12.62263991684481
GLOBALSTAR M089         
1 37744U 11033F   26125.40821649 -.00000091  00000+0  68714-4 0  9993
2 37744  51.9935 280.0592 0000802  89.6818 294.0686 12.62266173685386
GLOBALSTAR M084         
1 38040U 11080A   26125.35970043 -.00000103  00000+0  35005-5 0  9994
2 38040  51.9986 147.6647 0000312  37.0836  66.0225 12.62266907663358
GLOBALSTAR M080         
1 38041U 11080B   26125.24669125 -.00000100  00000+0  21258-4 0  9990
2 38041  52.0039 149.7125 0000502 156.5302 282.5960 12.62268836663466
GLOBALSTAR M082         
1 38042U 11080C   26125.51674220 -.00000124  00000+0 -11103-3 0  9997
2 38042  52.0057 104.3840 0000209 128.8992  28.0904 12.62269432664206
GLOBALSTAR M092         
1 38043U 11080D   26125.45921838 -.00000078  00000+0  14434-3 0  9998
2 38043  52.0073 194.9568 0000329 129.7352 245.0207 12.62266969662656
GLOBALSTAR M090         
1 38044U 11080E   26125.30216293 -.00000122  00000+0 -10420-3 0  9997
2 38044  52.0108  98.9790 0000217  36.2591 104.2561 12.62268348664293
GLOBALSTAR M086         
1 38045U 11080F   26125.32620455 -.00000107  00000+0 -19160-4 0  9993
2 38045  51.9881  98.9057 0001009 333.3161 174.5725 12.62285730664241
GLOBALSTAR M097         
1 39072U 13005A   26125.40292084 -.00000094  00000+0  55781-4 0  9998
2 39072  52.0075  13.5711 0000551  80.2910 279.8019 12.62260101611501
GLOBALSTAR M093         
1 39073U 13005B   26125.37663854 -.00000088  00000+0  87126-4 0  9993
2 39073  52.0131   6.9841 0000429  83.1327 276.9588 12.62264853611454
GLOBALSTAR M094         
1 39074U 13005C   26125.37666740 -.00000093  00000+0  62561-4 0  9993
2 39074  51.9958 281.1448 0000583 126.1360 233.9561 12.62268029613068
GLOBALSTAR M096         
1 39075U 13005D   26125.31082748 -.00000096  00000+0  42109-4 0  9997
2 39075  52.0089 330.1130 0000689 103.8586 256.2357 12.62264615611974
GLOBALSTAR M078         
1 39076U 13005E   26125.52127271 -.00000066  00000+0  21102-3 0  9998
2 39076  51.9890  53.5353 0000969 136.7445 223.3498 12.62266344610629
GLOBALSTAR M095         
1 39077U 13005F   26125.46890382 -.00000099  00000+0  25544-4 0  9993
2 39077  52.0096  51.2396 0000358 111.0488 249.0417 12.62267362610477
GLOBALSTAR M087         
1 52888U 22064A   26125.48234493 -.00000078  00000+0  14516-3 0  9993
2 52888  51.9986 192.4669 0000396 178.5246 181.5621 12.62268682185741
