EUTELSAT 174A           
1 28924U 05052A   26250.83797262 -.00000010  00000+0  00000+0 0  9996
2 28924   4.4219  75.4571 0005952  92.6171 294.4773  1.00271189 53163
EUTELSAT 33F            
1 29270U 06032A   26250.92807792  .00000136  00000+0  00000+0 0  9998
2 29270   1.8692  81.2001 0003318  87.7157 185.2712  1.00271483 48138
EUTELSAT HOTBIRD 13C    
1 33459U 08065A   26250.50846451 -.00000301  00000+0  00000+0 0  9994
2 33459   3.1558  78.1486 0003549  97.7255 303.4744  1.00272392 48179
EUTELSAT 36B            
1 36101U 09065A   26250.88485223  .00000092  00000+0  00000+0 0  9995
2 36101   0.6936  81.1915 0005697  88.6933 186.1251  1.00273682 61534
EUTELSAT KA-SAT 9A      
1 37258U 10069A   26250.73405883  .00000042  00000+0  00000+0 0  9998
2 37258   0.0746 344.0814 0005421 185.8132  90.1766  1.00271273 44839
EUTELSAT 7 WEST A       
1 37816U 11051A   26250.87341219 -.00000080  00000+0  00000+0 0  9990
2 37816   0.0649 337.9821 0005967 194.3638 121.7135  1.00271047 54708
EUTELSAT 16A            
1 37836U 11057A   26250.87800554  .00000084  00000+0  00000+0 0  9993
2 37836   0.0775  59.0270 0005559 107.2924 152.7197  1.00273803  8161
EUTELSAT 21B            
1 38992U 12062B   26250.73657218  .00000110  00000+0  00000+0 0  9996
2 38992   0.0704   3.9689 0002991 159.9092 109.7042  1.00273937 50656
EUTELSAT 70B            
1 39020U 12069A   26250.88883892 -.00000063  00000+0  00000+0 0  9999
2 39020   0.0639 351.8560 0003672 175.4124 210.1698  1.00271837 50331
EUTELSAT 117 WEST A     
1 39122U 13012A   26250.92289907 -.00000033  00000+0  00000+0 0  9990
2 39122   0.0512 295.1377 0002807 237.0674  30.2335  1.00271348 49260
EUTELSAT 7B             
1 39163U 13022A   26250.87739888  .00000090  00000+0  00000+0 0  9990
2 39163   0.0736 330.4852 0002173  47.0137 298.2920  1.00453699 48775
EXPRESS-AT1             
1 39612U 14010A   26250.96077257 -.00000108  00000+0  00000+0 0  9993
2 39612   0.4639  84.6067 0004927  81.3615 241.0088  1.00314622 45643
EXPRESS-AT2             
1 39613U 14010B   26250.88597891  .00000059  00000+0  00000+0 0  9990
2 39613   0.0296 259.8244 0000551 349.2475 112.8337  1.00270264 45321
EUTELSAT 3B             
1 39773U 14030A   26250.87549220  .00000000  00000+0  00000+0 0  9997
2 39773   0.0647 347.5009 0004092 182.1595 135.5531  1.00271093 44893
EUTELSAT 115 WEST B     
1 40425U 15010B   26250.70953206 -.00000045  00000+0  00000+0 0  9997
2 40425   0.0332  13.3467 0000317  57.2679  56.6900  1.00271618 42217
EUTELSAT 8 WEST B       
1 40875U 15039B   26250.87323885 -.00000085  00000+0  00000+0 0  9993
2 40875   0.0695 338.3269 0003492 185.0654 129.9576  1.00273293 40489
EUTELSAT 9B             
1 41310U 16005A   26250.87661887  .00000041  00000+0  00000+0 0  9990
2 41310   0.0401  67.7105 0002450 142.0596 101.7486  1.00269502 38946
EUTELSAT 65 WEST A      
1 41382U 16014A   26250.86197215  .00000000  00000+0  00000+0 0  9992
2 41382   0.0272  17.7982 0002313 152.0997  62.1465  1.00267808 38352
EUTELSAT 117 WEST B     
1 41589U 16038B   26250.92289907 -.00000032  00000+0  00000+0 0  9990
2 41589   0.0316  13.8150 0000088 239.6075 308.8221  1.00271924 37498
EUTELSAT 172B           
1 42741U 17029B   26250.90894568 -.00000026  00000+0  00000+0 0  9998
2 42741   0.0221 140.9737 0000185 188.3575 156.8893  1.00271821 34589
EUTELSAT 7C             
1 44334U 19034B   26250.59114487  .00000028  00000+0  00000+0 0  9997
2 44334   0.0718 179.8139 0003101 335.5476  51.1071  1.00269573  7669
EUTELSAT 5 WEST B       
1 44624U 19067A   26250.87384552 -.00000062  00000+0  00000+0 0  9997
2 44624   0.0879 313.7106 0003166 218.5207 124.3013  1.00272114 25254
EUTELSAT KONNECT        
1 45027U 20005B   26250.87627220  .00000029  00000+0  00000+0 0  9993
2 45027   0.0638  99.9677 0000938  58.0629 151.5966  1.00266786 25167
EUTELSAT QUANTUM        
1 49056U 21069B   26250.78354796  .00000000  00000+0  00000+0 0  9994
2 49056   0.0193 123.2875 0002838  82.4659 110.8694  1.00244465 18758
EUTELSAT KONNECT VHTS   
1 53765U 22110A   26250.87540553 -.00000003  00000+0  00000+0 0  9996
2 53765   0.0544 104.4515 0003170  43.3487 156.9948  1.00272312  7660
EUTELSAT HOTBIRD 13F    
1 54048U 22134A   26250.73483883  .00000067  00000+0  00000+0 0  9993
2 54048   0.0652 292.1339 0001779  65.5366 266.6905  1.00271365 14206
EUTELSAT HOTBIRD 13G    
1 54225U 22146A   26250.87739888  .00000067  00000+0  00000+0 0  9997
2 54225   0.0534 235.5618 0002202 306.4781 133.7788  1.00270829  8292
EUTELSAT 10B            
1 54259U 22157A   26250.87679220  .00000048  00000+0  00000+0 0  9998
2 54259   0.0536 102.2455 0001248   2.3043 208.0857  1.00269241 13859
EUTELSAT 36D            
1 59346U 24059A   26250.94074330  .00000135  00000+0  00000+0 0  9999
2 59346   0.0124 166.9440 0000243 112.8868  81.7242  1.00270770  8971
