QIANFAN-1               
1 60379U 24140A   26069.90264435  .00000066  00000+0  83917-4 0  9995
2 60379  88.9707 290.1593 0016593 325.7247  34.2832 13.51000292 79257
QIANFAN-2               
1 60380U 24140B   26069.85729689  .00000070  00000+0  90355-4 0  9997
2 60380  88.9693 289.9910 0011229 297.4768  62.5241 13.51004371 79302
QIANFAN-3               
1 60381U 24140C   26069.79140766  .00000074  00000+0  95368-4 0  9997
2 60381  88.9686 290.1240 0012633 311.2381  48.7681 13.51000406 79209
QIANFAN-4               
1 60382U 24140D   26069.84088833  .00000066  00000+0  84268-4 0  9998
2 60382  88.9711 290.0387 0011508 300.3800  59.6213 13.51000782 79338
QIANFAN-5               
1 60383U 24140E   26069.89027779  .00000057  00000+0  70292-4 0  9998
2 60383  88.9686 290.1389 0014174 322.4829  37.5332 13.51002608 79203
QIANFAN-6               
1 60384U 24140F   26069.83679508  .00000061  00000+0  76514-4 0  9994
2 60384  88.9712 289.9143 0011742 306.9628  53.0447 13.51002485 79393
QIANFAN-7               
1 60385U 24140G   26069.84336089  .00000266  00000+0  10141-3 0  9990
2 60385  88.9726 283.3727 0016988 108.0159 252.2888 14.27775356 82969
QIANFAN-8               
1 60386U 24140H   26069.84500586  .00000061  00000+0  76437-4 0  9990
2 60386  88.9714 290.1523 0015239 308.0904  51.8872 13.51003991 79243
QIANFAN-9               
1 60387U 24140J   26069.82033299  .00000057  00000+0  70141-4 0  9992
2 60387  88.9712 290.2286 0014936 307.9765  52.0037 13.50998706 79225
QIANFAN-10              
1 60388U 24140K   26069.82434028  .00000070  00000+0  89293-4 0  9991
2 60388  88.9721 289.5837 0012993 283.1966  76.7735 13.50997192 79358
QIANFAN-11              
1 60389U 24140L   26069.78742257  .00000082  00000+0  10847-3 0  9994
2 60389  88.9647 290.1091 0012961 308.4595  51.5393 13.51004054 79000
QIANFAN-12              
1 60390U 24140M   26069.88207080  .00000054  00000+0  65496-4 0  9997
2 60390  88.9691 290.1811 0011992 317.7049  42.3176 13.51001688 79143
QIANFAN-13              
1 60391U 24140N   26069.77917721  .00000064  00000+0  80324-4 0  9994
2 60391  88.9703 290.3025 0011898 321.0377  38.9916 13.51002105 79153
QIANFAN-14              
1 60392U 24140P   26069.87785762  .00000062  00000+0  78194-4 0  9994
2 60392  88.9682 290.1711 0015555 318.9737  41.0243 13.51002044 79171
QIANFAN-15              
1 60393U 24140Q   26069.88624446  .00000058  00000+0  70918-4 0  9998
2 60393  88.9705 290.1477 0011023 305.7658  54.2467 13.50999825 79163
QIANFAN-16              
1 60394U 24140R   26069.87374304  .00000055  00000+0  66616-4 0  9990
2 60394  88.9708 290.2717 0013608 324.0196  36.0037 13.50998518 79076
QIANFAN-17              
1 60395U 24140S   26069.86971094  .00000073  00000+0  94917-4 0  9994
2 60395  88.9719 290.3277 0013823 317.0870  42.9202 13.51005238 80038
QIANFAN-18              
1 60396U 24140T   26069.77511093  .00000067  00000+0  85796-4 0  9992
2 60396  88.9712 289.8646 0012760 298.5667  61.4199 13.51004337 79411
QIANFAN-19              
1 61552U 24185A   26069.80855271  .00000564  00000+0  28767-3 0  9995
2 61552  88.9763  67.8276 0008123  37.3654 322.8097 14.14393114 82114
QIANFAN-20              
1 61553U 24185B   26069.75554338  .00000559  00000+0  31517-3 0  9991
2 61553  88.9761  68.2463 0007873  71.0461 289.1576 14.08939351 81880
QIANFAN-21              
1 61554U 24185C   26069.81000034  .00000749  00000+0  32794-3 0  9997
2 61554  88.9682  66.6416 0012984  78.9713 281.2938 14.22735998 82498
QIANFAN-22              
1 61555U 24185D   26069.84661829  .00000306  00000+0  25279-3 0  9995
2 61555  88.9744  69.5733 0008643  88.0303 272.1858 13.86341978 81147
QIANFAN-23              
1 61556U 24185E   26069.87169855  .00000648  00000+0  31918-3 0  9997
2 61556  88.9756  67.5885 0009133  45.1357 315.0572 14.16399218 82229
QIANFAN-24              
1 61557U 24185F   26069.80870035  .00000922  00000+0  39583-3 0  9991
2 61557  88.9740  66.8568 0010021  24.3206 335.8457 14.23942229 82555
QIANFAN-25              
1 61558U 24185G   26069.83211931  .00000523  00000+0  31081-3 0  9991
2 61558  88.9753  68.1982 0011832  51.8417 308.3829 14.06000539 81888
QIANFAN-26              
1 61559U 24185H   26069.83870946  .00000288  00000+0  27482-3 0  9997
2 61559  88.9749  70.2227 0007864 100.9224 259.2827 13.77864087 80808
QIANFAN-27              
1 61560U 24185J   26069.79739439  .00000636  00000+0  25318-3 0  9998
2 61560  88.9753  66.5986 0008089  17.6273 342.5200 14.27449665 82724
QIANFAN-28              
1 61561U 24185K   26069.80412082  .00001085  00000+0  42972-3 0  9997
2 61561  88.9769  66.6050 0007655  18.8429 341.3047 14.28224569 82742
QIANFAN-29              
1 61562U 24185L   26069.79840760  .00000208  00000+0  30284-3 0  9993
2 61562  88.9721  72.1918 0010822 145.9322 214.2525 13.51045804 79686
QIANFAN-30              
1 61563U 24185M   26069.83999142  .00000202  00000+0  29879-3 0  9990
2 61563  88.9741  71.7467 0009047 131.0361 229.1573 13.50020704 79958
QIANFAN-31              
1 61564U 24185N   26069.80680117  .00000236  00000+0  31012-3 0  9996
2 61564  88.9726  71.4119 0008669 123.0934 237.1054 13.58005349 80118
QIANFAN-32              
1 61565U 24185P   26069.83383078  .00000164  00000+0  23602-3 0  9992
2 61565  88.9785  71.9085 0010186 158.3290 201.8294 13.50765508 79938
QIANFAN-33              
1 61566U 24185Q   26069.81585695  .00000455  00000+0  31897-3 0  9998
2 61566  88.9741  68.9677 0009089  60.9335 299.2751 13.96628044 81454
QIANFAN-34              
1 61567U 24185R   26069.84803649  .00000554  00000+0  35209-3 0  9995
2 61567  88.9719  68.4106 0008118  63.8364 296.3650 14.02388651 81707
QIANFAN-35              
1 61568U 24185S   26069.84597421  .00001046  00000+0  41476-3 0  9994
2 61568  88.9750  66.5153 0006839  17.5009 342.6420 14.28130693 82759
QIANFAN-36              
1 61569U 24185T   26069.79936504  .00000128  00000+0  16704-3 0  9994
2 61569  88.9721  71.8524 0007396 133.6365 226.5403 13.55614859 79851
QIANFAN-37              
1 62238U 24232B   26069.83223826  .00000103  00000+0  14162-3 0  9991
2 62238  89.0061  32.4337 0001880  97.8844 262.2520 13.51006171111069
QIANFAN-38              
1 62239U 24232C   26069.85687480  .00000107  00000+0  14662-3 0  9993
2 62239  89.0068  32.3531 0012991 306.9677  53.0284 13.51004776111124
QIANFAN-39              
1 62240U 24232D   26069.87532808  .00000511  00000+0  21012-3 0  9996
2 62240  89.0065  27.2295 0017220 142.5984 217.6412 14.25441819113946
QIANFAN-40              
1 62241U 24232E   26069.88979266  .00000110  00000+0  15252-3 0  9995
2 62241  89.0096  31.9591 0012266 316.2345  43.7833 13.51004061111493
QIANFAN-41              
1 62242U 24232F   26069.89805860  .00000103  00000+0  14132-3 0  9993
2 62242  89.0066  32.2990 0012310 302.6754  57.3209 13.51005697111158
QIANFAN-42              
1 62243U 24232G   26069.85916883  .00000475  00000+0  19822-3 0  9991
2 62243  89.0063  27.2916 0015851 147.9701 212.2458 14.24535341113912
QIANFAN-43              
1 62244U 24232H   26069.89390089  .00000103  00000+0  14160-3 0  9998
2 62244  89.0070  32.3686 0013959 307.8287  52.1600 13.51005693 79760
QIANFAN-44              
1 62245U 24232J   26069.88157553  .00000112  00000+0  15465-3 0  9994
2 62245  89.0069  32.1791 0012105 305.4416  54.5605 13.51003604111234
QIANFAN-45              
1 62246U 24232K   26069.84867909  .00000173  00000+0  24917-3 0  9993
2 62246  89.0072  32.3321 0012766 304.7613  55.2336 13.51007596111158
QIANFAN-46              
1 62247U 24232L   26069.87332863  .00000103  00000+0  14061-3 0  9995
2 62247  89.0068  32.3950 0012951 310.8272  49.1755 13.51004192111119
QIANFAN-47              
1 62248U 24232M   26069.87744076  .00000103  00000+0  14112-3 0  9996
2 62248  89.0064  32.3240 0013354 309.6519  50.3453 13.51004071111144
QIANFAN-48              
1 62249U 24232N   26069.84041550  .00000098  00000+0  13352-3 0  9999
2 62249  89.0068  32.3331 0015677 311.7217  48.2593 13.51004172111142
QIANFAN-49              
1 62250U 24232P   26069.90214369  .00000094  00000+0  12776-3 0  9993
2 62250  89.0067  32.3386 0012621 306.8206  53.1787 13.51003412 79747
QIANFAN-50              
1 62251U 24232Q   26069.85275160  .00000110  00000+0  15203-3 0  9991
2 62251  89.0072  32.3565 0014303 307.7547  52.2308 13.51004366 79760
QIANFAN-51              
1 62252U 24232R   26069.83632287  .00000099  00000+0  13424-3 0  9996
2 62252  89.0066  32.3467 0011914 313.0768  46.9386 13.51005069 79751
QIANFAN-52              
1 62253U 24232S   26069.86514302  .00000099  00000+0  13522-3 0  9996
2 62253  89.0063  32.2140 0013694 303.3533  56.6307 13.51001636 79842
QIANFAN-53              
1 62254U 24232T   26069.84452907  .00000101  00000+0  13812-3 0  9993
2 62254  89.0070  32.3271 0012607 305.1540  54.8429 13.51004344 79808
QIANFAN-54              
1 62255U 24232U   26069.88571511  .00000116  00000+0  16042-3 0  9995
2 62255  89.0062  31.9938 0002755  31.4161 328.7155 13.51003875111316
QIANFAN-55              
1 62785U 25016A   26069.83773355  .00000038  00000+0  39954-4 0  9990
2 62785  88.9687  94.0920 0019491  94.1639 266.1740 13.50996579 59088
QIANFAN-56              
1 62786U 25016B   26069.78003491  .00000027  00000+0  23553-4 0  9998
2 62786  88.9661  93.9106 0018138  96.4048 263.9169 13.50998374 59121
QIANFAN-57              
1 62787U 25016C   26069.81301310  .00000035  00000+0  35578-4 0  9993
2 62787  88.9692  94.0881 0001429 104.5047 255.6263 13.50997404 59095
QIANFAN-58              
1 62788U 25016D   26069.85820601  .00000041  00000+0  44978-4 0  9998
2 62788  88.9662  93.8878 0016032  89.6128 270.6860 13.50998956 59144
QIANFAN-59              
1 62789U 25016E   26069.80896507  .00000027  00000+0  23101-4 0  9991
2 62789  88.9685  93.9876 0016413  92.9831 267.3198 13.51007388 59137
QIANFAN-60              
1 62790U 25016F   26069.84187992  .00000035  00000+0  35727-4 0  9994
2 62790  88.9666  93.9388 0017953  89.7572 270.5636 13.51009634 59120
QIANFAN-61              
1 62791U 25016G   26069.87479697  .00000013  00000+0  12971-5 0  9997
2 62791  88.9733  94.1584 0016876  89.1898 271.1186 13.51006012 59141
QIANFAN-62              
1 62792U 25016H   26069.87888461  .00000041  00000+0  45157-4 0  9993
2 62792  88.9680  93.9787 0018256  89.4365 270.8878 13.50996823 59131
QIANFAN-63              
1 62793U 25016J   26069.82954918  .00000047  00000+0  54348-4 0  9998
2 62793  88.9687  93.9412 0018328  94.2772 266.0474 13.50995502 59165
QIANFAN-64              
1 62794U 25016K   26069.87067767  .00000044  00000+0  49322-4 0  9994
2 62794  88.9673  93.8991 0016238  88.0832 272.2178 13.51005759 59165
QIANFAN-65              
1 62795U 25016L   26069.86645739  .00000045  00000+0  51376-4 0  9998
2 62795  88.9670  93.9224 0016100  89.5708 270.7288 13.51008999 59141
QIANFAN-66              
1 62796U 25016M   26069.82124581  .00000031  00000+0  29064-4 0  9996
2 62796  88.9690  93.9147 0017175  85.8324 274.4789 13.50997108 59183
QIANFAN-67              
1 62797U 25016N   26069.82531353  .00000042  00000+0  45565-4 0  9992
2 62797  88.9680  93.9311 0017179  91.8261 268.4858 13.50995514 59153
QIANFAN-68              
1 62798U 25016P   26069.74312296  .00000023  00000+0  17342-4 0  9998
2 62798  88.9684  93.9881 0017230  90.5009 269.8116 13.51005467 59123
QIANFAN-69              
1 62799U 25016Q   26069.83364862  .00000043  00000+0  47236-4 0  9992
2 62799  88.9662  93.8291 0017990  91.1482 269.1731 13.51005610 59170
QIANFAN-70              
1 62800U 25016R   26069.85009644  .00000032  00000+0  30975-4 0  9991
2 62800  88.9683  93.9845 0017526  82.6841 277.6301 13.50997317 59137
QIANFAN-71              
1 62801U 25016S   26069.84593026  .00000032  00000+0  30159-4 0  9997
2 62801  88.9677  93.9591 0017903  94.2344 266.0853 13.50996809 59134
QIANFAN-72              
1 62802U 25016T   26069.86240188  .00000036  00000+0  36185-4 0  9997
2 62802  88.9667  93.9621 0021159 100.6584 259.6952 13.50996405 59123
QIANFAN-73              
1 63159U 25046A   26069.88924743  .00000127  00000+0  17875-3 0  9999
2 63159  88.9749 310.9181 0013354 225.6038 134.4020 13.50999855 59312
QIANFAN-74              
1 63160U 25046B   26069.87284255  .00000154  00000+0  22035-3 0  9991
2 63160  88.9750 310.8086 0001941  79.1943 280.9426 13.50999965 59370
QIANFAN-75              
1 63161U 25046C   26069.86010609  .00000020  00000+0  11782-4 0  9991
2 63161  88.9751 311.0448 0014485 229.6226 130.3661 13.50951038 59244
QIANFAN-76              
1 63162U 25046D   26069.78223142  .00000017  00000+0  78734-5 0  9998
2 63162  88.9750 311.0325 0012080 230.1354 129.8735 13.51000663 59241
QIANFAN-77              
1 63163U 25046E   26069.84078596  .00000302  00000+0  20968-3 0  9998
2 63163  88.9746 308.3095 0015116 158.1245 202.0580 13.96178231 60746
QIANFAN-78              
1 63164U 25046F   26069.89747832  .00000155  00000+0  22091-3 0  9995
2 63164  88.9749 310.8841 0013324 232.5834 127.4105 13.51000431 59330
QIANFAN-79              
1 63165U 25046G   26069.85231884  .00000148  00000+0  21128-3 0  9999
2 63165  88.9753 310.9997 0013196 230.8756 129.1223 13.51010429 59271
QIANFAN-80              
1 63166U 25046H   26069.86865618  .00000139  00000+0  19596-3 0  9995
2 63166  88.9750 310.7025 0011979 235.2635 124.7388 13.50999828 59430
QIANFAN-81              
1 63167U 25046J   26069.84686664  .00000128  00000+0  17931-3 0  9995
2 63167  88.9750 310.7726 0013174 223.4160 136.5955 13.50985447 59387
QIANFAN-82              
1 63168U 25046K   26069.80697422  .00000157  00000+0  22399-3 0  9992
2 63168  88.9751 310.8207 0011152 230.9336 129.0824 13.51001277 59367
QIANFAN-83              
1 63169U 25046L   26069.78416098  .00000190  00000+0  22997-3 0  9999
2 63169  88.9750 310.4264 0012833 209.1154 150.9290 13.62023886 59585
QIANFAN-84              
1 63170U 25046M   26069.83519675  .00000170  00000+0  24673-3 0  9993
2 63170  88.9750 310.9503 0014309 228.1621 131.8309 13.50578407 59296
QIANFAN-85              
1 63171U 25046N   26069.90569516  .00000141  00000+0  19906-3 0  9992
2 63171  88.9750 310.8143 0011588 229.4632 130.5511 13.51003929 59371
QIANFAN-86              
1 63172U 25046P   26069.83987081  .00000154  00000+0  22009-3 0  9998
2 63172  88.9752 310.6853 0009369 234.0072 126.0211 13.51003116 59447
QIANFAN-87              
1 63173U 25046Q   26069.88518085  .00000148  00000+0  21002-3 0  9993
2 63173  88.9748 310.7888 0010118 228.3132 131.7154 13.51011566 59389
QIANFAN-88              
1 63174U 25046R   26069.90154898  .00000140  00000+0  19865-3 0  9991
2 63174  88.9751 310.7439 0010405 238.0014 122.0127 13.50999840 59418
QIANFAN-89              
1 63175U 25046S   26069.86463683  .00000135  00000+0  19096-3 0  9992
2 63175  88.9751 310.9369 0014995 228.2485 131.7385 13.51010329 59302
QIANFAN-90              
1 63176U 25046T   26069.89347134  .00000151  00000+0  21487-3 0  9993
2 63176  88.9751 310.9064 0011965 225.7209 134.2961 13.51010439 59327
QIANFAN-91              
1 66033U 25233A   26069.85196259  .00000047  00000+0  54277-4 0  9990
2 66033  88.9939  53.1288 0002018  92.0449 268.0933 13.51004827 19903
QIANFAN-92              
1 66034U 25233B   26069.86012409  .00000039  00000+0  42423-4 0  9997
2 66034  88.9922  53.1158 0001961  85.7575 274.3800 13.51006089 19902
QIANFAN-93              
1 66035U 25233C   26069.79429786  .00000066  00000+0  83119-4 0  9997
2 66035  88.9949  53.1478 0001977  90.4466 269.6911 13.51005258 19891
QIANFAN-94              
1 66036U 25233D   26069.78184516  .00000072  00000+0  92565-4 0  9998
2 66036  88.9946  53.0556 0002098  87.0322 273.1069 13.50992267 19947
QIANFAN-95              
1 66037U 25233E   26069.79001126  .00000088  00000+0  11742-3 0  9999
2 66037  88.9943  52.6009 0002147  92.0061 268.1336 13.51015669 20197
QIANFAN-96              
1 66038U 25233F   26069.88897984  .00000054  00000+0  65628-4 0  9991
2 66038  88.9940  53.1367 0002036  94.0097 266.1287 13.51005022 19908
QIANFAN-97              
1 66039U 25233G   26069.79844689  .00000062  00000+0  77371-4 0  9993
2 66039  88.9944  53.1268 0002001  91.5339 268.6041 13.51004423 19905
QIANFAN-98              
1 66040U 25233H   26069.80662125  .00000088  00000+0  11788-3 0  9997
2 66040  88.9933  52.8675 0002456  82.0712 278.0718 13.51005105 20048
QIANFAN-99              
1 66041U 25233J   26069.88484543  .00000052  00000+0  61381-4 0  9998
2 66041  88.9944  53.1214 0002370  86.2057 273.9365 13.51005171 19916
QIANFAN-100             
1 66042U 25233K   26069.87658478  .00000061  00000+0  76224-4 0  9990
2 66042  88.9955  53.0382 0001981  90.8760 269.2618 13.51006044 19967
QIANFAN-101             
1 66043U 25233L   26069.89795526  .00000695  00000+0  28066-3 0  9992
2 66043  88.9945  51.8447 0017189 103.7435 256.5674 14.26741764 20618
QIANFAN-102             
1 66044U 25233M   26069.89707904  .00000082  00000+0  10880-3 0  9991
2 66044  88.9942  53.0321 0002139  87.1129 273.0266 13.50992915 19964
QIANFAN-103             
1 66045U 25233N   26069.90133231  .00000062  00000+0  77354-4 0  9998
2 66045  88.9945  53.1241 0001977  91.1763 268.9614 13.51006481 19918
QIANFAN-104             
1 66046U 25233P   26069.83115286  .00000063  00000+0  79732-4 0  9994
2 66046  88.9950  53.0289 0002100  84.8764 275.2627 13.51010620 19954
QIANFAN-105             
1 66047U 25233Q   26069.83943174  .00000079  00000+0  10377-3 0  9996
2 66047  88.9963  52.8580 0002127  91.0985 269.0410 13.50981969 20061
QIANFAN-106             
1 66048U 25233R   26069.83545467  .00000062  00000+0  76931-4 0  9991
2 66048  88.9932  53.1022 0002394  83.2959 276.8464 13.51005543 19916
QIANFAN-107             
1 66049U 25233S   26069.84372155  .00000047  00000+0  54595-4 0  9990
2 66049  88.9947  53.1183 0001989  90.1886 269.9493 13.51003558 19915
QIANFAN-108             
1 66050U 25233T   26069.84782008  .00000042  00000+0  46549-4 0  9999
2 66050  88.9941  53.1125 0002342  82.9159 277.2259 13.51005004 19913
