IRIDIUM 106             
1 41917U 17003A   26107.95502581  .00000017  00000+0 -10681-5 0  9993
2 41917  86.3927 113.7436 0002591  90.3466 269.8026 14.34217373484575
IRIDIUM 103             
1 41918U 17003B   26107.73303358  .00000071  00000+0  18202-4 0  9996
2 41918  86.3925 113.7366 0002190  97.8319 262.3126 14.34218044484564
IRIDIUM 109             
1 41919U 17003C   26107.73937757  .00000037  00000+0  62536-5 0  9995
2 41919  86.3926 113.7924 0002266  92.3128 267.8328 14.34217885484531
IRIDIUM 102             
1 41920U 17003D   26107.42859105  .00000065  00000+0  16070-4 0  9995
2 41920  86.3925 113.8472 0002302  89.0851 271.0608 14.34217753484574
IRIDIUM 105             
1 41921U 17003E   26107.66850883  .00000154  00000+0  47614-4 0  9993
2 41921  86.3929  82.1737 0002242  88.5627 271.5826 14.34399414486461
IRIDIUM 104             
1 41922U 17003F   26107.51104327 -.00000031  00000+0 -17999-4 0  9992
2 41922  86.3930 113.8545 0001937  94.0381 266.1036 14.34217280484575
IRIDIUM 114             
1 41923U 17003G   26107.93599777  .00000034  00000+0  51029-5 0  9990
2 41923  86.3926 113.6601 0002171  94.7487 265.3957 14.34217906484610
IRIDIUM 108             
1 41924U 17003H   26107.89451851  .00000184  00000+0  58719-4 0  9994
2 41924  86.3926  81.9708 0002290  84.2877 275.8580 14.34217953486460
IRIDIUM 112             
1 41925U 17003J   26107.92331295  .00000016  00000+0 -14140-5 0  9994
2 41925  86.3921 113.5100 0002161  92.1236 268.0207 14.34217685484637
IRIDIUM 111             
1 41926U 17003K   26107.77109078  .00000046  00000+0  93552-5 0  9996
2 41926  86.3925 113.6431 0002298  92.5015 267.6444 14.34217895484596
IRIDIUM 113             
1 42803U 17039A   26107.96036046  .00000053  00000+0  11872-4 0  9997
2 42803  86.4005 347.3581 0001902  87.3866 272.7548 14.34217893462552
IRIDIUM 123             
1 42804U 17039B   26107.86230311  .00000043  00000+0  81354-5 0  9990
2 42804  86.4018  18.8432 0002287  88.5647 271.5811 14.34217833461305
IRIDIUM 120             
1 42805U 17039C   26107.95401925  .00000016  00000+0 -13934-5 0  9992
2 42805  86.3990 347.1507 0002177  83.2971 276.8473 14.34217543462542
IRIDIUM 115             
1 42806U 17039D   26107.93940961  .00000244  00000+0  66633-4 0  9994
2 42806  86.4530 347.2778 0002472  89.5670 270.5815 14.43281281465575
IRIDIUM 118             
1 42807U 17039E   26107.75447939  .00000183  00000+0  58343-4 0  9993
2 42807  86.4017  18.8865 0002149  85.4221 274.7221 14.34219160461280
IRIDIUM 117             
1 42808U 17039F   26107.77350678 -.00000001  00000+0 -73123-5 0  9994
2 42808  86.4014  18.8368 0002173  88.7071 271.4374 14.34217683461317
IRIDIUM 126             
1 42809U 17039G   26107.72910802  .00000072  00000+0  18739-4 0  9998
2 42809  86.4018  18.9055 0002109  88.4088 271.7349 14.34217298461283
IRIDIUM 124             
1 42810U 17039H   26107.52664154  .00000214  00000+0  57649-4 0  9995
2 42810  86.4467 315.7426 0002244  89.3238 270.8220 14.43293553466360
IRIDIUM 128             
1 42811U 17039J   26107.58031008  .00000000  00000+0 -69854-5 0  9994
2 42811  86.3972  50.4768 0002346  83.6680 276.4783 14.34217533461291
IRIDIUM 121             
1 42812U 17039K   26107.74815625  .00000191  00000+0  61170-4 0  9990
2 42812  86.4018  18.9248 0002266  83.0574 277.0880 14.34215905461165
IRIDIUM 133             
1 42955U 17061A   26107.89109620  .00000075  00000+0  19874-4 0  9995
2 42955  86.3978  50.4630 0002299  86.4115 273.7344 14.34217140446138
IRIDIUM 100             
1 42956U 17061B   26107.74521719  .00000130  00000+0  39435-4 0  9994
2 42956  86.3976  50.4439 0002300  86.7411 273.4048 14.34217861446115
IRIDIUM 122             
1 42957U 17061C   26107.92280970  .00000037  00000+0  62894-5 0  9998
2 42957  86.3974  50.3696 0002276  88.3167 271.8289 14.34217770446147
IRIDIUM 129             
1 42958U 17061D   26107.80864263  .00000156  00000+0  48674-4 0  9990
2 42958  86.3978  50.4839 0001934  83.1001 277.0415 14.34218890446145
IRIDIUM 119             
1 42959U 17061E   26107.91646720  .00000049  00000+0  10363-4 0  9994
2 42959  86.3978  50.4343 0002168  88.3691 271.7753 14.34217594446177
IRIDIUM 107             
1 42960U 17061F   26107.58665891  .00000165  00000+0  52006-4 0  9998
2 42960  86.3978  50.5931 0002426  91.4976 268.6498 14.34220211446138
IRIDIUM 132             
1 42961U 17061G   26107.59299413  .00000153  00000+0  47550-4 0  9998
2 42961  86.3979  50.5703 0002276  86.8702 273.2755 14.34217757446134
IRIDIUM 136             
1 42962U 17061H   26107.90378234  .00000178  00000+0  56624-4 0  9992
2 42962  86.3979  50.4468 0002256  88.6972 271.4483 14.34218143446193
IRIDIUM 139             
1 42963U 17061J   26107.91012469  .00000181  00000+0  57619-4 0  9998
2 42963  86.3978  50.5051 0002360  85.9350 274.2116 14.34218383446200
IRIDIUM 125             
1 42964U 17061K   26107.89743884  .00000022  00000+0  93506-6 0  9999
2 42964  86.3979  50.5707 0002026 100.5176 259.6249 14.34217594446217
IRIDIUM 135             
1 43070U 17083A   26107.94133304 -.00000034  00000+0 -19288-4 0  9996
2 43070  86.3997 347.2064 0002056  84.8382 275.3048 14.34217568435518
IRIDIUM 138             
1 43071U 17083B   26107.89693434 -.00000010  00000+0 -10653-4 0  9997
2 43071  86.4012 346.9115 0001750  91.1021 269.0375 14.34217606435495
IRIDIUM 116             
1 43072U 17083C   26107.93499117  .00000118  00000+0  34901-4 0  9994
2 43072  86.3996 347.1959 0002407  82.8964 277.2505 14.34218105435534
IRIDIUM 130             
1 43073U 17083D   26107.90327794  .00000169  00000+0  53241-4 0  9997
2 43073  86.4007 347.4786 0002406  87.9827 272.1644 14.34218280435478
IRIDIUM 151             
1 43074U 17083E   26107.94767559  .00000100  00000+0  28729-4 0  9997
2 43074  86.4000 347.2472 0002208  83.8497 276.2951 14.34218159435505
IRIDIUM 134             
1 43075U 17083F   26107.91596176  .00000162  00000+0  50868-4 0  9997
2 43075  86.4002 347.2677 0002267  87.0057 273.1398 14.34218872435466
IRIDIUM 137             
1 43076U 17083G   26107.92864945  .00000185  00000+0  59089-4 0  9990
2 43076  86.4004 347.3539 0002362  73.4612 286.6843 14.34219088435531
IRIDIUM 141             
1 43077U 17083H   26107.92230508  .00000001  00000+0 -67342-5 0  9993
2 43077  86.3999 347.1904 0001943  84.6473 275.4945 14.34217504435531
IRIDIUM 153             
1 43078U 17083J   26107.80471507 -.00000018  00000+0 -13579-4 0  9998
2 43078  86.3942 315.7353 0001901  93.3755 266.7658 14.34217454436622
IRIDIUM 131             
1 43079U 17083K   26107.90962033  .00000002  00000+0 -64252-5 0  9996
2 43079  86.4002 347.3776 0001949  83.8101 276.3317 14.34217463435462
IRIDIUM 144             
1 43249U 18030A   26107.81105751  .00000043  00000+0  81282-5 0  9990
2 43249  86.3942 315.6635 0002326  86.8970 273.2492 14.34218068421481
IRIDIUM 149             
1 43250U 18030B   26107.81740064 -.00000007  00000+0 -94585-5 0  9996
2 43250  86.3942 315.6286 0002099  88.3794 271.7643 14.34217541421502
IRIDIUM 157             
1 43251U 18030C   26107.83642862 -.00000056  00000+0 -26971-4 0  9993
2 43251  86.3942 315.6724 0002167  88.9305 271.2139 14.34217306421481
IRIDIUM 140             
1 43252U 18030D   26107.92522480  .00000024  00000+0  13583-5 0  9996
2 43252  86.3945 315.6480 0002208  89.4798 270.6651 14.34217732421555
IRIDIUM 145             
1 43253U 18030E   26107.91254043  .00000162  00000+0  50804-4 0  9992
2 43253  86.3945 315.6258 0002453  85.1849 274.9627 14.34217412421488
IRIDIUM 146             
1 43254U 18030F   26107.96328046 -.00000070  00000+0 -32089-4 0  9998
2 43254  86.3940 315.6165 0002175  86.8052 273.3393 14.34217135421504
IRIDIUM 148             
1 43255U 18030G   26107.86180046  .00000160  00000+0  50043-4 0  9992
2 43255  86.3945 315.7016 0002130  85.1131 275.0308 14.34215661421526
IRIDIUM 142             
1 43256U 18030H   26107.83008477  .00000033  00000+0  47146-5 0  9997
2 43256  86.3942 315.6061 0002356  86.0523 274.0942 14.34214719421489
IRIDIUM 150             
1 43257U 18030J   26107.86814170  .00000156  00000+0  48647-4 0  9998
2 43257  86.3945 315.7045 0002209  88.6594 271.4855 14.34218148421517
IRIDIUM 143             
1 43258U 18030K   26107.91888313  .00000130  00000+0  39440-4 0  9998
2 43258  86.3947 315.7734 0002283  87.0506 273.0951 14.34217932421451
IRIDIUM 161             
1 43478U 18047C   26107.71250092  .00000304  00000+0  84468-4 0  9998
2 43478  86.4447 113.7641 0002024  88.1496 271.9937 14.43279501416418
IRIDIUM 152             
1 43479U 18047D   26107.75206265  .00000051  00000+0  11272-4 0  9998
2 43479  86.3919 113.6080 0002176  92.2109 267.9336 14.34217882413827
IRIDIUM 147             
1 43480U 18047E   26107.96771077  .00000004  00000+0 -55080-5 0  9996
2 43480  86.3925 113.5220 0002274  88.9719 271.1737 14.34217526413859
IRIDIUM 110             
1 43481U 18047F   26107.97405238  .00000029  00000+0  33696-5 0  9996
2 43481  86.3925 113.6096 0001907  91.1566 268.9848 14.34217848413843
IRIDIUM 162             
1 43482U 18047G   26107.42887770  .00000035  00000+0  44761-5 0  9994
2 43482  86.4446 113.7745 0002337  93.5499 266.5969 14.43278706416362
IRIDIUM 160             
1 43569U 18061A   26107.91988917  .00000076  00000+0  20218-4 0  9990
2 43569  86.3930  81.9952 0002171  85.6372 274.5072 14.34218107404730
IRIDIUM 166             
1 43570U 18061B   26107.66619620  .00000161  00000+0  50520-4 0  9990
2 43570  86.3926  82.0524 0002408  87.0627 273.0845 14.34214400404729
IRIDIUM 158             
1 43571U 18061C   26107.91354711  .00000167  00000+0  52717-4 0  9992
2 43571  86.3926  81.9589 0002261  91.3340 268.8115 14.34218052404725
IRIDIUM 165             
1 43572U 18061D   26107.65984285  .00000203  00000+0  65528-4 0  9994
2 43572  86.3927  82.1102 0002393  86.1947 273.9522 14.34217320404717
IRIDIUM 155             
1 43573U 18061E   26107.97063073  .00000006  00000+0 -50668-5 0  9995
2 43573  86.3921  81.8523 0002245  90.5737 269.5717 14.34217475404726
IRIDIUM 154             
1 43574U 18061F   26107.88183470  .00000103  00000+0  29824-4 0  9996
2 43574  86.3928  82.0201 0002411  84.8346 275.3125 14.34218168404769
IRIDIUM 163             
1 43575U 18061G   26107.93257047  .00000161  00000+0  50424-4 0  9999
2 43575  86.3926  81.9160 0002180  89.9781 270.1665 14.34215462404746
IRIDIUM 156             
1 43576U 18061H   26107.97697320 -.00000039  00000+0 -21110-4 0  9992
2 43576  86.3928  81.9052 0002280  89.6223 270.5234 14.34216945404741
IRIDIUM 164             
1 43577U 18061J   26107.88817650  .00000061  00000+0  14706-4 0  9999
2 43577  86.3927  81.9813 0002312  82.9838 277.1621 14.34217967404771
IRIDIUM 159             
1 43578U 18061K   26107.92623338  .00000169  00000+0  53348-4 0  9997
2 43578  86.3924  81.9034 0002155  87.1528 272.9915 14.34217240404742
IRIDIUM 180             
1 43922U 19002A   26107.71642294  .00000063  00000+0  15322-4 0  9998
2 43922  86.4018  18.8649 0002087  83.2088 276.9345 14.34217984380326
IRIDIUM 176             
1 43923U 19002B   26107.73569596  .00000532  00000+0  80534-4 0  9992
2 43923  86.6142  18.8086 0002616  82.6869 277.4646 14.72250590390356
IRIDIUM 168             
1 43924U 19002C   26107.71008482  .00000192  00000+0  61526-4 0  9995
2 43924  86.4017  18.9432 0002183  85.1025 275.0420 14.34208709380304
IRIDIUM 173             
1 43925U 19002D   26107.76716324  .00000256  00000+0  84406-4 0  9995
2 43925  86.4015  18.8106 0002179  87.7208 272.4238 14.34218394380293
IRIDIUM 169             
1 43926U 19002E   26107.59961708  .00000188  00000+0  54914-4 0  9990
2 43926  86.4234  50.5109 0002608  99.2419 260.9074 14.38609168381515
IRIDIUM 172             
1 43927U 19002F   26107.76082112  .00000128  00000+0  38731-4 0  9996
2 43927  86.4017  18.8210 0002136  83.2919 276.8520 14.34218180380303
IRIDIUM 175             
1 43928U 19002G   26107.83265016  .00000212  00000+0  56748-4 0  9993
2 43928  86.4498 315.7685 0005275  73.5049 286.6731 14.43589960390272
IRIDIUM 171             
1 43929U 19002H   26107.74179391 -.00000016  00000+0 -12661-4 0  9994
2 43929  86.4021  19.1283 0002256  84.4646 275.6807 14.34217680380294
IRIDIUM 170             
1 43930U 19002J   26107.74187968  .00000547  00000+0  82826-4 0  9992
2 43930  86.6137  18.8091 0002319  83.4709 276.6772 14.72254675390366
IRIDIUM 167             
1 43931U 19002K   26107.73545185  .00000032  00000+0  43162-5 0  9991
2 43931  86.4016  18.8534 0002543  86.1905 273.9582 14.34217691380295
IRIDIUM 181             
1 56726U 23068S   26107.44323405  .00000038  00000+0  51603-5 0  9996
2 56726  86.4462  82.1815 0002168  80.2036 279.9410 14.43308762153671
IRIDIUM 177             
1 56727U 23068T   26107.95444096  .00000699  00000+0  88526-4 0  9999
2 56727  86.2005 357.3975 0002183  90.5076 269.6395 14.80221327157452
IRIDIUM 174             
1 56728U 23068U   26107.72951245  .00000549  00000+0  83115-4 0  9997
2 56728  86.6142  18.9552 0002296  86.6944 273.4536 14.72249820157128
IRIDIUM 178             
1 56729U 23068V   26107.26744784  .00000741  00000+0  94040-4 0  9998
2 56729  86.6548  50.8066 0002674  81.5312 278.6212 14.80237671157350
IRIDIUM 179             
1 56730U 23068W   26107.87048164  .00000753  00000+0  95583-4 0  9992
2 56730  86.6772  59.3574 0002974  87.0672 273.0890 14.80238302157445
