EUTELSAT 174A           
1 28924U 05052A   26138.63124347  .00000010  00000+0  00000+0 0  9996
2 28924   4.1463  76.8778 0006152 335.9057 224.7554  1.00270739 52032
EUTELSAT 33F            
1 29270U 06032A   26138.81722816  .00000157  00000+0  00000+0 0  9997
2 29270   1.5869  82.5409 0003376 328.3230 152.9210  1.00270924 47016
EUTELSAT HOTBIRD 13C    
1 33459U 08065A   26138.80067477 -.00000282  00000+0  00000+0 0  9993
2 33459   2.8762  79.5198 0003772 337.4376  57.4884  1.00271676 47054
EUTELSAT 36B            
1 36101U 09065A   26138.82069485  .00000113  00000+0  00000+0 0  9996
2 36101   0.4184  80.6001 0005625 336.2796 165.5850  1.00273733 60416
EUTELSAT KA-SAT 9A      
1 37258U 10069A   26138.85461303  .00000062  00000+0  00000+0 0  9997
2 37258   0.0619   4.3606 0004390 129.2449  59.6031  1.00269572 43710
EUTELSAT 7 WEST A       
1 37816U 11051A   26138.80925479 -.00000059  00000+0  00000+0 0  9990
2 37816   0.0844  35.8212 0003755  21.4034 103.2866  1.00271349 53582
EUTELSAT 16A            
1 37836U 11057A   26138.85763889  .00000105  00000+0  00000+0 0  9999
2 37836   0.0568  24.1612 0006023  39.8662 137.2731  1.00273963  7045
EUTELSAT 21B            
1 38992U 12062B   26138.89757715  .00000131  00000+0  00000+0 0  9994
2 38992   0.0690 341.9490 0003081  80.4544 158.9196  1.00274884 49539
EUTELSAT 70B            
1 39020U 12069A   26138.82459486 -.00000042  00000+0  00000+0 0  9993
2 39020   0.0644 359.3790 0004511  51.8355 192.6543  1.00271069 49216
EUTELSAT 117 WEST A     
1 39122U 13012A   26138.64496009 -.00000011  00000+0  00000+0 0  9993
2 39122   0.0592  79.9913 0002534 330.8737 300.8506  1.00271739 48136
EUTELSAT 7B             
1 39163U 13022A   26138.85461303  .00000049  00000+0  00000+0 0  9991
2 39163   0.0703   4.1810 0005346  24.2643 162.7676  1.00272657 47654
EXPRESS-AT1             
1 39612U 14010A   26138.90531715  .00000051  00000+0  00000+0 0  9992
2 39612   0.1811  85.8583 0002733  29.2580 146.7166  1.00295319 44528
EXPRESS-AT2             
1 39613U 14010B   26138.81751406  .00000080  00000+0  00000+0 0  9996
2 39613   0.0160 290.8921 0000902  19.7370 276.1838  1.00272777 44208
EUTELSAT 3B             
1 39773U 14030A   26138.85461303  .00000021  00000+0  00000+0 0  9998
2 39773   0.0651   0.4698 0003774  54.8937 131.9216  1.00271055 43772
EUTELSAT 115 WEST B     
1 40425U 15010B   26138.64530677 -.00000023  00000+0  00000+0 0  9994
2 40425   0.0124 144.4666 0000438 302.5529 266.7182  1.00271983 41093
EUTELSAT 8 WEST B       
1 40875U 15039B   26138.68169897 -.00000064  00000+0  00000+0 0  9995
2 40875   0.0707  12.7454 0003958  43.5646  57.4788  1.00272050 39363
EUTELSAT 9B             
1 41310U 16005A   26138.85461303  .00000063  00000+0  00000+0 0  9998
2 41310   0.0673  78.3912 0002506 295.3633 179.4282  1.00271045 37824
EUTELSAT 65 WEST A      
1 41382U 16014A   26138.79772808 -.00000275  00000+0  00000+0 0  9991
2 41382   0.0980  57.2730 0002004 351.7939  49.3936  1.00269144 37230
EUTELSAT 117 WEST B     
1 41589U 16038B   26138.64487344 -.00000009  00000+0  00000+0 0  9993
2 41589   0.0211 148.7115 0000409 283.4363 279.3379  1.00270093 36362
EUTELSAT 172B           
1 42741U 17029B   26138.63072347 -.00000004  00000+0  00000+0 0  9992
2 42741   0.0200 200.9196 0000360  69.8467   4.6273  1.00269278 33449
EUTELSAT 7C             
1 44334U 19034B   26138.85461303  .00000049  00000+0  00000+0 0  9996
2 44334   0.0745 175.6519 0002983 222.4931 153.0605  1.00270579  6541
EUTELSAT 5 WEST B       
1 44624U 19067A   26138.68239340 -.00000041  00000+0  00000+0 0  9992
2 44624   0.0656 344.6665 0002903  68.1613  64.1968  1.00269886 24147
EUTELSAT KONNECT        
1 45027U 20005B   26138.85461303  .00000051  00000+0  00000+0 0  9999
2 45027   0.0694  97.8726 0001269 183.5375 270.0162  1.00269170 24042
EUTELSAT QUANTUM        
1 49056U 21069B   26138.82008817  .00000127  00000+0  00000+0 0  9994
2 49056   0.0213  18.6376 0002067  32.8224 167.9795  1.00272129 17634
EUTELSAT KONNECT VHTS   
1 53765U 22110A   26138.68239340  .00000019  00000+0  00000+0 0  9995
2 53765   0.0603 102.5179 0003145 280.0678 102.1456  1.00270922  6543
EUTELSAT HOTBIRD 13F    
1 54048U 22134A   26138.17156094  .00000091  00000+0  00000+0 0  9994
2 54048   0.0484 290.4919 0001986  63.5534 316.5966  1.00271547 13077
EUTELSAT HOTBIRD 13G    
1 54225U 22146A   26138.52796513  .00000090  00000+0  00000+0 0  9998
2 54225   0.0421 237.6183 0001977 310.9709 250.6921  1.00272452  7162
EUTELSAT 10B            
1 54259U 22157A   26138.85461303  .00000071  00000+0  00000+0 0  9998
2 54259   0.0608 102.1655 0000332 332.1231 119.9401  1.00279071 12739
EUTELSAT 36D            
1 59346U 24059A   26138.81774816  .00000000  00000+0  00000+0 0  9997
2 59346   0.0141 323.0180 0000267 269.4048 334.3351  1.00270458  7859
