IRIDIUM 106             
1 41917U 17003A   26210.86359128  .00000097  00000+0  27463-4 0  9997
2 41917  86.3925  70.7067 0002487  91.4789 268.6691 14.34217963499328
IRIDIUM 103             
1 41918U 17003B   26210.57183098  .00000006  00000+0 -48141-5 0  9995
2 41918  86.3924  70.7290 0001908  91.2969 268.8446 14.34217501499307
IRIDIUM 109             
1 41919U 17003C   26210.57817425  .00000250  00000+0  82142-4 0  9992
2 41919  86.3919  70.7868 0002173  85.9169 274.2275 14.34217601499278
IRIDIUM 102             
1 41920U 17003D   26210.61622902  .00000131  00000+0  39684-4 0  9994
2 41920  86.3925  70.6933 0002241  85.6596 274.4856 14.34218161499365
IRIDIUM 105             
1 41921U 17003E   26210.92366897  .00000076  00000+0  20165-4 0  9999
2 41921  86.3941  38.9924 0001936  85.1110 275.0307 14.34217476501267
IRIDIUM 104             
1 41922U 17003F   26210.62891290  .00000238  00000+0  77816-4 0  9992
2 41922  86.3927  70.7311 0001875  86.6353 273.5058 14.34219011499352
IRIDIUM 114             
1 41923U 17003G   26210.84456243  .00000119  00000+0  35568-4 0  9998
2 41923  86.3925  70.6239 0002039  88.2161 271.9269 14.34218019499361
IRIDIUM 108             
1 41924U 17003H   26210.94262126  .00000032  00000+0  44785-5 0  9991
2 41924  86.3934  38.8718 0002165  86.9499 273.1945 14.34217711501232
IRIDIUM 112             
1 41925U 17003J   26210.55280355  .00000033  00000+0  48787-5 0  9990
2 41925  86.3920  70.5861 0002100  86.0405 274.1031 14.34217742499346
IRIDIUM 111             
1 41926U 17003K   26210.88896103  .00000044  00000+0  87437-5 0  9998
2 41926  86.3922  70.5170 0002172  87.7103 272.4342 14.34217780499375
IRIDIUM 113             
1 42803U 17039A   26210.31077747  .00000041  00000+0  77492-5 0  9992
2 42803  86.3990 304.5755 0002148  94.2716 265.8725 14.34217821477227
IRIDIUM 123             
1 42804U 17039B   26210.84063500  .00000075  00000+0  19789-4 0  9994
2 42804  86.4005 335.8105 0002240  97.2664 262.8787 14.34218278476063
IRIDIUM 120             
1 42805U 17039C   26210.72304675  .00000035  00000+0  53660-5 0  9996
2 42805  86.3982 304.1806 0002455  94.4582 265.6894 14.34217696477277
IRIDIUM 115             
1 42806U 17039D   26210.68771295  .00000346  00000+0  96991-4 0  9996
2 42806  86.4518 304.3298 0002453  98.7704 261.3775 14.43285059480398
IRIDIUM 118             
1 42807U 17039E   26210.87234909  .00000009  00000+0 -40136-5 0  9992
2 42807  86.4004 335.7958 0002092  92.9741 267.1694 14.34217536476064
IRIDIUM 117             
1 42808U 17039F   26210.89137638  .00000030  00000+0  35044-5 0  9991
2 42808  86.4008 335.7446 0002185  94.3860 265.7585 14.34217785476094
IRIDIUM 126             
1 42809U 17039G   26210.84697850  .00000013  00000+0 -24067-5 0  9999
2 42809  86.4003 335.8153 0001988  95.4721 264.6702 14.34217626476064
IRIDIUM 124             
1 42810U 17039H   26210.89885296  .00000228  00000+0  61633-4 0  9995
2 42810  86.4467 272.5003 0002348  96.9028 263.2440 14.43279000481275
IRIDIUM 128             
1 42811U 17039J   26210.90748516  .00000006  00000+0 -48827-5 0  9997
2 42811  86.3977   7.2860 0002219  93.2220 266.9230 14.34217678476102
IRIDIUM 121             
1 42812U 17039K   26210.86600641  .00000013  00000+0 -23517-5 0  9996
2 42812  86.4010 335.8352 0002229  92.5361 267.6090 14.34217683475946
IRIDIUM 133             
1 42955U 17061A   26210.93919802  .00000030  00000+0  38196-5 0  9996
2 42955  86.3984   7.3913 0002197  91.9644 268.1803 14.34217885460900
IRIDIUM 100             
1 42956U 17061B   26210.93285552 -.00000035  00000+0 -19474-4 0  9999
2 42956  86.3980   7.3120 0002108  91.3322 268.8115 14.34217249460903
IRIDIUM 122             
1 42957U 17061C   26210.90114150  .00000066  00000+0  16405-4 0  9995
2 42957  86.3981   7.3250 0002116  92.7415 267.4023 14.34217769460906
IRIDIUM 129             
1 42958U 17061D   26210.92651308  .00000180  00000+0  57195-4 0  9997
2 42958  86.3979   7.3822 0001948  90.6912 269.4507 14.34218240460926
IRIDIUM 119             
1 42959U 17061E   26210.96456798  .00000114  00000+0  33637-4 0  9990
2 42959  86.3982   7.3623 0002085  93.3813 266.7621 14.34218308460947
IRIDIUM 107             
1 42960U 17061F   26210.91382721  .00000065  00000+0  16132-4 0  9997
2 42960  86.3985   7.4048 0002237  97.3343 262.8107 14.34218093460942
IRIDIUM 132             
1 42961U 17061G   26210.92017005 -.00000083  00000+0 -36729-4 0  9995
2 42961  86.3979   7.3815 0002062  92.4542 267.6890 14.34217552460941
IRIDIUM 136             
1 42962U 17061H   26210.95188294  .00000000  00000+0 -70238-5 0  9990
2 42962  86.3982   7.3753 0002080  90.5260 269.6175 14.34217517460964
IRIDIUM 139             
1 42963U 17061J   26210.95821950  .00000171  00000+0  54106-4 0  9997
2 42963  86.3981   7.4348 0002298  92.7206 267.4253 14.34216592460976
IRIDIUM 125             
1 42964U 17061K   26210.94553988  .00000020  00000+0  19048-6 0  9991
2 42964  86.3985   7.5021 0001934 105.3984 254.7426 14.34217569460987
IRIDIUM 135             
1 43070U 17083A   26210.71036078  .00000116  00000+0  34189-4 0  9992
2 43070  86.3987 304.2429 0002196  95.3618 264.7829 14.34217917450243
IRIDIUM 138             
1 43071U 17083B   26210.66596238  .00000223  00000+0  72442-4 0  9999
2 43071  86.3998 303.9633 0002091  96.7683 263.3751 14.34218494450228
IRIDIUM 116             
1 43072U 17083C   26210.35517655  .00000105  00000+0  30313-4 0  9992
2 43072  86.3986 304.3767 0002544  93.6785 266.4702 14.34218077450217
IRIDIUM 130             
1 43073U 17083D   26210.67230557  .00000010  00000+0 -34846-5 0  9993
2 43073  86.3990 304.5238 0002316  99.0261 261.1197 14.34217634450201
IRIDIUM 151             
1 43074U 17083E   26210.29809243  .00000106  00000+0  30943-4 0  9994
2 43074  86.3987 304.4593 0002306  94.6507 265.4952 14.34218098450171
IRIDIUM 134             
1 43075U 17083F   26210.68499083 -.00000024  00000+0 -15620-4 0  9991
2 43075  86.3984 304.3062 0002156  96.6011 263.5431 14.34217268450195
IRIDIUM 137             
1 43076U 17083G   26210.69767639  .00000058  00000+0  13524-4 0  9994
2 43076  86.3990 304.3944 0002528  86.7830 273.3655 14.34217929450263
IRIDIUM 141             
1 43077U 17083H   26210.69133305  .00000110  00000+0  32237-4 0  9993
2 43077  86.3985 304.2254 0002187  95.6172 264.5273 14.34218075450261
IRIDIUM 153             
1 43078U 17083J   26210.64351177  .00000035  00000+0  53807-5 0  9991
2 43078  86.3946 272.7209 0002183  96.6081 263.5363 14.34217682451368
IRIDIUM 131             
1 43079U 17083K   26210.67864786  .00000019  00000+0 -44588-6 0  9990
2 43079  86.3986 304.4194 0002114  94.1318 266.0120 14.34217651450194
IRIDIUM 144             
1 43249U 18030A   26210.58008645  .00000129  00000+0  39149-4 0  9992
2 43249  86.3944 272.6755 0002421  94.0700 266.0772 14.34218063436219
IRIDIUM 149             
1 43250U 18030B   26210.65619597  .00000223  00000+0  72714-4 0  9996
2 43250  86.3942 272.6103 0002196  93.9970 266.1477 14.34218916436245
IRIDIUM 157             
1 43251U 18030C   26210.88453027  .00000015  00000+0 -18172-5 0  9995
2 43251  86.3943 272.5686 0002204  94.9884 265.1563 14.34217616436259
IRIDIUM 140             
1 43252U 18030D   26210.90355831  .00000005  00000+0 -51297-5 0  9997
2 43252  86.3941 272.5730 0002213  95.7512 264.3936 14.34217518436318
IRIDIUM 145             
1 43253U 18030E   26210.26295742  .00000038  00000+0  64959-5 0  9995
2 43253  86.3944 272.8135 0002626  94.3522 265.7974 14.34217643436156
IRIDIUM 146             
1 43254U 18030F   26210.59277157  .00000005  00000+0 -53973-5 0  9991
2 43254  86.3941 272.6872 0002324  94.2680 265.8781 14.34217566436217
IRIDIUM 148             
1 43255U 18030G   26210.63082681  .00000057  00000+0  13187-4 0  9991
2 43255  86.3946 272.7156 0002294  91.8129 268.3329 14.34217860436253
IRIDIUM 142             
1 43256U 18030H   26210.87818807  .00000112  00000+0  33068-4 0  9997
2 43256  86.3939 272.4993 0002460  93.2825 266.8652 14.34217575436251
IRIDIUM 150             
1 43257U 18030J   26210.63716961  .00000151  00000+0  46807-4 0  9998
2 43257  86.3945 272.7180 0002330  95.5410 264.6052 14.34218226436244
IRIDIUM 143             
1 43258U 18030K   26210.89721598  .00000042  00000+0  79183-5 0  9992
2 43258  86.3947 272.7034 0002377  94.4062 265.7405 14.34217747436215
IRIDIUM 161             
1 43478U 18047C   26210.73813690  .00000309  00000+0  85809-4 0  9999
2 43478  86.4444  70.6719 0002052  82.8016 277.3418 14.43282109431275
IRIDIUM 152             
1 43479U 18047D   26210.86993290  .00000054  00000+0  12250-4 0  9996
2 43479  86.3918  70.4780 0002079  86.4319 273.7114 14.34217904428609
IRIDIUM 147             
1 43480U 18047E   26210.52743387  .00000047  00000+0  95596-5 0  9998
2 43480  86.3921  70.6275 0002292  86.1780 273.9677 14.34217740428550
IRIDIUM 110             
1 43481U 18047F   26210.88261801  .00000138  00000+0  42381-4 0  9998
2 43481  86.3923  70.5718 0001877  82.4302 277.7107 14.34218121428599
IRIDIUM 162             
1 43482U 18047G   26210.87048609  .00000240  00000+0  65231-4 0  9990
2 43482  86.4442  70.5071 0002271  88.5683 271.5778 14.43276595431282
IRIDIUM 160             
1 43569U 18061A   26210.96799299  .00000055  00000+0  12498-4 0  9991
2 43569  86.3938  38.9000 0002157  87.5876 272.5566 14.34217357419501
IRIDIUM 166             
1 43570U 18061B   26210.92359627  .00000053  00000+0  11811-4 0  9992
2 43570  86.3937  38.8684 0002264  88.6521 271.4934 14.34217583419527
IRIDIUM 158             
1 43571U 18061C   26210.96164878  .00000061  00000+0  14726-4 0  9996
2 43571  86.3938  38.8624 0002124  90.3668 269.7771 14.34217893419499
IRIDIUM 165             
1 43572U 18061D   26210.91725274  .00000057  00000+0  13236-4 0  9995
2 43572  86.3937  38.9282 0002294  89.4055 270.7403 14.34217566419511
IRIDIUM 155             
1 43573U 18061E   26210.94896329  .00000031  00000+0  38311-5 0  9993
2 43573  86.3934  38.7818 0002194  91.1426 269.0021 14.34217781419485
IRIDIUM 154             
1 43574U 18061F   26210.92993667  .00000048  00000+0  10073-4 0  9997
2 43574  86.3939  38.9256 0002307  87.9327 272.2133 14.34217697419530
IRIDIUM 163             
1 43575U 18061G   26210.91091012  .00000059  00000+0  14068-4 0  9990
2 43575  86.3936  38.8473 0002102  89.0526 271.0911 14.34217416419502
IRIDIUM 156             
1 43576U 18061H   26210.95530475  .00000059  00000+0  13880-4 0  9997
2 43576  86.3936  38.8362 0002227  93.1477 266.9974 14.34218146419502
IRIDIUM 164             
1 43577U 18061J   26210.93628053  .00000010  00000+0 -34365-5 0  9996
2 43577  86.3935  38.8853 0002205  88.2518 271.8930 14.34217160419540
IRIDIUM 159             
1 43578U 18061K   26210.90456604  .00000061  00000+0  14751-4 0  9996
2 43578  86.3936  38.8343 0002095  89.0372 271.1064 14.34217699419504
IRIDIUM 180             
1 43922U 19002A   26210.90406138  .00000018  00000+0 -80337-6 0  9990
2 43922  86.4004 335.7448 0001967  92.0496 268.0925 14.34217683395111
IRIDIUM 176             
1 43923U 19002B   26210.84280340  .00000735  00000+0  11262-3 0  9992
2 43923  86.6128 335.7074 0002327  92.9202 267.2281 14.72260814405520
IRIDIUM 168             
1 43924U 19002C   26210.89771922  .00000034  00000+0  52458-5 0  9995
2 43924  86.4011 335.8253 0002113  91.7425 268.4013 14.34217784395099
IRIDIUM 173             
1 43925U 19002D   26210.74549444  .00000091  00000+0  25550-4 0  9997
2 43925  86.4007 335.7762 0002182  93.9530 266.1915 14.34218748395059
IRIDIUM 169             
1 43926U 19002E   26210.95948133  .00000260  00000+0  78583-4 0  9991
2 43926  86.4239   7.3074 0002324 103.6540 256.4917 14.38605415396378
IRIDIUM 172             
1 43927U 19002F   26210.87869139  .00000127  00000+0  38260-4 0  9991
2 43927  86.4007 335.7286 0002146  93.0054 267.1387 14.34217625395084
IRIDIUM 175             
1 43928U 19002G   26210.41897959  .00000284  00000+0  77979-4 0  9997
2 43928  86.4498 272.8684 0005564  87.7162 272.4676 14.43633341405077
IRIDIUM 171             
1 43929U 19002H   26210.85966375  .00000033  00000+0  45815-5 0  9992
2 43929  86.4017 336.0473 0002280  94.9782 265.1674 14.34217870395074
IRIDIUM 170             
1 43930U 19002J   26210.84894219  .00000736  00000+0  11277-3 0  9993
2 43930  86.6127 335.7069 0002151  92.3949 267.7514 14.72267706405530
IRIDIUM 167             
1 43931U 19002K   26210.85332103 -.00000034  00000+0 -19131-4 0  9995
2 43931  86.4003 335.7619 0002369  97.2329 262.9136 14.34217339395079
IRIDIUM 181             
1 56726U 23068S   26210.95202296  .00000105  00000+0  25073-4 0  9997
2 56726  86.4474  38.9040 0002234  83.6185 276.5270 14.43310614168604
IRIDIUM 177             
1 56727U 23068T   26210.30762827  .00001081  00000+0  13938-3 0  9998
2 56727  86.1988 308.7976 0002362  98.1376 262.0113 14.80044832172599
IRIDIUM 174             
1 56728U 23068U   26210.83652538  .00000828  00000+0  12741-3 0  9993
2 56728  86.6135 335.8636 0002013  98.2211 261.9234 14.72249729172297
IRIDIUM 178             
1 56729U 23068V   26210.90523572  .00000776  00000+0  99214-4 0  9990
2 56729  86.6550   7.5076 0002356  93.8519 266.2972 14.80032761172687
IRIDIUM 179             
1 56730U 23068W   26210.96746920  .00000997  00000+0  12843-3 0  9999
2 56730  86.6780  16.5864 0002458  93.1262 267.0241 14.80039933172697
