ORBCOMM FM06            
1 25118U 97084G   26238.52565039  .00001254  00000+0  37545-3 0  9999
2 25118  45.0137  74.0578 0000124 181.9957 200.2334 14.47709131504580
ORBCOMM FM04            
1 25159U 98007C   26239.11111435  .00000705  00000+0  28628-3 0  9995
2 25159 107.9613 315.3958 0041543 204.3650 155.5527 14.35838550486776
ORBCOMM FM19            
1 25415U 98046C   26238.37323270  .00000677  00000+0  25981-3 0  9999
2 25415  44.9931 269.9108 0005664 285.4364  88.8158 14.39607114466894
ORBCOMM FM20            
1 25416U 98046D   26238.52328347  .00000513  00000+0  21394-3 0  9990
2 25416  44.9936 277.9034 0003051 268.0976  91.9523 14.38150106466918
ORBCOMM FM27            
1 25481U 98053G   26239.06101142  .00000800  00000+0  30122-3 0  9990
2 25481  45.0067 358.6939 0002146 213.3530 146.7184 14.39250785460440
ORBCOMM FM32            
1 25982U 99065C   26239.19427049  .00000645  00000+0  26180-3 0  9997
2 25982  45.0140 197.1119 0005932  30.9413 329.1784 14.37217183397303
ORBCOMM FM109           
1 40086U 14040A   26238.70750161  .00000397  00000+0  12000-3 0  9999
2 40086  47.0027 118.0572 0001386 206.7271 153.3543 14.58902282644646
ORBCOMM FM110           
1 41182U 15081D   26238.77905970  .00000498  00000+0  14122-3 0  9999
2 41182  47.0029  27.6377 0002289  36.9644 323.1399 14.58968305567934
ORBCOMM FM118           
1 41183U 15081E   26238.67700257  .00000505  00000+0  14284-3 0  9998
2 41183  47.0051  28.4721 0002636 345.8487  14.2324 14.58951314568024
ORBCOMM FM112           
1 41184U 15081F   26237.24199339  .00000438  00000+0  12864-3 0  9991
2 41184  46.9996 303.6849 0002966 186.6276 173.4571 14.58937831569035
ORBCOMM FM113           
1 41185U 15081G   26238.79638108  .00000269  00000+0  93001-4 0  9990
2 41185  47.0008 296.7502 0001913 205.4203 154.6589 14.58917183569242
ORBCOMM FM108           
1 41187U 15081J   26238.96280227  .00000502  00000+0  14224-3 0  9995
2 41187  47.0037 207.5475 0001919 191.6197 168.4645 14.58958775570418
ORBCOMM FM117           
1 41188U 15081K   26238.92894321  .00000303  00000+0  10022-3 0  9999
2 41188  47.0000 206.3251 0002428 193.7638 166.3181 14.58940666570453
ORBCOMM FM116           
1 41189U 15081L   26238.49845291  .00000466  00000+0  13448-3 0  9999
2 41189  47.0027 298.1586 0001129 337.4507  22.6329 14.58943753569201
