IRIDIUM 7               
1 24793U 97020B   26036.60603530  .00000490  00000+0  16139-3 0  9998
2 24793  86.3911  79.0772 0002577  89.7964 270.3528 14.36160571505394
IRIDIUM 5               
1 24795U 97020D   26036.81074612  .00011711  00000+0  90287-3 0  9990
2 24795  86.3917 335.7709 0104030  19.6315 340.8873 14.97218425520384
IRIDIUM 4               
1 24796U 97020E   26036.72140684  .00000501  00000+0  16234-3 0  9999
2 24796  86.3904  75.7473 0002402  93.1064 267.0409 14.37067908506008
IRIDIUM 914             
1 24836U 97030A   26036.55521942  .00000584  00000+0  17530-3 0  9997
2 24836  86.3890  83.7344 0003048 122.4066 237.7428 14.41132516640735
IRIDIUM 16              
1 24841U 97030F   26036.72784844  .00000611  00000+0  19200-3 0  9991
2 24841  86.4022 107.2085 0003476  57.7860 302.3675 14.38957312500586
IRIDIUM 911             
1 24842U 97030G   26036.72514992  .00000747  00000+0  19570-3 0  9997
2 24842  86.4442 105.7190 0015539  45.9071 314.3409 14.47983980508877
IRIDIUM 17              
1 24870U 97034B   26036.78689882  .00000685  00000+0  21988-3 0  9996
2 24870  86.4000 136.6077 0001751  48.2845 311.8503 14.38093970497157
IRIDIUM 920             
1 24871U 97034C   26036.71571204  .00000603  00000+0  17855-3 0  9996
2 24871  86.3978 115.3219 0012667  40.3277 319.8860 14.41798513500229
IRIDIUM 26              
1 24903U 97043A   26036.34791760  .00000676  00000+0  21999-3 0  9996
2 24903  86.3971  12.6012 0002335  83.5906 276.5557 14.37386448490233
IRIDIUM 22              
1 24907U 97043E   26036.33285751  .00000537  00000+0  17746-3 0  9998
2 24907  86.3969  16.3466 0002128  85.1351 275.0089 14.36171837490237
DUMMY MASS 1            
1 24925U 97048A   26036.70994968  .00000712  00000+0  75917-4 0  9991
2 24925  86.3333  27.2520 0008374  51.6057 308.5919 14.87241975539835
DUMMY MASS 2            
1 24926U 97048B   26036.50926744  .00000636  00000+0  67826-4 0  9992
2 24926  86.3330  28.9954 0009416  60.4902 299.7261 14.86991245539570
IRIDIUM 29              
1 24944U 97051A   26036.54895028  .00000592  00000+0  19439-3 0  9997
2 24944  86.3917  45.9124 0002061  92.0491 268.0942 14.36716154486779
IRIDIUM 33              
1 24946U 97051C   26036.51245864  .00000381  00000+0  12661-3 0  9999
2 24946  86.3833  45.2128 0009354  47.4147 312.7837 14.35080733486203
IRIDIUM 28              
1 24948U 97051E   26036.58449389  .00000355  00000+0  11174-3 0  9995
2 24948  86.3926  43.2808 0002604  80.0391 280.1100 14.37609387487370
IRIDIUM 36              
1 24967U 97056C   26036.51140068  .00000523  00000+0  16718-3 0  9992
2 24967  86.3914  74.9423 0002231  84.9020 275.2432 14.37843886485746
IRIDIUM 39              
1 25042U 97069D   26036.75621720  .00000987  00000+0  25137-3 0  9995
2 25042  86.3909 111.0367 0015739 242.2020 117.7589 14.49611204482796
IRIDIUM 38              
1 25043U 97069E   26036.79764281  .00000682  00000+0  21727-3 0  9993
2 25043  86.3997 134.9631 0003799  75.3106 284.8513 14.38386221479532
IRIDIUM 42              
1 25077U 97077A   26036.74390124  .00000611  00000+0  20127-3 0  9990
2 25077  86.4012 141.4451 0002882  89.5256 270.6271 14.36596250474729
IRIDIUM 44              
1 25078U 97077B   26036.76204236  .00000524  00000+0  15856-3 0  9997
2 25078  86.3976 122.7403 0002224  44.8129 315.3249 14.40489429477325
IRIDIUM 45              
1 25104U 97082A   26036.76315760  .00037761  00000+0  96717-3 0  9996
2 25104  86.3528 293.4908 0091585 167.3471 193.0112 15.34934596487700
IRIDIUM 24              
1 25105U 97082B   26036.77776095  .00000851  00000+0  25124-3 0  9994
2 25105  86.3952 341.2034 0012577  34.9792 325.2232 14.42404302476887
IRIDIUM 51              
1 25262U 98018A   26036.73523405  .00341193  00000+0  16636-2 0  9993
2 25262  86.3659 297.6837 0038718  59.4357 301.0730 15.80402970483272
IRIDIUM 57              
1 25273U 98019B   26036.53932885  .00000492  00000+0  16253-3 0  9990
2 25273  86.3918  47.3879 0002289  86.8383 273.3075 14.36099755458273
IRIDIUM 63              
1 25286U 98021B   26036.85561070  .00000702  00000+0  23141-3 0  9994
2 25286  86.4025 344.0896 0001988  89.4481 270.6944 14.36797144457390
IRIDIUM 69              
1 25319U 98026A   26036.35520581  .00000827  00000+0  24995-3 0  9999
2 25319  86.4008 356.8472 0002553  27.0991 333.0341 14.41283881456648
IRIDIUM 71              
1 25320U 98026B   26036.61610102  .00000817  00000+0  24618-3 0  9990
2 25320  86.4013 351.4078 0003913  63.2084 296.9516 14.41374372457216
IRIDIUM 73              
1 25344U 98032C   26036.77152169  .00000928  00000+0  22446-3 0  9994
2 25344  86.4434 307.6108 0001583  77.3379 282.8004 14.52086580464453
IRIDIUM 82              
1 25467U 98051A   26036.80457619  .00096206  00000+0  14299-2 0  9993
2 25467  86.3619 353.2624 0058731 116.1374 244.5945 15.52806883459929
