GLOBALSTAR M069         
1 31573U 07020C   26228.34463766 -.00000105  00000+0 -11483-3 0  9994
2 31573  52.0031  81.8558 0001091 287.6106 243.3918 12.23473303886165
GLOBALSTAR M072         
1 31574U 07020D   26228.51673970 -.00000050  00000+0  46265-3 0  9998
2 31574  51.9943 299.6353 0001533  84.0451 289.2142 11.91659484882176
GLOBALSTAR M066         
1 32265U 07048C   26228.45452647 -.00000088  00000+0  56567-4 0  9993
2 32265  51.9567 244.9041 0004886 167.7344 340.3139 12.30390877867649
GLOBALSTAR M079         
1 37188U 10054A   26228.31963175 -.00000091  00000+0  72324-4 0  9994
2 37188  52.0040 285.6213 0000742 122.6671 314.2776 12.62267016730143
GLOBALSTAR M074         
1 37189U 10054B   26228.41137407 -.00000079  00000+0  13803-3 0  9999
2 37189  52.0019 284.5990 0000411 132.5709 240.9383 12.62262530730768
GLOBALSTAR M076         
1 37190U 10054C   26228.43789793 -.00000082  00000+0  11958-3 0  9997
2 37190  52.0028 284.7266 0000626 139.5591 234.5129 12.62263236730482
GLOBALSTAR M077         
1 37191U 10054D   26228.47198635 -.00000088  00000+0 -18880-3 0  9999
2 37191  51.9980  26.2824 0002087 290.0823 101.7939 11.67547835728183
GLOBALSTAR M075         
1 37192U 10054E   26228.53001600 -.00000085  00000+0  10216-3 0  9993
2 37192  51.9973 326.4638 0000614 104.8830 269.1700 12.62268246729568
GLOBALSTAR M073         
1 37193U 10054F   26228.22821175 -.00000107  00000+0 -19378-4 0  9992
2 37193  52.0038 241.5294 0000483 132.1616 307.9468 12.62267631731515
GLOBALSTAR M083         
1 37739U 11033A   26228.65733140 -.00000111  00000+0 -40614-4 0  9999
2 37739  51.9847 188.3679 0000419 102.0417  69.5209 12.62258346700586
GLOBALSTAR M088         
1 37740U 11033B   26227.99043245 -.00000078  00000+0  14588-3 0  9998
2 37740  52.0210  96.9709 0000694  65.3198  73.9133 12.62269901696043
GLOBALSTAR M091         
1 37741U 11033C   26228.00909046 -.00000105  00000+0 -90017-5 0  9997
2 37741  52.0000  59.7911 0000970  77.2335  86.9735 12.62264517696832
GLOBALSTAR M085         
1 37742U 11033D   26228.44258616 -.00000112  00000+0 -45107-4 0  9993
2 37742  52.0147   9.8157 0000992  94.2971 300.6794 12.62264525697406
GLOBALSTAR M081         
1 37743U 11033E   26228.18224657 -.00000112  00000+0 -47175-4 0  9990
2 37743  51.9980  12.9754 0000836 102.8745  68.5774 12.62265727697515
GLOBALSTAR M089         
1 37744U 11033F   26228.43842154 -.00000096  00000+0  45908-4 0  9999
2 37744  51.9953 326.3450 0000424 124.5065 312.9229 12.62262690698394
GLOBALSTAR M084         
1 38040U 11080A   26228.63064716 -.00000100  00000+0  21063-4 0  9995
2 38040  51.9990 193.2705 0000072 120.3280  50.7443 12.62269955676393
GLOBALSTAR M080         
1 38041U 11080B   26228.10733307 -.00000110  00000+0 -33113-4 0  9998
2 38041  52.0040 196.6050 0000691  47.0927  33.5692 12.62258195676458
GLOBALSTAR M082         
1 38042U 11080C   26228.21614841 -.00000091  00000+0  72328-4 0  9990
2 38042  52.0068 151.7784 0000758  58.8751  88.0155 12.62274915677171
GLOBALSTAR M092         
1 38043U 11080D   26228.51080801 -.00000110  00000+0 -34641-4 0  9996
2 38043  52.0069 241.2841 0000239 107.4360  58.0253 12.62268328675662
GLOBALSTAR M090         
1 38044U 11080E   26228.48565619 -.00000081  00000+0  12439-3 0  9994
2 38044  52.0117 144.9340 0000727  75.1063  95.5927 12.62269869677323
GLOBALSTAR M086         
1 38045U 11080F   26228.50657654 -.00000086  00000+0  98077-4 0  9997
2 38045  51.9894 144.7000 0001038 152.3682  19.4506 12.62288523677276
GLOBALSTAR M097         
1 39072U 13005A   26228.50103166 -.00000105  00000+0 -91523-5 0  9994
2 39072  52.0049  59.7330 0000927  84.0313 276.0659 12.62271340624529
GLOBALSTAR M093         
1 39073U 13005B   26228.47439605 -.00000104  00000+0 -21377-5 0  9990
2 39073  52.0110  53.1852 0001092  93.1562 266.9430 12.62266744624478
GLOBALSTAR M094         
1 39074U 13005C   26228.63265586 -.00000101  00000+0  16566-4 0  9993
2 39074  51.9984 326.7629 0000838 112.7313 247.3643 12.62264286626106
GLOBALSTAR M096         
1 39075U 13005D   26228.40846590 -.00000115  00000+0 -64091-4 0  9991
2 39075  52.0093  16.2903 0001022  94.0429 266.0555 12.62275869624996
GLOBALSTAR M078         
1 39076U 13005E   26227.98591611 -.00000161  00000+0 -31910-3 0  9999
2 39076  51.9871 101.5076 0001529  52.2026 307.8979 12.62260887623569
GLOBALSTAR M095         
1 39077U 13005F   26228.01253731 -.00000080  00000+0  13047-3 0  9993
2 39077  52.0075  99.1142 0001147  69.3590 290.7400 12.62264308623421
GLOBALSTAR M087         
1 52888U 22064A   26228.42155452 -.00000103  00000+0  25923-5 0  9993
2 52888  51.9980 239.0742 0000493 100.4165 259.6757 12.62262537198741
