KUIPER-00008            
1 63724U 25088A   26071.91668981  .00009860  00000+0  12307-2 0  9996
2 63724  51.9001  73.1460 0006345  81.3375 259.6373 14.82888600  5742
KUIPER-00009            
1 63725U 25088B   26071.48415097  .00004134  00000+0  57048-3 0  9998
2 63725  51.9020  94.2815 0007871 104.9301 255.2533 14.79969771 48199
KUIPER-00010            
1 63726U 25088C   26072.01660918  .00000115  00000+0  44136-4 0  9993
2 63726  51.8997  68.3801 0000696  96.9025 263.2016 14.79931125 48221
KUIPER-00011            
1 63727U 25088D   26071.43463392  .00003731  00000+0  51920-3 0  9991
2 63727  51.9003  78.5205 0000996 103.3932 256.7141 14.79847842 48166
KUIPER-00012            
1 63728U 25088E   26071.95715623  .00001253  00000+0  19351-3 0  9995
2 63728  51.9029  61.1308 0000843  75.4915 284.6141 14.79889791 48404
KUIPER-00013            
1 63729U 25088F   26071.28049979  .00003695  00000+0  51427-3 0  9998
2 63729  51.9012  96.6401 0002122  62.7816 297.3363 14.79865917 47955
KUIPER-00014            
1 63730U 25088G   26071.48158124 -.00002588  00000+0 -31113-3 0  9997
2 63730  51.9007  96.7224 0000564  52.8653 307.2361 14.79870345 47783
KUIPER-00015            
1 63731U 25088H   26071.48478763  .00003244  00000+0  41676-3 0  9995
2 63731  51.8990 105.9016 0009466  81.5773 278.6264 14.83623098 48115
KUIPER-00016            
1 63732U 25088J   26071.47891100  .00004136  00000+0  57119-3 0  9999
2 63732  51.8995  99.2645 0006464  82.9569 277.2129 14.79940642 47742
KUIPER-00018            
1 63733U 25088K   26071.42369057 -.00006365  00000+0 -80688-3 0  9991
2 63733  51.9023  88.4774 0000755 110.4175 249.6868 14.79921937 47891
KUIPER-00019            
1 63734U 25088L   26071.42478758  .00001075  00000+0  17006-3 0  9996
2 63734  51.9004  87.0050 0000688  99.1025 261.0015 14.79923877 47915
KUIPER-00020            
1 63735U 25088M   26071.35331630  .00004127  00000+0  56879-3 0  9998
2 63735  51.9009  91.3086 0006538  89.0962 271.0749 14.80027379 48051
KUIPER-00021            
1 63736U 25088N   26071.35173203  .00004106  00000+0  56648-3 0  9990
2 63736  51.9004  92.3113 0003487  89.4174 270.7188 14.79997390 47877
KUIPER-00023            
1 63737U 25088P   26071.48597747  .00000577  00000+0  10500-3 0  9993
2 63737  51.8995  93.1809 0008348 106.2874 253.9007 14.79898348 48173
KUIPER-00024            
1 63738U 25088Q   26071.43182858 -.00000907  00000+0 -89966-4 0  9994
2 63738  51.9056  80.9830 0000543  67.5620 292.5400 14.79926966 48464
KUIPER-00025            
1 63739U 25088R   26071.45684242  .00004457  00000+0  56303-3 0  9991
2 63739  51.9023  89.0476 0000654  20.6745 339.4245 14.83554552 48210
KUIPER-00027            
1 63740U 25088S   26071.42911712  .00006098  00000+0  82818-3 0  9998
2 63740  51.9017  83.4707 0000970  87.6013 272.5060 14.79933912 48029
KUIPER-00028            
1 63741U 25088T   26072.00593763  .00003523  00000+0  49123-3 0  9998
2 63741  51.8993  78.3897 0001108  64.4602 295.6475 14.79907605 48550
KUIPER-00029            
1 63742U 25088U   26071.91668981  .00034639  00000+0  45435-2 0  9996
2 63742  51.9010  76.3283 0000862  98.2502 132.4312 14.79987405  5770
KUIPER-00030            
1 63743U 25088V   26071.48030869  .00004357  00000+0  59901-3 0  9995
2 63743  51.9005  98.2039 0010884  78.6190 281.5994 14.80004255 48041
KUIPER-00031            
1 63744U 25088W   26072.00516149  .00004235  00000+0  53463-3 0  9997
2 63744  51.8995  80.9415 0001852 148.8410 211.2664 14.83697557 48045
KUIPER-00032            
1 63745U 25088X   26071.85349026  .00016327  00000+0  44700-3 0  9997
2 63745  51.8703   8.9232 0005290 122.2836 237.8663 15.37459750 50034
KUIPER-00033            
1 63746U 25088Y   26071.51853823  .00004649  00000+0  58683-3 0  9995
2 63746  51.9002 113.2759 0000994  48.0618 312.0431 14.83508232 48037
KUIPER-00034            
1 63747U 25088Z   26070.73284781 -.00108226  00000+0 -13376-1 0  9996
2 63747  51.9016  79.1099 0000732  61.1345 298.9692 14.82997740 48129
KUIPER-00035            
1 63748U 25088AA  26071.51279493  .00005075  00000+0  64056-3 0  9997
2 63748  51.8990 101.3159 0003907  79.1298 281.0105 14.83345226 47935
KUIPER-00037            
1 63749U 25088AB  26071.47772524  .00004076  00000+0  56338-3 0  9990
2 63749  51.8991 100.7300 0000831  83.1385 276.9671 14.79933162 48729
KUIPER-00038            
1 63750U 25088AC  26071.22396879  .00001849  00000+0  27185-3 0  9993
2 63750  51.9022  86.8858 0000761 103.1745 256.9302 14.79864934 47890
KUIPER-00039            
1 64500U 25134A   26071.60156901 -.00002560  00000+0 -30666-3 0  9992
2 64500  51.9003 220.2152 0001262  69.2354 290.8744 14.79960580 40501
KUIPER-00040            
1 64501U 25134B   26071.65658726  .00004290  00000+0  59070-3 0  9990
2 64501  51.8996 231.1124 0012590 276.8499  83.1031 14.79951296 40353
KUIPER-00041            
1 64502U 25134C   26071.80305332  .00004556  00000+0  64350-3 0  9992
2 64502  51.8986 231.9426 0007075 276.9808  83.0349 14.78766171 40359
KUIPER-00042            
1 64503U 25134D   26071.72665111 -.00006861  00000+0 -87071-3 0  9996
2 64503  51.8981 228.1597 0006865 290.6820  69.3406 14.79961569 40401
KUIPER-00043            
1 64504U 25134E   26071.91668981  .00002423  00000+0  34611-3 0  9996
2 64504  51.9000 218.7600 0001219  55.1470   4.5653 14.80018068  5616
KUIPER-00044            
1 64505U 25134F   26071.85647659  .00004379  00000+0  60233-3 0  9990
2 64505  51.8985 232.5853 0007850 287.4189  72.5914 14.79977177 40354
KUIPER-00046            
1 64506U 25134G   26071.86090643  .00004826  00000+0  66148-3 0  9995
2 64506  51.8971 229.0263 0000733 107.1512 252.9530 14.79943024 40405
KUIPER-00047            
1 64507U 25134H   26071.75447232  .00004720  00000+0  68834-3 0  9991
2 64507  51.8981 202.3476 0002372 147.1857 212.9252 14.77320324 40760
KUIPER-00048            
1 64508U 25134J   26071.55283903  .00005429  00000+0  74022-3 0  9996
2 64508  51.8979 202.9170 0000807  95.9391 264.1663 14.79951270 40744
KUIPER-00049            
1 64509U 25134K   26071.70894573  .00005862  00000+0  73483-3 0  9996
2 64509  51.8994 215.3809 0001485 141.7364 218.3706 14.83382141 40583
KUIPER-00050            
1 64510U 25134L   26071.56285766  .00008099  00000+0  71417-3 0  9990
2 64510  51.8904 198.8995 0004269 329.2110  30.8609 14.97187386 40805
KUIPER-00051            
1 64511U 25134M   26071.58510161  .00006045  00000+0  74909-3 0  9991
2 64511  51.9003 212.8956 0000693 100.8516 259.2526 14.83811925 40602
KUIPER-00053            
1 64513U 25134P   26071.67985356  .00003093  00000+0  43435-3 0  9995
2 64513  51.9003 209.8730 0000619 170.7030 189.3944 14.79946856 40654
KUIPER-00054            
1 64514U 25134Q   26071.75280971 -.00014754  00000+0 -19099-2 0  9992
2 64514  51.8978 204.5198 0000443  18.6047 341.4932 14.79948065 40739
KUIPER-00055            
1 64515U 25134R   26071.66239766  .00019001  00000+0  86614-3 0  9995
2 64515  51.8891 165.7619 0001889  30.5610 329.5480 15.20668629 41271
KUIPER-00056            
1 64516U 25134S   26071.78280172 -.00126765  00000+0 -16168-1 0  9999
2 64516  51.9032 209.4574 0000591  70.9809 289.1218 14.81816467 40677
KUIPER-00057            
1 64517U 25134T   26071.91668981 -.00003077  00000+0 -35719-3 0  9998
2 64517  51.8979 216.3368 0000403 166.0694 225.3026 14.81887950  4401
KUIPER-00058            
1 64518U 25134U   26071.81225507  .00005076  00000+0  69435-3 0  9992
2 64518  51.8997 211.7251 0000693  89.9912 270.1130 14.79936108 40646
KUIPER-00059            
1 64519U 25134V   26071.81774594  .00005585  00000+0  76165-3 0  9991
2 64519  51.8983 206.7530 0000866 177.7713 182.3253 14.79898742 40712
KUIPER-00060            
1 64520U 25134W   26071.83335648  .00022048  00000+0  28439-2 0  9991
2 64520  51.9003 206.7188 0002262 130.6484 133.1858 14.80924035  3971
KUIPER-00061            
1 64521U 25134X   26071.60694633 -.00004995  00000+0 -62688-3 0  9997
2 64521  51.9003 215.1887 0001176 127.8486 232.2583 14.79920977 40566
KUIPER-00062            
1 64522U 25134Y   26071.94186921 -.00002375  00000+0 -28262-3 0  9991
2 64522  51.8951 216.2400 0000311  76.5734 283.5263 14.79938089 40597
KUIPER-00063            
1 64523U 25134Z   26071.79871712 -.00002670  00000+0 -32136-3 0  9997
2 64523  51.9021 224.3529 0000664 166.5456 193.5524 14.79929780 40465
KUIPER-00064            
1 64524U 25134AA  26071.80138030 -.00011901  00000+0 -15346-2 0  9999
2 64524  51.9005 221.7601 0001029 109.7377 250.3697 14.79938999 40507
KUIPER-00065            
1 64525U 25134AB  26071.72849152 -.00000811  00000+0 -77429-4 0  9995
2 64525  51.9048 227.2394 0000509 117.4026 242.6988 14.79940813 40408
KUIPER-00066            
1 64526U 25134AC  26071.65521067  .00020308  00000+0  86029-3 0  9996
2 64526  51.8709 169.9803 0001651   2.9141 357.1849 15.23129346 41212
KUIPER-00069            
1 64816U 25151A   26071.95553318  .00004542  00000+0  62436-3 0  9992
2 64816  51.9011 266.1828 0000579 104.3215 255.7812 14.79935016 37245
KUIPER-00070            
1 64817U 25151B   26071.75972827  .00004247  00000+0  58563-3 0  9999
2 64817  51.9005 291.9865 0000892 109.8808 250.2251 14.79942926 36875
KUIPER-00071            
1 64818U 25151C   26071.96456235  .00004293  00000+0  59494-3 0  9998
2 64818  51.9013 288.5984 0000901  80.5988 279.5076 14.79706886 35752
KUIPER-00072            
1 64819U 25151D   26071.95275645  .00003544  00000+0  49337-3 0  9995
2 64819  51.8972 268.6375 0001039 116.6601 243.4468 14.79954162 36034
KUIPER-00073            
1 64820U 25151E   26071.32348979  .00000546  00000+0  10065-3 0  9994
2 64820  51.9006 291.4284 0000565 130.2877 229.8134 14.79924908 36840
KUIPER-00074            
1 64821U 25151F   26071.91668981  .02582980  00000+0  10804+0 0  9994
2 64821  51.9035 274.1512 0002786 350.5067 255.8986 15.19183050  4939
KUIPER-00075            
1 64822U 25151G   26071.75777391  .00058086  00000+0  13566-2 0  9997
2 64822  51.8705 206.8454 0004121 293.2796  66.7758 15.41622262 36879
KUIPER-00076            
1 64823U 25151H   26071.99760301  .00004383  00000+0  59498-3 0  9993
2 64823  51.9009 278.3384 0000831  31.9412 328.1601 14.80547400 35907
KUIPER-00077            
1 64824U 25151J   26070.85373223  .00003534  00000+0  48917-3 0  9992
2 64824  51.9018 288.5064 0000816 209.9627 150.1289 14.80212799 35662
KUIPER-00078            
1 64825U 25151K   26071.97317493  .00004293  00000+0  59191-3 0  9993
2 64825  51.9000 281.0689 0000989  70.9115 289.1955 14.79920993 35869
KUIPER-00079            
1 64826U 25151L   26070.92085957  .00004229  00000+0  58337-3 0  9995
2 64826  51.8998 290.6956 0000740  88.8020 271.3027 14.79931603 36837
KUIPER-00080            
1 64827U 25151M   26071.96772451  .00004755  00000+0  65239-3 0  9996
2 64827  51.8998 286.0746 0000821 100.7656 259.3399 14.79930645 35790
KUIPER-00082            
1 64828U 25151N   26071.94743327  .00000170  00000+0  51273-4 0  9996
2 64828  51.9002 273.6967 0000490 103.0665 257.0352 14.79925329 35969
KUIPER-00083            
1 64829U 25151P   26071.93935351  .00003997  00000+0  55299-3 0  9997
2 64829  51.9009 281.2226 0000717 104.5504 255.5538 14.79933179 37042
KUIPER-00084            
1 64830U 25151Q   26071.59087474 -.00005875  00000+0 -74264-3 0  9997
2 64830  51.9006 292.7477 0000274  96.9627 263.1367 14.79913440 35664
KUIPER-00085            
1 64831U 25151R   26071.77868035  .00004010  00000+0  55501-3 0  9999
2 64831  51.9030 274.4715 0000756 100.6406 259.4641 14.79912276 35936
KUIPER-00086            
1 64832U 25151S   26071.97046098  .00004408  00000+0  60699-3 0  9994
2 64832  51.9009 283.5930 0000885  70.9331 289.1727 14.79924319 35826
KUIPER-00087            
1 64833U 25151T   26071.92176126  .00004065  00000+0  56181-3 0  9996
2 64833  51.8990 266.2883 0000540  64.9752 295.1266 14.79940339 36059
KUIPER-00089            
1 64834U 25151U   26071.98327602 -.00016487  00000+0 -21488-2 0  9994
2 64834  51.8999 271.0203 0001006  85.5126 274.5951 14.79739120 36002
KUIPER-00090            
1 64835U 25151V   26071.72187266  .00004153  00000+0  57331-3 0  9999
2 64835  51.8967 264.7132 0000642  80.2221 279.8814 14.79940124 36061
KUIPER-00091            
1 64836U 25151W   26071.92002276  .00003939  00000+0  54597-3 0  9991
2 64836  51.8999 268.8242 0001067 122.1933 237.9133 14.79890181 36024
KUIPER-00092            
1 64837U 25151X   26071.97857294  .00004269  00000+0  58888-3 0  9999
2 64837  51.9006 276.0539 0000881  96.0870 264.0193 14.79918439 37145
KUIPER-00093            
1 64838U 25151Y   26071.97577736  .00004461  00000+0  61447-3 0  9999
2 64838  51.9000 278.5465 0000893  84.6982 275.4082 14.79883255 35895
KUIPER-00094            
1 64839U 25151Z   26071.70160788  .00008524  00000+0  62288-3 0  9994
2 64839  51.8887 248.5281 0005600 300.4204  59.6215 15.04362575 36299
KUIPER-00081            
1 65132U 25171A   26071.55814620 -.00004987  00000+0 -62579-3 0  9991
2 65132  51.8992 135.3848 0001282  14.4782 345.6216 14.79921828 33468
KUIPER-00088            
1 65133U 25171B   26071.91668981 -.00025963  00000+0 -33893-2 0  9992
2 65133  51.8984 151.3105 0000808  86.0151 126.0257 14.79938728  3372
KUIPER-00095            
1 65134U 25171C   26071.96610116 -.00177317  00000+0 -23666-1 0  9992
2 65134  51.8967 131.1608 0001648  91.3585 268.7566 14.80253566 33553
KUIPER-00096            
1 65135U 25171D   26071.64871765  .00006514  00000+0  88276-3 0  9995
2 65135  51.8978 144.9945 0000663 111.8737 248.2296 14.79926411 33338
KUIPER-00097            
1 65136U 25171E   26071.64602233  .00002990  00000+0  42104-3 0  9992
2 65136  51.9020 147.6400 0001642  12.2477 347.8525 14.79939897 33284
KUIPER-00098            
1 65137U 25171F   26071.50826913  .00004899  00000+0  67098-3 0  9990
2 65137  51.8989 150.6247 0001191 188.9440 171.1501 14.79946793 32588
KUIPER-00099            
1 65138U 25171G   26071.48613049  .00004592  00000+0  63044-3 0  9999
2 65138  51.9023 140.7154 0000639  34.6021 325.4983 14.79969881 33373
KUIPER-00100            
1 65139U 25171H   26071.58927219  .00003307  00000+0  46264-3 0  9996
2 65139  51.9003 137.7319 0000816  68.6321 291.4728 14.79929610 33429
KUIPER-00102            
1 65140U 25171J   26071.38331759  .00004657  00000+0  63710-3 0  9998
2 65140  51.8971 141.1597 0000460  63.8940 296.2070 14.80089110 33359
KUIPER-00103            
1 65141U 25171K   26071.66899791  .00005532  00000+0  75424-3 0  9993
2 65141  51.8984 157.3920 0001022 136.6694 223.4349 14.79924474 33151
KUIPER-00104            
1 65142U 25171L   26071.41234994  .00005002  00000+0  68465-3 0  9994
2 65142  51.9013 145.9939 0000488  86.8010 273.3008 14.79936722 33292
KUIPER-00105            
1 65143U 25171M   26071.43802777  .00003459  00000+0  48321-3 0  9990
2 65143  51.8997 153.4993 0001398 114.7338 245.3770 14.79868225 33198
KUIPER-00106            
1 65144U 25171N   26071.38025257 -.00005385  00000+0 -43854-3 0  9993
2 65144  51.8934 142.7475 0008035 107.6528 252.5319 14.97180323 33345
KUIPER-00107            
1 65145U 25171P   26071.59188544 -.00000898  00000+0 -88757-4 0  9992
2 65145  51.9005 135.2565 0001203  31.4026 328.7008 14.79934834 33468
KUIPER-00108            
1 65146U 25171Q   26071.40965864  .00004939  00000+0  67627-3 0  9991
2 65146  51.9020 148.5803 0000468 170.2235 189.8737 14.79939334 33267
KUIPER-00109            
1 65147U 25171R   26071.38125935  .00005042  00000+0  68950-3 0  9992
2 65147  51.9012 143.6485 0000648  95.9851 264.1186 14.79956956 33329
KUIPER-00110            
1 65148U 25171S   26071.60496641  .00005130  00000+0  69985-3 0  9990
2 65148  51.8992 155.2532 0001524 209.0768 151.0110 14.80030066 33178
KUIPER-00111            
1 65149U 25171T   26071.42970564  .00005146  00000+0  70512-3 0  9997
2 65149  51.8960 160.9279 0000519 113.0468 247.0549 14.79831648 33084
KUIPER-00112            
1 65150U 25171U   26071.61702764  .00004888  00000+0  66712-3 0  9994
2 65150  51.9013 142.6533 0000258  49.4363 310.6622 14.80100314 33352
KUIPER-00114            
1 65151U 25171V   26071.49477366  .00002296  00000+0  33002-3 0  9995
2 65151  51.8965 163.1963 0000513 125.9940 234.1070 14.79935733 33051
KUIPER-00115            
1 65152U 25171W   26071.43514048 -.00001989  00000+0 -23194-3 0  9990
2 65152  51.9005 155.9514 0001041  50.1214 309.9840 14.79932562 33153
KUIPER-00116            
1 65153U 25171X   26071.66622625  .00001125  00000+0  17652-3 0  9999
2 65153  51.8992 159.9686 0000681 299.5284  60.5610 14.79933910 33116
KUIPER-00118            
1 65154U 25171Y   26071.46009668  .00005279  00000+0  71783-3 0  9993
2 65154  51.9001 163.3251 0000508  50.1221 309.9786 14.80115822 33059
KUIPER-00119            
1 65155U 25171Z   26071.40639191  .00004895  00000+0  66831-3 0  9999
2 65155  51.8995 151.1515 0000654 162.5836 197.5149 14.80084342 33215
KUIPER-00120            
1 65762U 25217A   26071.30601867  .00002231  00000+0  32154-3 0  9995
2 65762  51.8993  41.4984 0000804 118.1940 241.9103 14.79932644 25128
KUIPER-00132            
1 65763U 25217B   26071.99311473  .00050001  00000+0  12378-2 0  9995
2 65763  51.8609 347.4663 0006731 343.6592  16.4177 15.39913550 25936
KUIPER-00133            
1 65764U 25217C   26071.88001658 -.00000255  00000+0 -44229-5 0  9996
2 65764  51.9056  39.0133 0002049  42.8124 317.2998 14.79934667 25216
KUIPER-00139            
1 65765U 25217D   26071.83636590  .00009933  00000+0  76938-3 0  9991
2 65765  51.8866  19.3949 0007153 330.3024  29.7541 15.01962803 25483
KUIPER-00142            
1 65766U 25217E   26072.00031344 -.00000394  00000+0 -22719-4 0  9991
2 65766  51.9024  20.9516 0000160 107.3731 252.7249 14.79931185 25472
KUIPER-00145            
1 65767U 25217F   26071.86241027  .00005161  00000+0  70538-3 0  9992
2 65767  51.9017  24.0737 0000676  72.4698 287.6339 14.79942662 25414
KUIPER-00147            
1 65768U 25217G   26071.89353966  .00001363  00000+0  20774-3 0  9999
2 65768  51.9011  26.4280 0000655 142.2429 217.8580 14.79936991 25380
KUIPER-00148            
1 65769U 25217H   26071.85030790  .00013717  00000+0  86116-3 0  9991
2 65769  51.8804  10.0138 0007719   3.8733 356.2301 15.09518754 25611
KUIPER-00150            
1 65770U 25217J   26071.61197146  .00004126  00000+0  56822-3 0  9991
2 65770  51.9022  37.6764 0000917  58.4681 301.6371 14.80062139 25202
KUIPER-00151            
1 65771U 25217K   26071.89093114 -.00000489  00000+0 -35055-4 0  9998
2 65771  51.9027  28.9480 0000915  82.1523 277.9543 14.79953169 25355
KUIPER-00152            
1 65772U 25217L   26072.00570793  .00002194  00000+0  31674-3 0  9991
2 65772  51.9029  15.9313 0000741  88.6475 271.4572 14.79923965 25546
KUIPER-00153            
1 65773U 25217M   26071.91668981 -.00062593  00000+0 -41726-2 0  9997
2 65773  51.8823  12.6146 0010484 334.2498  37.3732 15.06741176  5634
KUIPER-00155            
1 65774U 25217N   26071.81419090  .00017853  00000+0  75548-3 0  9999
2 65774  51.8784 356.7330 0005543 331.0926  28.9747 15.23243736 25798
KUIPER-00156            
1 65775U 25217P   26071.84219087  .00001153  00000+0  18022-3 0  9997
2 65775  51.9028  11.6903 0001798  78.0814 282.0350 14.79946592 25586
KUIPER-00158            
1 65776U 25217Q   26071.57222589  .00006567  00000+0  87565-3 0  9991
2 65776  51.8979  32.7002 0001273  62.1905 297.9187 14.80602536 25276
KUIPER-00163            
1 65777U 25217R   26071.91668981  .01665350  00000+0  94371-1 0  9993
2 65777  51.8969  31.9140 0001956 121.6631 117.5023 15.09341062  4656
KUIPER-00165            
1 65778U 25217S   26071.15615485  .00004963  00000+0  67964-3 0  9997
2 65778  51.9016  24.6912 0000789 108.0020 252.1028 14.79927958 25341
KUIPER-00166            
1 65779U 25217T   26071.81120602  .00005555  00000+0  75650-3 0  9992
2 65779  51.9045   9.3185 0000842  76.7681 283.3375 14.79962043 25615
KUIPER-00167            
1 65780U 25217U   26071.21285404  .00001369  00000+0  20850-3 0  9991
2 65780  51.8962  34.4041 0000553 131.7127 228.3883 14.79938496 25214
KUIPER-00168            
1 65781U 25217V   26071.83951832  .00005479  00000+0  74728-3 0  9994
2 65781  51.9018  14.1715 0000767 104.0201 256.0846 14.79920871 25556
KUIPER-00169            
1 65782U 25217W   26071.83520472  .00005501  00000+0  75058-3 0  9990
2 65782  51.9020  19.2045 0000906 100.5524 259.5541 14.79898301 25480
KUIPER-00170            
1 65783U 25217X   26071.55828657  .00005680  00000+0  77316-3 0  9993
2 65783  51.9008  25.3985 0000834 113.8726 246.2324 14.79948466 25377
KUIPER-00172            
1 65785U 25217Z   26071.91668981 -.00024000  00000+0 -33927-2 0  9995
2 65785  51.8997   4.5620 0001584   0.0553  35.3760 14.76539730  4205
KUIPER-00173            
1 65786U 25217AA  26071.87488053  .00005018  00000+0  74495-3 0  9993
2 65786  51.9027  18.3957 0000758 131.0511 229.0516 14.76438121 25495
KUIPER-00174            
1 65787U 25217AB  26071.87327767  .00000978  00000+0  15737-3 0  9992
2 65787  51.9073  14.0514 0000650  74.2230 285.8805 14.79899962 25551
KUIPER-00176            
1 65788U 25217AC  26071.18165414 -.00002954  00000+0 -35863-3 0  9996
2 65788  51.9014  32.0779 0000669  94.0299 266.0740 14.79933261 25241
KUIPER-00101            
1 65947U 25228A   26071.73417089  .00001453  00000+0  21953-3 0  9990
2 65947  51.9007 347.1204 0000327 118.2156 241.8839 14.79934323 23681
KUIPER-00113            
1 65948U 25228B   26071.77338539  .00005317  00000+0  72612-3 0  9998
2 65948  51.8995 341.9598 0000653  86.4414 273.6623 14.79916645 23759
KUIPER-00117            
1 65949U 25228C   26071.73687647  .00005405  00000+0  73727-3 0  9998
2 65949  51.9020 344.6272 0000669  58.6430 301.4598 14.79941500 23710
KUIPER-00121            
1 65950U 25228D   26071.77608279  .00005397  00000+0  73655-3 0  9998
2 65950  51.9012 339.4454 0000857 117.1582 242.9468 14.79919659 23798
KUIPER-00122            
1 65951U 25228E   26071.76526070  .00098502  00000+0  12789-1 0  9995
2 65951  51.9026 349.4734 0001947  71.9615 288.1560 14.79841693 23653
KUIPER-00123            
1 65952U 25228F   26072.00160804  .00001979  00000+0  28848-3 0  9990
2 65952  51.9006 348.4489 0000692  73.0088 287.0950 14.79930786 23687
KUIPER-00124            
1 65953U 25228G   26071.73957450  .00005189  00000+0  70911-3 0  9996
2 65953  51.9025 342.0966 0000680 105.5686 254.5352 14.79936062 23757
KUIPER-00125            
1 65954U 25228H   26071.68815410  .00001325  00000+0  20280-3 0  9992
2 65954  51.9008 327.3480 0000742  94.2872 265.8176 14.79943048 23959
KUIPER-00126            
1 65955U 25228J   26071.02506415  .00005115  00000+0  69887-3 0  9990
2 65955  51.9011 350.2764 0000841 101.9624 258.1433 14.79971651 23575
KUIPER-00127            
1 65956U 25228K   26071.73388190  .00002653  00000+0  40927-3 0  9995
2 65956  51.9026 338.6451 0001280 189.1802 170.9135 14.76339465 23803
KUIPER-00128            
1 65957U 25228L   26070.99942071  .00005036  00000+0  68921-3 0  9999
2 65957  51.9020 342.9065 0000804 104.5556 255.5496 14.79925389 23679
KUIPER-00129            
1 65958U 25228M   26071.71401547  .00004445  00000+0  61258-3 0  9998
2 65958  51.9015 334.7327 0001060  67.7604 292.3471 14.79869390 23854
KUIPER-00130            
1 65959U 25228N   26071.74496203  .00005272  00000+0  71992-3 0  9990
2 65959  51.9046 337.1017 0000696  88.3709 271.7333 14.79936010 14112
KUIPER-00134            
1 65960U 25228P   26071.63908881  .00039765  00000+0  10269-2 0  9993
2 65960  51.8754 306.0950 0005064 337.8101  22.2666 15.38734518 24240
KUIPER-00135            
1 65961U 25228Q   26071.98136332  .00005333  00000+0  72872-3 0  9999
2 65961  51.9037 336.1184 0000661 105.7863 254.3172 14.79887826 23855
KUIPER-00136            
1 65962U 25228R   26071.74765806  .00005186  00000+0  70899-3 0  9991
2 65962  51.9022 334.6241 0001221 118.2065 241.9021 14.79917001 23857
KUIPER-00137            
1 65963U 25228S   26071.74933369  .00015009  00000+0  20624-2 0  9998
2 65963  51.9065 332.0670 0001410 144.9346 215.1709 14.78490387 23893
KUIPER-00138            
1 65964U 25228T   26071.71925010 -.00002041  00000+0 -23896-3 0  9999
2 65964  51.9002 329.6965 0000869  83.3887 276.7175 14.79901284 23925
KUIPER-00140            
1 65965U 25228U   26071.71660777  .00003309  00000+0  46294-3 0  9999
2 65965  51.9001 332.2915 0000716  99.5564 260.5480 14.79928933 23887
KUIPER-00141            
1 65966U 25228V   26071.99203233 -.00001222  00000+0 -13128-3 0  9994
2 65966  51.9038 326.0847 0002147  34.5897 325.5205 14.79910061 23993
KUIPER-00146            
1 65967U 25228W   26071.74226107  .00003898  00000+0  58464-3 0  9994
2 65967  51.9046 329.5873 0000923  74.7314 285.3749 14.76509345 23925
KUIPER-00149            
1 65968U 25228X   26071.99469829  .00005238  00000+0  71603-3 0  9992
2 65968  51.9020 323.4909 0001394  90.0691 270.0432 14.79902401 24039
KUIPER-00154            
1 65969U 25228Y   26071.69347902 -.00007838  00000+0 -10007-2 0  9997
2 65969  51.9000 322.3196 0000965 146.1611 213.9413 14.79918126 24027
KUIPER-00157            
1 65970U 25228Z   26071.69086937  .00003889  00000+0  53820-3 0  9998
2 65970  51.9021 324.9472 0001246  80.1701 279.9402 14.79986050 23982
KUIPER-00144            
1 67133U 25301A   26071.96658028  .00039022  00000+0  10149-2 0  9993
2 67133  51.8693  49.1886 0007967  45.6643 314.4996 15.38510340 14244
KUIPER-00164            
1 67134U 25301B   26071.91668981 -.01903769  00000+0 -14558+0 0  9994
2 67134  51.8879  52.3754 0004756 103.4272 263.5877 15.05254719  5886
KUIPER-00175            
1 67135U 25301C   26071.32943567  .00028631  00000+0  94722-3 0  9994
2 67135  51.8784  52.4465 0002227  56.5418 303.5779 15.31108954 14214
KUIPER-00179            
1 67136U 25301D   26071.91668981  .00012599  00000+0  92447-3 0  9992
2 67136  51.8880  51.9844 0002896  82.4923 206.4961 15.03802156  5834
KUIPER-00181            
1 67137U 25301E   26071.96658680  .00003241  00000+0  49200-3 0  9996
2 67137  51.9026  62.6896 0001941  99.8554 260.2626 14.76443119 14213
KUIPER-00183            
1 67138U 25301F   26071.96161479  .00025270  00000+0  91040-3 0  9997
2 67138  51.8670  50.5166 0014733  66.8758 293.3776 15.28311274 14393
KUIPER-00184            
1 67139U 25301G   26071.91668981 -.01096197  00000+0 -41926-1 0  9998
2 67139  51.8688  50.2218 0011643  63.4549 304.3939 15.28902406  5517
KUIPER-00186            
1 67140U 25301H   26071.95442844  .00004304  00000+0  59318-3 0  9994
2 67140  51.9021  63.6747 0000844  75.4958 284.6098 14.79935929 14049
KUIPER-00187            
1 67141U 25301J   26072.01929659  .00004397  00000+0  60527-3 0  9993
2 67141  51.9027  65.9004 0000667  90.5155 269.5884 14.79938712 14012
KUIPER-00188            
1 67142U 25301K   26071.66639120  .00051235  00000+0  13461-2 0  9992
2 67142  51.8697  50.9149 0010201  59.6024 300.5970 15.38053799 14195
KUIPER-00191            
1 67143U 25301L   26071.91668981  .00021117  00000+0  27912-2 0  9990
2 67143  51.9004  58.8702 0000692  77.3772 232.4881 14.79919740  5118
KUIPER-00196            
1 67144U 25301M   26071.16411114  .00038608  00000+0  99610-3 0  9990
2 67144  51.8708  52.8314 0003411  35.8487 324.2728 15.38784276 14127
KUIPER-00204            
1 67145U 25301N   26071.99921815  .00018127  00000+0  70411-3 0  9998
2 67145  51.8871  54.5310 0003382   8.8266 351.2775 15.26120911 14282
KUIPER-00210            
1 67146U 25301P   26071.91668981  .00007977  00000+0  10677-2 0  9991
2 67146  51.8992  58.8340 0001513 109.8999  19.4122 14.80187916  4898
KUIPER-00221            
1 67147U 25301Q   26071.98550979  .00001074  00000+0  16995-3 0  9998
2 67147  51.9018  66.0306 0000857  90.0321 270.0740 14.79901307 14014
KUIPER-00232            
1 67148U 25301R   26071.91668981  .00031799  00000+0  23066-2 0  9998
2 67148  51.8888  51.7290 0003464 148.7736 177.1433 15.03640008  5393
KUIPER-00241            
1 67149U 25301S   26071.99087398  .00004522  00000+0  62142-3 0  9997
2 67149  51.9034  61.0138 0000637 115.4814 244.6214 14.79957098 14412
KUIPER-00245            
1 67150U 25301T   26071.44261002  .00004714  00000+0  64638-3 0  9990
2 67150  51.9031  70.9552 0000513  84.9091 275.1930 14.79965200 13899
KUIPER-00246            
1 67151U 25301U   26071.91668981 -.01121437  00000+0 -12314+0 0  9995
2 67151  51.9069  53.7359 0004507  84.4037  65.8412 14.90146744  3915
KUIPER-00247            
1 67152U 25301V   26071.21016280  .00047733  00000+0  12991-2 0  9995
2 67152  51.8644  53.7870 0013978  67.7172 292.5295 15.36950532 14119
KUIPER-00248            
1 67153U 25301W   26071.95504371  .00038378  00000+0  10279-2 0  9992
2 67153  51.8665  49.8267 0011215  55.5684 304.6361 15.37580013 14409
KUIPER-00249            
1 67154U 25301X   26071.21007289  .00037550  00000+0  98506-3 0  9999
2 67154  51.8677  53.0753 0010512  53.5551 306.6404 15.38239619 14123
KUIPER-00250            
1 67155U 25301Y   26071.91668981  .00006926  00000+0  87374-3 0  9993
2 67155  51.8996  55.6831 0003203 103.3025 169.8843 14.82863580  5812
KUIPER-00251            
1 67156U 25301Z   26071.91668981 -.00512053  00000+0 -16541-1 0  9995
2 67156  51.8681  49.8914 0010854  64.7275 129.7770 15.33617782  1546
KUIPER-00252            
1 67157U 25301AA  26071.91668981 -.00172368  00000+0 -60394-2 0  9993
2 67157  51.8699  50.2689 0010568  70.5523 308.7388 15.29581283  5880
KUIPER-00261            
1 67158U 25301AB  26071.91668981  .00009275  00000+0  11864-2 0  9996
2 67158  51.9018  55.9729 0003878  95.8229 226.5962 14.81932995  5425
KUIPER-00265            
1 67159U 25301AC  26071.98009040  .00004081  00000+0  56390-3 0  9993
2 67159  51.9022  71.0627 0001083  52.2043 307.9017 14.79940117 13970
KUIPER-00159            
1 67764U 26030A   26071.75551744  .00044699  00000+0  12608-2 0  9995
2 67764  51.8850 204.3801 0005305  51.4706 308.6755 15.35950165  5563
KUIPER-00160            
1 67765U 26030B   26071.62740314  .00035835  00000+0  10199-2 0  9990
2 67765  51.8820 205.0098 0005530  62.3887 297.7660 15.35770396  5545
KUIPER-00177            
1 67766U 26030C   26071.91668981 -.01098227  00000+0 -40374-1 0  9996
2 67766  51.8846 203.5094 0002579  14.9746 187.0681 15.30294523  5485
KUIPER-00178            
1 67767U 26030D   26071.91668981 -.00947837  00000+0 -32221-1 0  9998
2 67767  51.8841 203.6683 0007538  53.7583  88.0130 15.32776302  4868
KUIPER-00180            
1 67768U 26030E   26071.91668981  .00026642  00000+0  90644-3 0  9994
2 67768  51.8806 204.2127 0014725  78.5198 147.4622 15.30148394  2308
KUIPER-00197            
1 67769U 26030F   26071.61364854  .00022408  00000+0  62765-3 0  9993
2 67769  51.8826 204.9278 0001778  60.0576 300.0587 15.36533933  5544
KUIPER-00198            
1 67770U 26030G   26071.75010705  .00032668  00000+0  91728-3 0  9993
2 67770  51.8815 204.3350 0003864  50.0974 310.0351 15.36244731  5565
KUIPER-00199            
1 67771U 26030H   26071.77999332  .00034620  00000+0  10239-2 0  9995
2 67771  51.8816 204.5267 0010957  68.1463 292.0687 15.34538938  5564
KUIPER-00200            
1 67772U 26030J   26071.79706077  .00042799  00000+0  11583-2 0  9999
2 67772  51.8807 203.9068 0001083 293.5322  66.5551 15.37266381  5573
KUIPER-00203            
1 67773U 26030K   26071.91668981  .00006861  00000+0  46102-3 0  9991
2 67773  51.8920 205.1449 0011634  71.3023   3.2013 15.07783690  4147
KUIPER-00205            
1 67774U 26030L   26071.74432951  .00042780  00000+0  11831-2 0  9999
2 67774  51.8805 204.2983 0003598  28.7003 331.4181 15.36589725  5561
KUIPER-00208            
1 67775U 26030M   26071.80310951  .00021118  00000+0  67685-3 0  9993
2 67775  51.8829 204.6825 0016021  67.0958 293.1716 15.32194773  5566
KUIPER-00209            
1 67776U 26030N   26071.94922868  .00038426  00000+0  13196-2 0  9992
2 67776  51.8839 204.1518 0013274  69.6923 290.5486 15.29678177  5587
KUIPER-00213            
1 67777U 26030P   26071.93223664  .00026079  00000+0  81949-3 0  9993
2 67777  51.8798 204.0369 0015407  74.0889 286.1792 15.32708014  5585
KUIPER-00214            
1 67778U 26030Q   26071.80127191  .00021647  00000+0  59883-3 0  9996
2 67778  51.8832 203.9405 0000554 351.6615   8.4362 15.36944551  5571
KUIPER-00215            
1 67779U 26030R   26070.73596724  .00032228  00000+0  95286-3 0  9994
2 67779  51.8834 209.5383 0010520  66.2297 293.9791 15.34588543  5402
KUIPER-00218            
1 67780U 26030S   26071.63471860  .00032970  00000+0  95182-3 0  9998
2 67780  51.8841 205.0636 0007103  58.4826 301.6853 15.35355842  5544
KUIPER-00220            
1 67781U 26030T   26071.57768530  .00036374  00000+0  10621-2 0  9991
2 67781  51.8815 205.4205 0008536  64.1453 296.0412 15.34940236  5536
KUIPER-00222            
1 67782U 26030U   26071.74189340  .00034660  00000+0  11011-2 0  9997
2 67782  51.8794 205.0095 0017381  76.7472 283.5450 15.32177597  5559
KUIPER-00223            
1 67783U 26030V   26071.78291178  .00037710  00000+0  11229-2 0  9995
2 67783  51.8835 204.5516 0012400  67.4257 292.8039 15.34266835  5566
KUIPER-00225            
1 67784U 26030W   26071.75240720  .00622202  00000+0  16523-1 0  9997
2 67784  51.8813 204.3497 0003028  38.5587 321.5615 15.35574856  5566
KUIPER-00226            
1 67785U 26030X   26071.76034215  .00035628  00000+0  11852-2 0  9990
2 67785  51.8829 205.1308 0019441  80.7069 279.6113 15.30649080  5556
KUIPER-00259            
1 67786U 26030Y   26071.76745251  .00035957  00000+0  10401-2 0  9994
2 67786  51.8816 204.4470 0008873  57.5068 302.6775 15.35239757  5566
KUIPER-00260            
1 67787U 26030Z   26071.74201264  .00038066  00000+0  10514-2 0  9993
2 67787  51.8805 204.2810 0001775  41.9993 318.1129 15.36687579  5474
KUIPER-00262            
1 67788U 26030AA  26071.73749815  .00044675  00000+0  12236-2 0  9998
2 67788  51.8819 204.2534 0000873  34.0598 326.0445 15.36877241  5561
KUIPER-00266            
1 67789U 26030AB  26071.63428499  .00029032  00000+0  96376-3 0  9998
2 67789  51.8822 205.7790 0023150  84.6260 275.7364 15.30744734  5537
KUIPER-00268            
1 67790U 26030AC  26071.74945827  .00035710  00000+0  10036-2 0  9999
2 67790  51.8845 204.3408 0002579  44.1237 315.9955 15.36176538  5565
KUIPER-00270            
1 67791U 26030AD  26071.77493407  .00038736  00000+0  11347-2 0  9992
2 67791  51.8819 204.4931 0009859  64.6977 295.5029 15.34798865  5561
KUIPER-00274            
1 67792U 26030AE  26071.62643373 -.00001118  00000+0 -25386-4 0  9992
2 67792  51.8822 205.7385 0017716  80.0932 280.2051 15.29839206  5539
KUIPER-00275            
1 67793U 26030AF  26071.77190680  .00038412  00000+0  11215-2 0  9996
2 67793  51.8845 204.4860 0009442  62.2662 297.9280 15.34909681  5561
KUIPER-00276            
1 67794U 26030AG  26071.62935788  .00028673  00000+0  97231-3 0  9998
2 67794  51.8837 205.7554 0018967  76.1812 284.1281 15.30148532  5532
KUIPER-00279            
1 67795U 26030AH  26071.63174160  .00032397  00000+0  92933-3 0  9991
2 67795  51.8802 205.0349 0006295  54.7585 305.3989 15.35569097  5540
