GLOBALSTAR M001         
1 25162U 98008A   26068.84286200 -.00000070  00000+0  20626-3 0  9999
2 25162  52.0025 280.0017 0002339  93.2270 281.0831 12.38229507276625
GLOBALSTAR M004         
1 25163U 98008B   26068.89676699 -.00000054  00000+0  27591-3 0  9990
2 25163  52.0026 323.5252 0003355 147.2523 293.5775 12.63416605295273
GLOBALSTAR M002         
1 25164U 98008C   26068.90978714 -.00000074  00000+0  54661-4 0  9997
2 25164  52.0019 293.9486 0000512 281.5268  78.5494 11.61515223214942
GLOBALSTAR M003         
1 25165U 98008D   26068.41959809 -.00000170  00000+0 -85736-3 0  9992
2 25165  51.9856 153.8820 0008718 106.2819 334.9429 12.12024444265385
GLOBALSTAR M014         
1 25306U 98023A   26068.56714122 -.00000057  00000+0  38052-3 0  9991
2 25306  51.9823 212.4464 0001837 119.9406 320.2516 11.65485001222116
GLOBALSTAR M006         
1 25307U 98023B   26068.87199298 -.00000048  00000+0  56482-3 0  9994
2 25307  51.9927 274.0842 0002396 217.8338 242.4918 11.58177902247612
GLOBALSTAR M015         
1 25308U 98023C   26068.94171167 -.00000056  00000+0  39115-3 0  9991
2 25308  51.9853  24.5576 0012566 188.4130 247.7912 11.48860866224621
GLOBALSTAR M008         
1 25309U 98023D   26068.97434621 -.00000076  00000+0  15863-3 0  9998
2 25309  51.9959 147.4601 0002520  27.4438 143.5498 12.36081498270712
GLOBALSTAR M023         
1 25621U 99004A   26068.89322319 -.00000082  00000+0  12416-3 0  9994
2 25621  52.0129 324.3523 0009888 358.0620  82.6102 12.62518370249296
GLOBALSTAR M040         
1 25622U 99004B   26068.89182509 -.00000089  00000+0  80134-4 0  9990
2 25622  51.9946 328.9013 0000178 263.5021 176.0587 12.62029467248809
GLOBALSTAR M036         
1 25623U 99004C   26068.90989103 -.00000052  00000+0  44627-3 0  9994
2 25623  51.9950 259.9193 0010276 196.6554 309.8301 11.86620617210521
GLOBALSTAR M038         
1 25624U 99004D   26068.29714870 -.00000085  00000+0  86084-4 0  9994
2 25624  51.9999  28.0723 0001396 246.4652 260.8014 12.32541927235066
GLOBALSTAR M022         
1 25649U 99012A   26068.90686096 -.00000062  00000+0  30291-3 0  9999
2 25649  52.0039 288.5496 0002531 355.0058 105.4184 12.02510806208341
GLOBALSTAR M041         
1 25650U 99012B   26068.49855070 -.00000105  00000+0 -25295-3 0  9992
2 25650  52.0014 179.1962 0002071 123.2948 236.8087 11.96684281210043
GLOBALSTAR M046         
1 25651U 99012C   26068.73367802 -.00000138  00000+0 -54142-3 0  9990
2 25651  52.0032 229.4584 0002641  74.0021  34.4526 12.09419102215791
GLOBALSTAR M037         
1 25652U 99012D   26068.39603995 -.00000071  00000+0  18133-3 0  9994
2 25652  51.9995  96.3819 0002120  62.2696 322.1854 12.62462583244770
GLOBALSTAR M045         
1 25676U 99019A   26068.73756161 -.00000051  00000+0  37416-3 0  9992
2 25676  51.9956 268.3877 0001049  77.3974   3.0111 12.27074439225997
GLOBALSTAR M019         
1 25677U 99019B   26068.97504964 -.00000192  00000+0 -10622-2 0  9997
2 25677  51.9886  56.7782 0001551 130.3770 246.1661 12.13886101217427
GLOBALSTAR M044         
1 25678U 99019C   26068.40687667 -.00000078  00000+0  83193-4 0  9995
2 25678  51.9987  42.8947 0006069 188.8327 339.7000 11.90262674202904
GLOBALSTAR M042         
1 25679U 99019D   26068.32865910 -.00000119  00000+0 -25207-3 0  9994
2 25679  52.0043  22.4411 0003075 119.0656  47.5482 12.22094490217678
GLOBALSTAR M025         
1 25770U 99031A   26068.95001678 -.00000058  00000+0  28392-3 0  9991
2 25770  51.9798 263.6128 0001727 194.6822 320.9261 11.22560788511559
GLOBALSTAR M049         
1 25771U 99031B   26068.85841885 -.00000048  00000+0  61192-3 0  9997
2 25771  51.9896 311.9386 0003377 100.3489 259.7688 11.12121871146986
GLOBALSTAR M047         
1 25772U 99031C   26068.86644080 -.00000059  00000+0  30429-3 0  9998
2 25772  51.9823 283.5076 0016446   2.6575 357.4316 11.31932640501195
GLOBALSTAR M052         
1 25773U 99031D   26068.31746361 -.00000081  00000+0 -51746-3 0  9995
2 25773  51.9873  58.1043 0002481 249.5766 219.6423 11.15064206508088
GLOBALSTAR M035         
1 25851U 99037A   26068.56062759 -.00000083  00000+0 -71111-3 0  9997
2 25851  51.9940 183.1525 0013878  55.8841  30.3480 11.04541336125581
GLOBALSTAR M032         
1 25852U 99037B   26068.88978494 -.00000032  00000+0  11222-2 0  9994
2 25852  52.0001 349.2883 0012266 254.9918 104.9525 11.19068826164531
GLOBALSTAR M051         
1 25853U 99037C   26068.30577817 -.00000059  00000+0  31391-3 0  9995
2 25853  51.9780 121.3256 0000632 138.6753 221.4105 11.42200594162685
GLOBALSTAR M030         
1 25854U 99037D   26068.91754036 -.00000080  00000+0 -10048-3 0  9994
2 25854  51.9863 269.0569 0004117 141.2747 218.8365 11.55103908180751
GLOBALSTAR M048         
1 25872U 99041A   26068.40713836 -.00000077  00000+0 -20122-3 0  9996
2 25872  51.9371  66.3636 0013215 283.8487 247.1016 11.33862693155064
GLOBALSTAR M026         
1 25873U 99041B   26068.94107248 -.00000020  00000+0  16090-2 0  9995
2 25873  52.0014 297.4651 0002138  10.6835  89.6895 11.06843025177910
GLOBALSTAR M043         
1 25874U 99041C   26068.60078756 -.00000049  00000+0  58471-3 0  9991
2 25874  51.9392 184.1235 0013501  47.6851  52.4269 11.25697933152767
GLOBALSTAR M028         
1 25875U 99041D   26068.49963806 -.00000054  00000+0  29714-3 0  9992
2 25875  51.9616 121.9399 0063013 287.5613  71.8370 12.50597489223379
GLOBALSTAR M024         
1 25883U 99043A   26068.46010167 -.00000032  00000+0  11537-2 0  9992
2 25883  52.0015 142.0716 0002105 162.5827 287.2916 11.10172518144327
GLOBALSTAR M027         
1 25884U 99043B   26068.69738513 -.00000009  00000+0  20715-2 0  9992
2 25884  52.0183 227.0403 0021928  61.8881 298.4126 11.04373663170576
GLOBALSTAR M054         
1 25885U 99043C   26068.99572036 -.00000067  00000+0  11585-3 0  9992
2 25885  52.0156 309.0683 0004014 279.1105 187.1886 11.39224773149341
GLOBALSTAR M053         
1 25886U 99043D   26068.73641029 -.00000063  00000+0  17554-3 0  9992
2 25886  51.9969 271.5184 0003709 157.1257 285.2252 11.27671004149408
GLOBALSTAR M058         
1 25907U 99049A   26068.52520067 -.00000069  00000+0  21075-3 0  9996
2 25907  51.9929 120.6452 0002282  72.9602 287.1482 11.93208436573217
GLOBALSTAR M050         
1 25908U 99049B   26068.55040662 -.00000095  00000+0 -79164-4 0  9991
2 25908  51.9978 108.4269 0009257 198.6372 328.1795 12.07466122180245
GLOBALSTAR M033         
1 25909U 99049C   26068.98157058 -.00000125  00000+0 -31790-3 0  9993
2 25909  51.9934 320.7214 0015134  90.3519 269.9063 12.20303926568190
GLOBALSTAR M055         
1 25910U 99049D   26068.86403026 -.00000058  00000+0  31175-3 0  9992
2 25910  52.0039 318.8607 0006717 330.0993  29.9474 12.29441624200966
GLOBALSTAR M057         
1 25943U 99058A   26068.98619987 -.00000054  00000+0  35300-3 0  9996
2 25943  52.0001 313.8622 0002098 185.0326 175.0503 12.24835222199508
GLOBALSTAR M059         
1 25944U 99058B   26068.56091715 -.00000110  00000+0 -29182-3 0  9999
2 25944  52.0008 209.2406 0001220 125.8930 313.3764 11.99994639605904
GLOBALSTAR M056         
1 25945U 99058C   26068.67052987 -.00000054  00000+0  38983-3 0  9995
2 25945  51.9952 204.1004 0000973  38.5142  63.8175 12.04786006194627
GLOBALSTAR M031         
1 25946U 99058D   26068.33769435 -.00000046  00000+0  45216-3 0  9990
2 25946  51.9956  81.4520 0001251   9.2436  92.2315 12.16050718196803
GLOBALSTAR M039         
1 25961U 99062A   26068.65444572 -.00000071  00000+0  18317-3 0  9999
2 25961  51.9840 180.1404 0002622 199.8378 160.2387 12.62342970213747
GLOBALSTAR M034         
1 25962U 99062B   26068.31258005 -.00000083  00000+0 -36273-4 0  9993
2 25962  51.9893  42.2053 0014057 181.6407 321.5371 11.79455984169675
GLOBALSTAR M029         
1 25963U 99062C   26068.25536433 -.00000088  00000+0 -23094-4 0  9993
2 25963  51.9790  97.8761 0002273 270.9585 169.0482 11.99908869200941
GLOBALSTAR M061         
1 25964U 99062D   26068.74027961 -.00000101  00000+0 -33355-3 0  9995
2 25964  51.9773 228.6581 0006912 104.9212 357.3993 11.76778217152441
GLOBALSTAR M063         
1 26081U 00008A   26068.34999118 -.00000080  00000+0  32716-4 0  9992
2 26081  51.9946 133.2204 0005033 105.3731 334.3097 11.86181242189044
GLOBALSTAR M062         
1 26082U 00008B   26068.40610822 -.00000039  00000+0  42384-3 0  9997
2 26082  51.9868  35.8385 0007290 321.6772 211.4326 12.43481346529613
GLOBALSTAR M060         
1 26083U 00008C   26068.30267911 -.00000141  00000+0 -50228-3 0  9995
2 26083  52.0044  33.6612 0003068 309.4453 195.8987 12.17675187184669
GLOBALSTAR M064         
1 26084U 00008D   26068.72897350 -.00000053  00000+0  42580-3 0  9991
2 26084  52.0009 227.9211 0001597 172.2449 187.8409 11.88542763198676
GLOBALSTAR M065         
1 31571U 07020A   26068.45570544 -.00000104  00000+0 -31994-5 0  9999
2 31571  51.9886 138.8619 0010194 173.4352 200.1566 12.62020937866903
GLOBALSTAR M069         
1 31573U 07020C   26068.61359892 -.00000104  00000+0 -10503-3 0  9991
2 31573  52.0028 173.9580 0001049 301.6272 166.6690 12.23468691866619
GLOBALSTAR M072         
1 31574U 07020D   26068.99479655 -.00000077  00000+0  96147-4 0  9990
2 31574  51.9969   4.3229 0001458 103.6008 337.1164 11.91655910863153
GLOBALSTAR M071         
1 31576U 07020F   26068.72318727 -.00000059  00000+0  31989-3 0  9997
2 31576  52.0052 206.7505 0000152 171.6815 298.1563 12.18266340527304
GLOBALSTAR M067         
1 32263U 07048A   26068.95256882 -.00000086  00000+0  83164-4 0  9992
2 32263  51.9757 338.2706 0000993 152.7939 289.1261 12.40684980842474
GLOBALSTAR M070         
1 32264U 07048B   26068.93850758 -.00000094  00000+0  52355-4 0  9990
2 32264  51.9768  38.9041 0000558  56.7906 341.8703 12.62331403847236
GLOBALSTAR M066         
1 32265U 07048C   26068.89113882 -.00000091  00000+0  26478-4 0  9990
2 32265  51.9620 342.9649 0004405 187.1245 257.5836 12.30386760848003
GLOBALSTAR M068         
1 32266U 07048D   26068.70337666 -.00000082  00000+0  11882-3 0  9991
2 32266  51.9873 212.8603 0001142  48.4906  53.9801 12.62842011851103
GLOBALSTAR M079         
1 37188U 10054A   26068.99193285 -.00000110  00000+0 -37051-4 0  9998
2 37188  52.0050  50.6327 0000551 110.1907 284.8989 12.62263858710025
GLOBALSTAR M074         
1 37189U 10054B   26068.94146587 -.00000110  00000+0 -36953-4 0  9997
2 37189  52.0023  50.0678 0000220  92.5782 312.3940 12.62266354710620
GLOBALSTAR M076         
1 37190U 10054C   26068.26802115 -.00000109  00000+0 -28769-4 0  9994
2 37190  52.0041  52.3127 0000371 130.7037 332.6435 12.62270465710252
GLOBALSTAR M077         
1 37191U 10054D   26068.90433465 -.00000092  00000+0 -24397-3 0  9997
2 37191  51.9965  71.3853 0000570 121.8392 260.7967 11.68226883709540
GLOBALSTAR M075         
1 37192U 10054E   26068.36106001 -.00000103  00000+0  24726-5 0  9991
2 37192  51.9937  94.1405 0000387 104.4804   2.0841 12.62265039709333
GLOBALSTAR M073         
1 37193U 10054F   26068.98864648 -.00000092  00000+0  65674-4 0  9991
2 37193  52.0093   6.2531 0000563  96.9542 341.8173 12.62269826711404
GLOBALSTAR M083         
1 37739U 11033A   26068.98709374 -.00000085  00000+0  10431-3 0  9991
2 37739  51.9873 314.6255 0000821  94.9846 278.3239 12.62267641680422
GLOBALSTAR M088         
1 37740U 11033B   26068.74345728 -.00000088  00000+0  90018-4 0  9999
2 37740  52.0198 221.5516 0000790 100.6824   3.6889 12.62262182675933
GLOBALSTAR M091         
1 37741U 11033C   26068.51378657 -.00000078  00000+0  14268-3 0  9993
2 37741  51.9991 185.3633 0000848 103.6138 336.8704 12.62270327676696
GLOBALSTAR M085         
1 37742U 11033D   26068.50559101 -.00000081  00000+0  12591-3 0  9999
2 37742  52.0119 136.5937 0000748 109.2580 354.2770 12.62269695677209
GLOBALSTAR M081         
1 37743U 11033E   26068.53315441 -.00000081  00000+0  12654-3 0  9990
2 37743  51.9952 139.0592 0000641 126.6073 342.2237 12.62262851677358
GLOBALSTAR M089         
1 37744U 11033F   26068.24949403 -.00000100  00000+0  20006-4 0  9993
2 37744  51.9921  94.1005 0000198 165.4705 273.7867 12.62264756678168
GLOBALSTAR M084         
1 38040U 11080A   26068.89641090 -.00000090  00000+0  76550-4 0  9990
2 38040  52.0028 319.5617 0000443  86.1758 354.0514 12.62265449656226
GLOBALSTAR M080         
1 38041U 11080B   26068.95450130 -.00000082  00000+0  12396-3 0  9999
2 38041  52.0080 321.0695 0001092  66.5328  47.2792 12.62267152656351
GLOBALSTAR M082         
1 38042U 11080C   26068.97734785 -.00000082  00000+0  11935-3 0  9991
2 38042  52.0066 276.4903 0001134  77.8834  69.7432 12.62268253657067
GLOBALSTAR M092         
1 38043U 11080D   26068.23786501 -.00000089  00000+0  82791-4 0  9990
2 38043  52.0113   9.1283 0000466  74.5582  71.0754 12.62264368655428
GLOBALSTAR M090         
1 38044U 11080E   26068.75167284 -.00000085  00000+0  10518-3 0  9992
2 38044  52.0110 271.1010 0000945  93.3649 347.2221 12.62271909657158
GLOBALSTAR M086         
1 38045U 11080F   26068.94809674 -.00000066  00000+0  20862-3 0  9992
2 38045  51.9888 270.5949 0001200 151.4075 356.9290 12.62283911657123
GLOBALSTAR M097         
1 39072U 13005A   26068.62767201 -.00000052  00000+0  29056-3 0  9995
2 39072  52.0042 186.3995 0000873 114.1777 245.9181 12.62265747604331
GLOBALSTAR M093         
1 39073U 13005B   26068.60155243 -.00000082  00000+0  12079-3 0  9991
2 39073  52.0103 179.7905 0001072 119.3938 240.7036 12.62273324604281
GLOBALSTAR M094         
1 39074U 13005C   26068.44336994 -.00000102  00000+0  10136-4 0  9994
2 39074  51.9950  94.4898 0000609 118.9989 241.0939 12.62267242605874
GLOBALSTAR M096         
1 39075U 13005D   26068.93163862 -.00000083  00000+0  11478-3 0  9998
2 39075  52.0067 141.7261 0000744 114.9040 245.1904 12.62263678604853
GLOBALSTAR M078         
1 39076U 13005E   26068.74661287 -.00000085  00000+0  10719-3 0  9991
2 39076  51.9859 226.4351 0001495  72.1047 287.9982 12.62276020603458
GLOBALSTAR M095         
1 39077U 13005F   26068.77323188 -.00000097  00000+0  35730-4 0  9994
2 39077  52.0061 223.8176 0001314  95.9758 264.1259 12.62276132603317
GLOBALSTAR M087         
1 52888U 22064A   26068.94498188 -.00000090  00000+0  77609-4 0  9990
2 52888  52.0027   4.5912 0000740  85.9375 274.1576 12.62266918178605
