GLOBALSTAR M001         
1 25162U 98008A   26090.10785384 -.00000071  00000+0  19356-3 0  9999
2 25162  52.0022 218.1022 0002166 135.5817  35.0634 12.38230330279251
GLOBALSTAR M004         
1 25163U 98008B   26090.19741259 -.00000080  00000+0  13195-3 0  9997
2 25163  51.9996 258.5378 0003141 192.1022 337.6623 12.63417888297963
GLOBALSTAR M002         
1 25164U 98008C   26090.07979983 -.00000084  00000+0 -14385-3 0  9999
2 25164  52.0002 240.8640 0000562 327.1497  32.9287 11.61515597217405
GLOBALSTAR M003         
1 25165U 98008D   26090.19117131 -.00000174  00000+0 -90058-3 0  9993
2 25165  51.9833  93.5696 0008197 147.4354 293.0800 12.12019994268029
GLOBALSTAR M014         
1 25306U 98023A   26090.16610669 -.00000060  00000+0  32408-3 0  9996
2 25306  51.9822 157.8364 0001392 162.2760 221.4029 11.65485545224639
GLOBALSTAR M006         
1 25307U 98023B   26090.11952624 -.00000063  00000+0  26830-3 0  9997
2 25307  51.9932 221.1525 0002633 259.7282 269.4025 11.58179137250070
GLOBALSTAR M015         
1 25308U 98023C   26090.10647189 -.00000076  00000+0 -53118-4 0  9999
2 25308  51.9854 332.8109 0012164 225.4155 303.7068 11.48860812227058
GLOBALSTAR M008         
1 25309U 98023D   26090.13941987 -.00000069  00000+0  21444-3 0  9993
2 25309  51.9959  86.0925 0002857  61.1789  16.7074 12.36082039273330
GLOBALSTAR M023         
1 25621U 99004A   26089.89130734 -.00000044  00000+0  33084-3 0  9997
2 25621  52.0096 260.4084 0010228  44.2005 120.6209 12.62520862251947
GLOBALSTAR M040         
1 25622U 99004B   26089.97927189 -.00000066  00000+0  21210-3 0  9997
2 25622  51.9907 264.7167 0000275  21.9044 151.0726 12.62031510251468
GLOBALSTAR M036         
1 25623U 99004C   26090.05867435 -.00000021  00000+0  89587-3 0  9998
2 25623  51.9963 204.1707 0010170 238.6704 292.4554 11.86622708213034
GLOBALSTAR M038         
1 25624U 99004D   26090.02911556 -.00000054  00000+0  33811-3 0  9995
2 25624  51.9994 325.4890 0001121 313.0313 187.7027 12.32542805237745
GLOBALSTAR M022         
1 25649U 99012A   26090.11883164 -.00000094  00000+0 -82057-4 0  9996
2 25649  52.0031 230.8805 0002596  34.5759 135.1841 12.02511688210897
GLOBALSTAR M041         
1 25650U 99012B   26090.04838064 -.00000105  00000+0 -25418-3 0  9999
2 25650  52.0003 121.2691 0001434 166.9919 193.0955 11.96682385212629
GLOBALSTAR M046         
1 25651U 99012C   26090.20256242  .00000005  00000+0  10282-2 0  9999
2 25651  52.0045 170.3116 0002319 110.6851 274.2913 12.09421887218396
GLOBALSTAR M037         
1 25652U 99012D   26090.19339375 -.00000073  00000+0  17255-3 0  9991
2 25652  52.0027  29.9964 0002415  94.4162  44.2771 12.62463613247524
GLOBALSTAR M045         
1 25676U 99019A   26090.09974993 -.00000141  00000+0 -41558-3 0  9994
2 25676  51.9966 207.4965 0000719 124.4546  46.9630 12.27074020228612
GLOBALSTAR M019         
1 25677U 99019B   26090.16695431 -.00000044  00000+0  48113-3 0  9995
2 25677  51.9910 357.8692 0001296 147.1972   0.3261 12.13882439219996
GLOBALSTAR M044         
1 25678U 99019C   26090.15684515 -.00000020  00000+0  88276-3 0  9994
2 25678  52.0001 345.1570 0005593 230.3275 297.5974 11.90264333205492
GLOBALSTAR M042         
1 25679U 99019D   26090.08434326 -.00000060  00000+0  30356-3 0  9990
2 25679  52.0031 321.0269 0002934 155.6350  10.5604 12.22095143220333
GLOBALSTAR M025         
1 25770U 99031A   26090.05760058 -.00000073  00000+0 -17053-3 0  9991
2 25770  51.9806 214.7115 0001848 235.8123 295.7150 11.22560717513929
GLOBALSTAR M049         
1 25771U 99031B   26089.80072272 -.00000076  00000+0 -36620-3 0  9991
2 25771  51.9864 264.4731 0003378 132.5334 227.5749 11.12123943149317
GLOBALSTAR M047         
1 25772U 99031C   26090.06020775 -.00000077  00000+0 -19924-3 0  9992
2 25772  51.9820 233.4458 0016433  38.7000 321.4980 11.31933183503596
GLOBALSTAR M052         
1 25773U 99031D   26090.20130082 -.00000106  00000+0 -13348-2 0  9998
2 25773  51.9910   8.2024 0002141 297.0350 215.2013 11.15063927510523
GLOBALSTAR M035         
1 25851U 99037A   26090.17647935 -.00000060  00000+0  12794-3 0  9990
2 25851  51.9924 134.9468 0013603  88.8469 304.5706 11.04541184127974
GLOBALSTAR M032         
1 25852U 99037B   26090.05932780 -.00000085  00000+0 -59111-3 0  9995
2 25852  51.9966 300.6196 0011989 290.9878  68.9639 11.19069433166906
GLOBALSTAR M051         
1 25853U 99037C   26090.18401433 -.00000060  00000+0  28750-3 0  9993
2 25853  51.9794  68.5428 0000255 125.3612 234.7222 11.42201094165182
GLOBALSTAR M030         
1 25854U 99037D   26090.03201910 -.00000043  00000+0  68581-3 0  9993
2 25854  51.9864 216.7746 0003889 179.9961 180.0856 11.55106417183193
GLOBALSTAR M048         
1 25872U 99041A   26090.17643943 -.00000064  00000+0  17577-3 0  9991
2 25872  51.9412  14.6900 0013194 324.0338 184.8286 11.33862837157539
GLOBALSTAR M026         
1 25873U 99041B   26090.18110706 -.00000025  00000+0  14327-2 0  9995
2 25873  51.9993 249.8691 0001935  47.2062 121.4791 11.06842725180269
GLOBALSTAR M043         
1 25874U 99041C   26090.16173884 -.00000009  00000+0  17490-2 0  9996
2 25874  51.9373 133.8024 0013476  82.7569 310.0868 11.25698808155190
GLOBALSTAR M028         
1 25875U 99041D   26090.15891488 -.00000076  00000+0  15843-3 0  9998
2 25875  51.9632  57.3508 0063459 335.0693  24.7108 12.50598549226087
GLOBALSTAR M024         
1 25883U 99043A   26090.15662028 -.00000091  00000+0 -91816-3 0  9997
2 25883  51.9999  93.1122 0001588 206.8843 231.3073 11.10172264146736
GLOBALSTAR M027         
1 25884U 99043B   26089.96778573 -.00000034  00000+0  11121-2 0  9994
2 25884  52.0194 179.6492 0021700  95.6324 264.6944 11.04373337172925
GLOBALSTAR M054         
1 25885U 99043C   26089.76781074 -.00000053  00000+0  46905-3 0  9993
2 25885  52.0127 259.2979 0004045 318.0624  55.0515 11.39225717151711
GLOBALSTAR M053         
1 25886U 99043D   26090.12029257 -.00000070  00000+0 -45349-4 0  9996
2 25886  51.9970 221.4678 0003682 196.0763 332.9705 11.27671153151812
GLOBALSTAR M058         
1 25907U 99049A   26090.13781074 -.00000063  00000+0  28656-3 0  9991
2 25907  51.9945  62.9283 0002293 102.8577 257.2514 11.93209300575791
GLOBALSTAR M050         
1 25908U 99049B   26089.23924030 -.00000089  00000+0 -13238-4 0  9992
2 25908  52.0008  51.6326 0008775 242.2235 257.6177 12.07465741182745
GLOBALSTAR M033         
1 25909U 99049C   26089.95018817 -.00000020  00000+0  69019-3 0  9990
2 25909  51.9901 261.7115 0015156 132.1270 228.0867 12.20304349570754
GLOBALSTAR M055         
1 25910U 99049D   26089.92062652 -.00000093  00000+0  14524-4 0  9997
2 25910  52.0009 258.5773 0006871  15.1040 345.0016 12.29442381203555
GLOBALSTAR M057         
1 25943U 99058A   26090.12200657 -.00000069  00000+0  22033-3 0  9992
2 25943  51.9974 253.8742 0001879 230.1122 129.9562 12.24837009202090
GLOBALSTAR M059         
1 25944U 99058B   26090.20812949 -.00000015  00000+0  88543-3 0  9994
2 25944  52.0001 150.6766 0000796 168.0438 229.2907 11.99995835608506
GLOBALSTAR M056         
1 25945U 99058C   26090.14067259 -.00000010  00000+0  90813-3 0  9992
2 25945  51.9948 145.4658 0001027  49.8419 336.0934 12.04788486197217
GLOBALSTAR M031         
1 25946U 99058D   26090.21237381  .00000008  00000+0  99669-3 0  9990
2 25946  51.9997  20.4007 0001863  49.6669  98.6895 12.16051093199461
GLOBALSTAR M039         
1 25961U 99062A   26090.11200231 -.00000036  00000+0  37837-3 0  9996
2 25961  51.9828 114.7822 0002472 261.6809  98.3777 12.62344307216451
GLOBALSTAR M034         
1 25962U 99062B   26090.18198588 -.00000061  00000+0  31893-3 0  9999
2 25962  51.9907 345.3603 0013562 222.1644 300.7124 11.79456217172256
GLOBALSTAR M029         
1 25963U 99062C   26090.14868038 -.00000076  00000+0  13096-3 0  9991
2 25963  51.9827  38.6248 0002459 328.9374  46.0988 11.99909339203571
GLOBALSTAR M061         
1 25964U 99062D   26090.21175137 -.00000072  00000+0  13028-3 0  9992
2 25964  51.9781 173.1290 0006506 145.0543 239.3506 11.76777333154970
GLOBALSTAR M063         
1 26081U 00008A   26090.17592326 -.00000073  00000+0  14724-3 0  9998
2 26081  51.9947  75.7337 0004624 141.1853 302.5531 11.86182591191636
GLOBALSTAR M062         
1 26082U 00008B   26089.99281332 -.00000138  00000+0 -28510-3 0  9990
2 26082  51.9875 332.3603 0007590  11.4032   1.5496 12.43483496532309
GLOBALSTAR M060         
1 26083U 00008C   26090.05583568  .00000063  00000+0  15272-2 0  9991
2 26083  52.0046 332.7715 0003259   4.0516 143.3377 12.17679449187319
GLOBALSTAR M064         
1 26084U 00008D   26090.17419107 -.00000045  00000+0  54475-3 0  9992
2 26084  52.0018 171.1885 0001453 228.2210 131.8499 11.88543322201228
GLOBALSTAR M065         
1 31571U 07020A   26090.17121721 -.00000033  00000+0  39676-3 0  9995
2 31571  51.9891  72.7619 0009527 223.2946 217.9594 12.62023584869648
GLOBALSTAR M069         
1 31573U 07020C   26090.08294201 -.00000062  00000+0  28492-3 0  9997
2 31573  52.0013 113.1905 0001638 349.7156  44.1791 12.23469995869240
GLOBALSTAR M072         
1 31574U 07020D   26090.06888530 -.00000043  00000+0  56611-3 0  9993
2 31574  51.9944 308.2213 0001614 130.8385  37.6662 11.91656852865668
GLOBALSTAR M071         
1 31576U 07020F   26090.11629319  .00000007  00000+0  97023-3 0  9990
2 31576  52.0044 146.8032 0000472 325.1440  53.2393 12.18267621529912
GLOBALSTAR M067         
1 32263U 07048A   26089.99846944 -.00000092  00000+0  36935-4 0  9994
2 32263  51.9728 276.6867 0000812 185.3370 342.2117 12.40686013845086
GLOBALSTAR M070         
1 32264U 07048B   26090.10413973 -.00000062  00000+0  23384-3 0  9992
2 32264  51.9774 334.4269 0000950  78.0749  72.4324 12.62332244849903
GLOBALSTAR M066         
1 32265U 07048C   26090.03382985 -.00000088  00000+0  57620-4 0  9992
2 32265  51.9580 282.2704 0004080 230.8010 307.3991 12.30387688850606
GLOBALSTAR M068         
1 32266U 07048D   26090.21811278 -.00000018  00000+0  47560-3 0  9999
2 32266  51.9870 147.2745 0001123  68.4964 332.6293 12.62843741853827
GLOBALSTAR M079         
1 37188U 10054A   26090.16256580 -.00000076  00000+0  15549-3 0  9997
2 37188  52.0064 346.1893 0000639 103.1469  61.2372 12.62264446712695
GLOBALSTAR M074         
1 37189U 10054B   26090.18976884 -.00000070  00000+0  18583-3 0  9991
2 37189  52.0044 345.3848 0000564  71.2844  96.2880 12.62266786713304
GLOBALSTAR M076         
1 37190U 10054C   26090.13304700 -.00000080  00000+0  13038-3 0  9991
2 37190  52.0057 345.7531 0000414  92.5860  57.5446 12.62271023713017
GLOBALSTAR M077         
1 37191U 10054D   26090.12310626 -.00000098  00000+0 -35636-3 0  9993
2 37191  52.0014  17.4661 0000646 145.0073 229.6647 11.68156274712025
GLOBALSTAR M075         
1 37192U 10054E   26090.22943552 -.00000090  00000+0  74728-4 0  9992
2 37192  51.9972  27.5548 0000549  74.0081  94.1655 12.62265233712097
GLOBALSTAR M073         
1 37193U 10054F   26090.07128319 -.00000069  00000+0  19657-3 0  9997
2 37193  52.0067 302.0802 0000685 108.2513  59.8981 12.62265961714067
GLOBALSTAR M083         
1 37739U 11033A   26090.16355098 -.00000087  00000+0  93160-4 0  9999
2 37739  51.9851 250.1319 0000772 119.9372  49.5594 12.62268879683092
GLOBALSTAR M088         
1 37740U 11033B   26089.90020947 -.00000079  00000+0  13706-3 0  9991
2 37740  52.0205 157.1737 0000412 118.3112  52.0526 12.62262627678605
GLOBALSTAR M091         
1 37741U 11033C   26090.12091718 -.00000080  00000+0  13179-3 0  9998
2 37741  51.9982 119.5811 0000448 111.5098 283.2789 12.62270722679423
GLOBALSTAR M085         
1 37742U 11033D   26090.11729810 -.00000099  00000+0  27091-4 0  9998
2 37742  52.0124  70.8132 0000518  99.7738 338.7650 12.62269967679933
GLOBALSTAR M081         
1 37743U 11033E   26090.14401449 -.00000095  00000+0  51287-4 0  9997
2 37743  51.9954  73.2573 0000259  96.8875 342.6441 12.62263310680087
GLOBALSTAR M089         
1 37744U 11033F   26090.19686816 -.00000100  00000+0  20767-4 0  9992
2 37744  51.9956  27.2717 0000406  37.8833 102.1463 12.62265219680939
GLOBALSTAR M084         
1 38040U 11080A   26089.89800253 -.00000096  00000+0  45705-4 0  9995
2 38040  51.9999 255.6232 0000508  97.0866  64.0664 12.62266069658873
GLOBALSTAR M080         
1 38041U 11080B   26090.18803300 -.00000101  00000+0  14033-4 0  9993
2 38041  52.0050 256.4320 0001211  99.3611  69.9758 12.62267922659032
GLOBALSTAR M082         
1 38042U 11080C   26090.04544465 -.00000120  00000+0 -89696-4 0  9992
2 38042  52.0070 212.3576 0001007 112.7598  58.3373 12.62268667659724
GLOBALSTAR M092         
1 38043U 11080D   26090.09966262 -.00000063  00000+0  22991-3 0  9990
2 38043  52.0089 302.5874 0000758  89.6529  87.5956 12.62265366658189
GLOBALSTAR M090         
1 38044U 11080E   26090.07204082 -.00000114  00000+0 -56106-4 0  9998
2 38044  52.0117 206.2070 0000733 125.2016  46.0255 12.62272174659842
GLOBALSTAR M086         
1 38045U 11080F   26090.09494585 -.00000106  00000+0 -14196-4 0  9994
2 38045  51.9893 206.1952 0000875 203.3814 327.7389 12.62284634659796
GLOBALSTAR M097         
1 39072U 13005A   26090.08663761 -.00000077  00000+0  14750-3 0  9998
2 39072  52.0028 121.0765 0000424 127.4263 232.6642 12.62260134607046
GLOBALSTAR M093         
1 39073U 13005B   26090.06046931 -.00000076  00000+0  15507-3 0  9991
2 39073  52.0087 114.4755 0000515 144.0708 216.0194 12.62264299606994
GLOBALSTAR M094         
1 39074U 13005C   26090.13978964 -.00000110  00000+0 -33720-4 0  9998
2 39074  51.9986  28.4292 0000503 100.3171 259.7753 12.62267138608618
GLOBALSTAR M096         
1 39075U 13005D   26090.15301940 -.00000102  00000+0  11401-4 0  9997
2 39075  52.0070  77.1269 0000418 106.9229 253.1683 12.62263939607536
GLOBALSTAR M078         
1 39076U 13005E   26090.20533058  .00000011  00000+0  64026-3 0  9999
2 39076  51.9866 161.0867 0001335 101.8980 258.2036 12.62276083606162
GLOBALSTAR M095         
1 39077U 13005F   26090.15282016 -.00000076  00000+0  15501-3 0  9995
2 39077  52.0072 158.7409 0000885 125.0097 235.0853 12.62266953606014
GLOBALSTAR M087         
1 52888U 22064A   26090.00793206 -.00000075  00000+0  16160-3 0  9998
2 52888  52.0000 300.4687 0000927 106.3234 253.7735 12.62267844181267
