ORBCOMM-X               
1 21576U 91050C   26041.15435521  .00000337  00000+0  11224-3 0  9990
2 21576  98.3128 107.5565 0003785 168.4949 191.6329 14.43495500816446
ORBCOMM FM01            
1 23545U 95017A   26040.82163964  .00010125  00000+0  95058-3 0  9990
2 23545  69.9610 199.8845 0006271 294.9786  65.0719 14.94174656647953
ORBCOMM FM02            
1 23546U 95017B   26040.82712747  .00012082  00000+0  10782-2 0  9994
2 23546  69.9613 218.0993 0007370 296.5391  63.5010 14.96097211647631
ORBCOMM FM08            
1 25112U 97084A   26041.14531741  .00001653  00000+0  49075-3 0  9990
2 25112  45.0137 304.6927 0007175  13.6264 346.4781 14.46875947475820
ORBCOMM FM10            
1 25113U 97084B   26041.23413536  .00001533  00000+0  46071-3 0  9992
2 25113  45.0150 307.1032 0005741 342.6493  17.4162 14.46605457650973
ORBCOMM FM11            
1 25114U 97084C   26041.21165301  .00001490  00000+0  45138-3 0  9990
2 25114  45.0136 308.2860 0006573 343.7080  16.3559 14.46343102475921
ORBCOMM FM12            
1 25115U 97084D   26041.23972114  .00001519  00000+0  45908-3 0  9998
2 25115  45.0143 307.8753 0005629 342.0445  18.0207 14.46371407475720
ORBCOMM FM09            
1 25116U 97084E   26041.15754467  .00001526  00000+0  46262-3 0  9991
2 25116  45.0147 309.4759 0006817 330.4141  29.6324 14.46199907475915
ORBCOMM FM05            
1 25117U 97084F   26041.23082814  .00001592  00000+0  47310-3 0  9999
2 25117  45.0143 304.2687 0003217 345.9962  14.0800 14.46984551475079
ORBCOMM FM06            
1 25118U 97084G   26041.08551978  .00001703  00000+0  50170-3 0  9997
2 25118  45.0137 304.4111 0002111 347.2443 147.2760 14.47160639475975
ORBCOMM FM07            
1 25119U 97084H   26041.20968799  .00001602  00000+0  47414-3 0  9990
2 25119  45.0134 304.5558 0004013 341.5842  18.4864 14.47164389475983
ORBCOMM FM03            
1 25158U 98007B   26041.21397041  .00001100  00000+0  42536-3 0  9999
2 25158 107.9662 264.8003 0044633 194.6841 165.3005 14.35239881458180
ORBCOMM FM04            
1 25159U 98007C   26041.22746068  .00001040  00000+0  40371-3 0  9996
2 25159 107.9648 268.2103 0040395 192.0951 167.9222 14.35469779458370
ORBCOMM FM17            
1 25413U 98046A   26040.73948068  .00000955  00000+0  37625-3 0  9993
2 25413  44.9926 215.9931 0001913 323.7730  36.2987 14.35686135437304
ORBCOMM FM18            
1 25414U 98046B   26041.28393625  .00001317  00000+0  46521-3 0  9996
2 25414  44.9922 124.2825 0002564  32.4778 327.6228 14.39366613438546
ORBCOMM FM19            
1 25415U 98046C   26041.19510514  .00001377  00000+0  48587-3 0  9995
2 25415  44.9937 127.0651 0001495  13.0941   3.5868 14.39189300438489
ORBCOMM FM20            
1 25416U 98046D   26041.28965117  .00001132  00000+0  41871-3 0  9997
2 25416  44.9935 133.1723 0001118 222.5324 137.5437 14.37832177438520
ORBCOMM FM16            
1 25417U 98046E   26041.26482087  .00001356  00000+0  47371-3 0  9995
2 25417  44.9931 121.5506 0002276  62.3406 297.7674 14.39752735438552
ORBCOMM FM15            
1 25418U 98046F   26041.23218514  .00001288  00000+0  45577-3 0  9995
2 25418  44.9962 127.5829 0002042  64.5697 295.5363 14.39375167438537
ORBCOMM FM14            
1 25419U 98046G   26041.25414825  .00001311  00000+0  45912-3 0  9991
2 25419  44.9950 124.9702 0000786  52.9745 307.1175 14.39807929438519
ORBCOMM FM13            
1 25420U 98046H   26041.24064465  .00001217  00000+0  44177-3 0  9990
2 25420  44.9966 135.4737 0003162  28.5078 331.5943 14.38377638437502
ORBCOMM FM21            
1 25475U 98053A   26039.50204903  .00000969  00000+0  36448-3 0  9992
2 25475  45.0065 229.9038 0000994 351.3199   8.7632 14.37947442431257
ORBCOMM FM22            
1 25476U 98053B   26040.46559465  .00001268  00000+0  45129-3 0  9995
2 25476  45.0057 218.1279 0002389 341.7086  18.3677 14.39162809431449
ORBCOMM FM23            
1 25477U 98053C   26040.99544396  .00000939  00000+0  35268-3 0  9998
2 25477  45.0065 224.5516 0001812 341.9643  18.1141 14.38206400431624
ORBCOMM FM24            
1 25478U 98053D   26040.48728932  .00001280  00000+0  45796-3 0  9990
2 25478  45.0061 223.3408 0001556 351.4566   8.6256 14.38844098431614
ORBCOMM FM25            
1 25479U 98053E   26040.46361739  .00001173  00000+0  42393-3 0  9998
2 25479  45.0053 221.7612 0003794   1.2191 358.8667 14.38811317431901
ORBCOMM FM26            
1 25480U 98053F   26040.50005144  .00001053  00000+0  39337-3 0  9991
2 25480  45.0051 219.8504 0005793  17.4982 342.6065 14.37754265431794
ORBCOMM FM27            
1 25481U 98053G   26040.65402786  .00001238  00000+0  44454-3 0  9992
2 25481  45.0038 220.9665 0000422  68.6947 291.3947 14.38852466431864
ORBCOMM FM28            
1 25482U 98053H   26041.29157044  .00001202  00000+0  43211-3 0  9999
2 25482  45.0045 155.1634 0003037  67.4103 292.7066 14.38962222432640
ORBCOMM FM30            
1 25980U 99065A   26041.01885633  .00001044  00000+0  38942-3 0  9997
2 25980  45.0321  43.4668 0004334 130.6851 229.4375 14.37920131368673
ORBCOMM FM31            
1 25981U 99065B   26041.00353112  .00001077  00000+0  40082-3 0  9993
2 25981  45.0235  36.9842 0002713 180.6367 179.4479 14.37843335368225
ORBCOMM FM32            
1 25982U 99065C   26041.06760558  .00000947  00000+0  36468-3 0  9994
2 25982  45.0158  54.8448 0004836 162.1341 197.9678 14.36906763368800
ORBCOMM FM33            
1 25983U 99065D   26041.14282580  .00000967  00000+0  34410-3 0  9995
2 25983  45.0293 307.0559 0007127 182.9900 177.0908 14.40723530370378
ORBCOMM FM36            
1 25984U 99065E   26041.06583702  .00001337  00000+0  47585-3 0  9996
2 25984  45.0397  42.9407 0002097   6.6509 353.4368 14.38902988368672
ORBCOMM FM35            
1 25985U 99065F   26041.08306374  .00000974  00000+0  36719-3 0  9990
2 25985  45.0399  49.8469 0002764 185.1718 174.9102 14.37801074369019
ORBCOMM FM34            
1 25986U 99065G   26041.05228240  .00000966  00000+0  36526-3 0  9990
2 25986  45.0394  50.4870 0001587  98.5335 261.5694 14.37724653369121
ORBCOMM FM38            
1 33060U 08031A   26041.02702683  .00001802  00000+0  24813-3 0  9996
2 33060  48.4383 260.7724 0004569 342.6798  17.3961 14.82600540950028
ORBCOMM FM41            
1 33061U 08031B   26041.06139951  .00001788  00000+0  24906-3 0  9999
2 33061  48.4420 269.2416 0003940 325.5993 188.0194 14.82140531949506
ORBCOMM FM29            
1 33062U 08031C   26041.09272216  .00001966  00000+0  27015-3 0  9997
2 33062  48.4377 276.5652 0005565 327.1129 188.1166 14.82310793949425
ORBCOMM FM39            
1 33063U 08031D   26041.13571508  .00001812  00000+0  26047-3 0  9993
2 33063  48.4401 303.3656 0006744 298.3233  61.7002 14.80708978949049
ORBCOMM FM37            
1 33064U 08031E   26041.10178382  .00001652  00000+0  23892-3 0  9991
2 33064  48.4391 291.6796 0005233 316.7675 196.2548 14.80900704949296
ORBCOMM FM40            
1 33065U 08031F   26041.03221623  .00002079  00000+0  27627-3 0  9995
2 33065  48.4402 271.7982 0006004 333.2594 181.1478 14.83504251949450
VESSELSAT 1             
1 37840U 11058C   26041.28635738  .00000378  00000+0  61369-4 0  9998
2 37840  19.9620  93.0783 0013445 286.2036  73.6889 14.11414233739986
ORBCOMM FM109           
1 40086U 14040A   26040.97881659  .00000818  00000+0  21004-3 0  9998
2 40086  47.0049 332.8469 0002069 337.8887  22.1909 14.58678321615774
ORBCOMM FM107           
1 40087U 14040B   26041.20045906  .00000869  00000+0  22040-3 0  9990
2 40087  47.0066 332.6627 0001738 291.0551  69.0149 14.58757625615882
ORBCOMM FM106           
1 40088U 14040C   26041.28702343  .00001165  00000+0  22220-3 0  9994
2 40088  47.0595 135.0627 0015479  94.6327 265.6332 14.70231332618506
ORBCOMM FM111           
1 40089U 14040D   26041.17961004  .00002851  00000+0  32717-3 0  9999
2 40089  47.0011 312.7091 0029127 253.7723 105.9969 14.88175640625656
ORBCOMM FM104           
1 40090U 14040E   26041.24653974  .00000688  00000+0  18855-3 0  9996
2 40090  47.0066   8.9405 0016420 216.1459 143.8317 14.57123618615338
ORBCOMM FM103           
1 40091U 14040F   26041.18641506  .00000777  00000+0  20147-3 0  9994
2 40091  47.0068 333.4298 0002358 291.8791  68.1844 14.58663316598846
ORBCOMM FM114           
1 41179U 15081A   26040.85982891  .00000630  00000+0  17004-3 0  9992
2 41179  47.0035 243.9184 0002381 327.0126  33.0611 14.58680860539163
ORBCOMM FM119           
1 41180U 15081B   26041.26903876  .00000757  00000+0  19714-3 0  9996
2 41180  46.9998 151.3416 0000282 353.1893   6.8989 14.58625881540474
ORBCOMM FM105           
1 41181U 15081C   26039.43421778  .00000378  00000+0  15079-3 0  9998
2 41181  47.0001 188.0990 0002109 287.2084  72.8565 14.45467760534927
ORBCOMM FM110           
1 41182U 15081D   26040.98599069  .00000750  00000+0  19574-3 0  9998
2 41182  47.0006 242.8007 0003050 214.3730 145.6959 14.58672162539059
ORBCOMM FM118           
1 41183U 15081E   26039.99308732  .00000615  00000+0  16700-3 0  9991
2 41183  47.0027 247.8030 0002841 170.5840 189.5099 14.58671667539013
ORBCOMM FM112           
1 41184U 15081F   26041.29753439  .00000940  00000+0  23587-3 0  9998
2 41184  46.9984 150.1491 0001998 313.7482  46.3238 14.58674107540420
ORBCOMM FM113           
1 41185U 15081G   26041.27477859  .00000960  00000+0  24025-3 0  9996
2 41185  47.0001 150.6209 0001585 316.3217  43.7543 14.58678102540409
ORBCOMM FM115           
1 41186U 15081H   26041.02232322  .00000956  00000+0  21853-3 0  9995
2 41186  47.0001 347.9532 0000470  15.0869 345.0033 14.63064704542595
ORBCOMM FM108           
1 41187U 15081J   26041.10050002  .00000983  00000+0  24519-3 0  9990
2 41187  47.0050  62.9745 0003248 314.4252  45.6368 14.58681020541524
ORBCOMM FM117           
1 41188U 15081K   26041.06591790  .00000960  00000+0  24026-3 0  9998
2 41188  47.0013  61.8126 0003515 322.2904  37.7735 14.58674206541565
ORBCOMM FM116           
1 41189U 15081L   26040.36165371  .00000801  00000+0  20654-3 0  9990
2 41189  47.0016 154.9215 0002362 206.6010 153.4755 14.58664283540273
