EUTELSAT 174A           
1 28924U 05052A   26192.61863230  .00000009  00000+0  00000+0 0  9993
2 28924   4.2778  76.2239 0005783  36.7704 213.1891  1.00270269 52575
EUTELSAT 33F            
1 29270U 06032A   26193.21304880  .00000156  00000+0  00000+0 0  9998
2 29270   1.7237  81.9640 0003382  26.2744 291.6306  1.00270162 47558
EUTELSAT HOTBIRD 13C    
1 33459U 08065A   26193.33656072 -.00000284  00000+0  00000+0 0  9999
2 33459   3.0123  78.8928 0003322  34.6509 247.5404  1.00271731 47597
EUTELSAT 36B            
1 36101U 09065A   26193.14525789  .00000114  00000+0  00000+0 0  9997
2 36101   0.5515  81.3020 0005708  31.4006 280.1158  1.00272500 60959
EUTELSAT KA-SAT 9A      
1 37258U 10069A   26193.20828209  .00000064  00000+0  00000+0 0  9991
2 37258   0.0616  15.6784 0004341 125.5746 232.8192  1.00270419 44259
EUTELSAT 7 WEST A       
1 37816U 11051A   26193.31433816 -.00000059  00000+0  00000+0 0  9996
2 37816   0.0642 341.0933 0004542 145.6375 269.3180  1.00270526 54122
EUTELSAT 16A            
1 37836U 11057A   26193.28093222  .00000106  00000+0  00000+0 0  9995
2 37836   0.0382  11.4944 0005818  96.3000 299.5031  1.00272722  7587
EUTELSAT 21B            
1 38992U 12062B   26193.13953786  .00000133  00000+0  00000+0 0  9990
2 38992   0.0655   7.3191 0003253 104.9757 249.5589  1.00272599 50075
EUTELSAT 70B            
1 39020U 12069A   26193.18219507 -.00000041  00000+0  00000+0 0  9990
2 39020   0.0609 354.0930 0003650 116.2386 315.8297  1.00271123 49764
EUTELSAT 117 WEST A     
1 39122U 13012A   26193.23378414 -.00000011  00000+0  00000+0 0  9998
2 39122   0.0162  41.5880 0002621  75.5508 140.3418  1.00271381 48685
EUTELSAT 7B             
1 39163U 13022A   26193.20793543  .00000050  00000+0  00000+0 0  9997
2 39163   0.0650   7.1278 0003512  39.3658 325.4615  1.00272217 48195
EXPRESS-AT1             
1 39612U 14010A   26193.24122521 -.00000003  00000+0  00000+0 0  9999
2 39612   0.3185  85.4568 0004415  54.8238 302.1848  1.00308609 45068
EXPRESS-AT2             
1 39613U 14010B   26193.14629789  .00000081  00000+0  00000+0 0  9992
2 39613   0.0172 349.7579 0000694 313.2754  95.6696  1.00272206 44742
EUTELSAT 3B             
1 39773U 14030A   26193.27841888  .00000022  00000+0  00000+0 0  9996
2 39773   0.0610 354.1757 0004070 120.0432 279.2761  1.00270092 44310
EUTELSAT 115 WEST B     
1 40425U 15010B   26193.23378414 -.00000022  00000+0  00000+0 0  9998
2 40425   0.0069 164.0275 0000372 315.8664 139.4965  1.00267192 41631
EUTELSAT 8 WEST B       
1 40875U 15039B   26193.31433816 -.00000064  00000+0  00000+0 0  9991
2 40875   0.0656 342.5431 0003881 122.6583 290.1666  1.00271684 39902
EUTELSAT 9B             
1 41310U 16005A   26193.20828209  .00000064  00000+0  00000+0 0  9991
2 41310   0.0291  53.4143 0001018  46.2324 274.4279  1.00269620 38365
EUTELSAT 65 WEST A      
1 41382U 16014A   26193.19363536 -.00000274  00000+0  00000+0 0  9999
2 41382   0.0655 316.9544 0002020 156.6438 181.0165  1.00270275 37775
EUTELSAT 117 WEST B     
1 41589U 16038B   26193.23378414 -.00000009  00000+0  00000+0 0  9996
2 41589   0.0065 165.7918 0000260 298.8739 152.6352  1.00270533 36915
EUTELSAT 172B           
1 42741U 17029B   26193.27822714 -.00000004  00000+0  00000+0 0  9994
2 42741   0.0287 131.0427 0000161 137.2074 294.0896  1.00271052 33997
EUTELSAT 7C             
1 44334U 19034B   26193.20793543  .00000051  00000+0  00000+0 0  9993
2 44334   0.0762 180.1163 0003111 276.9933 274.8644  1.00270368  7087
EUTELSAT 5 WEST B       
1 44624U 19067A   26193.31433816 -.00000040  00000+0  00000+0 0  9996
2 44624   0.0625 352.4508 0002974 120.5283 285.3853  1.00271422 24688
EUTELSAT KONNECT        
1 45027U 20005B   26193.20793543  .00000051  00000+0  00000+0 0  9993
2 45027   0.0677  93.4369 0001961 147.8036 130.9282  1.00267779 24583
EUTELSAT QUANTUM        
1 49056U 21069B   26193.21599547  .00000129  00000+0  00000+0 0  9995
2 49056   0.0182 326.4283 0001984 141.1209 308.0071  1.00269809 18176
EUTELSAT KONNECT VHTS   
1 53765U 22110A   26193.20706876  .00000019  00000+0  00000+0 0  9997
2 53765   0.0565  99.6066 0002754 348.4736 279.2657  1.00272072  7087
EUTELSAT HOTBIRD 13F    
1 54048U 22134A   26193.20914877  .00000089  00000+0  00000+0 0  9997
2 54048   0.0552 285.8231 0001880  67.4520  25.1363  1.00271661 13621
EUTELSAT HOTBIRD 13G    
1 54225U 22146A   26192.85263053  .00000091  00000+0  00000+0 0  9993
2 54225   0.0446 222.9067 0002249 322.6434  64.1524  1.00272538  7718
EUTELSAT 10B            
1 54259U 22157A   26192.99467432  .00000072  00000+0  00000+0 0  9993
2 54259   0.0583  94.8222 0002012  32.6270 170.5273  1.00274592 13273
EUTELSAT 36D            
1 59346U 24059A   26193.21365546  .00000000  00000+0  00000+0 0  9998
2 59346   0.0295  54.0992 0000287 191.0079 157.7976  1.00270969  8394
