IRIDIUM 7               
1 24793U 97020B   26104.39782264  .00000225  00000+0  70284-4 0  9990
2 24793  86.3964  50.6086 0002029  95.4790 264.6638 14.36213746515121
IRIDIUM 5               
1 24795U 97020D   26104.29598593  .00003423  00000+0  25719-3 0  9996
2 24795  86.3837 304.4901 0103213 133.7226 227.2612 14.97966760530486
IRIDIUM 4               
1 24796U 97020E   26104.53999490  .00000239  00000+0  73821-4 0  9995
2 24796  86.3967  47.2252 0002086  88.3327 271.8109 14.37123779515742
IRIDIUM 914             
1 24836U 97030A   26104.39082169  .00000271  00000+0  77847-4 0  9999
2 24836  86.3932  54.9952 0001375  43.5067 316.6241 14.41196390650508
IRIDIUM 16              
1 24841U 97030F   26104.45746566  .00000253  00000+0  75527-4 0  9993
2 24841  86.3988  78.6918 0003649 121.7487 238.4068 14.39013085510320
IRIDIUM 911             
1 24842U 97030G   26104.17072243  .00000354  00000+0  89747-4 0  9998
2 24842  86.4414  77.2430 0014488 164.7145 195.4499 14.48058398518639
IRIDIUM 17              
1 24870U 97034B   26104.41794323  .00000266  00000+0  81308-4 0  9997
2 24870  86.3905 108.1497 0003834  97.2384 262.9250 14.38149067506870
IRIDIUM 920             
1 24871U 97034C   26104.38138932  .00000263  00000+0  74241-4 0  9997
2 24871  86.3921  86.6612 0012136 157.3552 202.8186 14.41852820509975
IRIDIUM 26              
1 24903U 97043A   26104.15129095  .00000213  00000+0  64470-4 0  9996
2 24903  86.3989 344.1333 0002202  92.0927 268.0522 14.37446466499977
IRIDIUM 22              
1 24907U 97043E   26104.12410814  .00000204  00000+0  63004-4 0  9991
2 24907  86.3998 347.9424 0002285  88.2621 271.8838 14.36222269499965
DUMMY MASS 1            
1 24925U 97048A   26104.12607173  .00000223  00000+0  21594-4 0  9991
2 24925  86.3388 356.0773 0007783 142.1913 217.9860 14.87308787549854
DUMMY MASS 2            
1 24926U 97048B   26104.40777436  .00000224  00000+0  21785-4 0  9996
2 24926  86.3389 357.6086 0008107 153.1889 206.9757 14.87058385549663
IRIDIUM 29              
1 24944U 97051A   26104.45369081  .00000220  00000+0  68031-4 0  9999
2 24944  86.4007  17.4048 0002286  82.1166 278.0291 14.36773827496529
IRIDIUM 33              
1 24946U 97051C   26104.14624371  .00000164  00000+0  50691-4 0  9993
2 24946  86.3922  16.8290 0008204 160.3038 199.8477 14.35122160495905
IRIDIUM 28              
1 24948U 97051E   26104.44703087  .00000223  00000+0  67723-4 0  9990
2 24948  86.4013  14.7571 0002265 100.3326 259.8127 14.37667469497126
IRIDIUM 36              
1 24967U 97056C   26104.08452755  .00000250  00000+0  76192-4 0  9999
2 24967  86.3977  46.4951 0002419  91.3032 268.8443 14.37903028495452
IRIDIUM 39              
1 25042U 97069D   26104.40190238  .00000445  00000+0  11013-3 0  9995
2 25042  86.3864  81.9680 0018607  26.5786 333.6368 14.49702586492595
IRIDIUM 38              
1 25043U 97069E   26104.41492848  .00000273  00000+0  83098-4 0  9991
2 25043  86.3905 106.4955 0002689 134.7129 225.4289 14.38442480489257
IRIDIUM 42              
1 25077U 97077A   26104.30612713  .00000270  00000+0  84958-4 0  9993
2 25077  86.3915 113.0974 0001976 110.2115 249.9295 14.36649462484421
IRIDIUM 44              
1 25078U 97077B   26104.41986829  .00000253  00000+0  73113-4 0  9990
2 25078  86.3902  94.1409 0003975 102.6135 257.5509 14.40536650487063
IRIDIUM 45              
1 25104U 97082A   26104.42007639  .00014355  00000+0  33370-3 0  9998
2 25104  86.3479 259.8301 0083027 270.0236  89.1503 15.38543923498098
IRIDIUM 24              
1 25105U 97082B   26104.27576159  .00000279  00000+0  78198-4 0  9998
2 25105  86.3881 312.5777 0012031 153.0818 207.1009 14.42476352486616
IRIDIUM 57              
1 25273U 98019B   26104.47331924  .00000188  00000+0  57911-4 0  9995
2 25273  86.4009  18.8976 0002219  90.3193 269.8258 14.36151533468028
IRIDIUM 63              
1 25286U 98021B   26104.33871981  .00000231  00000+0  71662-4 0  9997
2 25286  86.3962 315.7905 0002225  82.6223 277.5227 14.36849818467082
IRIDIUM 69              
1 25319U 98026A   26104.32220150  .00000292  00000+0  84161-4 0  9999
2 25319  86.3976 328.1402 0004468  98.7721 261.3985 14.41356556466434
IRIDIUM 71              
1 25320U 98026B   26104.30141671  .00000167  00000+0  45319-4 0  9992
2 25320  86.3967 322.8123 0003094 129.8027 230.3446 14.41432497466961
IRIDIUM 73              
1 25344U 98032C   26104.23336858  .00000341  00000+0  78921-4 0  9999
2 25344  86.4356 278.9185 0002815  83.1620 276.9906 14.52161036474247
IRIDIUM 82              
1 25467U 98051A   26104.55468929  .00044086  00000+0  45228-3 0  9993
2 25467  86.3533 318.5366 0040943 207.5574 152.3523 15.63663115470476
