ORBCOMM-X               
1 21576U 91050C   26083.15979540  .00000316  00000+0  10607-3 0  9991
2 21576  98.3039 148.5499 0004687  69.4437 290.7257 14.43527468822506
ORBCOMM FM01            
1 23545U 95017A   26082.92086793  .00009081  00000+0  83948-3 0  9995
2 23545  69.9602  94.1672 0007394 263.3279  96.7036 14.94827428654248
ORBCOMM FM02            
1 23546U 95017B   26083.20275356  .00007686  00000+0  67406-3 0  9993
2 23546  69.9610 111.3543 0008714 263.0705  96.9462 14.96968829653972
ORBCOMM FM08            
1 25112U 97084A   26082.43323202  .00001415  00000+0  42452-3 0  9996
2 25112  45.0129 106.1229 0007891 240.7703 119.2360 14.47026357481805
ORBCOMM FM10            
1 25113U 97084B   26082.39178677  .00001178  00000+0  36220-3 0  9998
2 25113  45.0140 109.2523 0005415 216.5122 143.5361 14.46745474656932
ORBCOMM FM11            
1 25114U 97084C   26083.27465484  .00001155  00000+0  35771-3 0  9997
2 25114  45.0126 106.1629 0006270 218.6864 141.3539 14.46484530482018
ORBCOMM FM12            
1 25115U 97084D   26082.74938129  .00001162  00000+0  35942-3 0  9998
2 25115  45.0133 108.4047 0005298 218.2167 141.8310 14.46511510481736
ORBCOMM FM09            
1 25116U 97084E   26082.39594889  .00001229  00000+0  37947-3 0  9992
2 25116  45.0138 111.3665 0005954 200.2174 159.8443 14.46333500481882
ORBCOMM FM05            
1 25117U 97084F   26082.79176335  .00001291  00000+0  39012-3 0  9993
2 25117  45.0136 104.3536 0003386 238.9946 121.0574 14.47134755481093
ORBCOMM FM06            
1 25118U 97084G   26083.30920721  .00001404  00000+0  41908-3 0  9991
2 25118  45.0129 101.2465 0002690 257.7097 120.0333 14.47319178482093
ORBCOMM FM07            
1 25119U 97084H   26083.31758309  .00001319  00000+0  39596-3 0  9999
2 25119  45.0124 101.9455 0003873 230.1360 129.9151 14.47320716482082
ORBCOMM FM03            
1 25158U 98007B   26082.96206705  .00001054  00000+0  40911-3 0  9995
2 25158 107.9617 350.6566 0042628 119.4081 241.1324 14.35334358464179
ORBCOMM FM04            
1 25159U 98007C   26083.03861050  .00000933  00000+0  36631-3 0  9994
2 25159 107.9605 354.2207 0038465 116.3443 244.1655 14.35558482464379
ORBCOMM FM17            
1 25413U 98046A   26083.11588505  .00000770  00000+0  31214-3 0  9991
2 25413  44.9958  15.7894 0001396 210.3400 149.7366 14.35771596443396
ORBCOMM FM18            
1 25414U 98046B   26083.27379612  .00001001  00000+0  36348-3 0  9997
2 25414  44.9920 284.7092 0004050 249.2356 110.8059 14.39480628444593
ORBCOMM FM19            
1 25415U 98046C   26083.28902433  .00001056  00000+0  38235-3 0  9999
2 25415  44.9933 287.0581 0002842 240.5677 289.2103 14.39308321444549
ORBCOMM FM20            
1 25416U 98046D   26082.90783671  .00000797  00000+0  30823-3 0  9995
2 25416  44.9941 295.8661 0000313 290.4193  69.6622 14.37923555444516
ORBCOMM FM16            
1 25417U 98046E   26083.10456016  .00001116  00000+0  39694-3 0  9990
2 25417  44.9932 282.5688 0003805 266.0699  93.9715 14.39872355444581
ORBCOMM FM15            
1 25418U 98046F   26083.29111306  .00001034  00000+0  37396-3 0  9997
2 25418  44.9963 287.6920 0003470 268.7084  91.3368 14.39495302444596
ORBCOMM FM14            
1 25419U 98046G   26082.60649474  .00001031  00000+0  36982-3 0  9991
2 25419  44.9952 288.2946 0002299 257.8452 102.2139 14.39932516444474
ORBCOMM FM13            
1 25420U 98046H   26082.91235127  .00000875  00000+0  32995-3 0  9998
2 25420  44.9972 297.7484 0004424 244.2067 115.8325 14.38478388443505
ORBCOMM FM21            
1 25475U 98053A   26083.13158796  .00000788  00000+0  30452-3 0  9996
2 25475  45.0097  23.0699 0001373 270.5082  89.5609 14.38042395437535
ORBCOMM FM22            
1 25476U 98053B   26083.08614646  .00001128  00000+0  40552-3 0  9993
2 25476  45.0090  15.6729 0002207 223.6264 136.4411 14.39280293437588
ORBCOMM FM23            
1 25477U 98053C   26082.53321695  .00000970  00000+0  36207-3 0  9998
2 25477  45.0092  27.5500 0001636 233.0462 127.0237 14.38308284437605
ORBCOMM FM24            
1 25478U 98053D   26083.11725246  .00001026  00000+0  37547-3 0  9995
2 25478  45.0092  20.9465 0001659 248.1853 111.8819 14.38962222437750
ORBCOMM FM25            
1 25479U 98053E   26083.09467309  .00001081  00000+0  39323-3 0  9991
2 25479  45.0084  19.3713 0003937 232.7115 127.3375 14.38922223438040
ORBCOMM FM26            
1 25480U 98053F   26083.09319479  .00000841  00000+0  32311-3 0  9990
2 25480  45.0083  17.9876 0006134 241.9653 118.0575 14.37848884437920
ORBCOMM FM27            
1 25481U 98053G   26083.07550879  .00001052  00000+0  38363-3 0  9998
2 25481  45.0067  19.5512 0001500 304.1823  55.8883 14.38966697437970
ORBCOMM FM28            
1 25482U 98053H   26082.94643688  .00000811  00000+0  30573-3 0  9992
2 25482  45.0061 317.3599 0004100 273.3819  86.6561 14.39056994438641
ORBCOMM FM30            
1 25980U 99065A   26083.05144030  .00000898  00000+0  34087-3 0  9998
2 25980  45.0307 204.2971 0005689 318.6156  41.4261 14.38010839374726
ORBCOMM FM31            
1 25981U 99065B   26083.03836876  .00000833  00000+0  32000-3 0  9995
2 25981  45.0221 197.7984 0002738 338.5074  21.5659 14.37932057374278
ORBCOMM FM32            
1 25982U 99065C   26082.78229211  .00000842  00000+0  32885-3 0  9997
2 25982  45.0147 217.4522 0004886 343.6303  16.4386 14.36993137374806
ORBCOMM FM33            
1 25983U 99065D   26082.74681712  .00000779  00000+0  28545-3 0  9999
2 25983  45.0274 109.0057 0007402  14.4530 345.6530 14.40816590376373
ORBCOMM FM36            
1 25984U 99065E   26083.06931404  .00001104  00000+0  39996-3 0  9997
2 25984  45.0384 203.6140 0003994 248.1627 111.8798 14.39017312374724
ORBCOMM FM35            
1 25985U 99065F   26083.04943689  .00001035  00000+0  38661-3 0  9995
2 25985  45.0387 211.0546 0002449 341.5687  18.5073 14.37907451375055
ORBCOMM FM34            
1 25986U 99065G   26083.09063902  .00000839  00000+0  32268-3 0  9990
2 25986  45.0380 211.3795 0003745 285.7367  74.3069 14.37813440375174
ORBCOMM FM38            
1 33060U 08031A   26083.14586925  .00001944  00000+0  26441-3 0  9990
2 33060  48.4405  59.6088 0004274 175.1713 184.9245 14.82792545956276
ORBCOMM FM41            
1 33061U 08031B   26083.23458374  .00001820  00000+0  25201-3 0  9993
2 33061  48.4436  67.9796 0003380 158.4593 214.7532 14.82323194955760
ORBCOMM FM29            
1 33062U 08031C   26083.26089176  .00001796  00000+0  24799-3 0  9990
2 33062  48.4384  75.2529 0004967 156.6831 217.7910 14.82498992955689
ORBCOMM FM39            
1 33063U 08031D   26082.76907862  .00001310  00000+0  19530-3 0  9995
2 33063  48.4393 105.1177 0005708 120.0061 240.1422 14.80870078955210
ORBCOMM FM37            
1 33064U 08031E   26083.31080714  .00001401  00000+0  20602-3 0  9999
2 33064  48.4387  90.6267 0004437 146.0353 227.6909 14.81062017955556
ORBCOMM FM40            
1 33065U 08031F   26083.23324590  .00002283  00000+0  29920-3 0  9995
2 33065  48.4403  69.9562 0005516 163.0108 210.1479 14.83723809955722
VESSELSAT 1             
1 37840U 11058C   26082.99802426  .00000362  00000+0  52690-4 0  9991
2 37840  19.9609 200.6565 0013738  25.0231 335.0838 14.11423510745881
ORBCOMM FM109           
1 40086U 14040A   26082.55456289  .00000418  00000+0  12499-3 0  9999
2 40086  47.0023 136.3208 0002117 217.1162 142.9578 14.58742955621847
ORBCOMM FM107           
1 40087U 14040B   26082.84233913  .00000443  00000+0  12988-3 0  9990
2 40087  47.0042 135.8046 0000617 198.8996 161.1867 14.58828064621969
ORBCOMM FM106           
1 40088U 14040C   26083.28269299  .00000886  00000+0  17605-3 0  9998
2 40088  47.0598 293.0771 0016843 288.2815  71.6244 14.70337699624689
ORBCOMM FM111           
1 40089U 14040D   26083.33771439  .00001963  00000+0  23176-3 0  9996
2 40089  46.9990 103.8632 0027513  95.5954 264.8083 14.88420016631935
ORBCOMM FM104           
1 40090U 14040E   26082.93533609  .00000444  00000+0  13491-3 0  9990
2 40090  47.0043 172.3766 0015352  42.0101 318.1959 14.57186785621411
ORBCOMM FM103           
1 40091U 14040F   26082.48858573  .00000468  00000+0  13549-3 0  9991
2 40091  47.0043 138.2086 0000991 157.9774 202.1155 14.58731846604879
ORBCOMM FM114           
1 41179U 15081A   26083.18884121  .00000627  00000+0  16933-3 0  9998
2 41179  47.0054  43.8335 0001979 193.8100 166.2732 14.58752389545348
ORBCOMM FM119           
1 41180U 15081B   26082.91471210  .00000493  00000+0  14089-3 0  9992
2 41180  47.0010 314.4928 0001438 258.7197 101.3527 14.58695067546559
ORBCOMM FM105           
1 41181U 15081C   26082.98056497  .00000246  00000+0  11351-3 0  9991
2 41181  47.0029 346.5789 0001191 147.3288 212.7666 14.45505482541228
ORBCOMM FM110           
1 41182U 15081D   26083.17800497  .00000671  00000+0  17851-3 0  9994
2 41182  47.0027  43.3527 0002702  23.6742 336.4267 14.58758241545210
ORBCOMM FM118           
1 41183U 15081E   26083.14413466  .00000660  00000+0  17631-3 0  9992
2 41183  47.0047  43.8312 0003374 347.1518  12.9282 14.58755093545317
ORBCOMM FM112           
1 41184U 15081F   26082.94157385  .00000720  00000+0  18895-3 0  9995
2 41184  46.9995 313.2851 0001735 183.9903 176.0969 14.58761092546505
ORBCOMM FM113           
1 41185U 15081G   26082.91881115  .00000510  00000+0  14445-3 0  9992
2 41185  47.0013 313.7631 0001472 197.0910 162.9927 14.58755666546487
ORBCOMM FM115           
1 41186U 15081H   26082.88275043  .00000611  00000+0  15182-3 0  9997
2 41186  46.9977 148.6710 0001914 267.7461  92.3207 14.63147787548726
ORBCOMM FM108           
1 41187U 15081J   26083.08703334  .00000655  00000+0  17526-3 0  9992
2 41187  47.0042 224.5127 0002689 181.6079 178.4799 14.58725060547650
ORBCOMM FM117           
1 41188U 15081K   26083.05243986  .00000661  00000+0  17652-3 0  9999
2 41188  47.0006 223.3368 0003293 183.9879 176.0981 14.58756539547696
ORBCOMM FM116           
1 41189U 15081L   26082.89629399  .00000738  00000+0  19282-3 0  9993
2 41189  47.0030 313.8626 0001583  15.8091 344.2844 14.58758182546484
