KUIPER-00008            
1 63724U 25088A   26083.25002315  .00036499  00000+0  52065-2 0  9992
2 63724  51.9011  22.9754 0001887 136.8409 172.2880 14.76400370  4256
KUIPER-00009            
1 63725U 25088B   26083.14523803  .00005413  00000+0  67917-3 0  9996
2 63725  51.9042  42.4958 0006025 144.5450 215.5915 14.83470824 49927
KUIPER-00010            
1 63726U 25088C   26082.82137015  .00000271  00000+0  64557-4 0  9992
2 63726  51.9029  20.6039 0000877  84.1055 276.0007 14.79944497 49820
KUIPER-00011            
1 63727U 25088D   26083.11710504  .00004762  00000+0  65236-3 0  9999
2 63727  51.9017  26.8584 0000744 110.3752 249.7290 14.79987016 49892
KUIPER-00012            
1 63728U 25088E   26083.09960543  .00004893  00000+0  67047-3 0  9994
2 63728  51.9033  11.8617 0000938 114.2525 245.8535 14.79931116 50057
KUIPER-00013            
1 63729U 25088F   26083.16576279 -.00007496  00000+0 -95477-3 0  9994
2 63729  51.9025  44.0833 0002368  92.5926 267.5308 14.79951910 49713
KUIPER-00014            
1 63730U 25088G   26083.14276456  .00005207  00000+0  65457-3 0  9999
2 63730  51.9031  44.9359 0001643 156.7120 203.3918 14.83464619 49511
KUIPER-00015            
1 63731U 25088H   26083.22258767  .00003438  00000+0  48222-3 0  9999
2 63731  51.9008  53.8657 0001053 190.3053 169.7888 14.79710066 49853
KUIPER-00016            
1 63732U 25088J   26083.20696343  .00005141  00000+0  64540-3 0  9998
2 63732  51.9017  47.1746 0004667 124.9231 235.2172 14.83546373 49481
KUIPER-00018            
1 63733U 25088K   26083.17384849 -.00000278  00000+0 -75002-5 0  9995
2 63733  51.9040  36.5214 0000808  99.9788 260.1266 14.79933997 49636
KUIPER-00019            
1 63734U 25088L   26083.15928001  .00004778  00000+0  60286-3 0  9991
2 63734  51.9020  34.9484 0000687  83.4803 276.6240 14.83464495 49650
KUIPER-00020            
1 63735U 25088M   26083.17122987  .00004731  00000+0  64929-3 0  9990
2 63735  51.9037  39.0531 0003253 125.3189 234.8078 14.79928693 49805
KUIPER-00021            
1 63736U 25088N   26083.14714535  .00005564  00000+0  69757-3 0  9993
2 63736  51.9038  39.9219 0003025 121.7529 238.3730 14.83461732 49629
KUIPER-00023            
1 63737U 25088P   26083.16845870 -.00003223  00000+0 -39407-3 0  9994
2 63737  51.9029  41.5189 0002000 152.3309 207.7760 14.79920648 49908
KUIPER-00024            
1 63738U 25088Q   26083.11453654  .00002108  00000+0  30543-3 0  9996
2 63738  51.9056  29.3305 0000929  79.2982 280.8085 14.79941933 50190
KUIPER-00025            
1 63739U 25088R   26083.17794130  .00005051  00000+0  63288-3 0  9992
2 63739  51.9040  36.9190 0001161  49.2236 310.8828 14.83656898 49957
KUIPER-00027            
1 63740U 25088S   26083.11173914 -.00005570  00000+0 -70234-3 0  9996
2 63740  51.9027  31.8109 0001276  99.6483 260.4623 14.79923227 49757
KUIPER-00028            
1 63741U 25088T   26083.14822084  .00004961  00000+0  67831-3 0  9999
2 63741  51.9013  29.1167 0001492  78.8573 281.2557 14.79998945 50204
KUIPER-00029            
1 63742U 25088U   26083.15092320 -.00003202  00000+0 -39094-3 0  9992
2 63742  51.9043  26.6527 0000721 100.1215 259.9829 14.79955836 49761
KUIPER-00030            
1 63743U 25088V   26083.16311286  .00016430  00000+0  21827-2 0  9998
2 63743  51.9022  46.5441 0001627 126.0240 234.0873 14.79860791 49775
KUIPER-00031            
1 63744U 25088W   26083.11891395  .00005506  00000+0  68503-3 0  9993
2 63744  51.9022  31.5009 0001411 173.9312 186.1669 14.83802619 49693
KUIPER-00032            
1 63745U 25088X   26082.90233479  .00014779  00000+0  40117-3 0  9996
2 63745  51.8698 315.4715 0005143 161.1662 198.9516 15.37809268 51730
KUIPER-00033            
1 63746U 25088Y   26083.25002315 -.00026620  00000+0 -34715-2 0  9995
2 63746  51.9005  61.1898 0001608  32.3653 336.9819 14.79993269  3649
KUIPER-00034            
1 63747U 25088Z   26083.08608811  .00003486  00000+0  48622-3 0  9996
2 63747  51.9039  24.4373 0000856  69.3351 290.7703 14.79921158 49957
KUIPER-00035            
1 63748U 25088AA  26083.16816172  .00004942  00000+0  62297-3 0  9999
2 63748  51.9014  49.4930 0003997 107.9953 252.1447 14.83447682 49668
KUIPER-00037            
1 63749U 25088AB  26083.16045056  .00009428  00000+0  12637-2 0  9991
2 63749  51.9004  49.0679 0001015  99.4286 260.6791 14.79941399 50451
KUIPER-00038            
1 63750U 25088AC  26083.10937300  .00004408  00000+0  60649-3 0  9999
2 63750  51.9031  34.3320 0000861  95.2794 264.8267 14.79961030 49657
KUIPER-00039            
1 64500U 25134A   26082.94661520 -.00000167  00000+0  70342-5 0  9996
2 64500  51.9038 170.0491 0000334  64.9037 295.1960 14.79909657 42188
KUIPER-00040            
1 64501U 25134B   26082.98178620  .00005510  00000+0  69100-3 0  9999
2 64501  51.8990 180.8276 0010951 319.0698  40.9443 14.83445212 42031
KUIPER-00041            
1 64502U 25134C   26083.25002315 -.00008324  00000+0 -10469-2 0  9999
2 64502  51.8974 181.2011 0000418 157.3956  89.7468 14.80618089  5457
KUIPER-00042            
1 64503U 25134D   26083.25002315  .00020848  00000+0  25410-2 0  9995
2 64503  51.8975 177.1012 0005119 344.9336 298.3929 14.83315574  4504
KUIPER-00043            
1 64504U 25134E   26082.98034754 -.00000042  00000+0  23429-4 0  9992
2 64504  51.9018 169.8368 0000613 118.0737 242.0287 14.79936204 42199
KUIPER-00044            
1 64505U 25134F   26081.57998181  .00119385  00000+0  15214-1 0  9990
2 64505  51.8999 189.5797 0007521 322.5388  37.5050 14.80466643 41798
KUIPER-00046            
1 64506U 25134G   26083.00332464  .00001989  00000+0  28982-3 0  9995
2 64506  51.8974 179.7527 0000379  73.9684 286.1321 14.79939425 42058
KUIPER-00047            
1 64507U 25134H   26082.88809206  .00004971  00000+0  62458-3 0  9994
2 64507  51.8977 153.0241 0001617 106.2806 253.8336 14.83573913 42410
KUIPER-00048            
1 64508U 25134J   26082.89776720  .00005011  00000+0  68557-3 0  9992
2 64508  51.8987 152.7487 0000609  68.5468 291.5560 14.79949071 42420
KUIPER-00049            
1 64509U 25134K   26082.95967884  .00005556  00000+0  69574-3 0  9997
2 64509  51.8987 165.3551 0000946 184.9676 175.1279 14.83512349 42255
KUIPER-00050            
1 64510U 25134L   26083.25002315 -.00046670  00000+0 -56157-2 0  9998
2 64510  51.8985 146.2468 0002118  39.2867 149.0685 14.83610656  5527
KUIPER-00051            
1 64511U 25134M   26082.51571295  .00021905  00000+0  28979-2 0  9998
2 64511  51.9004 164.4673 0001368  82.5696 277.5422 14.79861607 42221
KUIPER-00053            
1 64513U 25134P   26082.68702109  .00001860  00000+0  27268-3 0  9997
2 64513  51.8999 161.1989 0000285 248.7909 111.3022 14.79969815 42286
KUIPER-00054            
1 64514U 25134Q   26082.89523787 -.00000457  00000+0 -30933-4 0  9991
2 64514  51.8993 155.2466 0000719  72.2806 287.8235 14.79935270 42387
KUIPER-00055            
1 64515U 25134R   26083.22795725  .00011853  00000+0  54227-3 0  9994
2 64515  51.8945 111.2551 0002345  71.4199 288.7035 15.20926909 43032
KUIPER-00056            
1 64516U 25134S   26082.51841882 -.00000651  00000+0 -56383-4 0  9994
2 64516  51.9016 161.9666 0000565  95.1691 264.9336 14.79930743 42262
KUIPER-00057            
1 64517U 25134T   26082.51026829  .00002435  00000+0  34812-3 0  9993
2 64517  51.8984 169.4616 0000485 122.2501 237.8508 14.79945806 42151
KUIPER-00058            
1 64518U 25134U   26082.95466337  .00003287  00000+0  45986-3 0  9994
2 64518  51.9000 162.4550 0000517  68.1859 291.9158 14.79943379 42292
KUIPER-00059            
1 64519U 25134V   26082.89253660 -.00002334  00000+0 -27727-3 0  9998
2 64519  51.9001 157.7809 0000400 214.4117 145.6820 14.79934221 42356
KUIPER-00060            
1 64520U 25134W   26082.92627203 -.00000737  00000+0 -67725-4 0  9990
2 64520  51.9062 157.6683 0000490  70.4160 289.6855 14.79918528 42349
KUIPER-00061            
1 64521U 25134X   26082.95197712  .00004897  00000+0  67058-3 0  9998
2 64521  51.8992 165.0231 0000628  92.8796 267.2238 14.79951768 42248
KUIPER-00062            
1 64522U 25134Y   26082.94927402  .00004862  00000+0  66540-3 0  9992
2 64522  51.8944 167.5624 0000740 103.7290 256.3754 14.79993779 42223
KUIPER-00063            
1 64523U 25134Z   26082.53602970  .00004802  00000+0  65798-3 0  9996
2 64523  51.9011 176.8743 0000039 305.9029  54.1929 14.79966359 42055
KUIPER-00064            
1 64524U 25134AA  26080.98557325  .00004240  00000+0  58505-3 0  9991
2 64524  51.9061 181.1543 0000565  80.1933 279.9093 14.79919030 41869
KUIPER-00065            
1 64525U 25134AB  26082.66833778 -.00001602  00000+0 -18122-3 0  9990
2 64525  51.9043 178.8713 0000769  70.2858 289.8187 14.79918349 42029
KUIPER-00066            
1 64526U 25134AC  26083.25002315 -.00022608  00000+0 -12027-2 0  9998
2 64526  51.8751 115.3590 0003008  78.2042  76.4437 15.14419234  5392
KUIPER-00069            
1 64816U 25151A   26082.76029910  .00001810  00000+0  26631-3 0  9991
2 64816  51.9017 218.4049 0000454  95.3175 264.7839 14.79944409 38844
KUIPER-00070            
1 64817U 25151B   26083.17227075  .00003720  00000+0  51654-3 0  9995
2 64817  51.8996 241.5178 0000710 105.4409 254.6631 14.79947094 38568
KUIPER-00071            
1 64818U 25151C   26082.70218430 -.00005945  00000+0 -75104-3 0  9998
2 64818  51.9007 241.1192 0000812  93.5954 266.5101 14.79955116 37343
KUIPER-00072            
1 64819U 25151D   26083.09516829  .00005014  00000+0  68539-3 0  9994
2 64819  51.8974 219.3613 0000610 133.4821 226.6192 14.79981074 37680
KUIPER-00073            
1 64820U 25151E   26083.14127095  .00000613  00000+0  10940-3 0  9998
2 64820  51.8990 239.1699 0000667  92.2544 267.8495 14.79929110 38597
KUIPER-00074            
1 64821U 25151F   26083.25002315  .01217719  00000+0  24270-1 0  9995
2 64821  51.8995 219.8313 0002435   3.8460 146.4176 15.43457278  4821
KUIPER-00075            
1 64822U 25151G   26082.90637717  .00037216  00000+0  86528-3 0  9994
2 64822  51.8664 152.5689 0004520   2.2268 357.8740 15.41957529 38598
KUIPER-00076            
1 64823U 25151H   26083.25002315  .00034866  00000+0  46577-2 0  9991
2 64823  51.9000 228.6983 0000347  81.4644  82.8758 14.79212563  3932
KUIPER-00077            
1 64824U 25151J   26083.14661498  .00000650  00000+0  11426-3 0  9993
2 64824  51.9016 234.1723 0000736  83.7151 276.3895 14.79907281 37481
KUIPER-00078            
1 64825U 25151K   26083.11559416 -.00000320  00000+0 -13032-4 0  9999
2 64825  51.8998 231.7965 0000709 103.8445 256.2596 14.79932751 37510
KUIPER-00079            
1 64826U 25151L   26083.14380943 -.00003029  00000+0 -36861-3 0  9993
2 64826  51.8980 236.6448 0000858  99.4912 260.6148 14.79924838 38640
KUIPER-00080            
1 64827U 25151M   26083.11019279 -.00001962  00000+0 -22850-3 0  9999
2 64827  51.9014 236.8024 0000837 109.4184 250.6869 14.79925377 37447
KUIPER-00082            
1 64828U 25151N   26083.08986294  .00000650  00000+0  11433-3 0  9992
2 64828  51.9007 224.4236 0001292  73.7779 286.3325 14.79930577 37617
KUIPER-00083            
1 64829U 25151P   26083.14935965  .00000468  00000+0  90324-4 0  9993
2 64829  51.9010 231.6512 0000752 103.5283 256.5763 14.79936566 38701
KUIPER-00084            
1 64830U 25151Q   26083.13844287  .00003900  00000+0  54024-3 0  9990
2 64830  51.9005 241.6826 0000825 110.6106 249.4945 14.79941119 37375
KUIPER-00085            
1 64831U 25151R   26083.12368606 -.00001979  00000+0 -23072-3 0  9991
2 64831  51.9031 224.3039 0000220 143.8983 216.1995 14.79935417 37616
KUIPER-00086            
1 64832U 25151S   26083.11289406 -.00002199  00000+0 -25951-3 0  9994
2 64832  51.9005 234.3207 0000933 101.0697 259.0370 14.79927096 37476
KUIPER-00087            
1 64833U 25151T   26083.06418257  .00000463  00000+0  89710-4 0  9991
2 64833  51.8984 217.0127 0000510  58.3454 301.7558 14.79939055 37704
KUIPER-00089            
1 64834U 25151U   26082.78871933  .00004138  00000+0  57141-3 0  9999
2 64834  51.9001 223.2446 0000576 123.2303 236.8715 14.79935130 37608
KUIPER-00090            
1 64835U 25151V   26083.06688301 -.00000686  00000+0 -60971-4 0  9999
2 64835  51.8964 214.5416 0000610 102.9183 257.1847 14.79932382 37748
KUIPER-00091            
1 64836U 25151W   26082.65627491  .00001110  00000+0  17461-3 0  9993
2 64836  51.8984 221.3370 0001231 114.1054 246.0037 14.79931585 37616
KUIPER-00092            
1 64837U 25151X   26083.12097372  .00004490  00000+0  61721-3 0  9998
2 64837  51.9010 226.7811 0000778  93.9740 266.1312 14.79958763 38794
KUIPER-00093            
1 64838U 25151Y   26083.11832224  .00004342  00000+0  59795-3 0  9995
2 64838  51.8983 229.2735 0000775  99.0076 261.0974 14.79954511 37549
KUIPER-00094            
1 64839U 25151Z   26082.72875606  .00009077  00000+0  65896-3 0  9992
2 64839  51.8884 197.8483 0006105 342.3697  17.7063 15.04532912 37952
KUIPER-00081            
1 65132U 25171A   26083.17326223 -.00001875  00000+0 -21698-3 0  9999
2 65132  51.8990  84.0244 0000892  61.8344 298.2708 14.79947655 35188
KUIPER-00088            
1 65133U 25171B   26083.22199528  .00002731  00000+0  38706-3 0  9990
2 65133  51.8991 101.3171 0000770  78.4819 281.6229 14.79936904 34940
KUIPER-00095            
1 65134U 25171C   26083.24353411  .00002830  00000+0  39975-3 0  9995
2 65134  51.8987  81.2883 0001237 130.6790 229.4280 14.79965963 35226
KUIPER-00096            
1 65135U 25171D   26083.19630400  .00002987  00000+0  42050-3 0  9997
2 65135  51.8990  93.9310 0000791  74.2553 285.8497 14.79946643 35040
KUIPER-00097            
1 65136U 25171E   26083.19362568  .00003003  00000+0  42271-3 0  9990
2 65136  51.9005  96.5758 0000758  73.9877 286.1169 14.79935230 34995
KUIPER-00098            
1 65137U 25171F   26083.32592068  .00002912  00000+0  41034-3 0  9990
2 65137  51.8996  98.3663 0000372 332.5043  27.5899 14.79988807 34333
KUIPER-00099            
1 65138U 25171G   26083.30318521  .00002800  00000+0  39503-3 0  9993
2 65138  51.9019  88.4556 0001188  40.8350 319.2702 14.80048862 35120
KUIPER-00100            
1 65139U 25171H   26083.27193128  .00002887  00000+0  40743-3 0  9997
2 65139  51.9009  86.0714 0000711  75.0775 285.0266 14.79938425 35151
KUIPER-00102            
1 65140U 25171J   26082.99909388  .00003086  00000+0  43387-3 0  9999
2 65140  51.8973  89.7985 0000645  56.3865 303.7159 14.79912875 35071
KUIPER-00103            
1 65141U 25171K   26083.21657463  .00002970  00000+0  41821-3 0  9992
2 65141  51.8981 106.3288 0000348 145.0352 215.0634 14.79952522 34862
KUIPER-00104            
1 65142U 25171L   26083.29765040 -.00005130  00000+0 -64508-3 0  9992
2 65142  51.9033  93.4396 0000591  36.7597 323.3406 14.79891829 35059
KUIPER-00105            
1 65143U 25171M   26083.32389654  .00002816  00000+0  39862-3 0  9991
2 65143  51.8995 100.9465 0000685 133.8767 226.2252 14.79888110 34956
KUIPER-00106            
1 65144U 25171N   26083.19497126  .00004390  00000+0  39671-3 0  9998
2 65144  51.8928  89.0595 0007707 143.5108 216.6388 14.97258236 35115
KUIPER-00107            
1 65145U 25171P   26083.20699164 -.00001326  00000+0 -14499-3 0  9996
2 65145  51.9011  83.8952 0000652  73.9521 286.1514 14.79927487 35187
KUIPER-00108            
1 65146U 25171Q   26083.29490669 -.00000509  00000+0 -37813-4 0  9993
2 65146  51.9005  96.0246 0000251  35.0324 325.0655 14.79931740 35027
KUIPER-00109            
1 65147U 25171R   26083.19900037  .00000650  00000+0  11428-3 0  9996
2 65147  51.9017  91.3923 0000702  76.7409 283.3632 14.79930816 35077
KUIPER-00110            
1 65148U 25171S   26083.21921814 -.00006143  00000+0 -77724-3 0  9992
2 65148  51.8991 103.8848 0000736 288.1922  71.8960 14.79945938 34893
KUIPER-00111            
1 65149U 25171T   26083.31532700  .00002841  00000+0  40159-3 0  9997
2 65149  51.8962 108.3692 0000309  45.8242 314.2746 14.79923360 34844
KUIPER-00112            
1 65150U 25171U   26083.30033931  .00002915  00000+0  41116-3 0  9996
2 65150  51.9016  90.9980 0000864  83.1899 276.9162 14.79932851 35080
KUIPER-00114            
1 65151U 25171V   26082.77226401  .00003024  00000+0  42537-3 0  9993
2 65151  51.8983 113.3283 0000486  72.7242 287.3774 14.79939822 34725
KUIPER-00115            
1 65152U 25171W   26083.32058812  .00003056  00000+0  42986-3 0  9998
2 65152  51.8993 103.3930 0000640  51.3125 308.7894 14.79918990 34915
KUIPER-00116            
1 65153U 25171X   26082.80873640  .00003155  00000+0  44247-3 0  9997
2 65153  51.8994 110.6949 0000528  14.8611 345.2367 14.79945267 34768
KUIPER-00118            
1 65154U 25171Y   26082.80600939  .00003030  00000+0  42656-3 0  9991
2 65154  51.8993 113.1630 0000693  89.1108 270.9934 14.79906537 34730
KUIPER-00119            
1 65155U 25171Z   26083.22463312  .00003069  00000+0  43083-3 0  9998
2 65155  51.8998  98.8956 0000782 107.9375 252.1673 14.79985687 34960
KUIPER-00120            
1 65762U 25217A   26082.92106605  .00005293  00000+0  72246-3 0  9992
2 65762  51.9002 350.1359 0000952  98.4722 261.6348 14.79952821 26847
KUIPER-00132            
1 65763U 25217B   26083.28385943  .00035314  00000+0  86768-3 0  9998
2 65763  51.8584 292.6225 0006492  25.7339 334.3970 15.40304218 27677
KUIPER-00133            
1 65764U 25217C   26082.95485894  .00002501  00000+0  35678-3 0  9994
2 65764  51.9039 350.0434 0001785  87.3693 272.7474 14.79961463 26857
KUIPER-00139            
1 65765U 25217D   26082.88152234  .00005047  00000+0  40095-3 0  9993
2 65765  51.8857 328.8244 0007833   2.4915 357.6094 15.01994920 27146
KUIPER-00142            
1 65766U 25217E   26082.94014488 -.00000308  00000+0 -11377-4 0  9998
2 65766  51.9011 332.5770 0000730  95.6370 264.4676 14.79937782 27096
KUIPER-00145            
1 65767U 25217F   26083.00478604  .00004540  00000+0  62395-3 0  9996
2 65767  51.9002 334.8029 0000892  77.6028 282.5034 14.79946387 27065
KUIPER-00147            
1 65768U 25217G   26082.90085046  .00000218  00000+0  57607-4 0  9998
2 65768  51.8999 337.7574 0000703  94.3301 265.7742 14.79935772 27018
KUIPER-00148            
1 65769U 25217H   26083.25002315 -.00023316  00000+0 -17796-2 0  9995
2 65769  51.8853 317.3155 0009706  28.5926 322.8847 15.01209207  5044
KUIPER-00150            
1 65770U 25217J   26083.02514550  .00004831  00000+0  66772-3 0  9999
2 65770  51.9022 347.2165 0001174 175.1148 184.9826 14.79581905 26896
KUIPER-00151            
1 65771U 25217K   26082.96571360 -.00001936  00000+0 -22494-3 0  9992
2 65771  51.9027 339.9753 0000790  96.0658 264.0395 14.79946220 26990
KUIPER-00152            
1 65772U 25217L   26082.94553384  .00000329  00000+0  72152-4 0  9997
2 65772  51.9035 327.5581 0000983 103.6686 256.4386 14.79939936 27163
KUIPER-00153            
1 65773U 25217M   26083.25002315 -.00022284  00000+0 -19975-2 0  9994
2 65773  51.8917 320.7929 0010355   8.7436  61.6119 14.95001572  3534
KUIPER-00155            
1 65774U 25217N   26083.29449903  .00023091  00000+0  96442-3 0  9997
2 65774  51.8759 302.3937 0005833 355.1169   4.9754 15.23519011 27547
KUIPER-00156            
1 65775U 25217P   26082.91709971  .00001073  00000+0  16962-3 0  9995
2 65775  51.9039 322.7171 0000932  98.2909 261.8159 14.79958763 27227
KUIPER-00158            
1 65776U 25217Q   26082.97909838  .00005315  00000+0  71221-3 0  9998
2 65776  51.8981 342.1988 0001539  90.2116 269.9023 14.80729312 26968
KUIPER-00163            
1 65777U 25217R   26083.25002315  .01684949  00000+0  49365-1 0  9994
2 65777  51.9013 338.5016 0001431  88.4844 322.3714 15.31491825  4357
KUIPER-00165            
1 65778U 25217S   26082.97381525  .00001679  00000+0  24922-3 0  9992
2 65778  51.9010 332.4353 0000745  98.5933 261.5114 14.79937842 27099
KUIPER-00166            
1 65779U 25217T   26082.95360641  .00004256  00000+0  58689-3 0  9998
2 65779  51.9033 320.0511 0000987  91.0023 269.1052 14.79937368 27267
KUIPER-00167            
1 65780U 25217U   26082.96300670 -.00000474  00000+0 -33212-4 0  9993
2 65780  51.8937 342.4390 0000943 106.8314 253.2752 14.79938886 26956
KUIPER-00168            
1 65781U 25217V   26082.91444282  .00004667  00000+0  64036-3 0  9990
2 65781  51.9019 325.2009 0000853  98.2059 261.9000 14.79960506 27198
KUIPER-00169            
1 65782U 25217W   26082.97654795  .00004383  00000+0  60338-3 0  9995
2 65782  51.9034 329.9303 0000929 103.9835 256.1231 14.79949337 27139
KUIPER-00170            
1 65783U 25217X   26082.97118660  .00000767  00000+0  12963-3 0  9995
2 65783  51.8995 334.9361 0001226  80.2930 279.8171 14.79944997 27063
KUIPER-00172            
1 65785U 25217Z   26082.94267986  .00002359  00000+0  36555-3 0  9992
2 65785  51.8987 316.0643 0002016  35.6928 324.4167 14.76563172 27329
KUIPER-00173            
1 65786U 25217AA  26082.97574140  .00004090  00000+0  61218-3 0  9997
2 65786  51.9017 329.5785 0000843 109.5982 250.5070 14.76484998 27137
KUIPER-00174            
1 65787U 25217AB  26082.88069640  .00003419  00000+0  47741-3 0  9991
2 65787  51.9040 325.3806 0000940 109.9282 250.1782 14.79918586 27186
KUIPER-00176            
1 65788U 25217AC  26082.99932136  .00002703  00000+0  38321-3 0  9992
2 65788  51.9019 339.8214 0000992  95.3262 264.7813 14.79962586 26992
KUIPER-00101            
1 65947U 25228A   26083.28183382  .00003592  00000+0  49981-3 0  9996
2 65947  51.8975 296.0497 0000705 110.1947 249.9091 14.79940320 25392
KUIPER-00113            
1 65948U 25228B   26082.84829103  .00003514  00000+0  48965-3 0  9991
2 65948  51.8989 292.9851 0000674 108.8910 251.2125 14.79943685 25397
KUIPER-00117            
1 65949U 25228C   26083.28453677  .00003470  00000+0  48387-3 0  9999
2 65949  51.8985 293.5579 0000843  92.5218 267.5841 14.79944571 25420
KUIPER-00121            
1 65950U 25228D   26083.25616483 -.00000889  00000+0 -87657-4 0  9991
2 65950  51.9012 288.6808 0000836 110.9430 249.1622 14.79931755 25497
KUIPER-00122            
1 65951U 25228E   26082.90766184  .00000002  00000+0  29311-4 0  9995
2 65951  51.8988 300.1988 0000832 119.1749 240.9296 14.79939983 25305
KUIPER-00123            
1 65952U 25228F   26082.87396562  .00003678  00000+0  51109-3 0  9992
2 65952  51.8991 300.3692 0000724 103.5193 256.5850 14.79942155 25296
KUIPER-00124            
1 65953U 25228G   26082.88206100  .00003623  00000+0  50393-3 0  9996
2 65953  51.8989 292.8207 0000790  96.4637 263.6415 14.79941519 25409
KUIPER-00125            
1 65954U 25228H   26083.23578359  .00003142  00000+0  44057-3 0  9991
2 65954  51.9003 276.2818 0000603 111.8981 248.2046 14.79973661 25669
KUIPER-00126            
1 65955U 25228J   26082.57269857  .00003613  00000+0  50289-3 0  9995
2 65955  51.8988 299.2122 0000702 103.0572 257.0469 14.79913031 25283
KUIPER-00127            
1 65956U 25228K   26082.83572819  .00002267  00000+0  35450-3 0  9997
2 65956  51.8999 289.8296 0001081 235.5419 124.5439 14.76312425 25445
KUIPER-00128            
1 65957U 25228L   26083.28992303  .00002897  00000+0  40885-3 0  9999
2 65957  51.9017 288.5594 0000865 106.3416 253.7642 14.79928952 25493
KUIPER-00129            
1 65958U 25228M   26083.26168308  .00003211  00000+0  44978-3 0  9996
2 65958  51.9000 283.6690 0001188 103.1165 256.9930 14.79961400 25562
KUIPER-00130            
1 65959U 25228N   26083.29262939  .00003144  00000+0  44114-3 0  9992
2 65959  51.9027 286.0409 0000819  98.3367 261.7688 14.79937951 15822
KUIPER-00134            
1 65960U 25228P   26082.74392038  .00030799  00000+0  78990-3 0  9992
2 65960  51.8735 252.2723 0005154  11.3510 348.7593 15.39072082 25953
KUIPER-00135            
1 65961U 25228Q   26082.85369239  .00003494  00000+0  48703-3 0  9993
2 65961  51.9018 288.0433 0000717 112.8370 247.2668 14.79940575 25461
KUIPER-00136            
1 65962U 25228R   26082.82262325  .00003257  00000+0  45603-3 0  9992
2 65962  51.9002 285.6515 0000995 129.2821 230.8230 14.79930717 25493
KUIPER-00137            
1 65963U 25228S   26082.82525261  .00003449  00000+0  48102-3 0  9994
2 65963  51.9030 283.1043 0000750  94.4476 265.6572 14.79948292 25539
KUIPER-00138            
1 65964U 25228T   26083.26685404  .00007142  00000+0  96525-3 0  9996
2 65964  51.8989 278.6308 0001661  95.9953 264.1199 14.79918009 25636
KUIPER-00140            
1 65965U 25228U   26083.26426449  .00003177  00000+0  44544-3 0  9997
2 65965  51.8998 281.2267 0000902 113.7092 246.3965 14.79938998 25598
KUIPER-00141            
1 65966U 25228V   26083.26951710  .00002463  00000+0  35161-3 0  9994
2 65966  51.9013 276.2180 0000580 117.5456 242.5565 14.79981473 25662
KUIPER-00146            
1 65967U 25228W   26083.23311195  .00002614  00000+0  37088-3 0  9997
2 65967  51.9023 278.8887 0000790  13.6035 346.4948 14.80034936 25628
KUIPER-00149            
1 65968U 25228X   26082.79956914  .00003192  00000+0  44764-3 0  9993
2 65968  51.9009 275.7114 0000813 115.3253 244.7794 14.79919474 25637
KUIPER-00154            
1 65969U 25228Y   26082.90354761  .00003469  00000+0  48347-3 0  9997
2 65969  51.8997 272.7539 0000593 112.8751 247.2274 14.79968352 25686
KUIPER-00157            
1 65970U 25228Z   26083.23837762  .00003176  00000+0  44742-3 0  9993
2 65970  51.9016 273.8837 0000757 149.5927 210.5080 14.79745426 25692
KUIPER-00144            
1 67133U 25301A   26083.23184119  .00031530  00000+0  10792-2 0  9991
2 67133  51.8739 354.9361 0006080  86.4173 273.7505 15.29946995 15979
KUIPER-00164            
1 67134U 25301B   26083.25002315  .00014970  00000+0  18610-2 0  9997
2 67134  51.9036   1.0782 0001841  21.5814 118.8767 14.82710699  5123
KUIPER-00175            
1 67135U 25301C   26083.25002315 -.01988318  00000+0 -11060+0 0  9996
2 67135  51.8804 355.9348 0001273 116.3291 193.9028 15.16839059  3713
KUIPER-00179            
1 67136U 25301D   26083.25002315  .00025724  00000+0  31472-2 0  9999
2 67136  51.8988   0.8153 0000678  84.7485 330.9514 14.83049989  5654
KUIPER-00181            
1 67137U 25301E   26083.06749863  .00002870  00000+0  43882-3 0  9991
2 67137  51.9047  13.8721 0001927 120.6330 239.4821 14.76488135 15853
KUIPER-00183            
1 67138U 25301F   26083.25002315  .00042236  00000+0  23030-2 0  9999
2 67138  51.8825 357.0465 0013031 106.8812 265.1124 15.13899710  5178
KUIPER-00184            
1 67139U 25301G   26083.25002315  .00033719  00000+0  19983-2 0  9998
2 67139  51.8842 356.7609 0010799 102.4553  46.7643 15.11036236  5113
KUIPER-00186            
1 67140U 25301H   26083.09686808  .00005013  00000+0  68609-3 0  9993
2 67140  51.9037  14.4057 0000808 106.3569 253.7483 14.79931121 15693
KUIPER-00187            
1 67141U 25301J   26083.09416266  .00004883  00000+0  66940-3 0  9993
2 67141  51.9043  16.9310 0001084  92.1799 267.9287 14.79915125 15655
KUIPER-00188            
1 67142U 25301K   26083.23084334  .00035616  00000+0  92965-3 0  9991
2 67142  51.8696 354.9197 0009545 102.0959 258.1098 15.38428744 15975
KUIPER-00191            
1 67143U 25301L   26083.00099676  .00004773  00000+0  65444-3 0  9994
2 67143  51.9020   9.8571 0000623 101.7606 258.3427 14.79950694 15777
KUIPER-00196            
1 67144U 25301M   26083.05548100  .00033367  00000+0  90334-3 0  9998
2 67144  51.8718 355.2757 0004438  65.2150 294.9298 15.37366767 15950
KUIPER-00204            
1 67145U 25301N   26083.06646229  .00006820  00000+0  27404-3 0  9993
2 67145  51.8826   1.9391 0002014  45.9448 314.1700 15.26059387 15973
KUIPER-00210            
1 67146U 25301P   26083.10222579  .00004895  00000+0  67006-3 0  9999
2 67146  51.9024   9.3713 0000891  96.0358 264.0706 14.79968866 15936
KUIPER-00221            
1 67147U 25301Q   26082.99283611 -.00001142  00000+0 -12080-3 0  9996
2 67147  51.9057  17.3597 0000959 102.4029 257.7041 14.79950861 15649
KUIPER-00232            
1 67148U 25301R   26083.25002315  .00026319  00000+0  32282-2 0  9993
2 67148  51.8989   0.4295 0000911  35.7712  66.3548 14.82930983  5334
KUIPER-00241            
1 67149U 25301S   26083.06580603  .00004940  00000+0  67601-3 0  9994
2 67149  51.9045  12.0455 0000799  74.4221 285.6829 14.79969950 16056
KUIPER-00245            
1 67150U 25301T   26083.12527148  .00020679  00000+0  27319-2 0  9996
2 67150  51.9047  19.2970 0001219 118.9038 241.2047 14.79953716 15624
KUIPER-00246            
1 67151U 25301U   26083.25002315  .00038566  00000+0  55001-2 0  9998
2 67151  51.9008   3.4444 0001222 113.2976  70.8507 14.76383833  5648
KUIPER-00247            
1 67152U 25301V   26083.25002315  .00057174  00000+0  24556-2 0  9996
2 67152  51.8743 356.1979 0012020 110.5579  26.4514 15.22076401  5515
KUIPER-00248            
1 67153U 25301W   26083.00291419  .00050453  00000+0  13274-2 0  9993
2 67153  51.8690 356.3649 0011031  96.2355 263.9889 15.38010186 16101
KUIPER-00249            
1 67154U 25301X   26083.25002315  .00023310  00000+0  85271-3 0  9995
2 67154  51.8716 355.0748 0008148  99.6938 204.1968 15.27923061  5876
KUIPER-00250            
1 67155U 25301Y   26083.08381891  .00003854  00000+0  57911-3 0  9997
2 67155  51.9009   6.3881 0001225 113.2038 246.9053 14.76455439 15838
KUIPER-00251            
1 67156U 25301Z   26083.25002315  .00037998  00000+0  19036-2 0  9999
2 67156  51.8780 355.9008 0011074 102.6646 138.8656 15.16962461  3285
KUIPER-00252            
1 67157U 25301AA  26083.25002315  .00035619  00000+0  23449-2 0  9991
2 67157  51.8805 356.9980 0008143 125.1697 358.3022 15.07183647  5710
KUIPER-00261            
1 67158U 25301AB  26083.07917305  .00002834  00000+0  43380-3 0  9996
2 67158  51.9028   6.7478 0002144  24.7535 335.3528 14.76478272 15792
KUIPER-00265            
1 67159U 25301AC  26083.12251203 -.00005035  00000+0 -63222-3 0  9996
2 67159  51.9041  21.7919 0000634   4.1749 355.9219 14.79910813 15628
KUIPER-00159            
1 67764U 26030A   26082.88029401  .00026642  00000+0  74863-3 0  9991
2 67764  51.8840 150.7010 0005991  81.5051 278.6615 15.36320678  7278
KUIPER-00160            
1 67765U 26030B   26082.55839438  .00023694  00000+0  67169-3 0  9990
2 67765  51.8812 152.2793 0005558  90.9423 269.2201 15.36114959  7224
KUIPER-00177            
1 67766U 26030C   26083.25002315 -.00005605  00000+0 -33663-3 0  9991
2 67766  51.8926 150.0565 0004935  96.7146 244.8080 15.08540695  5195
KUIPER-00178            
1 67767U 26030D   26083.25002315  .00001054  00000+0  60182-4 0  9991
2 67767  51.8834 149.7403 0008674  88.2433 127.3314 15.21856411  3047
KUIPER-00180            
1 67768U 26030E   26082.91534633  .00018515  00000+0  64707-3 0  9993
2 67768  51.8810 151.6390 0014424 112.8197 247.4312 15.29507445  7268
KUIPER-00197            
1 67769U 26030F   26082.66949948  .00038552  00000+0  10589-2 0  9996
2 67769  51.8910 151.5409 0001262  47.9454 312.1640 15.36856812  7245
KUIPER-00198            
1 67770U 26030G   26082.48253227  .00035451  00000+0  98243-3 0  9995
2 67770  51.8821 152.5248 0005140  84.1134 276.0438 15.36609294  7217
KUIPER-00199            
1 67771U 26030H   26082.91581596  .00029298  00000+0  86311-3 0  9992
2 67771  51.8777 150.9121 0012129 106.1349 254.0973 15.34733757  7274
KUIPER-00200            
1 67772U 26030J   26082.91268618  .00038193  00000+0  10269-2 0  9992
2 67772  51.8800 150.1653 0001392   3.6604 356.4393 15.37520948  7282
KUIPER-00203            
1 67773U 26030K   26083.25002315 -.00006816  00000+0 -66978-3 0  9999
2 67773  51.8985 153.3842 0012637 106.9179 350.4159 14.90251914  5880
KUIPER-00205            
1 67774U 26030L   26082.60440053  .00019229  00000+0  53319-3 0  9998
2 67774  51.8804 151.8436 0004305  61.8803 298.2619 15.36945236  7238
KUIPER-00208            
1 67775U 26030M   26083.25002315 -.00172976  00000+0 -70809-2 0  9999
2 67775  51.8860 149.8871 0017449 103.1949   6.6655 15.24374216  5785
KUIPER-00209            
1 67776U 26030N   26082.60193486  .00027008  00000+0  96614-3 0  9994
2 67776  51.8842 153.2949 0012462 105.8975 254.3382 15.28534458  7218
KUIPER-00213            
1 67777U 26030P   26083.14921929  .00032733  00000+0  10428-2 0  9995
2 67777  51.8802 150.2152 0015988 110.4386 249.8317 15.32138114  7303
KUIPER-00214            
1 67778U 26030Q   26082.91876883  .00032242  00000+0  87464-3 0  9998
2 67778  51.8839 150.2154 0001446  31.9863 328.1212 15.37327882  7286
KUIPER-00215            
1 67779U 26030R   26082.91235470  .00023269  00000+0  68338-3 0  9998
2 67779  51.8844 150.9054 0010734 104.7893 255.4283 15.34977490  7273
KUIPER-00218            
1 67780U 26030S   26082.89403168  .00025417  00000+0  72874-3 0  9995
2 67780  51.8829 150.7846 0007453  91.6463 268.5377 15.35708642  7277
KUIPER-00220            
1 67781U 26030T   26082.90573649  .00026158  00000+0  76424-3 0  9998
2 67781  51.8818 150.8495 0007397 102.8053 257.3760 15.35100259  7276
KUIPER-00222            
1 67782U 26030U   26082.89516553  .00040520  00000+0  12824-2 0  9990
2 67782  51.8802 151.5099 0017460 110.5559 249.7301 15.32224543  7262
KUIPER-00223            
1 67783U 26030V   26082.59449907  .00045241  00000+0  13302-2 0  9993
2 67783  51.8834 152.5175 0012570 105.4726 254.7649 15.34580628  7228
KUIPER-00225            
1 67784U 26030W   26082.61610307  .00013699  00000+0  38954-3 0  9994
2 67784  51.8796 151.9182 0005257  77.5932 282.5642 15.36427652  7231
KUIPER-00226            
1 67785U 26030X   26082.60109876  .00014535  00000+0  50391-3 0  9997
2 67785  51.8819 153.2813 0018794 114.5141 245.7805 15.29894645  7210
KUIPER-00259            
1 67786U 26030Y   26082.89806841  .00026347  00000+0  76106-3 0  9991
2 67786  51.8809 150.7991 0008779  91.7015 268.4976 15.35442984  7276
KUIPER-00260            
1 67787U 26030Z   26082.60143849  .00037408  00000+0  10212-2 0  9998
2 67787  51.8797 151.8203 0002733  71.7654 288.3630 15.37056696  7149
KUIPER-00262            
1 67788U 26030AA  26082.59548644  .00030577  00000+0  83221-3 0  9990
2 67788  51.8817 151.7873 0001279  55.6717 304.4391 15.37252792  7239
KUIPER-00266            
1 67789U 26030AB  26082.60449283  .00014192  00000+0  48439-3 0  9999
2 67789  51.8803 153.2986 0023681 119.7623 240.5720 15.30326625  7210
KUIPER-00268            
1 67790U 26030AC  26082.48237618  .00018830  00000+0  52957-3 0  9997
2 67790  51.8839 152.5367 0003689  73.5313 286.6079 15.36520033  7218
KUIPER-00270            
1 67791U 26030AD  26082.90829993  .00019367  00000+0  56980-3 0  9994
2 67791  51.8817 150.8647 0011094 101.6349 258.5882 15.35038007  7278
KUIPER-00274            
1 67792U 26030AE  26082.60330132  .00254876  00000+0  84516-2 0  9995
2 67792  51.8841 153.3023 0016065 112.2868 247.9820 15.29590074  7217
KUIPER-00275            
1 67793U 26030AF  26082.90447417  .00044130  00000+0  12752-2 0  9997
2 67793  51.8848 150.8564 0010467  94.2656 265.9526 15.35159190  7277
KUIPER-00276            
1 67794U 26030AG  26082.53798356  .00019823  00000+0  68311-3 0  9992
2 67794  51.8824 153.6111 0017957 111.9855 248.3039 15.29864929  7203
KUIPER-00279            
1 67795U 26030AH  26082.89031397  .00027292  00000+0  77923-3 0  9995
2 67795  51.8801 150.7469 0006844  85.3184 274.8583 15.35802997  7274
