ORBCOMM FM06            
1 25118U 97084G   26242.73370174  .00001032  00000+0  31587-3 0  9995
2 25118  45.0138  53.7946 0000566 195.4977 179.5705 14.47717884505198
ORBCOMM FM04            
1 25159U 98007C   26242.80359404  .00000597  00000+0  24932-3 0  9998
2 25159 107.9608 322.9949 0041359 198.0557 161.9116 14.35843528487300
ORBCOMM FM19            
1 25415U 98046C   26242.32879028  .00000631  00000+0  24541-3 0  9997
2 25415  44.9926 251.1046 0005554 302.6761  71.5632 14.39612862467469
ORBCOMM FM20            
1 25416U 98046D   26240.39887326  .00000417  00000+0  18267-3 0  9993
2 25416  44.9934 269.0072 0003062 275.1888  84.8610 14.38151766467184
ORBCOMM FM27            
1 25481U 98053G   26242.53166336  .00000646  00000+0  25187-3 0  9995
2 25481  45.0067 342.2068 0002428 227.4315 132.6329 14.39255841460940
ORBCOMM FM32            
1 25982U 99065C   26242.80886919  .00000577  00000+0  23933-3 0  9991
2 25982  45.0141 179.9998 0005670  51.1079 309.0274 14.37221850397823
ORBCOMM FM109           
1 40086U 14040A   26241.92628655  .00000298  00000+0  99234-4 0  9994
2 40086  47.0028 102.8374 0001573 215.9739 144.1041 14.58904776645111
ORBCOMM FM110           
1 41182U 15081D   26242.75099604  .00000422  00000+0  12519-3 0  9995
2 41182  47.0031   8.8547 0002078  59.5605 300.5486 14.58972766568518
ORBCOMM FM118           
1 41183U 15081E   26242.71746892  .00000418  00000+0  12437-3 0  9994
2 41183  47.0055   9.3666 0002391   3.3302 356.7600 14.58955828568614
ORBCOMM FM112           
1 41184U 15081F   26242.51518580  .00000309  00000+0  10148-3 0  9990
2 41184  46.9987 278.7481 0003249 209.7386 150.3316 14.58942654569808
ORBCOMM FM113           
1 41185U 15081G   26242.42603650  .00000206  00000+0  79712-4 0  9993
2 41185  47.0000 279.5864 0002093 219.4363 140.6371 14.58919615569770
ORBCOMM FM108           
1 41187U 15081J   26242.86628204  .00000410  00000+0  12282-3 0  9990
2 41187  47.0038 189.0891 0002100 206.1816 153.8964 14.58962751570981
ORBCOMM FM117           
1 41188U 15081K   26242.83246891  .00000314  00000+0  10255-3 0  9997
2 41188  47.0003 187.8657 0002624 209.4800 150.5938 14.58944607571021
ORBCOMM FM116           
1 41189U 15081L   26242.81287171  .00000274  00000+0  93999-4 0  9994
2 41189  47.0019 277.7568 0000939 351.1384   8.9485 14.58947083569838
