KUIPER-00008            
1 63724U 25088A   26177.86423456  .00000160  00000+0  50056-4 0  9992
2 63724  51.9033 325.2392 0001532  62.3444 297.7674 14.79932544 64218
KUIPER-00009            
1 63725U 25088B   26177.87935395  .00004565  00000+0  62772-3 0  9994
2 63725  51.9037 342.8012 0000450 125.5789 234.5216 14.79908700 63968
KUIPER-00010            
1 63726U 25088C   26177.70081320 -.00000088  00000+0  17521-4 0  9997
2 63726  51.9023 321.0610 0000617 108.0069 252.0960 14.79932555 63875
KUIPER-00011            
1 63727U 25088D   26177.86155778  .00001035  00000+0  16481-3 0  9999
2 63727  51.9027 327.9012 0000716 106.0946 254.0095 14.79933787 63928
KUIPER-00012            
1 63728U 25088E   26177.77643249  .00000914  00000+0  14892-3 0  9994
2 63728  51.9032 313.2114 0000492 102.5848 257.5169 14.79932728 64070
KUIPER-00013            
1 63729U 25088F   26177.91020089  .00000467  00000+0  90236-4 0  9992
2 63729  51.9027 345.1382 0000711 115.9774 244.1262 14.79937315 63742
KUIPER-00014            
1 63730U 25088G   26177.87642683 -.00011158  00000+0 -14353-2 0  9994
2 63730  51.9031 345.2274 0000763 148.5908 211.5100 14.79984928 63558
KUIPER-00015            
1 63731U 25088H   26177.89941984 -.00000603  00000+0 -50113-4 0  9992
2 63731  51.9001 355.1936 0000706 110.6482 249.4556 14.79930110 63879
KUIPER-00016            
1 63732U 25088J   26177.19841690  .00004807  00000+0  65912-3 0  9999
2 63732  51.9007 350.7453 0000598 108.2156 251.8872 14.79934234 63410
KUIPER-00018            
1 63733U 25088K   26177.85076497  .00000066  00000+0  37676-4 0  9998
2 63733  51.9045 337.8858 0000689 112.5568 247.5468 14.79931121 63655
KUIPER-00019            
1 63734U 25088L   26177.80989246  .00001425  00000+0  21579-3 0  9993
2 63734  51.9022 336.8295 0000572 109.2330 250.8694 14.79942250 63660
KUIPER-00020            
1 63735U 25088M   26177.84805984  .00000412  00000+0  83085-4 0  9990
2 63735  51.9029 340.4027 0000795 125.9399 234.1638 14.79938755 63825
KUIPER-00021            
1 63736U 25088N   26177.88182254  .00000490  00000+0  93229-4 0  9990
2 63736  51.9018 340.2125 0000551 114.5170 245.5850 14.79934214 63662
KUIPER-00023            
1 63737U 25088P   26177.84535344 -.00000123  00000+0  12810-4 0  9990
2 63737  51.9014 342.8629 0000690 101.5528 258.5512 14.79929436 63921
KUIPER-00024            
1 63738U 25088Q   26177.72379236  .00000539  00000+0  99678-4 0  9991
2 63738  51.9052 330.9947 0000721 108.2259 251.8782 14.79934492 64200
KUIPER-00025            
1 63739U 25088R   26177.88440746  .00002916  00000+0  41147-3 0  9992
2 63739  51.9039 337.7636 0000389  98.5953 261.5054 14.79915861 63981
KUIPER-00027            
1 63740U 25088S   26177.85613129  .00002105  00000+0  30504-3 0  9993
2 63740  51.9027 332.8618 0000539 110.2810 249.8210 14.79935966 63786
KUIPER-00028            
1 63741U 25088T   26177.82508067  .00000541  00000+0  99920-4 0  9995
2 63741  51.9014 330.4519 0000603 104.0985 256.0044 14.79933186 64220
KUIPER-00029            
1 63742U 25088U   26177.80094799  .00004468  00000+0  61390-3 0  9997
2 63742  51.9033 329.2386 0001140 159.9284 200.1723 14.79988772 63761
KUIPER-00030            
1 63743U 25088V   26177.77243003  .00001381  00000+0  21007-3 0  9990
2 63743  51.9021 348.1925 0000592 105.7491 254.3536 14.79935075 63780
KUIPER-00031            
1 63744U 25088W   26177.83633642  .00003726  00000+0  56116-3 0  9994
2 63744  51.9011 332.3839 0002376 139.8871 220.2265 14.76438669 63720
KUIPER-00032            
1 63745U 25088X   26177.82920733  .00013794  00000+0  34419-3 0  9992
2 63745  51.8655 215.1605 0003508 142.3120 217.8114 15.40468338 66352
KUIPER-00033            
1 63746U 25088Y   26177.92508296  .00001981  00000+0  28875-3 0  9994
2 63746  51.8997   2.5416 0000687  99.8268 260.2772 14.79931563 63797
KUIPER-00034            
1 63747U 25088Z   26177.83047160 -.00000444  00000+0 -29247-4 0  9993
2 63747  51.9017 325.4924 0000658 109.6360 250.4674 14.79928111 63982
KUIPER-00035            
1 63748U 25088AA  26177.87094769  .00000053  00000+0  35890-4 0  9990
2 63748  51.9025 350.2886 0000228 246.8555 113.2383 14.79988266 63696
KUIPER-00037            
1 63749U 25088AB  26177.72890132 -.00000080  00000+0  18560-4 0  9999
2 63749  51.9016 349.7739 0000770 103.4757 256.6291 14.79929844 64475
KUIPER-00038            
1 63750U 25088AC  26176.84051322  .00001554  00000+0  23282-3 0  9995
2 63750  51.9024 339.8664 0000598 117.9011 242.2012 14.79938075 63538
KUIPER-00039            
1 64500U 25134A   26177.96109521  .00000121  00000+0  44882-4 0  9999
2 64500  51.9009 109.9093 0000866  96.9962 263.1099 14.79934135 56257
KUIPER-00040            
1 64501U 25134B   26177.84900673  .00003782  00000+0  52464-3 0  9994
2 64501  51.8957 120.4881 0000918  58.6486 301.4567 14.79947547 56095
KUIPER-00041            
1 64502U 25134C   26177.88007232  .00000016  00000+0  31167-4 0  9993
2 64502  51.8991 122.7359 0000785  92.2038 267.9014 14.79931773 56062
KUIPER-00042            
1 64503U 25134D   26177.85169098  .00000232  00000+0  59470-4 0  9997
2 64503  51.8978 117.8407 0000860  88.9684 271.1377 14.79932144 56130
KUIPER-00043            
1 64504U 25134E   26177.79225735  .00000931  00000+0  15117-3 0  9997
2 64504  51.9001 110.5950 0000848  82.4317 277.6742 14.79938036 56234
KUIPER-00044            
1 64505U 25134F   26177.84630185  .00000998  00000+0  15988-3 0  9992
2 64505  51.8976 122.8649 0000800  92.1029 268.0025 14.79936774 56068
KUIPER-00046            
1 64506U 25134G   26177.88276239  .00003752  00000+0  52074-3 0  9991
2 64506  51.8968 120.1813 0000821  89.9298 270.1758 14.79941914 56103
KUIPER-00047            
1 64507U 25134H   26177.94618689  .00001400  00000+0  21263-3 0  9992
2 64507  51.8990  92.4230 0000791  93.2466 266.8587 14.79939031 56495
KUIPER-00048            
1 64508U 25134J   26177.91241351  .00004290  00000+0  59113-3 0  9993
2 64508  51.8983  92.5873 0000895 104.7916 255.3145 14.79953123 56496
KUIPER-00049            
1 64509U 25134K   26177.52752458  .00000882  00000+0  14462-3 0  9997
2 64509  51.8996 106.7522 0000842  90.9077 269.1982 14.79936374 56262
KUIPER-00050            
1 64510U 25134L   26177.95157683  .00004370  00000+0  60159-3 0  9995
2 64510  51.8991  87.3995 0000885 100.2975 259.8088 14.79948743 56576
KUIPER-00051            
1 64511U 25134M   26177.97622868  .00004201  00000+0  57964-3 0  9993
2 64511  51.8999 103.4601 0000731  87.7171 272.3875 14.79941170 56342
KUIPER-00053            
1 64513U 25134P   26177.95079102  .00002211  00000+0  30649-3 0  9990
2 64513  51.9007  99.0384 0000564 216.5017 143.5908 14.81657824 56404
KUIPER-00054            
1 64514U 25134Q   26177.77467050  .00002018  00000+0  29365-3 0  9992
2 64514  51.9001  95.6761 0001133  80.5322 279.5769 14.79939685 56434
KUIPER-00055            
1 64515U 25134R   26177.92719569  .00002588  00000+0  36843-3 0  9996
2 64515  51.9007  47.6284 0000915  95.5930 264.5137 14.79929377 57123
KUIPER-00056            
1 64516U 25134S   26177.93809237  .00004498  00000+0  61834-3 0  9990
2 64516  51.9019 100.0420 0000904  93.0066 267.1000 14.79953905 56394
KUIPER-00057            
1 64517U 25134T   26177.79494198  .00003916  00000+0  54220-3 0  9996
2 64517  51.8996 108.1100 0000855  96.0206 264.0854 14.79943964 56269
KUIPER-00058            
1 64518U 25134U   26177.96916331  .00002571  00000+0  36613-3 0  9996
2 64518  51.9007 102.3083 0000912 106.6863 253.4200 14.79940019 56367
KUIPER-00059            
1 64519U 25134V   26177.97453108 -.00002176  00000+0 -25658-3 0  9996
2 64519  51.8997  97.3268 0000982 104.3760 255.7312 14.79927291 56435
KUIPER-00060            
1 64520U 25134W   26177.94078694  .00004548  00000+0  62504-3 0  9992
2 64520  51.9020  97.5354 0000756  82.6179 277.4869 14.79946152 56417
KUIPER-00061            
1 64521U 25134X   26177.96648436  .00002578  00000+0  36698-3 0  9998
2 64521  51.9001 104.8765 0000929  93.5316 266.5752 14.79940380 56317
KUIPER-00062            
1 64522U 25134Y   26177.96377838  .00004298  00000+0  59235-3 0  9997
2 64522  51.8953 107.3713 0000781  96.6079 263.4972 14.79940715 56299
KUIPER-00063            
1 64523U 25134Z   26177.82063655  .00004111  00000+0  56785-3 0  9993
2 64523  51.9006 115.5491 0000778  92.9907 267.1144 14.79942093 56168
KUIPER-00064            
1 64524U 25134AA  26177.55320705  .00001212  00000+0  18801-3 0  9992
2 64524  51.9009 114.1545 0000834 104.6259 255.4796 14.79934542 56164
KUIPER-00065            
1 64525U 25134AB  26177.81795215  .00001447  00000+0  21875-3 0  9999
2 64525  51.9023 118.1530 0000777 105.9415 254.1633 14.79933948 56113
KUIPER-00066            
1 64526U 25134AC  26177.91909568 -.00001345  00000+0 -14745-3 0  9996
2 64526  51.9009  54.9888 0000849  94.2546 265.8513 14.79931026 57028
KUIPER-00069            
1 64816U 25151A   26177.63972972  .00002468  00000+0  35262-3 0  9997
2 64816  51.8985 158.8624 0000641  92.4040 267.6996 14.79937105 52892
KUIPER-00070            
1 64817U 25151B   26177.98417152  .00002111  00000+0  30576-3 0  9998
2 64817  51.8967 182.2551 0000537  64.0724 296.0293 14.79933216 52605
KUIPER-00071            
1 64818U 25151C   26177.71702641  .00011134  00000+0  14842-2 0  9992
2 64818  51.8981 180.9757 0000419  50.0377 310.0622 14.80012537 51410
KUIPER-00072            
1 64819U 25151D   26177.97495053 -.00002796  00000+0 -33688-3 0  9993
2 64819  51.8944 159.7851 0001264  35.3251 324.7795 14.80054243 51733
KUIPER-00073            
1 64820U 25151E   26177.75053168  .00001896  00000+0  27760-3 0  9990
2 64820  51.8974 180.8098 0000580  34.9698 325.1302 14.79931344 52606
KUIPER-00074            
1 64821U 25151F   26177.91668981  .00109185  15577-4  34223-3 0  9996
2 64821  51.8817  94.2106 0005256  78.4240  59.0631 15.91317217  5767
KUIPER-00075            
1 64822U 25151G   26177.89181636  .00050818  00000+0  10661-2 0  9998
2 64822  51.8688  48.9711 0002624 308.7790  51.2965 15.44876262 53267
KUIPER-00076            
1 64823U 25151H   26177.96389617  .00002353  00000+0  33755-3 0  9997
2 64823  51.8983 169.8849 0000510  55.8833 304.2177 14.79931498 51591
KUIPER-00077            
1 64824U 25151J   26177.95848473  .00002087  00000+0  30263-3 0  9992
2 64824  51.8994 174.9265 0000550  72.1963 287.9060 14.79939517 51524
KUIPER-00078            
1 64825U 25151K   26177.72484067  .00002276  00000+0  32743-3 0  9998
2 64825  51.8980 173.4385 0000457  61.9915 298.1093 14.79936856 51529
KUIPER-00079            
1 64826U 25151L   26177.95579919  .00002146  00000+0  31029-3 0  9997
2 64826  51.8964 177.3797 0000444  62.3814 297.7193 14.79940824 52685
KUIPER-00080            
1 64827U 25151M   26177.71942474  .00001182  00000+0  18411-3 0  9991
2 64827  51.8971 178.4355 0000546  86.2515 273.8510 14.79924455 51456
KUIPER-00082            
1 64828U 25151N   26177.69917007  .00002315  00000+0  33262-3 0  9993
2 64828  51.8991 166.0745 0000637  48.5922 311.5095 14.79933563 51626
KUIPER-00083            
1 64829U 25151P   26177.69108774  .00001943  00000+0  28371-3 0  9998
2 64829  51.8984 173.5951 0000505  74.5618 285.5400 14.79936715 52708
KUIPER-00084            
1 64830U 25151Q   26177.74783362  .00002210  00000+0  31876-3 0  9990
2 64830  51.8985 183.3296 0000459  64.5838 295.5172 14.79931456 51380
KUIPER-00085            
1 64831U 25151R   26177.26024528  .00002282  00000+0  32830-3 0  9990
2 64831  51.9001 168.0593 0000546  70.5595 289.5426 14.79929954 51559
KUIPER-00086            
1 64832U 25151S   26177.72214106  .00001828  00000+0  26878-3 0  9995
2 64832  51.8981 175.9677 0000563  74.2425 285.8599 14.79924796 51489
KUIPER-00087            
1 64833U 25151T   26177.67349679  .00001313  00000+0  20119-3 0  9995
2 64833  51.8979 158.6479 0000585  67.3509 292.7515 14.79938267 51714
KUIPER-00089            
1 64834U 25151U   26177.66810730  .00002174  00000+0  31410-3 0  9998
2 64834  51.8976 163.6907 0000561  74.8165 285.2860 14.79931403 51657
KUIPER-00090            
1 64835U 25151V   26177.67619789  .00000159  00000+0  49880-4 0  9993
2 64835  51.8960 156.1658 0000715  63.2952 296.8083 14.79931232 51754
KUIPER-00091            
1 64836U 25151W   26177.94092640  .00002564  00000+0  36520-3 0  9993
2 64836  51.8985 160.0000 0000619  69.2706 290.8323 14.79928333 51729
KUIPER-00092            
1 64837U 25151X   26177.66272270  .00002118  00000+0  30676-3 0  9993
2 64837  51.8978 168.7224 0000546  69.5545 290.5476 14.79934597 52791
KUIPER-00093            
1 64838U 25151Y   26177.25483556  .00002127  00000+0  30784-3 0  9990
2 64838  51.8974 173.0012 0000512  64.6912 295.4104 14.79939210 51483
KUIPER-00094            
1 64839U 25151Z   26177.84369228  .00002701  00000+0  38393-3 0  9997
2 64839  51.9028 125.4817 0001179 114.8027 245.3059 14.79848078 52209
KUIPER-00081            
1 65132U 25171A   26177.85015106  .00004128  00000+0  57017-3 0  9999
2 65132  51.9004  25.3661 0000747 111.9264 248.1778 14.79934455 49206
KUIPER-00088            
1 65133U 25171B   26177.83128986  .00000936  00000+0  15180-3 0  9997
2 65133  51.8995  42.9520 0000803 113.8616 246.2431 14.79934088 48957
KUIPER-00095            
1 65134U 25171C   26177.85285607  .00003493  00000+0  48737-3 0  9999
2 65134  51.8978  22.9054 0000872  93.6794 266.4268 14.79896174 49234
KUIPER-00096            
1 65135U 25171D   26177.87313784  .00001840  00000+0  27032-3 0  9999
2 65135  51.8994  35.2641 0000610 103.4887 256.6143 14.79939135 49064
KUIPER-00097            
1 65136U 25171E   26177.87047315  .00000929  00000+0  15090-3 0  9992
2 65136  51.9016  37.9294 0000780  98.3001 261.8050 14.79927999 49017
KUIPER-00098            
1 65137U 25171F   26177.86775928  .00001313  00000+0  20113-3 0  9990
2 65137  51.9017  40.3079 0000790 113.4321 246.6724 14.79939440 48330
KUIPER-00099            
1 65138U 25171G   26177.84477764  .00001826  00000+0  26838-3 0  9995
2 65138  51.9025  30.4101 0000592 120.4191 239.6830 14.79938175 49121
KUIPER-00100            
1 65139U 25171H   26177.88123483  .00000407  00000+0  82382-4 0  9997
2 65139  51.9024  27.7208 0000565 113.4933 246.6089 14.79935636 49161
KUIPER-00102            
1 65140U 25171J   26177.87853791  .00003707  00000+0  51507-3 0  9990
2 65140  51.8992  30.2267 0000612 102.4952 257.6079 14.79928669 49127
KUIPER-00103            
1 65141U 25171K   26177.89343425 -.00000412  00000+0 -25070-4 0  9990
2 65141  51.8997  47.6574 0000739 108.3680 251.7363 14.79925345 48880
KUIPER-00104            
1 65142U 25171L   26177.90690811  .00000304  00000+0  68895-4 0  9997
2 65142  51.9024  35.0932 0000778 100.2661 259.8390 14.79937006 49062
KUIPER-00105            
1 65143U 25171M   26177.93259935  .00002605  00000+0  37050-3 0  9993
2 65143  51.9010  42.5831 0000747 116.6778 243.4261 14.79936793 48961
KUIPER-00106            
1 65144U 25171N   26177.84572032  .00002966  00000+0  41806-3 0  9994
2 65144  51.9021  21.7266 0000853 101.5591 258.5468 14.79913524 49255
KUIPER-00107            
1 65145U 25171P   26177.95145380  .00000578  00000+0  10481-3 0  9991
2 65145  51.9014  24.9407 0000696 100.0484 260.0557 14.79931290 49213
KUIPER-00108            
1 65146U 25171Q   26177.90422384  .00002433  00000+0  34806-3 0  9998
2 65146  51.9021  37.6834 0000785 100.2867 259.8184 14.79935593 49035
KUIPER-00109            
1 65147U 25171R   26177.87583247  .00001698  00000+0  25170-3 0  9997
2 65147  51.9020  32.7518 0000543 103.9241 256.1782 14.79938376 49090
KUIPER-00110            
1 65148U 25171S   26177.89613238  .00001769  00000+0  26091-3 0  9996
2 65148  51.9012  45.2248 0000722 106.0360 254.0682 14.79942183 48913
KUIPER-00111            
1 65149U 25171T   26177.92447362  .00001646  00000+0  24486-3 0  9994
2 65149  51.8969  49.9809 0000733 100.0523 260.0522 14.79929236 48852
KUIPER-00112            
1 65150U 25171U   26177.90961814  .00002493  00000+0  35592-3 0  9998
2 65150  51.9031  32.6526 0000995 132.2580 227.8467 14.79938639 49093
KUIPER-00114            
1 65151U 25171V   26177.92178367  .00001322  00000+0  20233-3 0  9990
2 65151  51.8995  52.5722 0000830 108.3879 251.7174 14.79932893 48810
KUIPER-00115            
1 65152U 25171W   26177.92986439  .00010854  00000+0  14488-2 0  9992
2 65152  51.9013  45.0347 0000716 111.6846 248.4193 14.79978798 48927
KUIPER-00116            
1 65153U 25171X   26177.89074598  .00002751  00000+0  38967-3 0  9999
2 65153  51.9010  50.2436 0000813 115.9748 244.1298 14.79939186 48846
KUIPER-00118            
1 65154U 25171Y   26177.95554577  .00016684  00000+0  22153-2 0  9996
2 65154  51.9006  52.4105 0000718 104.7380 255.3662 14.79872133 48826
KUIPER-00119            
1 65155U 25171Z   26177.90135029  .00004067  00000+0  56302-3 0  9995
2 65155  51.9014  40.2403 0000584  90.2660 269.8369 14.79869385 48989
KUIPER-00120            
1 65762U 25217A   26177.73317098 -.00003272  00000+0 -40051-3 0  9992
2 65762  51.8995 290.8679 0000689  93.6614 266.4427 14.79920597 40882
KUIPER-00132            
1 65763U 25217B   26177.34418691  .00036225  00000+0  81657-3 0  9990
2 65763  51.8533 194.6788 0007254 358.8887   1.2085 15.42881399 42183
KUIPER-00133            
1 65764U 25217C   26177.69941396  .00002296  00000+0  33009-3 0  9991
2 65764  51.9032 291.1176 0000524 104.7323 255.3697 14.79936669 40885
KUIPER-00139            
1 65765U 25217D   26177.93703036 -.00004635  00000+0 -57939-3 0  9995
2 65765  51.8962 257.5360 0000865  83.6035 276.5026 14.79933353 41374
KUIPER-00142            
1 65766U 25217E   26177.95463493  .00000767  00000+0  12954-3 0  9996
2 65766  51.8992 272.4151 0000444  94.5329 265.5684 14.79936037 41169
KUIPER-00145            
1 65767U 25217F   26177.54676022  .00003897  00000+0  53981-3 0  9998
2 65767  51.8989 276.7395 0000553 106.9216 253.1807 14.79942987 41067
KUIPER-00147            
1 65768U 25217G   26177.64535595  .00001914  00000+0  27999-3 0  9997
2 65768  51.8976 278.7871 0000594  93.6646 266.4384 14.79937610 41041
KUIPER-00148            
1 65769U 25217H   26177.62261354  .00002815  00000+0  43496-3 0  9996
2 65769  51.9042 260.9617 0000612 229.9463 130.1445 14.76076430 41293
KUIPER-00150            
1 65770U 25217J   26177.70210852  .00000490  00000+0  93217-4 0  9998
2 65770  51.9005 288.5647 0000505  95.6356 264.4664 14.79926875 40915
KUIPER-00151            
1 65771U 25217K   26177.64266955  .00000576  00000+0  10459-3 0  9998
2 65771  51.8974 281.3246 0000597 103.0743 257.0286 14.79935475 41017
KUIPER-00152            
1 65772U 25217L   26177.96002866  .00001876  00000+0  27501-3 0  9993
2 65772  51.8982 267.4070 0000487 103.4686 256.6331 14.79934147 41230
KUIPER-00153            
1 65773U 25217M   26177.62776780  .00004628  00000+0  63533-3 0  9993
2 65773  51.9010 263.9489 0000600  26.1933 333.9060 14.79952720 41259
KUIPER-00155            
1 65774U 25217N   26177.86002848  .00001352  00000+0  20627-3 0  9995
2 65774  51.8999 235.3850 0000340  75.4608 284.6392 14.79933170 41671
KUIPER-00156            
1 65775U 25217P   26177.93166584  .00001672  00000+0  24828-3 0  9994
2 65775  51.9015 262.5860 0000447  89.5915 270.5099 14.79933033 41294
KUIPER-00163            
1 65777U 25217R   26177.91668981  .00194048  25438-4  54204-3 0  9990
2 65777  51.8827 214.6376 0007710  10.7153 267.5823 15.93234965  5922
KUIPER-00165            
1 65778U 25217S   26177.65075500  .00001374  00000+0  20924-3 0  9995
2 65778  51.9009 273.7787 0000415  88.8128 271.2882 14.79930960 41110
KUIPER-00166            
1 65779U 25217T   26177.63047404  .00002552  00000+0  36361-3 0  9997
2 65779  51.9015 261.4127 0000381 101.4755 258.6250 14.79937316 41288
KUIPER-00167            
1 65780U 25217U   26177.57241988  .00001789  00000+0  26358-3 0  9991
2 65780  51.8937 284.0419 0000328  81.3237 278.7762 14.79938283 40968
KUIPER-00168            
1 65781U 25217V   26177.92897468  .00023374  00000+0  30885-2 0  9994
2 65781  51.8984 265.0533 0000933 101.5327 258.5740 14.79877187 41265
KUIPER-00169            
1 65782U 25217W   26177.65345746  .00000363  00000+0  76671-4 0  9990
2 65782  51.9007 271.2794 0000607 100.3373 259.7658 14.79929260 41156
KUIPER-00170            
1 65783U 25217X   26177.64805577  .00000670  00000+0  11684-3 0  9996
2 65783  51.9000 276.2644 0000480 103.8319 256.2697 14.79931311 41083
KUIPER-00172            
1 65785U 25217Z   26177.63317040 -.00000669  00000+0 -58727-4 0  9990
2 65785  51.8970 258.8588 0001439  79.3364 280.7760 14.79930881 41326
KUIPER-00173            
1 65786U 25217AA  26177.95733427  .00000205  00000+0  55940-4 0  9995
2 65786  51.8980 269.9313 0000709 102.7719 257.3323 14.79933661 41190
KUIPER-00174            
1 65787U 25217AB  26177.62507750  .00002279  00000+0  32777-3 0  9993
2 65787  51.9021 266.4463 0000449  98.2263 261.8751 14.79944756 41215
KUIPER-00176            
1 65788U 25217AC  26177.54137052  .00000946  00000+0  15305-3 0  9996
2 65788  51.8993 281.7554 0000511  93.5516 266.5505 14.79929873 40999
KUIPER-00101            
1 65947U 25228A   26177.89109001  .00000779  00000+0  13118-3 0  9990
2 65947  51.8964 237.6698 0000483  87.3690 272.7328 14.79932065 39408
KUIPER-00113            
1 65948U 25228B   26177.86271754  .00001006  00000+0  16098-3 0  9997
2 65948  51.8966 232.8148 0000385  85.7577 274.3429 14.79935754 39469
KUIPER-00117            
1 65949U 25228C   26177.89378872  .00001666  00000+0  24748-3 0  9993
2 65949  51.8959 235.1768 0000332  77.3763 282.7237 14.79934627 39437
KUIPER-00121            
1 65950U 25228D   26177.86541219  .00000973  00000+0  15664-3 0  9996
2 65950  51.8972 230.3140 0000363  77.8508 282.2495 14.79935209 39507
KUIPER-00122            
1 65951U 25228E   26177.58451395  .00000601  00000+0  10783-3 0  9996
2 65951  51.8970 241.5306 0000436  86.2613 273.8399 14.79930723 39321
KUIPER-00123            
1 65952U 25228F   26177.88839276  .00000732  00000+0  12505-3 0  9997
2 65952  51.8956 240.1984 0000283  84.3256 275.7739 14.79937228 39365
KUIPER-00124            
1 65953U 25228G   26177.55883392  .00001392  00000+0  21149-3 0  9997
2 65953  51.8969 234.1456 0000496  95.6610 264.4408 14.79934172 39422
KUIPER-00125            
1 65954U 25228H   26177.84513303 -.00000011  00000+0  27490-4 0  9996
2 65954  51.8979 217.9210 0000420  75.5992 284.5017 14.79933132 39679
KUIPER-00126            
1 65955U 25228J   26177.85733063  .00001610  00000+0  24011-3 0  9995
2 65955  51.8971 237.8554 0000499  94.5410 265.5609 14.79935460 39397
KUIPER-00127            
1 65956U 25228K   26177.84848316  .00013008  00000+0  17300-2 0  9999
2 65956  51.8969 230.3613 0000829  84.8325 275.2732 14.79980146 39502
KUIPER-00128            
1 65957U 25228L   26177.83165163  .00002758  00000+0  39059-3 0  9997
2 65957  51.8987 230.5016 0000426  92.5218 267.5794 14.79935688 39493
KUIPER-00129            
1 65958U 25228M   26177.87081858  .00002726  00000+0  38641-3 0  9991
2 65958  51.8985 225.3095 0000377  90.7571 269.3435 14.79936693 39576
KUIPER-00130            
1 65959U 25228N   26177.83435421  .00001125  00000+0  17659-3 0  9995
2 65959  51.9010 227.9997 0000315  74.5367 285.5631 14.79933200 29827
KUIPER-00134            
1 65960U 25228P   26177.92278470  .00041006  00000+0  96865-3 0  9994
2 65960  51.8688 149.9684 0006285 346.7553  13.3269 15.41425314 40625
KUIPER-00135            
1 65961U 25228Q   26177.86812572  .00001947  00000+0  28430-3 0  9998
2 65961  51.9000 227.9066 0000430  92.8988 267.2024 14.79934047 39538
KUIPER-00136            
1 65962U 25228R   26177.43186213  .00002783  00000+0  39378-3 0  9990
2 65962  51.8991 227.2929 0000382  75.3965 284.7040 14.79941035 39509
KUIPER-00137            
1 65963U 25228S   26177.83974953  .00000983  00000+0  15785-3 0  9997
2 65963  51.9005 222.9792 0000372  82.3150 277.7855 14.79937137 39605
KUIPER-00138            
1 65964U 25228T   26177.80866089  .00002621  00000+0  37263-3 0  9991
2 65964  51.8959 220.5528 0000414  94.0999 266.0011 14.79931803 39634
KUIPER-00140            
1 65965U 25228U   26177.53586669  .00002459  00000+0  35144-3 0  9990
2 65965  51.8979 224.3479 0000427  86.0757 274.0254 14.79933869 39554
KUIPER-00141            
1 65966U 25228V   26177.81135806  .00001193  00000+0  18553-3 0  9994
2 65966  51.9001 218.1792 0000439  76.0905 284.0106 14.79928565 39664
KUIPER-00146            
1 65967U 25228W   26177.84245754  .00002568  00000+0  36576-3 0  9994
2 65967  51.9007 220.5518 0000359  84.4698 275.6305 14.79935978 39637
KUIPER-00149            
1 65968U 25228X   26177.81407397  .00001016  00000+0  16228-3 0  9994
2 65968  51.8988 215.5659 0000425  81.8309 278.2701 14.79932319 39702
KUIPER-00154            
1 65969U 25228Y   26177.78300475  .00002369  00000+0  33963-3 0  9997
2 65969  51.8977 213.1950 0000389  82.9315 277.1691 14.79937645 39733
KUIPER-00157            
1 65970U 25228Z   26177.84785037  .00002328  00000+0  33421-3 0  9991
2 65970  51.9002 215.5434 0000403  78.9882 281.1126 14.79935887 39700
KUIPER-00144            
1 67133U 25301A   26177.69671263  .00001286  00000+0  19765-3 0  9991
2 67133  51.9004 293.5869 0000512 105.3658 254.7361 14.79926510 30015
KUIPER-00164            
1 67134U 25301B   26177.76730552  .00002749  00000+0  42042-3 0  9996
2 67134  51.9035 305.2526 0000615 250.0988 109.9906 14.76598616 30036
KUIPER-00175            
1 67135U 25301C   26177.60850182  .00003880  00000+0  39963-3 0  9997
2 67135  51.8946 289.6828 0000959  72.5478 287.5595 14.92312706 30139
KUIPER-00179            
1 67136U 25301D   26177.75345160  .00002390  00000+0  34234-3 0  9990
2 67136  51.8992 303.3122 0000606 106.5831 253.5198 14.79933894 30068
KUIPER-00181            
1 67137U 25301E   26177.73974493  .00007907  00000+0  10646-2 0  9995
2 67137  51.9019 315.8999 0000883  86.1596 273.9467 14.79949082 29865
KUIPER-00183            
1 67138U 25301F   26177.70956915  .00003848  00000+0  39216-3 0  9997
2 67138  51.8954 289.9822 0009832  67.6545 292.5464 14.92754678 30237
KUIPER-00184            
1 67139U 25301G   26177.72508703  .00002345  00000+0  33640-3 0  9994
2 67139  51.8987 298.4403 0000363  87.0765 273.0239 14.79936126 30222
KUIPER-00186            
1 67140U 25301H   26177.77371048  .00007942  00000+0  10686-2 0  9993
2 67140  51.9013 315.7627 0000249 216.4730 143.6215 14.79969694 29713
KUIPER-00187            
1 67141U 25301J   26177.77104413  .00002739  00000+0  38803-3 0  9995
2 67141  51.9046 318.2982 0000833 105.6224 254.4831 14.79939261 29675
KUIPER-00188            
1 67142U 25301K   26177.70481750  .00002039  00000+0  29631-3 0  9993
2 67142  51.9022 286.1774 0000474 109.6127 250.4886 14.79935004 30117
KUIPER-00191            
1 67143U 25301L   26177.74537256  .00001419  00000+0  21513-3 0  9993
2 67143  51.9018 310.9034 0000681  99.0642 261.0398 14.79934089 29804
KUIPER-00196            
1 67144U 25301M   26177.91668981 -.00034979  00000+0 -49907-2 0  9998
2 67144  51.8980 266.0752 0000473 269.3802 119.4030 14.76335745  3249
KUIPER-00204            
1 67145U 25301N   26177.67404989  .00015887  00000+0  21051-2 0  9993
2 67145  51.9009 283.7059 0000577 184.4528 175.6429 14.79991910 30269
KUIPER-00210            
1 67146U 25301P   26177.77911807  .00003148  00000+0  44164-3 0  9995
2 67146  51.8999 310.7084 0000501  98.9968 261.1051 14.79940473 29954
KUIPER-00221            
1 67147U 25301Q   26177.80480150  .00003666  00000+0  50959-3 0  9996
2 67147  51.9023 318.1143 0000433 108.2977 251.8033 14.79939209 29682
KUIPER-00232            
1 67148U 25301R   26177.78722946  .00000347  00000+0  74520-4 0  9990
2 67148  51.8960 303.2219 0000632 104.7173 255.3860 14.79928957 29888
KUIPER-00241            
1 67149U 25301S   26177.67513723  .00000704  00000+0  12131-3 0  9996
2 67149  51.9012 313.7096 0000636  88.8744 271.2291 14.79927713 30063
KUIPER-00245            
1 67150U 25301T   26177.80211707  .00001540  00000+0  23091-3 0  9996
2 67150  51.9031 320.6589 0000591 117.4823 242.6199 14.79938414 29648
KUIPER-00246            
1 67151U 25301U   26177.71699038  .00002654  00000+0  37701-3 0  9994
2 67151  51.9017 305.9925 0000598 102.1029 258.0001 14.79938109 29867
KUIPER-00247            
1 67152U 25301V   26177.72777673  .00001501  00000+0  22581-3 0  9998
2 67152  51.8969 295.9243 0000702  98.4117 261.6925 14.79933026 29987
KUIPER-00248            
1 67153U 25301W   26177.67115627  .00001857  00000+0  29369-3 0  9993
2 67153  51.8982 278.7173 0001753  87.7788 272.3374 14.76653411 30383
KUIPER-00249            
1 67154U 25301X   26177.73048424  .00000535  00000+0  99176-4 0  9997
2 67154  51.8982 293.4645 0000572 107.0931 253.0095 14.79932627 30014
KUIPER-00250            
1 67155U 25301Y   26176.80264400  .00004589  00000+0  63032-3 0  9993
2 67155  51.8990 312.5225 0000568 103.1457 256.9569 14.79945206 29705
KUIPER-00251            
1 67156U 25301Z   26177.62643866 -.00004165  00000+0 -51768-3 0  9997
2 67156  51.9007 296.4443 0000324  30.6490 329.4492 14.79935434 30153
KUIPER-00252            
1 67157U 25301AA  26177.75884915  .00003144  00000+0  44110-3 0  9991
2 67157  51.8999 298.3103 0000493  97.7094 262.3925 14.79941528 29951
KUIPER-00261            
1 67158U 25301AB  26177.78183001  .00000673  00000+0  11729-3 0  9997
2 67158  51.9028 308.2587 0000497 104.2492 255.8526 14.79936434 29812
KUIPER-00265            
1 67159U 25301AC  26177.79941616  .00002828  00000+0  39974-3 0  9999
2 67159  51.9024 323.1543 0000507 110.1431 249.9586 14.79936438 29643
KUIPER-00159            
1 67764U 26030A   26177.91394068  .00026006  00000+0  68132-3 0  9990
2 67764  51.8855  51.2531 0006725  79.4154 280.7591 15.38502158 21891
KUIPER-00160            
1 67765U 26030B   26177.91131853 -.00531324  00000+0 -14966-1 0  9992
2 67765  51.8813  51.1872 0006587  78.7982 281.3745 15.37997316 21891
KUIPER-00177            
1 67766U 26030C   26177.94890120  .00000998  00000+0  15986-3 0  9996
2 67766  51.9001  89.9785 0000903  98.8453 261.2612 14.79932826 21357
KUIPER-00178            
1 67767U 26030D   26177.91521675  .00013870  00000+0  18448-2 0  9998
2 67767  51.8996  90.1109 0000593 109.5954 250.5072 14.79928112 21359
KUIPER-00180            
1 67768U 26030E   26177.92052047  .00002490  00000+0  35544-3 0  9995
2 67768  51.8985  85.0944 0000841 106.4739 253.6316 14.79939397 21421
KUIPER-00197            
1 67769U 26030F   26177.91668981 -.00019777  00000+0 -25741-2 0  9990
2 67769  51.8995  65.1228 0000903 141.2568  83.9204 14.79912979  5107
KUIPER-00198            
1 67770U 26030G   26177.96237239  .00001634  00000+0  24326-3 0  9995
2 67770  51.8983  77.4049 0000751 117.2527 242.8512 14.79938531 21537
KUIPER-00199            
1 67771U 26030H   26177.92907025  .00028102  00000+0  78102-3 0  9999
2 67771  51.8823  52.7687 0011066  89.3966 270.8288 15.36593626 21876
KUIPER-00200            
1 67772U 26030J   26177.91668981 -.00045179  00000+0 -51848-2 0  9996
2 67772  51.9010  62.6430 0003784  69.9886 331.8530 14.85534615  5152
KUIPER-00203            
1 67773U 26030K   26177.94349642  .00000476  00000+0  91437-4 0  9999
2 67773  51.9067  95.0379 0000903  96.1975 263.9091 14.79930826 21284
KUIPER-00205            
1 67774U 26030L   26177.91668981  .00039295  00000+0  53030-2 0  9993
2 67774  51.8995  60.0914 0002203   5.4937  14.1234 14.78724212  5328
KUIPER-00208            
1 67775U 26030M   26177.93993390  .00002271  00000+0  35374-3 0  9997
2 67775  51.8972  87.0428 0008142  66.2855 293.8960 14.76475345 21390
KUIPER-00209            
1 67776U 26030N   26177.95427220  .00001128  00000+0  17704-3 0  9991
2 67776  51.8977  85.0338 0000744  89.3995 270.7053 14.79921585 21421
KUIPER-00213            
1 67777U 26030P   26177.92318983 -.00003482  00000+0 -42797-3 0  9991
2 67777  51.8965  82.6580 0001061 111.1822 248.9254 14.79930218 21453
KUIPER-00214            
1 67778U 26030Q   26177.95968754  .00001068  00000+0  16912-3 0  9998
2 67778  51.8998  79.9987 0000903 105.3014 254.8048 14.79939119 21492
KUIPER-00215            
1 67779U 26030R   26177.96688399  .00002096  00000+0  32950-3 0  9996
2 67779  51.8991  66.9221 0000719  63.6663 296.4372 14.76383625 21689
KUIPER-00218            
1 67780U 26030S   26177.95694118  .00002324  00000+0  33378-3 0  9992
2 67780  51.8971  82.4234 0000880  99.9829 260.1233 14.79922370 21460
KUIPER-00220            
1 67781U 26030T   26177.91668981 -.00070065  00000+0 -63213-2 0  9997
2 67781  51.8977  58.2452 0008143  96.1428 345.5711 14.95342474  5497
KUIPER-00222            
1 67782U 26030U   26177.92862265  .00000808  00000+0  13498-3 0  9997
2 67782  51.8986  77.7033 0000887  97.8760 262.2303 14.79928758 21524
KUIPER-00223            
1 67783U 26030V   26177.97045196  .00001685  00000+0  24998-3 0  9990
2 67783  51.9012  69.8086 0001034 104.7883 255.3194 14.79938158 21644
KUIPER-00225            
1 67784U 26030W   26177.96485224 -.00017919  00000+0 -23280-2 0  9991
2 67784  51.8978  74.9975 0000412  94.7890 265.3120 14.79928874 21569
KUIPER-00226            
1 67785U 26030X   26177.91668981 -.01743181  00000+0 -15536+0 0  9990
2 67785  51.8887  61.7885 0017084  85.1003 147.0505 14.99006786  5595
KUIPER-00259            
1 67786U 26030Y   26177.93139086  .00008378  00000+0  11256-2 0  9999
2 67786  51.8986  75.0524 0000460  76.2379 283.8634 14.79967317 21562
KUIPER-00260            
1 67787U 26030Z   26177.86658011  .00004482  00000+0  61750-3 0  9993
2 67787  51.9003  72.9301 0000927 117.4310 242.6747 14.79862495 21495
KUIPER-00262            
1 67788U 26030AA  26177.96780372  .00004289  00000+0  59187-3 0  9997
2 67788  51.9009  72.4014 0001115 129.6380 230.4681 14.79888016 21602
KUIPER-00266            
1 67789U 26030AB  26177.93668797  .00001017  00000+0  16253-3 0  9994
2 67789  51.9002  70.0372 0003149 119.9031 240.2245 14.79925651 21636
KUIPER-00268            
1 67790U 26030AC  26177.97315652  .00001135  00000+0  17783-3 0  9999
2 67790  51.9033  67.3802 0000765 105.6325 254.4722 14.79928121 21674
KUIPER-00270            
1 67791U 26030AD  26177.91668981 -.00040044  00000+0 -45624-2 0  9998
2 67791  51.8990  57.7310 0009069  68.3787  54.1237 14.85742782  5803
KUIPER-00274            
1 67792U 26030AE  26177.92590991 -.00001071  00000+0 -11154-3 0  9994
2 67792  51.9018  80.0745 0001134 140.1154 219.9892 14.79931191 21497
KUIPER-00275            
1 67793U 26030AF  26177.91668981  .00024398  00000+0  32286-2 0  9992
2 67793  51.9001  60.1280 0001560  61.8060 134.4635 14.79792209  4853
KUIPER-00276            
1 67794U 26030AG  26177.91668981 -.00036035  00000+0 -47178-2 0  9992
2 67794  51.8983  65.1176 0004538  73.0627 330.9744 14.79971526  5624
KUIPER-00279            
1 67795U 26030AH  26177.91668981 -.01185500  00000+0 -12643+0 0  9992
2 67795  51.9209  55.3587 0008702  63.9981 355.1248 14.91433171  5050
KUIPER-00131            
1 68573U 26072A   26177.94901780  .00002802  00000+0  39635-3 0  9997
2 68573  51.8983 152.4812 0000616  73.6806 286.4225 14.79935010 12563
KUIPER-00189            
1 68574U 26072B   26177.98000117 -.00000397  00000+0 -23072-4 0  9994
2 68574  51.8962 154.8303 0000545  89.2475 270.8550 14.79917589 12534
KUIPER-00192            
1 68575U 26072C   26177.95171281 -.00000339  00000+0 -15506-4 0  9992
2 68575  51.8981 149.9681 0000829  79.0207 281.0848 14.79929589 12600
KUIPER-00193            
1 68576U 26072D   26177.91668981  .00006297  00000+0  92015-3 0  9993
2 68576  51.9025 139.7214 0000329 200.8748 127.2722 14.76748225  4740
KUIPER-00194            
1 68577U 26072E   26177.92112835  .00003100  00000+0  43592-3 0  9993
2 68577  51.8997 147.6173 0000841  17.6874 342.4117 14.79883345 12635
KUIPER-00229            
1 68578U 26072F   26177.91541233  .00002713  00000+0  38488-3 0  9998
2 68578  51.8994 152.6271 0000459  89.0964 271.0051 14.79912212 12568
KUIPER-00230            
1 68579U 26072G   26177.87076788  .00029921  00000+0  79059-3 0  9991
2 68579  51.8743 129.8489 0003680  55.1875 304.9458 15.38176028 12876
KUIPER-00231            
1 68580U 26072H   26177.94860026 -.00447189  00000+0 -16227-1 0  9995
2 68580  51.8753 129.5828 0005119  60.2184 299.9308 15.29713782 12884
KUIPER-00234            
1 68581U 26072J   26177.91262382  .00002133  00000+0  33353-3 0  9999
2 68581  51.8974 147.2021 0000879 199.2424 160.8504 14.76552305 12630
KUIPER-00236            
1 68582U 26072K   26177.88679997  .00040100  00000+0  10691-2 0  9995
2 68582  51.8738 129.9568 0003627  51.2053 308.9257 15.37756450 12872
KUIPER-00244            
1 68583U 26072L   26177.91668981  .00062252  00000+0  84303-2 0  9994
2 68583  51.8983 137.6236 0003498 100.7890 186.9979 14.78343664  4697
KUIPER-00253            
1 68584U 26072M   26177.92882791  .00003133  00000+0  43908-3 0  9993
2 68584  51.9018 140.0820 0000695  80.0156 280.0884 14.79997270 12730
KUIPER-00254            
1 68585U 26072N   26177.89235329  .00003179  00000+0  44572-3 0  9997
2 68585  51.9013 142.7420 0001990  60.5278 299.5882 14.79944837 12697
KUIPER-00263            
1 68586U 26072P   26177.91668981 -.00085749  00000+0 -44936-2 0  9993
2 68586  51.8882 130.3986 0003403  77.6975 109.4641 15.15609234  2775
KUIPER-00269            
1 68587U 26072Q   26177.91668981 -.01195011  00000+0 -82382-1 0  9995
2 68587  51.8993 131.4269 0004706  60.7523  42.3504 15.08559598  5847
KUIPER-00272            
1 68588U 26072R   26177.91795549  .00000236  00000+0  59933-4 0  9997
2 68588  51.8958 150.1104 0001118  66.8533 293.2547 14.79934872 12590
KUIPER-00285            
1 68589U 26072S   26177.91668981 -.01015427  00000+0 -71686-1 0  9994
2 68589  51.8900 131.5281 0007677  55.4511 266.3776 15.07182532  2777
KUIPER-00286            
1 68590U 26072T   26177.91668981 -.00005409  00000+0 -20846-3 0  9998
2 68590  51.8804 130.1731 0005672  41.0048 306.4432 15.23685035  5284
KUIPER-00289            
1 68591U 26072U   26177.91668981 -.00017721  00000+0 -20099-2 0  9998
2 68591  51.8986 135.2509 0012634  90.1538 121.4703 14.85457122  3937
KUIPER-00290            
1 68592U 26072V   26177.96730694 -.00456079  00000+0 -37195-1 0  9992
2 68592  51.8876 134.1328 0012573  60.6091 299.6135 15.01009601 12820
KUIPER-00293            
1 68593U 26072W   26177.92333514  .00002713  00000+0  38486-3 0  9995
2 68593  51.8955 145.0872 0003094  82.3406 277.7908 14.79930168 12665
KUIPER-00294            
1 68594U 26072X   26177.91668981 -.00058053  00000+0 -49082-2 0  9997
2 68594  51.8910 133.2770 0010937  42.9437 225.8202 14.97743041  5433
KUIPER-00296            
1 68595U 26072Y   26177.96128275  .00014432  00000+0  38369-3 0  9998
2 68595  51.8679 129.6587 0009902  58.8507 301.3450 15.38443458 12882
KUIPER-00297            
1 68596U 26072Z   26177.21380344  .00002107  00000+0  33156-3 0  9999
2 68596  51.8977 147.5115 0001170 105.3243 254.7847 14.76321408 12572
KUIPER-00300            
1 68597U 26072AA  26177.88405626  .00002297  00000+0  35767-3 0  9994
2 68597  51.9023 141.6337 0001785  92.2196 267.8970 14.76438494 12712
KUIPER-00301            
1 68598U 26072AB  26177.89830697  .00016976  00000+0  44998-3 0  9991
2 68598  51.8618 129.9476 0010683  61.4929 298.7132 15.38394263 12878
KUIPER-00304            
1 68599U 26072AC  26177.58504177  .00030651  00000+0  80802-3 0  9999
2 68599  51.8649 131.6056 0010064  55.5667 304.6270 15.38194325 12825
KUIPER-00317            
1 68600U 26072AD  26177.91668981 -.01729199  00000+0 -16437+0 0  9997
2 68600  51.8918 133.1592 0010748  63.2128 136.2042 14.96612712  3347
KUIPER-00320            
1 68601U 26072AE  26177.91668981  .00006919  00000+0  94462-3 0  9991
2 68601  51.9009 137.6169 0000889 184.1328 281.5142 14.79529500  5417
KUIPER-00299            
1 68864U 26095A   26177.33713795  .00001553  00000+0  25174-3 0  9990
2 68864  51.8977 208.3097 0002158 192.2530 167.8378 14.76446596  8996
KUIPER-00353            
1 68865U 26095B   26177.91668981 -.01892570  00000+0 -84700-1 0  9999
2 68865  51.8893 195.5615 0002290   2.0719 349.2772 15.24047746  5046
KUIPER-00357            
1 68866U 26095C   26177.91668981  .00001045  00000+0  14860-3 0  9998
2 68866  51.8990 200.2230 0002501  14.4302 218.2720 14.84898928  3454
KUIPER-00364            
1 68867U 26095D   26177.91668981  .00032480  00000+0  46056-2 0  9997
2 68867  51.9016 202.5920 0002037 135.5175   3.6487 14.76712586  3444
KUIPER-00375            
1 68868U 26095E   26177.91668981 -.02315819  00000+0 -14792+0 0  9991
2 68868  51.8932 196.3712 0001902  34.0456 287.3182 15.11935383  5510
KUIPER-00433            
1 68869U 26095F   26177.78595865  .00002346  00000+0  33698-3 0  9991
2 68869  51.8985 210.7126 0000686  77.3499 282.7540 14.79896462  9006
KUIPER-00437            
1 68870U 26095G   26177.77403671  .00021996  00000+0  58466-3 0  9997
2 68870  51.8770 196.0602 0008110 347.1443  12.9336 15.38147064  9203
KUIPER-00448            
1 68871U 26095H   26177.91668981 -.00033659  00000+0 -30852-2 0  9990
2 68871  51.8951 198.5210 0003949  41.4463 182.4544 14.94387014  5468
KUIPER-00459            
1 68872U 26095J   26177.78242586  .00022273  00000+0  65779-3 0  9990
2 68872  51.8688 196.8016 0010462 344.1121  15.9535 15.34831070  9198
KUIPER-00468            
1 68873U 26095K   26177.76156895  .00009849  00000+0  27121-3 0  9999
2 68873  51.8795 195.9943 0004233 336.3090  23.7701 15.37788280  9205
KUIPER-00476            
1 68874U 26095L   26177.76600249  .00016970  00000+0  50149-3 0  9996
2 68874  51.8719 196.7119 0009236 351.7623   8.3210 15.35011420  9192
KUIPER-00478            
1 68875U 26095M   26177.78601553 -.00207152  00000+0 -62538-2 0  9998
2 68875  51.8762 196.1311 0007975 350.5558   9.5276 15.34506068  9204
KUIPER-00480            
1 68876U 26095N   26177.76643493  .00020981  00000+0  55589-3 0  9996
2 68876  51.8752 196.0009 0006368 343.0242  17.0531 15.38287986  9206
KUIPER-00482            
1 68877U 26095P   26177.91668981 -.01780034  00000+0 -15345+0 0  9990
2 68877  51.8945 197.7272 0002686  39.3755 342.6975 15.00539844  1386
KUIPER-00483            
1 68878U 26095Q   26177.82329909  .00001568  00000+0  25286-3 0  9999
2 68878  51.8962 209.8703 0001826 172.5936 187.5052 14.76622714  9017
KUIPER-00488            
1 68879U 26095R   26177.91668981 -.01785805  00000+0 -76330-1 0  9996
2 68879  51.8728 196.2905 0010468   4.8067 280.0639 15.25826361  5469
KUIPER-00489            
1 68880U 26095S   26177.76801856  .00008472  00000+0  25836-3 0  9993
2 68880  51.8719 196.7335 0010477 348.1577  11.9160 15.34739030  9193
KUIPER-00499            
1 68881U 26095T   26177.78924203  .00024376  00000+0  73184-3 0  9998
2 68881  51.8657 196.8385 0007278 345.3886  14.6888 15.34282227  9196
KUIPER-00500            
1 68882U 26095U   26177.82214000  .00002375  00000+0  34040-3 0  9994
2 68882  51.8984 208.0491 0001111 288.9898  71.0944 14.79933541  9043
KUIPER-00502            
1 68883U 26095V   26177.75954145  .00026053  00000+0  68821-3 0  9991
2 68883  51.8771 195.9695 0006672 343.8496  16.2278 15.38245851  9205
KUIPER-00503            
1 68884U 26095W   26177.79112037  .00002022  00000+0  29402-3 0  9994
2 68884  51.8960 205.6842 0000804  86.1898 273.9156 14.79959953  9074
KUIPER-00504            
1 68885U 26095X   26177.81675519  .00000857  00000+0  14135-3 0  9998
2 68885  51.8994 213.0727 0000366  62.9700 297.1300 14.79929184  8974
KUIPER-00505            
1 68886U 26095Y   26177.91668981  .00031969  00000+0  42038-2 0  9995
2 68886  51.8992 202.6340 0000591 163.5501 131.3231 14.79919855  5664
KUIPER-00507            
1 68887U 26095Z   26177.91668981 -.01162318  00000+0 -55519-1 0  9999
2 68887  51.8894 195.5137 0002199  74.6860 274.3570 15.21366629  2615
KUIPER-00511            
1 68888U 26095AA  26177.76945355  .00023222  00000+0  61574-3 0  9993
2 68888  51.8759 196.0247 0006850 347.7857  12.2963 15.38197863  9209
KUIPER-00512            
1 68889U 26095AB  26177.35229880  .00002230  00000+0  32170-3 0  9993
2 68889  51.8997 207.6315 0000368  87.0356 273.0648 14.79900622  9009
KUIPER-00519            
1 68890U 26095AC  26177.91668981 -.01659254  00000+0 -11888+0 0  9992
2 68890  51.8937 196.5819 0001882 110.7093  23.1752 15.07186560  5009
KUIPER-00521            
1 68891U 26095AD  26177.66569063 -.00107667  00000+0 -29283-2 0  9992
2 68891  51.8815 196.1138 0000906  13.6720 346.4291 15.37333910  9198
KUIPER-00524            
1 68892U 26095AE  26177.91668981  .00040660  00000+0  28012-2 0  9996
2 68892  51.9110 197.4449 0002639  78.6728 341.5574 15.05456090  5861
KUIPER-00370            
1 68919U 26098A   26177.84420545  .00021470  00000+0  77813-3 0  9995
2 68919  51.8747  23.1566 0013631 192.3920 167.6730 15.28227395  8800
KUIPER-00380            
1 68920U 26098B   26177.94267944  .00017053  00000+0  58230-3 0  9994
2 68920  51.8756  21.6063 0007517 187.6159 172.4712 15.30390316  8838
KUIPER-00386            
1 68921U 26098C   26177.90068417  .00039360  00000+0  10965-2 0  9992
2 68921  51.8751  20.6040 0002849 227.5904 132.4841 15.36402213  8849
KUIPER-00388            
1 68922U 26098D   26177.93731230 -.00463251  00000+0 -19811-1 0  9996
2 68922  51.8758  23.0220 0021549 176.3941 183.7199 15.24130717  8810
KUIPER-00405            
1 68923U 26098E   26177.86540212 -.00229070  00000+0 -84181-2 0  9999
2 68923  51.8764  22.5786 0013288 185.9136 174.1692 15.28254885  8811
KUIPER-00408            
1 68924U 26098F   26177.91657982  .00021088  00000+0  80618-3 0  9998
2 68924  51.8757  22.8961 0016509 186.4778 173.5993 15.26435734  8818
KUIPER-00409            
1 68925U 26098G   26177.85146865  .00034324  00000+0  11111-2 0  9993
2 68925  51.8745  21.7551 0006441 193.9696 166.1112 15.31702860  8820
KUIPER-00410            
1 68926U 26098H   26177.84618906  .00013022  00000+0  49330-3 0  9990
2 68926  51.8773  23.1790 0014125 188.5573 171.5171 15.27147706  8805
KUIPER-00412            
1 68927U 26098J   26177.93944280  .00025318  00000+0  69213-3 0  9991
2 68927  51.8793  20.1452 0002265 248.4044 111.6702 15.37217505  8857
KUIPER-00413            
1 68928U 26098K   26177.91668981  .00023699  00000+0  10956-2 0  9990
2 68928  51.8795  23.2545 0023754 197.5492 329.0542 15.19806710  5096
KUIPER-00414            
1 68929U 26098L   26177.91668981 -.00015673  00000+0 -19743-2 0  9999
2 68929  51.8980  27.7465 0013907 182.7405 182.6978 14.81045120  4095
KUIPER-00415            
1 68930U 26098M   26177.81730765  .00020215  00000+0  68021-3 0  9990
2 68930  51.8796  22.2870 0010533 171.9586 188.1568 15.30723441  8818
KUIPER-00416            
1 68931U 26098N   26177.93178369  .00024589  00000+0  67169-3 0  9990
2 68931  51.8759  20.0780 0000812 227.3477 132.7442 15.37258236  8850
KUIPER-00420            
1 68932U 26098P   26177.83917869  .00032914  00000+0  92755-3 0  9996
2 68932  51.8789  20.9610 0003274 220.8664 139.2077 15.36129000  8835
KUIPER-00421            
1 68933U 26098Q   26177.85631453  .00026260  00000+0  87135-3 0  9994
2 68933  51.8763  21.7975 0008090 164.1782 195.9457 15.31036214  8822
KUIPER-00425            
1 68934U 26098R   26177.85009601  .00026677  00000+0  99817-3 0  9991
2 68934  51.8780  23.2131 0015114 191.7981 168.2649 15.27027363  8809
KUIPER-00430            
1 68935U 26098S   26177.85181261  .00029282  00000+0  10695-2 0  9996
2 68935  51.8774  23.2271 0020894 186.9830 173.0865 15.27676849  8801
KUIPER-00431            
1 68936U 26098T   26177.91668981 -.00945363  00000+0 -45933-1 0  9994
2 68936  51.8782  23.2084 0015638 173.4723  34.8629 15.20491661  5804
KUIPER-00432            
1 68937U 26098U   26177.85965116  .00016301  00000+0  58340-3 0  9995
2 68937  51.8736  22.5359 0013109 184.1957 175.8919 15.28841730  8816
KUIPER-00434            
1 68938U 26098V   26177.83992881 -.00139971  00000+0 -49365-2 0  9990
2 68938  51.8778  21.6848 0005656 168.2049 191.9068 15.29262471  8824
KUIPER-00436            
1 68939U 26098W   26177.75379049 -.00051912  00000+0 -17573-2 0  9991
2 68939  51.8771  22.5908 0008380 188.0994 171.9856 15.30046055  8802
KUIPER-00438            
1 68940U 26098X   26177.83864643  .00018543  00000+0  60663-3 0  9991
2 68940  51.8766  21.6729 0006416 201.2707 158.8011 15.31722243  8827
KUIPER-00439            
1 68941U 26098Y   26177.86249384  .00023055  00000+0  73511-3 0  9994
2 68941  51.8768  21.8391 0006100 191.5520 168.5325 15.32406108  8827
KUIPER-00440            
1 68942U 26098Z   26177.96157520  .00005636  00000+0  19073-3 0  9994
2 68942  51.8812  21.0194 0003629 205.2241 154.8567 15.32107559  8843
KUIPER-00442            
1 68943U 26098AA  26177.91668981  .00031377  00000+0  93508-3 0  9994
2 68943  51.8800  21.0826 0005069 179.5923   9.0647 15.34390767  3665
KUIPER-00446            
1 68944U 26098AB  26177.94864563  .00018737  00000+0  57358-3 0  9990
2 68944  51.8759  20.9146 0005228 182.7461 177.3496 15.33845098  8849
KUIPER-00451            
1 68945U 26098AC  26177.91668981 -.01107301  00000+0 -56449-1 0  9991
2 68945  51.8809  23.1325 0011232 175.6561  61.6292 15.18915025  4323
KUIPER-00452            
1 68946U 26098AD  26177.83587366  .00018641  00000+0  53559-3 0  9996
2 68946  51.8749  20.9239 0003112 176.4054 183.6955 15.35857955  8837
KUIPER-00453            
1 68947U 26098AE  26177.93909119  .00024905  00000+0  68232-3 0  9996
2 68947  51.8770  20.1255 0002422 233.2369 126.8395 15.37159021  8856
KUIPER-00454            
1 68948U 26098AF  26177.85064741 -.00313979  00000+0 -15916-1 0  9994
2 68948  51.8845  23.9496 0018898 157.0947 203.0878 15.17748725  8797
KUIPER-00455            
1 68949U 26098AG  26177.94660565 -.00243554  00000+0 -11087-1 0  9997
2 68949  51.8776  23.1103 0019416 178.1260 181.9796 15.21094119  8819
KUIPER-00458            
1 68950U 26098AH  26177.95930084  .00020279  00000+0  57199-3 0  9997
2 68950  51.8785  20.2663 0003059 204.8180 155.2660 15.36379249  8858
KUIPER-00282            
1 69267U 26118A   26177.79803624 -.00051096  00000+0 -15373-2 0  9993
2 69267  51.8601   7.3062 0011868 222.0114 137.9962 15.33752875  5454
KUIPER-00383            
1 69268U 26118B   26177.91668981  .00050581  00000+0  14983-2 0  9995
2 69268  51.8604   6.6930 0010538 222.0638  96.4499 15.34316626  4913
KUIPER-00527            
1 69269U 26118C   26177.91686913  .00008649  00000+0  26600-3 0  9999
2 69269  51.8651   6.6132 0011540 218.8513 141.1644 15.34430670  5477
KUIPER-00562            
1 69270U 26118D   26176.55946848  .00038146  00000+0  98221-3 0  9999
2 69270  51.8720  12.5412 0001319 134.3702 225.7394 15.38854748  5277
KUIPER-00570            
1 69271U 26118E   26177.93322834 -.00333266  00000+0 -12651-1 0  9990
2 69271  51.8612   6.6916 0012665 226.9706 133.0216 15.27666749  5475
KUIPER-00572            
1 69272U 26118F   26177.95282942  .00026110  00000+0  71217-3 0  9998
2 69272  51.8677   6.1244 0006757 209.2541 150.8068 15.37253348  5483
KUIPER-00581            
1 69273U 26118G   26177.82914167 -.00319840  00000+0 -92311-2 0  9990
2 69273  51.8671   6.7876 0008625 213.1679 146.8768 15.36372918  5551
KUIPER-00584            
1 69274U 26118H   26177.91668981 -.00217919  00000+0 -92030-2 0  9993
2 69274  51.8696   6.8592 0012053 232.7391 345.0009 15.23629407  4074
KUIPER-00587            
1 69275U 26118J   26177.82852009  .00041162  00000+0  11297-2 0  9999
2 69275  51.8639   6.7815 0007595 216.8408 143.2057 15.36826442  5463
KUIPER-00590            
1 69276U 26118K   26177.93651606  .00034474  00000+0  90893-3 0  9990
2 69276  51.8693   6.0217 0003791 201.1251 158.9580 15.38170254  5481
KUIPER-00592            
1 69277U 26118L   26177.93284475  .00016325  00000+0  43439-3 0  9996
2 69277  51.8711   5.9989 0003168 172.2756 187.8280 15.38348993  5488
KUIPER-00593            
1 69278U 26118M   26177.93383776  .00038151  00000+0  99990-3 0  9995
2 69278  51.8711   6.0047 0003420 195.8668 164.2212 15.38306311  5549
KUIPER-00594            
1 69279U 26118N   26177.92231036  .00035022  00000+0  90504-3 0  9992
2 69279  51.8729   5.9311 0000961  54.7744 305.3333 15.38784718  5482
KUIPER-00595            
1 69280U 26118P   26177.92506357  .00043847  00000+0  11299-2 0  9992
2 69280  51.8725   5.9489 0001014 196.2397 163.8558 15.38766349  5512
KUIPER-00596            
1 69281U 26118Q   26177.92274314 -.00004666  00000+0 -13073-3 0  9999
2 69281  51.8636   6.6544 0010875 219.8083 140.2105 15.33380969  5470
KUIPER-00597            
1 69282U 26118R   26177.95103084  .00015268  00000+0  42130-3 0  9992
2 69282  51.8644   6.1095 0006657 209.5379 150.5232 15.37263561  5481
KUIPER-00599            
1 69283U 26118S   26177.81640443  .00021759  00000+0  59112-3 0  9993
2 69283  51.8690   6.7132 0005772 206.1833 153.8863 15.37493032  5468
KUIPER-00600            
1 69284U 26118T   26177.82747795  .00020957  00000+0  58042-3 0  9993
2 69284  51.8642   6.7778 0008132 208.7574 151.2965 15.36903351  5469
KUIPER-00601            
1 69285U 26118U   26177.94100777  .00027428  00000+0  73377-3 0  9998
2 69285  51.8705   6.0509 0004502 194.0043 166.0819 15.37837113  5487
KUIPER-00602            
1 69286U 26118V   26177.93144113  .00043703  00000+0  11382-2 0  9991
2 69286  51.8709   5.9904 0002469 190.1071 169.9867 15.38439376  5482
KUIPER-00603            
1 69287U 26118W   26177.94246259  .00025942  00000+0  69485-3 0  9990
2 69287  51.8678   6.0571 0005043 200.1526 159.9263 15.37828479  5482
KUIPER-00605            
1 69288U 26118X   26177.95153978  .00016278  00000+0  44794-3 0  9995
2 69288  51.8661   6.1140 0007103 205.1024 154.9618 15.37294359  5488
KUIPER-00606            
1 69289U 26118Y   26177.93920968  .00043200  00000+0  11459-2 0  9991
2 69289  51.8706   6.0393 0003984 195.3207 164.7660 15.37876257  5483
KUIPER-00607            
1 69290U 26118Z   26177.94460591  .00026622  00000+0  71753-3 0  9998
2 69290  51.8673   6.0716 0005488 203.9529 156.1203 15.37619216  5489
KUIPER-00608            
1 69291U 26118AA  26177.91126880  .00011093  00000+0  33246-3 0  9997
2 69291  51.8627   6.5758 0007694 218.0374 142.0069 15.34969596  5475
KUIPER-00610            
1 69292U 26118AB  26177.79931488  .00030481  00000+0  79820-3 0  9992
2 69292  51.8739   6.6041 0001730 194.0931 166.0008 15.38446552  5467
KUIPER-00613            
1 69293U 26118AC  26177.92039215  .00027506  00000+0  81948-3 0  9993
2 69293  51.8588   6.6284 0010689 220.3664 139.6528 15.34427698  5478
KUIPER-00618            
1 69294U 26118AD  26177.92431490  .00030892  00000+0  84108-3 0  9998
2 69294  51.8732   5.9405 0001339 145.4375 214.6699 15.37236004  5481
KUIPER-00620            
1 69295U 26118AE  26177.79858503  .00035419  00000+0  92737-3 0  9999
2 69295  51.8735   6.6008 0002037 146.8990 213.2125 15.38375127  5464
KUIPER-00423            
1 69592U 26140A   26177.91668981  .00067397  00000+0  17545-2 0  9990
2 69592  51.8814 351.5623 0013763 198.8263  95.1457 15.38172420  1300
KUIPER-00428            
1 69593U 26140B   26177.91668981  .00072066  00000+0  19869-2 0  9991
2 69593  51.8818 351.7759 0007203 331.1408 218.5643 15.36434477  2661
KUIPER-00481            
1 69594U 26140C   26177.91668981  .00069715  00000+0  18572-2 0  9999
2 69594  51.8795 351.6037 0011291 207.6309  65.5496 15.37478349  2161
KUIPER-00490            
1 69595U 26140D   26177.91668981  .00072516  00000+0  19346-2 0  9993
2 69595  51.8792 351.7049 0006237 270.6405 311.2665 15.37457950  2641
KUIPER-00493            
1 69596U 26140E   26177.91668981  .00091470  00000+0  25294-2 0  9993
2 69596  51.8819 351.7993 0006507 339.1503 199.1051 15.36231443  2132
KUIPER-00496            
1 69597U 26140F   26177.91668981  .00084189  00000+0  24001-2 0  9998
2 69597  51.8802 351.8239 0008509 344.7682 179.7001 15.35307467  2670
KUIPER-00513            
1 69598U 26140G   26177.91668981  .00069778  00000+0  18503-2 0  9996
2 69598  51.8822 351.7006 0006226 263.0334 323.6246 15.37663478  2518
KUIPER-00516            
1 69599U 26140H   26177.91668981  .00069557  00000+0  18678-2 0  9995
2 69599  51.8803 351.7215 0005920 281.5106 293.1699 15.37277324  2662
KUIPER-00517            
1 69600U 26140J   26177.91668981  .00069430  00000+0  17800-2 0  9994
2 69600  51.8785 351.6254 0010053 223.1235  38.6054 15.38673680  2229
KUIPER-00520            
1 69601U 26140K   26177.91668981  .00069879  00000+0  18850-2 0  9998
2 69601  51.8831 351.7383 0005575 285.9640 283.1459 15.37135456  2594
KUIPER-00522            
1 69602U 26140L   26177.91668981  .00068553  00000+0  17858-2 0  9994
2 69602  51.8793 351.5582 0013675 196.0227  99.7534 15.38145871  2165
KUIPER-00528            
1 69603U 26140M   26177.91668981  .00070400  00000+0  19082-2 0  9990
2 69603  51.8802 351.7431 0004551 292.5078 271.5529 15.36988632  1308
KUIPER-00532            
1 69604U 26140N   26177.91668981  .00070579  00000+0  19415-2 0  9998
2 69604  51.8803 351.7726 0005024 324.2059 225.3147 15.36526961  2661
KUIPER-00533            
1 69605U 26140P   26177.91668981  .00068808  00000+0  18107-2 0  9998
2 69605  51.8798 351.6744 0007477 251.4161 346.6037 15.37896550  2146
KUIPER-00534            
1 69606U 26140Q   26177.91668981  .00070694  00000+0  17280-2 0  9996
2 69606  51.8822 351.5330 0014403 196.0859 112.2431 15.40065148  2421
KUIPER-00537            
1 69607U 26140R   26177.91668981  .00071178  00000+0  20058-2 0  9992
2 69607  51.8822 351.8224 0008191 348.6524 179.2237 15.35752312  2403
KUIPER-00538            
1 69608U 26140S   26177.91668981  .00069433  00000+0  18664-2 0  9994
2 69608  51.8822 351.7211 0005356 268.5147 308.1023 15.37248324  2647
KUIPER-00540            
1 69609U 26140T   26177.91668981  .00071069  00000+0  19458-2 0  9995
2 69609  51.8828 351.7675 0005576 318.3783 236.3380 15.36667441  2138
KUIPER-00541            
1 69610U 26140U   26177.91668981  .00069187  00000+0  18210-2 0  9990
2 69610  51.8832 351.6871 0006888 247.5835 346.4200 15.37892289  2641
KUIPER-00542            
1 69611U 26140V   26177.91668981  .00072195  00000+0  18895-2 0  9993
2 69611  51.8798 351.6658 0007299 229.2742  12.9953 15.38044385  1744
KUIPER-00543            
1 69612U 26140W   26177.91668981  .00070783  00000+0  19564-2 0  9999
2 69612  51.8797 351.7822 0006923 334.5939 209.3258 15.36366677  1984
KUIPER-00544            
1 69613U 26140X   26177.91668981  .00069152  00000+0  18293-2 0  9996
2 69613  51.8800 351.6920 0006371 247.7531 341.5900 15.37740189  2246
KUIPER-00546            
1 69614U 26140Y   26177.91668981  .00068522  00000+0  17678-2 0  9993
2 69614  51.8793 351.5384 0014987 194.8244 110.5176 15.38424948  2675
KUIPER-00547            
1 69615U 26140Z   26177.91668981  .00068429  00000+0  17327-2 0  9991
2 69615  51.8829 351.6040 0011294 215.3093  58.9957 15.39045530  1303
KUIPER-00549            
1 69616U 26140AA  26177.91668981  .00070722  00000+0  19224-2 0  9999
2 69616  51.8803 351.7482 0006283 310.5689 250.9506 15.36889671  2582
KUIPER-00550            
1 69617U 26140AB  26177.91668981  .00075561  00000+0  21621-2 0  9990
2 69617  51.8805 351.8338 0006284 355.6467 163.8558 15.35259029  1979
KUIPER-00551            
1 69618U 26140AC  26177.91668981  .00069104  00000+0  17200-2 0  9995
2 69618  51.8794 351.5658 0013235 206.7088  85.0215 15.39541130  1301
KUIPER-00554            
1 69619U 26140AD  26177.91668981  .00068420  00000+0  17245-2 0  9995
2 69619  51.8795 351.5936 0011610 215.7716  62.2211 15.39182848  2395
KUIPER-00555            
1 69620U 26140AE  26177.91668981  .00069011  00000+0  17261-2 0  9992
2 69620  51.8828 351.5809 0012182 208.3089  77.0527 15.39407063  2190
KUIPER-00556            
1 69621U 26140AF  26177.91668981  .00067656  00000+0  17815-2 0  9991
2 69621  51.8814 351.5820 0012342 197.3396  86.9374 15.37838326  2394
KUIPER-00557            
1 69622U 26140AG  26177.91668981  .00070380  00000+0  17995-2 0  9999
2 69622  51.8820 351.6222 0010701 224.0279  40.9785 15.38741849  1551
KUIPER-00560            
1 69623U 26140AH  26177.91668981  .00068926  00000+0  17841-2 0  9993
2 69623  51.8797 351.6470 0008632 231.4286  20.1262 15.38395551  2309
KUIPER-00561            
1 69624U 26140AJ  26177.91668981  .00071581  00000+0  18636-2 0  9998
2 69624  51.8832 351.6602 0008166 232.6658  14.3986 15.38203913  2516
KUIPER-00564            
1 69625U 26140AK  26177.91668981  .00070179  00000+0  18080-2 0  9994
2 69625  51.8820 351.6385 0009361 222.6395  34.2749 15.38524790  1973
KUIPER-00567            
1 69626U 26140AL  26177.91668981  .00067053  00000+0  17532-2 0  9993
2 69626  51.8784 351.5686 0013004 199.6567  90.6463 15.38050384  2703
KUIPER-00573            
1 69627U 26140AM  26177.91668981  .00066317  00000+0  17858-2 0  9997
2 69627  51.8795 351.6256 0009781 212.6484  49.6228 15.37182509  2641
