EUTELSAT 139 WEST A     
1 28187U 04008A   26079.77146787  .00000058  00000+0  00000+0 0  9990
2 28187   5.6031  73.0525 0002572  27.9599 350.6356  1.00830819 80479
EUTELSAT 174A           
1 28924U 05052A   26079.87810601  .00000013  00000+0  00000+0 0  9994
2 28924   3.9941  77.6044 0006229 282.3390 308.5540  1.00270802 51446
EUTELSAT 33F            
1 29270U 06032A   26079.85019922  .00000159  00000+0  00000+0 0  9994
2 29270   1.4320  83.2342 0003407 273.5047 160.7912  1.00269861 46421
EUTELSAT HOTBIRD 13C    
1 33459U 08065A   26079.83373249 -.00000279  00000+0  00000+0 0  9993
2 33459   2.7220  80.2267 0003778 284.4461  63.5314  1.00273202 46456
EUTELSAT 36B            
1 36101U 09065A   26079.92499286  .00000115  00000+0  00000+0 0  9999
2 36101   0.2677  78.3284 0005790 282.7743 200.8195  1.00272064 59822
EUTELSAT KA-SAT 9A      
1 37258U 10069A   26079.90627902  .00000064  00000+0  00000+0 0  9998
2 37258   0.0581 358.5509 0002897 144.1285  11.0016  1.00272065 43129
EUTELSAT 7 WEST A       
1 37816U 11051A   26079.91780829 -.00000058  00000+0  00000+0 0  9993
2 37816   0.0643 359.3377 0000854 174.2343 327.9450  1.00270942 52998
EUTELSAT 16A            
1 37836U 11057A   26079.90072410  .00000106  00000+0  00000+0 0  9993
2 37836   0.0565   5.5367 0005541 357.4720 155.6514  1.00272573  6453
EUTELSAT 21B            
1 38992U 12062B   26079.91918617  .00000132  00000+0  00000+0 0  9992
2 38992   0.0699   4.4522 0002901 353.9103 172.5594  1.00272608 48944
EUTELSAT 70B            
1 39020U 12069A   26079.92889288 -.00000041  00000+0  00000+0 0  9994
2 39020   0.0655 351.4322 0001889   1.1203 230.7789  1.00271504 48621
EUTELSAT 117 WEST A     
1 39122U 13012A   26079.67788951  .00000000  00000+0  00000+0 0  9997
2 39122   0.0096 185.0283 0002854 172.3665 308.0551  1.00269392 47544
EUTELSAT 7B             
1 39163U 13022A   26079.90669568  .00000050  00000+0  00000+0 0  9996
2 39163   0.0694   5.5024 0006253 354.8579 151.4675  1.00272308 47065
EXPRESS-AT1             
1 39612U 14010A   26079.92611954  .00000079  00000+0  00000+0 0  9992
2 39612   0.0278 106.6631 0000384 347.8937 113.4327  1.00276837 43933
EXPRESS-AT2             
1 39613U 14010B   26070.51237429 -.00000280  00000+0  00000+0 0  9995
2 39613   0.0166 193.7113 0001308  80.7943 218.9521  1.00271550 43528
EUTELSAT 3B             
1 39773U 14030A   26079.91725274  .00000022  00000+0  00000+0 0  9990
2 39773   0.0643 351.6110 0000229 305.9006 214.2257  1.00270440 43184
EUTELSAT 115 WEST B     
1 40425U 15010B   26079.89205940 -.00000023  00000+0  00000+0 0  9997
2 40425   0.0188 331.0179 0000041 111.3868 302.2458  1.00272268 40502
EUTELSAT 8 WEST B       
1 40875U 15039B   26079.91780829 -.00000063  00000+0  00000+0 0  9998
2 40875   0.0686   5.3575 0003832 355.5483 139.9357  1.00272027 38773
EUTELSAT 9B             
1 41310U 16005A   26079.90627902  .00000064  00000+0  00000+0 0  9998
2 41310   0.0436  57.8174 0004253 275.3015 180.5580  1.00270015 37231
EUTELSAT 65 WEST A      
1 41382U 16014A   26079.90202611 -.00000274  00000+0  00000+0 0  9997
2 41382   0.0693  33.0604 0002175 320.9736  83.9224  1.00270737 36643
EUTELSAT 117 WEST B     
1 41589U 16038B   26079.67788951 -.00000009  00000+0  00000+0 0  9998
2 41589   0.0179 335.4381 0000094  53.2440 276.5650  1.00272339 35774
EUTELSAT 172B           
1 42741U 17029B   26079.68030794 -.00000004  00000+0  00000+0 0  9991
2 42741   0.0198 154.0441 0000367  29.6954  51.3693  1.00269673 32857
EUTELSAT 7C             
1 44334U 19034B   26079.90669568  .00000051  00000+0  00000+0 0  9992
2 44334   0.0703 176.7957 0003598 167.0680 167.9669  1.00275311  5958
EUTELSAT 5 WEST B       
1 44624U 19067A   26079.91780829 -.00000040  00000+0  00000+0 0  9994
2 44624   0.0725 336.7919 0003170  28.6652 138.3838  1.00271578 23554
EUTELSAT KONNECT        
1 45027U 20005B   26079.90669568  .00000053  00000+0  00000+0 0  9994
2 45027   0.0659  97.7761 0001597 219.0647 195.2217  1.00274943 23459
EUTELSAT QUANTUM        
1 49056U 21069B   26079.92438619  .00000129  00000+0  00000+0 0  9998
2 49056   0.0101 144.4456 0002278 210.8129 203.6616  1.00269423 17041
EUTELSAT KONNECT VHTS   
1 53765U 22110A   26079.91780829  .00000019  00000+0  00000+0 0  9998
2 53765   0.0589 103.9553 0002936 226.3152 181.2578  1.00269022  5950
EUTELSAT HOTBIRD 13F    
1 54048U 22134A   26079.90114076  .00000089  00000+0  00000+0 0  9990
2 54048   0.0575 289.4260 0002027  65.9442 160.4598  1.00273191 12495
EUTELSAT HOTBIRD 13G    
1 54225U 22146A   26079.91753950  .00000090  00000+0  00000+0 0  9993
2 54225   0.0451 230.3784 0001965 317.2253 334.1289  1.00274519  6589
EUTELSAT 10B            
1 54259U 22157A   26079.90114076  .00000070  00000+0  00000+0 0  9999
2 54259   0.0584 100.8448 0001408  16.0225  35.9543  1.00266608 12144
EUTELSAT 36D            
1 59346U 24059A   26079.85739029  .00000158  00000+0  00000+0 0  9996
2 59346   0.0113 189.1697 0000287  16.9822 316.7450  1.00270105  7267
