KUIPER-00008            
1 63724U 25088A   26132.48375942  .00001446  00000+0  21818-3 0  9998
2 63724  51.8993 165.9062 0000369  45.2505 314.8487 14.80030256 57496
KUIPER-00009            
1 63725U 25088B   26132.49914996  .00001740  00000+0  25720-3 0  9991
2 63725  51.9012 183.4615 0000453 126.1375 233.9629 14.79923104 57240
KUIPER-00010            
1 63726U 25088C   26132.45581985  .00001539  00000+0  23096-3 0  9996
2 63726  51.9006 161.1276 0000337  85.9449 274.1552 14.79917948 57178
KUIPER-00011            
1 63727U 25088D   26132.34647915  .00000540  00000+0  99796-4 0  9993
2 63727  51.8998 169.1690 0000331  66.4598 293.6400 14.79916673 57182
KUIPER-00012            
1 63728U 25088E   26132.46397345  .00000920  00000+0  14977-3 0  9995
2 63728  51.9010 153.5783 0000473  75.3456 284.7559 14.79913894 57366
KUIPER-00013            
1 63729U 25088F   26132.53018057  .00000834  00000+0  13844-3 0  9990
2 63729  51.9014 185.8034 0000297 303.7790  56.3144 14.79924909 57026
KUIPER-00014            
1 63730U 25088G   26132.42891033  .00001724  00000+0  25479-3 0  9999
2 63730  51.9010 186.1943 0000378 177.8510 182.2454 14.79972222 56828
KUIPER-00015            
1 63731U 25088H   26132.58692332 -.00001329  00000+0 -14546-3 0  9994
2 63731  51.8969 195.5742 0000367  64.1033 295.9968 14.79919916 57169
KUIPER-00016            
1 63732U 25088J   26132.62796586  .00001605  00000+0  24247-3 0  9990
2 63732  51.8986 187.8284 0001764 101.1473 258.9687 14.79392497 56813
KUIPER-00018            
1 63733U 25088K   26132.53826991 -.00000417  00000+0 -25677-4 0  9996
2 63733  51.9023 178.2469 0000485  88.9850 271.1168 14.79927473 56949
KUIPER-00019            
1 63734U 25088L   26132.49421267  .00087005  00000+0  11981-1 0  9995
2 63734  51.8993 177.1808 0001862 201.1387 158.9497 14.77434568 56958
KUIPER-00020            
1 63735U 25088M   26132.53559738  .00000747  00000+0  12697-3 0  9991
2 63735  51.9012 180.7714 0000514 310.8513  49.2405 14.79919232 57118
KUIPER-00021            
1 63736U 25088N   26132.43429364  .00001471  00000+0  22195-3 0  9991
2 63736  51.9003 181.1813 0001174  61.4968 298.6113 14.79925302 56930
KUIPER-00023            
1 63737U 25088P   26132.53275892  .00014223  00000+0  18945-2 0  9994
2 63737  51.9001 183.2323 0000605  43.5909 316.5101 14.79850054 57212
KUIPER-00024            
1 63738U 25088Q   26132.47883551  .00000932  00000+0  15128-3 0  9998
2 63738  51.9021 171.0559 0000438  86.4935 273.6077 14.79924947 57500
KUIPER-00025            
1 63739U 25088R   26132.57199464  .00000973  00000+0  15676-3 0  9996
2 63739  51.9025 178.1241 0000495  73.9985 286.1032 14.79891688 57279
KUIPER-00027            
1 63740U 25088S   26132.54366915  .00000983  00000+0  15796-3 0  9996
2 63740  51.9008 173.2296 0000433  81.2520 278.8491 14.79933319 57070
KUIPER-00028            
1 63741U 25088T   26132.51257840  .00000605  00000+0  10828-3 0  9992
2 63741  51.8993 170.8269 0000421  80.2370 279.8640 14.79938463 57516
KUIPER-00029            
1 63742U 25088U   26132.38458950  .00001425  00000+0  23215-3 0  9998
2 63742  51.9016 169.6912 0002549  57.6672 302.4535 14.76720488 57048
KUIPER-00030            
1 63743U 25088V   26132.52727151  .00006263  00000+0  85009-3 0  9991
2 63743  51.9042 188.2635 0000704  56.6413 303.4617 14.79920039 57083
KUIPER-00031            
1 63744U 25088W   26132.58335648 -.00012574  00000+0 -16051-2 0  9998
2 63744  51.8988 171.4189 0001671  62.7165  90.6833 14.80405367  5257
KUIPER-00032            
1 63745U 25088X   26132.13827489  .00008745  00000+0  23157-3 0  9998
2 63745  51.8671  76.9406 0004842   2.9668 357.1347 15.39157995 59318
KUIPER-00033            
1 63746U 25088Y   26132.47753718 -.00000181  00000+0  52729-5 0  9995
2 63746  51.9015 203.5096 0000651  97.5419 262.5617 14.79929882 57067
KUIPER-00034            
1 63747U 25088Z   26132.38293851  .00000499  00000+0  94518-4 0  9995
2 63747  51.9008 166.4548 0000532  94.8936 265.2088 14.79917458 57250
KUIPER-00035            
1 63748U 25088AA  26132.35598596  .00000695  00000+0  12017-3 0  9998
2 63748  51.9003 191.5590 0000230  35.1400 324.9577 14.79919566 56955
KUIPER-00037            
1 63749U 25088AB  26132.58466602  .00002181  00000+0  28984-3 0  9998
2 63749  51.8999 189.7429 0000499   5.3190 354.7779 14.83530419 57789
KUIPER-00038            
1 63750U 25088AC  26132.40592044  .00001769  00000+0  26115-3 0  9996
2 63750  51.9019 176.3497 0000542  88.9457 271.1567 14.79905813 56958
KUIPER-00039            
1 64500U 25134A   26132.51354961  .00002097  00000+0  30418-3 0  9994
2 64500  51.9032 310.8725 0000660 107.8925 252.2109 14.79915081 49523
KUIPER-00040            
1 64501U 25134B   26132.26639415 -.00005838  00000+0 -73690-3 0  9994
2 64501  51.9007 322.0616 0002927 108.8353 251.2927 14.79958226 49349
KUIPER-00041            
1 64502U 25134C   26132.50004782  .00002072  00000+0  30069-3 0  9993
2 64502  51.9011 323.4107 0000702 105.3372 254.7668 14.79937849 49345
KUIPER-00042            
1 64503U 25134D   26132.53920480  .00002114  00000+0  30639-3 0  9999
2 64503  51.9014 318.2169 0000792 119.4270 240.6771 14.79909325 49427
KUIPER-00043            
1 64504U 25134E   26132.20967215  .00002120  00000+0  30715-3 0  9993
2 64504  51.9028 312.1551 0000499 119.5382 240.5631 14.79912884 49484
KUIPER-00044            
1 64505U 25134F   26132.53379865  .00002169  00000+0  31365-3 0  9993
2 64505  51.9007 323.2409 0000835  85.1588 274.9470 14.79910649 49352
KUIPER-00046            
1 64506U 25134G   26132.23262850  .00002081  00000+0  30195-3 0  9999
2 64506  51.8993 322.0550 0000611 107.2862 252.8167 14.79918134 49347
KUIPER-00047            
1 64507U 25134H   26132.49866155  .00002197  00000+0  31740-3 0  9991
2 64507  51.8997 293.3968 0000525  92.1770 267.9252 14.79896983 49764
KUIPER-00048            
1 64508U 25134J   26132.46488690  .00002271  00000+0  32692-3 0  9993
2 64508  51.8997 293.5610 0000620 111.0142 249.0886 14.79921249 49769
KUIPER-00049            
1 64509U 25134K   26132.48514785  .00000393  00000+0  80524-4 0  9992
2 64509  51.9016 305.9280 0000598 112.1253 247.9773 14.79918858 49598
KUIPER-00050            
1 64510U 25134L   26132.43651585  .00002310  00000+0  33195-3 0  9991
2 64510  51.9009 288.6684 0000585 110.8406 249.2619 14.79931466 49839
KUIPER-00051            
1 64511U 25134M   26132.49613495  .00001884  00000+0  29799-3 0  9996
2 64511  51.9018 304.2364 0000964 266.3238  93.7613 14.76573527 49610
KUIPER-00053            
1 64513U 25134P   26132.48901697  .00001655  00000+0  23664-3 0  9992
2 64513  51.9016 300.6169 0002084  88.2467 271.8735 14.81642030 49664
KUIPER-00054            
1 64514U 25134Q   26132.19204750  .00002256  00000+0  32485-3 0  9996
2 64514  51.8996 297.2500 0000745 111.6987 248.4054 14.79922519 49687
KUIPER-00055            
1 64515U 25134R   26132.27670093  .00002229  00000+0  31799-3 0  9990
2 64515  51.9020 249.4852 0001772  37.8475 322.2612 14.80388617 50363
KUIPER-00056            
1 64516U 25134S   26131.88278981 -.00000314  00000+0 -12203-4 0  9992
2 64516  51.9042 303.6889 0000628 118.7490 241.3536 14.79929771 49573
KUIPER-00057            
1 64517U 25134T   26132.21235919  .00002133  00000+0  30873-3 0  9996
2 64517  51.9005 309.6794 0000788 111.8138 248.2909 14.79926698 49513
KUIPER-00058            
1 64518U 25134U   26132.18396408 -.00000357  00000+0 -17782-4 0  9997
2 64518  51.9022 304.7677 0000711 116.7834 243.3201 14.79929305 49588
KUIPER-00059            
1 64519U 25134V   26132.45948268  .00002046  00000+0  29729-3 0  9993
2 64519  51.9005 298.5958 0000647 108.2036 251.8997 14.79932222 49690
KUIPER-00060            
1 64520U 25134W   26132.49331464  .00002017  00000+0  29375-3 0  9998
2 64520  51.9035 298.4945 0000633 104.3869 255.7164 14.79899953 49687
KUIPER-00061            
1 64521U 25134X   26132.17980373 -.00011366  00000+0 -14682-2 0  9996
2 64521  51.8980 307.3256 0000268 346.9006  13.1949 14.79828639 49536
KUIPER-00062            
1 64522U 25134Y   26132.51620943  .00001948  00000+0  28449-3 0  9999
2 64522  51.8977 308.3590 0000456 131.4949 228.6053 14.79918997 49566
KUIPER-00063            
1 64523U 25134Z   26131.90038490  .00002049  00000+0  29762-3 0  9994
2 64523  51.9037 318.5983 0000783 103.1576 256.9474 14.79936143 49361
KUIPER-00064            
1 64524U 25134AA  26132.51082720  .00001026  00000+0  16359-3 0  9990
2 64524  51.9055 313.3223 0000690  97.0635 263.0406 14.79932499 49494
KUIPER-00065            
1 64525U 25134AB  26132.23534783  .00002001  00000+0  29141-3 0  9998
2 64525  51.9053 319.7053 0000684 106.3281 253.7757 14.79930253 49365
KUIPER-00066            
1 64526U 25134AC  26132.60660622  .00002303  00000+0  33108-3 0  9995
2 64526  51.9025 255.3511 0000243 128.3470 231.7514 14.79926813 50315
KUIPER-00069            
1 64816U 25151A   26131.92206547 -.00000023  00000+0  26017-4 0  9992
2 64816  51.9039   1.0207 0000915 104.4587 255.6476 14.79929561 46129
KUIPER-00070            
1 64817U 25151B   26132.40156245 -.00000120  00000+0  13248-4 0  9996
2 64817  51.9019  23.8227 0000558 106.6058 253.4966 14.79930810 45850
KUIPER-00071            
1 64818U 25151C   26132.40425597  .00000711  00000+0  12219-3 0  9997
2 64818  51.9020  21.3423 0000799 106.3866 253.7185 14.79939348 44709
KUIPER-00072            
1 64819U 25151D   26132.32455470  .00002240  00000+0  32276-3 0  9996
2 64819  51.8996   1.6601 0000981 110.1327 249.9741 14.79930424 44978
KUIPER-00073            
1 64820U 25151E   26132.64062936  .00002101  00000+0  30450-3 0  9992
2 64820  51.9019  20.2851 0000858 110.8812 249.2242 14.79928684 45920
KUIPER-00074            
1 64821U 25151F   26132.59227161  .00134123  00000+0  75428-3 0  9994
2 64821  51.8931 329.0871 0005968 235.1103 124.9341 15.78295111 45444
KUIPER-00075            
1 64822U 25151G   26132.65498908  .00036299  00000+0  79821-3 0  9997
2 64822  51.8690 270.0146 0003928 145.1634 214.9613 15.43636197 46279
KUIPER-00076            
1 64823U 25151H   26132.38126319 -.00004180  00000+0 -51979-3 0  9992
2 64823  51.9029  11.4489 0001323 101.6046 258.5065 14.79923034 44848
KUIPER-00077            
1 64824U 25151J   26132.64602013  .00002118  00000+0  30675-3 0  9999
2 64824  51.9035  15.2930 0000844 105.9693 254.1363 14.79926309 44819
KUIPER-00078            
1 64825U 25151K   26132.07471107  .00002114  00000+0  30633-3 0  9995
2 64825  51.9020  15.3014 0000804 112.4769 247.6279 14.79920446 44764
KUIPER-00079            
1 64826U 25151L   26132.37318509  .00002352  00000+0  33741-3 0  9992
2 64826  51.9009  18.9503 0000692 103.5397 256.5643 14.79935462 45935
KUIPER-00080            
1 64827U 25151M   26132.60955099  .00002140  00000+0  30970-3 0  9996
2 64827  51.9023  17.9142 0000814 111.9789 248.1260 14.79925906 44779
KUIPER-00082            
1 64828U 25151N   26132.38667952  .00001470  00000+0  22181-3 0  9990
2 64828  51.9036   6.4417 0000555  99.9364 260.1661 14.79930533 44915
KUIPER-00083            
1 64829U 25151P   26132.64872559  .00002055  00000+0  29853-3 0  9994
2 64829  51.9027  12.7691 0000973 106.8287 253.2782 14.79932633 46031
KUIPER-00084            
1 64830U 25151Q   26132.43530855  .00002375  00000+0  34053-3 0  9996
2 64830  51.8990  23.6932 0001210 123.0936 237.0143 14.79927510 44674
KUIPER-00085            
1 64831U 25151R   26132.35291681 -.00000123  00000+0  12865-4 0  9997
2 64831  51.9055   6.6276 0000843 113.0381 247.0670 14.79932247 44909
KUIPER-00086            
1 64832U 25151S   26132.40966698  .00002173  00000+0  31401-3 0  9993
2 64832  51.9032  16.3361 0000827 104.3541 255.7513 14.79928081 44779
KUIPER-00087            
1 64833U 25151T   26132.36100903  .00002151  00000+0  31122-3 0  9994
2 64833  51.9019 359.0230 0000702  93.4141 266.6902 14.79918575 45000
KUIPER-00089            
1 64834U 25151U   26132.62573124 -.00000111  00000+0  14415-4 0  9995
2 64834  51.9023   2.8679 0000646 100.1389 259.9647 14.79931405 44987
KUIPER-00090            
1 64835U 25151V   26132.36369292  .00000770  00000+0  12995-3 0  9996
2 64835  51.8993 356.5452 0000900 113.2038 246.9020 14.79936649 45044
KUIPER-00091            
1 64836U 25151W   26132.62751216  .00001625  00000+0  24131-3 0  9992
2 64836  51.9036   0.3600 0001144 125.5556 234.5513 14.80071454 45018
KUIPER-00092            
1 64837U 25151X   26132.62035710  .00002063  00000+0  29948-3 0  9995
2 64837  51.9035   7.8983 0000799 106.0457 254.0593 14.79931315 46120
KUIPER-00093            
1 64838U 25151Y   26132.34763120  .00002125  00000+0  30791-3 0  9995
2 64838  51.9024  11.5832 0000903  93.0300 267.0766 14.79900509 44836
KUIPER-00094            
1 64839U 25151Z   26132.54151090 -.00003959  00000+0 -25791-3 0  9997
2 64839  51.8907 328.8271 0006034 149.5382 210.5943 15.04773242 45455
KUIPER-00081            
1 65132U 25171A   26132.53768301  .00001991  00000+0  29006-3 0  9999
2 65132  51.8997 225.7380 0000505  99.2956 260.8063 14.79936165 42490
KUIPER-00088            
1 65133U 25171B   26132.31621073  .00002091  00000+0  30324-3 0  9997
2 65133  51.8997 244.2220 0000359 105.1592 254.9411 14.79935118 42218
KUIPER-00095            
1 65134U 25171C   26132.54038849  .00002048  00000+0  29756-3 0  9995
2 65134  51.8984 223.2887 0000457  96.1951 263.9064 14.79935407 42527
KUIPER-00096            
1 65135U 25171D   26132.56065292  .00002322  00000+0  33341-3 0  9990
2 65135  51.8995 235.6404 0000509  98.2098 261.8923 14.79942604 42354
KUIPER-00097            
1 65136U 25171E   26132.55799503  .00002298  00000+0  33035-3 0  9991
2 65136  51.9030 238.2950 0000532 111.3538 248.7481 14.79930144 42307
KUIPER-00098            
1 65137U 25171F   26132.55529238  .00002358  00000+0  33823-3 0  9990
2 65137  51.9001 240.6778 0000595  97.1916 262.9114 14.79927800 41621
KUIPER-00099            
1 65138U 25171G   26132.53225219 -.00000883  00000+0 -86899-4 0  9996
2 65138  51.9042 230.7754 0000826  76.1580 283.9474 14.79904979 42414
KUIPER-00100            
1 65139U 25171H   26132.63627297  .00001959  00000+0  28585-3 0  9990
2 65139  51.9018 227.7896 0000585 111.0685 249.0340 14.79933043 42462
KUIPER-00102            
1 65140U 25171J   26132.29593817  .00002020  00000+0  29392-3 0  9991
2 65140  51.8985 231.8010 0000597 108.6919 251.4108 14.79936021 42373
KUIPER-00103            
1 65141U 25171K   26132.58095891  .00002373  00000+0  34013-3 0  9990
2 65141  51.8988 248.0350 0000629 110.6093 249.4937 14.79929500 42175
KUIPER-00104            
1 65142U 25171L   26132.59442798  .00002293  00000+0  32976-3 0  9991
2 65142  51.9022 235.4575 0000596 105.5726 254.5302 14.79921230 42359
KUIPER-00105            
1 65143U 25171M   26132.28246683  .00002196  00000+0  31707-3 0  9996
2 65143  51.9008 244.4476 0000554 101.3997 258.7028 14.79924869 42208
KUIPER-00106            
1 65144U 25171N   26132.51480027 -.00023618  00000+0 -19868-2 0  9992
2 65144  51.8947 224.8558 0008044 308.2134  51.8112 14.97516093 42501
KUIPER-00107            
1 65145U 25171P   26131.96370254  .00001999  00000+0  29121-3 0  9991
2 65145  51.9002 228.2970 0000558  98.6684 261.4341 14.79923987 42409
KUIPER-00108            
1 65146U 25171Q   26132.59174327  .00002130  00000+0  30830-3 0  9992
2 65146  51.9016 238.0462 0000404  99.0343 261.0665 14.79932329 42323
KUIPER-00109            
1 65147U 25171R   26132.56334634  .00002110  00000+0  30560-3 0  9997
2 65147  51.9023 233.1143 0000371  81.6581 278.4423 14.79940978 42387
KUIPER-00110            
1 65148U 25171S   26132.31366723  .00040519  00000+0  53315-2 0  9992
2 65148  51.9006 246.7915 0001284 230.4398 129.6451 14.79778851 42163
KUIPER-00111            
1 65149U 25171T   26132.34188460 -.00000885  00000+0 -87105-4 0  9996
2 65149  51.8981 251.5602 0000533  91.2557 268.8467 14.79925277 42101
KUIPER-00112            
1 65150U 25171U   26132.25841026  .00002109  00000+0  30456-3 0  9997
2 65150  51.9016 234.5033 0000207 200.4407 159.6547 14.80080949 42339
KUIPER-00114            
1 65151U 25171V   26132.60931697  .00000558  00000+0  10224-3 0  9998
2 65151  51.8999 252.9475 0000703 108.9837 251.1201 14.79934243 42106
KUIPER-00115            
1 65152U 25171W   26132.61742204  .00002288  00000+0  32912-3 0  9994
2 65152  51.9004 245.4055 0000467  96.7763 263.3253 14.79927560 42213
KUIPER-00116            
1 65153U 25171X   26132.57825527 -.00000211  00000+0  12842-5 0  9997
2 65153  51.9011 250.6158 0000678 105.6946 254.4091 14.79928489 42134
KUIPER-00118            
1 65154U 25171Y   26132.64297003 -.00009523  00000+0 -12227-2 0  9998
2 65154  51.8978 252.7827 0000514  92.5818 267.5203 14.79905980 42112
KUIPER-00119            
1 65155U 25171Z   26132.59594411  .00002025  00000+0  29831-3 0  9994
2 65155  51.9001 240.6502 0001117  61.9170 298.1905 14.79391421 42273
KUIPER-00120            
1 65762U 25217A   26132.42066931 -.00000003  00000+0  28668-4 0  9995
2 65762  51.8988 131.2437 0000502  79.2286 280.8733 14.79928180 34174
KUIPER-00132            
1 65763U 25217B   26132.50268783  .00037893  00000+0  89005-3 0  9991
2 65763  51.8578  53.1906 0005743 180.9247 179.1732 15.41636155 35260
KUIPER-00133            
1 65764U 25217C   26132.25183203  .00002382  00000+0  34117-3 0  9996
2 65764  51.9027 132.0682 0000207  30.2171 329.8803 14.79953920 34154
KUIPER-00139            
1 65765U 25217D   26132.31189081  .00003994  00000+0  31914-3 0  9996
2 65765  51.8840 102.4180 0008096 155.8689 204.2663 15.02299492 34573
KUIPER-00142            
1 65766U 25217E   26132.23697399  .00001787  00000+0  26344-3 0  9993
2 65766  51.8992 114.5807 0000581  73.9886 286.1140 14.79918887 34390
KUIPER-00145            
1 65767U 25217F   26132.36933058  .00001778  00000+0  26220-3 0  9996
2 65767  51.8995 116.5129 0000640  89.0171 271.0865 14.79921629 34377
KUIPER-00147            
1 65768U 25217G   26132.40040406  .00001700  00000+0  25195-3 0  9993
2 65768  51.8987 118.8640 0000841  36.6009 323.5010 14.79927876 34345
KUIPER-00148            
1 65769U 25217H   26132.59348865 -.00016235  00000+0 -23100-2 0  9998
2 65769  51.9056  98.8054 0000236 114.8561 245.2424 14.76031669 34645
KUIPER-00150            
1 65770U 25217J   26132.25454014  .00001562  00000+0  23391-3 0  9995
2 65770  51.9005 129.5289 0000479  85.5736 274.5281 14.79925232 34186
KUIPER-00151            
1 65771U 25217K   26132.26266624  .00001767  00000+0  26079-3 0  9998
2 65771  51.9010 121.9902 0000594  46.3220 313.7792 14.79930055 34296
KUIPER-00152            
1 65772U 25217L   26132.30989199  .00001896  00000+0  27753-3 0  9996
2 65772  51.9004 109.2690 0000706  44.5457 315.5562 14.79942527 34472
KUIPER-00153            
1 65773U 25217M   26132.58380545  .00078672  00000+0  10707-1 0  9992
2 65773  51.9020 103.1042 0000836 132.2295 227.8737 14.78000748 34584
KUIPER-00155            
1 65774U 25217N   26132.54747723 -.00011432  00000+0 -14713-2 0  9999
2 65774  51.9023  75.7455 0001011 107.3506 252.7568 14.79985047 34960
KUIPER-00156            
1 65775U 25217P   26132.61915285  .00001249  00000+0  19280-3 0  9996
2 65775  51.9029 102.9462 0000648  85.4056 274.6980 14.79930329 34581
KUIPER-00163            
1 65777U 25217R   26132.60365791  .00083766  00000+0  46018-3 0  9991
2 65777  51.8947  89.8736 0003184  78.4324 281.7038 15.79029575 34762
KUIPER-00165            
1 65778U 25217S   26132.20322911  .00001547  00000+0  23193-3 0  9991
2 65778  51.9006 114.7439 0000619  58.9318 301.1705 14.79927276 34384
KUIPER-00166            
1 65779U 25217T   26132.11538990 -.00000188  00000+0  43510-5 0  9996
2 65779  51.9026 102.6685 0000599  81.5200 278.5831 14.79927496 34544
KUIPER-00167            
1 65780U 25217U   26132.39498605  .00001633  00000+0  24315-3 0  9991
2 65780  51.8960 123.8330 0000527  69.4416 290.6603 14.79944355 34274
KUIPER-00168            
1 65781U 25217V   26132.21129178  .00001782  00000+0  26270-3 0  9996
2 65781  51.9008 107.2115 0000623  71.9286 288.1744 14.79927851 34490
KUIPER-00169            
1 65782U 25217W   26132.34098762  .00001712  00000+0  25342-3 0  9997
2 65782  51.9009 111.6441 0000626  67.6264 292.4764 14.79939716 34442
KUIPER-00170            
1 65783U 25217X   26132.40199101  .00001816  00000+0  26651-3 0  9993
2 65783  51.8983 116.3353 0000717  27.9554 332.1447 14.80045139 34381
KUIPER-00172            
1 65785U 25217Z   26132.61998130  .00001360  00000+0  22332-3 0  9993
2 65785  51.8988  97.5161 0001345 149.8246 210.2793 14.76637235 34665
KUIPER-00173            
1 65786U 25217AA  26132.30716383  .00001755  00000+0  25933-3 0  9996
2 65786  51.9006 111.7927 0000874  38.2900 321.8124 14.79906467 34432
KUIPER-00174            
1 65787U 25217AB  26132.17750537  .00000961  00000+0  15504-3 0  9992
2 65787  51.9008 107.4017 0000587  82.7753 277.3276 14.79927936 34480
KUIPER-00176            
1 65788U 25217AC  26132.36395913  .00001706  00000+0  25280-3 0  9997
2 65788  51.8996 121.5302 0000582  67.0116 293.0907 14.79928804 34306
KUIPER-00101            
1 65947U 25228A   26132.57860913  .00002234  00000+0  32189-3 0  9999
2 65947  51.8984  78.0485 0000817  74.1561 285.9491 14.79933122 32699
KUIPER-00113            
1 65948U 25228B   26132.55023475  .00002098  00000+0  30383-3 0  9994
2 65948  51.8983  73.1921 0000874  58.7211 301.3837 14.79971010 32755
KUIPER-00117            
1 65949U 25228C   26132.58129253  .00002297  00000+0  33018-3 0  9998
2 65949  51.8987  75.5559 0000797  78.3448 281.7604 14.79934444 32727
KUIPER-00121            
1 65950U 25228D   26132.55292403  .00002307  00000+0  33154-3 0  9998
2 65950  51.9000  70.6861 0001074  72.1100 287.9979 14.79939134 32795
KUIPER-00122            
1 65951U 25228E   26132.54212650  .00002152  00000+0  31149-3 0  9994
2 65951  51.8991  80.7097 0000756  74.2699 285.8346 14.79899747 32654
KUIPER-00123            
1 65952U 25228F   26132.57586087  .00002119  00000+0  30590-3 0  9998
2 65952  51.8978  80.5762 0000907  95.6730 264.4336 14.80071368 32653
KUIPER-00124            
1 65953U 25228G   26132.24634332  .00002146  00000+0  31035-3 0  9995
2 65953  51.8986  74.5220 0000821  92.3930 267.7126 14.79939242 32718
KUIPER-00125            
1 65954U 25228H   26132.53264473  .00002419  00000+0  34626-3 0  9995
2 65954  51.9008  58.2904 0000800  88.2490 271.8564 14.79930165 32969
KUIPER-00126            
1 65955U 25228J   26132.54485241  .00002143  00000+0  31010-3 0  9993
2 65955  51.8986  78.2288 0000611  90.7591 269.3441 14.79930147 32686
KUIPER-00127            
1 65956U 25228K   26132.53603550  .00000595  00000+0  10707-3 0  9997
2 65956  51.9008  70.7293 0001270  86.8258 273.2850 14.79926666 32795
KUIPER-00128            
1 65957U 25228L   26132.24904531 -.00000216  00000+0  72922-6 0  9990
2 65957  51.9010  72.0628 0000856  83.2332 276.8728 14.79927420 32746
KUIPER-00129            
1 65958U 25228M   26132.22067282  .00002354  00000+0  33763-3 0  9993
2 65958  51.9011  67.1710 0000834  78.6651 281.4405 14.79939197 32819
KUIPER-00130            
1 65959U 25228N   26132.52185845  .00000466  00000+0  90093-4 0  9995
2 65959  51.9037  68.3593 0000774 100.8463 259.2587 14.79925397 23116
KUIPER-00134            
1 65960U 25228P   26132.39476824  .00027743  00000+0  68329-3 0  9995
2 65960  51.8745  11.3126 0006119 173.5983 186.5084 15.40357795 33605
KUIPER-00135            
1 65961U 25228Q   26132.55563624  .00002406  00000+0  34470-3 0  9998
2 65961  51.9021  68.2682 0000784 100.3720 259.7331 14.79914576 32829
KUIPER-00136            
1 65962U 25228R   26132.52463140  .00002247  00000+0  32175-3 0  9991
2 65962  51.9007  65.8694 0000824  77.0590 283.0465 14.80185117 32854
KUIPER-00137            
1 65963U 25228S   26132.52721923 -.00018344  00000+0 -23819-2 0  9999
2 65963  51.9035  63.3352 0000337  80.5248 279.5752 14.79966443 32898
KUIPER-00138            
1 65964U 25228T   26132.09101267  .00001806  00000+0  26590-3 0  9998
2 65964  51.8988  62.7216 0000736  95.7336 264.3711 14.79922002 32863
KUIPER-00140            
1 65965U 25228U   26132.22338757  .00002146  00000+0  31048-3 0  9992
2 65965  51.8995  64.7223 0000764  92.0039 268.1011 14.79925242 32845
KUIPER-00141            
1 65966U 25228V   26132.49888813  .00000572  00000+0  10398-3 0  9991
2 65966  51.9042  58.5382 0000789  97.6074 262.4978 14.79930714 32955
KUIPER-00146            
1 65967U 25228W   26132.52996530  .00002210  00000+0  31889-3 0  9991
2 65967  51.9037  60.9099 0000874  88.8423 271.2640 14.79928023 32928
KUIPER-00149            
1 65968U 25228X   26132.50156996 -.00000135  00000+0  11354-4 0  9995
2 65968  51.9007  55.9315 0000981  85.6417 274.4657 14.79934782 32997
KUIPER-00154            
1 65969U 25228Y   26132.47051938  .00002239  00000+0  32272-3 0  9999
2 65969  51.9006  53.5668 0000676 100.1084 259.9955 14.79925460 33023
KUIPER-00157            
1 65970U 25228Z   26132.19771924  .00002477  00000+0  35380-3 0  9991
2 65970  51.9030  57.3968 0000905  88.5625 271.5441 14.79930582 32943
KUIPER-00144            
1 67133U 25301A   26132.39515257  .00001229  00000+0  20543-3 0  9992
2 67133  51.8994 133.3243 0000738  15.8961 344.2022 14.76467739 23315
KUIPER-00164            
1 67134U 25301B   26132.41816420  .00001200  00000+0  20139-3 0  9992
2 67134  51.9018 144.7016 0001303 122.7664 237.3423 14.76476646 23331
KUIPER-00175            
1 67135U 25301C   26132.26803577  .00002130  00000+0  23082-3 0  9998
2 67135  51.8939 134.1090 0000689  43.2913 316.8108 14.92206954 23365
KUIPER-00179            
1 67136U 25301D   26132.44104688  .00001525  00000+0  22902-3 0  9993
2 67136  51.8977 143.6927 0000516  76.1410 283.9610 14.79923423 23351
KUIPER-00181            
1 67137U 25301E   26132.35995836  .00001526  00000+0  22916-3 0  9993
2 67137  51.9022 156.5630 0001272  59.9277 300.1811 14.79920162 23147
KUIPER-00183            
1 67138U 25301F   26132.38119749  .00002459  00000+0  26073-3 0  9992
2 67138  51.8938 134.4829 0008845 281.1762  78.8211 14.92524875 23463
KUIPER-00184            
1 67139U 25301G   26132.43123040  .00001147  00000+0  19405-3 0  9992
2 67139  51.8985 138.2296 0001800  98.8163 261.3001 14.76435637 23520
KUIPER-00186            
1 67140U 25301H   26132.46127915 -.00002999  00000+0 -36507-3 0  9992
2 67140  51.9013 156.1261 0000630  94.7125 265.3909 14.79873963 23004
KUIPER-00187            
1 67141U 25301J   26132.45857161  .00001448  00000+0  21888-3 0  9997
2 67141  51.9024 158.6570 0000427  84.1182 275.9829 14.79926523 22960
KUIPER-00188            
1 67142U 25301K   26132.37173859  .00001352  00000+0  22335-3 0  9996
2 67142  51.9025 126.4178 0000844 107.4894 252.6159 14.76405209 23409
KUIPER-00191            
1 67143U 25301L   26132.43291641  .00001529  00000+0  22963-3 0  9997
2 67143  51.8999 151.2727 0000434  73.6199 286.4811 14.79920656 23098
KUIPER-00196            
1 67144U 25301M   26132.36806172  .00017896  00000+0  46816-3 0  9998
2 67144  51.8690 116.5208 0001744 224.5034 135.5813 15.38805476 23549
KUIPER-00204            
1 67145U 25301N   26132.58335648 -.01133262  00000+0 -52103-1 0  9991
2 67145  51.8850 126.6490 0001879 105.0501 302.7443 15.22586867  4745
KUIPER-00210            
1 67146U 25301P   26132.33158562  .00001480  00000+0  22310-3 0  9995
2 67146  51.8997 151.6782 0000460  76.8768 283.2246 14.79922977 23220
KUIPER-00221            
1 67147U 25301Q   26132.35724516  .00000000  00000+0  28996-4 0  9990
2 67147  51.9017 159.0796 0000425  74.2190 285.8820 14.79920205 22951
KUIPER-00232            
1 67148U 25301R   26132.47461853  .00001459  00000+0  22027-3 0  9993
2 67148  51.8992 143.5960 0001233  68.6490 291.4603 14.79948811 23172
KUIPER-00241            
1 67149U 25301S   26132.49768144  .00001512  00000+0  22727-3 0  9996
2 67149  51.9021 153.4718 0000574  87.8097 272.2931 14.79925837 23377
KUIPER-00245            
1 67150U 25301T   26132.35455939 -.00000188  00000+0  43016-5 0  9993
2 67150  51.9007 161.6177 0000401  62.8774 297.2229 14.79928052 22915
KUIPER-00246            
1 67151U 25301U   26132.47204645  .00001484  00000+0  22365-3 0  9994
2 67151  51.8996 146.0648 0000492  74.6510 285.4507 14.79918622 23169
KUIPER-00247            
1 67152U 25301V   26132.41529603  .00001458  00000+0  22010-3 0  9991
2 67152  51.8961 136.3125 0000280  98.5019 261.5975 14.79952524 23273
KUIPER-00248            
1 67153U 25301W   26132.58335648 -.00037723  00000+0 -26891-2 0  9990
2 67153  51.8850 118.4861 0003702 254.0966  76.1847 15.04060115  5577
KUIPER-00249            
1 67154U 25301X   26132.58335648  .00010892  00000+0  14693-2 0  9994
2 67154  51.8971 133.1065 0000983  48.6859 113.8972 14.79532194  5107
KUIPER-00250            
1 67155U 25301Y   26132.43552654 -.00002992  00000+0 -36378-3 0  9996
2 67155  51.8980 148.7164 0000406  48.5121 311.5876 14.79922303 23139
KUIPER-00251            
1 67156U 25301Z   26132.44897034  .00001687  00000+0  25026-3 0  9998
2 67156  51.9003 136.2157 0002141 126.0635 234.0526 14.79940583 23468
KUIPER-00252            
1 67157U 25301AA  26132.37873153  .00001483  00000+0  22357-3 0  9995
2 67157  51.9000 138.9780 0000315 134.8828 225.2160 14.79911731 23233
KUIPER-00261            
1 67158U 25301AB  26132.33428214  .00001541  00000+0  23115-3 0  9994
2 67158  51.9019 149.2183 0000329  81.5119 278.5880 14.79928048 23084
KUIPER-00265            
1 67159U 25301AC  26132.48692432  .00001592  00000+0  23779-3 0  9998
2 67159  51.9025 163.5176 0000436  85.6628 274.4384 14.79927687 22937
KUIPER-00159            
1 67764U 26030A   26132.10363709  .00020427  00000+0  55494-3 0  9998
2 67764  51.8859 272.9146 0005515 274.1516  85.8840 15.37535258 14845
KUIPER-00160            
1 67765U 26030B   26132.36822523  .00019513  00000+0  52909-3 0  9993
2 67765  51.8817 271.6532 0005199 285.0315  75.0097 15.37627441 14886
KUIPER-00177            
1 67766U 26030C   26132.16367923 -.00001147  00000+0 -12153-3 0  9993
2 67766  51.9018 292.4397 0000315  80.0785 280.0213 14.79918924 14578
KUIPER-00178            
1 67767U 26030D   26132.17885290  .00001486  00000+0  24220-3 0  9999
2 67767  51.9017 291.4699 0000729  93.1784 266.9260 14.76440336 14596
KUIPER-00180            
1 67768U 26030E   26132.13533423  .00004422  00000+0  60861-3 0  9998
2 67768  51.9021 287.5578 0001536  78.5872 281.5263 14.79936086 14643
KUIPER-00197            
1 67769U 26030F   26132.58335648 -.00013894  00000+0 -44420-3 0  9995
2 67769  51.8845 270.2787 0003145 285.3735 358.0370 15.31125191  2857
KUIPER-00198            
1 67770U 26030G   26132.58335648 -.00030252  00000+0 -39685-2 0  9990
2 67770  51.8973 278.0810 0001782 105.1175 260.9041 14.79811379  5676
KUIPER-00199            
1 67771U 26030H   26132.64306025  .00021703  00000+0  62218-3 0  9993
2 67771  51.8825 271.2203 0010524 288.3756  71.6085 15.35782182 14911
KUIPER-00200            
1 67772U 26030J   26132.41753142  .00008091  00000+0  39961-3 0  9999
2 67772  51.8889 274.7980 0001965 330.0222  30.0644 15.18708390 14846
KUIPER-00203            
1 67773U 26030K   26132.49595881  .00002143  00000+0  31010-3 0  9991
2 67773  51.9068 295.9789 0000907  91.6882 268.4185 14.79916437 14550
KUIPER-00205            
1 67774U 26030L   26132.64539176  .00019291  00000+0  50895-3 0  9998
2 67774  51.8825 269.7753 0003588 249.0964 110.9639 15.38487344 14932
KUIPER-00208            
1 67775U 26030M   26132.45359529  .00001581  00000+0  25547-3 0  9999
2 67775  51.8987 287.1003 0006535 282.5929  77.4301 14.76518673 14677
KUIPER-00209            
1 67776U 26030N   26132.43038202  .00001431  00000+0  23447-3 0  9991
2 67776  51.9017 286.2506 0001235 353.4267   6.6677 14.76425441 14687
KUIPER-00213            
1 67777U 26030P   26132.40796539  .00002142  00000+0  30960-3 0  9991
2 67777  51.8962 283.9436 0001504  29.3530 330.7517 14.79969635 14712
KUIPER-00214            
1 67778U 26030Q   26132.44455091  .00002272  00000+0  32673-3 0  9998
2 67778  51.9015 281.2671 0001147 110.0261 250.0825 14.79968130 14756
KUIPER-00215            
1 67779U 26030R   26132.58335648 -.01158856  00000+0 -43254-1 0  9997
2 67779  51.8857 271.7701 0009764 285.6144   4.5373 15.29884525  5111
KUIPER-00218            
1 67780U 26030S   26132.43649292  .00001522  00000+0  24727-3 0  9996
2 67780  51.8994 282.9759 0001037  77.3592 282.7485 14.76449715 14731
KUIPER-00220            
1 67781U 26030T   26132.35941242  .00002622  00000+0  83877-4 0  9992
2 67781  51.8755 272.3286 0006511 297.8686  62.1640 15.36232489 14873
KUIPER-00222            
1 67782U 26030U   26132.58335648 -.00088569  00000+0 -11924-1 0  9992
2 67782  51.9012 278.1452 0002600 315.7138 269.9298 14.79284021  4899
KUIPER-00223            
1 67783U 26030V   26132.58335648 -.00026124  00000+0 -12534-2 0  9991
2 67783  51.8917 272.4461 0008959 298.1318  35.6205 15.18067560  5491
KUIPER-00225            
1 67784U 26030W   26132.58335648 -.00066599  00000+0 -75389-2 0  9999
2 67784  51.8989 275.2372 0006175 304.8391 288.3853 14.86279111  4718
KUIPER-00226            
1 67785U 26030X   26132.39254602  .00005331  00000+0  23004-3 0  9992
2 67785  51.8871 276.1871 0018132 292.7948  67.1118 15.23993470 14825
KUIPER-00259            
1 67786U 26030Y   26132.58335648 -.00071684  00000+0 -80383-2 0  9992
2 67786  51.8964 275.0832 0006362 295.4088 133.8383 14.86702653  5735
KUIPER-00260            
1 67787U 26030Z   26132.58335648 -.00028570  00000+0 -25088-2 0  9990
2 67787  51.9190 273.1071 0003933 341.5692 240.4193 14.95980504  5587
KUIPER-00262            
1 67788U 26030AA  26132.58335648 -.00055373  00000+0 -52886-2 0  9998
2 67788  51.8962 273.3816 0002110 263.7381 281.1815 14.93014812  5131
KUIPER-00266            
1 67789U 26030AB  26132.44563863  .00007617  00000+0  31826-3 0  9994
2 67789  51.8839 275.7917 0021787 299.8179  60.0636 15.24386152 14835
KUIPER-00268            
1 67790U 26030AC  26132.58335648 -.02109847  00000+0 -10523+0 0  9998
2 67790  51.8896 271.0080 0002233 278.1513   6.7706 15.20793992  4101
KUIPER-00270            
1 67791U 26030AD  26132.10865502  .00016462  00000+0  46996-3 0  9997
2 67791  51.8825 273.6424 0011347 283.3614  76.6107 15.36102578 14833
KUIPER-00274            
1 67792U 26030AE  26132.58335648 -.00029108  00000+0 -41422-2 0  9994
2 67792  51.9006 279.9312 0003525 327.4555 205.3699 14.76350799  5430
KUIPER-00275            
1 67793U 26030AF  26132.10020937  .00023905  00000+0  67764-3 0  9990
2 67793  51.8858 273.6213 0012806 267.9134  92.0386 15.36048702 14832
KUIPER-00276            
1 67794U 26030AG  26132.39079690  .00004238  00000+0  18390-3 0  9991
2 67794  51.8853 276.1854 0017449 266.8498  93.0487 15.24353803 14826
KUIPER-00279            
1 67795U 26030AH  26132.40407598  .00017034  00000+0  48949-3 0  9997
2 67795  51.8795 271.8733 0006913 277.3412  82.6789 15.35905639 14884
KUIPER-00131            
1 68573U 26072A   26132.58335648  .00074366  00000+0  77554-2 0  9997
2 68573  51.9418 353.2997 0007768 257.1501  78.3132 14.89042084  5577
KUIPER-00189            
1 68574U 26072B   26132.58335648 -.00017392  00000+0 -19707-2 0  9992
2 68574  51.8995 355.0476 0004078 189.7430   0.8230 14.85545916  5118
KUIPER-00192            
1 68575U 26072C   26132.58335648  .00027126  00000+0  20214-2 0  9992
2 68575  51.8904 351.4877 0005391 270.9539  21.2603 15.02697784  5512
KUIPER-00193            
1 68576U 26072D   26132.31796923  .00016203  00000+0  43276-3 0  9999
2 68576  51.8785 350.2771 0003619 224.2706 135.7992 15.38239180  5860
KUIPER-00194            
1 68577U 26072E   26132.58335648  .00026809  00000+0  14229-2 0  9990
2 68577  51.8868 350.1286 0002969 230.7560 351.5971 15.15145035  4583
KUIPER-00229            
1 68578U 26072F   26132.58335648  .00008521  00000+0  76360-3 0  9997
2 68578  51.8905 352.8562 0009007 261.6711  85.2250 14.96474004  5427
KUIPER-00230            
1 68579U 26072G   26132.31061818  .00011748  00000+0  32684-3 0  9990
2 68579  51.8785 350.2275 0001390 237.4189 122.6663 15.37270014  5867
KUIPER-00231            
1 68580U 26072H   26132.63347111  .00013271  00000+0  35039-3 0  9990
2 68580  51.8771 348.6452 0002611 225.0406 135.0370 15.38771819  5913
KUIPER-00234            
1 68581U 26072J   26132.58335648  .00024951  00000+0  11285-2 0  9990
2 68581  51.8874 349.7088 0001922 279.3383  89.8372 15.20769461  5790
KUIPER-00236            
1 68582U 26072K   26132.31189093  .00012824  00000+0  36506-3 0  9993
2 68582  51.8783 350.2398 0002684 202.4607 157.6262 15.36460389  5867
KUIPER-00244            
1 68583U 26072L   26132.31200758  .00016825  00000+0  44457-3 0  9995
2 68583  51.8780 350.2405 0003194 234.8610 125.2078 15.38543051  5860
KUIPER-00253            
1 68584U 26072M   26132.32395276  .00013759  00000+0  37135-3 0  9995
2 68584  51.8740 350.3088 0004781 236.0317 124.0216 15.38051507  5867
KUIPER-00254            
1 68585U 26072N   26130.90737172  .00013186  00000+0  36278-3 0  9994
2 68585  51.8739 357.3128 0007317 235.1808 124.8491 15.37484672  5642
KUIPER-00263            
1 68586U 26072P   26132.43894527  .00025856  00000+0  70019-3 0  9991
2 68586  51.8790 349.5892 0001606 179.7080 180.3908 15.37499096  5883
KUIPER-00269            
1 68587U 26072Q   26131.99461936  .00017047  00000+0  45492-3 0  9996
2 68587  51.8761 351.8599 0003678 238.8188 121.2439 15.38224279  5815
KUIPER-00272            
1 68588U 26072R   26132.58335648 -.00003859  00000+0 -28692-3 0  9994
2 68588  51.8975 351.4916 0005884 245.5102 284.8747 14.99843096  5429
KUIPER-00285            
1 68589U 26072S   26132.58602180  .00015876  00000+0  42738-3 0  9990
2 68589  51.8770 349.0725 0006421 244.5660 115.4663 15.37999758  5909
KUIPER-00286            
1 68590U 26072T   26132.31716595  .00022086  00000+0  58355-3 0  9992
2 68590  51.8754 350.2691 0003939 227.6321 132.4333 15.38350579  5867
KUIPER-00289            
1 68591U 26072U   26132.22912205  .00014039  00000+0  39637-3 0  9990
2 68591  51.8669 351.1463 0010755 257.0564 102.9221 15.36591978  5844
KUIPER-00290            
1 68592U 26072V   26132.61965399  .00013887  00000+0  39368-3 0  9997
2 68592  51.8653 349.2589 0011141 254.0602 105.9157 15.36468117  5901
KUIPER-00293            
1 68593U 26072W   26132.58335648  .00040615  00000+0  14253-2 0  9996
2 68593  51.8704 349.7290 0011301 265.0493  98.0962 15.28969163  5736
KUIPER-00294            
1 68594U 26072X   26132.02941962  .00022839  00000+0  63963-3 0  9999
2 68594  51.8704 352.0656 0009946 253.4661 106.5233 15.36485808  5813
KUIPER-00296            
1 68595U 26072Y   26132.01802633  .00014847  00000+0  40870-3 0  9992
2 68595  51.8721 352.0006 0008216 248.3731 111.6381 15.37353818  5819
KUIPER-00297            
1 68596U 26072Z   26132.58335648  .00033804  00000+0  12450-2 0  9998
2 68596  51.8688 349.6327 0009574 257.1324 176.6258 15.27488632  2525
KUIPER-00300            
1 68597U 26072AA  26132.59788237  .00015656  00000+0  42690-3 0  9991
2 68597  51.8699 349.1297 0007929 249.3287 110.6850 15.37605932  5908
KUIPER-00301            
1 68598U 26072AB  26132.02074682  .00013343  00000+0  36912-3 0  9993
2 68598  51.8670 352.0027 0008762 251.1764 108.8273 15.37292073  5815
KUIPER-00304            
1 68599U 26072AC  26132.41358955  .00017805  00000+0  49228-3 0  9996
2 68599  51.8681 350.1388 0009474 251.9305 108.0649 15.37060491  5879
KUIPER-00317            
1 68600U 26072AD  26132.60255900  .00018216  00000+0  49911-3 0  9992
2 68600  51.8709 349.1632 0008764 244.1064 115.9020 15.37330194  5904
KUIPER-00320            
1 68601U 26072AE  26132.29889364  .00001471  00000+0  51978-4 0  9997
2 68601  51.8628 350.8432 0011186 252.5151 107.4613 15.36155501  5858
KUIPER-00299            
1 68864U 26095A   26132.60572623  .00013425  00000+0  38296-3 0  9994
2 68864  51.8722  54.5478 0009738 166.9271 193.1969 15.36318155  2256
KUIPER-00353            
1 68865U 26095B   26132.58523965  .00003192  00000+0  92670-4 0  9994
2 68865  51.8846  54.4113 0001382 121.7726 238.3396 15.38581921  2251
KUIPER-00357            
1 68866U 26095C   26132.58999827  .00015072  00000+0  40476-3 0  9995
2 68866  51.8829  54.4481 0003808 140.6842 219.4422 15.38129430  2258
KUIPER-00364            
1 68867U 26095D   26132.59202449  .00016339  00000+0  44090-3 0  9997
2 68867  51.8809  54.4627 0004066 147.8600 212.2636 15.37913292  2251
KUIPER-00375            
1 68868U 26095E   26132.58628522  .00016216  00000+0  42911-3 0  9995
2 68868  51.8836  54.4238 0001632 125.8038 234.3101 15.38527947  2258
KUIPER-00433            
1 68869U 26095F   26132.58335648 -.01880737  00000+0 -69478-1 0  9995
2 68869  51.8763  54.7816 0007817 172.2034  14.2562 15.30777385  2224
KUIPER-00437            
1 68870U 26095G   26132.60029879  .00013981  00000+0  39001-3 0  9993
2 68870  51.8791  54.5162 0007752 160.5967 199.5316 15.36995379  2250
KUIPER-00448            
1 68871U 26095H   26132.59128367  .00015131  00000+0  40840-3 0  9996
2 68871  51.8836  54.4556 0003764 142.9982 217.1265 15.37969872  2257
KUIPER-00459            
1 68872U 26095J   26132.47849562  .00005935  00000+0  17781-3 0  9990
2 68872  51.8710  55.1924 0010126 173.5303 186.5816 15.35905917  2230
KUIPER-00468            
1 68873U 26095K   26132.59374641  .00014751  00000+0  40150-3 0  9997
2 68873  51.8825  54.4731 0005112 149.3257 210.8029 15.37726588  2250
KUIPER-00476            
1 68874U 26095L   26132.60605095  .00009798  00000+0  28232-3 0  9992
2 68874  51.8734  54.5505 0009685 166.2106 193.9147 15.36346648  2256
KUIPER-00478            
1 68875U 26095M   26132.60330248  .00013115  00000+0  37046-3 0  9999
2 68875  51.8771  54.5350 0008315 168.3575 191.7605 15.36659998  2258
KUIPER-00480            
1 68876U 26095N   26132.59874836  .00014721  00000+0  40780-3 0  9997
2 68876  51.8769  54.5059 0006730 155.4533 204.6775 15.37174006  2257
KUIPER-00482            
1 68877U 26095P   26132.58803757  .00015626  00000+0  41640-3 0  9992
2 68877  51.8843  54.4324 0002804 134.5648 225.5569 15.38341699  2256
KUIPER-00483            
1 68878U 26095Q   26132.58335648 -.01098467  00000+0 -42837-1 0  9996
2 68878  51.8764  54.8465 0009025 171.4127 318.3886 15.28320577  2314
KUIPER-00488            
1 68879U 26095R   26132.48042586  .00011593  00000+0  33653-3 0  9992
2 68879  51.8671  55.2010 0011084 175.6231 184.4853 15.35905189  2236
KUIPER-00489            
1 68880U 26095S   26132.60627770  .00008225  00000+0  23915-3 0  9990
2 68880  51.8747  54.5527 0010151 169.2085 190.9121 15.36294152  2251
KUIPER-00499            
1 68881U 26095T   26132.41341702 -.00012834  00000+0 -34974-3 0  9998
2 68881  51.8697  55.5066 0009898 162.8365 197.2957 15.35987289  2224
KUIPER-00500            
1 68882U 26095U   26132.59663244  .00014450  00000+0  39733-3 0  9998
2 68882  51.8812  54.4926 0005804 157.8918 202.2320 15.37425192  2254
KUIPER-00502            
1 68883U 26095V   26132.59620920  .00014885  00000+0  40879-3 0  9998
2 68883  51.8799  54.4897 0006209 155.4426 204.6858 15.37435182  2256
KUIPER-00503            
1 68884U 26095W   26132.60308762  .00013836  00000+0  39064-3 0  9997
2 68884  51.8758  54.5329 0008008 161.9122 198.2151 15.36627446  2256
KUIPER-00504            
1 68885U 26095X   26132.58335648 -.01330292  00000+0 -74031-1 0  9990
2 68885  51.8809  55.5278 0012405 196.8138   4.9367 15.16418700  2620
KUIPER-00505            
1 68886U 26095Y   26132.59285111  .00016423  00000+0  44434-3 0  9991
2 68886  51.8820  54.4677 0004630 142.8603 217.2705 15.37826466  2253
KUIPER-00507            
1 68887U 26095Z   26132.58442519  .00018128  00000+0  47692-3 0  9991
2 68887  51.8845  54.4101 0000888  75.1311 284.9775 15.38622280  2255
KUIPER-00511            
1 68888U 26095AA  26132.59923990  .00011467  00000+0  32108-3 0  9995
2 68888  51.8779  54.5089 0007263 158.5543 201.5749 15.37078731  2256
KUIPER-00512            
1 68889U 26095AB  26132.59495290  .00015079  00000+0  41189-3 0  9995
2 68889  51.8792  54.4818 0005589 151.9683 208.1606 15.37596458  2258
KUIPER-00519            
1 68890U 26095AC  26132.58718808  .00015718  00000+0  41763-3 0  9997
2 68890  51.8839  54.4281 0002381 118.3120 241.8108 15.38427766  2253
KUIPER-00521            
1 68891U 26095AD  26132.58431016  .00016700  00000+0  43863-3 0  9996
2 68891  51.8844  54.4073 0001699  95.4821 264.6361 15.38735767  2250
KUIPER-00524            
1 68892U 26095AE  26132.58921178  .00013710  00000+0  36891-3 0  9991
2 68892  51.8826  54.4441 0002591 135.9780 224.1414 15.38155146  2253
KUIPER-00370            
1 68919U 26098A   26132.56505834 -.00014266  00000+0 -43302-3 0  9993
2 68919  51.8745 239.5063 0015183  26.8065 333.3702 15.32658577  1874
KUIPER-00380            
1 68920U 26098B   26132.55568225  .00011709  00000+0  35924-3 0  9995
2 68920  51.8757 239.4493 0010649  15.9307 344.2011 15.34145885  1874
KUIPER-00386            
1 68921U 26098C   26132.47952599  .00012218  00000+0  35745-3 0  9995
2 68921  51.8740 239.6916 0003210  38.1937 321.9276 15.35649872  1861
KUIPER-00388            
1 68922U 26098D   26132.44318608  .00009492  00000+0  32270-3 0  9990
2 68922  51.8743 240.1886 0021233  21.3890 338.7976 15.30938813  1858
KUIPER-00405            
1 68923U 26098E   26132.56366950 -.00005763  00000+0 -16668-3 0  9999
2 68923  51.8774 239.5040 0014636  20.7147 339.4429 15.32851921  1873
KUIPER-00408            
1 68924U 26098F   26132.43595804  .00003253  00000+0  11434-3 0  9994
2 68924  51.8771 240.1473 0015211  21.8250 338.3380 15.32290263  1854
KUIPER-00409            
1 68925U 26098G   26132.48666144 -.00008785  00000+0 -24729-3 0  9994
2 68925  51.8755 239.7380 0006822  19.6269 340.4978 15.34560407  1861
KUIPER-00410            
1 68926U 26098H   26132.56135880 -.00022124  00000+0 -66565-3 0  9999
2 68926  51.8757 239.4856 0013466  22.0420 338.1142 15.33299886  1875
KUIPER-00412            
1 68927U 26098J   26132.47655897  .00012195  00000+0  35338-3 0  9994
2 68927  51.8782 239.6761 0002462  84.3182 275.8085 15.35953625  1863
KUIPER-00413            
1 68928U 26098K   26132.44629033 -.00041499  00000+0 -13394-2 0  9993
2 68928  51.8747 240.2068 0026130  30.6096 329.6406 15.31148021  1855
KUIPER-00414            
1 68929U 26098L   26132.57698487  .00003563  00000+0  12942-3 0  9994
2 68929  51.8760 239.5880 0021776  27.6660 332.5477 15.30807920  1870
KUIPER-00415            
1 68930U 26098M   26132.55798653 -.00005909  00000+0 -16682-3 0  9993
2 68930  51.8789 239.4696 0011063  14.3487 345.7810 15.33712486  1877
KUIPER-00416            
1 68931U 26098N   26132.47545738  .00011897  00000+0  34224-3 0  9992
2 68931  51.8749 239.6669 0001822  77.3229 282.7961 15.36208316  1862
KUIPER-00420            
1 68932U 26098P   26132.47986110  .00011560  00000+0  33853-3 0  9990
2 68932  51.8773 239.6969 0003708  35.5961 324.5272 15.35674798  1867
KUIPER-00421            
1 68933U 26098Q   26132.48684953  .00010738  00000+0  32509-3 0  9995
2 68933  51.8778 239.7424 0007566  13.3745 346.7440 15.34689370  1864
KUIPER-00425            
1 68934U 26098R   26132.56614283  .00013258  00000+0  42700-3 0  9998
2 68934  51.8754 239.5153 0017504  24.4491 335.7321 15.32382141  1871
KUIPER-00430            
1 68935U 26098S   26132.57320939 -.00015751  00000+0 -49682-3 0  9990
2 68935  51.8767 239.5646 0019174  33.0056 327.2121 15.31456194  1874
KUIPER-00431            
1 68936U 26098T   26132.56780736 -.00010943  00000+0 -33262-3 0  9990
2 68936  51.8756 239.5267 0017559  22.7703 337.4057 15.32293670  1871
KUIPER-00432            
1 68937U 26098U   26132.55925158  .00005759  00000+0  18609-3 0  9994
2 68937  51.8756 239.4715 0011106  18.7881 341.3512 15.33535861  1875
KUIPER-00434            
1 68938U 26098V   26132.55325913  .00010251  00000+0  31189-3 0  9999
2 68938  51.8743 239.4318 0007707  16.3177 343.8055 15.34583498  1874
KUIPER-00436            
1 68939U 26098W   26132.55871578  .00009293  00000+0  29178-3 0  9992
2 68939  51.8754 239.4684 0010291  23.0011 337.1433 15.33685848  1874
KUIPER-00438            
1 68940U 26098X   26132.48328200  .00011972  00000+0  35645-3 0  9998
2 68940  51.8752 239.7163 0005714  29.1399 330.9905 15.35109232  1863
KUIPER-00439            
1 68941U 26098Y   26132.55475573 -.00004494  00000+0 -12256-3 0  9999
2 68941  51.8780 239.4466 0007842  21.5817 338.5498 15.34139522  1879
KUIPER-00440            
1 68942U 26098Z   26132.48299170 -.00038886  00000+0 -11310-2 0  9990
2 68942  51.8792 239.7197 0004910  31.8831 328.2451 15.34758063  1861
KUIPER-00442            
1 68943U 26098AA  26132.48557284  .00011754  00000+0  35372-3 0  9992
2 68943  51.8789 239.7354 0006060  19.1713 340.9500 15.34787946  1867
KUIPER-00446            
1 68944U 26098AB  26132.48422808  .00007595  00000+0  23268-3 0  9995
2 68944  51.8751 239.7221 0006594  18.1891 341.9329 15.34781443  1864
KUIPER-00451            
1 68945U 26098AC  26132.56114276  .00003402  00000+0  11561-3 0  9998
2 68945  51.8784 239.4897 0013002  16.5118 343.6288 15.33263856  1879
KUIPER-00452            
1 68946U 26098AD  26132.48114795  .00012042  00000+0  35420-3 0  9996
2 68946  51.8752 239.7028 0003944  16.6497 343.4618 15.35492072  1869
KUIPER-00453            
1 68947U 26098AE  26132.47713083  .00012611  00000+0  36414-3 0  9997
2 68947  51.8751 239.6777 0003057  70.3138 289.8178 15.36031668  1868
KUIPER-00454            
1 68948U 26098AF  26132.56950583 -.00039937  00000+0 -12788-2 0  9995
2 68948  51.8777 239.5429 0017607  23.4972 336.6813 15.31579520  1878
KUIPER-00455            
1 68949U 26098AG  26132.57618129  .00004077  00000+0  14601-3 0  9996
2 68949  51.8754 239.5813 0020385  28.1817 332.0266 15.30896593  1871
KUIPER-00458            
1 68950U 26098AH  26132.47848967  .00012731  00000+0  37189-3 0  9994
2 68950  51.8771 239.6881 0003290  28.7230 331.3937 15.35655668  1866
