ORBCOMM FM06            
1 25118U 97084G   26152.28250106  .00001505  00000+0  44459-3 0  9994
2 25118  45.0126 129.2755 0002238 281.9450 210.0127 14.47517997492082
ORBCOMM FM04            
1 25159U 98007C   26153.83248688  .00001102  00000+0  42265-3 0  9995
2 25159 107.9625 139.8762 0040874 349.5398  10.4889 14.35712121474534
ORBCOMM FM19            
1 25415U 98046C   26151.93014544  .00001262  00000+0  44674-3 0  9997
2 25415  44.9948 320.8349 0003786 215.6781 305.3151 14.39464938454439
ORBCOMM FM20            
1 25416U 98046D   26153.77143617  .00000876  00000+0  33330-3 0  9993
2 25416  44.9952 319.8469 0001188 200.4983 159.5818 14.38045009454719
ORBCOMM FM27            
1 25481U 98053G   26154.16486875  .00001171  00000+0  42077-3 0  9990
2 25481  45.0063  41.9525 0000562   1.0479 359.0371 14.39113284448213
ORBCOMM FM32            
1 25982U 99065C   26152.23216982  .00000723  00000+0  28859-3 0  9990
2 25982  45.0151 248.7605 0005498 318.5188  41.5242 14.37108525384791
ORBCOMM FM109           
1 40086U 14040A   26152.41456289  .00000390  00000+0  11879-3 0  9992
2 40086  47.0016 166.0579 0001315 196.9791 163.1051 14.58823862632043
ORBCOMM FM114           
1 41179U 15081A   26152.97982418  .00000602  00000+0  16356-3 0  9992
2 41179  47.0052  73.9009 0001546 135.7645 224.3365 14.58838571555535
ORBCOMM FM110           
1 41182U 15081D   26153.99571428  .00000757  00000+0  19640-3 0  9994
2 41182  47.0024  68.5419 0003230 358.8742   1.2136 14.58854978555550
ORBCOMM FM118           
1 41183U 15081E   26153.00264808  .00003490  00000+0  77410-3 0  9994
2 41183  47.0044  73.5648 0003601 319.9456  40.1164 14.58855670555514
ORBCOMM FM112           
1 41184U 15081F   26151.98020748  .00000849  00000+0  21583-3 0  9998
2 41184  47.0004 346.8837 0002686 140.5031 219.6051 14.58877938556583
ORBCOMM FM113           
1 41185U 15081G   26152.50425721  .00000623  00000+0  16801-3 0  9995
2 41185  47.0021 344.7743 0001308 154.2176 205.8776 14.58839578556644
ORBCOMM FM108           
1 41187U 15081J   26152.94619103  .00000948  00000+0  23678-3 0  9994
2 41187  47.0049 254.2558 0002129 152.3962 207.7037 14.58851287557855
ORBCOMM FM117           
1 41188U 15081K   26153.73351514  .00000838  00000+0  21351-3 0  9996
2 41188  47.0011 249.1714 0002701 159.5688 200.5306 14.58849437558015
ORBCOMM FM116           
1 41189U 15081L   26151.59099112  .00000976  00000+0  24275-3 0  9993
2 41189  47.0037 349.0907 0001609 336.1788  23.9023 14.58855941556511
