EUTELSAT 139 WEST A     
1 28187U 04008A   26094.76475165  .00000142  00000+0  00000+0 0  9995
2 28187   5.6425  72.8685 0004452  24.5269  36.9130  1.00836691 80621
EUTELSAT 174A           
1 28924U 05052A   26102.76723471  .00000015  00000+0  00000+0 0  9999
2 28924   4.0530  77.3120 0006406 305.9687 267.9113  1.00269964 51678
EUTELSAT 33F            
1 29270U 06032A   26102.88198105  .00000160  00000+0  00000+0 0  9997
2 29270   1.4916  82.9379 0003521 304.7101 164.0651  1.00274836 46653
EUTELSAT HOTBIRD 13C    
1 33459U 08065A   26102.93675462 -.00000277  00000+0  00000+0 0  9991
2 33459   2.7817  79.9359 0004129 312.5068  95.6398  1.00270033 46695
EUTELSAT 36B            
1 36101U 09065A   26102.97446432  .00000115  00000+0  00000+0 0  9996
2 36101   0.3255  79.3216 0005876 304.8655 218.2875  1.00270736 60053
EUTELSAT KA-SAT 9A      
1 37258U 10069A   26102.80588740  .00000064  00000+0  00000+0 0  9990
2 37258   0.0605   2.2405 0003389 135.3320   2.5619  1.00272602 43359
EUTELSAT 7 WEST A       
1 37816U 11051A   26102.87400769 -.00000058  00000+0  00000+0 0  9997
2 37816   0.0901  41.6316 0002232  77.4447  29.3247  1.00272807 53226
EUTELSAT 16A            
1 37836U 11057A   26102.91868213  .00000106  00000+0  00000+0 0  9995
2 37836   0.0576   7.7909 0005603  18.3192 161.7174  1.00270738  6682
EUTELSAT 21B            
1 38992U 12062B   26102.92326302  .00000132  00000+0  00000+0 0  9994
2 38992   0.0704 358.7929 0002886  20.2627 176.0281  1.00270481 49179
EUTELSAT 70B            
1 39020U 12069A   26102.86254205 -.00000042  00000+0  00000+0 0  9990
2 39020   0.0679  13.7314 0001865  21.4663 186.9091  1.00273107 48859
EUTELSAT 117 WEST A     
1 39122U 13012A   26102.70968185 -.00000010  00000+0  00000+0 0  9999
2 39122   0.0620  67.1985 0002745 311.9965 320.3919  1.00270758 47777
EUTELSAT 7B             
1 39163U 13022A   26102.87678103  .00000050  00000+0  00000+0 0  9994
2 39163   0.0714  15.5893 0006092 357.5654 150.5620  1.00271297 47299
EXPRESS-AT1             
1 39612U 14010A   26102.99793398  .00000073  00000+0  00000+0 0  9993
2 39612   0.0888  82.6230 0001704   9.5216 165.2153  1.00285280 44167
EXPRESS-AT2             
1 39613U 14010B   26102.91227109  .00000081  00000+0  00000+0 0  9997
2 39613   0.0368  63.6919 0000129 327.4802 194.3605  1.00274173 43845
EUTELSAT 3B             
1 39773U 14030A   26102.87600103  .00000022  00000+0  00000+0 0  9995
2 39773   0.0663  14.6675 0001547  82.1608  62.6743  1.00272111 43412
EUTELSAT 115 WEST B     
1 40425U 15010B   26102.71002852 -.00000022  00000+0  00000+0 0  9991
2 40425   0.0125  68.7398 0000234 235.6508  37.2309  1.00269509 40734
EUTELSAT 8 WEST B       
1 40875U 15039B   26102.87383435 -.00000063  00000+0  00000+0 0  9992
2 40875   0.0690   0.9965 0003855  21.2263 125.4377  1.00271365 39003
EUTELSAT 9B             
1 41310U 16005A   26102.87721436  .00000064  00000+0  00000+0 0  9998
2 41310   0.0680  67.2107 0003655 284.1717 174.4864  1.00273241 37461
EUTELSAT 65 WEST A      
1 41382U 16014A   26102.93380794 -.00000274  00000+0  00000+0 0  9996
2 41382   0.0569 346.1445 0002228  34.1033  91.8722  1.00273016 36878
EUTELSAT 117 WEST B     
1 41589U 16038B   26102.92358124 -.00000009  00000+0  00000+0 0  9998
2 41589   0.0132  69.5494 0000246 238.5887 108.4717  1.00270803 36003
EUTELSAT 172B           
1 42741U 17029B   26102.76688804 -.00000003  00000+0  00000+0 0  9997
2 42741   0.0146 178.7535 0000202 321.6622 148.6231  1.00271719 33080
EUTELSAT 7C             
1 44334U 19034B   26102.87678103  .00000051  00000+0  00000+0 0  9990
2 44334   0.0704 182.1735 0003289 187.6915 153.8510  1.00271150  6182
EUTELSAT 5 WEST B       
1 44624U 19067A   26102.87444102 -.00000040  00000+0  00000+0 0  9997
2 44624   0.0708  24.1713 0003369   6.2969 120.4048  1.00271738 23786
EUTELSAT KONNECT        
1 45027U 20005B   26102.87686770  .00000052  00000+0  00000+0 0  9990
2 45027   0.0680  92.1579 0001607 213.8021 218.0255  1.00271206 23689
EUTELSAT QUANTUM        
1 49056U 21069B   26102.88484106  .00000128  00000+0  00000+0 0  9991
2 49056   0.0289  47.5624 0002143 332.9231 186.8401  1.00273544 17277
EUTELSAT KONNECT VHTS   
1 53765U 22110A   26102.73334194  .00000020  00000+0  00000+0 0  9997
2 53765   0.0607  98.0764 0003372 257.6747 111.8975  1.00272548  6184
EUTELSAT HOTBIRD 13F    
1 54048U 22134A   26102.91639031  .00000090  00000+0  00000+0 0  9993
2 54048   0.0558 284.8147 0001925  76.6864 182.5204  1.00272225 12724
EUTELSAT HOTBIRD 13G    
1 54225U 22146A   26102.91639064  .00000090  00000+0  00000+0 0  9999
2 54225   0.0447 235.7707 0002059 304.1742   4.0824  1.00272327  6810
EUTELSAT 10B            
1 54259U 22157A   26102.73481529  .00000071  00000+0  00000+0 0  9998
2 54259   0.0611  95.5243 0001851 350.5660  29.3859  1.00273684 12373
EUTELSAT 36D            
1 59346U 24059A   26102.81126075  .00000158  00000+0  00000+0 0  9990
2 59346   0.0186 202.7483 0000805 299.3215  26.8794  1.00269152  7496
