QIANFAN-1               
1 60379U 24140A   26093.52879494  .00000074  00000+0  96791-4 0  9990
2 60379  88.9678 287.6990 0015761 250.1176 109.8277 13.51002177 82445
QIANFAN-2               
1 60380U 24140B   26093.55745788  .00000063  00000+0  78401-4 0  9999
2 60380  88.9665 287.5198 0011546 217.8805 142.1535 13.51006293 82505
QIANFAN-3               
1 60381U 24140C   26093.49162979  .00000075  00000+0  97820-4 0  9997
2 60381  88.9658 287.6510 0012394 232.5952 127.4071 13.51002417 82400
QIANFAN-4               
1 60382U 24140D   26093.54110396  .00000078  00000+0  10142-3 0  9994
2 60382  88.9682 287.5716 0011711 220.9657 139.0615 13.51003503 82534
QIANFAN-5               
1 60383U 24140E   26093.51639239  .00000058  00000+0  70593-4 0  9999
2 60383  88.9657 287.6736 0013483 245.4999 114.4746 13.51004377 82395
QIANFAN-6               
1 60384U 24140F   26093.53698342  .00000060  00000+0  74374-4 0  9996
2 60384  88.9684 287.4476 0011697 227.5907 132.4256 13.51004517 82594
QIANFAN-7               
1 60385U 24140G   26093.53161669  .00000274  00000+0  10480-3 0  9998
2 60385  88.9708 280.5740 0016299  39.9823 320.2568 14.27785073 86342
QIANFAN-8               
1 60386U 24140H   26093.54516575  .00000062  00000+0  77686-4 0  9997
2 60386  88.9685 287.6860 0015094 231.1935 128.7869 13.51006102 82447
QIANFAN-9               
1 60387U 24140J   26093.52058735  .00000065  00000+0  81521-4 0  9991
2 60387  88.9683 287.7618 0014795 230.9246 129.0589 13.51000587 82429
QIANFAN-10              
1 60388U 24140K   26093.52463409  .00000074  00000+0  95572-4 0  9991
2 60388  88.9693 287.1192 0013815 205.8609 154.1853 13.50999364 82554
QIANFAN-11              
1 60389U 24140L   26093.48758107  .00000077  00000+0  99999-4 0  9999
2 60389  88.9619 287.6269 0012836 230.0898 129.9126 13.51006204 82203
QIANFAN-12              
1 60390U 24140M   26093.50820332  .00000062  00000+0  77147-4 0  9999
2 60390  88.9662 287.7170 0011511 238.8754 121.1268 13.51003772 82333
QIANFAN-13              
1 60391U 24140N   26093.55342804  .00000068  00000+0  86808-4 0  9998
2 60391  88.9674 287.8258 0011296 241.7045 118.2967 13.51004069 82367
QIANFAN-14              
1 60392U 24140P   26093.50397898  .00000067  00000+0  84883-4 0  9997
2 60392  88.9653 287.7048 0014974 242.6634 117.2993 13.51004333 82363
QIANFAN-15              
1 60393U 24140Q   26093.51235414  .00000055  00000+0  65975-4 0  9992
2 60393  88.9677 287.6870 0011017 225.9404 134.0841 13.51007529 82354
QIANFAN-16              
1 60394U 24140R   26093.49992320  .00000080  00000+0  10465-3 0  9997
2 60394  88.9680 287.8117 0012861 246.6806 113.2993 13.51000948 82264
QIANFAN-17              
1 60395U 24140S   26093.49578185  .00000076  00000+0  98497-4 0  9994
2 60395  88.9691 287.8704 0013340 239.6373 120.3459 13.51007251 83220
QIANFAN-18              
1 60396U 24140T   26093.47527198  .00000065  00000+0  82413-4 0  9990
2 60396  88.9684 287.3979 0013017 220.2227 139.7962 13.51006369 82611
QIANFAN-19              
1 61552U 24185A   26093.50839000  .00000775  00000+0  39789-3 0  9991
2 61552  88.9797  65.1050 0005317 323.3490  36.7333 14.14418171 85466
QIANFAN-20              
1 61553U 24185B   26093.47602949  .00000769  00000+0  43639-3 0  9990
2 61553  88.9793  65.5450 0005903  11.4598 348.6719 14.08964720 85222
QIANFAN-21              
1 61554U 24185C   26093.51155903  .00001100  00000+0  48444-3 0  9998
2 61554  88.9716  63.8593 0011130  12.7260 347.4210 14.22771427 85865
QIANFAN-22              
1 61555U 24185D   26093.44827063  .00000398  00000+0  33286-3 0  9990
2 61555  88.9776  66.9806 0007567  31.8717 328.2910 13.86356400 84414
QIANFAN-23              
1 61556U 24185E   26093.46729799  .00001017  00000+0  50452-3 0  9993
2 61556  88.9789  64.8670 0006358 334.7106  25.3770 14.16431356 85563
QIANFAN-24              
1 61557U 24185F   26093.49015439  .00001117  00000+0  48075-3 0  9995
2 61557  88.9773  64.0870 0006953 304.6798  55.3739 14.23981901 85927
QIANFAN-25              
1 61558U 24185G   26093.45981041  .00000661  00000+0  39464-3 0  9998
2 61558  88.9785  65.5179 0009979 350.7982   9.3016 14.06022790 85208
QIANFAN-26              
1 61559U 24185H   26093.51285234  .00000409  00000+0  39573-3 0  9998
2 61559  88.9781  67.6602 0007399  47.7517 312.4276 13.77878047 84060
QIANFAN-27              
1 61560U 24185J   26093.49091174  .00000715  00000+0  28565-3 0  9994
2 61560  88.9786  63.8150 0005224 290.9877  69.0758 14.27476569 86105
QIANFAN-28              
1 61561U 24185K   26093.48463104  .00001503  00000+0  59720-3 0  9993
2 61561  88.9803  63.8238 0004819 290.6776  69.3902 14.28275287 86128
QIANFAN-29              
1 61562U 24185L   26093.49777508  .00000237  00000+0  34800-3 0  9996
2 61562  88.9751  69.7345 0011929  87.2704 272.9812 13.51056309 82884
QIANFAN-30              
1 61563U 24185M   26093.48323155  .00000218  00000+0  32377-3 0  9997
2 61563  88.9771  69.3043 0009719  75.8579 284.3651 13.50029242 83148
QIANFAN-31              
1 61564U 24185N   26093.45848493  .00000264  00000+0  34877-3 0  9990
2 61564  88.9757  68.9312 0009128  68.7952 291.4177 13.58015718 83320
QIANFAN-32              
1 61565U 24185P   26093.46407124  .00000164  00000+0  23657-3 0  9997
2 61565  88.9815  69.4747 0011743  98.2951 261.9532 13.50772491 83122
QIANFAN-33              
1 61566U 24185Q   26093.45869818  .00000592  00000+0  41797-3 0  9999
2 61566  88.9774  66.3246 0006834 357.4152   2.6988 13.96649170 84757
QIANFAN-34              
1 61567U 24185R   26093.46517872  .00000631  00000+0  40221-3 0  9996
2 61567  88.9751  65.7396 0005291   4.0178 356.1044 14.02410826 85013
QIANFAN-35              
1 61568U 24185S   26093.45800897  .00001272  00000+0  50554-3 0  9990
2 61568  88.9784  63.7373 0004014 287.6305  72.4451 14.28174729 86126
QIANFAN-36              
1 61569U 24185T   26093.49277417  .00000133  00000+0  17336-3 0  9997
2 61569  88.9749  69.3761 0008313  80.1304 280.0788 13.55619237 83069
QIANFAN-37              
1 62238U 24232B   26093.53234090  .00000171  00000+0  24643-3 0  9990
2 62238  89.0100  30.0580 0002621  88.5103 271.6349 13.51011131114266
QIANFAN-38              
1 62239U 24232C   26093.48294205  .00000195  00000+0  28421-3 0  9993
2 62239  89.0106  29.9864 0012560 228.5277 131.4797 13.51009560114315
QIANFAN-39              
1 62240U 24232D   26093.53204588  .00000941  00000+0  39165-3 0  9992
2 62240  89.0098  24.5432 0018627  73.6231 286.7008 14.25469148117314
QIANFAN-40              
1 62241U 24232E   26093.51586440  .00000195  00000+0  28348-3 0  9993
2 62241  89.0134  29.5991 0011477 237.4901 122.5142 13.51009142114686
QIANFAN-41              
1 62242U 24232F   26093.52411116  .00000182  00000+0  26358-3 0  9997
2 62242  89.0105  29.9319 0012066 223.6360 136.3838 13.51010573114342
QIANFAN-42              
1 62243U 24232G   26093.53094206  .00000901  00000+0  38158-3 0  9996
2 62243  89.0097  24.6071 0017477  79.1640 281.1519 14.24561051117280
QIANFAN-43              
1 62244U 24232H   26093.51995130  .00000186  00000+0  26952-3 0  9995
2 62244  89.0109  30.0025 0013480 230.1774 129.8191 13.51010463 82956
QIANFAN-44              
1 62245U 24232J   26093.50766274  .00000172  00000+0  24775-3 0  9996
2 62245  89.0107  29.8128 0011762 226.2262 133.7916 13.51008414114424
QIANFAN-45              
1 62246U 24232K   26093.47470044  .00000178  00000+0  25701-3 0  9996
2 62246  89.0111  29.9665 0012435 226.1449 133.8676 13.51012181114342
QIANFAN-46              
1 62247U 24232L   26093.49940199  .00000158  00000+0  22694-3 0  9998
2 62247  89.0107  30.0284 0012389 232.4793 127.5233 13.51009003114302
QIANFAN-47              
1 62248U 24232M   26093.50351739  .00000173  00000+0  24974-3 0  9997
2 62248  89.0103  29.9565 0012833 231.5971 128.4028 13.51008859114333
QIANFAN-48              
1 62249U 24232N   26093.46648897  .00000177  00000+0  25634-3 0  9995
2 62249  89.0106  29.9664 0015033 235.2145 124.7592 13.51008902114330
QIANFAN-49              
1 62250U 24232P   26093.52823383  .00000174  00000+0  25073-3 0  9993
2 62250  89.0106  29.9718 0012199 228.0562 131.9550 13.51008252 82937
QIANFAN-50              
1 62251U 24232Q   26093.47882354  .00000180  00000+0  26093-3 0  9991
2 62251  89.0111  29.9910 0013829 230.2530 129.7403 13.51009225 82954
QIANFAN-51              
1 62252U 24232R   26093.53644404  .00000164  00000+0  23558-3 0  9996
2 62252  89.0105  29.9723 0011276 233.6127 126.3984 13.51009772 82957
QIANFAN-52              
1 62253U 24232S   26093.49126837  .00000175  00000+0  25276-3 0  9998
2 62253  89.0102  29.8461 0013406 225.4025 134.6033 13.51006258 83039
QIANFAN-53              
1 62254U 24232T   26093.47060394  .00000166  00000+0  23873-3 0  9993
2 62254  89.0109  29.9610 0012268 226.3872 133.6262 13.51009034 82991
QIANFAN-54              
1 62255U 24232U   26093.51179032  .00000191  00000+0  27723-3 0  9995
2 62255  89.0100  29.6258 0000631   2.3627 357.7527 13.51008830114508
QIANFAN-55              
1 62785U 25016A   26093.46386802  .00000043  00000+0  47529-4 0  9996
2 62785  88.9682  91.6315 0018446  31.9576 328.2690 13.51007058 62277
QIANFAN-56              
1 62786U 25016B   26093.48027931  .00000030  00000+0  27463-4 0  9995
2 62786  88.9656  91.4360 0017178  34.6035 325.6231 13.50999566 62329
QIANFAN-57              
1 62787U 25016C   26093.51322566  .00000038  00000+0  40330-4 0  9998
2 62787  88.9687  91.6210 0002240 109.2777 250.8616 13.51006532 62291
QIANFAN-58              
1 62788U 25016D   26093.48437450  .00000030  00000+0  27948-4 0  9996
2 62788  88.9657  91.4211 0014849  28.5315 331.6646 13.51000249 62332
QIANFAN-59              
1 62789U 25016E   26093.50905215  .00000028  00000+0  24828-4 0  9990
2 62789  88.9680  91.5187 0015337  31.7560 328.4513 13.51008512 62331
QIANFAN-60              
1 62790U 25016F   26093.46786254  .00000034  00000+0  34556-4 0  9993
2 62790  88.9661  91.4732 0016759  27.8645 332.3400 13.51010576 62316
QIANFAN-61              
1 62791U 25016G   26093.50084318  .00000026  00000+0  20981-4 0  9999
2 62791  88.9728  91.7088 0015663  27.6822 332.5160 13.51006988 62335
QIANFAN-62              
1 62792U 25016H   26093.50502339  .00000041  00000+0  44327-4 0  9995
2 62792  88.9675  91.5164 0017051  27.4301 332.7746 13.51005500 62323
QIANFAN-63              
1 62793U 25016J   26093.52965560  .00000026  00000+0  21091-4 0  9993
2 62793  88.9682  91.4728 0017291  32.3137 327.9070 13.51007833 62366
QIANFAN-64              
1 62794U 25016K   26093.49672876  .00000027  00000+0  23044-4 0  9996
2 62794  88.9669  91.4352 0014998  26.7097 333.4823 13.51006685 62359
QIANFAN-65              
1 62795U 25016L   26093.49247564  .00000032  00000+0  31398-4 0  9996
2 62795  88.9665  91.4577 0014917  28.4583 331.7380 13.51003568 62339
QIANFAN-66              
1 62796U 25016M   26093.52147725  .00000021  00000+0  14474-4 0  9993
2 62796  88.9685  91.4468 0015848  23.7454 336.4425 13.51007983 62382
QIANFAN-67              
1 62797U 25016N   26093.52560633  .00000026  00000+0  21122-4 0  9994
2 62797  88.9675  91.4610 0016057  30.1989 330.0084 13.50996680 62357
QIANFAN-68              
1 62798U 25016P   26093.51730278  .00000017  00000+0  80780-5 0  9994
2 62798  88.9679  91.5111 0016048  28.5413 331.6613 13.51006664 62330
QIANFAN-69              
1 62799U 25016Q   26093.53376146  .00000040  00000+0  43343-4 0  9996
2 62799  88.9657  91.3548 0016839  29.1327 331.0760 13.51006929 62373
QIANFAN-70              
1 62800U 25016R   26093.47618022  .00000023  00000+0  16872-4 0  9992
2 62800  88.9678  91.5228 0016096  20.4232 339.7559 13.51008394 62324
QIANFAN-71              
1 62801U 25016S   26093.47210914  .00000037  00000+0  38867-4 0  9994
2 62801  88.9672  91.4960 0016869  32.6369 327.5821 13.51008209 62327
QIANFAN-72              
1 62802U 25016T   26093.48857776  .00000013  00000+0  88976-6 0  9991
2 62802  88.9662  91.4967 0020348  38.2232 322.0358 13.51006927 62311
QIANFAN-73              
1 63159U 25046A   26093.51544335  .00000044  00000+0  48867-4 0  9995
2 63159  88.9707 308.4658 0015484 154.1462 206.0466 13.50998407 62507
QIANFAN-74              
1 63160U 25046B   26093.49897622  .00000132  00000+0  18533-3 0  9998
2 63160  88.9707 308.3565 0001995  80.6290 279.5086 13.51005239 62561
QIANFAN-75              
1 63161U 25046C   26093.56087738  .00000064  00000+0  79947-4 0  9997
2 63161  88.9709 308.5855 0016532 157.4638 202.7243 13.51012326 62445
QIANFAN-76              
1 63162U 25046D   26093.55653326  .00000235  00000+0  34510-3 0  9995
2 63162  88.9709 308.5656 0014051 156.9148 203.2638 13.51003732 62455
QIANFAN-77              
1 63163U 25046E   26093.56304279  .00000131  00000+0  85198-4 0  9991
2 63163  88.9707 305.6510 0016931  91.0955 269.2162 13.96185414 64054
QIANFAN-78              
1 63164U 25046F   26093.52362571  .00000207  00000+0  30121-3 0  9996
2 63164  88.9707 308.4319 0015318 160.0561 200.1192 13.51008194 62528
QIANFAN-79              
1 63165U 25046G   26093.55243175  .00000109  00000+0  14952-3 0  9993
2 63165  88.9711 308.5409 0015207 158.0368 202.1438 13.50999958 62479
QIANFAN-80              
1 63166U 25046H   26093.49483927  .00000053  00000+0  63278-4 0  9992
2 63166  88.9708 308.2506 0013931 161.9813 198.1834 13.51003057 62629
QIANFAN-81              
1 63167U 25046J   26093.54763980 -.00000002  00000+0 -21649-4 0  9991
2 63167  88.9708 308.3128 0015289 152.2658 207.9311 13.50967239 62583
QIANFAN-82              
1 63168U 25046K   26093.50719230  .00000066  00000+0  83352-4 0  9994
2 63168  88.9708 308.3612 0013182 157.7651 202.4074 13.51004738 62566
QIANFAN-83              
1 63169U 25046L   26093.51311049  .00000117  00000+0  13570-3 0  9993
2 63169  88.9709 307.9170 0015169 138.4312 221.8001 13.62029527 62817
QIANFAN-84              
1 63170U 25046M   26093.53785227  .00000186  00000+0  26879-3 0  9992
2 63170  88.9708 308.4910 0016347 155.7177 204.4748 13.51016561 62497
QIANFAN-85              
1 63171U 25046N   26093.53189509  .00000023  00000+0  17473-4 0  9995
2 63171  88.9707 308.3623 0013669 156.7567 203.4205 13.50994316 62562
QIANFAN-86              
1 63172U 25046P   26093.54008432  .00000058  00000+0  71477-4 0  9994
2 63172  88.9709 308.2261 0011382 159.3892 200.7721 13.50998545 62642
QIANFAN-87              
1 63173U 25046Q   26093.51127344  .00000108  00000+0  14854-3 0  9997
2 63173  88.9706 308.3363 0012189 155.4192 204.7543 13.51002436 62574
QIANFAN-88              
1 63174U 25046R   26093.52772678  .00000059  00000+0  72065-4 0  9999
2 63174  88.9708 308.2921 0012312 163.6010 196.5542 13.51003202 62607
QIANFAN-89              
1 63175U 25046S   26093.56478301  .00000062  00000+0  77746-4 0  9995
2 63175  88.9709 308.4774 0017112 156.2558 203.9386 13.50999542 62503
QIANFAN-90              
1 63176U 25046T   26093.51951989  .00000155  00000+0  22178-3 0  9990
2 63176  88.9709 308.4545 0014119 153.9796 206.2068 13.51000509 62513
QIANFAN-91              
1 66033U 25233A   26093.47803866  .00000110  00000+0  15103-3 0  9999
2 66033  88.9982  50.7322 0002429  84.8187 275.3242 13.51008137 23094
QIANFAN-92              
1 66034U 25233B   26093.48618073  .00000106  00000+0  14593-3 0  9992
2 66034  88.9966  50.7154 0002201  83.4684 276.6718 13.51009052 23094
QIANFAN-93              
1 66035U 25233C   26093.49442942  .00000123  00000+0  17159-3 0  9994
2 66035  88.9992  50.7462 0002354  85.0179 275.1241 13.51008567 23097
QIANFAN-94              
1 66036U 25233D   26093.48215728  .00000107  00000+0  14647-3 0  9995
2 66036  88.9989  50.6533 0002297  81.1803 278.9608 13.51008120 23148
QIANFAN-95              
1 66037U 25233E   26093.49016868  .00000118  00000+0  16388-3 0  9997
2 66037  88.9987  50.1981 0002488  82.0294 278.1140 13.51004172 23398
QIANFAN-96              
1 66038U 25233F   26093.51505440  .00000110  00000+0  15134-3 0  9990
2 66038  88.9984  50.7406 0002479  85.2483 274.8951 13.51008162 23092
QIANFAN-97              
1 66039U 25233G   26093.49859612  .00000117  00000+0  16295-3 0  9997
2 66039  88.9987  50.7240 0002400  84.9486 275.1939 13.51007442 23107
QIANFAN-98              
1 66040U 25233H   26093.50675534  .00000113  00000+0  15679-3 0  9991
2 66040  88.9977  50.4622 0002294  70.7977 289.3422 13.51008317 23249
QIANFAN-99              
1 66041U 25233J   26093.51091710  .00000103  00000+0  14085-3 0  9990
2 66041  88.9988  50.7263 0002402  74.9094 285.2322 13.51008198 23109
QIANFAN-100             
1 66042U 25233K   26093.50264093  .00000117  00000+0  16336-3 0  9992
2 66042  88.9999  50.6458 0002358  85.1875 274.9546 13.51009225 23158
QIANFAN-101             
1 66043U 25233L   26093.53308809  .00000685  00000+0  27662-3 0  9994
2 66043  88.9988  49.1241 0016423  36.0622 324.1676 14.26767915 23986
QIANFAN-102             
1 66044U 25233M   26093.52329542  .00000116  00000+0  16096-3 0  9999
2 66044  88.9986  50.6365 0002327  80.3288 279.8126 13.51007671 23155
QIANFAN-103             
1 66045U 25233N   26093.45331756  .00000115  00000+0  16006-3 0  9992
2 66045  88.9988  50.7366 0002376  85.4686 274.6737 13.51009645 23099
QIANFAN-104             
1 66046U 25233P   26093.53133348  .00000128  00000+0  17973-3 0  9997
2 66046  88.9993  50.6274 0002226  80.0929 280.0474 13.51003157 23156
QIANFAN-105             
1 66047U 25233Q   26093.53972604  .00000131  00000+0  18462-3 0  9992
2 66047  89.0007  50.4598 0002437  82.2329 277.9099 13.51010592 23265
QIANFAN-106             
1 66048U 25233R   26093.53558141  .00000123  00000+0  17210-3 0  9990
2 66048  88.9975  50.6965 0002309  73.0195 287.1209 13.51008667 23115
QIANFAN-107             
1 66049U 25233S   26093.54388435  .00000120  00000+0  16655-3 0  9998
2 66049  88.9991  50.7163 0002349  84.7159 275.4260 13.51006713 23115
QIANFAN-108             
1 66050U 25233T   26093.47389389  .00000119  00000+0  16562-3 0  9996
2 66050  88.9984  50.7164 0002279  73.8292 286.3110 13.51008148 23107
