GLOBALSTAR M069         
1 31573U 07020C   26231.93230012 -.00000110  00000+0 -16444-3 0  9997
2 31573  52.0031  71.7009 0001060 296.3527 203.8940 12.23473421886600
GLOBALSTAR M072         
1 31574U 07020D   26231.47276631 -.00000045  00000+0  53658-3 0  9998
2 31574  51.9936 291.7658 0001488  87.2015  13.0518 11.91659746882529
GLOBALSTAR M066         
1 32265U 07048C   26231.20139699 -.00000091  00000+0  27481-4 0  9996
2 32265  51.9567 237.0181 0004819 173.2683 267.5314 12.30390970867987
GLOBALSTAR M079         
1 37188U 10054A   26231.39384802 -.00000094  00000+0  56874-4 0  9995
2 37188  52.0034 276.2630 0000659 125.6867 247.7831 12.62267096730535
GLOBALSTAR M074         
1 37189U 10054B   26231.42037497 -.00000083  00000+0  11447-3 0  9999
2 37189  52.0013 275.4389 0000319 134.1355 239.3580 12.62262641731142
GLOBALSTAR M076         
1 37190U 10054C   26231.44678669 -.00000078  00000+0  14164-3 0  9998
2 37190  52.0021 275.5669 0000545 143.1093 230.4449 12.62263399730860
GLOBALSTAR M077         
1 37191U 10054D   26231.83855292 -.00000106  00000+0 -51462-3 0  9996
2 37191  51.9985  17.7378 0002118 296.7552 211.5803 11.67547557728578
GLOBALSTAR M075         
1 37192U 10054E   26231.96935785 -.00000081  00000+0  12591-3 0  9998
2 37192  51.9967 315.9924 0000580 106.6119  63.9831 12.62268423729993
GLOBALSTAR M073         
1 37193U 10054F   26231.30178072 -.00000087  00000+0  91918-4 0  9992
2 37193  52.0036 232.1728 0000408 126.7426 246.9542 12.62267703731904
GLOBALSTAR M083         
1 37739U 11033A   26231.87378454 -.00000087  00000+0  95522-4 0  9999
2 37739  51.9847 178.5725 0000431  97.7954 296.8647 12.62258368700999
GLOBALSTAR M088         
1 37740U 11033B   26231.32319559 -.00000101  00000+0  16081-4 0  9992
2 37740  52.0210  86.8293 0000726  69.2279 102.0032 12.62269979696461
GLOBALSTAR M091         
1 37741U 11033C   26231.96855198 -.00000104  00000+0 -40306-5 0  9999
2 37741  52.0003  47.7362 0000969  84.2489  81.1037 12.62264558697331
GLOBALSTAR M085         
1 37742U 11033D   26231.68471502 -.00000099  00000+0  24157-4 0  9999
2 37742  52.0153 359.9485 0000940  99.2765 275.5809 12.62264570697817
GLOBALSTAR M081         
1 37743U 11033E   26231.31940784 -.00000104  00000+0  37140-6 0  9998
2 37743  51.9985   3.4240 0000801 106.5053 287.6311 12.62265722697910
GLOBALSTAR M089         
1 37744U 11033F   26231.19645834 -.00000092  00000+0  68049-4 0  9999
2 37744  51.9951 317.9477 0000351 132.0055 244.4422 12.62262770698741
GLOBALSTAR M084         
1 38040U 11080A   26231.12966131 -.00000081  00000+0  12708-3 0  9998
2 38040  51.9995 185.6625 0000087  79.6874 292.8560 12.62270020676715
GLOBALSTAR M080         
1 38041U 11080B   26231.89808412 -.00000085  00000+0  10410-3 0  9992
2 38041  52.0046 185.0659 0000773  51.6460 343.0515 12.62258283676939
GLOBALSTAR M082         
1 38042U 11080C   26231.75114978 -.00000088  00000+0  90368-4 0  9999
2 38042  52.0076 141.0185 0000768  73.9982 304.3670 12.62262079677626
GLOBALSTAR M092         
1 38043U 11080D   26231.96276046 -.00000115  00000+0 -60399-4 0  9991
2 38043  52.0067 230.7763 0000226  89.2476 290.0810 12.62268264676103
GLOBALSTAR M090         
1 38044U 11080E   26231.69833593 -.00000082  00000+0  12308-3 0  9996
2 38044  52.0120 135.1563 0000780  77.8530 298.9051 12.62270040677738
GLOBALSTAR M086         
1 38045U 11080F   26231.19708039 -.00000094  00000+0  56525-4 0  9991
2 38045  51.9895 136.5071 0000996 156.7290   7.3327 12.62288571677617
GLOBALSTAR M097         
1 39072U 13005A   26231.74756671 -.00000105  00000+0 -84360-5 0  9990
2 39072  52.0053  49.8495 0000931  89.4944 270.6030 12.62271385624937
GLOBALSTAR M093         
1 39073U 13005B   26231.87931208 -.00000106  00000+0 -11703-4 0  9997
2 39073  52.0115  42.8212 0001080  99.9711 260.1278 12.62266744624909
GLOBALSTAR M094         
1 39074U 13005C   26231.64165562 -.00000097  00000+0  38503-4 0  9990
2 39074  51.9981 317.6019 0000789 115.9283 244.1665 12.62264286626481
GLOBALSTAR M096         
1 39075U 13005D   26230.86315492 -.00000101  00000+0  15109-4 0  9996
2 39075  52.0098   8.8185 0001009  96.9449 263.1533 12.62275905625309
GLOBALSTAR M078         
1 39076U 13005E   26231.07410862 -.00000212  00000+0 -60591-3 0  9996
2 39076  51.9870  92.1030 0001568  57.4204 302.6814 12.62259905623954
GLOBALSTAR M095         
1 39077U 13005F   26231.25909076 -.00000097  00000+0  36506-4 0  9997
2 39077  52.0075  89.2320 0001183  74.9432 285.1566 12.62264455623835
GLOBALSTAR M087         
1 52888U 22064A   26231.98484823 -.00000096  00000+0  45802-4 0  9993
2 52888  51.9971 228.2254 0000479  97.9629 262.1292 12.62262564199191
