KUIPER-00008            
1 63724U 25088A   26059.84687803 -.00063294  00000+0 -52562-2 0  9998
2 63724  51.8901 127.3103 0009660  64.9220 295.2752 14.98486904 46734
KUIPER-00009            
1 63725U 25088B   26059.53138377  .00006203  00000+0  84024-3 0  9996
2 63725  51.9013 147.1343 0008685  70.6665 289.5236 14.80010264 46421
KUIPER-00010            
1 63726U 25088C   26059.59111432  .00000772  00000+0  13029-3 0  9998
2 63726  51.9012 123.3263 0000829  85.2657 274.8400 14.79929809 46380
KUIPER-00011            
1 63727U 25088D   26059.61661716  .00005016  00000+0  68548-3 0  9999
2 63727  51.8998 130.7771 0000391  74.4528 285.6478 14.79997309 46419
KUIPER-00012            
1 63728U 25088E   26057.44119412  .00004696  00000+0  64295-3 0  9998
2 63728  51.9004 125.3508 0000850  14.9772 345.1215 14.80041582 46255
KUIPER-00013            
1 63729U 25088F   26059.80024926 -.00021532  00000+0 -28055-2 0  9999
2 63729  51.9018 147.4032 0002635  14.5645 345.5393 14.79914060 46255
KUIPER-00014            
1 63730U 25088G   26059.66372183  .00005969  00000+0  81107-3 0  9998
2 63730  51.9005 148.9785 0000295  38.4053 321.6931 14.79941409 46038
KUIPER-00015            
1 63731U 25088H   26059.56160059  .00006100  00000+0  76053-3 0  9997
2 63731  51.8993 158.9330 0009632  46.1682 314.0076 14.83527593 46348
KUIPER-00016            
1 63732U 25088J   26058.98579303  .00005541  00000+0  75387-3 0  9996
2 63732  51.8998 154.5087 0006904  44.2743 315.8771 14.80008300 45898
KUIPER-00018            
1 63733U 25088K   26058.93068030 -.00003194  00000+0 -38960-3 0  9992
2 63733  51.9016 143.7191 0010070  61.2509 298.9463 14.79909676 46046
KUIPER-00019            
1 63734U 25088L   26059.47200382  .00001593  00000+0  23802-3 0  9999
2 63734  51.9009 139.8572 0000842 105.9585 254.1471 14.79926244 46148
KUIPER-00020            
1 63735U 25088M   26059.53568660 -.00006510  00000+0 -82498-3 0  9995
2 63735  51.9025 143.5654 0007000  56.9544 303.2090 14.79939430 46305
KUIPER-00021            
1 63736U 25088N   26059.53414668  .00005570  00000+0  76012-3 0  9992
2 63736  51.9005 144.5699 0003511  64.9702 295.1625 14.79871890 46120
KUIPER-00023            
1 63737U 25088P   26059.53305318  .00005242  00000+0  71510-3 0  9998
2 63737  51.8992 146.0351 0008709  71.7141 288.4768 14.79981207 46402
KUIPER-00024            
1 63738U 25088Q   26059.61408217  .00002462  00000+0  35193-3 0  9998
2 63738  51.9029 133.2431 0000599  95.0759 265.0271 14.79926727 46715
KUIPER-00025            
1 63739U 25088R   26059.91668981 -.00027093  00000+0 -32486-2 0  9998
2 63739  51.9021 140.3631 0000420  71.0863 180.4551 14.83492981  4071
KUIPER-00027            
1 63740U 25088S   26059.47629950 -.00004426  00000+0 -55149-3 0  9991
2 63740  51.9007 136.3249 0000623  88.8832 271.2202 14.79964189 46251
KUIPER-00028            
1 63741U 25088T   26059.58036881 -.00006321  00000+0 -80250-3 0  9996
2 63741  51.9005 133.3364 0000370  84.0130 276.0874 14.79848607 46718
KUIPER-00029            
1 63742U 25088U   26059.40151361  .00005539  00000+0  69309-3 0  9999
2 63742  51.9014 131.8869 0000815 105.5987 254.5067 14.83551045 46240
KUIPER-00030            
1 63743U 25088V   26059.52777047  .00023020  00000+0  30334-2 0  9998
2 63743  51.9009 151.0604 0010699  44.1152 316.0662 14.79967583 46270
KUIPER-00031            
1 63744U 25088W   26059.61069726  .00005487  00000+0  68694-3 0  9995
2 63744  51.8996 136.0709 0002393 119.3842 240.7361 14.83547023 46207
KUIPER-00032            
1 63745U 25088X   26059.30625068  .00019348  00000+0  53634-3 0  9998
2 63745  51.8685  69.5850 0005051  79.5267 280.6289 15.36947296 48100
KUIPER-00033            
1 63746U 25088Y   26059.59398349  .00005201  00000+0  65578-3 0  9992
2 63746  51.8999 166.2976 0000729  46.4175 313.6849 14.83336371 46262
KUIPER-00034            
1 63747U 25088Z   26059.48234545  .00005328  00000+0  66846-3 0  9997
2 63747  51.9014 129.1382 0001604 325.3740  34.7119 14.83505062 46458
KUIPER-00035            
1 63748U 25088AA  26057.76719934  .00220401  00000+0  27548-1 0  9992
2 63748  51.9004 162.4147 0003376  48.7882 311.3371 14.80622464 45892
KUIPER-00037            
1 63749U 25088AB  26059.52487631  .00005953  00000+0  80989-3 0  9998
2 63749  51.8995 153.5854 0000646  63.1021 297.0008 14.79896676 46951
KUIPER-00038            
1 63750U 25088AC  26059.60866736  .00001066  00000+0  16901-3 0  9990
2 63750  51.9019 138.2459 0000882  93.8112 266.2951 14.79883916 46177
KUIPER-00039            
1 64500U 25134A   26059.91901395  .00003647  00000+0  50754-3 0  9992
2 64500  51.9003 271.8767 0000990  60.1195 299.9865 14.79902962 38775
KUIPER-00040            
1 64501U 25134B   26059.90650080  .00006602  00000+0  89310-3 0  9998
2 64501  51.9000 283.0746 0013489 235.7936 124.1748 14.79941059 38617
KUIPER-00041            
1 64502U 25134C   26059.97566135  .00003588  00000+0  51417-3 0  9990
2 64502  51.8983 284.1467 0007122 235.5528 124.4761 14.78678968 38603
KUIPER-00042            
1 64503U 25134D   26059.97659947  .00005935  00000+0  80634-3 0  9996
2 64503  51.8986 280.1220 0007495 249.0383 110.9778 14.79948550 38664
KUIPER-00043            
1 64504U 25134E   26059.97459994  .00004533  00000+0  56938-3 0  9990
2 64504  51.9007 271.7921 0000874 300.2714  59.8164 14.83763151 38786
KUIPER-00044            
1 64505U 25134F   26059.83625864  .00003690  00000+0  51316-3 0  9995
2 64505  51.8990 285.7420 0008297 243.9245 116.0863 14.79898508 38574
KUIPER-00046            
1 64506U 25134G   26059.97560707 -.00000816  00000+0 -77987-4 0  9997
2 64506  51.8974 281.5864 0000790 107.1682 252.9367 14.79926611 38643
KUIPER-00047            
1 64507U 25134H   26059.91541351  .00003338  00000+0  49687-3 0  9991
2 64507  51.8974 254.4824 0002715 114.1609 245.9637 14.77219109 39014
KUIPER-00048            
1 64508U 25134J   26059.93775943  .00004207  00000+0  58037-3 0  9995
2 64508  51.8974 254.2814 0001288  97.0941 263.0168 14.79945202 39027
KUIPER-00049            
1 64509U 25134K   26057.01879194  .00000099  00000+0  41953-4 0  9991
2 64509  51.8985 280.6656 0000989 122.5851 237.5207 14.79940750 38402
KUIPER-00050            
1 64510U 25134L   26059.94837727 -.00004297  00000+0 -34454-3 0  9996
2 64510  51.8893 251.6787 0004222 286.6986  73.3520 14.97300424 39065
KUIPER-00051            
1 64511U 25134M   26059.86516008  .00004097  00000+0  51815-3 0  9990
2 64511  51.9000 265.0336 0000914  90.1138 269.9931 14.83694116 38862
KUIPER-00052            
1 64512U 25134N   26059.71922990  .01145138  84834-3  10419-2 0  9994
2 64512  51.8330 149.9926 0007774 334.5082  25.5551 16.11996821 40427
KUIPER-00053            
1 64513U 25134P   26059.92962228 -.00006203  00000+0 -78541-3 0  9996
2 64513  51.8997 261.8319 0001108 130.2005 229.9055 14.79934420 38917
KUIPER-00054            
1 64514U 25134Q   26059.93529076  .00003813  00000+0  52925-3 0  9998
2 64514  51.8966 256.7813 0000401 137.3310 222.7683 14.79905188 38982
KUIPER-00055            
1 64515U 25134R   26059.83102805  .00023105  00000+0  10646-2 0  9994
2 64515  51.8866 221.4947 0000425 257.5716 102.5216 15.20175128 39472
KUIPER-00056            
1 64516U 25134S   26059.85677694  .00004138  00000+0  52596-3 0  9996
2 64516  51.9010 262.4644 0000995  56.1603 303.9455 14.83460258 38902
KUIPER-00057            
1 64517U 25134T   26059.78488978  .00004278  00000+0  53925-3 0  9996
2 64517  51.8985 270.2893 0004227 241.3586 118.6954 14.83741225 38783
KUIPER-00058            
1 64518U 25134U   26059.85959078  .00003901  00000+0  54063-3 0  9995
2 64518  51.8993 264.5814 0000778 107.8177 252.2871 14.79915697 38875
KUIPER-00059            
1 64519U 25134V   26059.86476652  .00003920  00000+0  54350-3 0  9999
2 64519  51.8982 259.6094 0001431 129.6658 230.4431 14.79885132 38940
KUIPER-00060            
1 64520U 25134W   26059.92448619  .00004302  00000+0  54486-3 0  9995
2 64520  51.9012 259.6423 0001654  62.1138 297.9993 14.83523061 38939
KUIPER-00061            
1 64521U 25134X   26059.78912361  .00003739  00000+0  51881-3 0  9999
2 64521  51.8985 267.4487 0001762  80.5664 279.5498 14.79965014 38819
KUIPER-00062            
1 64522U 25134Y   26059.78647929  .00003061  00000+0  42991-3 0  9995
2 64522  51.8942 269.9967 0001044 147.9461 212.1565 14.79971578 38796
KUIPER-00063            
1 64523U 25134Z   26059.98115082  .00051010  00000+0  67767-2 0  9992
2 64523  51.9014 276.6086 0000060 102.0280 258.0689 14.79260018 38711
KUIPER-00064            
1 64524U 25134AA  26059.78113928  .00003906  00000+0  54038-3 0  9997
2 64524  51.9017 274.9141 0000812  83.5122 276.5933 14.79991713 38722
KUIPER-00065            
1 64525U 25134AB  26059.97669944 -.00007877  00000+0 -10217-2 0  9996
2 64525  51.9024 279.1899 0001442 196.2477 163.8439 14.79261947 38664
KUIPER-00066            
1 64526U 25134AC  26059.84401392  .00018605  00000+0  79260-3 0  9997
2 64526  51.8709 225.8572 0001841 246.5497 113.5290 15.22994762 39412
KUIPER-00069            
1 64816U 25151A   26059.93519893  .00001173  00000+0  18278-3 0  9998
2 64816  51.9018 319.3364 0000943  86.1512 273.9558 14.79942784 35461
KUIPER-00070            
1 64817U 25151B   26059.94192136  .00005522  00000+0  75397-3 0  9994
2 64817  51.9009 344.2429 0000885  92.5790 267.5274 14.79862916 35120
KUIPER-00071            
1 64818U 25151C   26059.94460844  .00005604  00000+0  76278-3 0  9999
2 64818  51.9020 341.7521 0000657 222.3844 137.7067 14.79974821 33977
KUIPER-00072            
1 64819U 25151D   26059.93253018  .00005390  00000+0  73532-3 0  9994
2 64819  51.8985 321.7945 0001269  77.5558 282.5547 14.79938870 34255
KUIPER-00073            
1 64820U 25151E   26059.97847007  .00000062  00000+0  37096-4 0  9994
2 64820  51.9034 341.5952 0001048 105.3392 254.7686 14.79935790 35166
KUIPER-00074            
1 64821U 25151F   26059.91668981 -.00036704  00000+0 -38400-2 0  9993
2 64821  51.9036 329.2457 0000392 176.7320 217.2928 14.89191431  3150
KUIPER-00075            
1 64822U 25151G   26059.83020641  .00038738  00000+0  91601-3 0  9990
2 64822  51.8709 264.9000 0004297 233.0833 126.9762 15.41430768 35032
KUIPER-00076            
1 64823U 25151H   26059.91432942  .00005351  00000+0  72220-3 0  9992
2 64823  51.9015 331.8163 0000476 341.8918  18.2028 14.80414187 34110
KUIPER-00077            
1 64824U 25151J   26059.91559500  .00005197  00000+0  70766-3 0  9994
2 64824  51.9030 336.8902 0001188 176.8838 183.2132 14.80089220 34049
KUIPER-00078            
1 64825U 25151K   26059.95278523  .00005303  00000+0  72401-3 0  9999
2 64825  51.9028 334.2224 0000791  90.8454 269.2599 14.79939728 34085
KUIPER-00079            
1 64826U 25151L   26059.98104807  .00001164  00000+0  18161-3 0  9990
2 64826  51.9015 339.0717 0000735  93.1669 266.9377 14.79941920 35215
KUIPER-00080            
1 64827U 25151M   26059.94738965  .00003935  00000+0  54479-3 0  9995
2 64827  51.9012 339.2297 0000938  87.8838 272.2231 14.79945187 34016
KUIPER-00082            
1 64828U 25151N   26059.92709328  .00004642  00000+0  63707-3 0  9995
2 64828  51.9031 326.8491 0000735 106.9858 253.1185 14.79963535 34187
KUIPER-00083            
1 64829U 25151P   26059.91903797 -.00004208  00000+0 -52296-3 0  9992
2 64829  51.9025 334.3743 0000474 126.1959 233.9047 14.79961320 35264
KUIPER-00084            
1 64830U 25151Q   26059.97571655  .00000974  00000+0  15674-3 0  9997
2 64830  51.9033 344.1062 0001044 186.8930 173.2018 14.79942244 33945
KUIPER-00085            
1 64831U 25151R   26059.96088672  .00000423  00000+0  84525-4 0  9990
2 64831  51.9039 326.7257 0000694 101.8169 258.2871 14.79937501 34183
KUIPER-00086            
1 64832U 25151S   26059.95008762 -.00007764  00000+0 -99038-3 0  9993
2 64832  51.9034 336.7442 0000641  77.8030 282.3005 14.79940709 34043
KUIPER-00087            
1 64833U 25151T   26059.90221854  .00004432  00000+0  61765-3 0  9991
2 64833  51.9005 319.4470 0000760  98.1661 261.9387 14.79403208 34278
KUIPER-00089            
1 64834U 25151U   26059.96183219 -.00012712  00000+0 -16414-2 0  9992
2 64834  51.9018 324.1680 0000558   5.3822 354.7146 14.79938329 34229
KUIPER-00090            
1 64835U 25151V   26059.90413538  .00001654  00000+0  24585-3 0  9997
2 64835  51.9002 316.9734 0000590 112.6937 247.4088 14.79933159 34316
KUIPER-00091            
1 64836U 25151W   26059.89897081  .00004808  00000+0  66173-3 0  9998
2 64836  51.9025 321.9729 0001087 104.9691 255.1392 14.79773720 34247
KUIPER-00092            
1 64837U 25151X   26059.95818943  .00000882  00000+0  14464-3 0  9990
2 64837  51.9023 329.2065 0000885  94.3053 265.8011 14.79936270 35360
KUIPER-00093            
1 64838U 25151Y   26059.95546332  .00005239  00000+0  71509-3 0  9995
2 64838  51.9010 331.7002 0000919  89.6172 270.4896 14.79966662 34116
KUIPER-00094            
1 64839U 25151Z   26059.94236058 -.00012158  00000+0 -84517-3 0  9999
2 64839  51.8902 302.5564 0005193 255.9280 104.1116 15.04269338 34520
KUIPER-00081            
1 65132U 25171A   26059.74043238  .00005142  00000+0  70289-3 0  9996
2 65132  51.8986 187.6457 0000484 121.9318 238.1691 14.79941677 31712
KUIPER-00088            
1 65133U 25171B   26059.10027819 -.00047664  00000+0 -60573-2 0  9995
2 65133  51.8983 207.8444 0000753 265.1828  94.9049 14.81359166 31373
KUIPER-00095            
1 65134U 25171C   26059.75153025  .00035067  00000+0  49215-2 0  9998
2 65134  51.8971 185.2614 0000410  98.9247 261.1760 14.77114919 31745
KUIPER-00096            
1 65135U 25171D   26059.56085263 -.00002645  00000+0 -31804-3 0  9990
2 65135  51.8982 198.4493 0000762 145.5398 214.5614 14.79941075 31546
KUIPER-00097            
1 65136U 25171E   26059.82827856  .00005629  00000+0  76678-3 0  9993
2 65136  51.8999 199.8939 0000369 125.5274 234.5723 14.79931032 31533
KUIPER-00098            
1 65137U 25171F   26059.82559434  .00004498  00000+0  61890-3 0  9991
2 65137  51.8984 202.2846 0002082 134.4115 225.7019 14.79919298 30855
KUIPER-00099            
1 65138U 25171G   26059.73564528  .00005364  00000+0  73415-3 0  9991
2 65138  51.9018 192.6707 0000444  57.7716 302.3289 14.79808876 31634
KUIPER-00100            
1 65139U 25171H   26059.77155095  .00005012  00000+0  68582-3 0  9990
2 65139  51.9001 189.9877 0000488  95.4417 264.6601 14.79936808 31678
KUIPER-00102            
1 65140U 25171J   26059.76883343  .00004349  00000+0  59917-3 0  9999
2 65140  51.8967 192.5267 0000684  95.6226 264.4814 14.79927894 31636
KUIPER-00103            
1 65141U 25171K   26059.85135550  .00005032  00000+0  68835-3 0  9999
2 65141  51.8967 209.6536 0002375 117.8364 242.2839 14.79950874 31405
KUIPER-00104            
1 65142U 25171L   26059.66211127  .00004939  00000+0  67591-3 0  9997
2 65142  51.8989 197.9491 0000365  63.3738 296.7262 14.79965079 31559
KUIPER-00105            
1 65143U 25171M   26059.62017318 -.00004449  00000+0 -55288-3 0  9998
2 65143  51.8983 205.7570 0000661 120.1300 239.9728 14.80085770 31443
KUIPER-00106            
1 65144U 25171N   26059.63188160  .00007774  00000+0  68812-3 0  9993
2 65144  51.8916 196.1266 0007854  72.1052 288.0774 14.97085309 31583
KUIPER-00107            
1 65145U 25171P   26059.50424530  .00005363  00000+0  73209-3 0  9992
2 65145  51.8986 188.7097 0000258  84.1258 275.9734 14.79924949 31675
KUIPER-00108            
1 65146U 25171Q   26059.65949489  .00004696  00000+0  64443-3 0  9992
2 65146  51.9002 200.5372 0001733 150.1127 209.9934 14.79942922 31527
KUIPER-00109            
1 65147U 25171R   26059.76614430  .00000967  00000+0  15586-3 0  9991
2 65147  51.8973 195.0079 0000446  66.0883 294.0126 14.79936480 31609
KUIPER-00110            
1 65148U 25171S   26059.71988444  .00004628  00000+0  63669-3 0  9999
2 65148  51.8979 207.8110 0002169 158.0265 202.0791 14.79869972 31411
KUIPER-00111            
1 65149U 25171T   26059.67969793  .00004336  00000+0  59703-3 0  9991
2 65149  51.8953 212.8912 0002051 128.1035 232.0112 14.79963282 31344
KUIPER-00112            
1 65150U 25171U   26059.66497994  .00004921  00000+0  67399-3 0  9991
2 65150  51.9000 195.5107 0000449 110.1193 249.9818 14.79938186 31589
KUIPER-00114            
1 65151U 25171V   26059.67705487  .00004327  00000+0  59618-3 0  9997
2 65151  51.8981 215.4571 0001719 125.0781 235.0343 14.79943171 31302
KUIPER-00115            
1 65152U 25171W   26059.61748550  .00004600  00000+0  63178-3 0  9990
2 65152  51.8976 208.2060 0000657 100.3628 259.7409 14.79951274 31406
KUIPER-00116            
1 65153U 25171X   26059.84854874  .00004886  00000+0  66920-3 0  9997
2 65153  51.8983 212.2231 0001794 123.3133 236.8002 14.79948608 31366
KUIPER-00118            
1 65154U 25171Y   26059.84580447  .00004203  00000+0  57959-3 0  9995
2 65154  51.8980 214.6923 0000676  89.2952 270.8088 14.79961310 31339
KUIPER-00119            
1 65155U 25171Z   26059.65671933 -.00010409  00000+0 -13393-2 0  9996
2 65155  51.8984 203.1122 0002312 115.6390 244.4811 14.79903310 31479
KUIPER-00120            
1 65762U 25217A   26059.35364907 -.00092107  00000+0 -11954-1 0  9993
2 65762  51.8984  94.3611 0001285  57.0318 303.0768 14.80848714 23352
KUIPER-00132            
1 65763U 25217B   26059.98499616  .00044609  00000+0  11267-2 0  9999
2 65763  51.8591  45.7450 0006541 302.5921  57.4435 15.39354726 24088
KUIPER-00133            
1 65764U 25217C   26059.52208373 -.00001831  00000+0 -21113-3 0  9992
2 65764  51.9031  93.6564 0002044   0.8221 359.2744 14.79937141 23381
KUIPER-00139            
1 65765U 25217D   26059.99153943 -.00001894  00000+0 -12324-3 0  9999
2 65765  51.8841  73.6163 0007577 290.6220  69.3938 15.01728475 23701
KUIPER-00142            
1 65766U 25217E   26059.43974086 -.00001459  00000+0 -16249-3 0  9995
2 65766  51.8984  76.4945 0000781  94.5192 265.5859 14.79925636 23612
KUIPER-00145            
1 65767U 25217F   26059.43694468 -.00004254  00000+0 -52908-3 0  9997
2 65767  51.8996  79.0206 0000479  91.6036 268.4981 14.79952078 23577
KUIPER-00147            
1 65768U 25217G   26059.46815056  .00003974  00000+0  54984-3 0  9991
2 65768  51.8982  81.3797 0000894  89.1125 270.9940 14.79943946 23540
KUIPER-00148            
1 65769U 25217H   26059.27191862 -.00005056  00000+0 -29116-3 0  9997
2 65769  51.8782  68.2977 0008603 322.9439  37.0941 15.09788195 23714
KUIPER-00150            
1 65770U 25217J   26059.52481637  .00004052  00000+0  55991-3 0  9992
2 65770  51.9006  91.1328 0000558  51.3660 308.7352 14.79958870 23417
KUIPER-00151            
1 65771U 25217K   26059.46541297  .00004471  00000+0  61528-3 0  9993
2 65771  51.9008  83.8925 0000929  49.5187 310.5856 14.79923574 23510
KUIPER-00152            
1 65772U 25217L   26059.51270613  .00008976  00000+0  12047-2 0  9996
2 65772  51.9001  71.1757 0000902 127.7312 232.3732 14.79936658 23697
KUIPER-00153            
1 65773U 25217M   26059.28611340  .00012864  00000+0  73255-3 0  9997
2 65773  51.8767  71.3410 0010463 292.7655  67.2215 15.13098504 23677
KUIPER-00155            
1 65774U 25217N   26060.00337009  .00016907  00000+0  72022-3 0  9990
2 65774  51.8777  52.6054 0005255 312.1825  47.8708 15.23057884 23997
KUIPER-00156            
1 65775U 25217P   26059.28168477  .00003898  00000+0  54022-3 0  9995
2 65775  51.9026  67.2256 0000857 102.3890 257.7169 14.79920185 23723
KUIPER-00158            
1 65776U 25217Q   26059.35412817  .00004591  00000+0  62363-3 0  9992
2 65776  51.8964  86.7833 0000910  29.3670 330.7343 14.80420672 23460
KUIPER-00163            
1 65777U 25217R   26057.49976451  .00003385  00000+0  45151-3 0  9991
2 65777  51.8975  97.1967 0000866 350.1713   9.9233 14.81900605 23159
KUIPER-00165            
1 65778U 25217S   26059.47346812  .00003915  00000+0  54365-3 0  9990
2 65778  51.8996  76.3516 0001146  82.7129 277.3964 14.79820022 23617
KUIPER-00166            
1 65779U 25217T   26059.99343879 -.00000386  00000+0 -21612-4 0  9999
2 65779  51.9038  61.5740 0001296  91.1908 268.9203 14.79913076 23867
KUIPER-00167            
1 65780U 25217U   26059.32758975  .00003922  00000+0  54425-3 0  9999
2 65780  51.8957  86.9649 0000169  67.2330 292.8650 14.79850075 23454
KUIPER-00168            
1 65781U 25217V   26059.27895103  .00003908  00000+0  54142-3 0  9999
2 65781  51.9008  69.7138 0000873  76.4584 283.6476 14.79926136 23692
KUIPER-00169            
1 65782U 25217W   26059.47635908  .00004057  00000+0  56326-3 0  9999
2 65782  51.9002  73.8455 0000794  95.0842 265.0211 14.79754815 23651
KUIPER-00170            
1 65783U 25217X   26059.47040880  .00004179  00000+0  57564-3 0  9999
2 65783  51.8986  78.8533 0000797  51.2484 308.8550 14.80019854 23586
KUIPER-00172            
1 65785U 25217Z   26060.00270951 -.00015427  00000+0 -12479-2 0  9991
2 65785  51.8908  57.6491 0002877 277.4381  82.6263 14.98772504 23922
KUIPER-00173            
1 65786U 25217AA  26059.71885294  .00004721  00000+0  61363-3 0  9990
2 65786  51.9015  72.1422 0001570 124.1324 235.9789 14.82240470 23698
KUIPER-00174            
1 65787U 25217AB  26059.85239040  .00003900  00000+0  54588-3 0  9997
2 65787  51.9037  67.1967 0001295 131.8558 228.2515 14.79496218 23779
KUIPER-00176            
1 65788U 25217AC  26059.36399730  .00004314  00000+0  59427-3 0  9994
2 65788  51.8987  84.3376 0000812  62.7464 297.3581 14.79951760 23497
KUIPER-00101            
1 65947U 25228A   26059.64633484  .00004651  00000+0  63855-3 0  9995
2 65947  51.8984  40.5685 0000832 102.6861 257.4195 14.79945434 21896
KUIPER-00113            
1 65948U 25228B   26059.95560144  .00005056  00000+0  69181-3 0  9990
2 65948  51.8983  34.2173 0000845  91.8360 268.2700 14.79926486 22007
KUIPER-00117            
1 65949U 25228C   26059.91916971  .00004914  00000+0  67308-3 0  9991
2 65949  51.8982  36.8817 0000999  76.0084 284.0989 14.79934080 21966
KUIPER-00121            
1 65950U 25228D   26059.95823493  .00011231  00000+0  15004-2 0  9998
2 65950  51.9022  31.7024 0001145 102.7594 257.3497 14.79913990 22049
KUIPER-00122            
1 65951U 25228E   26059.33838421 -.00004825  00000+0 -60213-3 0  9994
2 65951  51.8979  44.4066 0000800  47.0990 313.0039 14.80085805 21818
KUIPER-00123            
1 65952U 25228F   26059.98144248  .00004769  00000+0  65447-3 0  9992
2 65952  51.8988  41.6021 0000991  84.9497 275.1579 14.79909416 21900
KUIPER-00124            
1 65953U 25228G   26059.65173545  .00003379  00000+0  47163-3 0  9990
2 65953  51.8994  35.5454 0000967  88.6348 271.4726 14.79968312 21968
KUIPER-00125            
1 65954U 25228H   26059.60030823 -.00001962  00000+0 -22863-3 0  9995
2 65954  51.9016  20.7959 0000973 104.0748 256.0323 14.79888088 22161
KUIPER-00126            
1 65955U 25228J   26059.68010668  .00004666  00000+0  64044-3 0  9998
2 65955  51.9004  40.4443 0000973  86.7092 273.3982 14.79942782 21898
KUIPER-00127            
1 65956U 25228K   26059.95520897  .00003303  00000+0  50211-3 0  9997
2 65956  51.9012  30.4351 0001471 166.2231 193.8771 14.76330901 22061
KUIPER-00128            
1 65957U 25228L   26059.31627936  .00004707  00000+0  64810-3 0  9999
2 65957  51.9009  34.5616 0000801  92.5407 267.5647 14.79798297 21945
KUIPER-00129            
1 65958U 25228M   26059.62605019  .00000444  00000+0  87268-4 0  9999
2 65958  51.9014  28.1810 0000988  74.9348 285.1723 14.79941875 22068
KUIPER-00130            
1 65959U 25228N   26059.92755983  .00004739  00000+0  64998-3 0  9994
2 65959  51.9029  29.3566 0001213  85.4232 274.6869 14.79950117 12362
KUIPER-00134            
1 65960U 25228P   26059.23207166  .00034979  00000+0  92049-3 0  9992
2 65960  51.8763   6.1833 0005029 289.3256  70.7187 15.38217785 22337
KUIPER-00135            
1 65961U 25228Q   26059.28570462  .00005064  00000+0  69293-3 0  9998
2 65961  51.9023  32.2537 0000955  63.4310 296.6750 14.79926142 21976
KUIPER-00136            
1 65962U 25228R   26059.92958538 -.00005941  00000+0 -75282-3 0  9995
2 65962  51.9011  26.8777 0001371  86.8638 273.2482 14.79828662 22101
KUIPER-00137            
1 65963U 25228S   26059.91668981 -.00250309  00000+0 -31189-1 0  9991
2 65963  51.9030  24.4754 0001878 144.2988  90.6013 14.83567103  4848
KUIPER-00138            
1 65964U 25228T   26059.29376192  .00004367  00000+0  60146-3 0  9999
2 65964  51.8993  24.6418 0000829  63.5546 296.5501 14.79935044 22086
KUIPER-00140            
1 65965U 25228U   26059.62867554  .00005005  00000+0  68550-3 0  9991
2 65965  51.9001  25.7422 0000857  82.9005 277.2055 14.79904077 22094
KUIPER-00141            
1 65966U 25228V   26059.29660217  .00010663  00000+0  14228-2 0  9990
2 65966  51.9034  22.2209 0000651  94.1815 265.9222 14.80015845 22113
KUIPER-00146            
1 65967U 25228W   26059.91668981  .00007930  00000+0  11590-2 0  9998
2 65967  51.9028  21.5914 0001206 103.4086   2.2442 14.76434623  5709
KUIPER-00149            
1 65968U 25228X   26059.56927222 -.00002377  00000+0 -28309-3 0  9995
2 65968  51.9004  18.4329 0001678  53.3362 306.7754 14.79906497 22198
KUIPER-00154            
1 65969U 25228Y   26059.91668981  .00007524  00000+0  10154-2 0  9994
2 65969  51.9008  14.4003 0000968 137.6684  80.2889 14.79911042  5727
KUIPER-00157            
1 65970U 25228Z   26059.87315163 -.00000757  00000+0 -70379-4 0  9992
2 65970  51.9032  17.2010 0000563  37.3082 322.7920 14.79922024 22231
KUIPER-00144            
1 67133U 25301A   26059.94762599  .00022341  00000+0  59627-3 0  9997
2 67133  51.8681 107.3891 0007414   1.3483 358.7523 15.38014619 12391
KUIPER-00164            
1 67134U 25301B   26059.91668981  .00025765  00000+0  12294-2 0  9996
2 67134  51.8801 108.3780 0003851  32.5441  68.6861 15.18898943  5803
KUIPER-00175            
1 67135U 25301C   26059.91668981 -.01120205  00000+0 -37479-1 0  9996
2 67135  51.8755 107.0929 0001781  21.2158  36.8189 15.33349784  5893
KUIPER-00179            
1 67136U 25301D   26059.91668981 -.01275848  00000+0 -58544-1 0  9997
2 67136  51.8788 107.7886 0002830  18.1650  64.2500 15.22988606  5732
KUIPER-00181            
1 67137U 25301E   26059.91668981 -.00023610  00000+0 -30286-2 0  9999
2 67137  51.9017 115.7350 0001499 140.3059 185.2739 14.80618603  5698
KUIPER-00183            
1 67138U 25301F   26059.91668981 -.01252058  00000+0 -39787-1 0  9995
2 67138  51.8618 108.1590 0013766  19.9765 192.2266 15.35129156  5630
KUIPER-00184            
1 67139U 25301G   26059.53978807  .00035654  00000+0  97497-3 0  9997
2 67139  51.8623 109.8462 0012219  17.6927 342.4483 15.36961872 12605
KUIPER-00186            
1 67140U 25301H   26059.91668981 -.00022714  00000+0 -29360-2 0  9998
2 67140  51.9009 116.9069 0000789 250.1612  15.8114 14.80280233  5395
KUIPER-00187            
1 67141U 25301J   26059.91668981  .00006773  00000+0  91706-3 0  9998
2 67141  51.9022 119.4172 0000597  85.1379 196.1024 14.79909930  4951
KUIPER-00188            
1 67142U 25301K   26059.51434488  .00029651  00000+0  79576-3 0  9999
2 67142  51.8691 109.7278 0010080  12.4124 347.7110 15.37659022 12320
KUIPER-00191            
1 67143U 25301L   26059.91668981 -.00059423  00000+0 -63213-2 0  9993
2 67143  51.8980 112.2349 0010016  25.3788 250.8169 14.88710557  4222
KUIPER-00196            
1 67144U 25301M   26059.53760516  .00042690  00000+0  11129-2 0  9994
2 67144  51.8716 109.1601 0003846 345.7460  14.3418 15.38416833 12332
KUIPER-00204            
1 67145U 25301N   26059.55627713  .00018077  00000+0  70815-3 0  9998
2 67145  51.8832 113.6506 0002676 314.7421  45.3343 15.25839656 12383
KUIPER-00210            
1 67146U 25301P   26059.91668981 -.00010780  00000+0 -10391-2 0  9998
2 67146  51.8952 112.2689 0011648  47.9706 352.8771 14.91592138  5885
KUIPER-00221            
1 67147U 25301Q   26059.42497693 -.00000304  00000+0 -10919-4 0  9994
2 67147  51.9019 121.5746 0000487 121.6900 238.4110 14.79888846 12157
KUIPER-00232            
1 67148U 25301R   26059.91668981 -.01076396  00000+0 -50966-1 0  9997
2 67148  51.8807 107.6578 0002535 122.5793 341.2738 15.21913111  4619
KUIPER-00241            
1 67149U 25301S   26059.91668981 -.00022362  00000+0 -27974-2 0  9995
2 67149  51.9020 114.4269 0001253 149.4342 272.2481 14.81635649  5784
KUIPER-00245            
1 67150U 25301T   26059.42228431  .00004602  00000+0  63218-3 0  9992
2 67150  51.9023 124.1070 0000437  77.0276 283.0735 14.79935341 12118
KUIPER-00246            
1 67151U 25301U   26059.91668981 -.00017116  00000+0 -10089-2 0  9998
2 67151  51.8838 108.7449 0005578  34.6137 303.5774 15.10571922  5330
KUIPER-00247            
1 67152U 25301V   26059.43909461  .00026301  00000+0  73405-3 0  9993
2 67152  51.8630 110.6638 0014074  25.1994 334.9676 15.36462379 12307
KUIPER-00248            
1 67153U 25301W   26059.53860878  .00031088  00000+0  84983-3 0  9994
2 67153  51.8679 109.8712 0011113  10.7008 349.4213 15.37053481 12490
KUIPER-00249            
1 67154U 25301X   26059.51370691  .00033050  00000+0  88377-3 0  9994
2 67154  51.8653 109.6961 0010508  11.7504 348.3726 15.37710986 12325
KUIPER-00250            
1 67155U 25301Y   26059.91668981 -.02067221  00000+0 -14951+0 0  9995
2 67155  51.8881 109.9157 0008994  17.2849 106.3060 15.06962812  5898
KUIPER-00251            
1 67156U 25301Z   26059.52898719  .00029511  00000+0  80265-3 0  9998
2 67156  51.8662 109.8004 0011022  13.6593 346.4690 15.37238075 12512
KUIPER-00252            
1 67157U 25301AA  26059.54587608  .00032949  00000+0  90163-3 0  9990
2 67157  51.8647 109.9026 0012301  18.2642 341.8784 15.36978356 12322
KUIPER-00261            
1 67158U 25301AB  26059.91668981 -.01045295  00000+0 -78029-1 0  9992
2 67158  51.9098 110.1815 0010490  22.3729 231.2996 15.05175877  5651
KUIPER-00265            
1 67159U 25301AC  26059.48710843  .00004369  00000+0  60162-3 0  9995
2 67159  51.9015 126.3050 0000627  49.6254 310.4764 14.79936400 12127
KUIPER-00159            
1 67764U 26030A   26059.97631197  .00030273  00000+0  87709-3 0  9994
2 67764  51.8834 261.1742 0004261  24.3093 335.8093 15.35300974  3751
KUIPER-00160            
1 67765U 26030B   26059.91206423  .00028975  00000+0  84225-3 0  9995
2 67765  51.8799 261.4865 0004404  34.6088 325.5184 15.35219765  3741
KUIPER-00177            
1 67766U 26030C   26059.96756951  .00033707  00000+0  95115-3 0  9996
2 67766  51.8822 261.1154 0000410  28.6939 331.4070 15.36078984  3756
KUIPER-00178            
1 67767U 26030D   26059.91352074  .00023708  00000+0  69451-3 0  9994
2 67767  51.8819 261.5005 0005634  24.2189 335.9061 15.35084441  3746
KUIPER-00180            
1 67768U 26030E   26059.93524803  .00015151  00000+0  48629-3 0  9995
2 67768  51.8809 261.6342 0014680  44.2974 315.9182 15.32416120  3748
KUIPER-00197            
1 67769U 26030F   26059.96935810  .00024912  00000+0  70946-3 0  9995
2 67769  51.8823 261.1261 0001140  74.8630 285.2483 15.35952401  3759
KUIPER-00198            
1 67770U 26030G   26059.97318928  .00032358  00000+0  92761-3 0  9995
2 67770  51.8800 261.1491 0002735  30.6450 329.4695 15.35604067  3750
KUIPER-00199            
1 67771U 26030H   26059.92501982  .00020758  00000+0  63094-3 0  9993
2 67771  51.8800 261.5690 0010344  36.4338 323.7350 15.33967809  3748
KUIPER-00200            
1 67772U 26030J   26059.96289396  .00033147  00000+0  92036-3 0  9994
2 67772  51.8807 261.0822 0001824 186.8980 173.1982 15.36591112  3756
KUIPER-00203            
1 67773U 26030K   26059.91668981 -.01652847  00000+0 -60047-1 0  9993
2 67773  51.8798 261.6479 0011834  40.3929 249.2895 15.30807932  2301
KUIPER-00205            
1 67774U 26030L   26059.97005799  .00029446  00000+0  83650-3 0  9999
2 67774  51.8801 261.1273 0002005 358.5518   1.5463 15.35937442  3757
KUIPER-00208            
1 67775U 26030M   26059.93396714  .00237609  00000+0  70791-2 0  9999
2 67775  51.8831 261.6342 0015579  36.9077 323.2977 15.33111565  3741
KUIPER-00209            
1 67776U 26030N   26059.93508759 -.00335677  00000+0 -11293-1 0  9991
2 67776  51.8827 261.6385 0015222  33.8948 326.3006 15.31528092  3744
KUIPER-00213            
1 67777U 26030P   26059.93403814  .00016568  00000+0  52910-3 0  9994
2 67777  51.8813 261.6265 0014499  37.7731 322.4269 15.32506918  3747
KUIPER-00214            
1 67778U 26030Q   26059.96485510  .00033451  00000+0  93548-3 0  9993
2 67778  51.8838 261.0993 0001285 177.7221 182.3771 15.36363249  3759
KUIPER-00215            
1 67779U 26030R   26059.92366906  .00021353  00000+0  64738-3 0  9994
2 67779  51.8831 261.5676 0009906  35.6446 324.5199 15.34034300  3749
KUIPER-00218            
1 67780U 26030S   26059.91621534  .00027738  00000+0  81689-3 0  9993
2 67780  51.8823 261.5181 0006547  30.2110 329.9252 15.34822315  3740
KUIPER-00220            
1 67781U 26030T   26059.92106985  .00027984  00000+0  83658-3 0  9994
2 67781  51.8803 261.5447 0008153  32.5750 327.5737 15.34333178  3740
KUIPER-00222            
1 67782U 26030U   26059.93723935  .00019517  00000+0  62217-3 0  9997
2 67782  51.8807 261.6461 0017586  36.6405 323.5778 15.32396489  3747
KUIPER-00223            
1 67783U 26030V   26059.92637093  .00020918  00000+0  63809-3 0  9991
2 67783  51.8819 261.5818 0012188  35.4338 324.7454 15.33829629  3743
KUIPER-00225            
1 67784U 26030W   26059.90935563  .00023798  00000+0  68891-3 0  9998
2 67784  51.8796 261.4696 0003604  19.7345 340.3780 15.35462321  3747
KUIPER-00226            
1 67785U 26030X   26059.94556697  .00017654  00000+0  58078-3 0  9990
2 67785  51.8823 261.7001 0019917  46.6649 313.5992 15.31416355  3741
KUIPER-00259            
1 67786U 26030Y   26059.91793776  .00027405  00000+0  81134-3 0  9993
2 67786  51.8801 261.5245 0008062  25.7634 334.3752 15.34652561  3746
KUIPER-00260            
1 67787U 26030Z   26059.96838814  .00031329  00000+0  88677-3 0  9991
2 67787  51.8789 261.1160 0000873  82.4218 277.6868 15.36019385  3665
KUIPER-00262            
1 67788U 26030AA  26059.96577092  .00033950  00000+0  95025-3 0  9997
2 67788  51.8806 261.1015 0000944 140.3756 219.7299 15.36329455  3752
KUIPER-00266            
1 67789U 26030AB  26059.94903595  .00002865  00000+0  10584-3 0  9995
2 67789  51.8814 261.7202 0022521  46.6938 313.5920 15.31011487  3742
KUIPER-00268            
1 67790U 26030AC  26059.97222344 -.00004560  00000+0 -11893-3 0  9996
2 67790  51.8831 261.1472 0001866  27.2388 332.8696 15.35598716  3753
KUIPER-00270            
1 67791U 26030AD  26059.92211429  .00027124  00000+0  81336-3 0  9992
2 67791  51.8803 261.5511 0010043  31.9248 328.2344 15.34237517  3741
KUIPER-00274            
1 67792U 26030AE  26059.94008790  .00031000  00000+0  10020-2 0  9999
2 67792  51.8832 261.6699 0017295  43.3327 316.9014 15.31680681  3742
KUIPER-00275            
1 67793U 26030AF  26059.91971518  .00027317  00000+0  81747-3 0  9995
2 67793  51.8833 261.5431 0008794  29.3569 330.7909 15.34309873  3744
KUIPER-00276            
1 67794U 26030AG  26059.94367381  .00014142  00000+0  46677-3 0  9991
2 67794  51.8825 261.6916 0018038  39.4152 320.8141 15.31525054  3743
KUIPER-00279            
1 67795U 26030AH  26059.91487215  .00022794  00000+0  67109-3 0  9993
2 67795  51.8786 261.5029 0006100  25.8458 334.2831 15.34947069  3741
