KUIPER-00008            
1 63724U 25088A   26248.63548453 -.00000457  00000+0 -30996-4 0  9993
2 63724  51.9026  12.2862 0000608 140.2380 219.8627 14.79929271 74692
KUIPER-00009            
1 63725U 25088B   26248.75131142  .00003293  00000+0  23045-3 0  9995
2 63725  51.9032  22.0229 0000963 100.2651 259.8432 15.07901794 74563
KUIPER-00010            
1 63726U 25088C   26248.74218013  .00000902  00000+0  14734-3 0  9997
2 63726  51.9035   6.9244 0000581 107.1949 252.9077 14.79929013 74399
KUIPER-00011            
1 63727U 25088D   26248.63281396 -.00000394  00000+0 -22697-4 0  9995
2 63727  51.9018  14.9519 0000392 108.9116 251.1889 14.79929313 74407
KUIPER-00012            
1 63728U 25088E   26248.75026639  .00000602  00000+0  10794-3 0  9990
2 63728  51.9035 359.3715 0000228  92.5878 267.5111 14.79925726 74584
KUIPER-00013            
1 63729U 25088F   26248.61392125 -.00000589  00000+0 -48275-4 0  9994
2 63729  51.9030  32.4928 0000671 128.7028 231.3994 14.79927483 74216
KUIPER-00014            
1 63730U 25088G   26248.78270285  .00000855  00000+0  14117-3 0  9997
2 63730  51.9037  31.6913 0000482 102.4196 257.6820 14.79916975 74050
KUIPER-00015            
1 63731U 25088H   26248.60313719  .00000576  00000+0  10451-3 0  9996
2 63731  51.9001  42.5336 0000606 128.7693 231.3323 14.79926973 74341
KUIPER-00016            
1 63732U 25088J   26248.57746010  .00000174  00000+0  51857-4 0  9997
2 63732  51.9008  35.1041 0000607 145.0431 215.0571 14.79928668 73989
KUIPER-00018            
1 63733U 25088K   26248.75706774 -.00000131  00000+0  11758-4 0  9991
2 63733  51.9056  24.3573 0000362 107.5277 252.5725 14.79927376 74154
KUIPER-00019            
1 63734U 25088L   26248.78374478 -.00000683  00000+0 -60591-4 0  9999
2 63734  51.9004  22.9839 0000663 134.7400 225.3616 14.79921692 74175
KUIPER-00020            
1 63735U 25088M   26248.61931390  .00000832  00000+0  13813-3 0  9992
2 63735  51.9024  27.4603 0000491  99.3594 260.7424 14.79932941 74300
KUIPER-00021            
1 63736U 25088N   26248.65307954 -.00001156  00000+0 -12267-3 0  9994
2 63736  51.9013  27.2621 0000557 119.1507 240.9511 14.79925719 74149
KUIPER-00023            
1 63737U 25088P   26248.68413834  .00000752  00000+0  12760-3 0  9990
2 63737  51.9022  29.6145 0000451  97.7980 262.3034 14.79931467 74411
KUIPER-00024            
1 63738U 25088Q   26248.76516461 -.00000779  00000+0 -73142-4 0  9993
2 63738  51.9044  16.8675 0000503 108.0869 252.0148 14.79934109 74724
KUIPER-00025            
1 63739U 25088R   26248.58825852  .00001185  00000+0  18446-3 0  9996
2 63739  51.9047  25.1311 0000593 107.8397 252.2630 14.79926934 74455
KUIPER-00027            
1 63740U 25088S   26248.76246738  .00001340  00000+0  20473-3 0  9994
2 63740  51.9017  19.3200 0000710 105.6015 254.5026 14.79923721 74286
KUIPER-00028            
1 63741U 25088T   26248.66387861 -.00000634  00000+0 -54149-4 0  9992
2 63741  51.9047  17.2016 0000649 131.2702 228.8317 14.79926497 74719
KUIPER-00029            
1 63742U 25088U   26248.77482834  .00000760  00000+0  12858-3 0  9999
2 63742  51.9031  15.4022 0000728 135.4767 224.6254 14.79965656 74270
KUIPER-00030            
1 63743U 25088V   26248.61122387  .00000662  00000+0  11584-3 0  9993
2 63743  51.9026  34.9489 0000571 112.8821 247.2202 14.79932119 74276
KUIPER-00031            
1 63744U 25088W   26248.59363352  .00001091  00000+0  17208-3 0  9996
2 63744  51.9027  20.0489 0000471 116.9885 243.1125 14.79929060 74199
KUIPER-00032            
1 63745U 25088X   26248.43564177  .00011386  00000+0  26986-3 0  9999
2 63745  51.8650 231.6245 0005010  42.4836 317.6540 15.42224762 77249
KUIPER-00033            
1 63746U 25088Y   26248.83136745 -.00003516  00000+0 -43250-3 0  9991
2 63746  51.9010  48.9963 0000305  70.2357 289.8639 14.79928998 74298
KUIPER-00034            
1 63747U 25088Z   26248.73679250  .00000496  00000+0  94006-4 0  9992
2 63747  51.9033  11.9518 0000492  93.5872 266.5147 14.79930835 74487
KUIPER-00035            
1 63748U 25088AA  26248.70976670  .00002340  00000+0  33553-3 0  9995
2 63748  51.8998  37.0367 0000789  85.4110 274.6942 14.79971862 74187
KUIPER-00037            
1 63749U 25088AB  26248.70274556  .00000753  00000+0  12779-3 0  9993
2 63749  51.9012  35.9278 0000543 112.0353 248.0667 14.79933462 74989
KUIPER-00038            
1 63750U 25088AC  26248.75974181  .00003110  00000+0  43659-3 0  9992
2 63750  51.9029  21.8486 0000492 136.6524 223.4477 14.79952539 74183
KUIPER-00039            
1 64500U 25134A   26248.46221333  .00001230  00000+0  19040-3 0  9998
2 64500  51.9006 158.1626 0000851 103.8752 256.2305 14.79924733 66696
KUIPER-00040            
1 64501U 25134B   26248.48521791  .00000956  00000+0  15447-3 0  9993
2 64501  51.8990 168.1231 0001116  80.7389 279.3700 14.79929018 66556
KUIPER-00041            
1 64502U 25134C   26248.78637213  .00001245  00000+0  19230-3 0  9990
2 64502  51.8999 169.1829 0000969  88.9896 271.1177 14.79924225 66562
KUIPER-00042            
1 64503U 25134D   26248.21775755  .00001989  00000+0  28986-3 0  9996
2 64503  51.8998 166.6750 0000712  98.7090 261.3953 14.79936892 66553
KUIPER-00043            
1 64504U 25134E   26248.76608022  .00001162  00000+0  18141-3 0  9994
2 64504  51.9028 156.7625 0000713 102.5302 257.5740 14.79931326 66740
KUIPER-00044            
1 64505U 25134F   26248.14485362  .00000423  00000+0  84564-4 0  9999
2 64505  51.8997 172.0009 0000851  90.4873 269.6187 14.79928598 66479
KUIPER-00046            
1 64506U 25134G   26248.78907750  .00001786  00000+0  26317-3 0  9994
2 64506  51.8980 166.6237 0000936  86.8018 273.3051 14.79934729 66608
KUIPER-00047            
1 64507U 25134H   26248.71742721  .00000580  00000+0  10507-3 0  9998
2 64507  51.9005 139.4693 0000696  89.4569 270.6473 14.79929493 66975
KUIPER-00048            
1 64508U 25134J   26247.73815892  .00001678  00000+0  24923-3 0  9996
2 64508  51.9006 143.8103 0000893 102.0886 258.0176 14.79907568 66839
KUIPER-00049            
1 64509U 25134K   26248.02864633  .00000127  00000+0  45640-4 0  9995
2 64509  51.9017 154.9990 0000795  95.2323 264.8730 14.79930598 66705
KUIPER-00050            
1 64510U 25134L   26248.11506543  .00001680  00000+0  24931-3 0  9994
2 64510  51.9001 137.1374 0000847 103.2117 256.8940 14.79935219 66965
KUIPER-00051            
1 64511U 25134M   26248.74751440  .00001787  00000+0  26340-3 0  9996
2 64511  51.9016 150.5170 0000863 101.6510 258.4549 14.79930900 66822
KUIPER-00053            
1 64513U 25134P   26248.16482531 -.00003154  00000+0 -36811-3 0  9992
2 64513  51.9018 147.6891 0002217  77.6363 282.4849 14.81740576 66816
KUIPER-00054            
1 64514U 25134Q   26248.68097843 -.00000080  00000+0  18591-4 0  9998
2 64514  51.9007 142.1204 0001143  89.8371 270.2722 14.79931598 66935
KUIPER-00055            
1 64515U 25134R   26248.56340950 -.00000379  00000+0 -20704-4 0  9997
2 64515  51.9017  95.2866 0000809  96.6900 263.4154 14.79927403 67586
KUIPER-00056            
1 64516U 25134S   26248.70936933  .00000827  00000+0  13747-3 0  9990
2 64516  51.9028 147.1072 0001101  84.7810 275.3278 14.79934486 66878
KUIPER-00057            
1 64517U 25134T   26248.76879490  .00002107  00000+0  30536-3 0  9999
2 64517  51.8991 154.2606 0001022  92.5594 267.5485 14.79927621 66772
KUIPER-00058            
1 64518U 25134U   26248.13264696  .00001830  00000+0  26904-3 0  9993
2 64518  51.8999 152.0509 0000823 106.6707 253.4346 14.79934049 66750
KUIPER-00059            
1 64519U 25134V   26248.13805578  .00000335  00000+0  73013-4 0  9997
2 64519  51.9003 147.0635 0001095  87.9660 272.1427 14.79931063 66822
KUIPER-00060            
1 64520U 25134W   26248.44194854  .00000902  00000+0  14727-3 0  9997
2 64520  51.9022 145.7951 0000732 100.2164 259.8881 14.79928359 66859
KUIPER-00061            
1 64521U 25134X   26247.99491030  .00001795  00000+0  26447-3 0  9996
2 64521  51.9009 155.2152 0000965  93.0149 267.0924 14.79927297 66684
KUIPER-00062            
1 64522U 25134Y   26248.46488701  .00000719  00000+0  12330-3 0  9992
2 64522  51.8983 155.5867 0000817 206.1276 153.9645 14.79929745 66734
KUIPER-00063            
1 64523U 25134Z   26248.79447377  .00001963  00000+0  28648-3 0  9994
2 64523  51.9021 161.7195 0000870 101.5798 258.5262 14.79922921 66677
KUIPER-00064            
1 64524U 25134AA  26248.72964709  .00000814  00000+0  13578-3 0  9991
2 64524  51.9034 159.4340 0001295  73.1172 286.9932 14.79926967 66707
KUIPER-00065            
1 64525U 25134AB  26248.79179650  .00000056  00000+0  36289-4 0  9995
2 64525  51.9042 164.3313 0000481 123.0142 237.0867 14.79933729 66629
KUIPER-00066            
1 64526U 25134AC  26248.62280907  .00003267  00000+0  45722-3 0  9994
2 64526  51.9027 102.3483 0000889 114.1626 245.9430 14.79948453 67493
KUIPER-00069            
1 64816U 25151A   26248.27592959  .00001690  00000+0  25063-3 0  9993
2 64816  51.9006 206.5212 0000728  85.4414 274.6631 14.79938660 63358
KUIPER-00070            
1 64817U 25151B   26248.35025095  .00001574  00000+0  23550-3 0  9995
2 64817  51.8993 231.0942 0000828  53.9884 306.1155 14.79930024 63020
KUIPER-00071            
1 64818U 25151C   26248.82566291  .00000135  00000+0  46718-4 0  9990
2 64818  51.8997 226.5368 0000814 100.8203 259.2851 14.79930244 61942
KUIPER-00072            
1 64819U 25151D   26248.27321922 -.00003809  00000+0 -47079-3 0  9993
2 64819  51.8959 208.9057 0000869  51.0997 309.0043 14.79942069 62145
KUIPER-00073            
1 64820U 25151E   26248.38671977  .00001588  00000+0  23732-3 0  9995
2 64820  51.8996 228.4565 0000730  45.4366 314.6655 14.79926466 63069
KUIPER-00075            
1 64822U 25151G   26248.49719367  .00020196  00000+0  53115-3 0  9999
2 64822  51.8655  64.6834 0003488 178.0121 182.0881 15.38552264 64164
KUIPER-00076            
1 64823U 25151H   26248.32995909  .00000691  00000+0  11964-3 0  9994
2 64823  51.9016 218.7316 0000879  49.5621 310.5418 14.79928986 62010
KUIPER-00077            
1 64824U 25151J   26248.32459011 -.00000325  00000+0 -13641-4 0  9995
2 64824  51.8999 223.7761 0000786  57.5811 302.5227 14.79928194 61948
KUIPER-00078            
1 64825U 25151K   26248.63114728  .00001109  00000+0  17452-3 0  9995
2 64825  51.8996 219.8925 0000743  66.0263 294.0777 14.79925230 62026
KUIPER-00079            
1 64826U 25151L   26248.32188175  .00001630  00000+0  24280-3 0  9995
2 64826  51.8991 226.2161 0000726  49.4652 310.6373 14.79925047 63107
KUIPER-00080            
1 64827U 25151M   26248.82835524 -.00000097  00000+0  16309-4 0  9999
2 64827  51.8998 223.9869 0000805 100.0577 260.0476 14.79929210 61984
KUIPER-00082            
1 64828U 25151N   26248.87560840 -.00000084  00000+0  17950-4 0  9990
2 64828  51.9010 211.3413 0000926  65.5664 294.5395 14.79929357 62168
KUIPER-00083            
1 64829U 25151P   26247.65198026  .00001615  00000+0  24081-3 0  9991
2 64829  51.8997 224.2340 0000730  49.2751 310.8275 14.79927548 63062
KUIPER-00084            
1 64830U 25151Q   26248.31648580 -.00000737  00000+0 -67713-4 0  9998
2 64830  51.9004 231.2824 0000704  92.0374 268.0669 14.79937380 61836
KUIPER-00085            
1 64831U 25151R   26248.63926442  .00001855  00000+0  27234-3 0  9993
2 64831  51.9028 212.4411 0000754  59.8731 300.2306 14.79928755 62125
KUIPER-00086            
1 64832U 25151S   26248.15574655  .00001835  00000+0  26966-3 0  9995
2 64832  51.9006 224.5148 0000649  71.5503 288.5530 14.79937068 61914
KUIPER-00087            
1 64833U 25151T   26248.30967344  .00001628  00000+0  24250-3 0  9998
2 64833  51.8985 206.2902 0000842  51.6555 308.4483 14.79944436 62171
KUIPER-00089            
1 64834U 25151U   26248.84452432  .00001741  00000+0  25733-3 0  9998
2 64834  51.9011 208.9514 0000557  88.1043 271.9983 14.79928786 62192
KUIPER-00090            
1 64835U 25151V   26248.58248814 -.00000053  00000+0  22021-4 0  9991
2 64835  51.8975 202.6057 0000978  77.8261 282.2811 14.79930188 62259
KUIPER-00091            
1 64836U 25151W   26248.57711081  .00001356  00000+0  20677-3 0  9992
2 64836  51.9000 207.6538 0000782  50.8680 309.2351 14.79936406 62188
KUIPER-00092            
1 64837U 25151X   26248.29890099  .00002381  00000+0  34130-3 0  9997
2 64837  51.8970 216.3744 0000860  30.5042 329.5970 14.79928104 63251
KUIPER-00093            
1 64838U 25151Y   26248.29621137  .00000276  00000+0  65205-4 0  9992
2 64838  51.8996 218.8561 0000956  65.4947 294.6115 14.79930326 62005
KUIPER-00094            
1 64839U 25151Z   26248.81747634  .00000358  00000+0  75988-4 0  9992
2 64839  51.9051 171.6618 0001308  66.1759 293.9341 14.79925263 62714
KUIPER-00081            
1 65132U 25171A   26248.55389413  .00001795  00000+0  26443-3 0  9996
2 65132  51.9010  72.7128 0000727 105.9255 254.1788 14.79930205 59677
KUIPER-00088            
1 65133U 25171B   26248.53501878  .00001854  00000+0  27216-3 0  9991
2 65133  51.8985  90.2974 0000827 115.5480 244.5568 14.79935244 59420
KUIPER-00095            
1 65134U 25171C   26248.75916738 -.00002205  00000+0 -26033-3 0  9990
2 65134  51.8997  69.3429 0000926  99.6595 260.4472 14.79936767 59731
KUIPER-00096            
1 65135U 25171D   26248.84699191  .00001668  00000+0  24777-3 0  9995
2 65135  51.8991  81.4113 0000655 113.4147 246.6884 14.79932493 59575
KUIPER-00097            
1 65136U 25171E   26248.57419241  .00001757  00000+0  25942-3 0  9996
2 65136  51.9005  85.2848 0000624 105.7652 254.3379 14.79928024 59481
KUIPER-00098            
1 65137U 25171F   26248.57148669  .00001634  00000+0  24332-3 0  9996
2 65137  51.8990  87.6578 0000526  96.2659 263.8363 14.79924598 58807
KUIPER-00099            
1 65138U 25171G   26248.54850750  .00001728  00000+0  25560-3 0  9993
2 65138  51.9023  77.7715 0000730 117.2278 242.8759 14.79933852 59593
KUIPER-00100            
1 65139U 25171H   26248.78753323  .00000509  00000+0  95776-4 0  9991
2 65139  51.9010  74.1804 0000636  91.7293 268.3742 14.79920641 59663
KUIPER-00102            
1 65140U 25171J   26248.51473417  .00001754  00000+0  25908-3 0  9999
2 65140  51.8982  77.8589 0000944 115.6537 244.4522 14.79933347 59580
KUIPER-00103            
1 65141U 25171K   26248.59716074  .00001649  00000+0  24524-3 0  9993
2 65141  51.8992  94.9973 0000904 113.5578 246.5479 14.79930306 59358
KUIPER-00104            
1 65142U 25171L   26248.81321948 -.00000693  00000+0 -61861-4 0  9997
2 65142  51.9009  81.5568 0000710  85.6253 274.4791 14.79922038 59568
KUIPER-00105            
1 65143U 25171M   26248.56879157  .00000545  00000+0  10043-3 0  9999
2 65143  51.9001  90.2308 0000652 107.1006 253.0028 14.79932358 59428
KUIPER-00106            
1 65144U 25171N   26248.75175183 -.00024276  00000+0 -31782-2 0  9990
2 65144  51.9011  68.1850 0000610 116.3012 243.8013 14.79784700 59752
KUIPER-00107            
1 65145U 25171P   26248.52013935  .00001663  00000+0  24706-3 0  9994
2 65145  51.9005  72.8875 0000867 122.7075 237.3972 14.79930474 59662
KUIPER-00108            
1 65146U 25171Q   26248.00018269  .00001536  00000+0  23051-3 0  9994
2 65146  51.9024  87.7328 0000697 111.7790 248.3246 14.79928833 59410
KUIPER-00109            
1 65147U 25171R   26248.51201245  .00001840  00000+0  27026-3 0  9993
2 65147  51.8989  80.4112 0001115  60.3247 299.7826 14.79942323 59552
KUIPER-00110            
1 65148U 25171S   26248.86996748  .00001573  00000+0  23535-3 0  9995
2 65148  51.8996  91.3768 0000745 107.1726 252.9318 14.79933361 59424
KUIPER-00111            
1 65149U 25171T   26248.29056990  .00000370  00000+0  77494-4 0  9997
2 65149  51.8970  98.8030 0000863 110.1703 249.9352 14.79927448 59277
KUIPER-00112            
1 65150U 25171U   26248.81592424  .00001678  00000+0  24917-3 0  9997
2 65150  51.9015  79.1121 0000864 110.0442 250.0614 14.79924989 59599
KUIPER-00114            
1 65151U 25171V   26248.01774932  .00001560  00000+0  23359-3 0  9995
2 65151  51.8995 102.6028 0000768 110.2206 249.8839 14.79936607 59198
KUIPER-00115            
1 65152U 25171W   26248.29596757 -.00000138  00000+0  10875-4 0  9994
2 65152  51.9003  93.8802 0000775 103.3865 256.7184 14.79926255 59348
KUIPER-00116            
1 65153U 25171X   26248.32435021  .00000798  00000+0  13361-3 0  9998
2 65153  51.8998  98.7855 0000683 109.5717 250.5320 14.79934796 59270
KUIPER-00118            
1 65154U 25171Y   26248.86189354  .00001683  00000+0  24978-3 0  9993
2 65154  51.8995  98.8583 0000830 108.5013 251.6040 14.79930962 59327
KUIPER-00119            
1 65155U 25171Z   26247.99747455  .00001285  00000+0  19763-3 0  9993
2 65155  51.9002  90.2821 0000839 100.6770 259.4287 14.79918633 59365
KUIPER-00120            
1 65762U 25217A   26248.77454021  .00000168  00000+0  51037-4 0  9999
2 65762  51.9028 336.7147 0000738 108.7126 251.3916 14.79927855 51401
KUIPER-00132            
1 65763U 25217B   26248.32586864  .00014803  00000+0  38474-3 0  9992
2 65763  51.8512 209.0669 0004920 244.4027 115.6452 15.39151513 53131
KUIPER-00133            
1 65764U 25217C   26248.53819781  .00001838  00000+0  26994-3 0  9991
2 65764  51.9074 337.8934 0000313  97.9550 262.1448 14.79941054 51372
KUIPER-00139            
1 65765U 25217D   26248.84333432  .00000663  00000+0  11593-3 0  9994
2 65765  51.8972 303.9730 0000421  45.7742 314.3255 14.79924645 51879
KUIPER-00142            
1 65766U 25217E   26248.38821292  .00001709  00000+0  25316-3 0  9990
2 65766  51.9010 320.9530 0000484  89.8879 270.2139 14.79920000 51591
KUIPER-00145            
1 65767U 25217F   26248.45307150  .00001737  00000+0  25682-3 0  9998
2 65767  51.9015 323.1910 0000258  88.5435 271.5557 14.79930287 51560
KUIPER-00147            
1 65768U 25217G   26248.41658364  .00002749  00000+0  38921-3 0  9995
2 65768  51.9008 325.8264 0000059  96.0466 264.0503 14.79952881 51529
KUIPER-00148            
1 65769U 25217H   26248.36796180 -.00000165  00000+0  72904-5 0  9991
2 65769  51.9062 308.5863 0000332  65.2929 294.8068 14.79928914 51762
KUIPER-00150            
1 65770U 25217J   26248.54089490  .00001899  00000+0  27809-3 0  9998
2 65770  51.9039 335.3223 0000461 110.4663 249.6349 14.79932050 51404
KUIPER-00151            
1 65771U 25217K   26248.41391890  .00000281  00000+0  65913-4 0  9998
2 65771  51.9025 328.3824 0000563  82.1787 277.9240 14.79930498 51491
KUIPER-00152            
1 65772U 25217L   26248.46116102 -.00000015  00000+0  27065-4 0  9997
2 65772  51.9016 315.6546 0000368  85.0671 275.0333 14.79930856 51679
KUIPER-00153            
1 65773U 25217M   26248.46655764  .00002087  00000+0  30258-3 0  9997
2 65773  51.9045 310.7166 0000373  91.6697 268.4308 14.79945132 51742
KUIPER-00155            
1 65774U 25217N   26248.29362726  .00001276  00000+0  19635-3 0  9997
2 65774  51.9025 283.9435 0000482  73.0125 287.0890 14.79933392 52101
KUIPER-00156            
1 65775U 25217P   26248.43279208  .00001468  00000+0  22161-3 0  9997
2 65775  51.9040 310.8481 0000512  94.9246 265.1775 14.79925919 51733
KUIPER-00165            
1 65778U 25217S   26248.42200800  .00000367  00000+0  77135-4 0  9990
2 65778  51.9013 320.8308 0000493  72.8774 287.2242 14.79927088 51591
KUIPER-00166            
1 65779U 25217T   26248.46924531  .00000086  00000+0  40232-4 0  9995
2 65779  51.9035 308.1799 0000436 102.1838 257.9173 14.79935367 51770
KUIPER-00167            
1 65780U 25217U   26248.61377426  .00001195  00000+0  18581-3 0  9992
2 65780  51.8983 329.8678 0000443  77.5903 282.5109 14.79923772 51483
KUIPER-00168            
1 65781U 25217V   26248.70020307  .00000040  00000+0  34298-4 0  9998
2 65781  51.9023 312.1053 0000389  80.7476 279.3530 14.79932965 51747
KUIPER-00169            
1 65782U 25217W   26248.55973674  .00004895  00000+0  67014-3 0  9999
2 65782  51.9022 317.7384 0000474 104.2956 255.8059 14.79964700 51652
KUIPER-00170            
1 65783U 25217X   26248.48681757  .00000237  00000+0  60118-4 0  9995
2 65783  51.9004 323.0066 0000664  94.2671 265.8367 14.79926509 51572
KUIPER-00172            
1 65785U 25217Z   26248.53944780  .00001546  00000+0  23184-3 0  9996
2 65785  51.9002 305.3057 0000389  41.3161 318.7831 14.79925012 51826
KUIPER-00173            
1 65786U 25217AA  26248.45847018  .00000227  00000+0  58824-4 0  9999
2 65786  51.9014 318.1790 0000357  36.4618 323.6369 14.79929546 51639
KUIPER-00174            
1 65787U 25217AB  26248.39628852  .00003648  00000+0  50688-3 0  9995
2 65787  51.9028 313.5146 0000645  43.2722 316.8291 14.79968282 51695
KUIPER-00176            
1 65788U 25217AC  26248.51519410  .00000216  00000+0  57349-4 0  9999
2 65788  51.9009 327.9066 0000447  91.4976 268.6038 14.79928482 51502
KUIPER-00101            
1 65947U 25228A   26248.32467235  .00010748  00000+0  14373-2 0  9993
2 65947  51.8983 286.1890 0001576 153.7889 206.3153 14.79913690 49834
KUIPER-00113            
1 65948U 25228B   26248.49890681  .00000050  00000+0  35527-4 0  9998
2 65948  51.8984 280.4497 0000488  65.1980 294.9033 14.79927278 49922
KUIPER-00117            
1 65949U 25228C   26248.39490776  .00001378  00000+0  20965-3 0  9992
2 65949  51.8988 283.4080 0000426  50.3205 309.7795 14.79933346 49873
KUIPER-00121            
1 65950U 25228D   26248.77172774  .00001259  00000+0  19420-3 0  9993
2 65950  51.8997 276.7626 0000491  53.0643 307.0364 14.79926534 50005
KUIPER-00122            
1 65951U 25228E   26248.49080802 -.00001078  00000+0 -11246-3 0  9992
2 65951  51.9002 287.9754 0000633  58.7596 301.3428 14.79928485 49820
KUIPER-00123            
1 65952U 25228F   26248.52457839  .00000046  00000+0  35024-4 0  9998
2 65952  51.8982 287.8343 0000438  56.7193 303.3811 14.79927298 49823
KUIPER-00124            
1 65953U 25228G   26248.46514008 -.00000376  00000+0 -20298-4 0  9999
2 65953  51.8988 280.5860 0000304  43.6806 316.4181 14.79927956 49929
KUIPER-00125            
1 65954U 25228H   26248.75144044 -.00000349  00000+0 -16762-4 0  9992
2 65954  51.8999 264.3720 0000590  59.3840 300.7180 14.79928242 50179
KUIPER-00126            
1 65955U 25228J   26248.49351272  .00001324  00000+0  20264-3 0  9990
2 65955  51.8995 285.4941 0000395  81.7814 278.3193 14.79937156 49859
KUIPER-00127            
1 65956U 25228K   26248.82236339  .00000694  00000+0  11997-3 0  9996
2 65956  51.9009 276.5187 0000378  43.7982 316.3010 14.79935916 50018
KUIPER-00128            
1 65957U 25228L   26248.80549888  .00000413  00000+0  83115-4 0  9992
2 65957  51.8996 276.6593 0000520  86.6814 273.4208 14.79931260 50003
KUIPER-00129            
1 65958U 25228M   26248.77710291  .00001176  00000+0  18314-3 0  9992
2 65958  51.9002 271.7638 0000409  68.5670 291.5336 14.79943448 50075
KUIPER-00130            
1 65959U 25228N   26248.47055257  .00001298  00000+0  19928-3 0  9991
2 65959  51.9023 275.6640 0000479  80.6941 279.4076 14.79928165 40285
KUIPER-00134            
1 65960U 25228P   26248.19384477  .00022990  00000+0  62020-3 0  9994
2 65960  51.8703 168.7080 0003707 215.7708 144.3031 15.37683633 51455
KUIPER-00135            
1 65961U 25228Q   26248.36925435  .00001286  00000+0  19770-3 0  9998
2 65961  51.9023 276.1628 0000366  60.5150 299.5849 14.79929387 49977
KUIPER-00136            
1 65962U 25228R   26248.27065560  .00001270  00000+0  19562-3 0  9995
2 65962  51.9007 274.0467 0000380  52.7730 307.3267 14.79928255 49998
KUIPER-00137            
1 65963U 25228S   26248.47594196  .00001321  00000+0  20222-3 0  9992
2 65963  51.9031 270.6470 0000360  22.9830 337.1148 14.79927876 50067
KUIPER-00138            
1 65964U 25228T   26248.24227253  .00001360  00000+0  20738-3 0  9990
2 65964  51.8980 269.0830 0000402  69.8954 290.2052 14.79926767 50067
KUIPER-00140            
1 65965U 25228U   26248.44215378  .00001303  00000+0  19992-3 0  9995
2 65965  51.8992 270.7921 0000654  51.5943 308.5078 14.79933019 50054
KUIPER-00141            
1 65966U 25228V   26248.78521932  .00000209  00000+0  56431-4 0  9993
2 65966  51.9008 264.3472 0000386  51.2421 308.8575 14.79931272 50171
KUIPER-00146            
1 65967U 25228W   26248.74875682  .00000619  00000+0  11015-3 0  9997
2 65967  51.9027 267.0223 0000661  71.9288 288.1746 14.79927344 50134
KUIPER-00149            
1 65968U 25228X   26248.24767027  .00001360  00000+0  20729-3 0  9992
2 65968  51.9008 264.1130 0000452  43.1781 316.9217 14.79934158 50130
KUIPER-00154            
1 65969U 25228Y   26248.75668323 -.00008808  00000+0 -11275-2 0  9999
2 65969  51.9004 259.3451 0000305  20.2941 339.8033 14.79946981 50249
KUIPER-00157            
1 65970U 25228Z   26248.76678834  .00001404  00000+0  20678-3 0  9991
2 65970  51.9026 261.3885 0000342 219.8090 140.2847 14.81273091 50213
KUIPER-00144            
1 67133U 25301A   26248.73808341  .00001652  00000+0  24569-3 0  9999
2 67133  51.9032 339.4506 0000466  79.7317 280.3698 14.79935077 40532
KUIPER-00164            
1 67134U 25301B   26248.52201632  .00001861  00000+0  27300-3 0  9995
2 67134  51.9052 352.9220 0000387 105.6333 254.4672 14.79935100 40505
KUIPER-00175            
1 67135U 25301C   26248.84477558  .00000221  00000+0  57938-4 0  9993
2 67135  51.9028 333.9331 0000439  96.9790 263.1222 14.79923555 40697
KUIPER-00179            
1 67136U 25301D   26248.65974169  .00001973  00000+0  28774-3 0  9993
2 67136  51.9001 349.7506 0000494  94.4206 265.6813 14.79930746 40563
KUIPER-00181            
1 67137U 25301E   26248.84887420  .00001955  00000+0  28535-3 0  9993
2 67137  51.9037   1.4739 0000338 100.7426 259.3574 14.79930254 40394
KUIPER-00183            
1 67138U 25301F   26248.84747961  .00000348  00000+0  74717-4 0  9998
2 67138  51.9039 331.4878 0000461  92.8354 267.2661 14.79925235 40821
KUIPER-00184            
1 67139U 25301G   26248.56385546  .00001840  00000+0  27029-3 0  9996
2 67139  51.9012 345.1853 0000510  96.0977 264.0044 14.79933465 40712
KUIPER-00186            
1 67140U 25301H   26248.74757708  .00000521  00000+0  97393-4 0  9998
2 67140  51.9030   1.9306 0000352 112.8358 247.2642 14.79926801 40227
KUIPER-00187            
1 67141U 25301J   26248.74488367 -.00000407  00000+0 -24419-4 0  9995
2 67141  51.9048   4.4693 0000671 117.8291 242.2739 14.79938286 40186
KUIPER-00188            
1 67142U 25301K   26248.61109855  .00000371  00000+0  77649-4 0  9995
2 67142  51.9042 332.6480 0000439 109.9042 250.1968 14.79919031 40616
KUIPER-00191            
1 67143U 25301L   26248.58416044  .00000613  00000+0  10940-3 0  9992
2 67143  51.9012 357.6582 0000766 104.1446 255.9602 14.79929405 40290
KUIPER-00196            
1 67144U 25301M   26248.42740648  .00001009  00000+0  16123-3 0  9995
2 67144  51.9009 315.8077 0000219  26.2676 333.8298 14.79954504 40839
KUIPER-00204            
1 67145U 25301N   26248.51251398  .00000341  00000+0  73789-4 0  9995
2 67145  51.9029 330.4635 0000312  94.7235 265.3763 14.79930561 40754
KUIPER-00210            
1 67146U 25301P   26248.75296677  .00002015  00000+0  29323-3 0  9995
2 67146  51.9014 356.8576 0000488 102.2121 257.8896 14.79932444 40461
KUIPER-00221            
1 67147U 25301Q   26248.57606105 -.00000155  00000+0  86543-5 0  9990
2 67147  51.9056   5.1759 0000512 104.7682 255.3337 14.79931213 40165
KUIPER-00232            
1 67148U 25301R   26248.55848083  .00000280  00000+0  65735-4 0  9999
2 67148  51.9009 350.2649 0000444 111.4762 248.6248 14.79930710 40363
KUIPER-00241            
1 67149U 25301S   26248.51392081  .00000501  00000+0  94760-4 0  9994
2 67149  51.9046   0.4805 0000423 117.0625 243.0381 14.79930508 40553
KUIPER-00245            
1 67150U 25301T   26248.70843779 -.00001891  00000+0 -21909-3 0  9991
2 67150  51.9046   7.1319 0001066 101.8429 258.2653 14.79931665 40146
KUIPER-00246            
1 67151U 25301U   26248.55577514  .00001083  00000+0  17112-3 0  9998
2 67151  51.9014 352.7443 0001007  97.1155 262.9922 14.79928855 40358
KUIPER-00247            
1 67152U 25301V   26248.49901868  .00001770  00000+0  26101-3 0  9996
2 67152  51.8991 342.9466 0000171  55.4994 304.5984 14.79939207 40463
KUIPER-00248            
1 67153U 25301W   26248.51789689  .00001341  00000+0  20476-3 0  9998
2 67153  51.9003 325.5061 0000714 130.7670 229.3355 14.79946434 40879
KUIPER-00249            
1 67154U 25301X   26248.70433075  .00000833  00000+0  13824-3 0  9999
2 67154  51.9005 339.6108 0000430  96.3851 263.7161 14.79928440 40529
KUIPER-00250            
1 67155U 25301Y   26248.51929822  .00000824  00000+0  13717-3 0  9990
2 67155  51.9014 355.3766 0001391 144.9338 215.1716 14.79925509 40320
KUIPER-00251            
1 67156U 25301Z   26248.53281352  .00000322  00000+0  71298-4 0  9994
2 67156  51.9024 342.8994 0000497  98.5016 261.6003 14.79926532 40657
KUIPER-00252            
1 67157U 25301AA  26248.66516000  .00000703  00000+0  12126-3 0  9997
2 67157  51.9012 344.7620 0000226 114.7298 245.3688 14.79933705 40451
KUIPER-00261            
1 67158U 25301AB  26248.48556106 -.00000005  00000+0  28291-4 0  9996
2 67158  51.9071 355.6226 0000601 111.6590 248.4437 14.79929425 40289
KUIPER-00265            
1 67159U 25301AC  26248.70572021  .00002034  00000+0  29570-3 0  9999
2 67159  51.9031   9.6225 0000449 116.6226 243.4782 14.79941599 40141
KUIPER-00159            
1 67764U 26030A   26248.54092103 -.00002997  00000+0 -39522-3 0  9999
2 67764  51.9015  88.7031 0000359 217.8470 142.2465 14.76579197 32494
KUIPER-00160            
1 67765U 26030B   26248.58335648 -.00031332  00000+0 -23238-2 0  9999
2 67765  51.8936  71.2538 0009381 326.2928 273.9973 15.02451187  5654
KUIPER-00177            
1 67766U 26030C   26248.38252166  .00016721  00000+0  22200-2 0  9992
2 67766  51.9022 138.5257 0001366 113.7448 246.3658 14.79873890 31787
KUIPER-00178            
1 67767U 26030D   26248.41626038  .00000957  00000+0  15450-3 0  9994
2 67767  51.9009 138.3576 0000761  95.5998 264.5051 14.79927588 31794
KUIPER-00180            
1 67768U 26030E   26248.08400468  .00000738  00000+0  12581-3 0  9994
2 67768  51.8981 134.8204 0000757 112.0655 248.0388 14.79928814 31818
KUIPER-00197            
1 67769U 26030F   26248.57828360  .00001695  00000+0  25126-3 0  9996
2 67769  51.8982 112.6520 0001080  96.7870 263.3215 14.79930552 32162
KUIPER-00198            
1 67770U 26030G   26248.05833685  .00000032  00000+0  33282-4 0  9994
2 67770  51.8977 127.4265 0001099  99.8808 260.2278 14.79924527 31915
KUIPER-00199            
1 67771U 26030H   26248.53781390  .00022487  00000+0  60881-3 0  9995
2 67771  51.8796  71.5556 0010082 332.3965  27.6486 15.37546904 32739
KUIPER-00200            
1 67772U 26030J   26248.00698515  .00001681  00000+0  24951-3 0  9995
2 67772  51.8983 112.6976 0000674  99.6505 260.4534 14.79924926 32112
KUIPER-00203            
1 67773U 26030K   26248.44459880 -.00000356  00000+0 -17686-4 0  9992
2 67773  51.9068 143.3229 0000345 122.4558 237.6438 14.79941509 31729
KUIPER-00205            
1 67774U 26030L   26248.00964924  .00001574  00000+0  23547-3 0  9998
2 67774  51.9003 110.1480 0000775  73.8350 286.2697 14.79930209 32156
KUIPER-00208            
1 67775U 26030M   26248.08130285  .00001738  00000+0  25704-3 0  9991
2 67775  51.8982 137.3311 0001374  84.0926 276.0193 14.79927196 31771
KUIPER-00209            
1 67776U 26030N   26247.71259838  .00001911  00000+0  27965-3 0  9991
2 67776  51.9001 136.5591 0000949  94.8850 265.2221 14.79931102 31750
KUIPER-00213            
1 67777U 26030P   26248.15423603  .00001718  00000+0  25438-3 0  9992
2 67777  51.8963 132.0694 0000907 101.9041 258.2023 14.79931894 31859
KUIPER-00214            
1 67778U 26030Q   26248.05563944  .00001710  00000+0  25323-3 0  9990
2 67778  51.9007 130.0360 0000766 107.3181 252.7865 14.79928134 31874
KUIPER-00215            
1 67779U 26030R   26248.37298751  .00000393  00000+0  80607-4 0  9990
2 67779  51.8982 115.9894 0001078  94.1901 265.9185 14.79933128 32107
KUIPER-00218            
1 67780U 26030S   26247.98540617  .00001851  00000+0  27175-3 0  9999
2 67780  51.8982 132.7432 0001170  95.3578 264.7518 14.79937027 31838
KUIPER-00220            
1 67781U 26030T   26248.01236977 -.00000717  00000+0 -65015-4 0  9994
2 67781  51.8943 107.6500 0000668  94.9697 265.1341 14.79923399 32186
KUIPER-00222            
1 67782U 26030U   26248.63232011 -.00000201  00000+0  26487-5 0  9996
2 67782  51.8978 125.0416 0001045  91.0991 269.0092 14.79916158 31999
KUIPER-00223            
1 67783U 26030V   26248.60656887  .00006119  00000+0  83029-3 0  9991
2 67783  51.9011 117.4627 0002213 106.6527 253.4679 14.79966123 32103
KUIPER-00225            
1 67784U 26030W   26248.06103840  .00000939  00000+0  15221-3 0  9991
2 67784  51.8985 125.0248 0000955 100.2008 259.9062 14.79929581 31947
KUIPER-00226            
1 67785U 26030X   26248.63978108  .00001121  00000+0  19040-3 0  9999
2 67785  51.9002 109.7562 0002920 353.0877   7.0043 14.76423365 32211
KUIPER-00259            
1 67786U 26030Y   26248.36491146  .00000326  00000+0  71818-4 0  9990
2 67786  51.8999 123.5827 0000950  72.1724 287.9342 14.79929774 31998
KUIPER-00260            
1 67787U 26030Z   26248.36762261  .00000704  00000+0  12135-3 0  9996
2 67787  51.9008 121.1791 0001145  95.9650 264.1443 14.79934362 31935
KUIPER-00262            
1 67788U 26030AA  26248.60396255  .00001201  00000+0  18660-3 0  9992
2 67788  51.9001 120.0514 0001390  89.3995 270.7126 14.79932521 32062
KUIPER-00266            
1 67789U 26030AB  26247.62748045  .00001750  00000+0  25856-3 0  9996
2 67789  51.8998 121.8617 0001092  79.6098 280.4987 14.79935044 31958
KUIPER-00268            
1 67790U 26030AC  26248.06911468  .00001577  00000+0  23591-3 0  9999
2 67790  51.9042 117.4460 0001064 100.0910 260.0173 14.79928621 32055
KUIPER-00270            
1 67791U 26030AD  26248.58636425  .00004953  00000+0  67817-3 0  9994
2 67791  51.8993 105.1132 0000648 116.7066 243.3963 14.79936772 32274
KUIPER-00274            
1 67792U 26030AE  26248.08940781  .00000260  00000+0  63174-4 0  9993
2 67792  51.9017 129.8240 0001142  90.4334 269.6759 14.79930723 31882
KUIPER-00275            
1 67793U 26030AF  26248.58365361  .00000256  00000+0  62603-4 0  9995
2 67793  51.9001 107.6348 0000881 107.5129 252.5930 14.79927823 32239
KUIPER-00276            
1 67794U 26030AG  26248.34192615  .00000724  00000+0  12398-3 0  9995
2 67794  51.8993 113.6810 0000988  60.1178 299.9882 14.79932280 32139
KUIPER-00279            
1 67795U 26030AH  26248.31895376  .00000644  00000+0  11345-3 0  9999
2 67795  51.9019 103.8295 0001283  90.8059 269.3050 14.79927904 32264
KUIPER-00131            
1 68573U 26072A   26248.24757093  .00001795  00000+0  26448-3 0  9993
2 68573  51.9010 201.6249 0000823  63.9666 296.1381 14.79930201 22976
KUIPER-00189            
1 68574U 26072B   26248.27861681  .00001218  00000+0  18880-3 0  9997
2 68574  51.8998 203.9662 0000863  80.4047 279.7013 14.79932458 22948
KUIPER-00192            
1 68575U 26072C   26248.25025977  .00001724  00000+0  25509-3 0  9994
2 68575  51.8993 199.1078 0001080  63.4344 296.6729 14.79936277 23018
KUIPER-00193            
1 68576U 26072D   26248.26104824  .00001810  00000+0  26632-3 0  9999
2 68576  51.9039 189.1023 0001068  83.0252 277.0832 14.79934620 23155
KUIPER-00194            
1 68577U 26072E   26248.55684541  .00001072  00000+0  16961-3 0  9995
2 68577  51.9030 195.2752 0001032  55.3769 304.7290 14.79936312 23099
KUIPER-00229            
1 68578U 26072F   26248.28133851  .00001106  00000+0  17409-3 0  9995
2 68578  51.9006 201.4768 0001473  89.3479 270.7652 14.79929715 22984
KUIPER-00230            
1 68579U 26072G   26248.83335647 -.01829053  00000+0 -11574+0 0  9999
2 68579  51.8869 147.7120 0002998 309.7321 222.7625 15.11994072  1308
KUIPER-00231            
1 68580U 26072H   26248.51359521  .00001000  00000+0  16023-3 0  9992
2 68580  51.8987 173.0244 0002078  79.1022 281.0175 14.79928604 23397
KUIPER-00234            
1 68581U 26072J   26248.25292669 -.00000101  00000+0  15780-4 0  9995
2 68581  51.9001 196.5866 0001095  54.4015 305.7050 14.79924306 23045
KUIPER-00236            
1 68582U 26072K   26248.83335647 -.00048188  00000+0 -40559-2 0  9992
2 68582  51.8923 149.3860 0004302 280.3408 178.0237 14.97871718  5897
KUIPER-00244            
1 68583U 26072L   26248.22998302  .00001955  00000+0  28537-3 0  9991
2 68583  51.9002 186.7118 0000869  63.8913 296.2139 14.79933124 23183
KUIPER-00253            
1 68584U 26072M   26248.56492323  .00000069  00000+0  38082-4 0  9993
2 68584  51.9002 187.7528 0001096  66.6448 293.4629 14.79930501 23197
KUIPER-00254            
1 68585U 26072N   26248.86611705 -.00000836  00000+0 -80606-4 0  9997
2 68585  51.9021 188.9176 0001119  30.7000 329.4027 14.79923856 23202
KUIPER-00263            
1 68586U 26072P   26248.20700834 -.00000804  00000+0 -76523-4 0  9996
2 68586  51.9009 176.9022 0001057  95.9012 264.2071 14.79925364 23316
KUIPER-00269            
1 68587U 26072Q   26248.20429713  .00001946  00000+0  28412-3 0  9990
2 68587  51.8989 179.3227 0001197  61.5264 298.5818 14.79938100 23287
KUIPER-00272            
1 68588U 26072R   26248.55412538  .00002642  00000+0  37532-3 0  9993
2 68588  51.8957 197.7445 0000613  39.3249 320.7757 14.79939309 23054
KUIPER-00285            
1 68589U 26072S   26248.23806098  .00003053  00000+0  42922-3 0  9993
2 68589  51.9036 179.2502 0001396  22.2528 337.8495 14.79945757 23280
KUIPER-00286            
1 68590U 26072T   26248.78099450  .00002243  00000+0  32315-3 0  9996
2 68590  51.8968 174.2837 0001036  72.9701 287.1375 14.79934908 23401
KUIPER-00289            
1 68591U 26072U   26248.77294544 -.00003912  00000+0 -48493-3 0  9997
2 68591  51.8999 181.7988 0001372  87.6695 272.4425 14.79886012 23296
KUIPER-00290            
1 68592U 26072V   26248.51448417  .00001139  00000+0  19293-3 0  9993
2 68592  51.9033 182.7175 0001296  12.9897 347.1097 14.76412723 23269
KUIPER-00293            
1 68593U 26072W   26248.22187764  .00001830  00000+0  26903-3 0  9991
2 68593  51.8974 194.2144 0001570   1.1630 358.9336 14.79929300 23079
KUIPER-00294            
1 68594U 26072X   26248.84313826  .00001899  00000+0  27808-3 0  9990
2 68594  51.9008 178.9881 0000687 101.3999 258.7041 14.79930647 23341
KUIPER-00296            
1 68595U 26072Y   26248.22045543 -.00000224  00000+0 -36353-6 0  9992
2 68595  51.9009 164.2582 0000532 105.3518 254.7503 14.79933308 23491
KUIPER-00297            
1 68596U 26072Z   26248.25564218  .00001876  00000+0  27499-3 0  9991
2 68596  51.8996 194.0623 0001288  78.4396 281.6711 14.79932127 23089
KUIPER-00300            
1 68597U 26072AA  26248.56223205  .00001112  00000+0  17482-3 0  9998
2 68597  51.9032 190.2401 0000753  84.0262 276.0786 14.79926695 23167
KUIPER-00301            
1 68598U 26072AB  26248.14200594  .00001165  00000+0  19634-3 0  9998
2 68598  51.9027 161.2724 0002247 152.3665 207.7415 14.76485012 23524
KUIPER-00304            
1 68599U 26072AC  26248.78212878  .00001105  00000+0  18722-3 0  9998
2 68599  51.9012 160.4229 0000322 314.8537  45.2397 14.76602444 23596
KUIPER-00317            
1 68600U 26072AD  26248.26911941  .00002455  00000+0  35088-3 0  9994
2 68600  51.8985 181.5324 0000450  84.7065 275.3949 14.79942773 23255
KUIPER-00320            
1 68601U 26072AE  26248.53386023  .00000880  00000+0  14444-3 0  9995
2 68601  51.9027 185.3740 0000782  82.5507 277.5544 14.79926200 23222
KUIPER-00299            
1 68864U 26095A   26248.54548718  .00001111  00000+0  18869-3 0  9996
2 68864  51.8994 255.1421 0002419  66.8543 293.2672 14.76482002 19519
KUIPER-00353            
1 68865U 26095B   26248.40699347  .00002097  00000+0  30393-3 0  9997
2 68865  51.8978 240.9287 0000770  34.1026 325.9986 14.79942438 19705
KUIPER-00357            
1 68866U 26095C   26248.29761284  .00001388  00000+0  21112-3 0  9996
2 68866  51.9011 248.9194 0000637  19.2013 340.8974 14.79928278 19587
KUIPER-00364            
1 68867U 26095D   26248.39621559  .00000607  00000+0  10867-3 0  9996
2 68867  51.9026 251.0053 0001439 356.3504   3.7447 14.79937827 19562
KUIPER-00375            
1 68868U 26095E   26248.37053366  .00000403  00000+0  81918-4 0  9990
2 68868  51.9037 243.5957 0000641  61.4537 298.6490 14.79929989 19662
KUIPER-00433            
1 68869U 26095F   26248.75954542  .00001391  00000+0  21150-3 0  9997
2 68869  51.9007 256.8680 0000539  23.5095 336.5892 14.79926552 19519
KUIPER-00437            
1 68870U 26095G   26248.83335647  .00048294  00000+0  17465-2 0  9993
2 68870  51.8811 212.4880 0005636 234.8332 200.0059 15.27949397  5440
KUIPER-00448            
1 68871U 26095H   26248.69624442  .00001108  00000+0  18899-3 0  9998
2 68871  51.9027 246.7345 0002778  10.5824 349.5195 14.76313119 19643
KUIPER-00459            
1 68872U 26095J   26248.24357919 -.00000048  00000+0  22685-4 0  9994
2 68872  51.9020 236.7169 0000624  74.1279 285.9752 14.79930649 19747
KUIPER-00468            
1 68873U 26095K   26248.82074404  .00001148  00000+0  19343-3 0  9991
2 68873  51.8964 231.3729 0001265 151.6211 208.4819 14.76606970 19878
KUIPER-00476            
1 68874U 26095L   26248.83335647 -.01935134  00000+0 -95080-1 0  9996
2 68874  51.8798 216.3005 0008851 209.5888 110.7416 15.20914088  5511
KUIPER-00478            
1 68875U 26095M   26248.37593332  .00002122  00000+0  30733-3 0  9998
2 68875  51.8973 238.5718 0001040  51.7462 308.3594 14.79925094 19735
KUIPER-00480            
1 68876U 26095N   26248.81758473  .00000267  00000+0  63978-4 0  9993
2 68876  51.9042 234.1252 0000615  89.5989 270.5044 14.79925795 19838
KUIPER-00482            
1 68877U 26095P   26248.19901312 -.00000420  00000+0 -26082-4 0  9995
2 68877  51.9004 246.8506 0000933 336.8565  23.2355 14.79925787 19604
KUIPER-00483            
1 68878U 26095Q   26248.32056466  .00001307  00000+0  20036-3 0  9997
2 68878  51.8987 258.7793 0001559 284.8745  75.2044 14.79945004 19449
KUIPER-00488            
1 68879U 26095R   26248.37324065  .00000090  00000+0  40782-4 0  9995
2 68879  51.8995 241.0883 0000709  52.8266 307.2761 14.79928355 19692
KUIPER-00489            
1 68880U 26095S   26248.17874067  .00000101  00000+0  42314-4 0  9993
2 68880  51.8967 234.4363 0001235  54.6237 305.4841 14.79933051 19772
KUIPER-00499            
1 68881U 26095T   26248.67982028  .00000019  00000+0  31467-4 0  9991
2 68881  51.8990 237.2743 0000618  35.4891 324.6112 14.79923457 19772
KUIPER-00500            
1 68882U 26095U   26248.32327555 -.00004642  00000+0 -57998-3 0  9996
2 68882  51.9026 256.3044 0000584  63.1244 296.9778 14.79959952 19488
KUIPER-00502            
1 68883U 26095V   26248.67804738 -.00028904  00000+0 -37682-2 0  9992
2 68883  51.9003 230.9825 0000669 329.4652  30.6272 14.80049223 19861
KUIPER-00503            
1 68884U 26095W   26248.69740072 -.00000429  00000+0 -27263-4 0  9993
2 68884  51.8966 252.1230 0000578  51.5122 308.5892 14.79928269 19576
KUIPER-00504            
1 68885U 26095X   26248.45295198 -.00000714  00000+0 -64649-4 0  9998
2 68885  51.9007 260.7314 0000589  85.9486 274.1544 14.79931756 19430
KUIPER-00505            
1 68886U 26095Y   26248.70008855  .00001423  00000+0  21557-3 0  9995
2 68886  51.9011 249.6400 0000552  59.8538 300.2479 14.79932388 19605
KUIPER-00507            
1 68887U 26095Z   26248.82905956  .00000067  00000+0  37772-4 0  9997
2 68887  51.9008 239.0547 0000552  63.3257 296.7762 14.79927419 19765
KUIPER-00511            
1 68888U 26095AA  26248.82028578  .00001525  00000+0  22897-3 0  9995
2 68888  51.8974 231.7091 0000918   6.9093 353.1882 14.79928919 19865
KUIPER-00512            
1 68889U 26095AB  26248.32598334  .00001440  00000+0  21782-3 0  9991
2 68889  51.9017 253.7959 0000553  35.9260 324.1739 14.79938358 19514
KUIPER-00519            
1 68890U 26095AC  26248.40431109  .00001305  00000+0  20022-3 0  9994
2 68890  51.9020 243.5121 0000515 113.1736 246.9281 14.79929823 19669
KUIPER-00521            
1 68891U 26095AD  26248.26752917  .00000684  00000+0  11864-3 0  9995
2 68891  51.9007 237.8076 0000466  77.2275 282.8739 14.79936081 19732
KUIPER-00524            
1 68892U 26095AE  26248.83335647  .00035206  00000+0  46279-2 0  9991
2 68892  51.8962 244.0285 0000442  27.9157 293.8011 14.79888039  4524
KUIPER-00370            
1 68919U 26098A   26248.46334854  .00001133  00000+0  17766-3 0  9994
2 68919  51.8976  63.0429 0001051 110.1831 249.9245 14.79921790 19371
KUIPER-00380            
1 68920U 26098B   26248.47148136  .00000259  00000+0  62913-4 0  9996
2 68920  51.8959  55.6417 0000384  85.8551 274.2455 14.79930805 19475
KUIPER-00386            
1 68921U 26098C   26248.62073779  .00001728  00000+0  25562-3 0  9994
2 68921  51.8976  57.4792 0000666 109.5526 250.5508 14.79937131 19464
KUIPER-00388            
1 68922U 26098D   26248.79566948  .00001874  00000+0  27479-3 0  9999
2 68922  51.9004  66.8645 0000919 123.4541 236.6509 14.79924176 19340
KUIPER-00405            
1 68923U 26098E   26248.54511707  .00001788  00000+0  26350-3 0  9997
2 68923  51.9009  65.3253 0001485 154.2522 205.8514 14.79933428 19349
KUIPER-00408            
1 68924U 26098F   26248.46878327  .00001621  00000+0  24162-3 0  9998
2 68924  51.8984  58.0797 0000740 125.4100 234.6932 14.79933187 19445
KUIPER-00409            
1 68925U 26098G   26248.64908973  .00001643  00000+0  24451-3 0  9995
2 68925  51.9046  62.3617 0001211 156.6117 203.4901 14.79939136 19397
KUIPER-00410            
1 68926U 26098H   26248.44919509  .00001608  00000+0  23983-3 0  9991
2 68926  51.8972  60.7301 0001723 111.7755 248.3391 14.79936839 19405
KUIPER-00412            
1 68927U 26098J   26248.71054005  .00001866  00000+0  27365-3 0  9997
2 68927  51.9028  52.1018 0001095 103.9800 256.1284 14.79936030 19541
KUIPER-00413            
1 68928U 26098K   26248.86587714  .00000499  00000+0  94440-4 0  9992
2 68928  51.9002  63.8923 0001152 128.2118 231.8948 14.79930653 19399
KUIPER-00414            
1 68929U 26098L   26248.82132645  .00001727  00000+0  25556-3 0  9994
2 68929  51.8970  74.1750 0002003 101.3706 258.7481 14.79935092 19243
KUIPER-00415            
1 68930U 26098M   26248.63760669  .00003020  00000+0  42485-3 0  9996
2 68930  51.9011  57.4145 0000722 114.0855 246.0183 14.79944917 19465
KUIPER-00416            
1 68931U 26098N   26248.78995617 -.00043625  00000+0 -57456-2 0  9996
2 68931  51.9013  48.0861 0001722 101.2863 258.8293 14.79821800 19601
KUIPER-00420            
1 68932U 26098P   26248.44311247  .00000389  00000+0  79993-4 0  9991
2 68932  51.9002  50.7381 0000801 104.5591 255.5460 14.79931689 19548
KUIPER-00421            
1 68933U 26098Q   26248.64030041  .00001978  00000+0  28846-3 0  9999
2 68933  51.9024  54.8485 0000732 129.2548 230.8480 14.79931087 19508
KUIPER-00425            
1 68934U 26098R   26248.76727147  .00001755  00000+0  25906-3 0  9990
2 68934  51.8993  61.8361 0000641 120.0992 240.0034 14.79938748 19414
KUIPER-00430            
1 68935U 26098S   26248.49444498  .00001120  00000+0  17599-3 0  9991
2 68935  51.9027  65.4376 0001836 107.9446 252.1716 14.79932588 19344
KUIPER-00431            
1 68936U 26098T   26248.49175957  .00001834  00000+0  26943-3 0  9998
2 68936  51.8996  68.0422 0000969 124.2813 235.8241 14.79937020 19309
KUIPER-00432            
1 68937U 26098U   26248.63490632  .00001539  00000+0  23088-3 0  9994
2 68937  51.8999  59.8068 0000614 106.0916 254.0114 14.79932307 19435
KUIPER-00434            
1 68938U 26098V   26248.78703153 -.00001827  00000+0 -22942-3 0  9996
2 68938  51.9002  62.8585 0001944  92.9984 267.1199 14.76498407 19405
KUIPER-00436            
1 68939U 26098W   26248.48027974  .00001514  00000+0  22758-3 0  9990
2 68939  51.8992  63.1049 0000667 115.2063 244.8968 14.79928245 19373
KUIPER-00438            
1 68940U 26098X   26248.21286597  .00001772  00000+0  26141-3 0  9997
2 68940  51.9027  61.8076 0000696 112.8825 247.2211 14.79927561 19368
KUIPER-00439            
1 68941U 26098Y   26248.66668980 -.00028357  00000+0 -37406-2 0  9992
2 68941  51.9023  59.7938 0001432  12.5738 336.2599 14.79546692  2818
KUIPER-00440            
1 68942U 26098Z   26248.82871888  .00000372  00000+0  77737-4 0  9992
2 68942  51.9031  51.5726 0000083 300.5091  59.5863 14.79925944 19566
KUIPER-00442            
1 68943U 26098AA  26248.46952521  .00001152  00000+0  19433-3 0  9992
2 68943  51.9023  55.4884 0001803 100.1759 259.9406 14.76520362 19473
KUIPER-00446            
1 68944U 26098AB  26248.85707845  .00000161  00000+0  50195-4 0  9993
2 68944  51.8983  56.4541 0001189 195.8906 164.2019 14.79925954 19490
KUIPER-00451            
1 68945U 26098AC  26248.50865015  .00002967  00000+0  41815-3 0  9994
2 68945  51.8978  67.9749 0001457 157.8439 202.2587 14.79917560 19306
KUIPER-00452            
1 68946U 26098AD  26248.52213240  .00001872  00000+0  27448-3 0  9994
2 68946  51.9009  55.4278 0000928  79.5988 280.5079 14.79932621 19482
KUIPER-00453            
1 68947U 26098AE  26248.60924060  .00001636  00000+0  24362-3 0  9993
2 68947  51.8970  52.4654 0002731 100.5515 259.5755 14.79930075 19533
KUIPER-00454            
1 68948U 26098AF  26248.50624999  .00001462  00000+0  23850-3 0  9999
2 68948  51.9001  70.3050 0002083 318.3653  41.7149 14.76496043 19279
KUIPER-00455            
1 68949U 26098AG  26248.54240651  .00001874  00000+0  27483-3 0  9996
2 68949  51.8986  67.8294 0002314 101.2373 258.8850 14.79929209 19310
KUIPER-00458            
1 68950U 26098AH  26248.72737433  .00001736  00000+0  25664-3 0  9993
2 68950  51.9012  52.0329 0000556  97.4292 262.6733 14.79927819 19543
KUIPER-00282            
1 69267U 26118A   26248.60043976  .00002590  00000+0  36859-3 0  9994
2 69267  51.8949  45.0534 0000818 143.8182 216.2836 14.79935623 16063
KUIPER-00383            
1 69268U 26118B   26248.82262125  .00001733  00000+0  25622-3 0  9992
2 69268  51.8985  41.5922 0000649 122.0314 238.0711 14.79933675 16131
KUIPER-00527            
1 69269U 26118C   26248.58627484  .00001841  00000+0  27037-3 0  9991
2 69269  51.8982  42.7697 0000495 104.8016 255.3001 14.79936936 16099
KUIPER-00562            
1 69270U 26118D   26248.83070687  .00001562  00000+0  23377-3 0  9991
2 69270  51.9029  33.9960 0000682 121.4611 238.6418 14.79949967 16244
KUIPER-00570            
1 69271U 26118E   26248.64840100  .00000255  00000+0  62518-4 0  9995
2 69271  51.8994  47.4647 0000712  96.1508 263.9536 14.79929280 16028
KUIPER-00572            
1 69272U 26118F   26248.83946939  .00001698  00000+0  25165-3 0  9992
2 69272  51.9009  41.5102 0000745 117.5308 242.5730 14.79930150 16139
KUIPER-00581            
1 69273U 26118G   26248.69902990  .00000724  00000+0  12399-3 0  9990
2 69273  51.9036  47.1377 0001971 142.1021 218.0080 14.79930984 16135
KUIPER-00584            
1 69274U 26118H   26248.61195295  .00002028  00000+0  29499-3 0  9993
2 69274  51.8997  50.1349 0000776 136.3897 223.7126 14.79930739 15997
KUIPER-00587            
1 69275U 26118J   26248.63958679  .00000305  00000+0  68979-4 0  9992
2 69275  51.9018  39.9015 0000964  72.2908 287.8160 14.79922647 16144
KUIPER-00590            
1 69276U 26118K   26248.63422448  .00001645  00000+0  24471-3 0  9999
2 69276  51.9026  44.9356 0001362 118.3265 241.7834 14.79931836 16078
KUIPER-00592            
1 69277U 26118L   26248.61731102  .00001651  00000+0  24583-3 0  9999
2 69277  51.9032  44.8888 0000776  95.9595 264.1456 14.79884907 16074
KUIPER-00593            
1 69278U 26118M   26248.83335647  .00010745  00000+0  11227-2 0  9992
2 69278  51.8970  26.8176 0001935   2.6500 198.9630 14.90123855  4621
KUIPER-00594            
1 69279U 26118N   26248.83335647  .00029726  00000+0  39133-2 0  9998
2 69279  51.9030  31.5593 0001733  51.9568 308.4195 14.79907702  5479
KUIPER-00595            
1 69280U 26118P   26248.83335647  .00017649  00000+0  17126-2 0  9999
2 69280  51.8942  26.8625 0003410  80.5775 229.6143 14.92697526  5176
KUIPER-00596            
1 69281U 26118Q   26248.86517422  .00001868  00000+0  27391-3 0  9998
2 69281  51.9017  48.9086 0000658 110.5987 249.5046 14.79931829 16039
KUIPER-00597            
1 69282U 26118R   26248.83335647 -.00007282  00000+0 -99115-3 0  9994
2 69282  51.8985  28.9447 0003604 106.6774 115.9242 14.77135100  5775
KUIPER-00599            
1 69283U 26118S   26248.82530399  .00001797  00000+0  26469-3 0  9990
2 69283  51.9013  38.9977 0000687 138.9472 221.1542 14.79926841 16170
KUIPER-00600            
1 69284U 26118T   26248.83335647 -.00001960  00000+0 -20144-3 0  9999
2 69284  51.8986  29.0488 0007012  88.4539 211.4905 14.84799333  1303
KUIPER-00601            
1 69285U 26118U   26248.71861059  .00001954  00000+0  28526-3 0  9991
2 69285  51.9000  44.5522 0000789  99.3059 260.7992 14.79931343 16082
KUIPER-00602            
1 69286U 26118V   26248.79423350  .00000137  00000+0  47047-4 0  9990
2 69286  51.9031  36.6327 0001292 161.6644 198.4365 14.79938043 16204
KUIPER-00603            
1 69287U 26118W   26248.80843359  .00001468  00000+0  22157-3 0  9990
2 69287  51.9039  39.1580 0000610 118.7571 241.3452 14.79927093 16160
KUIPER-00605            
1 69288U 26118X   26248.59773932  .00007266  00000+0  98065-3 0  9999
2 69288  51.8985  47.5739 0001255 134.4156 225.6909 14.79952253 16033
KUIPER-00606            
1 69289U 26118Y   26248.58895476  .00000391  00000+0  80347-4 0  9994
2 69289  51.9016  40.1281 0000563 144.1422 215.9578 14.79931768 16139
KUIPER-00607            
1 69290U 26118Z   26248.83335647  .00001050  00000+0  15895-3 0  9991
2 69290  51.9016  29.0759 0000814  80.8189 164.6310 14.82069226  5173
KUIPER-00608            
1 69291U 26118AA  26248.83335647  .00000668  00000+0  11141-3 0  9996
2 69291  51.9015  31.4358 0005481 104.6420  64.8041 14.82088539  5128
KUIPER-00610            
1 69292U 26118AB  26248.82799618  .00001762  00000+0  26001-3 0  9995
2 69292  51.9023  36.5703 0000733 103.7772 256.3272 14.79933360 16205
KUIPER-00613            
1 69293U 26118AC  26248.81722095  .00000759  00000+0  12858-3 0  9990
2 69293  51.9005  46.6147 0000738 130.9325 229.1702 14.79930353 16060
KUIPER-00618            
1 69294U 26118AD  26248.66191794  .00001936  00000+0  28181-3 0  9994
2 69294  51.9034  34.8110 0003105 135.4620 224.6593 14.80106398 16212
KUIPER-00620            
1 69295U 26118AE  26248.67605867  .00001879  00000+0  27535-3 0  9995
2 69295  51.9037  37.2518 0000489 110.2792 249.8223 14.79936301 16186
KUIPER-00423            
1 69592U 26140A   26248.83335647 -.01893908  00000+0 -13384+0 0  9992
2 69592  51.8934   9.9981 0013344  81.3239 237.7103 15.08007822  5090
KUIPER-00428            
1 69593U 26140B   26248.74837144  .00022376  00000+0  60440-3 0  9991
2 69593  51.8816   9.4459 0006091 214.9889 145.0699 15.37651509 13629
KUIPER-00481            
1 69594U 26140C   26248.83335647 -.00015490  00000+0 -19256-2 0  9992
2 69594  51.9021  13.5977 0006536  97.1642 307.9043 14.81645551  5566
KUIPER-00490            
1 69595U 26140D   26248.83335647  .00039609  00000+0  51900-2 0  9991
2 69595  51.9035  19.0010 0000620  80.2762 207.9804 14.79965987  5317
KUIPER-00493            
1 69596U 26140E   26248.80771912  .00001886  00000+0  27629-3 0  9996
2 69596  51.9036  24.1639 0000747 204.9115 155.1811 14.79939915 13425
KUIPER-00496            
1 69597U 26140F   26248.83335647 -.02342946  00000+0 -10507+0 0  9993
2 69597  51.8804  11.4540 0009670 223.2594 124.4887 15.24676488  4120
KUIPER-00513            
1 69598U 26140G   26248.83335647  .00039843  00000+0  52229-2 0  9999
2 69598  51.9002  19.0508 0001042  77.2985  30.8954 14.79945563  4224
KUIPER-00516            
1 69599U 26140H   26248.83335647 -.01971403  00000+0 -69052-1 0  9991
2 69599  51.8810   8.7148 0007726 170.2972 101.1627 15.32641965  5017
KUIPER-00517            
1 69600U 26140J   26248.70798705  .00015102  00000+0  41998-3 0  9991
2 69600  51.8781   9.1572 0010119 117.8440 242.3573 15.37006570 13626
KUIPER-00520            
1 69601U 26140K   26248.83335647  .00039522  00000+0  56104-2 0  9994
2 69601  51.9016  20.6913 0001348 138.9764 245.4088 14.76569897  4693
KUIPER-00522            
1 69602U 26140L   26248.83335647 -.00020280  00000+0 -13689-2 0  9999
2 69602  51.8897  10.3575 0014632  85.4904 100.1247 15.05661679  5837
KUIPER-00528            
1 69603U 26140M   26248.65845979  .00001952  00000+0  28496-3 0  9990
2 69603  51.9040  22.3359 0000675  98.5955 261.5084 14.79930175 13431
KUIPER-00532            
1 69604U 26140N   26248.83335647 -.02265046  00000+0 -10936+0 0  9993
2 69604  51.8870   9.7422 0003123 200.2796 305.3302 15.22162874  5442
KUIPER-00533            
1 69605U 26140P   26248.84915262  .00035130  00000+0  47387-2 0  9990
2 69605  51.9033  16.4827 0000610  65.9191 294.1834 14.78798872 13539
KUIPER-00534            
1 69606U 26140Q   26248.56881581  .00015636  00000+0  49631-3 0  9990
2 69606  51.8815  10.4910 0012767  86.5066 273.7379 15.32770003 13590
KUIPER-00537            
1 69607U 26140R   26248.83335647  .00042478  00000+0  55650-2 0  9999
2 69607  51.9006  23.9748 0000506 318.4578 357.7377 14.79939769  3906
KUIPER-00538            
1 69608U 26140S   26248.60766144  .00001945  00000+0  28357-3 0  9994
2 69608  51.9029  22.4906 0000768  85.1378 274.9673 14.79999063 13439
KUIPER-00540            
1 69609U 26140T   26248.54465103  .00017543  00000+0  47075-3 0  9998
2 69609  51.8824  10.3400 0005368 210.5909 149.4766 15.38026237 13598
KUIPER-00541            
1 69610U 26140U   26248.75864772  .00017378  00000+0  47238-3 0  9995
2 69610  51.8819   8.7932 0007452 141.5531 218.5989 15.37622767 13634
KUIPER-00542            
1 69611U 26140V   26248.56386269  .00010935  00000+0  30265-3 0  9999
2 69611  51.8800   9.7052 0008206 124.7685 235.4075 15.37487721 13600
KUIPER-00543            
1 69612U 26140W   26248.83335647 -.02183870  00000+0 -10857+0 0  9998
2 69612  51.8853   9.6276 0006430 224.7641 283.8037 15.20994590  5296
KUIPER-00544            
1 69613U 26140X   26248.76211242  .00021610  00000+0  58384-3 0  9995
2 69613  51.8792   8.7862 0005748 137.9438 222.1991 15.37669506 13636
KUIPER-00546            
1 69614U 26140Y   26248.83335647 -.00022419  00000+0 -15245-2 0  9998
2 69614  51.8947  10.3204 0017642  81.4003 174.2447 15.05406740  5666
KUIPER-00547            
1 69615U 26140Z   26248.75103054  .00020521  00000+0  53475-3 0  9993
2 69615  51.8824   8.7396 0010222 109.4059 250.8034 15.38785468 13635
KUIPER-00549            
1 69616U 26140AA  26248.83335647  .00047086  00000+0  15620-2 0  9992
2 69616  51.8820   8.9286 0006602 200.3159 307.2753 15.30767063  5416
KUIPER-00550            
1 69617U 26140AB  26248.79301911 -.00030589  00000+0 -10999-2 0  9991
2 69617  51.8810  12.6408 0009007 247.0356 112.9677 15.27834003 13581
KUIPER-00551            
1 69618U 26140AC  26248.74032694  .00019948  00000+0  53027-3 0  9990
2 69618  51.8796   8.6434 0011741 100.0045 260.2267 15.38175221 13630
KUIPER-00554            
1 69619U 26140AD  26248.74860278  .00018287  00000+0  50280-3 0  9991
2 69619  51.8780   8.6966 0010074 114.1813 246.0228 15.37208331 13638
KUIPER-00555            
1 69620U 26140AE  26248.74659713  .00019172  00000+0  50107-3 0  9995
2 69620  51.8824   8.7109 0011103 100.1879 260.0361 15.38733603 13630
KUIPER-00556            
1 69621U 26140AF  26248.83335647  .00011200  00000+0  10409-2 0  9997
2 69621  51.8968  12.0118 0015110  89.3395  76.3585 14.94698719  5301
KUIPER-00557            
1 69622U 26140AG  26248.63594775  .00019667  00000+0  52030-3 0  9997
2 69622  51.8817   9.4572 0009172 118.1499 242.0415 15.38358669 13619
KUIPER-00560            
1 69623U 26140AH  26248.52967992  .00021031  00000+0  58244-3 0  9992
2 69623  51.8798  10.2185 0008772 137.4170 222.7498 15.36897217 13591
KUIPER-00561            
1 69624U 26140AJ  26248.83335647  .00038802  00000+0  52687-2 0  9991
2 69624  51.9019  16.5166 0001791  33.4230  65.5808 14.78469672  5812
KUIPER-00564            
1 69625U 26140AK  26248.83335647 -.00014157  00000+0 -16753-2 0  9995
2 69625  51.8993  13.8342 0009605 104.4863 259.1322 14.83589869  5406
KUIPER-00567            
1 69626U 26140AL  26248.83335647  .00001888  00000+0  21114-3 0  9999
2 69626  51.8970  11.8816 0014208  78.4566   7.4763 14.91453014  5595
KUIPER-00573            
1 69627U 26140AM  26248.83335647  .00001690  00000+0  23150-3 0  9993
2 69627  51.9018  14.1057 0010869  73.0829 342.0161 14.83428306  5604
KUIPER-00258            
1 69763U 26151A   26248.83335647 -.00764633  00000+0 -30557-1 0  9998
2 69763  51.8715 287.6115 0011608   4.8607 171.6783 15.26953117  5425
KUIPER-00526            
1 69764U 26151B   26248.54484375 -.00000459  00000+0 -31209-4 0  9997
2 69764  51.8967 300.4046 0000828  79.4486 280.6570 14.79913994  9882
KUIPER-00558            
1 69765U 26151C   26248.44357083  .00001460  00000+0  22049-3 0  9994
2 69765  51.8991 300.7704 0000482  94.4140 265.6878 14.79935234  9878
KUIPER-00569            
1 69766U 26151D   26248.53069611  .00001310  00000+0  20081-3 0  9990
2 69766  51.9028 297.8731 0000395  52.3897 307.7101 14.79932862  9929
KUIPER-00589            
1 69767U 26151E   26248.54091985  .00000826  00000+0  14808-3 0  9992
2 69767  51.9015 300.5491 0002342  30.3335 329.7761 14.76514317  9887
KUIPER-00598            
1 69768U 26151F   26248.83335647 -.00078030  00000+0 -89792-2 0  9998
2 69768  51.8993 291.6577 0006212  10.0923 349.1736 14.85697326  5511
KUIPER-00604            
1 69769U 26151G   26248.85591762  .00001039  00000+0  17819-3 0  9998
2 69769  51.9029 293.7935 0002743 327.3025  32.7766 14.76533569 10002
KUIPER-00609            
1 69770U 26151H   26248.83335647 -.00090044  00000+0 -11831-1 0  9998
2 69770  51.9021 291.0612 0002884   5.9923 210.4007 14.80317326  5521
KUIPER-00611            
1 69771U 26151J   26248.83335647 -.00029408  00000+0 -38497-2 0  9993
2 69771  51.8979 294.0388 0000406 358.8768 339.8764 14.79886273  3558
KUIPER-00612            
1 69772U 26151K   26248.45168573  .00000841  00000+0  14978-3 0  9991
2 69772  51.9015 297.9525 0000475  63.4201 296.6808 14.76624326  9914
KUIPER-00614            
1 69773U 26151L   26248.83335647 -.00029890  00000+0 -39092-2 0  9992
2 69773  51.8979 294.1078 0000828  59.6466   9.2765 14.79932622  5311
KUIPER-00615            
1 69774U 26151M   26248.13746878  .00000911  00000+0  15970-3 0  9999
2 69774  51.9018 301.8672 0000747 195.1106 164.9833 14.76599989  9838
KUIPER-00616            
1 69775U 26151N   26248.83335647 -.01078759  00000+0 -62010-1 0  9998
2 69775  51.8909 286.4708 0002747  72.2137 290.1477 15.14766607  5171
KUIPER-00617            
1 69776U 26151P   26248.83335647 -.00067728  00000+0 -69602-2 0  9997
2 69776  51.8976 289.3251 0004610 359.1310   0.3910 14.90198954  4429
KUIPER-00619            
1 69777U 26151Q   26248.83335647 -.00076865  00000+0 -92330-2 0  9994
2 69777  51.9006 291.1082 0006301  34.7990 100.6675 14.83928317  5594
KUIPER-00621            
1 69778U 26151R   26248.83335647 -.00028136  00000+0 -39334-2 0  9998
2 69778  51.9002 294.0010 0002199 120.2097 154.3057 14.77092641  2978
KUIPER-00622            
1 69779U 26151S   26248.39494617  .00000788  00000+0  14250-3 0  9995
2 69779  51.9011 299.6045 0000900  76.4541 283.6520 14.76547022  9887
KUIPER-00623            
1 69780U 26151T   26248.84502796  .00000876  00000+0  15492-3 0  9992
2 69780  51.8980 296.4487 0001475   9.1378 350.9609 14.76560449  9960
KUIPER-00626            
1 69781U 26151U   26248.83335647 -.00075943  00000+0 -83426-2 0  9991
2 69781  51.8948 291.6703 0006170  21.4144  40.3763 14.87570349  5888
KUIPER-00627            
1 69782U 26151V   26248.83335647 -.00069242  00000+0 -41173-2 0  9990
2 69782  51.8814 288.5648 0007261  32.2278   3.2857 15.10980949  5211
KUIPER-00629            
1 69783U 26151W   26248.86294558  .00000794  00000+0  13318-3 0  9995
2 69783  51.9035 301.3582 0000372  77.3292 282.7712 14.79925914  9900
KUIPER-00631            
1 69784U 26151X   26248.33959959 -.00000015  00000+0  27082-4 0  9992
2 69784  51.9025 303.7338 0000345  80.9169 279.1833 14.79932702  9826
KUIPER-00634            
1 69785U 26151Y   26248.83456942  .00000680  00000+0  11823-3 0  9994
2 69785  51.9009 296.5511 0001411  94.0007 266.1117 14.79936875  9964
KUIPER-00639            
1 69786U 26151Z   26248.83335647 -.00287448  00000+0 -18210-1 0  9999
2 69786  51.8861 288.2334 0010734   0.3068 269.7871 15.09861656  3841
KUIPER-00641            
1 69787U 26151AA  26248.83335647 -.00050219  00000+0 -41660-2 0  9990
2 69787  51.8886 289.7328 0012219   8.5447 213.8635 14.98390569  5914
KUIPER-00644            
1 69788U 26151AB  26248.83335647 -.01205422  00000+0 -43232-1 0  9996
2 69788  51.8773 286.2700 0009459   5.5825 130.4897 15.31287106  5818
KUIPER-00646            
1 69789U 26151AC  26248.83335647 -.00053494  00000+0 -46566-2 0  9990
2 69789  51.8942 289.8203 0008803  29.9428  54.4558 14.96592556  5261
KUIPER-00647            
1 69790U 26151AD  26248.83335647 -.00054556  00000+0 -43027-2 0  9991
2 69790  51.8867 289.8313 0009651  14.5396 194.6761 15.00387030  4602
KUIPER-00662            
1 69791U 26151AE  26248.35517104  .00000851  00000+0  15177-3 0  9992
2 69791  51.9024 303.4732 0001454 325.5689  34.5177 14.76435547  9821
