QIANFAN-1               
1 60379U 24140A   26169.88762750  .00000136  00000+0  19131-3 0  9990
2 60379  88.9736 279.7530 0018286  38.4604 321.7847 13.51015086 92756
QIANFAN-2               
1 60380U 24140B   26169.91640568  .00000123  00000+0  17230-3 0  9992
2 60380  88.9723 279.5637 0012500  14.1658 345.9841 13.51010618 92818
QIANFAN-3               
1 60381U 24140C   26169.92462526  .00000131  00000+0  18405-3 0  9994
2 60381  88.9715 279.6812 0014117  25.7543 334.4308 13.51011718 92726
QIANFAN-4               
1 60382U 24140D   26169.89990931  .00000129  00000+0  18116-3 0  9993
2 60382  88.9740 279.6288 0012836  16.6606 343.4964 13.51014382 92848
QIANFAN-5               
1 60383U 24140E   26169.87524149  .00000124  00000+0  17251-3 0  9990
2 60383  88.9715 279.7111 0015840  35.8830 324.3381 13.51013167 92703
QIANFAN-6               
1 60384U 24140F   26169.89579170  .00000138  00000+0  19450-3 0  9995
2 60384  88.9742 279.5061 0013213  22.3889 337.7837 13.51013685 92904
QIANFAN-7               
1 60385U 24140G   26169.92135377  .00000446  00000+0  17421-3 0  9995
2 60385  88.9776 271.5699 0017143 136.0021 224.2542 14.27840192 97248
QIANFAN-8               
1 60386U 24140H   26169.90401162  .00000108  00000+0  14775-3 0  9996
2 60386  88.9743 279.7452 0016712  22.4293 337.7585 13.51010052 92758
QIANFAN-9               
1 60387U 24140J   26169.87933882  .00000131  00000+0  18462-3 0  9995
2 60387  88.9741 279.8194 0016384  22.4400 337.7465 13.51015605 92730
QIANFAN-10              
1 60388U 24140K   26169.88346901  .00000147  00000+0  20914-3 0  9999
2 60388  88.9752 279.1855 0013953   0.3905 359.7255 13.51016639 92867
QIANFAN-11              
1 60389U 24140L   26169.92044372  .00000125  00000+0  17414-3 0  9999
2 60389  88.9677 279.6274 0014438  23.1550 337.0248 13.51010825 92527
QIANFAN-12              
1 60390U 24140M   26169.94112351  .00000123  00000+0  17215-3 0  9993
2 60390  88.9720 279.7507 0013597  31.8212 328.3758 13.51012970 92650
QIANFAN-13              
1 60391U 24140N   26169.91228146  .00000118  00000+0  16323-3 0  9994
2 60391  88.9731 279.8764 0013520  34.5763 325.6265 13.51012940 92678
QIANFAN-14              
1 60392U 24140P   26169.93692689  .00000131  00000+0  18472-3 0  9996
2 60392  88.9711 279.7316 0017165  32.2953 327.9245 13.51006538 92684
QIANFAN-15              
1 60393U 24140Q   26169.87102333  .00000112  00000+0  15490-3 0  9998
2 60393  88.9734 279.7397 0012459  21.7753 338.3925 13.51015763 92660
QIANFAN-16              
1 60394U 24140R   26169.93293896  .00000134  00000+0  18876-3 0  9996
2 60394  88.9737 279.8587 0015279  37.0502 323.1701 13.51014950 92583
QIANFAN-17              
1 60395U 24140S   26169.92869208  .00000136  00000+0  19165-3 0  9996
2 60395  88.9748 279.9257 0015422  30.8230 329.3823 13.51011261 93542
QIANFAN-18              
1 60396U 24140T   26169.90807457  .00000112  00000+0  15501-3 0  9997
2 60396  88.9742 279.4487 0014066  14.2848 345.8698 13.51010536 92930
QIANFAN-19              
1 61552U 24185A   26169.98228642  .00000319  00000+0  15920-3 0  9996
2 61552  88.9838  56.3684 0009110  65.9428 294.2712 14.14477555 96276
QIANFAN-20              
1 61553U 24185B   26169.96164208  .00000362  00000+0  20096-3 0  9990
2 61553  88.9834  56.8815 0007613  99.0776 261.1270 14.09022032 95994
QIANFAN-21              
1 61554U 24185C   26169.95813877  .00000443  00000+0  19079-3 0  9992
2 61554  88.9754  54.9328 0012780 105.3342 254.9264 14.22856215 96734
QIANFAN-22              
1 61555U 24185D   26169.88151051  .00000228  00000+0  18565-3 0  9994
2 61555  88.9820  58.6311 0007765 126.3639 233.8250 13.86395901 95000
QIANFAN-23              
1 61556U 24185E   26169.97344036  .00000324  00000+0  15581-3 0  9994
2 61556  88.9829  56.0905 0009846  72.7601 287.4664 14.16502424 96397
QIANFAN-24              
1 61557U 24185F   26169.94197842  .00000432  00000+0  18174-3 0  9994
2 61557  88.9813  55.1936 0011368  52.5289 307.6936 14.24071740 96809
QIANFAN-25              
1 61558U 24185G   26169.96319436  .00000353  00000+0  20646-3 0  9991
2 61558  88.9827  56.8855 0012548 100.8067 259.4528 14.06078671 95951
QIANFAN-26              
1 61559U 24185H   26169.98034346  .00000196  00000+0  18314-3 0  9992
2 61559  88.9827  59.4305 0006397 142.4743 217.6871 13.77913653 94590
QIANFAN-27              
1 61560U 24185J   26169.96673489  .00000369  00000+0  14406-3 0  9999
2 61560  88.9822  54.8768 0009095  43.9389 316.2527 14.27538661 97010
QIANFAN-28              
1 61561U 24185K   26169.91636242  .00000517  00000+0  20122-3 0  9998
2 61561  88.9841  54.8950 0008943  42.5973 317.5914 14.28386692 97032
QIANFAN-29              
1 61562U 24185L   26169.92725868  .00000090  00000+0  12065-3 0  9996
2 61562  88.9802  61.8567 0008327 218.0064 142.0500 13.51073721 93207
QIANFAN-30              
1 61563U 24185M   26169.97072170  .00000136  00000+0  19507-3 0  9992
2 61563  88.9822  61.4496 0006177 198.8054 161.2870 13.50052678 93460
QIANFAN-31              
1 61564U 24185N   26169.93858811  .00000152  00000+0  19350-3 0  9997
2 61564  88.9805  60.9562 0006196 183.2547 176.8569 13.58039973 93701
QIANFAN-32              
1 61565U 24185P   26169.98381073  .00000067  00000+0  85333-4 0  9994
2 61565  88.9863  61.6392 0007696 236.9068 123.1344 13.50786434 93456
QIANFAN-33              
1 61566U 24185Q   26169.97344021  .00000319  00000+0  22036-3 0  9996
2 61566  88.9818  57.8195 0009559  93.8333 266.3937 13.96706715 95432
QIANFAN-34              
1 61567U 24185R   26169.95110779  .00000293  00000+0  18167-3 0  9997
2 61567  88.9794  57.1365 0008314  95.2108 265.0021 14.02469815 95730
QIANFAN-35              
1 61568U 24185S   26169.96561549  .00000487  00000+0  18932-3 0  9999
2 61568  88.9822  54.7844 0008019  41.8520 318.3287 14.28271533 97043
QIANFAN-36              
1 61569U 24185T   26169.88677351  .00000084  00000+0  10304-3 0  9998
2 61569  88.9796  61.4364 0004912 199.8958 160.2005 13.55635555 93419
QIANFAN-37              
1 62238U 24232B   26169.89111510  .00000064  00000+0  79878-4 0  9996
2 62238  89.0071  22.4141 0001413  82.0947 278.0365 13.51009104124575
QIANFAN-38              
1 62239U 24232C   26169.91578752  .00000072  00000+0  92894-4 0  9997
2 62239  89.0078  22.3402 0015241  19.1384 341.0337 13.51006117124630
QIANFAN-39              
1 62240U 24232D   26169.90478611  .00000209  00000+0  82333-4 0  9990
2 62240  89.0059  15.8712 0016096 173.9097 186.2295 14.25526635128192
QIANFAN-40              
1 62241U 24232E   26169.87462966  .00000063  00000+0  79173-4 0  9999
2 62241  89.0105  21.9813 0014544  27.2401 332.9510 13.51007790124999
QIANFAN-41              
1 62242U 24232F   26169.88289604  .00000068  00000+0  86274-4 0  9992
2 62242  89.0076  22.2915 0014519  15.8163 344.3439 13.51010170124650
QIANFAN-42              
1 62243U 24232G   26169.88216779  .00000180  00000+0  71207-4 0  9991
2 62243  89.0057  15.9490 0014680 180.0546 180.0647 14.24615487128154
QIANFAN-43              
1 62244U 24232H   26169.87877400  .00000064  00000+0  80870-4 0  9992
2 62244  89.0080  22.3656 0016231  20.0454 340.1332 13.51009870 93267
QIANFAN-44              
1 62245U 24232J   26169.86640859  .00000053  00000+0  63458-4 0  9999
2 62245  89.0078  22.1745 0014353  18.1535 342.0126 13.51011861124735
QIANFAN-45              
1 62246U 24232K   26169.90760020  .00000053  00000+0  63673-4 0  9997
2 62246  89.0082  22.3236 0014993  17.3407 342.8253 13.51009364124663
QIANFAN-46              
1 62247U 24232L   26169.93227054  .00000046  00000+0  52902-4 0  9991
2 62247  89.0078  22.3824 0015227  22.4986 337.6830 13.51010175124623
QIANFAN-47              
1 62248U 24232M   26169.93638492  .00000057  00000+0  69003-4 0  9996
2 62248  89.0074  22.3074 0015625  21.4624 338.7179 13.51008985124654
QIANFAN-48              
1 62249U 24232N   26169.89930222  .00000056  00000+0  67365-4 0  9996
2 62249  89.0078  22.3203 0017952  23.1344 337.0611 13.51013569124653
QIANFAN-49              
1 62250U 24232P   26169.96104049  .00000065  00000+0  82028-4 0  9999
2 62250  89.0077  22.3251 0014874  19.0546 341.1158 13.51012260 93255
QIANFAN-50              
1 62251U 24232Q   26169.91170894  .00000067  00000+0  84588-4 0  9991
2 62251  89.0082  22.3485 0016565  19.7014 340.4774 13.51009028 93273
QIANFAN-51              
1 62252U 24232R   26169.89521832  .00000045  00000+0  51705-4 0  9992
2 62252  89.0076  22.3324 0014200  24.4393 335.7428 13.51005767 93264
QIANFAN-52              
1 62253U 24232S   26169.92401160  .00000083  00000+0  10958-3 0  9994
2 62253  89.0072  22.1958 0015926  16.0094 344.1557 13.51011428 93351
QIANFAN-53              
1 62254U 24232T   26169.90342844  .00000053  00000+0  63625-4 0  9993
2 62254  89.0080  22.3166 0014849  17.6960 342.4705 13.51008188 93317
QIANFAN-54              
1 62255U 24232U   26169.87051054  .00000056  00000+0  68561-4 0  9997
2 62255  89.0071  21.9818 0004001  68.9412 291.2167 13.51012139124811
QIANFAN-55              
1 62785U 25016A   26169.89655155  .00000150  00000+0  21316-3 0  9991
2 62785  88.9739  83.7000 0017461 157.4398 202.7524 13.51004843 72592
QIANFAN-56              
1 62786U 25016B   26169.91301763  .00000068  00000+0  86821-4 0  9999
2 62786  88.9713  83.4843 0016020 159.1306 201.0502 13.51003709 72649
QIANFAN-57              
1 62787U 25016C   26169.87183336  .00000050  00000+0  58805-4 0  9991
2 62787  88.9745  83.7008 0002133  56.1351 304.0002 13.51003791 72603
QIANFAN-58              
1 62788U 25016D   26169.99125481  .00000134  00000+0  18829-3 0  9996
2 62788  88.9713  83.4625 0014262 150.3247 209.8716 13.51018468 72665
QIANFAN-59              
1 62789U 25016E   26169.94184453  .00000155  00000+0  22121-3 0  9999
2 62789  88.9737  83.5858 0014492 154.4052 205.7820 13.51012562 72654
QIANFAN-60              
1 62790U 25016F   26169.97472222  .00000055  00000+0  65706-4 0  9994
2 62790  88.9720  83.5180 0016141 151.6923 208.5109 13.51000415 72649
QIANFAN-61              
1 62791U 25016G   26169.93363085  .00000153  00000+0  21731-3 0  9995
2 62791  88.9785  83.8128 0015117 150.6562 209.5441 13.51007734 72658
QIANFAN-62              
1 62792U 25016H   26169.93777421  .00000155  00000+0  22130-3 0  9995
2 62792  88.9732  83.5795 0016467 151.7102 208.4947 13.51017141 72640
QIANFAN-63              
1 62793U 25016J   26169.88836092  .00000142  00000+0  20085-3 0  9993
2 62793  88.9738  83.5489 0016301 157.0816 203.1066 13.51011025 72677
QIANFAN-64              
1 62794U 25016K   26169.92950020  .00000144  00000+0  20431-3 0  9994
2 62794  88.9725  83.4934 0014540 149.0312 211.1700 13.51007726 72670
QIANFAN-65              
1 62795U 25016L   26169.92545410  .00000147  00000+0  20843-3 0  9998
2 62795  88.9722  83.5131 0014333 150.5607 209.6355 13.50998726 72656
QIANFAN-66              
1 62796U 25016M   26169.88015570  .00000142  00000+0  20079-3 0  9999
2 62796  88.9741  83.5249 0015563 147.0892 213.1232 13.51003433 72692
QIANFAN-67              
1 62797U 25016N   26169.88425360  .00000136  00000+0  19124-3 0  9994
2 62797  88.9731  83.5316 0015279 153.7333 206.4596 13.51006000 72663
QIANFAN-68              
1 62798U 25016P   26169.87610760  .00000144  00000+0  20422-3 0  9996
2 62798  88.9735  83.5844 0015432 151.7118 208.4874 13.51018694 72645
QIANFAN-69              
1 62799U 25016Q   26169.89243450  .00000144  00000+0  20403-3 0  9996
2 62799  88.9714  83.4119 0016123 153.4589 206.7391 13.51012591 72685
QIANFAN-70              
1 62800U 25016R   26169.90894087  .00000145  00000+0  20542-3 0  9994
2 62800  88.9734  83.5881 0016071 143.9405 216.2834 13.51010895 72649
QIANFAN-71              
1 62801U 25016S   26169.90483447  .00000145  00000+0  20628-3 0  9994
2 62801  88.9728  83.5566 0015902 156.8588 203.3282 13.51005344 72647
QIANFAN-72              
1 62802U 25016T   26169.92123447  .00000141  00000+0  19913-3 0  9999
2 62802  88.9719  83.5498 0018857 165.3404 194.8298 13.51018492 72634
QIANFAN-73              
1 63159U 25046A   26169.87415213  .00000131  00000+0  18390-3 0  9994
2 63159  88.9711 300.5079 0012979 302.6490  57.3409 13.51019002 72814
QIANFAN-74              
1 63160U 25046B   26169.93196352  .00000120  00000+0  16793-3 0  9996
2 63160  88.9712 300.3914 0002154 110.1536 249.9847 13.51009608 72883
QIANFAN-75              
1 63161U 25046C   26169.91949960  .00000119  00000+0  16652-3 0  9998
2 63161  88.9712 300.6292 0014062 305.7241  54.2601 13.51008329 72752
QIANFAN-76              
1 63162U 25046D   26169.91530865  .00000148  00000+0  21067-3 0  9997
2 63162  88.9713 300.6094 0011600 306.9865  53.0224 13.51015800 72765
QIANFAN-77              
1 63163U 25046E   26169.88930545  .00000258  00000+0  17774-3 0  9995
2 63163  88.9718 297.0687 0014200 204.6619 155.3881 13.96205293 74705
QIANFAN-78              
1 63164U 25046F   26169.88240773  .00000142  00000+0  20070-3 0  9998
2 63164  88.9712 300.4750 0013018 309.3023  50.6973 13.51014934 72830
QIANFAN-79              
1 63165U 25046G   26169.91130595  .00000135  00000+0  18980-3 0  9992
2 63165  88.9715 300.5864 0012787 307.3357  52.6629 13.51012368 72784
QIANFAN-80              
1 63166U 25046H   26169.92780559  .00000116  00000+0  16140-3 0  9990
2 63166  88.9712 300.2865 0011707 312.8350  47.1816 13.51009804 72941
QIANFAN-81              
1 63167U 25046J   26169.90720339  .00000118  00000+0  16485-3 0  9993
2 63167  88.9712 300.3563 0012838 300.1188  59.8690 13.51017369 72892
QIANFAN-82              
1 63168U 25046K   26169.94005228  .00000132  00000+0  18542-3 0  9993
2 63168  88.9712 300.3969 0010780 308.5923  51.4262 13.51011857 72884
QIANFAN-83              
1 63169U 25046L   26169.91529850  .00000144  00000+0  17125-3 0  9992
2 63169  88.9714 299.8052 0011949 278.6689  81.3114 13.62042768 73219
QIANFAN-84              
1 63170U 25046M   26169.89551184  .00000122  00000+0  17067-3 0  9997
2 63170  88.9713 300.5343 0013796 303.7808  56.2028 13.51036897 72801
QIANFAN-85              
1 63171U 25046N   26169.89061799  .00000110  00000+0  15239-3 0  9992
2 63171  88.9711 300.4049 0011247 307.1273  52.8850 13.51009598 72875
QIANFAN-86              
1 63172U 25046P   26169.89902251  .00000113  00000+0  15592-3 0  9995
2 63172  88.9714 300.2706 0009162 313.1350  46.9035 13.51016952 72953
QIANFAN-87              
1 63173U 25046Q   26169.87010235  .00000137  00000+0  19291-3 0  9992
2 63173  88.9711 300.3782 0009613 307.5297  52.4980 13.51018950 72887
QIANFAN-88              
1 63174U 25046R   26169.88661692  .00000118  00000+0  16467-3 0  9994
2 63174  88.9713 300.3357 0010216 316.8430  43.1919 13.51010390 72914
QIANFAN-89              
1 63175U 25046S   26169.92367069  .00000125  00000+0  17476-3 0  9990
2 63175  88.9712 300.5210 0014634 304.0609  55.9153 13.51017274 72817
QIANFAN-90              
1 63176U 25046T   26169.87825345  .00000127  00000+0  17794-3 0  9996
2 63176  88.9713 300.4984 0011534 303.3676  56.6371 13.51016083 72826
QIANFAN-91              
1 66033U 25233A   26169.91073865  .00000096  00000+0  12954-3 0  9994
2 66033  89.0001  43.0169 0001773  79.2406 280.8944 13.51011577 33414
QIANFAN-92              
1 66034U 25233B   26169.91894176  .00000093  00000+0  12585-3 0  9998
2 66034  88.9985  42.9875 0001979  76.3464 283.7907 13.51014694 33410
QIANFAN-93              
1 66035U 25233C   26169.92718747  .00000097  00000+0  13232-3 0  9993
2 66035  89.0011  43.0390 0001812  77.3975 282.7379 13.51013471 33415
QIANFAN-94              
1 66036U 25233D   26169.91484759  .00000091  00000+0  12278-3 0  9999
2 66036  89.0008  42.9435 0001968  80.3803 279.7570 13.51012082 33467
QIANFAN-95              
1 66037U 25233E   26169.92310940  .00000091  00000+0  12209-3 0  9995
2 66037  89.0005  42.4863 0001777  83.0651 277.0702 13.51013133 33718
QIANFAN-96              
1 66038U 25233F   26169.94778372  .00000090  00000+0  12139-3 0  9996
2 66038  89.0003  43.0271 0001709  80.1727 279.9617 13.51012168 33414
QIANFAN-97              
1 66039U 25233G   26169.93130723  .00000096  00000+0  13038-3 0  9993
2 66039  89.0006  43.0129 0001795  79.3816 280.7537 13.51012237 33423
QIANFAN-98              
1 66040U 25233H   26169.93951258  .00000095  00000+0  12784-3 0  9995
2 66040  88.9994  42.7428 0002264  88.3312 271.8098 13.51012284 33560
QIANFAN-99              
1 66041U 25233J   26169.94361241  .00000096  00000+0  13037-3 0  9997
2 66041  89.0006  43.0156 0002059  87.7337 272.4050 13.51012150 33423
QIANFAN-100             
1 66042U 25233K   26169.93549194  .00000100  00000+0  13667-3 0  9997
2 66042  89.0017  42.9437 0001791  78.0314 282.1038 13.50998472 33474
QIANFAN-101             
1 66043U 25233L   26169.90719697  .00000271  00000+0  10554-3 0  9993
2 66043  89.0000  40.3721 0016659 132.0833 228.1781 14.26808742 34875
QIANFAN-102             
1 66044U 25233M   26169.88191965  .00000087  00000+0  11625-3 0  9998
2 66044  89.0004  42.9315 0001961  81.6597 278.4776 13.51012100 33461
QIANFAN-103             
1 66045U 25233N   26169.88604562  .00000088  00000+0  11791-3 0  9996
2 66045  89.0007  43.0263 0001790  77.5762 282.5589 13.51012985 33411
QIANFAN-104             
1 66046U 25233P   26169.89017872  .00000100  00000+0  13621-3 0  9999
2 66046  89.0011  42.9282 0002050  80.0539 280.0843 13.50999807 33464
QIANFAN-105             
1 66047U 25233Q   26169.60219451  .00000103  00000+0  14060-3 0  9997
2 66047  89.0024  42.8005 0001815  82.5767 277.5591 13.51001433 33538
QIANFAN-106             
1 66048U 25233R   26169.37586257  .00000102  00000+0  13962-3 0  9992
2 66048  88.9994  43.0358 0002189  87.3312 272.8090 13.51012050 33349
QIANFAN-107             
1 66049U 25233S   26169.90250178  .00000100  00000+0  13571-3 0  9996
2 66049  89.0009  43.0153 0001835  78.5395 281.5962 13.51011540 33429
QIANFAN-108             
1 66050U 25233T   26169.90662262  .00000100  00000+0  13623-3 0  9997
2 66050  89.0003  43.0025 0002184  86.0576 274.0825 13.51012693 33421
QIANFAN-109             
1 68636U 26075A   26169.92072950  .00000077  00000+0  10018-3 0  9993
2 68636  88.9893 320.8339 0001568 104.6979 255.4346 13.51010640 10023
QIANFAN-110             
1 68637U 26075B   26169.92894991  .00000075  00000+0  97699-4 0  9990
2 68637  88.9893 320.8546 0002026  95.3771 264.7612 13.51011792 10028
QIANFAN-111             
1 68638U 26075C   26169.91663745  .00000023  00000+0  16332-4 0  9999
2 68638  88.9893 320.8159 0002037  72.7139 287.4235 13.50953227 10040
QIANFAN-112             
1 68639U 26075D   26169.87951990  .00000063  00000+0  79111-4 0  9995
2 68639  88.9891 320.8284 0001514  96.2234 263.9089 13.51023679 10039
QIANFAN-113             
1 68640U 26075E   26169.92483171  .00000032  00000+0  30282-4 0  9996
2 68640  88.9897 320.8175 0001911  93.9055 266.2314 13.51014556 10044
QIANFAN-114             
1 68641U 26075F   26169.93300013  .00000087  00000+0  11614-3 0  9998
2 68641  88.9892 320.8358 0001998  95.8685 264.2694 13.51013434 10030
QIANFAN-115             
1 68642U 26075G   26169.96180650  .00000085  00000+0  11340-3 0  9999
2 68642  88.9892 320.8400 0001911 100.3796 259.7571 13.51018734 10030
QIANFAN-116             
1 68643U 26075H   26169.94949014  .00000019  00000+0  11037-4 0  9996
2 68643  88.9884 320.8012 0001660  93.3266 266.8075 13.51021769 10046
QIANFAN-117             
1 68644U 26075J   26169.93716838  .00000076  00000+0  99739-4 0  9990
2 68644  88.9890 320.8182 0001761  98.7872 261.3478 13.51020717 10045
QIANFAN-118             
1 68645U 26075K   26169.89597497  .00000082  00000+0  10806-3 0  9998
2 68645  88.9895 320.8306 0002092  93.5788 266.5602 13.51019143 10032
QIANFAN-119             
1 68646U 26075L   26169.87131799  .00000061  00000+0  75841-4 0  9994
2 68646  88.9894 320.8286 0001693 102.4835 257.6505 13.51016939 10031
QIANFAN-120             
1 68647U 26075M   26169.88371798  .00000095  00000+0  12850-3 0  9998
2 68647  88.9896 320.8124 0001708 107.6750 252.4588 13.51004675 10044
QIANFAN-121             
1 68648U 26075N   26169.90834013  .00000085  00000+0  11341-3 0  9999
2 68648  88.9894 320.8148 0002059  95.5092 264.6294 13.51025428 10041
QIANFAN-122             
1 68649U 26075P   26169.90015141  .00000076  00000+0  99495-4 0  9990
2 68649  88.9893 320.8138 0001681 100.1068 260.0273 13.51013128 10036
QIANFAN-123             
1 68650U 26075Q   26169.86724303  .00000078  00000+0  10236-3 0  9991
2 68650  88.9889 320.8071 0001486 103.4667 256.6650 13.51011409 10011
QIANFAN-124             
1 68651U 26075R   26169.96598049  .00000080  00000+0  10479-3 0  9991
2 68651  88.9892 320.8060 0001620 100.1476 259.9858 13.51012488 10054
QIANFAN-125             
1 68652U 26075S   26169.90419171  .00000073  00000+0  94609-4 0  9994
2 68652  88.9892 320.8144 0002048  95.0624 265.0761 13.51024193 10046
QIANFAN-126             
1 68653U 26075T   26169.91249106  .00000050  00000+0  58765-4 0  9993
2 68653  88.9896 320.7793 0001500 104.0696 256.0622 13.51014819 10064
QIANFAN-127             
1 69073U 26104A   26169.91786093  .00000061  00000+0  32562-4 0  9993
2 69073  88.9910 341.4110 0008537  65.5377 294.6691 13.98846618  5323
QIANFAN-128             
1 69074U 26104B   26169.92549430  .00000037  00000+0  16550-4 0  9999
2 69074  88.9871 341.4349 0007782  71.9302 288.2723 13.97040674  5315
QIANFAN-129             
1 69075U 26104C   26169.91992903  .00000065  00000+0  33890-4 0  9993
2 69075  88.9868 341.3990 0006411  75.3330 284.8560 14.01460966  5339
QIANFAN-130             
1 69076U 26104D   26169.90857177  .00000069  00000+0  39431-4 0  9997
2 69076  88.9868 341.4347 0007155  78.2413 281.9567 13.97360090  5311
QIANFAN-131             
1 69077U 26104E   26169.92945396  .00000016  00000+0  15993-5 0  9991
2 69077  88.9825 341.4155 0008938  60.9568 299.2506 13.99927038  5320
QIANFAN-132             
1 69078U 26104F   26169.93654972  .00000030  00000+0  12416-4 0  9992
2 69078  88.9866 341.4388 0005958  75.5903 284.5934 13.94791680  5316
QIANFAN-133             
1 69079U 26104G   26169.89435459  .00000065  00000+0  34882-4 0  9994
2 69079  88.9916 341.4226 0008770  50.2619 309.9332 13.99488897  5315
QIANFAN-134             
1 69080U 26104H   26169.90602661  .00000055  00000+0  30821-4 0  9997
2 69080  88.9867 341.4338 0007964  65.3849 294.8156 13.95342663  5314
QIANFAN-135             
1 69081U 26104J   26169.88912049  .00000045  00000+0  22054-4 0  9997
2 69081  88.9970 341.4172 0011314  47.4360 312.7770 13.97268627  5310
QIANFAN-136             
1 69082U 26104K   26169.88430274  .00000035  00000+0  14917-4 0  9991
2 69082  88.9883 341.4330 0007977  79.7064 280.5013 13.97581433  5314
QIANFAN-137             
1 69083U 26104L   26169.92047501  .00000062  00000+0  25393-4 0  9994
2 69083  88.9865 341.3797 0006465  88.2773 271.9153 14.12978955  5343
QIANFAN-138             
1 69084U 26104M   26169.86905153  .00000016  00000+0  16851-5 0  9993
2 69084  88.9861 341.4283 0005886  78.4973 281.6865 13.97110265  5319
QIANFAN-139             
1 69085U 26104N   26169.92642786  .00000029  00000+0  10272-4 0  9995
2 69085  88.9873 341.4154 0006974  67.3000 292.8915 13.99275133  5326
QIANFAN-140             
1 69086U 26104P   26169.92232280  .00000044  00000+0  21222-4 0  9994
2 69086  88.9869 341.4184 0005855  75.4341 284.7486 13.98708575  5323
QIANFAN-141             
1 69087U 26104Q   26169.91108290  .00000089  00000+0  50895-4 0  9994
2 69087  88.9877 341.4133 0006785  62.5700 297.6168 13.99990521  5321
QIANFAN-142             
1 69088U 26104R   26168.96887287 -.02144030  00000+0 -15756+1 0  9991
2 69088  88.9833 341.5184 0002956 153.9723 206.1605 14.00030456  5198
QIANFAN-143             
1 69089U 26104S   26169.87804404  .00000015  00000+0  82483-6 0  9990
2 69089  88.9865 341.4112 0006660  67.9393 292.2493 14.01557386  5320
QIANFAN-144             
1 69090U 26104T   26169.88766587  .00000048  00000+0  22414-4 0  9994
2 69090  88.9921 341.4346 0007654  75.8847 284.3183 14.01527152  5326
QIANFAN-145             
1 69104U 26108A   26169.88416564  .00000090  00000+0  51885-4 0  9992
2 69104  89.0105  22.0426 0016022  99.9275 260.3713 14.00128163  4577
QIANFAN-146             
1 69105U 26108B   26169.96564759  .00000045  00000+0  17003-4 0  9996
2 69105  89.0112  22.0025 0017490 102.6228 257.6914 14.11380385  4605
QIANFAN-147             
1 69106U 26108C   26169.85806703  .00000051  00000+0  24260-4 0  9993
2 69106  89.0107  22.0393 0015869  97.6896 262.6087 14.02114967  4574
QIANFAN-148             
1 69107U 26108D   26169.85361372  .00000033  00000+0  12708-4 0  9996
2 69107  89.0100  22.0373 0017392 102.5057 257.8070 14.01701454  4574
QIANFAN-149             
1 69108U 26108E   26169.85459350  .00000038  00000+0  16151-4 0  9992
2 69108  89.0109  22.0402 0017186 103.7923 256.5170 14.00738213  4572
QIANFAN-150             
1 69109U 26108F   26169.97379989 -.00000044  00000+0 -36884-4 0  9999
2 69109  89.0111  22.0220 0017314 104.1743 256.1363 14.03920770  4598
QIANFAN-151             
1 69110U 26108G   26169.83069470 -.00000025  00000+0 -25262-4 0  9994
2 69110  89.0109  22.0371 0017729 102.1173 258.1994 14.02333388  4571
QIANFAN-152             
1 69111U 26108H   26169.88601129  .00000120  00000+0  67272-4 0  9994
2 69111  89.0106  22.0250 0015803 102.5929 257.7021 14.03800593  4584
QIANFAN-153             
1 69112U 26108J   26169.88536168  .00000114  00000+0  64725-4 0  9998
2 69112  89.0101  22.0250 0017268 105.2644 255.0447 14.02876506  4580
QIANFAN-154             
1 69113U 26108K   26169.87544524  .00000120  00000+0  69213-4 0  9997
2 69113  89.0109  22.0235 0015665 101.8514 258.4424 14.02172601  4586
QIANFAN-155             
1 69114U 26108L   26169.88257352  .00000121  00000+0  69940-4 0  9997
2 69114  89.0100  22.0243 0017982 102.4566 257.8628 14.02055658  4586
QIANFAN-156             
1 69115U 26108M   26169.85748919  .00000056  00000+0  25652-4 0  9998
2 69115  89.0111  22.0230 0018569 101.2946 259.0324 14.06100673  4585
QIANFAN-157             
1 69116U 26108N   26169.88683398  .00000103  00000+0  52051-4 0  9997
2 69116  89.0099  22.0117 0017052 106.4376 253.8683 14.07975798  4595
QIANFAN-158             
1 69117U 26108P   26169.83990872 -.00000020  00000+0 -20368-4 0  9997
2 69117  89.0107  22.0164 0016970 105.3924 254.9135 14.07514005  4586
QIANFAN-159             
1 69118U 26108Q   26169.83557905 -.00000042  00000+0 -34204-4 0  9992
2 69118  89.0101  22.0154 0016743 102.0518 258.2542 14.05957195  4589
QIANFAN-160             
1 69119U 26108R   26169.83494866 -.00000047  00000+0 -37662-4 0  9995
2 69119  89.0092  22.0202 0016310 102.3896 257.9112 14.05348454  4586
QIANFAN-161             
1 69120U 26108S   26169.88687557  .00000104  00000+0  52854-4 0  9995
2 69120  89.0134  22.0084 0015888 103.9372 256.3579 14.07822014  4590
QIANFAN-162             
1 69121U 26108T   26169.88707660  .00000110  00000+0  57618-4 0  9994
2 69121  89.0040  22.0058 0017379 112.1311 248.1719 14.06954337  4598
QIANFAN-163             
1 69325U 26121A   26169.91826670  .00000026  00000+0  18348-4 0  9995
2 69325  89.0151 300.3404 0020272 183.9154 176.1846 13.59758413  2392
QIANFAN-164             
1 69326U 26121B   26162.41240743  .00000112  00000+0  13228-3 0  9992
2 69326  89.0157 301.0998 0019383 205.3125 154.7084 13.60355109  1373
QIANFAN-165             
1 69382U 26124A   26169.59813247 -.01545302  00000+0 -93648+0 0  9996
2 69382  88.9979   1.8804 0008627 133.2213 226.9694 14.10089926  2010
QIANFAN-166             
1 69383U 26124B   26169.94714826  .00000110  00000+0  47602-4 0  9993
2 69383  88.9984   1.8397 0002711 106.5155 253.6332 14.17059717  2063
QIANFAN-167             
1 69384U 26124C   26169.94798799  .00000059  00000+0  22354-4 0  9994
2 69384  88.9984   1.8397 0002104 153.6812 206.4483 14.16526158  2063
QIANFAN-168             
1 69385U 26124D   26169.87202050  .00000084  00000+0  33939-4 0  9996
2 69385  88.9983   1.8470 0003222 129.0186 231.1290 14.17873075  2052
QIANFAN-169             
1 69386U 26124E   26169.93970575  .00000073  00000+0  28683-4 0  9996
2 69386  88.9983   1.8385 0003300 147.1468 212.9927 14.18286611  2069
QIANFAN-170             
1 69387U 26124F   26169.93600094  .00000078  00000+0  30572-4 0  9998
2 69387  88.9983   1.8379 0003163 123.2539 236.8954 14.19183624  2060
QIANFAN-171             
1 69388U 26124G   26169.93196831  .00000379  00000+0  17148-3 0  9995
2 69388  88.9983   1.8371 0002136 172.5336 187.5887 14.20068421  2060
QIANFAN-172             
1 69389U 26124H   26169.93363596  .00000045  00000+0  14701-4 0  9993
2 69389  88.9984   1.8375 0002507 147.4625 212.6720 14.19638234  2069
QIANFAN-173             
1 69390U 26124J   26169.93012010  .00000055  00000+0  18816-4 0  9999
2 69390  88.9983   1.8370 0002853 137.9837 222.1572 14.20509690  2064
QIANFAN-174             
1 69391U 26124K   26169.92664574  .00000040  00000+0  12021-4 0  9993
2 69391  88.9983   1.8365 0003007 145.7972 214.3413 14.20878005  2064
QIANFAN-175             
1 69392U 26124L   26169.92574655  .00000033  00000+0  84122-5 0  9998
2 69392  88.9983   1.8364 0003475 164.3568 195.7731 14.21339505  2064
QIANFAN-176             
1 69393U 26124M   26169.92355490  .00000089  00000+0  34025-4 0  9990
2 69393  88.9983   1.8359 0002412 165.5520 194.5740 14.21840926  2061
QIANFAN-177             
1 69394U 26124N   26169.92067928  .00000069  00000+0  24325-4 0  9997
2 69394  88.9983   1.8356 0003722 140.6422 219.5041 14.22730269  2060
QIANFAN-178             
1 69395U 26124P   26169.92186394  .00000270  00000+0  11499-3 0  9998
2 69395  88.9983   1.8356 0002949 149.3123 210.8241 14.22274025  2064
QIANFAN-179             
1 69396U 26124Q   26169.91883304  .00000070  00000+0  24577-4 0  9993
2 69396  88.9983   1.8352 0002970 144.5830 215.5560 14.23096952  2065
QIANFAN-180             
1 69397U 26124R   26169.91783408  .00000069  00000+0  24047-4 0  9998
2 69397  88.9983   1.8353 0003139 157.8307 202.3021 14.23618439  2067
QIANFAN-181             
1 69398U 26124S   26169.94994696  .00000059  00000+0  22346-4 0  9994
2 69398  88.9983   1.8400 0002592 109.9808 250.1659 14.16649218  2066
QIANFAN-182             
1 69399U 26124T   26169.93826647  .00000070  00000+0  26952-4 0  9994
2 69399  88.9984   1.8383 0002486 134.6019 225.5374 14.18738319  2062
QIANFAN-183             
1 69401U 26125A   26169.89408934  .00000086  00000+0  36229-4 0  9994
2 69401  88.9952 280.2577 0014390 167.4933 192.6615 14.16459798  1942
QIANFAN-184             
1 69402U 26125B   26169.74546627 -.01788936  00000+0 -10514+1 0  9996
2 69402  88.9948 280.2731 0019672 157.6032 202.6017 14.12272990  1928
QIANFAN-185             
1 69403U 26125C   26169.81808796  .00000399  00000+0  19161-3 0  9990
2 69403  88.9953 280.2649 0015677 161.9300 198.2449 14.16970605  1932
QIANFAN-186             
1 69404U 26125D   26169.81102573 -.01777206  00000+0 -10321+1 0  9998
2 69404  88.9949 280.2642 0017968 158.3624 201.8326 14.12912241  1938
QIANFAN-187             
1 69405U 26125E   26169.95115533  .00000090  00000+0  36798-4 0  9991
2 69405  88.9953 280.2477 0015127 164.0180 196.1490 14.18341054  1950
QIANFAN-188             
1 69406U 26125F   26169.94749619  .00000089  00000+0  35291-4 0  9994
2 69406  88.9953 280.2471 0015018 167.8092 192.3464 14.19433256  1953
QIANFAN-189             
1 69407U 26125G   26169.94762570  .00000283  00000+0  12921-3 0  9996
2 69407  88.9953 280.2471 0014313 164.8195 195.3427 14.18752632  1955
QIANFAN-190             
1 69408U 26125H   26169.94603447  .00000251  00000+0  11296-3 0  9993
2 69408  88.9953 280.2469 0015039 166.7531 193.4056 14.19215715  1958
QIANFAN-191             
1 69409U 26125J   26169.58792843 -.01745749  00000+0 -96513+0 0  9995
2 69409  88.9945 280.2866 0013964 180.2520 179.8663 14.15540998  1902
QIANFAN-192             
1 69410U 26125K   26169.72680196 -.01706217  00000+0 -93856+0 0  9994
2 69410  88.9952 280.2701 0013805 178.5133 181.6099 14.15717828  1928
QIANFAN-193             
1 69411U 26125L   26169.93657101  .00000092  00000+0  35623-4 0  9996
2 69411  88.9953 280.2455 0015250 166.4171 193.7433 14.20954987  1954
QIANFAN-194             
1 69412U 26125M   26169.79265466 -.01679292  00000+0 -91050+0 0  9998
2 69412  88.9948 280.2612 0013184 186.7927 173.3084 14.16436752  1925
QIANFAN-195             
1 69413U 26125N   26169.58019515 -.01641625  00000+0 -88347+0 0  9992
2 69413  88.9948 280.2850 0012051 182.1840 177.9298 14.16754343  1900
QIANFAN-196             
1 69414U 26125P   26169.57913958 -.01982356  00000+0 -10251+1 0  9995
2 69414  88.9945 280.2855 0015615 187.0956 173.0015 14.18975186  1900
QIANFAN-197             
1 69415U 26125Q   26168.73413150 -.01839226  00000+0 -94391+0 0  9995
2 69415  88.9946 280.3814 0008556 187.5656 172.5406 14.19130968  1771
QIANFAN-198             
1 69416U 26125R   26168.59394481 -.01823161  00000+0 -95083+0 0  9995
2 69416  88.9946 280.3979 0016538 188.5541 171.5369 14.18185467  1766
QIANFAN-199             
1 69417U 26125S   26169.78721157 -.01819140  00000+0 -92948+0 0  9991
2 69417  88.9947 280.2605 0012814 179.8190 180.3006 14.19302064  1939
QIANFAN-200             
1 69418U 26125T   26169.94313043  .00000338  00000+0  15303-3 0  9993
2 69418  88.9953 280.2465 0015207 164.3728 195.7935 14.19634447  1952
