IRIDIUM 7               
1 24793U 97020B   26050.12279010  .00000317  00000+0  10219-3 0  9994
2 24793  86.3899  73.3986 0002421  83.6481 276.4992 14.36169375507337
IRIDIUM 5               
1 24795U 97020D   26050.17671878  .00006487  00000+0  49932-3 0  9997
2 24795  86.3920 329.5836 0101560 331.3831  28.1846 14.97410941522387
IRIDIUM 4               
1 24796U 97020E   26050.09037335  .00000324  00000+0  10243-3 0  9990
2 24796  86.3896  70.1218 0002372  88.9633 271.1837 14.37077009507920
IRIDIUM 914             
1 24836U 97030A   26050.16424128  .00000363  00000+0  10633-3 0  9990
2 24836  86.3877  77.9677 0003691 104.2434 255.9176 14.41143084642696
IRIDIUM 16              
1 24841U 97030F   26050.14880573  .00000365  00000+0  11185-3 0  9999
2 24841  86.3997 101.5619 0002291  36.1957 323.9396 14.38967644502511
IRIDIUM 911             
1 24842U 97030G   26050.13159169  .00000434  00000+0  11131-3 0  9997
2 24842  86.4419 100.0627 0013966   3.6587 356.4716 14.47996596510811
IRIDIUM 17              
1 24870U 97034B   26050.28548169  .00000399  00000+0  12518-3 0  9990
2 24870  86.3985 130.9349 0000666  73.8665 286.2607 14.38105532499098
IRIDIUM 920             
1 24871U 97034C   26050.11022933  .00000335  00000+0  96440-4 0  9996
2 24871  86.3954 109.6543 0011066 358.4024   1.7139 14.41808452502158
IRIDIUM 26              
1 24903U 97043A   26050.27082176  .00000425  00000+0  13584-3 0  9991
2 24903  86.3993   6.7520 0002176  80.6657 279.4787 14.37399207492235
IRIDIUM 22              
1 24907U 97043E   26050.26754211  .00000340  00000+0  10998-3 0  9992
2 24907  86.3993  10.5038 0002064  86.1098 274.0334 14.36181397492239
DUMMY MASS 1            
1 24925U 97048A   26049.96466094  .00000470  00000+0  48986-4 0  9994
2 24925  86.3355  21.1168 0006755  12.7973 347.3422 14.87255093541802
DUMMY MASS 2            
1 24926U 97048B   26049.96808989  .00000458  00000+0  47964-4 0  9999
2 24926  86.3352  22.7674 0007979  21.4572 338.6986 14.87004750541574
IRIDIUM 29              
1 24944U 97051A   26050.06047566  .00000354  00000+0  11333-3 0  9997
2 24944  86.3931  40.2330 0002162  92.3557 267.7888 14.36726486488710
IRIDIUM 33              
1 24946U 97051C   26050.03936573  .00000267  00000+0  86637-4 0  9994
2 24946  86.3847  39.5289 0007970   8.3016 351.8311 14.35088614488147
IRIDIUM 28              
1 24948U 97051E   26050.01801621  .00000367  00000+0  11591-3 0  9996
2 24948  86.3941  37.6275 0002244  74.0009 286.1436 14.37620924489304
IRIDIUM 36              
1 24967U 97056C   26050.08192664  .00000371  00000+0  11671-3 0  9993
2 24967  86.3905  69.2262 0002039  85.4977 274.6454 14.37854591487695
IRIDIUM 39              
1 25042U 97069D   26050.14764293  .00000542  00000+0  13555-3 0  9995
2 25042  86.3885 105.2873 0017113 194.0181 166.0551 14.49627665484736
IRIDIUM 38              
1 25043U 97069E   26050.29348318  .00000408  00000+0  12734-3 0  9997
2 25043  86.3982 129.2886 0002990  55.6449 304.5032 14.38397842481471
IRIDIUM 42              
1 25077U 97077A   26050.25654841  .00000420  00000+0  13627-3 0  9996
2 25077  86.4000 135.7827 0002632  79.4275 280.7219 14.36607665476663
IRIDIUM 44              
1 25078U 97077B   26050.16874409  .00000323  00000+0  95487-4 0  9998
2 25078  86.3956 117.0799 0000873  41.4771 318.6495 14.40498388479259
IRIDIUM 45              
1 25104U 97082A   26050.12511675  .00022526  00000+0  56286-3 0  9995
2 25104  86.3503 286.8637 0092307 117.2471 243.8223 15.35615418489759
IRIDIUM 24              
1 25105U 97082B   26050.23599967  .00000530  00000+0  15417-3 0  9990
2 25105  86.3959 335.4997 0011025 352.9920   7.1125 14.42420377478823
IRIDIUM 51              
1 25262U 98018A   26050.12790393  .00295010  29437-4  10611-2 0  9997
2 25262  86.3608 290.5644 0027520   9.0338 351.1431 15.88014715485396
IRIDIUM 57              
1 25273U 98019B   26050.05665241  .00000312  00000+0  10050-3 0  9992
2 25273  86.3931  41.7117 0002177  84.9736 275.1710 14.36109064460216
IRIDIUM 63              
1 25286U 98021B   26050.22708276  .00000403  00000+0  12981-3 0  9990
2 25286  86.4033 338.4855 0002109  91.8943 268.2496 14.36808691459316
IRIDIUM 69              
1 25319U 98026A   26050.24047460  .00000500  00000+0  14867-3 0  9998
2 25319  86.4027 350.9830 0000902 355.2146   4.9045 14.41299339458648
IRIDIUM 71              
1 25320U 98026B   26050.29224591  .00000457  00000+0  13514-3 0  9996
2 25320  86.4027 345.6317 0002960  41.1523 318.9899 14.41387666459183
IRIDIUM 73              
1 25344U 98032C   26050.14012825  .00000503  00000+0  11916-3 0  9994
2 25344  86.4415 301.9317 0001620  99.0768 261.0621 14.52101677466390
IRIDIUM 82              
1 25467U 98051A   26050.26503624  .00066645  00000+0  92846-3 0  9996
2 25467  86.3624 346.4153 0056563  67.7811 292.9438 15.54764842462012
