KUIPER-00008            
1 63724U 25088A   26072.91668981  .00010416  00000+0  13488-2 0  9997
2 63724  51.8999  68.7073 0000374 280.6555   0.7982 14.81299235  4443
KUIPER-00009            
1 63725U 25088B   26072.42954091  .00004005  00000+0  55346-3 0  9991
2 63725  51.9021  90.1010 0007845 107.6355 252.5465 14.79977039 48338
KUIPER-00010            
1 63726U 25088C   26072.42179484 -.00000904  00000+0 -89672-4 0  9993
2 63726  51.9010  66.5890 0000692  96.1735 263.9306 14.79924366 48286
KUIPER-00011            
1 63727U 25088D   26072.44763592  .00003535  00000+0  49339-3 0  9991
2 63727  51.9003  74.0416 0000984 104.4385 255.6687 14.79854248 48310
KUIPER-00012            
1 63728U 25088E   26072.36234295  .00001676  00000+0  24898-3 0  9993
2 63728  51.9016  59.3399 0000868  72.9951 287.1107 14.79893858 48463
KUIPER-00013            
1 63729U 25088F   26072.42855252  .00004091  00000+0  56610-3 0  9994
2 63729  51.9004  91.5638 0002155  61.8934 298.2246 14.79876142 48121
KUIPER-00014            
1 63730U 25088G   26072.42704737  .00003477  00000+0  48564-3 0  9993
2 63730  51.9002  92.5420 0000669  46.7183 313.3835 14.79864925 47923
KUIPER-00015            
1 63731U 25088H   26072.29312337  .00003225  00000+0  41434-3 0  9990
2 63731  51.8991 102.3062 0009474  84.4112 275.7932 14.83630453 48232
KUIPER-00016            
1 63732U 25088J   26072.28926152  .00003969  00000+0  54912-3 0  9996
2 63732  51.8992  95.6810 0006471  85.4530 274.7171 14.79946828 47861
KUIPER-00018            
1 63733U 25088K   26072.43666228  .00003266  00000+0  45750-3 0  9999
2 63733  51.9016  83.9996 0000684 101.6743 258.4296 14.79907776 48049
KUIPER-00019            
1 63734U 25088L   26072.30267713  .00001231  00000+0  19048-3 0  9993
2 63734  51.8996  83.1186 0000590  77.2339 282.8690 14.79927053 48043
KUIPER-00020            
1 63735U 25088M   26072.43371933  .00004169  00000+0  57416-3 0  9992
2 63735  51.9000  86.5312 0006564  91.7891 268.3823 14.80036264 48213
KUIPER-00021            
1 63736U 25088N   26072.43215660  .00004025  00000+0  55581-3 0  9999
2 63736  51.9000  87.5329 0003463  91.8245 268.3114 14.80006332 48038
KUIPER-00023            
1 63737U 25088P   26072.29635389  .00003342  00000+0  46750-3 0  9997
2 63737  51.8997  89.5974 0008215 108.6962 251.4893 14.79901386 48290
KUIPER-00024            
1 63738U 25088Q   26072.30973161 -.00000740  00000+0 -68101-4 0  9999
2 63738  51.9039  77.1042 0000642  59.7178 300.3848 14.79907320 48590
KUIPER-00025            
1 63739U 25088R   26072.33258245  .00004125  00000+0  52316-3 0  9991
2 63739  51.9018  85.1532 0000707  19.0352 341.0638 14.83560746 48340
KUIPER-00027            
1 63740U 25088S   26072.44205054  .00005887  00000+0  80025-3 0  9999
2 63740  51.9017  78.9912 0000921  85.9508 274.1560 14.79948632 48176
KUIPER-00028            
1 63741U 25088T   26072.41112191  .00003647  00000+0  50740-3 0  9999
2 63741  51.8992  76.5979 0001133  64.7397 295.3683 14.79911058 48614
KUIPER-00029            
1 63742U 25088U   26072.91668981  .00022086  00000+0  29146-2 0  9991
2 63742  51.9011  71.9062 0000882 104.3445  57.5440 14.79962592  5605
KUIPER-00030            
1 63743U 25088V   26072.42567740  .00003971  00000+0  54842-3 0  9993
2 63743  51.9005  94.0232 0010909  81.3811 278.8387 14.80010955 48183
KUIPER-00031            
1 63744U 25088W   26072.40930994  .00004198  00000+0  53010-3 0  9995
2 63744  51.8994  79.1438 0001848 149.4110 210.6962 14.83701077 48102
KUIPER-00032            
1 63745U 25088X   26072.95848810  .00018330  00000+0  49975-3 0  9999
2 63745  51.8708   3.5783 0005252 126.4708 233.6763 15.37500668 50202
KUIPER-00033            
1 63746U 25088Y   26072.79850293  .00005058  00000+0  63571-3 0  9991
2 63746  51.8989 107.5839 0001034  46.2906 313.8143 14.83520796 48220
KUIPER-00034            
1 63747U 25088Z   26070.73284781 -.00108226  00000+0 -13376-1 0  9996
2 63747  51.9016  79.1099 0000732  61.1345 298.9692 14.82997740 48129
KUIPER-00035            
1 63748U 25088AA  26072.79290067  .00005231  00000+0  65911-3 0  9993
2 63748  51.8990  95.6247 0003947  82.6208 277.5205 14.83357909 48126
KUIPER-00037            
1 63749U 25088AB  26072.28807956  .00003735  00000+0  51860-3 0  9994
2 63749  51.8994  97.1466 0000831  83.9669 276.1388 14.79939195 48849
KUIPER-00038            
1 63750U 25088AC  26072.43955205  .00001700  00000+0  25233-3 0  9999
2 63750  51.9022  81.5109 0000736  98.5224 261.5822 14.79873925 48072
KUIPER-00039            
1 64500U 25134A   26072.41193286 -.00004646  00000+0 -58086-3 0  9992
2 64500  51.9004 216.6318 0000932  60.3031 299.8024 14.79927642 40627
KUIPER-00040            
1 64501U 25134B   26072.46693275  .00004329  00000+0  59580-3 0  9997
2 64501  51.8987 227.5286 0012552 279.7385  80.2160 14.79957340 40475
KUIPER-00041            
1 64502U 25134C   26072.81679672  .00004439  00000+0  62757-3 0  9994
2 64502  51.8985 227.4681 0007090 280.3421  79.6741 14.78773872 40508
KUIPER-00042            
1 64503U 25134D   26071.72665111 -.00006861  00000+0 -87071-3 0  9996
2 64503  51.8981 228.1597 0006865 290.6820  69.3406 14.79961569 40401
KUIPER-00043            
1 64504U 25134E   26072.91668981  .00017652  00000+0  23380-2 0  9997
2 64504  51.8998 214.3380 0000676  66.7230 284.0891 14.79938466  5762
KUIPER-00044            
1 64505U 25134F   26072.86938902  .00004774  00000+0  65389-3 0  9992
2 64505  51.8988 228.1058 0007807 290.0096  70.0025 14.79986281 40503
KUIPER-00046            
1 64506U 25134G   26072.46867683  .00000911  00000+0  14850-3 0  9992
2 64506  51.8960 226.3368 0000782 115.6968 244.4075 14.79933689 40497
KUIPER-00047            
1 64507U 25134H   26072.36331351  .00004399  00000+0  64350-3 0  9994
2 64507  51.8983 199.6658 0002332 149.6246 210.4850 14.77325752 40854
KUIPER-00048            
1 64508U 25134J   26072.36318162  .00005370  00000+0  73235-3 0  9992
2 64508  51.8983 199.3335 0000852  99.0710 261.0349 14.79961083 40864
KUIPER-00049            
1 64509U 25134K   26071.70894573  .00005862  00000+0  73483-3 0  9996
2 64509  51.8994 215.3809 0001485 141.7364 218.3706 14.83382141 40583
KUIPER-00050            
1 64510U 25134L   26072.36389773 -.00001866  00000+0 -13763-3 0  9999
2 64510  51.8880 195.2578 0004585 333.5052  26.5683 14.97142309 40923
KUIPER-00051            
1 64511U 25134M   26072.39342793 -.00035927  00000+0 -43048-2 0  9997
2 64511  51.9023 209.2974 0004302 295.0705  64.9813 14.83652376 40728
KUIPER-00053            
1 64513U 25134P   26072.35514544  .00003164  00000+0  44371-3 0  9997
2 64513  51.9004 206.8871 0000573 172.2125 187.8846 14.79948628 40753
KUIPER-00054            
1 64514U 25134Q   26072.76576696 -.00001183  00000+0 -12625-3 0  9997
2 64514  51.8988 200.0411 0000546  32.6249 327.4747 14.79925495 40889
KUIPER-00055            
1 64515U 25134R   26072.45102380  .00016278  00000+0  74389-3 0  9993
2 64515  51.8888 162.0455 0002052  31.2998 328.8104 15.20690994 41393
KUIPER-00056            
1 64516U 25134S   26072.91668981 -.00022614  00000+0 -28881-2 0  9997
2 64516  51.9004 204.4307 0001150 117.2193 172.8901 14.80780005  4762
KUIPER-00057            
1 64517U 25134T   26072.91668981 -.00011187  00000+0 -13933-2 0  9993
2 64517  51.8983 211.9022 0001311 148.5318 180.2955 14.81327541  4541
KUIPER-00058            
1 64518U 25134U   26072.42002056  .00005193  00000+0  70958-3 0  9994
2 64518  51.8996 209.0376 0000735  91.0905 269.0142 14.79941334 40733
KUIPER-00059            
1 64519U 25134V   26072.35799583  .00004868  00000+0  66761-3 0  9990
2 64519  51.8984 204.3639 0000864 177.5501 182.5466 14.79902302 40792
KUIPER-00060            
1 64520U 25134W   26072.91668981 -.00028270  00000+0 -36828-2 0  9996
2 64520  51.9008 201.9216 0001456 114.9915 167.0950 14.80069210  4136
KUIPER-00061            
1 64521U 25134X   26072.75496855  .00000900  00000+0  14714-3 0  9997
2 64521  51.9012 210.1130 0001079 134.9883 225.1167 14.79918770 40730
KUIPER-00062            
1 64522U 25134Y   26072.75222419  .00000174  00000+0  51785-4 0  9994
2 64522  51.8945 212.6566 0000441  70.3772 289.7237 14.79937701 40714
KUIPER-00063            
1 64523U 25134Z   26072.81167847  .00003887  00000+0  53879-3 0  9994
2 64523  51.9017 219.8741 0000805 146.4724 213.6290 14.79920047 40615
KUIPER-00064            
1 64524U 25134AA  26072.81434693  .00005165  00000+0  70625-3 0  9990
2 64524  51.9013 217.2812 0000978 101.3510 258.7563 14.79919720 40650
KUIPER-00065            
1 64525U 25134AB  26072.40379390  .00000430  00000+0  85461-4 0  9993
2 64525  51.9029 224.2543 0000581 120.6858 239.4162 14.79931016 40503
KUIPER-00066            
1 64526U 25134AC  26072.96745177  .00019301  00000+0  81737-3 0  9993
2 64526  51.8704 163.7695 0001885  10.4994 349.6026 15.23173581 41412
KUIPER-00069            
1 64816U 25151A   26072.56330086  .00004581  00000+0  62943-3 0  9991
2 64816  51.9003 263.4950 0000598 101.9196 258.1833 14.79937988 37334
KUIPER-00070            
1 64817U 25151B   26072.84021049  .00001294  00000+0  19875-3 0  9993
2 64817  51.9013 287.2104 0000743  76.7744 283.3301 14.79932826 37034
KUIPER-00071            
1 64818U 25151C   26072.84258186  .00003755  00000+0  52399-3 0  9990
2 64818  51.9004 284.7164 0000949  93.1878 266.9192 14.79711619 35883
KUIPER-00072            
1 64819U 25151D   26072.83066331 -.00004762  00000+0 -59635-3 0  9990
2 64819  51.8965 264.7552 0000734 110.4568 249.6473 14.79915496 36160
KUIPER-00073            
1 64820U 25151E   26072.87668560  .00003872  00000+0  53669-3 0  9998
2 64820  51.8996 284.5610 0000546 105.5064 254.5958 14.79928787 37079
KUIPER-00074            
1 64821U 25151F   26072.91668981  .01527415  00000+0  59357-1 0  9994
2 64821  51.9189 269.4403 0002649 350.0229 335.4539 15.22441819  5088
KUIPER-00075            
1 64822U 25151G   26072.73015245  .00077480  00000+0  17992-2 0  9995
2 64822  51.8695 202.1124 0004284 306.2084  53.8508 15.41665245 37021
KUIPER-00076            
1 64823U 25151H   26072.80762422  .00004140  00000+0  56348-3 0  9992
2 64823  51.8998 274.7524 0000889  37.1278 322.9746 14.80551158 36021
KUIPER-00077            
1 64824U 25151J   26070.85373223  .00003534  00000+0  48917-3 0  9992
2 64824  51.9018 288.5064 0000816 209.9627 150.1289 14.80212799 35662
KUIPER-00078            
1 64825U 25151K   26072.85106787  .00003612  00000+0  50267-3 0  9992
2 64825  51.8998 277.1878 0000993  79.2652 280.8422 14.79925221 35993
KUIPER-00079            
1 64826U 25151L   26072.60910057  .00001984  00000+0  28917-3 0  9996
2 64826  51.8986 283.2289 0000786  80.8422 279.2630 14.79937625 37084
KUIPER-00080            
1 64827U 25151M   26072.91314158  .00004061  00000+0  56141-3 0  9990
2 64827  51.8985 281.8945 0000864 102.2442 257.8617 14.79935599 35932
KUIPER-00082            
1 64828U 25151N   26072.82532974  .00004166  00000+0  57531-3 0  9999
2 64828  51.9006 269.8148 0000652  96.8411 263.2626 14.79924358 36098
KUIPER-00083            
1 64829U 25151P   26072.81726004 -.00001582  00000+0 -17862-3 0  9992
2 64829  51.8977 277.3384 0000645 144.9271 215.1734 14.79909701 37173
KUIPER-00084            
1 64830U 25151Q   26072.87397457  .00003575  00000+0  49800-3 0  9995
2 64830  51.9004 287.0738 0000503  73.8043 286.2974 14.79903413 35850
KUIPER-00085            
1 64831U 25151R   26072.92669947  .00004285  00000+0  59094-3 0  9993
2 64831  51.9028 269.3959 0000724  98.4862 261.6182 14.79920640 36100
KUIPER-00086            
1 64832U 25151S   26072.84835220  .00003711  00000+0  51565-3 0  9992
2 64832  51.9005 279.7113 0000901  74.2825 285.8236 14.79928475 35955
KUIPER-00087            
1 64833U 25151T   26072.52952553  .00004065  00000+0  56169-3 0  9995
2 64833  51.8985 263.6006 0000551  61.6766 298.4252 14.79944202 36146
KUIPER-00089            
1 64834U 25151U   26072.59113347 -.00012521  00000+0 -16246-2 0  9992
2 64834  51.9001 268.3324 0001011  90.7163 269.3915 14.79722171 36094
KUIPER-00090            
1 64835U 25151V   26072.80234263  .00002949  00000+0  41558-3 0  9994
2 64835  51.8976 259.9351 0000645  95.2295 264.8741 14.79943245 36228
KUIPER-00091            
1 64836U 25151W   26072.93279904  .00056116  00000+0  72899-2 0  9996
2 64836  51.8997 264.3440 0001191  74.6110 285.4984 14.80156471 36176
KUIPER-00092            
1 64837U 25151X   26072.58634698  .00004100  00000+0  56667-3 0  9995
2 64837  51.9000 273.3662 0000878  96.2890 263.8172 14.79921507 37230
KUIPER-00093            
1 64838U 25151Y   26072.85369298  .00003933  00000+0  54514-3 0  9999
2 64838  51.8992 274.6643 0000889  85.3686 274.7378 14.79887823 36024
KUIPER-00094            
1 64839U 25151Z   26072.49879014  .00010521  00000+0  76357-3 0  9992
2 64839  51.8884 244.8639 0005594 303.1178  56.9258 15.04378868 36417
KUIPER-00081            
1 65132U 25171A   26072.84124260  .00001647  00000+0  24517-3 0  9996
2 65132  51.8990 129.7154 0000780  66.5158 293.5886 14.79908233 33650
KUIPER-00088            
1 65133U 25171B   26072.91668981 -.00027145  00000+0 -35460-2 0  9999
2 65133  51.8987 146.8885 0000805  91.6441  51.3591 14.79933125  3524
KUIPER-00095            
1 65134U 25171C   26072.91668981  .00004028  00000+0  55674-3 0  9993
2 65134  51.8969 126.9574 0001974 108.6117 279.0026 14.79959160  2175
KUIPER-00096            
1 65135U 25171D   26072.59412956  .00004742  00000+0  65053-3 0  9992
2 65135  51.8977 140.8137 0000556 113.8007 246.3013 14.79939272 33478
KUIPER-00097            
1 65136U 25171E   26072.18626634 -.00001728  00000+0 -19782-3 0  9999
2 65136  51.8990 145.2489 0000764  63.9853 296.1188 14.79924834 33360
KUIPER-00098            
1 65137U 25171F   26072.92637078  .00005212  00000+0  71173-3 0  9998
2 65137  51.9017 144.3536 0001315 196.3876 163.7044 14.79962688 32799
KUIPER-00099            
1 65138U 25171G   26072.90421081  .00004287  00000+0  59027-3 0  9997
2 65138  51.9025 134.4438 0000551  38.1848 321.9154 14.79983327 33584
KUIPER-00100            
1 65139U 25171H   26072.87233667  .00004400  00000+0  60570-3 0  9997
2 65139  51.9009 132.0576 0000798  70.4275 289.6773 14.79939265 33613
KUIPER-00102            
1 65140U 25171J   26072.86880602  .00004502  00000+0  61666-3 0  9995
2 65140  51.8978 134.5889 0000458  59.1984 300.9024 14.80103355 33573
KUIPER-00103            
1 65141U 25171K   26072.95206415  .00004564  00000+0  62728-3 0  9998
2 65141  51.8969 151.7198 0001246 146.1084 213.9958 14.79935557 33341
KUIPER-00104            
1 65142U 25171L   26072.89800658 -.00000442  00000+0 -29026-4 0  9999
2 65142  51.9021 139.4236 0000415  92.2099 267.8911 14.79927366 33517
KUIPER-00105            
1 65143U 25171M   26072.92378201 -.00003510  00000+0 -43273-3 0  9996
2 65143  51.9002 146.9309 0001214 123.7471 236.3607 14.79832938 33415
KUIPER-00106            
1 65144U 25171N   26072.58178634  .00008193  00000+0  72233-3 0  9995
2 65144  51.8929 137.2878 0007992 111.2597 248.9227 14.97172738 33521
KUIPER-00107            
1 65145U 25171P   26072.87494348  .00004599  00000+0  63172-3 0  9999
2 65145  51.8994 129.5842 0000627  72.8328 287.2703 14.79943468 33656
KUIPER-00108            
1 65146U 25171Q   26072.89532100  .00000170  00000+0  51328-4 0  9993
2 65146  51.9039 142.0114 0000289 180.0561 180.0402 14.79929942 33483
KUIPER-00109            
1 65147U 25171R   26072.86693253 -.00000353  00000+0 -17375-4 0  9997
2 65147  51.9022 137.0798 0000544  75.9966 284.1056 14.79923306 33549
KUIPER-00110            
1 65148U 25171S   26072.21269198  .00004184  00000+0  57615-3 0  9998
2 65148  51.8993 152.5655 0001528 210.9639 149.1234 14.80035338 33269
KUIPER-00111            
1 65149U 25171T   26072.91545091  .00004825  00000+0  66274-3 0  9998
2 65149  51.8965 154.3579 0000436  96.5073 263.5939 14.79847680 33308
KUIPER-00112            
1 65150U 25171U   26072.89994219  .00003977  00000+0  54809-3 0  9995
2 65150  51.8997 136.9797 0000415  29.3669 330.7316 14.80110421 33545
KUIPER-00114            
1 65151U 25171V   26072.23760772 -.00001663  00000+0 -18924-3 0  9999
2 65151  51.8992 159.9149 0000198  69.3177 290.7807 14.79925132 33162
KUIPER-00115            
1 65152U 25171W   26072.58314566  .00001728  00000+0  25553-3 0  9990
2 65152  51.8995 150.8735 0000856  75.3708 284.7349 14.79938706 33328
KUIPER-00116            
1 65153U 25171X   26072.61165909  .00001148  00000+0  17965-3 0  9994
2 65153  51.8976 155.7853 0000368 152.0265 208.0717 14.79919627 33253
KUIPER-00118            
1 65154U 25171Y   26072.94556398  .00001716  00000+0  25300-3 0  9990
2 65154  51.8968 156.7548 0000813  96.2830 263.8226 14.80117691 33278
KUIPER-00119            
1 65155U 25171Z   26072.21666232  .00004228  00000+0  58107-3 0  9992
2 65155  51.8995 147.5671 0000644 165.6649 194.4332 14.80091874 33333
KUIPER-00120            
1 65762U 25217A   26072.31896577  .00004901  00000+0  67139-3 0  9998
2 65762  51.8993  37.0190 0000865 104.0188 256.0871 14.79938530 25278
KUIPER-00132            
1 65763U 25217B   26072.96656405  .00022199  00000+0  55660-3 0  9999
2 65763  51.8600 342.7354 0006244 349.1383  10.9469 15.39944822 26086
KUIPER-00133            
1 65764U 25217C   26072.89296430  .00005086  00000+0  69558-3 0  9997
2 65764  51.9044  34.5338 0002082  48.0854 312.0286 14.79938515 25360
KUIPER-00139            
1 65765U 25217D   26072.83443803  .00010624  00000+0  82101-3 0  9993
2 65765  51.8864  14.8241 0007137 333.5049  26.5557 15.01979696 25637
KUIPER-00142            
1 65766U 25217E   26072.27043526 -.00000342  00000+0 -15852-4 0  9998
2 65766  51.9026  19.7564 0000555  92.9033 267.1993 14.79929869 25512
KUIPER-00145            
1 65767U 25217F   26072.26758399  .00005567  00000+0  75831-3 0  9993
2 65767  51.9010  22.2823 0000672  75.1921 284.9115 14.79948624 25470
KUIPER-00147            
1 65768U 25217G   26072.23118643  .00002821  00000+0  39876-3 0  9992
2 65768  51.8997  24.9352 0000488 114.5889 245.5125 14.79942819 25436
KUIPER-00148            
1 65769U 25217H   26072.97581546  .00000715  00000+0  62205-4 0  9993
2 65769  51.8795   4.7995 0007880   6.8948 353.2134 15.09489044 25789
KUIPER-00150            
1 65770U 25217J   26072.89492202  .00004057  00000+0  55913-3 0  9996
2 65770  51.9023  32.0014 0000982  61.8709 298.2353 14.80070158 25392
KUIPER-00151            
1 65771U 25217K   26072.22858015 -.00000811  00000+0 -77350-4 0  9998
2 65771  51.9038  27.4533 0000821  84.9888 275.1168 14.79948546 25402
KUIPER-00152            
1 65772U 25217L   26072.81606857  .00005834  00000+0  79368-3 0  9997
2 65772  51.9026  12.3482 0000735  97.5681 262.5365 14.79931367 25661
KUIPER-00153            
1 65773U 25217M   26072.91668981 -.00015123  00000+0 -10283-2 0  9999
2 65773  51.8847   7.9975 0009077 333.9640  63.5082 15.05248429  5785
KUIPER-00155            
1 65774U 25217N   26072.92951515  .00017637  00000+0  74573-3 0  9992
2 65774  51.8782 351.4550 0005575 333.7197  26.3500 15.23279142 25964
KUIPER-00156            
1 65775U 25217P   26072.17984200 -.00004006  00000+0 -49677-3 0  9992
2 65775  51.9049  10.1930 0000885 105.2492 254.8568 14.79929080 25631
KUIPER-00158            
1 65776U 25217Q   26072.31471338  .00006022  00000+0  80521-3 0  9993
2 65776  51.8977  29.4133 0001292  64.0612 296.0484 14.80611930 25389
KUIPER-00163            
1 65777U 25217R   26072.91668981  .01926178  00000+0  10122+0 0  9992
2 65777  51.8981  27.2773 0002043 170.1729 110.1214 15.11580187  4809
KUIPER-00165            
1 65778U 25217S   26072.23662761  .00005546  00000+0  75577-3 0  9993
2 65778  51.9016  19.9135 0000770 110.9228 249.1817 14.79941862 25507
KUIPER-00166            
1 65779U 25217T   26072.95918221  .00005439  00000+0  74118-3 0  9999
2 65779  51.9042   4.2427 0000813  76.5984 283.5069 14.79975550 25784
KUIPER-00167            
1 65780U 25217U   26072.90108547  .00005182  00000+0  70788-3 0  9992
2 65780  51.8965  26.9375 0000747  97.9480 262.1567 14.79952823 25465
KUIPER-00168            
1 65781U 25217V   26072.24469860  .00005529  00000+0  75380-3 0  9996
2 65781  51.9018  12.3798 0000769 105.1292 254.9755 14.79925957 25614
KUIPER-00169            
1 65782U 25217W   26072.03779846  .00005306  00000+0  72506-3 0  9992
2 65782  51.9023  18.3086 0000887 101.0177 259.0885 14.79900251 25514
KUIPER-00170            
1 65783U 25217X   26072.84141909 -.00017391  00000+0 -22629-2 0  9994
2 65783  51.9005  19.7257 0000690  89.2383 270.8658 14.79844143 25569
KUIPER-00172            
1 65785U 25217Z   26072.91668981 -.00023433  00000+0 -33111-2 0  9990
2 65785  51.8996   0.1635 0001636   4.5472 309.5897 14.76542754  4352
KUIPER-00173            
1 65786U 25217AA  26072.21332777  .00005219  00000+0  77342-3 0  9990
2 65786  51.9025  16.9076 0000763 129.7167 230.3861 14.76442743 25545
KUIPER-00174            
1 65787U 25217AB  26072.27846594  .00002295  00000+0  33021-3 0  9991
2 65787  51.9057  12.2581 0000836  79.7506 280.3551 14.79898563 25610
KUIPER-00176            
1 65788U 25217AC  26072.26212982 -.00002173  00000+0 -25604-3 0  9994
2 65788  51.9005  27.2995 0000640  96.5101 263.5934 14.79937244 25405
KUIPER-00101            
1 65947U 25228A   26072.94972775 -.00002804  00000+0 -33917-3 0  9998
2 65947  51.9009 341.7399 0000449 152.4889 207.6097 14.79912271 23860
KUIPER-00113            
1 65948U 25228B   26072.98892722  .00004866  00000+0  66689-3 0  9996
2 65948  51.8993 336.5853 0000702  82.4965 277.6077 14.79929185 23933
KUIPER-00117            
1 65949U 25228C   26072.95242993 -.00002159  00000+0 -25439-3 0  9996
2 65949  51.8984 339.2470 0000976  79.7309 280.3764 14.79914878 23895
KUIPER-00121            
1 65950U 25228D   26072.99162206  .00004716  00000+0  64726-3 0  9991
2 65950  51.9017 334.0706 0000843 122.3066 237.7979 14.79932024 23974
KUIPER-00122            
1 65951U 25228E   26072.98074295 -.00005923  00000+0 -74893-3 0  9990
2 65951  51.9004 344.0967 0000880  29.4315 330.6697 14.79917744 23833
KUIPER-00123            
1 65952U 25228F   26072.94703788  .00001177  00000+0  18348-3 0  9991
2 65952  51.8994 344.2672 0000716  87.0688 273.0357 14.79919613 23826
KUIPER-00124            
1 65953U 25228G   26072.95513463 -.00002560  00000+0 -30709-3 0  9996
2 65953  51.9006 336.7212 0000692  63.3670 296.7363 14.79907502 23934
KUIPER-00125            
1 65954U 25228H   26072.97122404  .00000667  00000+0  11643-3 0  9990
2 65954  51.9014 321.6698 0000625  81.6782 278.4252 14.79935239 24144
KUIPER-00126            
1 65955U 25228J   26072.91582873  .00005239  00000+0  71463-3 0  9991
2 65955  51.9006 341.9151 0000802 107.8968 252.2082 14.79994638 23855
KUIPER-00127            
1 65956U 25228K   26072.95237413  .00003140  00000+0  47865-3 0  9991
2 65956  51.8999 333.2862 0001210 193.3368 166.7562 14.76346566 23981
KUIPER-00128            
1 65957U 25228L   26072.95780674  .00000530  00000+0  98608-4 0  9996
2 65957  51.9020 334.2478 0000711 105.6824 254.4217 14.79918504 23960
KUIPER-00129            
1 65958U 25228M   26072.92959243  .00004595  00000+0  63213-3 0  9992
2 65958  51.9000 329.3604 0001024  65.5319 294.5750 14.79884295 24031
KUIPER-00130            
1 65959U 25228N   26072.89299363  .00000135  00000+0  46728-4 0  9998
2 65959  51.9051 332.0265 0000839  71.0791 289.0262 14.79905691 14288
KUIPER-00134            
1 65960U 25228P   26072.87307802  .00016069  00000+0  42209-3 0  9998
2 65960  51.8753 300.1135 0004905 339.7501  20.3291 15.38757090 24431
KUIPER-00135            
1 65961U 25228Q   26072.99433530  .00005115  00000+0  70006-3 0  9996
2 65961  51.9041 331.6401 0000580 106.2226 253.8800 14.79899117 24007
KUIPER-00136            
1 65962U 25228R   26072.96319931  .00004848  00000+0  66452-3 0  9994
2 65962  51.9009 329.2489 0001237 120.4171 239.6914 14.79929682 24030
KUIPER-00137            
1 65963U 25228S   26072.22238331  .00068222  00000+0  91478-2 0  9999
2 65963  51.9051 329.9797 0000785 165.8059 194.2925 14.78714320 23961
KUIPER-00138            
1 65964U 25228T   26072.93481281  .00004340  00000+0  59833-3 0  9993
2 65964  51.8999 324.3223 0000879  89.4622 270.6441 14.79906943 24100
KUIPER-00140            
1 65965U 25228U   26072.93217003  .00000454  00000+0  88619-4 0  9990
2 65965  51.9012 326.9193 0000648 356.0698   4.0259 14.79909932 24064
KUIPER-00141            
1 65966U 25228V   26072.93746083  .00004595  00000+0  63158-3 0  9996
2 65966  51.9024 321.9054 0000720  77.2209 282.8834 14.79912440 24131
KUIPER-00146            
1 65967U 25228W   26072.96061534  .00003164  00000+0  48025-3 0  9998
2 65967  51.9043 324.2303 0000963 126.7186 233.3863 14.76513324 24104
KUIPER-00149            
1 65968U 25228X   26072.94015584 -.00004973  00000+0 -62466-3 0  9997
2 65968  51.9016 319.3105 0002074  91.3427 268.7773 14.79871056 24171
KUIPER-00154            
1 65969U 25228Y   26072.97657237  .00004713  00000+0  64707-3 0  9998
2 65969  51.9004 316.6512 0000746 105.4024 254.7020 14.79911598 24216
KUIPER-00157            
1 65970U 25228Z   26072.97391448 -.00011075  00000+0 -14259-2 0  9996
2 65970  51.9017 319.2740 0001197  91.1366 268.9734 14.79937113 24170
KUIPER-00144            
1 67133U 25301A   26072.94092115  .00054576  00000+0  14098-2 0  9999
2 67133  51.8696  44.4671 0007793  48.6185 311.5471 15.38567654 14390
KUIPER-00164            
1 67134U 25301B   26072.91668981 -.00969338  00000+0 -77578-1 0  9991
2 67134  51.9091  47.7738 0004631 101.4635 282.1332 15.02433858  5889
KUIPER-00175            
1 67135U 25301C   26072.89590803  .00027072  00000+0  89480-3 0  9991
2 67135  51.8776  44.9444 0002391  67.3075 292.8161 15.31169241 14456
KUIPER-00179            
1 67136U 25301D   26072.91668981 -.02043341  00000+0 -16250+0 0  9990
2 67136  51.8898  47.3959 0002507  86.7303 218.4953 15.03481348  5837
KUIPER-00181            
1 67137U 25301E   26072.37272305  .00003360  00000+0  50893-3 0  9990
2 67137  51.9026  60.9037 0001949 100.6057 259.5123 14.76445960 14273
KUIPER-00183            
1 67138U 25301F   26072.35395550  .00022486  00000+0  81152-3 0  9999
2 67138  51.8669  48.6454 0014693  68.0575 292.1968 15.28323205 14459
KUIPER-00184            
1 67139U 25301G   26072.91668981 -.00709095  00000+0 -28429-1 0  9999
2 67139  51.8693  45.4482 0012251  68.0921  42.8417 15.27055681  5667
KUIPER-00186            
1 67140U 25301H   26072.35960492  .00004573  00000+0  62834-3 0  9998
2 67140  51.9017  61.8830 0000855  76.3298 283.7759 14.79940083 14104
KUIPER-00187            
1 67141U 25301J   26072.35694369  .00004293  00000+0  59172-3 0  9996
2 67141  51.9026  64.4074 0000666  89.5790 270.5248 14.79941092 14060
KUIPER-00188            
1 67142U 25301K   26072.90091871  .00045877  00000+0  12053-2 0  9996
2 67142  51.8695  44.9381 0009957  65.0523 295.1497 15.38106460 14383
KUIPER-00191            
1 67143U 25301L   26072.91668981  .00027829  00000+0  36641-2 0  9996
2 67143  51.9002  54.4481 0000823  88.3944 152.4438 14.79935493  5270
KUIPER-00196            
1 67144U 25301M   26072.33312698  .00039297  00000+0  10139-2 0  9990
2 67144  51.8725  47.1658 0003980  32.7809 327.3425 15.38772461 14300
KUIPER-00204            
1 67145U 25301N   26072.32664771  .00019786  00000+0  76789-3 0  9997
2 67145  51.8868  52.9722 0003463  11.5877 348.5184 15.26088613 14337
KUIPER-00210            
1 67146U 25301P   26072.91668981  .00018870  00000+0  24936-2 0  9999
2 67146  51.8996  54.4108 0001261 119.9585 300.9161 14.79995190  5047
KUIPER-00221            
1 67147U 25301Q   26072.39069793  .00002985  00000+0  42073-3 0  9991
2 67147  51.9012  64.2407 0000887  87.8114 272.2950 14.79903058 14075
KUIPER-00232            
1 67148U 25301R   26072.91668981 -.01042374  00000+0 -81898-1 0  9999
2 67148  51.8896  47.1323 0003253 185.6041 157.0504 15.03337683  5559
KUIPER-00241            
1 67149U 25301S   26072.93628917 -.00000909  00000+0 -90188-4 0  9999
2 67149  51.9023  56.8347 0000837  97.1576 262.9482 14.79940646 14553
KUIPER-00245            
1 67150U 25301T   26072.92822669  .00004532  00000+0  62241-3 0  9992
2 67150  51.9031  64.3855 0000537  82.5734 277.5290 14.79976882 14115
KUIPER-00246            
1 67151U 25301U   26072.91668981 -.01753340  00000+0 -20682+0 0  9997
2 67151  51.8997  49.2554 0004624  92.1052  21.3878 14.87653260  4077
KUIPER-00247            
1 67152U 25301V   26072.90073567  .00038411  00000+0  10468-2 0  9993
2 67152  51.8629  45.6174 0014492  73.0929 287.1645 15.37001181 14376
KUIPER-00248            
1 67153U 25301W   26072.34501600  .00036811  00000+0  98620-3 0  9995
2 67153  51.8678  47.9407 0010458  54.3799 305.8160 15.37600752 14469
KUIPER-00249            
1 67154U 25301X   26072.89920786  .00060274  00000+0  15658-2 0  9995
2 67154  51.8659  44.8938 0010340  62.3283 297.8753 15.38327969 14387
KUIPER-00250            
1 67155U 25301Y   26072.91668981  .00001716  00000+0  24156-3 0  9995
2 67155  51.9002  51.2413 0001956 112.0483 102.0573 14.82139990  5615
KUIPER-00251            
1 67156U 25301Z   26072.91668981 -.01206829  00000+0 -40230-1 0  9990
2 67156  51.8694  45.0796 0011581  64.1762 253.4617 15.33564197  1691
KUIPER-00252            
1 67157U 25301AA  26072.91668981 -.00724660  00000+0 -28474-1 0  9994
2 67157  51.8702  45.4956 0009873  76.4875  51.3937 15.27807547  5838
KUIPER-00261            
1 67158U 25301AB  26072.91668981  .00004096  00000+0  54940-3 0  9996
2 67158  51.9017  51.5375 0001516 135.7324 124.2599 14.81201895  5574
KUIPER-00265            
1 67159U 25301AC  26072.38526582  .00004260  00000+0  58733-3 0  9995
2 67159  51.9022  69.2712 0001104  53.7268 306.3796 14.79944036 14032
KUIPER-00159            
1 67764U 26030A   26072.66641750  .00044068  00000+0  12414-2 0  9998
2 67764  51.8865 199.9851 0004899  52.1163 308.0266 15.35996984  5701
KUIPER-00160            
1 67765U 26030B   26072.66855665  .00039246  00000+0  11138-2 0  9995
2 67765  51.8807 199.9874 0005562  64.5315 295.6246 15.35816753  5701
KUIPER-00177            
1 67766U 26030C   26072.91668981  .00021496  00000+0  79364-3 0  9991
2 67766  51.8843 198.7289 0002794  15.1568 295.1771 15.27692706  5636
KUIPER-00178            
1 67767U 26030D   26072.91668981 -.00012117  00000+0 -37818-3 0  9992
2 67767  51.8842 198.8767 0007504  56.1319 204.1447 15.31721499  5010
KUIPER-00180            
1 67768U 26030E   26072.91668981  .00010977  00000+0  38187-3 0  9993
2 67768  51.8800 199.4307 0015170  80.7688 257.1687 15.30114426  2467
KUIPER-00197            
1 67769U 26030F   26071.61364854  .00022408  00000+0  62765-3 0  9993
2 67769  51.8826 204.9278 0001778  60.0576 300.0587 15.36533933  5544
KUIPER-00198            
1 67770U 26030G   26072.85598433  .00035616  00000+0  99698-3 0  9994
2 67770  51.8801 198.9976 0003688  54.2834 305.8495 15.36298436  5738
KUIPER-00199            
1 67771U 26030H   26072.75685620  .00040460  00000+0  11926-2 0  9999
2 67771  51.8817 199.8216 0009845  75.7630 284.4448 15.34580311  5718
KUIPER-00200            
1 67772U 26030J   26072.83719808  .00038815  00000+0  10504-2 0  9997
2 67772  51.8809 198.8781 0001912 295.5449  64.5340 15.37312157  5737
KUIPER-00203            
1 67773U 26030K   26072.91668981 -.01178390  00000+0 -85252-1 0  9999
2 67773  51.8939 200.5223 0011859  75.6000  29.2517 15.06667669  4308
KUIPER-00205            
1 67774U 26030L   26072.32967071  .00032065  00000+0  89022-3 0  9993
2 67774  51.8812 201.4717 0003811  32.3796 327.7424 15.36606584  5652
KUIPER-00208            
1 67775U 26030M   26072.71626124  .00016256  00000+0  52518-3 0  9992
2 67775  51.8827 200.3023 0014788  63.2058 297.0437 15.32146896  5706
KUIPER-00209            
1 67776U 26030N   26072.86388899  .00047561  00000+0  16269-2 0  9998
2 67776  51.8838 199.7820 0014135  72.5146 287.7382 15.29697626  5727
KUIPER-00213            
1 67777U 26030P   26072.91028604 -.00004858  00000+0 -13947-3 0  9995
2 67777  51.8803 199.3431 0014245  80.0593 280.1999 15.32673861  5737
KUIPER-00214            
1 67778U 26030Q   26072.71157608  .00057817  00000+0  15710-2 0  9991
2 67778  51.8843 199.5436 0001338 297.7606  62.3245 15.37008471  5716
KUIPER-00215            
1 67779U 26030R   26070.73596724  .00032228  00000+0  95286-3 0  9994
2 67779  51.8834 209.5383 0010520  66.2297 293.9791 15.34588543  5402
KUIPER-00218            
1 67780U 26030S   26072.74123868  .00048412  00000+0  13882-2 0  9997
2 67780  51.8813 199.7291 0006846  65.3274 294.8424 15.35388835  5710
KUIPER-00220            
1 67781U 26030T   26072.74961075  .00059610  00000+0  17249-2 0  9991
2 67781  51.8824 199.7774 0008784  67.7469 292.4448 15.34997962  5710
KUIPER-00222            
1 67782U 26030U   26072.91668981  .00016928  00000+0  54457-3 0  9999
2 67782  51.8794 199.3759 0017488  80.9298 283.5381 15.32209773  5591
KUIPER-00223            
1 67783U 26030V   26071.78291178  .00037710  00000+0  11229-2 0  9995
2 67783  51.8835 204.5516 0012400  67.4257 292.8039 15.34266835  5566
KUIPER-00225            
1 67784U 26030W   26072.85845455  .00059805  00000+0  16696-2 0  9990
2 67784  51.8829 199.0107 0006593  35.5335 324.6090 15.36133377  5739
KUIPER-00226            
1 67785U 26030X   26072.73972643  .00061025  00000+0  20135-2 0  9998
2 67785  51.8827 200.4419 0019837  87.5474 272.7781 15.30659530  5702
KUIPER-00259            
1 67786U 26030Y   26072.80896494  .00036964  00000+0  10675-2 0  9998
2 67786  51.8834 199.4249 0008112  61.5946 298.5857 15.35282053  5728
KUIPER-00260            
1 67787U 26030Z   26072.84757810  .00040322  00000+0  11112-2 0  9991
2 67787  51.8800 198.9419 0001252   9.4872 350.6138 15.36732558  5646
KUIPER-00262            
1 67788U 26030AA  26072.84292383  .00036883  00000+0  10115-2 0  9990
2 67788  51.8816 198.9147 0000252 332.3798  27.7175 15.36924204  5730
KUIPER-00266            
1 67789U 26030AB  26072.35247049  .00029700  00000+0  98697-3 0  9998
2 67789  51.8821 202.3428 0023142  86.9135 273.4497 15.30698300  5645
KUIPER-00268            
1 67790U 26030AC  26072.85538776  .00039733  00000+0  11129-2 0  9996
2 67790  51.8838 199.0042 0002447  47.0444 313.0747 15.36230849  5730
KUIPER-00270            
1 67791U 26030AD  26072.75163854  .00039480  00000+0  11548-2 0  9991
2 67791  51.8822 199.7886 0009764  68.6010 291.6017 15.34834302  5715
KUIPER-00274            
1 67792U 26030AE  26072.73702098  .00044020  00000+0  15028-2 0  9992
2 67792  51.8827 200.4306 0018244  82.8050 277.5007 15.29734106  5709
KUIPER-00275            
1 67793U 26030AF  26072.35788562  .00031478  00000+0  92109-3 0  9990
2 67793  51.8829 201.6618 0009661  66.3277 293.8722 15.34934562  5655
KUIPER-00276            
1 67794U 26030AG  26072.87030734  .00036902  00000+0  12458-2 0  9994
2 67794  51.8843 199.8245 0019131  79.6778 280.6361 15.30160730  5727
KUIPER-00279            
1 67795U 26030AH  26072.73814602  .00038151  00000+0  10946-2 0  9992
2 67795  51.8789 199.6992 0005899  51.4078 308.7436 15.35485392  5714
