KUIPER-00008            
1 63724U 25088A   26223.10920205  .00002219  00000+0  31985-3 0  9991
2 63724  51.9001 125.1654 0000935  96.6758 263.4311 14.79947533 70911
KUIPER-00009            
1 63725U 25088B   26223.16660439  .00003649  00000+0  25503-3 0  9995
2 63725  51.9016 140.1808 0000873  17.7084 342.3920 15.07653511 70705
KUIPER-00010            
1 63726U 25088C   26223.01332383  .00000791  00000+0  13277-3 0  9994
2 63726  51.9017 120.6946 0000874 101.6771 258.4289 14.79939099 70587
KUIPER-00011            
1 63727U 25088D   26223.10648529  .00000744  00000+0  12656-3 0  9995
2 63727  51.9004 127.8291 0000998  91.5118 268.5958 14.79949913 70621
KUIPER-00012            
1 63728U 25088E   26222.95386973 -.00001017  00000+0 -10445-3 0  9990
2 63728  51.9010 113.4403 0000717 108.3968 251.7072 14.79927117 70762
KUIPER-00013            
1 63729U 25088F   26223.08764154  .00000753  00000+0  12781-3 0  9996
2 63729  51.9018 145.3688 0000823  93.2983 266.8074 14.79935356 70434
KUIPER-00014            
1 63730U 25088G   26223.18893066  .00000551  00000+0  10132-3 0  9998
2 63730  51.9014 144.8647 0000917  86.0129 274.0938 14.79937753 70261
KUIPER-00015            
1 63731U 25088H   26223.00932780 -.00001261  00000+0 -13647-3 0  9992
2 63731  51.8991 155.7141 0000894  77.2094 282.8968 14.79925011 70558
KUIPER-00016            
1 63732U 25088J   26223.05119620  .00001556  00000+0  23307-3 0  9997
2 63732  51.9006 147.9847 0000964  88.5495 271.5577 14.79935593 70200
KUIPER-00018            
1 63733U 25088K   26223.16324928  .00000646  00000+0  11368-3 0  9992
2 63733  51.9023 137.5260 0001021  88.7422 271.3658 14.79943502 70365
KUIPER-00019            
1 63734U 25088L   26223.19007718  .00001206  00000+0  18730-3 0  9994
2 63734  51.8985 136.1601 0001293  83.7534 276.3576 14.79903282 70383
KUIPER-00020            
1 63735U 25088M   26222.95796941 -.00001087  00000+0 -11357-3 0  9998
2 63735  51.9038 140.9352 0001182  80.6920 279.4176 14.79933562 70500
KUIPER-00021            
1 63736U 25088N   26222.99175088  .00000674  00000+0  11746-3 0  9997
2 63736  51.9007 140.7372 0000876  92.6462 267.4601 14.79918133 70349
KUIPER-00023            
1 63737U 25088P   26223.15785361 -.00000867  00000+0 -84719-4 0  9995
2 63737  51.9021 142.4916 0000997  77.0764 283.0310 14.79931873 70634
KUIPER-00024            
1 63738U 25088Q   26223.17136566  .00000772  00000+0  13027-3 0  9991
2 63738  51.9028 130.0382 0000968  93.3274 266.7799 14.79920203 70934
KUIPER-00025            
1 63739U 25088R   26223.06198792  .00001354  00000+0  20657-3 0  9993
2 63739  51.9031 138.0026 0001031  83.8396 276.2684 14.79937396 70674
KUIPER-00027            
1 63740U 25088S   26223.16864456  .00001517  00000+0  22806-3 0  9992
2 63740  51.9012 132.4948 0001137  90.1527 269.9566 14.79927855 70497
KUIPER-00028            
1 63741U 25088T   26222.93498838 -.00000156  00000+0  85798-5 0  9994
2 63741  51.9004 130.9747 0000976  96.1593 263.9480 14.79923403 70908
KUIPER-00029            
1 63742U 25088U   26223.18113623  .00000826  00000+0  13734-3 0  9991
2 63742  51.9018 128.5773 0001224  62.7680 297.3407 14.79941462 70487
KUIPER-00030            
1 63743U 25088V   26223.08495637  .00000701  00000+0  12091-3 0  9996
2 63743  51.9010 147.8239 0000895  79.9730 280.1334 14.79934199 70499
KUIPER-00031            
1 63744U 25088W   26223.13487917  .00000656  00000+0  11505-3 0  9993
2 63744  51.9020 132.6284 0000955 104.9160 255.1908 14.79920303 70420
KUIPER-00032            
1 63745U 25088X   26222.64012246  .00008959  00000+0  21874-3 0  9992
2 63745  51.8678 357.2372 0003593 311.5319  48.5361 15.41621194 73263
KUIPER-00033            
1 63746U 25088Y   26223.03499061  .00001510  00000+0  22704-3 0  9990
2 63746  51.9005 163.0678 0000788  78.6681 281.4370 14.79938041 70477
KUIPER-00034            
1 63747U 25088Z   26222.94037471  .00002079  00000+0  30149-3 0  9996
2 63747  51.9013 126.0225 0000978  62.0173 298.0888 14.79954886 70662
KUIPER-00035            
1 63748U 25088AA  26223.04851086  .00000513  00000+0  96317-4 0  9996
2 63748  51.9003 150.5140 0000928  77.4881 282.6185 14.79930742 70384
KUIPER-00037            
1 63749U 25088AB  26223.17646624 -.00008357  00000+0 -10679-2 0  9992
2 63749  51.9006 148.8062 0000740 100.5714 259.5331 14.79958039 71203
KUIPER-00038            
1 63750U 25088AC  26223.16596374  .00000887  00000+0  14533-3 0  9991
2 63750  51.9021 135.0226 0001072  92.9870 267.1215 14.79938101 70391
KUIPER-00039            
1 64500U 25134A   26223.13853648  .00001153  00000+0  18017-3 0  9992
2 64500  51.9020 270.1418 0000336  77.6177 282.4823 14.79934926 62948
KUIPER-00040            
1 64501U 25134B   26223.16148133  .00001172  00000+0  18269-3 0  9992
2 64501  51.8981 280.1099 0000377  93.5758 266.5247 14.79926242 62807
KUIPER-00041            
1 64502U 25134C   26222.44973722  .00001400  00000+0  21262-3 0  9994
2 64502  51.8999 285.6469 0000402  87.1430 272.9578 14.79937962 62666
KUIPER-00042            
1 64503U 25134D   26222.55639412 -.00001915  00000+0 -22229-3 0  9999
2 64503  51.8995 280.1532 0000289  17.1616 342.9356 14.79938485 62759
KUIPER-00043            
1 64504U 25134E   26223.10476895  .00001140  00000+0  17847-3 0  9994
2 64504  51.9021 270.2334 0000332  68.2743 291.8254 14.79933821 62947
KUIPER-00044            
1 64505U 25134F   26223.15881485  .00001135  00000+0  17782-3 0  9997
2 64505  51.9006 282.4926 0000235  77.8064 282.2925 14.79936648 62777
KUIPER-00046            
1 64506U 25134G   26222.58751919  .00001151  00000+0  18001-3 0  9995
2 64506  51.8990 282.4932 0000452  90.3393 269.7621 14.79919694 62722
KUIPER-00047            
1 64507U 25134H   26223.05608770 -.00000926  00000+0 -92450-4 0  9997
2 64507  51.8991 252.9467 0000413  52.6584 307.4416 14.79931689 63179
KUIPER-00048            
1 64508U 25134J   26223.08987848  .00001088  00000+0  17168-3 0  9997
2 64508  51.8989 252.8099 0000368  77.4182 282.6822 14.79933301 63184
KUIPER-00049            
1 64509U 25134K   26223.11013257  .00000422  00000+0  84325-4 0  9997
2 64509  51.8997 265.1882 0000326  79.8086 280.2913 14.79930572 63018
KUIPER-00050            
1 64510U 25134L   26223.06149978  .00001137  00000+0  17811-3 0  9992
2 64510  51.8999 247.9250 0000405  50.8741 309.2257 14.79926306 63253
KUIPER-00051            
1 64511U 25134M   26223.15372964  .00001070  00000+0  16929-3 0  9991
2 64511  51.9015 263.6916 0000573  92.3094 267.7933 14.79928454 63037
KUIPER-00053            
1 64513U 25134P   26222.80465999  .00000830  00000+0  13248-3 0  9999
2 64513  51.9003 260.1480 0001248  28.1826 331.9205 14.81726303 63054
KUIPER-00054            
1 64514U 25134Q   26223.08715872  .00001124  00000+0  17646-3 0  9992
2 64514  51.8990 255.2991 0000237  59.1946 300.9040 14.79929125 63142
KUIPER-00055            
1 64515U 25134R   26223.17217142 -.00000271  00000+0 -66147-5 0  9996
2 64515  51.9014 207.5623 0000353  79.0087 281.0915 14.79929375 63821
KUIPER-00056            
1 64516U 25134S   26223.11557285  .00001094  00000+0  17244-3 0  9990
2 64516  51.9022 260.2776 0000346  71.0014 289.0986 14.79924645 63089
KUIPER-00057            
1 64517U 25134T   26223.10742507  .00001182  00000+0  18398-3 0  9992
2 64517  51.8998 267.7371 0000285  71.7242 288.3751 14.79947641 62976
KUIPER-00058            
1 64518U 25134U   26222.80896188  .00001037  00000+0  16501-3 0  9997
2 64518  51.9007 264.0315 0000338  75.3223 284.7777 14.79925190 63003
KUIPER-00059            
1 64519U 25134V   26223.08446221  .00001014  00000+0  16200-3 0  9999
2 64519  51.9005 257.8513 0000258  53.8217 306.2769 14.79943283 63113
KUIPER-00060            
1 64520U 25134W   26223.05073367  .00001138  00000+0  17831-3 0  9993
2 64520  51.9027 258.0710 0000418  85.8129 274.2881 14.79918555 63096
KUIPER-00061            
1 64521U 25134X   26223.14389926  .00001064  00000+0  16850-3 0  9993
2 64521  51.9011 265.1053 0000336  83.5337 276.5664 14.79942353 63002
KUIPER-00062            
1 64522U 25134Y   26223.14121390  .00001135  00000+0  17789-3 0  9994
2 64522  51.8963 267.5802 0000381  78.9256 281.1749 14.79920371 62982
KUIPER-00063            
1 64523U 25134Z   26223.13314042  .00001121  00000+0  17602-3 0  9991
2 64523  51.9030 275.1893 0000329  83.3110 276.7890 14.79934597 62875
KUIPER-00064            
1 64524U 25134AA  26223.13583661  .00001132  00000+0  17753-3 0  9996
2 64524  51.9035 272.6028 0000403  50.3813 309.7185 14.79930301 62918
KUIPER-00065            
1 64525U 25134AB  26223.13044538  .00001087  00000+0  17160-3 0  9993
2 64525  51.9049 277.8025 0000765  96.1354 263.9696 14.79940168 62827
KUIPER-00066            
1 64526U 25134AC  26223.16409352  .00001219  00000+0  18890-3 0  9994
2 64526  51.9018 214.9228 0000543  60.4028 299.6988 14.79934111 63728
KUIPER-00069            
1 64816U 25151A   26222.68231235  .00063994  00000+0  83615-2 0  9998
2 64816  51.9026 319.6951 0001771  76.4836 283.6324 14.79843055 59563
KUIPER-00070            
1 64817U 25151B   26222.75646079  .00001602  00000+0  23908-3 0  9991
2 64817  51.9018 344.2715 0000493  99.0661 261.0357 14.79922016 59239
KUIPER-00071            
1 64818U 25151C   26223.02928006  .00001531  00000+0  22972-3 0  9997
2 64818  51.9028 340.6065 0000461 111.2318 248.8694 14.79932060 58124
KUIPER-00072            
1 64819U 25151D   26223.08459569  .00001519  00000+0  22812-3 0  9996
2 64819  51.8993 320.2981 0000377 116.5313 243.5688 14.79937587 58411
KUIPER-00073            
1 64820U 25151E   26222.72538348 -.00000165  00000+0  73756-5 0  9993
2 64820  51.9028 341.9308 0000434 116.5398 243.5609 14.79925962 59264
KUIPER-00075            
1 64822U 25151G   26223.16668980 -.01229486  00000+0 -33095-1 0  9999
2 64822  51.8644 187.3765 0003964  92.5742 294.7627 15.40288496  5346
KUIPER-00076            
1 64823U 25151H   26223.00628679 -.00000787  00000+0 -74232-4 0  9995
2 64823  51.9031 330.7124 0000586 140.8624 219.2381 14.79924044 58269
KUIPER-00077            
1 64824U 25151J   26222.73076714  .00001469  00000+0  22162-3 0  9992
2 64824  51.9036 336.9489 0000440 112.5817 247.5192 14.79941580 58152
KUIPER-00078            
1 64825U 25151K   26222.69970141  .00001570  00000+0  23491-3 0  9994
2 64825  51.9024 334.5619 0000442 112.9828 247.1181 14.79937969 58180
KUIPER-00079            
1 64826U 25151L   26222.72808398  .00001568  00000+0  23459-3 0  9994
2 64826  51.9013 339.3944 0000386 108.5724 251.5281 14.79929141 59315
KUIPER-00080            
1 64827U 25151M   26222.62678121  .00000689  00000+0  11945-3 0  9993
2 64827  51.9024 339.8538 0000725 127.0989 233.0040 14.79916624 58104
KUIPER-00082            
1 64828U 25151N   26222.60651288  .00001631  00000+0  24297-3 0  9999
2 64828  51.9004 327.5001 0000284  84.2033 275.8962 14.79923618 58272
KUIPER-00083            
1 64829U 25151P   26222.59840519 -.00000909  00000+0 -90298-4 0  9999
2 64829  51.9020 335.0182 0000430  93.1579 266.9433 14.79926768 59355
KUIPER-00084            
1 64830U 25151Q   26222.72269496  .00000405  00000+0  82187-4 0  9992
2 64830  51.9030 344.4545 0000722 134.9996 225.1025 14.79935277 58040
KUIPER-00085            
1 64831U 25151R   26222.50521013 -.00001144  00000+0 -12103-3 0  9998
2 64831  51.9056 328.0006 0001003 151.8727 208.2290 14.79928025 58254
KUIPER-00086            
1 64832U 25151S   26223.03465196 -.00006455  00000+0 -81830-3 0  9990
2 64832  51.9033 335.5997 0000730 101.5388 258.5656 14.79945364 58195
KUIPER-00087            
1 64833U 25151T   26222.64834887  .00001586  00000+0  23697-3 0  9999
2 64833  51.9007 319.7674 0000327 110.3881 249.7116 14.79932926 58374
KUIPER-00089            
1 64834U 25151U   26222.50789598 -.00001301  00000+0 -14173-3 0  9999
2 64834  51.9019 325.4086 0000598 120.2757 239.8265 14.79927536 58298
KUIPER-00090            
1 64835U 25151V   26222.51600449  .00001584  00000+0  23680-3 0  9992
2 64835  51.8999 317.8776 0000534 102.7571 257.3451 14.79916842 58396
KUIPER-00091            
1 64836U 25151W   26222.57813897  .00001490  00000+0  22440-3 0  9991
2 64836  51.9025 322.6207 0000433  99.0525 261.0487 14.79929073 58331
KUIPER-00092            
1 64837U 25151X   26222.70507520  .00001488  00000+0  22409-3 0  9992
2 64837  51.9022 329.5480 0000428  98.5662 261.5349 14.79941163 59469
KUIPER-00093            
1 64838U 25151Y   26222.70239025 -.00000582  00000+0 -47404-4 0  9994
2 64838  51.9018 332.0325 0000509 108.2384 251.8634 14.79927301 58211
KUIPER-00094            
1 64839U 25151Z   26222.88597634  .00001098  00000+0  17303-3 0  9992
2 64839  51.9050 286.3227 0000319  75.0055 285.0942 14.79912872 58875
KUIPER-00081            
1 65132U 25171A   26223.16267691  .00001190  00000+0  18504-3 0  9997
2 65132  51.9000 184.9933 0000776  58.9271 301.1768 14.79930975 55913
KUIPER-00088            
1 65133U 25171B   26223.21133520  .00001189  00000+0  18496-3 0  9995
2 65133  51.8998 202.2796 0000652  51.5283 308.5738 14.79939846 55672
KUIPER-00095            
1 65134U 25171C   26223.16538102  .00001286  00000+0  19765-3 0  9993
2 65134  51.8991 182.5261 0000829  53.0606 307.0432 14.79935696 55949
KUIPER-00096            
1 65135U 25171D   26223.11812333  .00001185  00000+0  18440-3 0  9997
2 65135  51.8989 195.1868 0000676  73.8320 286.2717 14.79936055 55767
KUIPER-00097            
1 65136U 25171E   26223.18296606  .00001164  00000+0  18166-3 0  9996
2 65136  51.9012 197.5619 0000709  51.9337 308.1690 14.79940619 55729
KUIPER-00098            
1 65137U 25171F   26223.18025491 -.00001168  00000+0 -12422-3 0  9994
2 65137  51.9007 199.9372 0000637  69.9104 290.1927 14.79923973 55049
KUIPER-00099            
1 65138U 25171G   26223.15727203 -.00001106  00000+0 -11615-3 0  9997
2 65138  51.9028 190.0476 0000718  68.4033 291.7006 14.79932143 55836
KUIPER-00100            
1 65139U 25171H   26223.19374149 -.00000865  00000+0 -84476-4 0  9996
2 65139  51.9009 187.3550 0000806  59.0999 301.0043 14.79923027 55874
KUIPER-00102            
1 65140U 25171J   26223.12354027  .00001244  00000+0  19222-3 0  9990
2 65140  51.8982 190.1442 0000863  54.7480 305.3563 14.79934757 55828
KUIPER-00103            
1 65141U 25171K   26223.20592237 -.00000336  00000+0 -15086-4 0  9995
2 65141  51.8985 207.2804 0000612  68.8160 291.2868 14.79923163 55591
KUIPER-00104            
1 65142U 25171L   26223.15186844  .00001240  00000+0  19162-3 0  9994
2 65142  51.9016 195.0266 0000701  51.3725 308.7300 14.79940822 55762
KUIPER-00105            
1 65143U 25171M   26223.17762191  .00001291  00000+0  19855-3 0  9997
2 65143  51.9004 202.5105 0000831  58.7716 301.3328 14.79873154 55662
KUIPER-00106            
1 65144U 25171N   26223.15831852  .00001337  00000+0  20436-3 0  9995
2 65144  51.9017 181.3610 0000781  58.1147 301.9892 14.79929394 55961
KUIPER-00107            
1 65145U 25171P   26223.19645087  .00001484  00000+0  22367-3 0  9991
2 65145  51.9011 184.8689 0000774  56.4116 303.6920 14.79937235 55918
KUIPER-00108            
1 65146U 25171Q   26223.14920073  .00001267  00000+0  19522-3 0  9996
2 65146  51.9020 197.6198 0000629  57.6136 302.4887 14.79917819 55735
KUIPER-00109            
1 65147U 25171R   26223.18837610  .00001278  00000+0  19671-3 0  9992
2 65147  51.9023 192.3883 0000750  56.1776 303.9257 14.79922925 55800
KUIPER-00110            
1 65148U 25171S   26223.20863622  .00001081  00000+0  17082-3 0  9994
2 65148  51.8999 204.8512 0000619  50.1835 309.9181 14.79937648 55624
KUIPER-00111            
1 65149U 25171T   26222.35913053  .00001228  00000+0  19004-3 0  9993
2 65149  51.8970 213.4794 0000543  47.0119 313.0889 14.79934333 55436
KUIPER-00112            
1 65150U 25171U   26223.15455132  .00001424  00000+0  21566-3 0  9997
2 65150  51.9015 192.5827 0000694  38.7848 321.3164 14.79944795 55796
KUIPER-00114            
1 65151U 25171V   26223.16678470  .00001086  00000+0  17150-3 0  9999
2 65151  51.8989 212.4958 0000751  49.9063 310.1965 14.79919802 55516
KUIPER-00115            
1 65152U 25171W   26223.17487338  .00001195  00000+0  18579-3 0  9999
2 65152  51.9003 204.9644 0000521  84.2768 275.8254 14.79923438 55622
KUIPER-00116            
1 65153U 25171X   26223.20324875  .00001156  00000+0  18058-3 0  9999
2 65153  51.8999 209.8724 0000618  68.7734 291.3295 14.79930344 55550
KUIPER-00118            
1 65154U 25171Y   26223.20053088  .00001042  00000+0  16572-3 0  9998
2 65154  51.8993 212.3339 0000529  64.7478 295.3539 14.79931729 55528
KUIPER-00119            
1 65155U 25171Z   26223.14650727  .00001209  00000+0  18763-3 0  9994
2 65155  51.9003 200.1708 0000553  55.0222 305.0792 14.79913780 55688
KUIPER-00120            
1 65762U 25217A   26222.84306289  .00001530  00000+0  22955-3 0  9991
2 65762  51.8995  91.3857 0000757 106.3990 253.7056 14.79942070 47568
KUIPER-00132            
1 65763U 25217B   26223.16668980  .00048889  00000+0  12595-2 0  9993
2 65763  51.8535 331.0637 0006447 153.7624  51.8825 15.38707301  4781
KUIPER-00133            
1 65764U 25217C   26223.01190712 -.00000773  00000+0 -72461-4 0  9993
2 65764  51.9030  90.7597 0000725 104.6429 255.4613 14.79933506 47593
KUIPER-00139            
1 65765U 25217D   26222.97946855  .00001517  00000+0  22795-3 0  9994
2 65765  51.8990  58.3485 0000665 110.5140 249.5893 14.79924915 48042
KUIPER-00142            
1 65766U 25217E   26222.99701012  .00001519  00000+0  22823-3 0  9995
2 65766  51.8999  73.2334 0000705 100.2710 259.8332 14.79917951 47835
KUIPER-00145            
1 65767U 25217F   26222.99431183 -.00000255  00000+0 -44081-5 0  9995
2 65767  51.9005  75.7678 0000680 113.5832 246.5201 14.79930044 47798
KUIPER-00147            
1 65768U 25217G   26222.89032767  .00001503  00000+0  22615-3 0  9992
2 65768  51.8990  78.7062 0000871 112.9965 247.1090 14.79926026 47746
KUIPER-00148            
1 65769U 25217H   26222.84168353  .00003754  00000+0  52150-3 0  9996
2 65769  51.9057  61.4502 0000818  93.2681 266.8375 14.79903020 47986
KUIPER-00150            
1 65770U 25217J   26223.01461376  .00001475  00000+0  22257-3 0  9992
2 65770  51.9010  88.1974 0000829 108.2467 251.8586 14.79919886 47623
KUIPER-00151            
1 65771U 25217K   26223.02269505  .00001539  00000+0  23076-3 0  9995
2 65771  51.9012  80.6591 0000784  91.9747 268.1305 14.79938032 47733
KUIPER-00152            
1 65772U 25217L   26222.93487801  .00001556  00000+0  23305-3 0  9990
2 65772  51.9005  68.5292 0000717 112.3447 247.7592 14.79925601 47896
KUIPER-00153            
1 65773U 25217M   26223.00780183  .00000415  00000+0  83402-4 0  9997
2 65773  51.9025  63.2874 0000528  69.2770 290.8249 14.79929225 47979
KUIPER-00155            
1 65774U 25217N   26222.90242255  .00001629  00000+0  24263-3 0  9996
2 65774  51.9044  36.2163 0000671 115.3094 244.7938 14.79930058 48344
KUIPER-00156            
1 65775U 25217P   26222.77142862  .00003219  00000+0  45094-3 0  9997
2 65775  51.9031  64.3160 0000288 112.9903 247.1090 14.79946485 47937
KUIPER-00165            
1 65778U 25217S   26222.96324146 -.00001247  00000+0 -13457-3 0  9997
2 65778  51.9011  73.4064 0000758 111.7114 248.3929 14.79935637 47824
KUIPER-00166            
1 65779U 25217T   26222.80790214  .00001493  00000+0  22474-3 0  9994
2 65779  51.9029  61.6473 0000764 118.7023 241.4016 14.79940576 47975
KUIPER-00167            
1 65780U 25217U   26223.02000162  .00001635  00000+0  24345-3 0  9994
2 65780  51.8966  83.0536 0000788 109.3599 250.7448 14.79933961 47695
KUIPER-00168            
1 65781U 25217V   26222.97134384  .00001534  00000+0  23019-3 0  9997
2 65781  51.9015  65.8754 0000732 113.6088 246.4951 14.79918470 47938
KUIPER-00169            
1 65782U 25217W   26222.76336947  .00001522  00000+0  22857-3 0  9990
2 65782  51.9013  71.8066 0000681 107.7094 252.3942 14.79933918 47833
KUIPER-00170            
1 65783U 25217X   26222.96056360  .00001581  00000+0  23640-3 0  9997
2 65783  51.8992  75.8858 0000773 111.5696 248.5348 14.79930555 47791
KUIPER-00172            
1 65785U 25217Z   26222.94565138  .00001472  00000+0  22200-3 0  9995
2 65785  51.9000  58.4820 0000818 128.0238 232.0798 14.79940601 48033
KUIPER-00173            
1 65786U 25217AA  26222.99973190  .00001624  00000+0  24204-3 0  9997
2 65786  51.9012  70.7549 0000741 112.5779 247.5262 14.79922257 47869
KUIPER-00174            
1 65787U 25217AB  26222.93760105  .00000564  00000+0  10296-3 0  9990
2 65787  51.9022  66.0856 0000673 107.7980 252.3056 14.79922882 47920
KUIPER-00176            
1 65788U 25217AC  26222.98884909  .00001612  00000+0  24101-3 0  9990
2 65788  51.9002  80.7840 0000495 124.8865 235.2144 14.79831450 47725
KUIPER-00101            
1 65947U 25228A   26222.93348100  .00001630  00000+0  24285-3 0  9995
2 65947  51.8991  38.4815 0000603 101.9911 258.1119 14.79918030 46072
KUIPER-00113            
1 65948U 25228B   26222.90510022  .00001527  00000+0  22930-3 0  9997
2 65948  51.8997  33.6275 0000606 112.2617 247.8409 14.79937489 46130
KUIPER-00117            
1 65949U 25228C   26222.73359331  .00001493  00000+0  22491-3 0  9997
2 65949  51.8994  36.8858 0000646 105.5103 254.5931 14.79915213 46078
KUIPER-00121            
1 65950U 25228D   26222.77274706  .00001598  00000+0  23854-3 0  9995
2 65950  51.9009  31.7296 0000741 121.3522 238.7513 14.79935279 46158
KUIPER-00122            
1 65951U 25228E   26222.69443456  .00001483  00000+0  22352-3 0  9992
2 65951  51.8999  42.0474 0000649  99.2640 260.8396 14.79914097 46004
KUIPER-00123            
1 65952U 25228F   26222.79570141  .00001542  00000+0  23127-3 0  9993
2 65952  51.8999  41.6096 0000630 117.1469 242.9558 14.79936128 46010
KUIPER-00124            
1 65953U 25228G   26222.87135125  .00001331  00000+0  20369-3 0  9993
2 65953  51.9003  33.7640 0000606 109.4905 250.6123 14.79914611 46137
KUIPER-00125            
1 65954U 25228H   26222.81997790 -.00004685  00000+0 -58580-3 0  9995
2 65954  51.9018  19.0400 0000544 129.4565 230.6446 14.79941102 46333
KUIPER-00126            
1 65955U 25228J   26222.89970775  .00001620  00000+0  24147-3 0  9994
2 65955  51.9014  38.6700 0000595 109.3449 250.7577 14.79921456 46062
KUIPER-00127            
1 65956U 25228K   26222.68829879  .00001549  00000+0  23201-3 0  9990
2 65956  51.9019  32.0802 0000617 122.2427 237.8595 14.79946943 46147
KUIPER-00128            
1 65957U 25228L   26222.67145905  .00001494  00000+0  22499-3 0  9998
2 65957  51.9012  32.2212 0000691 103.9994 256.1045 14.79926656 46137
KUIPER-00129            
1 65958U 25228M   26222.84567028  .00001530  00000+0  22963-3 0  9999
2 65958  51.9016  26.4306 0000690 112.7381 247.3654 14.79936146 46232
KUIPER-00130            
1 65959U 25228N   26222.87674479  .00001447  00000+0  21879-3 0  9994
2 65959  51.9039  28.8323 0000716 122.3919 237.7112 14.79930003 36491
KUIPER-00134            
1 65960U 25228P   26223.16668980  .00036493  00000+0  98747-3 0  9996
2 65960  51.8719 289.7573 0005187 134.1452 210.9347 15.37335620  4512
KUIPER-00135            
1 65961U 25228Q   26222.77544463 -.00001287  00000+0 -13980-3 0  9993
2 65961  51.9036  29.3329 0000859 134.7092 225.3940 14.79926241 46188
KUIPER-00136            
1 65962U 25228R   26222.60933049  .00001465  00000+0  22121-3 0  9991
2 65962  51.9028  27.5180 0000536 117.6665 242.4352 14.79926436 46197
KUIPER-00137            
1 65963U 25228S   26222.88213602  .00001499  00000+0  22559-3 0  9990
2 65963  51.9042  23.8138 0000684 132.1271 227.9750 14.79939430 46272
KUIPER-00138            
1 65964U 25228T   26222.64855123  .00001671  00000+0  24817-3 0  9996
2 65964  51.8994  22.2622 0000575  72.7634 287.3391 14.79931639 46274
KUIPER-00140            
1 65965U 25228U   26222.84837142  .00001560  00000+0  23364-3 0  9993
2 65965  51.9007  23.9695 0000574 119.3555 240.7465 14.79928613 46260
KUIPER-00141            
1 65966U 25228V   26222.85377714  .00001487  00000+0  22407-3 0  9994
2 65966  51.9043  19.0104 0000761 102.1907 257.9141 14.79921516 46335
KUIPER-00146            
1 65967U 25228W   26222.81730970  .00000181  00000+0  52737-4 0  9998
2 65967  51.9053  21.6831 0000604 106.7642 253.3387 14.79920338 46293
KUIPER-00149            
1 65968U 25228X   26222.72140900  .00001586  00000+0  23693-3 0  9995
2 65968  51.9025  16.9871 0000563 121.7288 238.3730 14.79934840 46356
KUIPER-00154            
1 65969U 25228Y   26222.62278175  .00001467  00000+0  22150-3 0  9996
2 65969  51.9014  14.9106 0000724 109.4151 250.6889 14.79921107 46371
KUIPER-00157            
1 65970U 25228Z   26222.79106598  .00001080  00000+0  16580-3 0  9996
2 65970  51.9038  16.4861 0001432 117.0941 243.0169 14.81239461 46367
KUIPER-00144            
1 67133U 25301A   26223.07671247  .00001556  00000+0  23315-3 0  9993
2 67133  51.9017  92.9217 0000810  87.0599 273.0455 14.79919060 36733
KUIPER-00164            
1 67134U 25301B   26223.06325433 -.00000102  00000+0  15564-4 0  9991
2 67134  51.9037 105.4934 0000712 108.1275 251.9765 14.79928773 36739
KUIPER-00175            
1 67135U 25301C   26222.91331037  .00001592  00000+0  23782-3 0  9995
2 67135  51.9008  88.6013 0000784 105.5835 254.5214 14.79924062 36858
KUIPER-00179            
1 67136U 25301D   26223.06594551 -.00001038  00000+0 -10719-3 0  9998
2 67136  51.8995 102.9318 0000904 108.0023 252.1037 14.79929558 36775
KUIPER-00181            
1 67137U 25301E   26223.05247225 -.00001039  00000+0 -10732-3 0  9997
2 67137  51.9035 115.5411 0001119 102.2016 257.9071 14.79930393 36571
KUIPER-00183            
1 67138U 25301F   26223.16668980 -.00052574  00000+0 -63629-2 0  9997
2 67138  51.9018  85.1245 0006773 225.0001 350.6878 14.83411267  4221
KUIPER-00184            
1 67139U 25301G   26223.03758742  .00001706  00000+0  25274-3 0  9994
2 67139  51.8998  98.0647 0000884  97.0825 263.0238 14.79937007 36935
KUIPER-00186            
1 67140U 25301H   26223.08625106  .00001607  00000+0  23975-3 0  9994
2 67140  51.9025 115.4019 0000969  99.8247 260.2825 14.79938713 36428
KUIPER-00187            
1 67141U 25301J   26223.08356924  .00001694  00000+0  25120-3 0  9994
2 67141  51.9034 117.9390 0000833 102.6306 257.4749 14.79929948 36385
KUIPER-00188            
1 67142U 25301K   26222.81473563  .00001469  00000+0  22166-3 0  9991
2 67142  51.9031  86.7130 0000852 115.9179 244.1871 14.79933798 36796
KUIPER-00191            
1 67143U 25301L   26223.05788933  .00001610  00000+0  24015-3 0  9992
2 67143  51.9011 110.5339 0000752 101.7844 258.3203 14.79928073 36519
KUIPER-00196            
1 67144U 25301M   26222.99528642  .00001274  00000+0  21227-3 0  9992
2 67144  51.8986  67.8511 0002180  75.0874 285.0328 14.76401191 37070
KUIPER-00204            
1 67145U 25301N   26222.98622340  .00004956  00000+0  67912-3 0  9993
2 67145  51.9032  83.3373 0001086 112.6098 247.4980 14.79900521 36971
KUIPER-00210            
1 67146U 25301P   26222.88903384  .00001610  00000+0  24013-3 0  9992
2 67146  51.9002 111.2300 0000974 102.4368 257.6703 14.79940023 36632
KUIPER-00221            
1 67147U 25301Q   26223.11728574  .00001694  00000+0  25108-3 0  9994
2 67147  51.9017 117.7506 0000786  98.3969 261.7082 14.79949757 36391
KUIPER-00232            
1 67148U 25301R   26223.03221613  .00001694  00000+0  25121-3 0  9993
2 67148  51.8992 103.1449 0000782 104.7453 255.3596 14.79923167 36581
KUIPER-00241            
1 67149U 25301S   26223.12269781  .00001731  00000+0  25599-3 0  9993
2 67149  51.9032 112.7541 0000928 101.8857 258.2209 14.79942533 36799
KUIPER-00245            
1 67150U 25301T   26223.18216617  .00000842  00000+0  13946-3 0  9996
2 67150  51.9031 120.0015 0000681  92.4037 267.7004 14.79931211 36361
KUIPER-00246            
1 67151U 25301U   26223.09702663  .00001574  00000+0  23545-3 0  9997
2 67151  51.9008 105.3228 0000878 111.3036 248.8020 14.79933780 36581
KUIPER-00247            
1 67152U 25301V   26223.04028830  .00001655  00000+0  24598-3 0  9999
2 67152  51.8966  95.5344 0000895 110.6917 249.4141 14.79935396 36690
KUIPER-00248            
1 67153U 25301W   26222.85659719  .00001446  00000+0  21868-3 0  9999
2 67153  51.8990  78.9823 0000730 109.2815 250.8226 14.79919421 37078
KUIPER-00249            
1 67154U 25301X   26223.04299925  .00001688  00000+0  25043-3 0  9998
2 67154  51.8998  93.0896 0000736 105.0670 255.0373 14.79930783 36729
KUIPER-00250            
1 67155U 25301Y   26223.06067353  .00001456  00000+0  21998-3 0  9997
2 67155  51.9008 107.9651 0001043  81.8865 278.2216 14.79930072 36551
KUIPER-00251            
1 67156U 25301Z   26223.07406992  .00001615  00000+0  24077-3 0  9993
2 67156  51.9009  95.4769 0001000 107.7636 252.3436 14.79933035 36886
KUIPER-00252            
1 67157U 25301AA  26223.07135566  .00001579  00000+0  23614-3 0  9995
2 67157  51.9008  97.9397 0000764 106.7267 253.3780 14.79923701 36663
KUIPER-00261            
1 67158U 25301AB  26223.09432387  .00001633  00000+0  24315-3 0  9999
2 67158  51.9023 107.8963 0000860 101.5291 258.5768 14.79941602 36526
KUIPER-00265            
1 67159U 25301AC  26222.97687503  .00001455  00000+0  21986-3 0  9991
2 67159  51.9027 123.3916 0000678 103.7019 256.4019 14.79923194 36332
KUIPER-00159            
1 67764U 26030A   26223.16668980 -.00116079  00000+0 -15942-1 0  9997
2 67764  51.8990 200.3242 0005801 249.0642 141.1035 14.78630150  5700
KUIPER-00160            
1 67765U 26030B   26223.15150676  .00009991  00000+0  27621-3 0  9996
2 67765  51.8798 192.4322 0004813 230.7180 129.3381 15.37647218 28855
KUIPER-00177            
1 67766U 26030C   26223.05880627  .00001215  00000+0  18831-3 0  9996
2 67766  51.9005 250.5066 0000271  62.1877 297.9113 14.79926752 28036
KUIPER-00178            
1 67767U 26030D   26222.48479448  .00001018  00000+0  16242-3 0  9993
2 67767  51.9001 253.0260 0000439  80.6798 279.4214 14.79941402 27956
KUIPER-00180            
1 67768U 26030E   26222.76033797  .00000999  00000+0  16005-3 0  9992
2 67768  51.8987 246.8063 0000490  63.1225 296.9787 14.79926338 28061
KUIPER-00197            
1 67769U 26030F   26223.18708046  .00001098  00000+0  17299-3 0  9993
2 67769  51.8987 224.9346 0000680  10.2648 349.8328 14.79927363 28402
KUIPER-00198            
1 67770U 26030G   26223.20731912  .00001027  00000+0  16363-3 0  9999
2 67770  51.8972 237.3224 0000401  61.4667 298.6335 14.79936811 28239
KUIPER-00199            
1 67771U 26030H   26223.12049596  .00012823  00000+0  35731-3 0  9997
2 67771  51.8793 194.4339 0008577 245.9119 114.0971 15.37105580 28822
KUIPER-00200            
1 67772U 26030J   26223.15601623  .00001100  00000+0  17322-3 0  9998
2 67772  51.8979 222.5929 0000614  63.9225 296.1800 14.79931954 28434
KUIPER-00203            
1 67773U 26030K   26223.12092531  .00001121  00000+0  17597-3 0  9995
2 67773  51.9065 255.2911 0000329  64.3971 295.7025 14.79944992 27970
KUIPER-00205            
1 67774U 26030L   26223.15869564  .00001149  00000+0  17972-3 0  9994
2 67774  51.8999 220.0385 0000425  35.2029 324.8961 14.79932605 28476
KUIPER-00208            
1 67775U 26030M   26223.09529132  .00001081  00000+0  17076-3 0  9992
2 67775  51.8979 247.8248 0000797   5.2792 354.8179 14.79925450 28076
KUIPER-00209            
1 67776U 26030N   26222.92910588  .00005137  00000+0  70169-3 0  9991
2 67776  51.8993 246.1541 0000175  18.4162 341.6807 14.79968743 28083
KUIPER-00213            
1 67777U 26030P   26223.10077757  .00000989  00000+0  15879-3 0  9992
2 67777  51.8956 242.8675 0000626  39.4028 320.6980 14.79912424 28140
KUIPER-00214            
1 67778U 26030Q   26222.46181278  .00001022  00000+0  16293-3 0  9995
2 67778  51.8997 243.2120 0000323  54.3494 305.7498 14.79944619 28085
KUIPER-00215            
1 67779U 26030R   26222.44153708  .00001037  00000+0  16500-3 0  9998
2 67779  51.8981 230.6620 0000525  34.5046 325.5950 14.79940573 28269
KUIPER-00218            
1 67780U 26030S   26223.20192653  .00001112  00000+0  17478-3 0  9996
2 67780  51.8974 242.3408 0000641  55.9523 304.1500 14.79939040 28163
KUIPER-00220            
1 67781U 26030T   26223.16136766  .00001187  00000+0  18481-3 0  9992
2 67781  51.8945 217.5525 0000796  65.8960 294.2086 14.79911277 28500
KUIPER-00222            
1 67782U 26030U   26222.49832793  .00000922  00000+0  14989-3 0  9996
2 67782  51.8983 240.6113 0000410  54.6356 305.4645 14.79926594 28123
KUIPER-00223            
1 67783U 26030V   26222.40510143  .00000999  00000+0  16005-3 0  9995
2 67783  51.9014 233.3238 0000477  47.3533 312.7470 14.79925718 28221
KUIPER-00225            
1 67784U 26030W   26223.21008037  .00001039  00000+0  16532-3 0  9991
2 67784  51.8983 234.9203 0000434  46.4270 313.6728 14.79929166 28267
KUIPER-00226            
1 67785U 26030X   26223.18787684  .00000717  00000+0  13288-3 0  9997
2 67785  51.9002 221.6813 0002945 251.3192 108.7449 14.76386358 28451
KUIPER-00259            
1 67786U 26030Y   26223.04123662  .00001137  00000+0  17812-3 0  9997
2 67786  51.8980 235.5691 0000467  48.3657 311.7346 14.79936217 28248
KUIPER-00260            
1 67787U 26030Z   26223.17900906  .00001069  00000+0  16918-3 0  9996
2 67787  51.9007 232.5627 0000445  50.4989 309.6012 14.79925877 28206
KUIPER-00262            
1 67788U 26030AA  26222.74001281 -.00000119  00000+0  13358-4 0  9999
2 67788  51.9006 234.4209 0000753 350.8607   9.2342 14.79933655 28234
KUIPER-00266            
1 67789U 26030AB  26222.43882340  .00001011  00000+0  16160-3 0  9993
2 67789  51.8993 233.2471 0000769 309.3202  50.7692 14.79937670 28223
KUIPER-00268            
1 67790U 26030AC  26222.40780136  .00001013  00000+0  16185-3 0  9991
2 67790  51.9035 230.9111 0000478  45.5003 314.5998 14.79920513 28254
KUIPER-00270            
1 67791U 26030AD  26223.19514576 -.00001194  00000+0 -12769-3 0  9998
2 67791  51.8985 217.3977 0000405  85.8503 274.2506 14.79927160 28510
KUIPER-00274            
1 67792U 26030AE  26222.76569715  .00000397  00000+0  81118-4 0  9993
2 67792  51.9007 241.7996 0000592 357.6553   2.4407 14.79935276 28137
KUIPER-00275            
1 67793U 26030AF  26222.71976098  .00000955  00000+0  15434-3 0  9992
2 67793  51.8992 222.0072 0000532  30.8846 329.2148 14.79926974 28403
KUIPER-00276            
1 67794U 26030AG  26223.15331794  .00001045  00000+0  16613-3 0  9991
2 67794  51.8980 225.0702 0001068 267.8991  92.1849 14.79934849 28406
KUIPER-00279            
1 67795U 26030AH  26223.19787295  .00001121  00000+0  17608-3 0  9997
2 67795  51.9017 214.9095 0000849 349.7755  10.3190 14.79926922 28544
KUIPER-00131            
1 68573U 26072A   26222.45117484  .00001643  00000+0  24451-3 0  9996
2 68573  51.9019 315.6966 0000550 104.3797 255.7227 14.79915564 19150
KUIPER-00189            
1 68574U 26072B   26222.75235449  .00001460  00000+0  22049-3 0  9990
2 68574  51.9006 316.8461 0000462 117.8259 242.2750 14.79929395 19164
KUIPER-00192            
1 68575U 26072C   26222.65641453  .00005246  00000+0  71633-3 0  9995
2 68575  51.9022 312.2853 0000338  31.5292 328.5691 14.79951811 19226
KUIPER-00193            
1 68576U 26072D   26222.59968990 -.00000866  00000+0 -84607-4 0  9998
2 68576  51.9061 302.5642 0001179  52.0860 308.0209 14.79931345 19353
KUIPER-00194            
1 68577U 26072E   26222.62535943  .00001502  00000+0  22590-3 0  9999
2 68577  51.9032 309.9409 0000209 103.6640 256.4345 14.79933510 19258
KUIPER-00229            
1 68578U 26072F   26222.55230126 -.00005731  00000+0 -72351-3 0  9997
2 68578  51.9038 315.2429 0000156  81.0318 279.0663 14.79923770 19171
KUIPER-00230            
1 68579U 26072G   26222.43315154  .00010872  00000+0  29319-3 0  9996
2 68579  51.8749 274.0367 0000800 248.7217 111.3685 15.38322238 19731
KUIPER-00231            
1 68580U 26072H   26222.37975487  .00001207  00000+0  18775-3 0  9998
2 68580  51.8997 288.5971 0001715   3.3083 356.7890 14.79841414 19527
KUIPER-00234            
1 68581U 26072J   26222.65913054  .00001443  00000+0  21818-3 0  9996
2 68581  51.9015 309.7643 0000274  16.9419 343.1553 14.79941348 19257
KUIPER-00236            
1 68582U 26072K   26222.52216772  .00008409  00000+0  22823-3 0  9992
2 68582  51.8769 273.8851 0001255 208.6599 151.4319 15.38450814 19747
KUIPER-00244            
1 68583U 26072L   26222.90627574 -.00001033  00000+0 -10650-3 0  9994
2 68583  51.9006 298.6942 0000475 191.5500 168.5451 14.79926744 19430
KUIPER-00253            
1 68584U 26072M   26222.63347143  .00001323  00000+0  20251-3 0  9994
2 68584  51.9048 302.4140 0000414  99.9796 260.1213 14.79936711 19353
KUIPER-00254            
1 68585U 26072N   26222.66453921  .00001411  00000+0  21414-3 0  9990
2 68585  51.9049 304.7751 0000604 196.9130 163.1812 14.79923630 19329
KUIPER-00263            
1 68586U 26072P   26223.22097034  .00001130  00000+0  17720-3 0  9996
2 68586  51.9029 287.3865 0000382  91.5171 268.5835 14.79919227 19612
KUIPER-00269            
1 68587U 26072Q   26222.61051121  .00001235  00000+0  19083-3 0  9996
2 68587  51.9008 292.5000 0000263  21.5103 338.5871 14.79960120 19497
KUIPER-00272            
1 68588U 26072R   26222.55514531 -.00001370  00000+0 -15074-3 0  9997
2 68588  51.8999 312.7185 0000470 103.0814 257.0201 14.79925676 19208
KUIPER-00285            
1 68589U 26072S   26222.57673442  .00001340  00000+0  20480-3 0  9999
2 68589  51.9057 292.7147 0000814 247.6714 112.4163 14.79933996 19481
KUIPER-00286            
1 68590U 26072T   26222.91701270  .00003085  00000+0  43345-3 0  9993
2 68590  51.9019 288.6492 0000414 108.9317 251.1690 14.79938125 19577
KUIPER-00289            
1 68591U 26072U   26222.90896615 -.00001291  00000+0 -14033-3 0  9992
2 68591  51.9016 296.1729 0000821  39.6394 320.4629 14.79934206 19465
KUIPER-00290            
1 68592U 26072V   26222.58951104  .00000739  00000+0  13578-3 0  9999
2 68592  51.9033 296.7263 0000425 228.9685 131.1239 14.76441642 19435
KUIPER-00293            
1 68593U 26072W   26222.49302024  .00001532  00000+0  22990-3 0  9991
2 68593  51.8990 307.9937 0001241 223.6699 136.4165 14.79929232 19260
KUIPER-00294            
1 68594U 26072X   26222.91165965 -.00000500  00000+0 -36583-4 0  9990
2 68594  51.9009 293.6614 0000640  98.1473 261.9562 14.79933373 19506
KUIPER-00296            
1 68595U 26072Y   26223.16668980 -.00063866  00000+0 -68772-2 0  9991
2 68595  51.8979 275.2182 0008117 181.6161  87.7654 14.88270812  4981
KUIPER-00297            
1 68596U 26072Z   26222.66184559  .00001367  00000+0  20838-3 0  9999
2 68596  51.9014 307.2407 0001272  33.1142 326.9900 14.79923787 19292
KUIPER-00300            
1 68597U 26072AA  26222.42249517  .00000789  00000+0  14265-3 0  9994
2 68597  51.9044 305.7653 0001299 229.9549 130.1298 14.76522462 19294
KUIPER-00301            
1 68598U 26072AB  26223.16668980 -.00022035  00000+0 -14965-2 0  9992
2 68598  51.8893 272.7104 0004357 191.6248 127.2575 15.05577804  5528
KUIPER-00304            
1 68599U 26072AC  26223.16668980 -.00042386  00000+0 -36819-2 0  9996
2 68599  51.8909 273.6975 0010410 215.7378  22.9556 14.96550948  5846
KUIPER-00317            
1 68600U 26072AD  26222.60780462  .00001341  00000+0  20485-3 0  9994
2 68600  51.8994 295.0126 0000346  96.6534 263.4468 14.79925433 19458
KUIPER-00320            
1 68601U 26072AE  26222.73747270  .00001277  00000+0  19650-3 0  9999
2 68601  51.9037 299.4398 0000490 107.8374 252.2642 14.79917099 19408
KUIPER-00299            
1 68864U 26095A   26222.82387396  .00000838  00000+0  14996-3 0  9994
2 68864  51.9012   8.2631 0001951  13.8391 346.2623 14.76456184 15719
KUIPER-00353            
1 68865U 26095B   26222.81318726 -.00000903  00000+0 -89514-4 0  9999
2 68865  51.9019 354.1023 0000541 148.1635 211.9360 14.79930736 15913
KUIPER-00357            
1 68866U 26095C   26222.77134786  .00001041  00000+0  16559-3 0  9997
2 68866  51.9033   1.7925 0000508 145.4975 214.6020 14.79932095 15807
KUIPER-00364            
1 68867U 26095D   26222.80240618 -.00001139  00000+0 -12049-3 0  9994
2 68867  51.9053   4.1687 0000671 198.3700 161.7238 14.79926951 15779
KUIPER-00375            
1 68868U 26095E   26221.76078486  .00032520  00000+0  46140-2 0  9995
2 68868  51.9045   1.2242 0002369 163.5886 196.5152 14.76686113 15727
KUIPER-00433            
1 68869U 26095F   26222.82806452  .00001518  00000+0  22804-3 0  9991
2 68869  51.9027  11.5343 0000626 132.3139 227.7877 14.79939958 15679
KUIPER-00437            
1 68870U 26095G   26222.53954355  .00012353  00000+0  34105-3 0  9993
2 68870  51.8798 339.3677 0006311 138.9284 221.2179 15.37444826 16097
KUIPER-00448            
1 68871U 26095H   26223.10726514  .00000935  00000+0  16381-3 0  9991
2 68871  51.9057 359.2351 0001125 274.7416  85.3416 14.76415699 15866
KUIPER-00459            
1 68872U 26095J   26223.05257205  .00054137  00000+0  75917-2 0  9994
2 68872  51.9049 348.0798 0002923 249.0504 111.0144 14.76934375 16019
KUIPER-00468            
1 68873U 26095K   26223.16668980  .00030287  00000+0  43131-2 0  9996
2 68873  51.8990 344.2233 0002243  97.6885 250.1730 14.76563212  5731
KUIPER-00476            
1 68874U 26095L   26222.75173227  .00008347  00000+0  29322-3 0  9995
2 68874  51.8737 340.6752 0010145 128.7207 231.4685 15.30193708 16093
KUIPER-00478            
1 68875U 26095M   26223.05222516  .00001497  00000+0  22534-3 0  9993
2 68875  51.9013 350.5521 0000498 314.1749  45.9172 14.79931330 15987
KUIPER-00480            
1 68876U 26095N   26222.60306537  .00000793  00000+0  14307-3 0  9997
2 68876  51.9048 349.9052 0001312 344.0883  16.0036 14.76570172 15959
KUIPER-00482            
1 68877U 26095P   26222.80776850  .00001544  00000+0  23153-3 0  9993
2 68877  51.9030 359.1271 0001226 184.6008 175.4943 14.79925567 15848
KUIPER-00483            
1 68878U 26095Q   26223.13198601  .00001583  00000+0  23676-3 0  9996
2 68878  51.9016  10.1651 0002229 164.7403 195.3627 14.79924466 15714
KUIPER-00488            
1 68879U 26095R   26223.04956595  .00001540  00000+0  23098-3 0  9992
2 68879  51.9026 353.0705 0000358 106.7841 253.3160 14.79915485 15941
KUIPER-00489            
1 68880U 26095S   26223.16668980  .00026061  00000+0  37212-2 0  9992
2 68880  51.8976 344.9692 0003952  38.9102 221.1112 14.76523232  5276
KUIPER-00499            
1 68881U 26095T   26223.08600966  .00001624  00000+0  24200-3 0  9996
2 68881  51.9015 350.4508 0000540 165.1658 194.9320 14.79916437 15982
KUIPER-00500            
1 68882U 26095U   26223.13465227 -.00003224  00000+0 -39411-3 0  9992
2 68882  51.9031   7.6812 0000659 125.8918 234.2105 14.79937819 15754
KUIPER-00502            
1 68883U 26095V   26223.16668980 -.00036115  00000+0 -50929-2 0  9998
2 68883  51.9017 343.6189 0005385 112.7066  57.3043 14.76835655  4170
KUIPER-00503            
1 68884U 26095W   26223.10361852  .00001497  00000+0  22535-3 0  9997
2 68884  51.9004   5.3018 0000642 110.8617 249.2414 14.79926220 15787
KUIPER-00504            
1 68885U 26095X   26222.72408037 -.00001031  00000+0 -10627-3 0  9997
2 68885  51.9048  14.4981 0000458 127.6726 232.4279 14.79927497 15621
KUIPER-00505            
1 68886U 26095Y   26223.10632019  .00001575  00000+0  23567-3 0  9998
2 68886  51.9041   2.8110 0000557 115.9568 244.1451 14.79922749 15812
KUIPER-00507            
1 68887U 26095Z   26222.76272649  .00002937  00000+0  41408-3 0  9996
2 68887  51.9020 354.3206 0000277  90.5971 269.5023 14.79927082 15907
KUIPER-00511            
1 68888U 26095AA  26222.75367113 -.00004788  00000+0 -59933-3 0  9997
2 68888  51.9011 346.9759 0000878 178.8135 181.2829 14.79945917 16000
KUIPER-00512            
1 68889U 26095AB  26223.13735983  .00001578  00000+0  23589-3 0  9995
2 68889  51.9037   5.1746 0000416 109.1525 250.9483 14.79938165 15788
KUIPER-00519            
1 68890U 26095AC  26223.08063816  .00001583  00000+0  23663-3 0  9999
2 68890  51.9037 355.4865 0002157  97.5946 262.5261 14.79934288 15914
KUIPER-00521            
1 68891U 26095AD  26222.74131953 -.00002839  00000+0 -34328-3 0  9997
2 68891  51.9043 350.6824 0000716 112.7125 247.3913 14.79960258 15957
KUIPER-00524            
1 68892U 26095AE  26222.78924120  .00000765  00000+0  13954-3 0  9994
2 68892  51.9000 358.6624 0001999 180.7055 179.3903 14.76466430 15849
KUIPER-00370            
1 68919U 26098A   26223.16668980 -.00009948  00000+0 -12790-2 0  9999
2 68919  51.8973 174.9091 0000721  78.7813  65.6877 14.79895407  3829
KUIPER-00380            
1 68920U 26098B   26223.16668980 -.00029319  00000+0 -27404-2 0  9993
2 68920  51.8937 167.8181 0005944  20.7128 310.5436 14.93543209  5663
KUIPER-00386            
1 68921U 26098C   26223.15797333  .00000834  00000+0  14887-3 0  9999
2 68921  51.8997 170.0390 0002275 172.4548 187.6447 14.76595042 15695
KUIPER-00388            
1 68922U 26098D   26223.13432523 -.00000856  00000+0 -83357-4 0  9990
2 68922  51.9004 180.3391 0000385 101.1907 258.9098 14.79922576 15546
KUIPER-00405            
1 68923U 26098E   26223.15404742  .00001390  00000+0  21139-3 0  9996
2 68923  51.9015 177.6047 0001760  97.3822 262.7340 14.79915706 15580
KUIPER-00408            
1 68924U 26098F   26223.16668980 -.00046321  00000+0 -45680-2 0  9995
2 68924  51.8942 170.2636 0011805 337.8762 328.4435 14.91602411  3906
KUIPER-00409            
1 68925U 26098G   26223.12288294  .00003994  00000+0  55255-3 0  9995
2 68925  51.9034 175.2392 0001515 104.7240 255.3890 14.79934554 15619
KUIPER-00410            
1 68926U 26098H   26223.16668980 -.00040618  00000+0 -53098-2 0  9992
2 68926  51.8957 172.5380 0003091  10.6468 209.2912 14.80097159  3510
KUIPER-00412            
1 68927U 26098J   26223.16668980 -.00060882  00000+0 -70046-2 0  9990
2 68927  51.8999 165.1328 0006187  87.1058 136.3992 14.85568865  5781
KUIPER-00413            
1 68928U 26098K   26223.06948131  .00001325  00000+0  20282-3 0  9992
2 68928  51.8998 177.9669 0001563  60.8964 299.2155 14.79933602 15573
KUIPER-00414            
1 68929U 26098L   26223.16000963  .00001216  00000+0  18865-3 0  9999
2 68929  51.8972 187.6585 0001954  17.9232 342.1799 14.79913416 15445
KUIPER-00415            
1 68930U 26098M   26223.16668980 -.00059192  00000+0 -74334-2 0  9990
2 68930  51.8998 170.0640 0002002 312.8964 333.7423 14.81961137  5846
KUIPER-00416            
1 68931U 26098N   26223.16668980 -.00071577  00000+0 -49228-2 0  9996
2 68931  51.8877 162.7456 0003781  70.2821 211.6927 15.05701248  5113
KUIPER-00420            
1 68932U 26098P   26223.16668980 -.00073003  00000+0 -47642-2 0  9991
2 68932  51.8839 163.5880 0004093  10.6646 356.6130 15.07643993  5235
KUIPER-00421            
1 68933U 26098Q   26223.16668980 -.00048681  00000+0 -46282-2 0  9995
2 68933  51.8937 167.8530 0009651 324.4897 110.9340 14.93093224  5619
KUIPER-00425            
1 68934U 26098R   26223.17357924  .00008591  00000+0  11550-2 0  9994
2 68934  51.8991 175.0165 0000983 141.5682 218.5350 14.79913227 15620
KUIPER-00430            
1 68935U 26098S   26223.17073895  .00001464  00000+0  22101-3 0  9994
2 68935  51.9030 177.4114 0001817  45.4830 314.6281 14.79926696 15591
KUIPER-00431            
1 68936U 26098T   26223.16804046  .00001890  00000+0  27682-3 0  9996
2 68936  51.9001 180.0276 0000911  51.4427 308.6617 14.79949019 15558
KUIPER-00432            
1 68937U 26098U   26223.16668980 -.00004087  00000+0 -50776-3 0  9995
2 68937  51.8978 172.4314 0001596  94.8486 214.5583 14.79902934  4814
KUIPER-00434            
1 68938U 26098V   26223.06686147  .00001063  00000+0  18132-3 0  9999
2 68938  51.9002 175.9891 0001311  24.4402 335.6621 14.76603050 15605
KUIPER-00436            
1 68939U 26098W   26223.08906036 -.00002024  00000+0 -23656-3 0  9991
2 68939  51.8991 175.3862 0000960  94.8881 265.2191 14.79928485 15611
KUIPER-00438            
1 68940U 26098X   26223.15933897  .00001488  00000+0  22422-3 0  9997
2 68940  51.9029 172.5897 0000251 146.5647 213.5331 14.79929495 15659
KUIPER-00439            
1 68941U 26098Y   26223.14237397  .00012454  00000+0  16694-2 0  9997
2 68941  51.9031 172.6532 0000067 247.9999 112.0956 14.79684492 15652
KUIPER-00440            
1 68942U 26098Z   26223.16668980 -.00020893  00000+0 -15888-2 0  9998
2 68942  51.8916 165.9636 0003872 350.5583 247.3565 15.01321973  5083
KUIPER-00442            
1 68943U 26098AA  26223.16668980 -.00061005  00000+0 -71466-2 0  9993
2 68943  51.9004 166.9366 0000699 352.6795 351.4673 14.84848283  4888
KUIPER-00446            
1 68944U 26098AB  26223.16668980 -.00002792  00000+0 -33906-3 0  9990
2 68944  51.8978 170.0565 0003194 139.2095  68.2694 14.79714645  4840
KUIPER-00451            
1 68945U 26098AC  26223.18501215  .00001472  00000+0  22191-3 0  9996
2 68945  51.9006 179.9607 0000857  39.4674 320.6350 14.79954561 15553
KUIPER-00452            
1 68946U 26098AD  26223.16668980 -.00065287  00000+0 -78456-2 0  9998
2 68946  51.9016 167.6027 0002210 325.3361 197.3245 14.83834555  5196
KUIPER-00453            
1 68947U 26098AE  26223.16668980 -.00033925  00000+0 -33556-2 0  9995
2 68947  51.8975 165.2161 0004663 359.0149 308.4733 14.91383430  5451
KUIPER-00454            
1 68948U 26098AF  26223.19116465  .00001225  00000+0  20496-3 0  9991
2 68948  51.9001 181.6422 0002609 229.9396 130.1336 14.76474113 15533
KUIPER-00455            
1 68949U 26098AG  26223.15122765  .00001298  00000+0  19928-3 0  9996
2 68949  51.9002 180.1111 0002400  15.2677 344.8358 14.79922062 15555
KUIPER-00458            
1 68950U 26098AH  26223.16668980 -.00044062  00000+0 -44880-2 0  9995
2 68950  51.8956 165.2396 0005124  93.3394   9.3675 14.90338102  3003
KUIPER-00282            
1 69267U 26118A   26223.07413686  .00001376  00000+0  20935-3 0  9996
2 69267  51.8967 157.9436 0001513  75.1987 284.9143 14.79953943 12288
KUIPER-00383            
1 69268U 26118B   26223.16668980 -.00056072  00000+0 -72796-2 0  9992
2 69268  51.8976 155.0538 0002899  95.8034 292.3686 14.80545245  5169
KUIPER-00527            
1 69269U 26118C   26223.16668980 -.00025330  00000+0 -32945-2 0  9998
2 69269  51.8970 155.1838 0001828 255.6167 313.1341 14.80079481  4828
KUIPER-00562            
1 69270U 26118D   26223.16668980 -.00034924  00000+0 -23292-2 0  9994
2 69270  51.8864 148.8819 0002519 337.0574 322.6126 15.06497595  4639
KUIPER-00570            
1 69271U 26118E   26223.18973843  .00001595  00000+0  23806-3 0  9992
2 69271  51.8998 160.0456 0000498  28.0986 332.0003 14.79943675 12259
KUIPER-00572            
1 69272U 26118F   26223.16668980 -.00077271  00000+0 -10911-1 0  9991
2 69272  51.8996 154.7621 0002676 231.7812 209.7608 14.77185889  5798
KUIPER-00581            
1 69273U 26118G   26223.03771969  .00000462  00000+0  89676-4 0  9993
2 69273  51.9010 160.6110 0002825  65.3061 294.8196 14.79926297 12332
KUIPER-00584            
1 69274U 26118H   26223.08570956  .00001416  00000+0  21468-3 0  9996
2 69274  51.9005 163.0133 0001110  94.9556 265.1533 14.79929349 12216
KUIPER-00587            
1 69275U 26118J   26223.16668980 -.00050983  00000+0 -62705-2 0  9994
2 69275  51.9017 152.3404 0004959  33.7957 357.4583 14.82739989  4979
KUIPER-00590            
1 69276U 26118K   26223.16668980  .00009718  00000+0  13008-2 0  9995
2 69276  51.9011 157.5493 0001816  43.3522 270.5106 14.79972551  5419
KUIPER-00592            
1 69277U 26118L   26223.11933654 -.00003605  00000+0 -48183-3 0  9998
2 69277  51.9037 157.2306 0001323 334.7188  25.3708 14.76567505 12302
KUIPER-00593            
1 69278U 26118M   26223.15596168  .00013856  00000+0  38133-3 0  9999
2 69278  51.8703 147.0880 0003720  23.9612 336.1547 15.37443598 12507
KUIPER-00594            
1 69279U 26118N   26223.16668980  .00020765  00000+0  91935-3 0  9999
2 69279  51.8793 147.5495 0001142 152.7826   7.4724 15.21611117  5490
KUIPER-00595            
1 69280U 26118P   26223.09421986  .00010827  00000+0  29470-3 0  9999
2 69280  51.8713 147.4227 0001768  79.1373 280.9813 15.38039890 12461
KUIPER-00596            
1 69281U 26118Q   26223.20386769  .00001459  00000+0  22043-3 0  9992
2 69281  51.9016 162.3816 0000643 105.1539 254.9494 14.79928279 12237
KUIPER-00597            
1 69282U 26118R   26223.16668980  .00038947  00000+0  11836-2 0  9995
2 69282  51.8677 147.3619 0006884  18.1387 222.3561 15.33655375  5276
KUIPER-00599            
1 69283U 26118S   26223.16668980 -.00044704  00000+0 -49408-2 0  9992
2 69283  51.8987 152.5940 0003445   8.4532 289.9573 14.87062923  5057
KUIPER-00600            
1 69284U 26118T   26223.16668980 -.00949935  00000+0 -33935-1 0  9990
2 69284  51.8671 147.5696 0007642  17.0770 133.2536 15.31207857  4903
KUIPER-00601            
1 69285U 26118U   26223.18446587  .00001004  00000+0  17334-3 0  9991
2 69285  51.9026 157.3822 0001426 118.2929 241.8176 14.76492433 12306
KUIPER-00602            
1 69286U 26118V   26223.16668980 -.00025253  00000+0 -23157-2 0  9996
2 69286  51.8948 150.2619 0006446 351.7411   9.1576 14.94211741  4369
KUIPER-00603            
1 69287U 26118W   26223.16668980 -.00056565  00000+0 -74254-2 0  9991
2 69287  51.9026 152.4271 0000661 150.6904  13.7079 14.80090504  4649
KUIPER-00605            
1 69288U 26118X   26223.20654306  .00004236  00000+0  58465-3 0  9997
2 69288  51.8996 159.8600 0000711 137.1878 222.9139 14.79904010 12271
KUIPER-00606            
1 69289U 26118Y   26223.16668980 -.00041785  00000+0 -49750-2 0  9994
2 69289  51.9011 152.6079 0002433 135.8538  27.1817 14.83992402  5191
KUIPER-00607            
1 69290U 26118Z   26223.16668980  .00008030  00000+0  26388-3 0  9993
2 69290  51.8708 147.2603 0006267   5.6462 302.1512 15.32441567  4167
KUIPER-00608            
1 69291U 26118AA  26223.16668980 -.02041604  00000+0 -79667-1 0  9998
2 69291  51.8625 149.1198 0011229  27.3077  60.6517 15.28681324  4807
KUIPER-00610            
1 69292U 26118AB  26223.16668980 -.00027329  00000+0 -27382-2 0  9993
2 69292  51.8955 150.0976 0001415  36.0801 299.6954 14.90774388  5448
KUIPER-00613            
1 69293U 26118AC  26223.02084375  .00001344  00000+0  20530-3 0  9995
2 69293  51.9005 160.6911 0000921 102.0605 258.0461 14.79915098 12249
KUIPER-00618            
1 69294U 26118AD  26223.16668980  .00002128  00000+0  16901-3 0  9999
2 69294  51.8889 148.7916 0001284 339.2599 284.0030 15.04678222  5685
KUIPER-00620            
1 69295U 26118AE  26223.16668980 -.00012310  00000+0 -11258-2 0  9995
2 69295  51.8957 150.4530 0003793 317.5304 272.2519 14.93839023  5590
KUIPER-00423            
1 69592U 26140A   26223.00835322  .00007789  00000+0  21448-3 0  9994
2 69592  51.8807 133.1792 0013199   8.6960 351.4253 15.38057976  9676
KUIPER-00428            
1 69593U 26140B   26223.00737961  .00011439  00000+0  31806-3 0  9991
2 69593  51.8806 133.9060 0007490 120.9464 239.2259 15.37299563  9663
KUIPER-00481            
1 69594U 26140C   26223.16668980  .00045039  00000+0  13352-2 0  9991
2 69594  51.8792 132.6660 0011570  18.2116  13.7694 15.34334525  5598
KUIPER-00490            
1 69595U 26140D   26223.16668980  .00021372  00000+0  13411-2 0  9992
2 69595  51.8864 134.1800 0005496  62.6818 359.3535 15.09231468  5557
KUIPER-00493            
1 69596U 26140E   26223.16668980 -.00021839  00000+0 -24147-2 0  9991
2 69596  51.8992 137.6825 0006301 151.9765 248.6755 14.86672372  5757
KUIPER-00496            
1 69597U 26140F   26223.16668980  .00041088  00000+0  13323-2 0  9992
2 69597  51.8781 134.2490 0010409 138.7394 191.3382 15.31533536  5894
KUIPER-00513            
1 69598U 26140G   26223.16668980 -.00023938  00000+0 -15415-2 0  9993
2 69598  51.8890 134.1063 0007298  84.3125 299.1958 15.07567425  5355
KUIPER-00516            
1 69599U 26140H   26223.17678350  .00012754  00000+0  34414-3 0  9990
2 69599  51.8786 132.7877 0007621  89.6381 270.5479 15.38121425  9691
KUIPER-00517            
1 69600U 26140J   26222.76631444  .00024566  00000+0  66797-3 0  9993
2 69600  51.8771 134.5342 0010912  31.5714 328.5925 15.37351064  9635
KUIPER-00520            
1 69601U 26140K   26223.16668980  .00014160  00000+0  10446-2 0  9992
2 69601  51.8914 135.3712 0005904 105.8635  13.4741 15.03492778  5315
KUIPER-00522            
1 69602U 26140L   26222.95767536  .00013399  00000+0  38105-3 0  9992
2 69602  51.8787 133.5759 0014406   2.1729 357.9317 15.36366885  9667
KUIPER-00528            
1 69603U 26140M   26223.16668980  .00008580  00000+0  74711-3 0  9999
2 69603  51.8972 135.7852 0005392  75.8128 128.9831 14.97610130  3129
KUIPER-00532            
1 69604U 26140N   26223.14699815  .00014731  00000+0  41156-3 0  9991
2 69604  51.8796 133.3284 0005548 127.4148 232.7345 15.36913510  9689
KUIPER-00533            
1 69605U 26140P   26223.16668980 -.00011452  00000+0 -51427-3 0  9994
2 69605  51.8844 133.1650 0006591  58.7696  70.4243 15.19732472  3508
KUIPER-00534            
1 69606U 26140Q   26223.16668980  .00058644  00000+0  16729-2 0  9992
2 69606  51.8809 132.6660 0011928   2.3704  33.7362 15.35420188  1306
KUIPER-00537            
1 69607U 26140R   26223.16668980 -.00006484  00000+0 -59371-3 0  9991
2 69607  51.8970 137.4107 0006481 181.9891 118.3421 14.93009119  4202
KUIPER-00538            
1 69608U 26140S   26223.16668980  .00008743  00000+0  69238-3 0  9993
2 69608  51.8913 135.5138 0003075  62.1598  84.8901 15.01269908  4779
KUIPER-00540            
1 69609U 26140T   26223.00367622  .00007647  00000+0  21520-3 0  9990
2 69609  51.8806 133.8881 0006799 112.4238 247.7469 15.37455356  9668
KUIPER-00541            
1 69610U 26140U   26222.95802044  .00014277  00000+0  37598-3 0  9996
2 69610  51.8818 133.5971 0008409  56.2529 303.9259 15.38761200  9669
KUIPER-00542            
1 69611U 26140V   26223.15152270  .00013516  00000+0  35644-3 0  9994
2 69611  51.8793 132.6258 0008525  41.2778 318.8852 15.38767731  9691
KUIPER-00543            
1 69612U 26140W   26223.14525206  .00012032  00000+0  33804-3 0  9995
2 69612  51.8790 133.3127 0007958 122.7980 237.3774 15.36918560  9684
KUIPER-00544            
1 69613U 26140X   26223.15710965  .00017173  00000+0  45039-3 0  9999
2 69613  51.8791 132.6626 0007053  52.6732 307.4897 15.38742501  9692
KUIPER-00546            
1 69614U 26140Y   26223.01019262  .00008838  00000+0  23978-3 0  9993
2 69614  51.8788 133.1802 0014423 358.8072   1.2879 15.38318359  9675
KUIPER-00547            
1 69615U 26140Z   26223.15849701  .00011598  00000+0  31164-3 0  9991
2 69615  51.8810 132.6887 0011219  24.6822 335.4700 15.38318969  9694
KUIPER-00549            
1 69616U 26140AA  26223.12611072  .00011353  00000+0  31430-3 0  9992
2 69616  51.8780 133.1952 0007911 109.4324 250.7518 15.37441871  9686
KUIPER-00550            
1 69617U 26140AB  26223.16451608 -.00005526  00000+0 -17874-3 0  9997
2 69617  51.8788 134.9048 0008849 152.7793 207.3656 15.29348430  9669
KUIPER-00551            
1 69618U 26140AC  26223.14305082  .00016119  00000+0  42294-3 0  9992
2 69618  51.8789 132.5706 0012665  17.6800 342.4626 15.38726320  9694
KUIPER-00554            
1 69619U 26140AD  26223.15337637  .00013166  00000+0  34982-3 0  9999
2 69619  51.8790 132.6366 0011483  27.1477 333.0109 15.38534679  9699
KUIPER-00555            
1 69620U 26140AE  26223.15392690  .00019072  00000+0  50565-3 0  9998
2 69620  51.8812 132.6585 0010923  14.3042 345.8252 15.38297164  9698
KUIPER-00556            
1 69621U 26140AF  26223.14476080  .00018381  00000+0  48065-3 0  9998
2 69621  51.8809 132.5931 0012447   4.2161 355.8929 15.38732909  9695
KUIPER-00557            
1 69622U 26140AG  26223.16767301  .00013835  00000+0  37293-3 0  9990
2 69622  51.8807 132.7429 0009945  36.7869 323.3799 15.38056536  9692
KUIPER-00560            
1 69623U 26140AH  26223.16928588 -.00020992  00000+0 -56092-3 0  9999
2 69623  51.8796 132.7414 0010268  45.4452 314.7372 15.36995016  9693
KUIPER-00561            
1 69624U 26140AJ  26223.16668980 -.02151470  00000+0 -95288-1 0  9993
2 69624  51.8842 133.1375 0008187  30.4894 163.4031 15.24776618  5743
KUIPER-00564            
1 69625U 26140AK  26223.16668980 -.01842013  00000+0 -59708-1 0  9990
2 69625  51.8804 132.8540 0008837  45.7022 264.4649 15.34803528  5734
KUIPER-00567            
1 69626U 26140AL  26223.01493551  .00013287  00000+0  35563-3 0  9990
2 69626  51.8778 133.2051 0012711   2.3592 357.7453 15.38284284  9676
KUIPER-00573            
1 69627U 26140AM  26223.16668980  .00053765  00000+0  16289-2 0  9995
2 69627  51.8791 132.8244 0010903  21.3009 285.2014 15.33574312  5691
KUIPER-00258            
1 69763U 26151A   26222.90702693 -.00003951  00000+0 -10866-3 0  9999
2 69763  51.8683  51.9810 0011758 269.2012  90.7626 15.33432231  6117
KUIPER-00526            
1 69764U 26151B   26223.16668980 -.00064524  00000+0 -61349-2 0  9993
2 69764  51.8961  53.0861 0007101 255.3571 319.1654 14.93248141  5780
KUIPER-00558            
1 69765U 26151C   26223.16668980 -.00056060  00000+0 -45112-2 0  9990
2 69765  51.8917  53.3187 0006928 255.3064 296.3025 14.99653572  4757
KUIPER-00569            
1 69766U 26151D   26223.16668980 -.00108957  00000+0 -69078-2 0  9991
2 69766  51.8919  51.5270 0002963 270.1034 129.3795 15.08937799  5263
KUIPER-00589            
1 69767U 26151E   26223.16668980 -.00062180  00000+0 -57058-2 0  9994
2 69767  51.8971  52.6890 0004725 256.2989 210.1912 14.94637701  4829
KUIPER-00598            
1 69768U 26151F   26222.78720236  .00009088  00000+0  29674-3 0  9995
2 69768  51.8663  52.6605 0008410 265.6386  94.3638 15.32466002  6097
KUIPER-00604            
1 69769U 26151G   26223.16668980 -.02460832  00000+0 -10596+0 0  9997
2 69769  51.8875  50.2069 0001949 239.3441  18.6330 15.25676476  3456
KUIPER-00609            
1 69770U 26151H   26223.16668980 -.02042912  00000+0 -69593-1 0  9997
2 69770  51.8816  49.7663 0001249   9.0837 111.0939 15.33139877  5509
KUIPER-00611            
1 69771U 26151J   26223.16668980 -.00073053  00000+0 -34940-2 0  9995
2 69771  51.8886  50.4649 0002672 282.7695 256.2221 15.18710329  3226
KUIPER-00612            
1 69772U 26151K   26223.16668980 -.00051474  00000+0 -34496-2 0  9995
2 69772  51.8940  51.4239 0000167  14.0171  40.5512 15.06507503  3497
KUIPER-00614            
1 69773U 26151L   26223.16668980 -.00861970  00000+0 -46226-1 0  9999
2 69773  51.8901  50.4609 0002857 280.3498 179.0433 15.17027434  3596
KUIPER-00615            
1 69774U 26151M   26223.16668980 -.00064191  00000+0 -52512-2 0  9996
2 69774  51.8915  52.4601 0005672 294.2872  22.0359 14.99098285  5007
KUIPER-00616            
1 69775U 26151N   26223.00375411 -.00216603  00000+0 -57616-2 0  9991
2 69775  51.8799  50.4392 0002169 236.3716 123.7064 15.38504033  6140
KUIPER-00617            
1 69776U 26151P   26222.95279095  .00021418  00000+0  56597-3 0  9990
2 69776  51.8805  50.8457 0004155 238.7783 121.2797 15.38365819  6134
KUIPER-00619            
1 69777U 26151Q   26223.16668980 -.00026483  00000+0 -92214-3 0  9995
2 69777  51.8823  49.8741 0001687 259.2139 156.3664 15.28848393  3118
KUIPER-00621            
1 69778U 26151R   26223.16668980 -.00133929  00000+0 -63180-2 0  9999
2 69778  51.8908  50.3344 0001112 269.5054 310.7719 15.19544182  5288
KUIPER-00622            
1 69779U 26151S   26223.16668980 -.00115342  00000+0 -80605-2 0  9990
2 69779  51.8865  51.8177 0009643 265.3143 274.2601 15.05352359  5889
KUIPER-00623            
1 69780U 26151T   26223.16668980 -.00107160  00000+0 -68204-2 0  9992
2 69780  51.8924  51.1701 0006129 262.1939 191.6277 15.08769702  5436
KUIPER-00626            
1 69781U 26151U   26222.90035404 -.00043573  00000+0 -12978-2 0  9997
2 69781  51.8724  51.9498 0009066 269.4158  90.5789 15.34032465  6111
KUIPER-00627            
1 69782U 26151V   26223.00002315  .00049642  00000+0  15978-2 0  9999
2 69782  51.8711  51.6507 0008135 270.5357 187.9285 15.31703801  3436
KUIPER-00629            
1 69783U 26151W   26223.16668980 -.00089325  00000+0 -10004-1 0  9991
2 69783  51.8970  55.1114 0008412 304.1309 156.9405 14.86868946  5765
KUIPER-00631            
1 69784U 26151X   26223.16668980 -.00093395  00000+0 -10896-1 0  9993
2 69784  51.8989  55.1380 0009677 265.8717 129.0726 14.85225316  3875
KUIPER-00634            
1 69785U 26151Y   26223.16668980 -.00112716  00000+0 -76345-2 0  9995
2 69785  51.8919  51.5195 0003669 325.7910 350.7848 15.06533906  5892
KUIPER-00639            
1 69786U 26151Z   26222.96162330 -.00011449  00000+0 -33044-3 0  9992
2 69786  51.8701  51.6020 0008733 254.4044 105.5978 15.34103624  6121
KUIPER-00641            
1 69787U 26151AA  26222.92330455 -.00013029  00000+0 -40096-3 0  9995
2 69787  51.8702  52.0825 0011879 268.6586  91.3037 15.32191968  6117
KUIPER-00644            
1 69788U 26151AB  26222.79321872  .00002257  00000+0  72487-4 0  9993
2 69788  51.8763  52.0009 0008258 266.8400  93.1641 15.36788947  6092
KUIPER-00646            
1 69789U 26151AC  26222.90657181  .00007484  00000+0  25161-3 0  9995
2 69789  51.8716  51.9840 0009340 269.2153  90.7761 15.31792984  6117
KUIPER-00647            
1 69790U 26151AD  26222.91554323  .00008232  00000+0  27929-3 0  9998
2 69790  51.8687  52.0284 0010374 262.9928  96.9876 15.31343651  6117
KUIPER-00662            
1 69791U 26151AE  26223.16668980 -.00031027  00000+0 -33934-2 0  9994
2 69791  51.8990  54.6304 0010278 281.1755 203.0988 14.87272238  5161
