QIANFAN-1               
1 60379U 24140A   26059.08942338  .00000095  00000+0  12852-3 0  9999
2 60379  88.9725 291.2824 0017628 357.4795   2.6265 13.50998516 77796
QIANFAN-2               
1 60380U 24140B   26059.11816159  .00000112  00000+0  15429-3 0  9999
2 60380  88.9711 291.1079 0012080 331.4729  28.5760 13.51002597 77850
QIANFAN-3               
1 60381U 24140C   26059.12630685  .00000094  00000+0  12752-3 0  9994
2 60381  88.9704 291.2339 0013594 343.7163  16.3549 13.51003152 77760
QIANFAN-4               
1 60382U 24140D   26059.10172460  .00000105  00000+0  14409-3 0  9999
2 60382  88.9729 291.1536 0012391 334.0983  25.9547 13.50998879 77888
QIANFAN-5               
1 60383U 24140E   26059.15113592  .00000098  00000+0  13375-3 0  9998
2 60383  88.9704 291.2566 0015202 354.3629   5.7349 13.51000877 77757
QIANFAN-6               
1 60384U 24140F   26059.09764664  .00000099  00000+0  13437-3 0  9994
2 60384  88.9730 291.0292 0012679 340.1738  19.8919 13.51000706 77941
QIANFAN-7               
1 60385U 24140G   26059.12049105  .00000357  00000+0  13848-3 0  9998
2 60385  88.9742 284.6371 0016056 139.5940 220.6450 14.27768109 81432
QIANFAN-8               
1 60386U 24140H   26059.10587315  .00000107  00000+0  14723-3 0  9993
2 60386  88.9732 291.2670 0016180 340.7337  19.3201 13.51002184 77793
QIANFAN-9               
1 60387U 24140J   26059.15522177  .00000105  00000+0  14374-3 0  9994
2 60387  88.9730 291.3357 0015873 340.4895  19.5647 13.50997015 77789
QIANFAN-10              
1 60388U 24140K   26059.08514537  .00000089  00000+0  11983-3 0  9992
2 60388  88.9739 290.6975 0013672 317.6726  42.3370 13.51002518 77908
QIANFAN-11              
1 60389U 24140L   26059.12235093  .00000097  00000+0  13094-3 0  9999
2 60389  88.9666 291.2232 0013895 341.1882  18.8754 13.51002186 77560
QIANFAN-12              
1 60390U 24140M   26059.14291815  .00000098  00000+0  13368-3 0  9992
2 60390  88.9709 291.2982 0012991 350.0660  10.0233 13.50999857 77690
QIANFAN-13              
1 60391U 24140N   26059.11409116  .00000114  00000+0  15745-3 0  9995
2 60391  88.9721 291.4106 0012904 352.9334   7.1634 13.51000328 77710
QIANFAN-14              
1 60392U 24140P   26059.13871142  .00000093  00000+0  12597-3 0  9998
2 60392  88.9700 291.2892 0016561 350.9557   9.1293 13.51000101 77729
QIANFAN-15              
1 60393U 24140Q   26059.14707443  .00000102  00000+0  13909-3 0  9991
2 60393  88.9724 291.2632 0011944 339.2022  20.8641 13.50998053 77712
QIANFAN-16              
1 60394U 24140R   26059.13456722  .00000070  00000+0  90271-4 0  9994
2 60394  88.9727 291.3868 0014631 355.7553   4.3472 13.50996544 77628
QIANFAN-17              
1 60395U 24140S   26059.13058782  .00000094  00000+0  12646-3 0  9994
2 60395  88.9738 291.4417 0014820 349.3075  10.7759 13.51003388 78581
QIANFAN-18              
1 60396U 24140T   26059.11003986  .00000114  00000+0  15815-3 0  9993
2 60396  88.9730 290.9718 0013613 331.9389  28.1027 13.51002602 77977
QIANFAN-19              
1 61552U 24185A   26059.12580536  .00000471  00000+0  23900-3 0  9999
2 61552  88.9756  69.0572 0008947  64.6938 295.5174 14.14380330 80601
QIANFAN-20              
1 61553U 24185B   26059.10249508  .00000534  00000+0  30057-3 0  9990
2 61553  88.9753  69.4619 0008048  95.2471 264.9632 14.08926682 80382
QIANFAN-21              
1 61554U 24185C   26059.11948900  .00000614  00000+0  26749-3 0  9996
2 61554  88.9673  67.8991 0012873 107.6595 252.6003 14.22719269 80973
QIANFAN-22              
1 61555U 24185D   26059.09226607  .00000251  00000+0  20585-3 0  9996
2 61555  88.9738  70.7569 0008398 113.0968 247.1089 13.86335559 79653
QIANFAN-23              
1 61556U 24185E   26059.13341508  .00000565  00000+0  27740-3 0  9998
2 61556  88.9748  68.8295 0009814  72.6935 287.5326 14.16384876 80707
QIANFAN-24              
1 61557U 24185F   26059.12723390  .00000753  00000+0  32214-3 0  9992
2 61557  88.9732  68.1086 0011120  54.0075 306.2146 14.23921523 81034
QIANFAN-25              
1 61558U 24185G   26059.15683107  .00000476  00000+0  28171-3 0  9996
2 61558  88.9745  69.4115 0011960  79.8743 280.3787 14.05989124 80386
QIANFAN-26              
1 61559U 24185H   26059.16348315  .00000282  00000+0  26874-3 0  9990
2 61559  88.9743  71.3803 0007393 125.2894 234.8965 13.77858519 79335
QIANFAN-27              
1 61560U 24185J   26059.14217659  .00000603  00000+0  23992-3 0  9991
2 61560  88.9745  67.8528 0009242  47.3984 312.7988 14.27435849 81205
QIANFAN-28              
1 61561U 24185K   26059.15463826  .00000884  00000+0  34941-3 0  9999
2 61561  88.9760  67.8584 0008828  48.0460 312.1486 14.28199762 81222
QIANFAN-29              
1 61562U 24185L   26059.13362873  .00000204  00000+0  29671-3 0  9998
2 61562  88.9717  73.2994 0009844 174.9228 185.2025 13.51041130 78247
QIANFAN-30              
1 61563U 24185M   26059.09300822  .00000194  00000+0  28555-3 0  9998
2 61563  88.9736  72.8587 0008200 158.1326 202.0176 13.50016406 78501
QIANFAN-31              
1 61564U 24185N   26059.12295598  .00000212  00000+0  27611-3 0  9999
2 61564  88.9721  72.5343 0007908 149.1766 210.9854 13.58000553 78667
QIANFAN-32              
1 61565U 24185P   26059.09276894  .00000165  00000+0  23847-3 0  9998
2 61565  88.9781  73.0166 0009177 188.5650 171.5346 13.50762125 78482
QIANFAN-33              
1 61566U 24185Q   26059.14063532  .00000396  00000+0  27625-3 0  9992
2 61566  88.9734  70.1634 0009391  86.8613 273.3639 13.96617573 79962
QIANFAN-34              
1 61567U 24185R   26059.14527181  .00000440  00000+0  27761-3 0  9999
2 61567  88.9710  69.6237 0008124  90.3448 269.8663 14.02377438 80205
QIANFAN-35              
1 61568U 24185S   26059.12572611  .00000755  00000+0  29788-3 0  9996
2 61568  88.9741  67.7791 0008024  46.6190 313.5671 14.28107085 81227
QIANFAN-36              
1 61569U 24185T   26059.09670424  .00000147  00000+0  19349-3 0  9991
2 61569  88.9716  72.9729 0006502 160.3154 199.8251 13.55612245 78405
QIANFAN-37              
1 62238U 24232B   26059.16716819  .00000095  00000+0  12782-3 0  9991
2 62238  89.0040  33.5062 0001552  95.1720 264.9608 13.51004537109622
QIANFAN-38              
1 62239U 24232C   26059.19180734  .00000073  00000+0  94790-4 0  9992
2 62239  89.0047  33.4249 0013932 339.7049  20.3546 13.51003159109682
QIANFAN-39              
1 62240U 24232D   26059.20509299  .00000365  00000+0  14852-3 0  9991
2 62240  89.0046  28.4445 0015851 176.5312 183.5994 14.25431276112429
QIANFAN-40              
1 62241U 24232E   26059.15065669  .00000079  00000+0  10418-3 0  9990
2 62241  89.0075  33.0352 0013270 348.6238  11.4611 13.51002323110049
QIANFAN-41              
1 62242U 24232F   26059.01080882  .00000116  00000+0  16109-3 0  9995
2 62242  89.0045  33.3933 0013240 336.4989  23.5556 13.51000161109688
QIANFAN-42              
1 62243U 24232G   26059.18215336  .00000349  00000+0  14424-3 0  9994
2 62243  89.0044  28.5058 0014458 182.2486 177.8644 14.24525468112399
QIANFAN-43              
1 62244U 24232H   26059.15477885  .00000063  00000+0  78431-4 0  9993
2 62244  89.0050  33.4475 0014913 340.6370  19.4212 13.51004042 78317
QIANFAN-44              
1 62245U 24232J   26059.14243479  .00000086  00000+0  11467-3 0  9993
2 62245  89.0048  33.2582 0013041 338.6733  21.3873 13.51001996109789
QIANFAN-45              
1 62246U 24232K   26059.18360012  .00000083  00000+0  11068-3 0  9995
2 62246  89.0051  33.4034 0013672 337.7325  22.3230 13.50999689109710
QIANFAN-46              
1 62247U 24232L   26059.20825751  .00000073  00000+0  94526-4 0  9995
2 62247  89.0048  33.4667 0013924 343.3514  16.7178 13.51002543109670
QIANFAN-47              
1 62248U 24232M   26059.13830608  .00000077  00000+0  10067-3 0  9996
2 62248  89.0044  33.4036 0014323 342.4245  17.6409 13.51002469109698
QIANFAN-48              
1 62249U 24232N   26059.17534776  .00000083  00000+0  11028-3 0  9993
2 62249  89.0047  33.4048 0016651 343.9141  16.1480 13.51002687109709
QIANFAN-49              
1 62250U 24232P   26059.16300226  .00000073  00000+0  94878-4 0  9999
2 62250  89.0047  33.4179 0013561 339.8294  20.2319 13.51001787 78292
QIANFAN-50              
1 62251U 24232Q   26059.18768242  .00000076  00000+0  98967-4 0  9994
2 62251  89.0052  33.4278 0015251 340.2738  19.7822 13.51002747 78329
QIANFAN-51              
1 62252U 24232R   26059.17125831  .00000077  00000+0  10071-3 0  9995
2 62252  89.0046  33.4185 0012894 345.5654  14.5127 13.51003540 78317
QIANFAN-52              
1 62253U 24232S   26059.20005134  .00000055  00000+0  66742-4 0  9996
2 62253  89.0042  33.2863 0014599 336.2597  23.7879 13.51000047 78407
QIANFAN-53              
1 62254U 24232T   26059.17945815  .00000090  00000+0  12050-3 0  9993
2 62254  89.0049  33.3987 0013529 338.0926  21.9645 13.51002827 78365
QIANFAN-54              
1 62255U 24232U   26059.14656671  .00000087  00000+0  11572-3 0  9994
2 62255  89.0041  33.0737 0003435  47.3881 312.7559 13.51002225109860
QIANFAN-55              
1 62785U 25016A   26059.17258627  .00000061  00000+0  75313-4 0  9991
2 62785  88.9699  95.2018 0019261 122.0137 238.2889 13.50995830 57644
QIANFAN-56              
1 62786U 25016B   26059.11490227  .00000050  00000+0  58980-4 0  9999
2 62786  88.9673  95.0233 0017874 124.0647 236.2204 13.50997723 57686
QIANFAN-57              
1 62787U 25016C   26059.14787954  .00000052  00000+0  61464-4 0  9992
2 62787  88.9704  95.1974 0001368  92.5524 267.5784 13.50996593 57650
QIANFAN-58              
1 62788U 25016D   26059.11901729  .00000054  00000+0  65331-4 0  9997
2 62788  88.9674  95.0081 0015886 116.9441 243.3335 13.50998147 57699
QIANFAN-59              
1 62789U 25016E   26059.14384011  .00000046  00000+0  51733-4 0  9992
2 62789  88.9697  95.0977 0016206 120.2551 240.0207 13.50994143 57690
QIANFAN-60              
1 62790U 25016F   26059.10269745  .00000045  00000+0  51249-4 0  9997
2 62790  88.9678  95.0586 0017794 117.5075 242.7887 13.50992166 57674
QIANFAN-61              
1 62791U 25016G   26059.13562295  .00000055  00000+0  65658-4 0  9997
2 62791  88.9745  95.2709 0016725 116.7004 243.5862 13.50993460 57697
QIANFAN-62              
1 62792U 25016H   26059.13967837  .00000050  00000+0  57720-4 0  9995
2 62792  88.9692  95.0970 0018108 117.2169 243.0830 13.50996178 57680
QIANFAN-63              
1 62793U 25016J   26059.16439379  .00000076  00000+0  98828-4 0  9996
2 62793  88.9699  95.0511 0018101 121.9519 238.3395 13.50994759 57724
QIANFAN-64              
1 62794U 25016K   26059.13151123  .00000048  00000+0  55806-4 0  9990
2 62794  88.9685  95.0182 0016121 115.4490 244.8332 13.50992713 57710
QIANFAN-65              
1 62795U 25016L   26059.12734861  .00000067  00000+0  84819-4 0  9993
2 62795  88.9682  95.0419 0015953 116.9031 243.3753 13.51008320 57691
QIANFAN-66              
1 62796U 25016M   26059.15610735  .00000062  00000+0  76514-4 0  9998
2 62796  88.9701  95.0242 0017102 113.2172 247.0782 13.50996463 57744
QIANFAN-67              
1 62797U 25016N   26059.16016001  .00000068  00000+0  86156-4 0  9995
2 62797  88.9692  95.0418 0016995 119.2677 241.0175 13.50994833 57710
QIANFAN-68              
1 62798U 25016P   26059.15210799  .00000058  00000+0  70183-4 0  9997
2 62798  88.9695  95.0907 0017070 117.7356 242.5529 13.50992767 57699
QIANFAN-69              
1 62799U 25016Q   26059.09448720  .00000066  00000+0  83619-4 0  9995
2 62799  88.9674  94.9494 0017803 118.9224 241.3715 13.50993120 57729
QIANFAN-70              
1 62800U 25016R   26059.11089708  .00000043  00000+0  48173-4 0  9999
2 62800  88.9695  95.1025 0017499 110.3049 249.9985 13.50996661 57681
QIANFAN-71              
1 62801U 25016S   26059.10672235  .00000049  00000+0  56408-4 0  9998
2 62801  88.9689  95.0777 0017668 122.0066 238.2805 13.50996185 57688
QIANFAN-72              
1 62802U 25016T   26059.12318719  .00000057  00000+0  69247-4 0  9999
2 62802  88.9679  95.0818 0020812 129.0244 231.2764 13.50995872 57672
QIANFAN-73              
1 63159U 25046A   26059.15005205  .00000137  00000+0  19408-3 0  9996
2 63159  88.9768 312.0292 0013123 261.1385  98.8280 13.50996613 57861
QIANFAN-74              
1 63160U 25046B   26059.13365403  .00000189  00000+0  27477-3 0  9997
2 63160  88.9768 311.9196 0001863  77.5996 282.5363 13.50996246 57922
QIANFAN-75              
1 63161U 25046C   26059.04673873  .00000171  00000+0  24697-3 0  9993
2 63161  88.9770 312.1634 0014357 265.0410  94.9102 13.51000074 57789
QIANFAN-76              
1 63162U 25046D   26059.11718047  .00000178  00000+0  25731-3 0  9992
2 63162  88.9769 312.1361 0011909 265.8717  94.1073 13.51012316 57807
QIANFAN-77              
1 63163U 25046E   26059.16211556  .00000349  00000+0  24397-3 0  9998
2 63163  88.9765 309.5026 0013854 192.1941 167.8902 13.96170249 59253
QIANFAN-78              
1 63164U 25046F   26059.15828654  .00000162  00000+0  23293-3 0  9998
2 63164  88.9768 311.9952 0013258 268.1801  91.7832 13.50996440 57882
QIANFAN-79              
1 63165U 25046G   26059.11320692  .00000177  00000+0  25628-3 0  9994
2 63165  88.9772 312.1105 0013112 266.6170  93.3482 13.51006758 57820
QIANFAN-80              
1 63166U 25046H   26059.12946237  .00000160  00000+0  22883-3 0  9997
2 63166  88.9769 311.8135 0011997 271.4642  88.5135 13.51000645 57980
QIANFAN-81              
1 63167U 25046J   26059.10755714  .00000177  00000+0  25628-3 0  9992
2 63167  88.9769 311.8836 0012951 259.0682 100.9012 13.50982390 57939
QIANFAN-82              
1 63168U 25046K   26059.06779109  .00000173  00000+0  24906-3 0  9996
2 63168  88.9769 311.9317 0011065 267.5031  92.4853 13.50997774 57910
QIANFAN-83              
1 63169U 25046L   26059.13180567  .00000208  00000+0  25376-3 0  9990
2 63169  88.9769 311.5495 0012295 245.0232 114.9649 13.62017482 58134
QIANFAN-84              
1 63170U 25046M   26059.16955433  .00000139  00000+0  19656-3 0  9994
2 63170  88.9769 312.0535 0014011 262.6690  97.2868 13.50972548 57852
QIANFAN-85              
1 63171U 25046N   26059.16653337  .00000174  00000+0  25073-3 0  9992
2 63171  88.9768 311.9255 0011463 265.7602  94.2239 13.51000459 57925
QIANFAN-86              
1 63172U 25046P   26059.17476755  .00000188  00000+0  27214-3 0  9995
2 63172  88.9770 311.7885 0009346 271.3223  88.6858 13.50999645 58002
QIANFAN-87              
1 63173U 25046Q   26059.14607933  .00000165  00000+0  23655-3 0  9997
2 63173  88.9767 311.9001 0009987 265.4979  94.5031 13.51007937 57939
QIANFAN-88              
1 63174U 25046R   26059.16235690  .00000157  00000+0  22526-3 0  9994
2 63174  88.9770 311.8549 0010438 274.8392  85.1567 13.50996290 57967
QIANFAN-89              
1 63175U 25046S   26059.12552346  .00000178  00000+0  25705-3 0  9996
2 63175  88.9770 312.0479 0014859 263.3063  96.6397 13.51006884 57850
QIANFAN-90              
1 63176U 25046T   26059.15435840  .00000157  00000+0  22456-3 0  9996
2 63176  88.9770 312.0173 0011781 261.8398  98.1417 13.51006567 57877
QIANFAN-91              
1 66033U 25233A   26059.18688698  .00000074  00000+0  96717-4 0  9993
2 66033  88.9920  54.2140 0001898  93.6160 266.5208 13.51002892 18462
QIANFAN-92              
1 66034U 25233B   26059.19504228  .00000046  00000+0  52220-4 0  9991
2 66034  88.9905  54.2028 0001948  85.8824 274.2549 13.50996145 18463
QIANFAN-93              
1 66035U 25233C   26059.12921506  .00000061  00000+0  75957-4 0  9996
2 66035  88.9932  54.2319 0001867  90.2036 269.9329 13.50995896 18450
QIANFAN-94              
1 66036U 25233D   26059.19073389  .00000044  00000+0  49281-4 0  9993
2 66036  88.9929  54.1325 0002022  88.6770 271.4612 13.50991570 18518
QIANFAN-95              
1 66037U 25233E   26059.05099166  .00000085  00000+0  11230-3 0  9997
2 66037  88.9925  53.6881 0002529  86.4956 273.6485 13.51060268 18749
QIANFAN-96              
1 66038U 25233F   26059.14984255  .00000055  00000+0  66463-4 0  9996
2 66038  88.9922  54.2293 0001845  94.8150 265.3212 13.51003651 18457
QIANFAN-97              
1 66039U 25233G   26059.20743134  .00000066  00000+0  83335-4 0  9992
2 66039  88.9925  54.2040 0001912  92.3330 267.8040 13.51000850 18475
QIANFAN-98              
1 66040U 25233H   26059.14154655  .00000043  00000+0  48250-4 0  9993
2 66040  88.9916  53.9533 0002440  88.2248 271.9183 13.51004220 18603
QIANFAN-99              
1 66041U 25233J   26059.14570816  .00000062  00000+0  77510-4 0  9997
2 66041  88.9927  54.2134 0002291  91.3887 268.7527 13.50994628 18464
QIANFAN-100             
1 66042U 25233K   26059.21150128  .00000047  00000+0  54038-4 0  9999
2 66042  88.9938  54.1216 0001869  90.8658 269.2707 13.50996114 18522
QIANFAN-101             
1 66043U 25233L   26059.09715854  .00000513  00000+0  20582-3 0  9993
2 66043  88.9928  53.0917 0016414 135.1652 225.0871 14.26727117 19079
QIANFAN-102             
1 66044U 25233M   26059.15784491  .00000060  00000+0  74824-4 0  9990
2 66044  88.9925  54.1244 0002061  89.5469 270.5918 13.50992108 18518
QIANFAN-103             
1 66045U 25233N   26059.08814069  .00000063  00000+0  78548-4 0  9998
2 66045  88.9927  54.2237 0001846  90.7960 269.3403 13.50989663 18454
QIANFAN-104             
1 66046U 25233P   26059.16612263  .00000068  00000+0  86012-4 0  9990
2 66046  88.9932  54.1130 0002081  86.7595 273.3794 13.51009866 18517
QIANFAN-105             
1 66047U 25233Q   26059.17417460  .00000045  00000+0  51646-4 0  9994
2 66047  88.9946  53.9407 0001980  92.8300 267.3078 13.50981163 18624
QIANFAN-106             
1 66048U 25233R   26059.17038468  .00000082  00000+0  10767-3 0  9991
2 66048  88.9913  54.1882 0002366  89.2068 270.9354 13.51004690 18471
QIANFAN-107             
1 66049U 25233S   26059.03051012  .00000054  00000+0  65277-4 0  9993
2 66049  88.9931  54.2177 0001816  91.1403 268.9956 13.50998381 18455
QIANFAN-108             
1 66050U 25233T   26059.10868386  .00000058  00000+0  71151-4 0  9995
2 66050  88.9923  54.2051 0002325  88.3340 271.8077 13.50994559 18464
