QIANFAN-1               
1 60379U 24140A   26183.29288957  .00000137  00000+0  19319-3 0  9992
2 60379  88.9739 278.3637 0016836   0.3995 359.7167 13.51017829 94566
QIANFAN-2               
1 60380U 24140B   26183.24765613  .00000150  00000+0  21386-3 0  9990
2 60380  88.9726 278.1802 0011115 333.5010  26.5571 13.51013582 94616
QIANFAN-3               
1 60381U 24140C   26183.25586268  .00000148  00000+0  20986-3 0  9991
2 60381  88.9718 278.2968 0012664 346.6335  13.4479 13.51014628 94521
QIANFAN-4               
1 60382U 24140D   26183.30518410  .00000151  00000+0  21497-3 0  9994
2 60382  88.9743 278.2401 0011422 336.0977  23.9642 13.51017450 94656
QIANFAN-5               
1 60383U 24140E   26183.28052498  .00000130  00000+0  18217-3 0  9994
2 60383  88.9718 278.3189 0014378 357.6702   2.4380 13.51016053 94515
QIANFAN-6               
1 60384U 24140F   26183.30107409  .00000150  00000+0  21315-3 0  9996
2 60384  88.9745 278.1176 0011756 342.6258  17.4489 13.51016518 94711
QIANFAN-7               
1 60385U 24140G   26183.30671806  .00000651  00000+0  25685-3 0  9994
2 60385  88.9776 269.9981 0017720  98.1031 262.2175 14.27854200 99154
QIANFAN-8               
1 60386U 24140H   26183.30932426  .00000122  00000+0  17079-3 0  9994
2 60386  88.9746 278.3568 0015259 342.9335  17.1301 13.51012839 94567
QIANFAN-9               
1 60387U 24140J   26183.28459682  .00000143  00000+0  20307-3 0  9991
2 60387  88.9744 278.4307 0014936 342.9022  17.1624 13.51018470 94545
QIANFAN-10              
1 60388U 24140K   26183.28872158  .00000137  00000+0  19350-3 0  9998
2 60388  88.9755 277.7984 0012708 318.3031  41.7151 13.51019508 94678
QIANFAN-11              
1 60389U 24140L   26183.25168967  .00000151  00000+0  21488-3 0  9993
2 60389  88.9680 278.2378 0012990 343.8270  16.2465 13.51013670 94321
QIANFAN-12              
1 60390U 24140M   26183.27235016  .00000143  00000+0  20244-3 0  9997
2 60390  88.9723 278.3669 0012129 353.4893   6.6099 13.51015855 94454
QIANFAN-13              
1 60391U 24140N   26183.24350833  .00000130  00000+0  18264-3 0  9995
2 60391  88.9735 278.4942 0012062 356.5284   3.5781 13.51015806 94479
QIANFAN-14              
1 60392U 24140P   26183.26821170  .00000146  00000+0  20673-3 0  9999
2 60392  88.9714 278.3466 0015695 353.9504   6.1455 13.51009416 94486
QIANFAN-15              
1 60393U 24140Q   26183.27637277  .00000132  00000+0  18633-3 0  9992
2 60393  88.9738 278.3501 0011033 341.8954  18.1803 13.51009966 94479
QIANFAN-16              
1 60394U 24140R   26183.26414416  .00000149  00000+0  21216-3 0  9999
2 60394  88.9740 278.4773 0013825 359.2453   0.8675 13.51017825 94381
QIANFAN-17              
1 60395U 24140S   26183.25993358  .00000132  00000+0  18613-3 0  9995
2 60395  88.9751 278.5456 0013955 352.3407   7.7529 13.51013936 95340
QIANFAN-18              
1 60396U 24140T   26183.31338686  .00000142  00000+0  20142-3 0  9991
2 60396  88.9745 278.0603 0012661 333.7082  26.3425 13.51013375 94740
QIANFAN-19              
1 61552U 24185A   26183.21102554  .00000460  00000+0  23258-3 0  9991
2 61552  88.9825  54.8557 0008116  33.3763 326.7934 14.14486948 98141
QIANFAN-20              
1 61553U 24185B   26183.24157185  .00000286  00000+0  15699-3 0  9991
2 61553  88.9820  55.3760 0008044  69.8327 290.3722 14.09029191 97865
QIANFAN-21              
1 61554U 24185C   26183.24968468  .00000611  00000+0  26568-3 0  9995
2 61554  88.9741  53.3791 0012928  70.2345 290.0240 14.22870019 98627
QIANFAN-22              
1 61555U 24185D   26183.23366219  .00000287  00000+0  23631-3 0  9998
2 61555  88.9807  57.1714 0008649  95.5629 264.6529 13.86401464 96851
QIANFAN-23              
1 61556U 24185E   26183.25392878  .00000394  00000+0  19097-3 0  9991
2 61556  88.9817  54.5656 0008984  39.6386 320.5458 14.16511286 98279
QIANFAN-24              
1 61557U 24185F   26183.22217400  .00000621  00000+0  26390-3 0  9993
2 61557  88.9800  53.6472 0009958  15.2987 344.8505 14.24086025 98692
QIANFAN-25              
1 61558U 24185G   26183.27088765  .00000388  00000+0  22781-3 0  9999
2 61558  88.9814  55.3828 0012984  66.0421 294.2119 14.06088522 97829
QIANFAN-26              
1 61559U 24185H   26183.26938009  .00000233  00000+0  21954-3 0  9994
2 61559  88.9814  57.9993 0007541 111.5099 248.6872 13.77919612 96425
QIANFAN-27              
1 61560U 24185J   26183.21472778  .00000446  00000+0  17543-3 0  9992
2 61560  88.9810  53.3268 0007468   7.3283 352.8019 14.27548347 98908
QIANFAN-28              
1 61561U 24185K   26183.22650894  .00000712  00000+0  27915-3 0  9991
2 61561  88.9828  53.3383 0007288   5.6026 354.5249 14.28405294 98933
QIANFAN-29              
1 61562U 24185L   26183.25792264  .00000119  00000+0  16558-3 0  9995
2 61562  88.9788  60.4820 0009620 176.1560 183.9667 13.51076215 95008
QIANFAN-30              
1 61563U 24185M   26183.23733657  .00000173  00000+0  25335-3 0  9998
2 61563  88.9808  60.0864 0007591 158.9004 201.2461 13.50056759 95255
QIANFAN-31              
1 61564U 24185N   26183.20091738  .00000080  00000+0  93146-4 0  9996
2 61564  88.9792  59.5725 0007662 145.9940 214.1708 13.58043149 95503
QIANFAN-32              
1 61565U 24185P   26183.24323048  .00000161  00000+0  23104-3 0  9999
2 61565  88.9849  60.2805 0008756 192.5370 167.5565 13.50789043 95240
QIANFAN-33              
1 61566U 24185Q   26183.22705563  .00000164  00000+0  10846-3 0  9996
2 61566  88.9806  56.3452 0009592  63.5242 296.6918 13.96716189 97285
QIANFAN-34              
1 61567U 24185R   26183.22167740  .00000398  00000+0  24982-3 0  9991
2 61567  88.9783  55.6424 0008371  63.0635 297.1400 14.02478451 97597
QIANFAN-35              
1 61568U 24185S   26183.20679510  .00000673  00000+0  26404-3 0  9990
2 61568  88.9809  53.2331 0006377   5.8186 354.3082 14.28286450 98932
QIANFAN-36              
1 61569U 24185T   26183.24642085  .00000164  00000+0  21873-3 0  9992
2 61569  88.9783  60.0472 0006356 159.2826 200.8587 13.55638070 95220
QIANFAN-37              
1 62238U 24232B   26183.22240786  .00000036  00000+0  36760-4 0  9999
2 62238  89.0064  21.0745 0001603 102.2918 257.8413 13.51010407126373
QIANFAN-38              
1 62239U 24232C   26183.24708860  .00000051  00000+0  60744-4 0  9990
2 62239  89.0070  21.0015 0013765 341.0606  19.0031 13.51007139126439
QIANFAN-39              
1 62240U 24232D   26183.24172087  .00000158  00000+0  60424-4 0  9991
2 62240  89.0055  14.3514 0017799 132.8782 227.3909 14.25529951130093
QIANFAN-40              
1 62241U 24232E   26183.20591506  .00000044  00000+0  49674-4 0  9997
2 62241  89.0098  20.6464 0013101 350.0684  10.0206 13.51008841126790
QIANFAN-41              
1 62242U 24232F   26183.21415679  .00000051  00000+0  60124-4 0  9996
2 62242  89.0068  20.9527 0013039 337.3789  22.6786 13.51011479126451
QIANFAN-42              
1 62243U 24232G   26183.22762550  .00000141  00000+0  54206-4 0  9995
2 62243  89.0053  14.4301 0016447 138.6516 221.5925 14.24618508130053
QIANFAN-43              
1 62244U 24232H   26183.21003548  .00000046  00000+0  52129-4 0  9996
2 62244  89.0073  21.0273 0014760 342.0446  18.0182 13.51011037 95065
QIANFAN-44              
1 62245U 24232J   26183.27171608  .00000041  00000+0  45651-4 0  9993
2 62245  89.0071  20.8286 0012879 339.7671  20.2968 13.51012971126540
QIANFAN-45              
1 62246U 24232K   26183.23886900  .00000038  00000+0  40917-4 0  9994
2 62246  89.0074  20.9855 0013506 339.0606  20.9991 13.51010431126469
QIANFAN-46              
1 62247U 24232L   26183.26353144  .00000030  00000+0  27647-4 0  9994
2 62247  89.0070  21.0438 0013775 344.7597  15.3138 13.51011163126425
QIANFAN-47              
1 62248U 24232M   26183.26765532  .00000040  00000+0  43030-4 0  9998
2 62248  89.0067  20.9683 0014150 343.6376  16.4316 13.51010330126451
QIANFAN-48              
1 62249U 24232N   26183.23052376  .00000047  00000+0  54510-4 0  9993
2 62249  89.0070  20.9816 0016481 345.3231  14.7440 13.51014962126456
QIANFAN-49              
1 62250U 24232P   26183.21821840  .00000038  00000+0  40825-4 0  9997
2 62250  89.0070  20.9938 0013395 341.1979  18.8675 13.51013426 95046
QIANFAN-50              
1 62251U 24232Q   26183.24297807  .00000051  00000+0  60903-4 0  9995
2 62251  89.0075  21.0105 0015092 341.6244  18.4360 13.51010229 95074
QIANFAN-51              
1 62252U 24232R   26183.22652334  .00000022  00000+0  14965-4 0  9999
2 62252  89.0069  20.9936 0012721 346.9885  13.0937 13.51006924 95060
QIANFAN-52              
1 62253U 24232S   26183.25525751  .00000066  00000+0  84549-4 0  9998
2 62253  89.0065  20.8565 0014455 337.5877  22.4641 13.51012879 95159
QIANFAN-53              
1 62254U 24232T   26183.23470907  .00000032  00000+0  31217-4 0  9996
2 62254  89.0073  20.9783 0013358 339.4109  20.6502 13.51009269 95113
QIANFAN-54              
1 62255U 24232U   26183.27583398  .00000027  00000+0  23047-4 0  9996
2 62255  89.0064  20.6348 0003340  51.2651 308.8798 13.51013105126622
QIANFAN-55              
1 62785U 25016A   26183.22789653  .00000159  00000+0  22732-3 0  9997
2 62785  88.9731  82.3183 0018780 121.1709 239.1287 13.51008422 74397
QIANFAN-56              
1 62786U 25016B   26183.24437290  .00000160  00000+0  22806-3 0  9991
2 62786  88.9704  82.0991 0017367 122.9186 237.3639 13.51007213 74444
QIANFAN-57              
1 62787U 25016C   26183.27723037  .00000170  00000+0  24527-3 0  9995
2 62787  88.9735  82.3121 0001593  59.1001 301.0306 13.51007271 74419
QIANFAN-58              
1 62788U 25016D   26183.24839852  .00000147  00000+0  20804-3 0  9994
2 62788  88.9705  82.0852 0015468 115.2738 245.0018 13.51021894 74450
QIANFAN-59              
1 62789U 25016E   26183.27311048  .00000168  00000+0  24051-3 0  9991
2 62789  88.9729  82.2039 0015755 118.7824 241.4912 13.51015976 74456
QIANFAN-60              
1 62790U 25016F   26183.23204801  .00000169  00000+0  24197-3 0  9999
2 62790  88.9710  82.1413 0017382 116.1634 244.1307 13.51003602 74431
QIANFAN-61              
1 62791U 25016G   26183.26494435  .00000179  00000+0  25798-3 0  9996
2 62791  88.9776  82.4373 0016333 115.2424 245.0422 13.51011137 74456
QIANFAN-62              
1 62792U 25016H   26183.26899608  .00000183  00000+0  26443-3 0  9991
2 62792  88.9723  82.1969 0017697 115.9803 244.3174 13.51020656 74440
QIANFAN-63              
1 62793U 25016J   26183.21964403  .00000159  00000+0  22630-3 0  9990
2 62793  88.9730  82.1671 0017601 120.9786 239.3097 13.51014537 74472
QIANFAN-64              
1 62794U 25016K   26183.26081256  .00000158  00000+0  22491-3 0  9996
2 62794  88.9717  82.1099 0015738 113.8626 246.4177 13.51011053 74473
QIANFAN-65              
1 62795U 25016L   26183.25682086  .00000050  00000+0  59210-4 0  9995
2 62795  88.9713  82.1291 0015531 115.2596 245.0167 13.51027377 74455
QIANFAN-66              
1 62796U 25016M   26183.28557359  .00000155  00000+0  22144-3 0  9994
2 62796  88.9733  82.1359 0016742 111.6566 248.6370 13.51006862 74502
QIANFAN-67              
1 62797U 25016N   26183.28964760  .00000156  00000+0  22262-3 0  9995
2 62797  88.9723  82.1413 0016557 117.8504 242.4327 13.51009451 74474
QIANFAN-68              
1 62798U 25016P   26183.28137547  .00000144  00000+0  20461-3 0  9997
2 62798  88.9727  82.1945 0016670 115.9509 244.3362 13.51022079 74458
QIANFAN-69              
1 62799U 25016Q   26183.22370150  .00000171  00000+0  24637-3 0  9990
2 62799  88.9706  82.0268 0017378 117.6591 242.6326 13.51016038 74481
QIANFAN-70              
1 62800U 25016R   26183.24022120  .00000174  00000+0  25052-3 0  9991
2 62800  88.9726  82.2058 0017204 108.8518 251.4501 13.51014413 74448
QIANFAN-71              
1 62801U 25016S   26183.23617406  .00000178  00000+0  25610-3 0  9992
2 62801  88.9720  82.1735 0017202 120.8654 239.4192 13.51008776 74444
QIANFAN-72              
1 62802U 25016T   26183.17842934  .00000161  00000+0  23002-3 0  9997
2 62802  88.9711  82.1732 0020217 128.5809 231.7157 13.51015753 74426
QIANFAN-73              
1 63159U 25046A   26183.27946605  .00000170  00000+0  24530-3 0  9994
2 63159  88.9722 299.1147 0013025 257.1829 102.7867 13.51011790 74628
QIANFAN-74              
1 63160U 25046B   26183.26324143  .00000162  00000+0  23226-3 0  9994
2 63160  88.9722 299.0060 0002366 109.7049 250.4358 13.51013012 74686
QIANFAN-75              
1 63161U 25046C   26183.25078358  .00000169  00000+0  24393-3 0  9991
2 63161  88.9723 299.2438 0014030 261.0891  98.8672 13.51011849 74552
QIANFAN-76              
1 63162U 25046D   26183.24660669  .00000165  00000+0  23658-3 0  9992
2 63162  88.9723 299.2242 0011557 261.0355  98.9488 13.51010164 74568
QIANFAN-77              
1 63163U 25046E   26183.29105916  .00000347  00000+0  24208-3 0  9991
2 63163  88.9727 295.5661 0015936 163.6052 196.5644 13.96213877 76570
QIANFAN-78              
1 63164U 25046F   26183.28775622  .00000172  00000+0  24761-3 0  9998
2 63164  88.9722 299.0819 0012914 263.6773  96.2907 13.51005580 74649
QIANFAN-79              
1 63165U 25046G   26183.31661194  .00000168  00000+0  24180-3 0  9991
2 63165  88.9725 299.1938 0012764 261.8031  98.1672 13.51015961 74594
QIANFAN-80              
1 63166U 25046H   26183.25907452  .00000165  00000+0  23648-3 0  9990
2 63166  88.9723 298.9012 0011510 266.9694  93.0140 13.51013226 74745
QIANFAN-81              
1 63167U 25046J   26183.31246347  .00000166  00000+0  23779-3 0  9993
2 63167  88.9722 298.9633 0012968 254.7342 105.2376 13.51020761 74702
QIANFAN-82              
1 63168U 25046K   26183.27130298  .00000175  00000+0  25272-3 0  9996
2 63168  88.9723 299.0116 0010696 262.1120  97.8817 13.51015227 74689
QIANFAN-83              
1 63169U 25046L   26183.28560052  .00000202  00000+0  24626-3 0  9996
2 63169  88.9724 298.3895 0012624 232.7886 127.2120 13.62046844 75038
QIANFAN-84              
1 63170U 25046M   26183.30057424  .00000165  00000+0  23727-3 0  9994
2 63170  88.9723 299.1412 0013819 258.8243 101.1355 13.51040695 74616
QIANFAN-85              
1 63171U 25046N   26183.29595428  .00000161  00000+0  23132-3 0  9990
2 63171  88.9722 299.0118 0011209 260.8225  99.1658 13.51012952 74686
QIANFAN-86              
1 63172U 25046P   26183.30428437  .00000166  00000+0  23773-3 0  9994
2 63172  88.9724 298.8779 0008986 264.9679  95.0446 13.51020418 74760
QIANFAN-87              
1 63173U 25046Q   26183.27541180  .00000175  00000+0  25202-3 0  9991
2 63173  88.9721 298.9850 0009606 259.3669 100.6400 13.51005937 74690
QIANFAN-88              
1 63174U 25046R   26183.29194285  .00000164  00000+0  23514-3 0  9996
2 63174  88.9723 298.9428 0009930 269.7048  90.2965 13.51013788 74727
QIANFAN-89              
1 63175U 25046S   26183.25486724  .00000165  00000+0  23711-3 0  9995
2 63175  88.9723 299.1356 0014649 259.6504 100.2996 13.51020749 74618
QIANFAN-90              
1 63176U 25046T   26183.28359264  .00000179  00000+0  25870-3 0  9990
2 63176  88.9723 299.1055 0011596 257.0248 102.9608 13.51012931 74635
QIANFAN-91              
1 66033U 25233A   26183.16794098  .00000101  00000+0  13734-3 0  9999
2 66033  88.9988  41.6757 0001833  88.4036 271.7326 13.51013739 35205
QIANFAN-92              
1 66034U 25233B   26183.17611719  .00000100  00000+0  13654-3 0  9999
2 66034  88.9983  41.6437 0002126  80.7333 279.4059 13.51004453 35208
QIANFAN-93              
1 66035U 25233C   26183.11030888  .00000095  00000+0  12856-3 0  9992
2 66035  88.9999  41.7067 0001837  86.4981 273.6380 13.51015519 35192
QIANFAN-94              
1 66036U 25233D   26183.17204454  .00000097  00000+0  13234-3 0  9994
2 66036  88.9995  41.6032 0001995  84.9811 275.1568 13.51014288 35254
QIANFAN-95              
1 66037U 25233E   26183.10623380  .00000098  00000+0  13394-3 0  9999
2 66037  88.9992  41.1532 0001940  90.6285 269.5088 13.51015296 35491
QIANFAN-96              
1 66038U 25233F   26183.13091828  .00000090  00000+0  12097-3 0  9990
2 66038  88.9990  41.6937 0001811  90.2396 269.8962 13.51014221 35198
QIANFAN-97              
1 66039U 25233G   26183.11444034  .00000101  00000+0  13813-3 0  9990
2 66039  88.9993  41.6800 0001846  88.0155 272.1207 13.51014349 35209
QIANFAN-98              
1 66040U 25233H   26183.12264597  .00000096  00000+0  13049-3 0  9991
2 66040  88.9982  41.4084 0002408  85.7681 274.3745 13.51014308 35345
QIANFAN-99              
1 66041U 25233J   26183.12674687  .00000099  00000+0  13487-3 0  9996
2 66041  88.9993  41.6828 0002241  88.4614 271.6794 13.51014283 35208
QIANFAN-100             
1 66042U 25233K   26183.11869257  .00000045  00000+0  51517-4 0  9993
2 66042  89.0005  41.6122 0001853  86.8099 273.3264 13.51042120 35256
QIANFAN-101             
1 66043U 25233L   26183.16199157  .00000334  00000+0  13136-3 0  9999
2 66043  88.9989  38.8496 0017524  94.0130 266.3068 14.26816614 36768
QIANFAN-102             
1 66044U 25233M   26183.13911689  .00000086  00000+0  11500-3 0  9996
2 66044  88.9991  41.5908 0002023  86.1535 273.9847 13.51014179 35255
QIANFAN-103             
1 66045U 25233N   26183.14323393  .00000090  00000+0  12077-3 0  9992
2 66045  88.9993  41.6859 0001800  86.6430 273.4927 13.51015084 35200
QIANFAN-104             
1 66046U 25233P   26183.14749689  .00000091  00000+0  12305-3 0  9998
2 66046  88.9999  41.5884 0002063  83.6465 276.4921 13.51001795 35257
QIANFAN-105             
1 66047U 25233Q   26183.15574881  .00000099  00000+0  13409-3 0  9994
2 66047  89.0012  41.4327 0001970  90.3717 269.7660 13.51003556 35362
QIANFAN-106             
1 66048U 25233R   26183.15149779  .00000101  00000+0  13821-3 0  9991
2 66048  88.9980  41.6413 0002331  86.2053 273.9365 13.51014218 35201
QIANFAN-107             
1 66049U 25233S   26183.15970418  .00000104  00000+0  14221-3 0  9992
2 66049  88.9996  41.6753 0001859  86.7177 273.4186 13.51013686 35217
QIANFAN-108             
1 66050U 25233T   26183.16381411  .00000100  00000+0  13623-3 0  9995
2 66050  88.9990  41.6615 0002275  84.9201 275.2210 13.51014822 35212
QIANFAN-109             
1 68636U 26075A   26183.25200484  .00000101  00000+0  13712-3 0  9992
2 68636  88.9907 319.4724 0001879 114.5922 245.5425 13.51012488 11823
QIANFAN-110             
1 68637U 26075B   26183.26021274  .00000110  00000+0  15146-3 0  9995
2 68637  88.9907 319.4931 0002001  99.3578 260.7800 13.51013731 11827
QIANFAN-111             
1 68638U 26075C   26183.24792106  .00000027  00000+0  22545-4 0  9992
2 68638  88.9905 319.4539 0002021  97.5994 262.5386 13.51020436 11845
QIANFAN-112             
1 68639U 26075D   26183.28472750  .00000086  00000+0  11443-3 0  9996
2 68639  88.9905 319.4590 0001675 111.4594 248.6736 13.51025623 11846
QIANFAN-113             
1 68640U 26075E   26183.25606657  .00000103  00000+0  14152-3 0  9990
2 68640  88.9910 319.4564 0001884 100.6281 259.5083 13.51016571 11848
QIANFAN-114             
1 68641U 26075F   26183.26424752  .00000099  00000+0  13494-3 0  9998
2 68641  88.9905 319.4740 0002003  99.8477 260.2900 13.51015289 11830
QIANFAN-115             
1 68642U 26075G   26183.29300171  .00000093  00000+0  12607-3 0  9999
2 68642  88.9905 319.4783 0002029 104.9343 255.2033 13.51020597 11835
QIANFAN-116             
1 68643U 26075H   26183.20659225  .00000087  00000+0  11609-3 0  9992
2 68643  88.9899 319.4461 0001689 105.7008 254.4330 13.51023772 11838
QIANFAN-117             
1 68644U 26075J   26183.26834447  .00000104  00000+0  14253-3 0  9998
2 68644  88.9903 319.4562 0001907 106.6970 253.4391 13.51022579 11849
QIANFAN-118             
1 68645U 26075K   26183.30122721  .00000092  00000+0  12322-3 0  9990
2 68645  88.9908 319.4615 0002000  96.7896 263.3482 13.51021105 11840
QIANFAN-119             
1 68646U 26075L   26183.27659376  .00000085  00000+0  11362-3 0  9993
2 68646  88.9908 319.4596 0001924 110.7026 249.4332 13.51018746 11841
QIANFAN-120             
1 68647U 26075M   26183.28905398  .00000096  00000+0  13000-3 0  9996
2 68647  88.9910 319.4437 0002046 113.4440 246.6927 13.51019066 11851
QIANFAN-121             
1 68648U 26075N   26183.31353890  .00000024  00000+0  18050-4 0  9997
2 68648  88.9906 319.4457 0002063  98.6002 261.5383 13.51011292 11851
QIANFAN-122             
1 68649U 26075P   26183.30546485  .00000086  00000+0  11403-3 0  9993
2 68649  88.9906 319.4445 0001866 108.9685 251.1668 13.51014914 11845
QIANFAN-123             
1 68650U 26075Q   26183.27257322  .00000087  00000+0  11538-3 0  9990
2 68650  88.9903 319.4375 0001818 115.8165 244.3174 13.51013279 11820
QIANFAN-124             
1 68651U 26075R   26183.29723707  .00000095  00000+0  12874-3 0  9991
2 68651  88.9906 319.4443 0001824 111.3688 248.7658 13.51014392 11853
QIANFAN-125             
1 68652U 26075S   26183.30943342  .00000091  00000+0  12280-3 0  9990
2 68652  88.9905 319.4451 0002002  98.0512 262.0866 13.51011444 11853
QIANFAN-126             
1 68653U 26075T   26183.24372541  .00000080  00000+0  10486-3 0  9995
2 68653  88.9910 319.4180 0001833 115.7920 244.3420 13.51016589 11865
QIANFAN-127             
1 69073U 26104A   26183.11702237  .00000033  00000+0  21002-4 0  9995
2 69073  88.9885 339.9778 0008720  32.9893 327.1815 13.76104981  7150
QIANFAN-128             
1 69074U 26104B   26183.15074952  .00000030  00000+0  19192-4 0  9990
2 69074  88.9875 340.0034 0008893  42.4734 317.7116 13.72195782  7142
QIANFAN-129             
1 69075U 26104C   26183.17250614  .00000036  00000+0  23383-4 0  9997
2 69075  88.9872 339.9496 0008812  41.7987 318.3850 13.76672681  7179
QIANFAN-130             
1 69076U 26104D   26183.12106023  .00000030  00000+0  18160-4 0  9998
2 69076  88.9880 339.9982 0009525  40.9953 319.1926 13.74544927  7144
QIANFAN-131             
1 69077U 26104E   26183.12948529  .00000033  00000+0  21501-4 0  9990
2 69077  88.9865 339.9803 0008285  42.5818 317.5987 13.74156622  7151
QIANFAN-132             
1 69078U 26104F   26183.11284906  .00000027  00000+0  16682-4 0  9999
2 69078  88.9867 340.0136 0008161  40.1361 320.0403 13.70076983  7133
QIANFAN-133             
1 69079U 26104G   26183.16165268  .00000029  00000+0  16534-4 0  9992
2 69079  88.9881 339.9861 0008952  35.5965 324.5796 13.76087302  7157
QIANFAN-134             
1 69080U 26104H   26183.06718862  .00000026  00000+0  14029-4 0  9991
2 69080  88.9881 340.0076 0010033  31.8087 328.3681 13.73188338  7138
QIANFAN-135             
1 69081U 26104J   26183.10725758  .00000035  00000+0  23926-4 0  9995
2 69081  88.9876 339.9953 0008379  41.7017 318.4784 13.73604087  7146
QIANFAN-136             
1 69082U 26104K   26183.11038346  .00000033  00000+0  21808-4 0  9992
2 69082  88.9876 339.9952 0010631  42.2062 317.9917 13.71882133  7146
QIANFAN-137             
1 69083U 26104L   26183.07119062  .00000038  00000+0  20730-4 0  9991
2 69083  88.9880 339.9153 0009095  43.9787 316.2107 13.87627167  7187
QIANFAN-138             
1 69084U 26104M   26183.17624362  .00000035  00000+0  24806-4 0  9992
2 69084  88.9871 339.9859 0008931  40.8422 319.3408 13.70816675  7152
QIANFAN-139             
1 69085U 26104N   26183.13477655  .00000033  00000+0  21278-4 0  9998
2 69085  88.9876 339.9822 0007943  40.9949 319.1811 13.73977363  7156
QIANFAN-140             
1 69086U 26104P   26183.19909093  .00000036  00000+0  24222-4 0  9996
2 69086  88.9879 339.9744 0007636  38.5886 321.5823 13.74236518  7167
QIANFAN-141             
1 69087U 26104Q   26183.16148696  .00000037  00000+0  23720-4 0  9991
2 69087  88.9883 339.9679 0007490  37.8097 322.3595 13.79359373  7169
QIANFAN-142             
1 69088U 26104R   26183.13291687  .00000032  00000+0  18223-4 0  9995
2 69088  88.9879 339.9625 0008374  39.0252 321.1519 13.80682759  7167
QIANFAN-143             
1 69089U 26104S   26182.61826147 -.02071178  00000+0 -22989+1 0  9996
2 69089  88.9880 340.0163 0005445  85.1869 274.9917 13.75783580  7099
QIANFAN-144             
1 69090U 26104T   26182.70751840 -.02025172  00000+0 -22992+1 0  9992
2 69090  88.9877 340.0105 0004556  13.2836 346.8447 13.74326304  7106
QIANFAN-145             
1 69104U 26108A   26183.26284701  .00000044  00000+0  28612-4 0  9997
2 69104  89.0097  20.6101 0017900  57.5977 302.6921 13.82725450  6435
QIANFAN-146             
1 69105U 26108B   26183.22217843  .00000036  00000+0  16166-4 0  9999
2 69105  89.0103  20.5531 0019177  61.3562 298.9540 13.96989484  6462
QIANFAN-147             
1 69106U 26108C   26183.22115518  .00000043  00000+0  27389-4 0  9993
2 69106  89.0101  20.6039 0017749  53.6071 306.6732 13.81960104  6436
QIANFAN-148             
1 69107U 26108D   26183.22720095  .00000043  00000+0  27174-4 0  9998
2 69107  89.0091  20.6035 0020182  62.5456 297.7762 13.82279559  6433
QIANFAN-149             
1 69108U 26108E   26183.10076157  .00000041  00000+0  26785-4 0  9994
2 69108  89.0077  20.6210 0018157  64.0371 296.2665 13.80094623  6414
QIANFAN-150             
1 69109U 26108F   26183.24486727  .00000046  00000+0  28518-4 0  9999
2 69109  89.0097  20.5913 0019256  59.4432 300.8636 13.85389880  6443
QIANFAN-151             
1 69110U 26108G   26183.26940954  .00000044  00000+0  28718-4 0  9990
2 69110  89.0098  20.5937 0019886  60.6077 299.7075 13.82453041  6441
QIANFAN-152             
1 69111U 26108H   26183.24160619  .00000045  00000+0  28401-4 0  9991
2 69111  89.0092  20.5899 0018446  62.4330 297.8711 13.84100740  6449
QIANFAN-153             
1 69112U 26108J   26183.26122415  .00000044  00000+0  28806-4 0  9994
2 69112  89.0092  20.5897 0019819  64.1537 296.1672 13.81292188  6444
QIANFAN-154             
1 69113U 26108K   26183.25083083  .00000042  00000+0  27737-4 0  9991
2 69113  89.0100  20.5919 0018280  57.0139 303.2783 13.79524497  6441
QIANFAN-155             
1 69114U 26108L   26183.24429797  .00000046  00000+0  28192-4 0  9997
2 69114  89.0103  20.5909 0019269  61.0050 299.3049 13.85612362  6445
QIANFAN-156             
1 69115U 26108M   26183.26681056  .00000045  00000+0  27219-4 0  9996
2 69115  89.0111  20.5787 0020525  58.8603 301.4578 13.86591731  6454
QIANFAN-157             
1 69116U 26108N   26183.25120173  .00000050  00000+0  28516-4 0  9991
2 69116  89.0094  20.5539 0018953  66.4933 293.8231 13.91906470  6460
QIANFAN-158             
1 69117U 26108P   26183.22186313  .00000051  00000+0  30907-4 0  9995
2 69117  89.0097  20.5680 0019887  63.3314 296.9893 13.89045332  6452
QIANFAN-159             
1 69118U 26108Q   26183.24109886  .00000046  00000+0  28530-4 0  9991
2 69118  89.0081  20.5684 0019284  59.8748 300.4331 13.86076977  6456
QIANFAN-160             
1 69119U 26108R   26183.24986512  .00000045  00000+0  28268-4 0  9998
2 69119  89.0098  20.5731 0019334  61.5354 298.7761 13.84013726  6454
QIANFAN-161             
1 69120U 26108S   26182.46653582 -.02139258  00000+0 -18759+1 0  9994
2 69120  89.0098  20.6424 0015129  84.2955 275.9942 13.89831818  6355
QIANFAN-162             
1 69121U 26108T   26182.47918630 -.02063163  00000+0 -19175+1 0  9998
2 69121  89.0094  20.6426 0016417  72.1452 288.1509 13.86271588  6357
QIANFAN-163             
1 69325U 26121A   26171.83152253  .00000035  00000+0  30105-4 0  9993
2 69325  89.0159 300.1473 0020476 178.2353 181.8879 13.59758614  2659
QIANFAN-164             
1 69326U 26121B   26181.33753742  .00000132  00000+0  16633-3 0  9997
2 69326  89.0179 299.1939 0021210 151.1195 209.1139 13.57846346  3941
QIANFAN-165             
1 69382U 26124A   26183.09507439 -.01611017  00000+0 -97118+0 0  9993
2 69382  88.9981   0.3547 0009484 120.2940 239.9184 14.10532136  3921
QIANFAN-166             
1 69383U 26124B   26183.07954419 -.01682211  00000+0 -99214+0 0  9999
2 69383  88.9983   0.3527 0007244 139.0134 221.1597 14.11910793  3928
QIANFAN-167             
1 69384U 26124C   26183.22829521  .00000079  00000+0  32459-4 0  9998
2 69384  88.9986   0.3373 0003576 133.5235 226.6251 14.16528285  3941
QIANFAN-168             
1 69385U 26124D   26183.13972191  .00000086  00000+0  34899-4 0  9999
2 69385  88.9986   0.3427 0004129 110.7667 249.3965 14.17875303  3933
QIANFAN-169             
1 69386U 26124E   26183.13298957  .00000085  00000+0  34544-4 0  9997
2 69386  88.9986   0.3417 0004592 123.0753 237.0878 14.18289036  3930
QIANFAN-170             
1 69387U 26124F   26183.19146036  .00000053  00000+0  18559-4 0  9997
2 69387  88.9986   0.3318 0003947 107.0835 253.0787 14.19185655  3948
QIANFAN-171             
1 69388U 26124G   26183.03679297 -.01699285  00000+0 -95432+0 0  9995
2 69388  88.9980   0.3458 0004565 173.9901 186.1342 14.14624382  3922
QIANFAN-172             
1 69389U 26124H   26183.11436850  .00000131  00000+0  55046-4 0  9996
2 69389  88.9986   0.3388 0003859 126.8541 233.3004 14.19640765  3932
QIANFAN-173             
1 69390U 26124J   26183.17321598  .00000096  00000+0  37887-4 0  9999
2 69390  88.9986   0.3291 0003989 118.9418 241.2173 14.20511971  3940
QIANFAN-174             
1 69391U 26124K   26183.09439892 -.01750896  00000+0 -96450+0 0  9997
2 69391  88.9981   0.3358 0007013 119.9044 240.2842 14.15785907  3935
QIANFAN-175             
1 69392U 26124L   26183.16111776  .00000116  00000+0  46354-4 0  9997
2 69392  88.9986   0.3272 0005041 134.1402 226.0205 14.21342189  3946
QIANFAN-176             
1 69393U 26124M   26182.94176742 -.01814986  00000+0 -97265+0 0  9990
2 69393  88.9981   0.3503 0001127 333.1690  26.9440 14.16781998  3914
QIANFAN-177             
1 69394U 26124N   26183.14312215  .00000108  00000+0  41686-4 0  9992
2 69394  88.9986   0.3245 0004853 116.7394 243.4295 14.22732890  3949
QIANFAN-178             
1 69395U 26124P   26183.14854618  .00000094  00000+0  35908-4 0  9995
2 69395  88.9985   0.3251 0004286 126.1579 234.0009 14.22276544  3944
QIANFAN-179             
1 69396U 26124Q   26183.13787168  .00000095  00000+0  35829-4 0  9993
2 69396  88.9985   0.3235 0004241 122.9367 237.2233 14.23099552  3944
QIANFAN-180             
1 69397U 26124R   26183.13203412  .00000131  00000+0  50912-4 0  9990
2 69397  88.9986   0.3228 0004611 130.6401 229.5193 14.23621378  3940
QIANFAN-181             
1 69398U 26124S   26183.01576475 -.01651851  00000+0 -98957+0 0  9990
2 69398  88.9981   0.3613 0008140 145.2635 214.9083 14.10979595  3912
QIANFAN-182             
1 69399U 26124T   26183.12735203  .00000088  00000+0  35530-4 0  9999
2 69399  88.9986   0.3408 0003601 119.1413 241.0137 14.18740713  3930
QIANFAN-183             
1 69401U 26125A   26183.24564199  .00000438  00000+0  21277-3 0  9992
2 69401  88.9955 278.7451 0015784 128.7559 231.5042 14.16469707  3838
QIANFAN-184             
1 69402U 26125B   26183.30651507  .00000429  00000+0  20656-3 0  9990
2 69402  88.9956 278.7359 0016593 123.0746 237.2039 14.16889855  3842
QIANFAN-185             
1 69403U 26125C   26183.31448768  .00000437  00000+0  21374-3 0  9992
2 69403  88.9956 278.7370 0017450 123.4730 236.8129 14.16094663  3846
QIANFAN-186             
1 69404U 26125D   26183.29627896  .00000445  00000+0  21228-3 0  9998
2 69404  88.9956 278.7345 0015896 124.4516 235.8177 14.17440833  3841
QIANFAN-187             
1 69405U 26125E   26183.28501061  .00000470  00000+0  22095-3 0  9994
2 69405  88.9956 278.7326 0016425 125.4363 234.8362 14.18351641  3845
QIANFAN-188             
1 69406U 26125F   26183.27110082  .00000457  00000+0  21034-3 0  9990
2 69406  88.9955 278.7303 0016442 128.7928 231.4734 14.19443929  3840
QIANFAN-189             
1 69407U 26125G   26183.27761859  .00000454  00000+0  21150-3 0  9991
2 69407  88.9956 278.7315 0015662 126.4075 233.8562 14.18762841  3847
QIANFAN-190             
1 69408U 26125H   26183.27168316  .00000459  00000+0  21187-3 0  9996
2 69408  88.9956 278.7307 0016457 127.8558 232.4124 14.19225890  3841
QIANFAN-191             
1 69409U 26125J   26183.11638970 -.01544405  00000+0 -85335+0 0  9996
2 69409  88.9951 278.7444 0014123 122.6646 237.5906 14.15085573  3828
QIANFAN-192             
1 69410U 26125K   26183.25329608  .00000475  00000+0  21423-3 0  9991
2 69410  88.9956 278.7279 0016718 127.0537 233.2185 14.20523414  3842
QIANFAN-193             
1 69411U 26125L   26183.24591804  .00000478  00000+0  21388-3 0  9993
2 69411  88.9956 278.7266 0016601 127.4106 232.8599 14.20966009  3841
QIANFAN-194             
1 69412U 26125M   26183.31064435  .00000481  00000+0  21361-3 0  9992
2 69412  88.9956 278.7177 0015929 130.7028 229.5550 14.21407832  3840
QIANFAN-195             
1 69413U 26125N   26183.30538540  .00000491  00000+0  21644-3 0  9990
2 69413  88.9956 278.7170 0017122 129.3339 230.9372 14.21805270  3857
QIANFAN-196             
1 69414U 26125P   26183.29906697  .00000490  00000+0  21381-3 0  9998
2 69414  88.9956 278.7161 0017244 129.7102 230.5613 14.22300346  3854
QIANFAN-197             
1 69415U 26125Q   26183.29396140  .00000487  00000+0  21070-3 0  9996
2 69415  88.9956 278.7153 0015490 127.0427 233.2184 14.22744781  3845
QIANFAN-198             
1 69416U 26125R   26183.30075942  .00000489  00000+0  21423-3 0  9997
2 69416  88.9956 278.7163 0015798 126.4821 233.7828 14.22071471  3859
QIANFAN-199             
1 69417U 26125S   26183.28401848  .00000493  00000+0  20951-3 0  9993
2 69417  88.9955 278.7136 0017529 127.2194 233.0600 14.23635175  3854
QIANFAN-200             
1 69418U 26125T   26183.26485057  .00000475  00000+0  21798-3 0  9996
2 69418  88.9956 278.7295 0016531 125.6285 234.6448 14.19644903  3847
