KUIPER-00008            
1 63724U 25088A   26108.16872190  .00000642  00000+0  12188-3 0  9990
2 63724  51.9007 273.3829 0001370 217.5071 142.5794 14.76517527 53896
KUIPER-00009            
1 63725U 25088B   26108.20413067  .00002782  00000+0  36052-3 0  9993
2 63725  51.9023 291.0512 0005230 220.4659 139.5917 14.83724269 53642
KUIPER-00010            
1 63726U 25088C   26108.14474604  .00001582  00000+0  23617-3 0  9991
2 63726  51.9018 268.6245 0000709 115.2243 244.8793 14.79995054 53577
KUIPER-00011            
1 63727U 25088D   26108.64350351  .00000886  00000+0  14528-3 0  9996
2 63727  51.9009 273.9833 0000555 106.0260 254.0763 14.79920196 53672
KUIPER-00012            
1 63728U 25088E   26108.15316697 -.00001715  00000+0 -19611-3 0  9990
2 63728  51.9020 261.0772 0000706 102.6635 257.4406 14.79913613 53769
KUIPER-00013            
1 63729U 25088F   26108.21942847  .00001610  00000+0  24012-3 0  9993
2 63729  51.9026 293.3023 0001254 155.8874 204.2147 14.79933744 53429
KUIPER-00014            
1 63730U 25088G   26108.20068246  .00002979  00000+0  38346-3 0  9990
2 63730  51.9017 293.4830 0001045 226.6985 133.3892 14.83786174 53232
KUIPER-00015            
1 63731U 25088H   26108.27619791  .00000860  00000+0  14180-3 0  9992
2 63731  51.9026 303.0762 0000794 138.2691 221.8332 14.79921253 53569
KUIPER-00016            
1 63732U 25088J   26107.79201706  .00002837  00000+0  36588-3 0  9994
2 63732  51.9005 297.8084 0004263 196.9101 163.1722 14.83868010 53136
KUIPER-00018            
1 63733U 25088K   26108.22753365  .00001255  00000+0  19369-3 0  9998
2 63733  51.9071 285.7398 0000833 126.5060 233.5980 14.79926356 53340
KUIPER-00019            
1 63734U 25088L   26108.19557808  .00001058  00000+0  18138-3 0  9993
2 63734  51.9003 284.0601 0000882  76.5317 283.5743 14.76399810 53368
KUIPER-00020            
1 63735U 25088M   26108.22481282 -.00001532  00000+0 -17208-3 0  9996
2 63735  51.9032 288.2711 0001181 170.2130 189.8855 14.79922045 53511
KUIPER-00021            
1 63736U 25088N   26108.20700731  .00002441  00000+0  32165-3 0  9995
2 63736  51.9011 288.4783 0002869 188.5751 171.5165 14.83457156 53349
KUIPER-00023            
1 63737U 25088P   26108.22183657  .00002357  00000+0  33761-3 0  9999
2 63737  51.9011 290.7328 0000960 197.4932 162.5997 14.79985663 53618
KUIPER-00024            
1 63738U 25088Q   26107.76289646  .00000899  00000+0  14690-3 0  9992
2 63738  51.9032 280.3426 0000672 120.8659 239.2370 14.79939525 53840
KUIPER-00025            
1 63739U 25088R   26108.19361955  .00002024  00000+0  29413-3 0  9996
2 63739  51.9035 285.9169 0000390  67.1915 292.9089 14.79972552 53664
KUIPER-00027            
1 63740U 25088S   26108.16541080  .00001249  00000+0  19280-3 0  9993
2 63740  51.9020 281.0280 0000532 111.4922 248.6098 14.79924816 53466
KUIPER-00028            
1 63741U 25088T   26108.20185027  .00002305  00000+0  33133-3 0  9991
2 63741  51.9007 278.3306 0000168 142.6035 217.4939 14.79919661 53916
KUIPER-00029            
1 63742U 25088U   26108.15512683  .00001503  00000+0  24399-3 0  9991
2 63742  51.9021 276.2765 0002281   3.5775 356.5202 14.76566267 53468
KUIPER-00030            
1 63743U 25088V   26108.21670947  .00001322  00000+0  20239-3 0  9995
2 63743  51.9020 295.7614 0000656 131.9981 228.1037 14.79937972 53486
KUIPER-00031            
1 63744U 25088W   26108.17182813  .00002505  00000+0  32474-3 0  9999
2 63744  51.9009 280.0142 0000820 259.0060 101.0812 14.84053321 53416
KUIPER-00032            
1 63745U 25088X   26108.49961520  .00012781  00000+0  33991-3 0  9997
2 63745  51.8680 191.5192 0004379 269.5099  90.5386 15.38580144 55679
KUIPER-00033            
1 63746U 25088Y   26108.30184357  .00001613  00000+0  24047-3 0  9997
2 63746  51.9030 310.4109 0000880 120.1533 239.9517 14.79952134 53486
KUIPER-00034            
1 63747U 25088Z   26107.93704512  .00000764  00000+0  12918-3 0  9997
2 63747  51.9022 274.5501 0000709 117.9803 242.1232 14.79951611 53634
KUIPER-00035            
1 63748U 25088AA  26108.24772777  .00000180  00000+0  52592-4 0  9996
2 63748  51.9011 298.1647 0000459 148.8603 211.2387 14.79963281 53385
KUIPER-00037            
1 63749U 25088AB  26108.26478848  .00000674  00000+0  10872-3 0  9993
2 63749  51.9025 297.8863 0000436 136.3682 223.7316 14.83440344 54174
KUIPER-00038            
1 63750U 25088AC  26107.89253738 -.00001247  00000+0 -13464-3 0  9991
2 63750  51.9028 284.7430 0000526  86.1008 274.0014 14.79915671 53323
KUIPER-00039            
1 64500U 25134A   26108.54044682  .00002575  00000+0  36666-3 0  9998
2 64500  51.9029  56.8766 0000972  76.7666 283.3405 14.79927798 45970
KUIPER-00040            
1 64501U 25134B   26108.58055537  .00003533  00000+0  45222-3 0  9997
2 64501  51.9002  66.9808 0012574  41.6856 318.5064 14.83525942 45831
KUIPER-00041            
1 64502U 25134C   26108.59449085  .00002757  00000+0  39054-3 0  9997
2 64502  51.8997  69.1206 0000763  93.1611 266.9438 14.79930533 45808
KUIPER-00042            
1 64503U 25134D   26108.32734658  .00003005  00000+0  39024-3 0  9996
2 64503  51.8997  65.6046 0006183  57.3064 302.8496 14.83385208 45833
KUIPER-00043            
1 64504U 25134E   26108.57420813  .00002869  00000+0  40522-3 0  9991
2 64504  51.9020  56.6646 0000825  93.6277 266.4780 14.79923706 45987
KUIPER-00044            
1 64505U 25134F   26108.59505281  .00003335  00000+0  42821-3 0  9990
2 64505  51.8991  69.4502 0007403  53.6736 306.4910 14.83572163 45805
KUIPER-00046            
1 64506U 25134G   26108.59719261  .00002713  00000+0  38482-3 0  9993
2 64506  51.8988  66.5724 0000693  96.1254 263.9787 14.79923326 45846
KUIPER-00047            
1 64507U 25134H   26108.52523836 -.00014694  00000+0 -19049-2 0  9998
2 64507  51.9022  39.4033 0000524 112.3063 247.7955 14.79882494 46210
KUIPER-00048            
1 64508U 25134J   26108.22162906  .00002381  00000+0  34104-3 0  9991
2 64508  51.9018  40.7638 0000889  82.9520 277.1544 14.79949036 46178
KUIPER-00049            
1 64509U 25134K   26108.57956682  .00002658  00000+0  37704-3 0  9998
2 64509  51.9021  51.6369 0000763  79.6805 280.4243 14.79989550 46050
KUIPER-00050            
1 64510U 25134L   26108.53092873  .00004330  00000+0  59572-3 0  9995
2 64510  51.9019  34.3768 0000770  68.6414 291.4630 14.79997207 46298
KUIPER-00051            
1 64511U 25134M   26108.53508884  .00015468  00000+0  22295-2 0  9995
2 64511  51.9027  49.6175 0001743 169.3650 190.7348 14.76429831 46074
KUIPER-00053            
1 64513U 25134P   26108.54324219  .00002336  00000+0  32272-3 0  9993
2 64513  51.9021  46.7839 0001590  17.0116 343.0900 14.81597409 46116
KUIPER-00054            
1 64514U 25134Q   26108.08389392  .00002440  00000+0  34895-3 0  9995
2 64514  51.9010  43.8574 0000911  94.0080 266.0986 14.79935064 46118
KUIPER-00055            
1 64515U 25134R   26108.58335648  .00027152  00000+0  31234-2 0  9996
2 64515  51.9005 354.2557 0002865 189.8783 225.1926 14.85567909  3384
KUIPER-00056            
1 64516U 25134S   26108.51746779  .00002457  00000+0  35116-3 0  9996
2 64516  51.9040  47.0019 0000715  94.7674 265.3370 14.79933162 46117
KUIPER-00057            
1 64517U 25134T   26108.57690783  .00003029  00000+0  42634-3 0  9995
2 64517  51.9007  54.1945 0000800  94.0822 266.0232 14.79919128 46011
KUIPER-00058            
1 64518U 25134U   26108.54852196  .00003016  00000+0  42454-3 0  9997
2 64518  51.9019  49.2797 0000901  91.4159 268.6906 14.79923449 46085
KUIPER-00059            
1 64519U 25134V   26108.55382748  .00003112  00000+0  43678-3 0  9996
2 64519  51.9018  44.3036 0001052  58.1952 301.9113 14.79961727 46156
KUIPER-00060            
1 64520U 25134W   26108.52016244  .00002404  00000+0  34426-3 0  9994
2 64520  51.9044  44.4957 0000928  80.3512 279.7556 14.79932756 46131
KUIPER-00061            
1 64521U 25134X   26108.54575899  .00002625  00000+0  37296-3 0  9996
2 64521  51.9028  51.8492 0000781  82.4457 277.6594 14.79957081 46034
KUIPER-00062            
1 64522U 25134Y   26108.54312524  .00003249  00000+0  45491-3 0  9990
2 64522  51.8979  54.3750 0000906  86.5060 273.6006 14.79939650 46012
KUIPER-00063            
1 64523U 25134Z   26108.60253549 -.00000410  00000+0 -24740-4 0  9993
2 64523  51.9044  61.6126 0000808  73.3193 286.7858 14.79926686 45910
KUIPER-00064            
1 64524U 25134AA  26108.26762203  .00002219  00000+0  32005-3 0  9997
2 64524  51.9040  60.5160 0000792  96.4823 263.6229 14.79920517 45903
KUIPER-00065            
1 64525U 25134AB  26108.59989873  .00002835  00000+0  40080-3 0  9994
2 64525  51.9039  64.2101 0000868  80.0400 280.0661 14.79929865 45865
KUIPER-00066            
1 64526U 25134AC  26108.58335648  .00039948  00000+0  52394-2 0  9994
2 64526  51.9030   1.5761 0001019 156.3409 296.8076 14.79922066  3368
KUIPER-00069            
1 64816U 25151A   26108.21904896 -.00000889  00000+0 -87638-4 0  9997
2 64816  51.9023 105.8291 0000770  67.3904 292.7140 14.79926209 42613
KUIPER-00070            
1 64817U 25151B   26108.36091839 -.00000868  00000+0 -84859-4 0  9997
2 64817  51.9002 130.1320 0000506  80.5146 279.5874 14.79923446 42298
KUIPER-00071            
1 64818U 25151C   26108.56621686  .00001985  00000+0  28921-3 0  9995
2 64818  51.9011 126.7514 0000444  75.7558 284.3453 14.79936497 41172
KUIPER-00072            
1 64819U 25151D   26108.28382871  .00001827  00000+0  26850-3 0  9999
2 64819  51.8976 107.9716 0000999  52.3426 307.7627 14.79947510 41415
KUIPER-00073            
1 64820U 25151E   26108.32985608 -.00000845  00000+0 -81906-4 0  9998
2 64820  51.9006 127.7862 0000741  63.8398 296.2640 14.79927352 42324
KUIPER-00074            
1 64821U 25151F   26108.24168875  .00266596  00000+0  18089-2 0  9994
2 64821  51.8959  93.7672 0005262 110.3543 249.8025 15.73608666 41605
KUIPER-00075            
1 64822U 25151G   26108.49994992  .00040670  00000+0  92075-3 0  9990
2 64822  51.8688  27.8585 0004616  77.6478 282.5027 15.42712484 42540
KUIPER-00076            
1 64823U 25151H   26108.20524977  .00001890  00000+0  27714-3 0  9991
2 64823  51.9015 118.3487 0000779  69.2343 290.8703 14.79898359 41263
KUIPER-00077            
1 64824U 25151J   26108.33532476  .00001811  00000+0  26667-3 0  9998
2 64824  51.9012 122.7915 0000718  62.1371 297.9664 14.79906387 41212
KUIPER-00078            
1 64825U 25151K   26108.30421515  .00001773  00000+0  26157-3 0  9998
2 64825  51.9004 120.4127 0000583  80.3615 279.7413 14.79931056 41241
KUIPER-00079            
1 64826U 25151L   26108.33257176  .00001888  00000+0  27656-3 0  9994
2 64826  51.8991 125.2591 0000515  71.1807 288.9211 14.79935442 42376
KUIPER-00080            
1 64827U 25151M   26108.29881252  .00001758  00000+0  25957-3 0  9996
2 64827  51.8985 125.4156 0000488  82.0240 278.0778 14.79932419 41176
KUIPER-00082            
1 64828U 25151N   26108.48110863  .00002055  00000+0  29856-3 0  9994
2 64828  51.9012 112.1483 0000584  82.4965 277.6063 14.79930215 41376
KUIPER-00083            
1 64829U 25151P   26108.33764102  .00001983  00000+0  28942-3 0  9994
2 64829  51.9010 120.2640 0000833  71.6744 288.4308 14.79869627 42430
KUIPER-00084            
1 64830U 25151Q   26108.32715174 -.00001142  00000+0 -12089-3 0  9994
2 64830  51.9021 130.3011 0000618  69.8053 290.2976 14.79930851 41104
KUIPER-00085            
1 64831U 25151R   26108.17723911  .00001810  00000+0  26642-3 0  9996
2 64831  51.9025 113.5253 0000647  83.7589 276.3448 14.79926210 41328
KUIPER-00086            
1 64832U 25151S   26108.30152251  .00001828  00000+0  26874-3 0  9991
2 64832  51.9009 122.9390 0000802  53.9580 306.1456 14.79940082 41201
KUIPER-00087            
1 64833U 25151T   26108.25280875  .00001318  00000+0  20182-3 0  9990
2 64833  51.8987 105.6291 0000728  73.8245 286.2797 14.79944246 41437
KUIPER-00089            
1 64834U 25151U   26108.17995779  .00001786  00000+0  26330-3 0  9998
2 64834  51.9004 110.9652 0000567  84.5903 275.5124 14.79917209 41366
KUIPER-00090            
1 64835U 25151V   26108.25551780 -.00000242  00000+0 -27396-5 0  9991
2 64835  51.8959 103.1519 0001199  77.0994 283.0103 14.79929951 41470
KUIPER-00091            
1 64836U 25151W   26108.52024461  .00002027  00000+0  29477-3 0  9994
2 64836  51.9014 106.9702 0000548  72.6724 287.4299 14.79940630 41446
KUIPER-00092            
1 64837U 25151X   26108.44465434  .00001889  00000+0  27677-3 0  9990
2 64837  51.9006 114.8012 0000722  66.3466 293.7572 14.79920351 42541
KUIPER-00093            
1 64838U 25151Y   26108.17154018  .00001772  00000+0  26107-3 0  9992
2 64838  51.9005 118.4849 0000661  64.1048 295.9982 14.79984213 41256
KUIPER-00094            
1 64839U 25151Z   26108.63293862  .00006395  00000+0  46832-3 0  9998
2 64839  51.8889  78.7645 0007311  71.2173 288.9593 15.04686215 41851
KUIPER-00081            
1 65132U 25171A   26108.36195002  .00001429  00000+0  21642-3 0  9999
2 65132  51.9033 332.6398 0000845 138.1701 221.9326 14.79926334 38916
KUIPER-00088            
1 65133U 25171B   26108.41062177 -.00000119  00000+0  13349-4 0  9994
2 65133  51.9041 349.9297 0000417 185.9279 174.1679 14.79948877 38679
KUIPER-00095            
1 65134U 25171C   26108.02705094  .00002197  00000+0  31720-3 0  9993
2 65134  51.8999 331.6921 0000822 110.1831 249.9220 14.79928179 38897
KUIPER-00096            
1 65135U 25171D   26108.38495373 -.00000219  00000+0  29193-6 0  9997
2 65135  51.9013 342.5469 0000700 101.8353 258.2688 14.79919738 38774
KUIPER-00097            
1 65136U 25171E   26108.38227485 -.00000489  00000+0 -35162-4 0  9996
2 65136  51.9038 345.1967 0000956 102.9910 257.1159 14.79920384 38723
KUIPER-00098            
1 65137U 25171F   26108.37956665  .00002271  00000+0  32670-3 0  9994
2 65137  51.9024 347.5820 0000951 100.4290 259.6780 14.79941146 38043
KUIPER-00099            
1 65138U 25171G   26108.35660644  .00002264  00000+0  32605-3 0  9992
2 65138  51.9054 337.6749 0000873 105.8081 254.2978 14.79919587 38838
KUIPER-00100            
1 65139U 25171H   26108.05552094  .00006619  00000+0  89596-3 0  9998
2 65139  51.9041 336.4841 0000764 103.2273 256.8775 14.79956435 38824
KUIPER-00102            
1 65140U 25171J   26108.32281919  .00000888  00000+0  14548-3 0  9992
2 65140  51.8957 337.8143 0001225  83.1212 276.9890 14.79935841 38822
KUIPER-00103            
1 65141U 25171K   26108.40524357  .00002281  00000+0  32804-3 0  9992
2 65141  51.8994 354.9431 0000893 103.0911 257.0152 14.79938710 38595
KUIPER-00104            
1 65142U 25171L   26108.35117284  .00001428  00000+0  21626-3 0  9996
2 65142  51.9042 342.6568 0000755 103.8475 256.2571 14.79933113 38763
KUIPER-00105            
1 65143U 25171M   26108.37687925  .00002317  00000+0  33300-3 0  9993
2 65143  51.9027 350.1568 0000687 108.3326 251.7711 14.79912158 38661
KUIPER-00106            
1 65144U 25171N   26108.35716781  .00003774  00000+0  34240-3 0  9997
2 65144  51.8948 334.6982 0006950 229.4029 130.6337 14.97473009 38884
KUIPER-00107            
1 65145U 25171P   26108.32822895 -.00001182  00000+0 -12602-3 0  9990
2 65145  51.9023 332.8110 0001029  94.4948 265.6132 14.79924280 38902
KUIPER-00108            
1 65146U 25171Q   26108.34844965  .00002113  00000+0  30620-3 0  9998
2 65146  51.9046 345.2453 0000842 109.3113 250.7941 14.79920897 38732
KUIPER-00109            
1 65147U 25171R   26108.05000115  .00002356  00000+0  33785-3 0  9992
2 65147  51.9048 341.5074 0000764 109.6850 250.4195 14.79938278 38759
KUIPER-00110            
1 65148U 25171S   26108.07029382  .00002351  00000+0  33724-3 0  9990
2 65148  51.9027 353.9931 0000844  73.2626 286.8429 14.79943106 38571
KUIPER-00111            
1 65149U 25171T   26107.96362065  .00002106  00000+0  30523-3 0  9998
2 65149  51.8989 359.3671 0000831 108.1817 251.9236 14.79922878 38498
KUIPER-00112            
1 65150U 25171U   26108.35388266  .00001741  00000+0  25719-3 0  9990
2 65150  51.9029 340.2130 0000213  50.7233 309.3748 14.79946287 38792
KUIPER-00114            
1 65151U 25171V   26107.96093057  .00002172  00000+0  31394-3 0  9993
2 65151  51.9026   1.9419 0000882 113.8636 246.2419 14.79918949 38452
KUIPER-00115            
1 65152U 25171W   26108.37417754  .00002327  00000+0  33430-3 0  9999
2 65152  51.9027 352.6085 0000751 116.5648 243.5391 14.79920463 38629
KUIPER-00116            
1 65153U 25171X   26108.40238695 -.00007159  00000+0 -91140-3 0  9991
2 65153  51.9030 357.5188 0000347  53.0335 307.0659 14.79918577 38559
KUIPER-00118            
1 65154U 25171Y   26108.39987553  .00002317  00000+0  33285-3 0  9999
2 65154  51.9024 359.9877 0000865 102.4680 257.6379 14.79927360 38527
KUIPER-00119            
1 65155U 25171Z   26107.93809296 -.00026451  00000+0 -34535-2 0  9991
2 65155  51.9033 349.5870 0000551  86.6151 273.4874 14.79942751 38622
KUIPER-00120            
1 65762U 25217A   26108.65016669  .00003015  00000+0  42422-3 0  9994
2 65762  51.8997 236.3599 0000466 112.5157 247.5855 14.79937106 30659
KUIPER-00132            
1 65763U 25217B   26108.44940250  .00022273  00000+0  53616-3 0  9998
2 65763  51.8566 170.2593 0005636  98.3348 261.8279 15.41183616 31557
KUIPER-00133            
1 65764U 25217C   26108.61639414  .00003265  00000+0  45700-3 0  9990
2 65764  51.9035 236.5780 0001160 139.4586 220.6463 14.79943860 30656
KUIPER-00139            
1 65765U 25217D   26108.56248176 -.00000373  00000+0 -74131-5 0  9997
2 65765  51.8843 211.2074 0008851  82.5155 277.6822 15.02238433 31004
KUIPER-00142            
1 65766U 25217E   26108.60151757  .00003009  00000+0  42361-3 0  9996
2 65766  51.8991 219.0983 0000541 103.2555 256.8468 14.79920987 30893
KUIPER-00145            
1 65767U 25217F   26108.59880592 -.00000766  00000+0 -71437-4 0  9997
2 65767  51.8992 221.6261 0000841  98.1055 262.0003 14.79927327 30858
KUIPER-00147            
1 65768U 25217G   26108.49465566  .00002618  00000+0  37197-3 0  9997
2 65768  51.9004 224.5761 0000339 159.3879 200.7097 14.79974713 30805
KUIPER-00148            
1 65769U 25217H   26108.56093834  .00002071  00000+0  32573-3 0  9997
2 65769  51.9055 204.4566 0002728 141.1149 219.0009 14.76414473 31092
KUIPER-00150            
1 65770U 25217J   26108.61910706  .00003170  00000+0  44441-3 0  9999
2 65770  51.9016 234.0432 0000518 120.9660 239.1353 14.79949961 30687
KUIPER-00151            
1 65771U 25217K   26108.62719723  .00003201  00000+0  44858-3 0  9994
2 65771  51.9010 226.5034 0000346 130.2176 229.8817 14.79939149 30791
KUIPER-00152            
1 65772U 25217L   26108.47184149 -.00000911  00000+0 -90534-4 0  9996
2 65772  51.8996 214.6805 0000298 114.0855 246.0139 14.79923583 30948
KUIPER-00153            
1 65773U 25217M   26108.55699748  .00001509  00000+0  24543-3 0  9990
2 65773  51.9030 208.7945 0000679 160.0939 200.0049 14.76447327 31030
KUIPER-00155            
1 65774U 25217N   26108.58335648 -.01703985  00000+0 -12084+0 0  9993
2 65774  51.8857 183.2560 0007554  57.1136 236.7532 15.07595523  3771
KUIPER-00156            
1 65775U 25217P   26108.57853754  .00002550  00000+0  36332-3 0  9999
2 65775  51.9036 209.2486 0000611  74.0896 286.0134 14.79939386 31028
KUIPER-00163            
1 65777U 25217R   26108.58335648  .00384333  00000+0  25491-2 0  9994
2 65777  51.8985 212.9827 0002616   3.9947  13.6603 15.73802481  4729
KUIPER-00165            
1 65778U 25217S   26108.56774744  .00002647  00000+0  37596-3 0  9992
2 65778  51.9007 219.2589 0000333 114.1946 245.9052 14.79944902 30883
KUIPER-00166            
1 65779U 25217T   26108.54748473  .00002499  00000+0  35673-3 0  9990
2 65779  51.9026 206.8807 0000532  96.1096 263.9927 14.79920761 31054
KUIPER-00167            
1 65780U 25217U   26108.62445044  .00014438  00000+0  19167-2 0  9994
2 65780  51.8960 228.9555 0000406 130.2069 229.8929 14.79981205 30756
KUIPER-00168            
1 65781U 25217V   26108.57585182  .00002530  00000+0  36088-3 0  9999
2 65781  51.9013 211.7266 0000537 104.5819 255.5203 14.79922496 30992
KUIPER-00169            
1 65782U 25217W   26108.57045369  .00002555  00000+0  36414-3 0  9998
2 65782  51.9013 216.7556 0000601 104.4129 255.6900 14.79925587 30927
KUIPER-00170            
1 65783U 25217X   26108.56506328  .00002504  00000+0  35733-3 0  9992
2 65783  51.8991 221.7559 0000503 104.1438 255.9581 14.79928164 30856
KUIPER-00172            
1 65785U 25217Z   26108.52622250  .00001590  00000+0  25581-3 0  9997
2 65785  51.8985 203.5169 0002028  97.5903 262.5288 14.76658624 31107
KUIPER-00173            
1 65786U 25217AA  26108.60428403  .00002872  00000+0  40643-3 0  9991
2 65786  51.9013 216.6072 0000295 113.8780 246.2213 14.79842164 30921
KUIPER-00174            
1 65787U 25217AB  26108.54206682  .00004133  00000+0  57126-3 0  9994
2 65787  51.9021 211.9113 0000630  75.3529 284.7503 14.79902286 30988
KUIPER-00176            
1 65788U 25217AC  26108.59341671  .00000049  00000+0  35461-4 0  9999
2 65788  51.9015 226.6449 0000496 117.7634 242.3378 14.79928690 30780
KUIPER-00101            
1 65947U 25228A   26108.47043525 -.00000176  00000+0  58990-5 0  9997
2 65947  51.8988 184.6604 0000224  89.0432 271.0556 14.79926702 29122
KUIPER-00113            
1 65948U 25228B   26108.44208148  .00001984  00000+0  28912-3 0  9995
2 65948  51.8988 179.8036 0000443  91.3042 268.7971 14.79935850 29188
KUIPER-00117            
1 65949U 25228C   26108.47309558 -.00000028  00000+0  25339-4 0  9996
2 65949  51.9006 182.1668 0000385  89.6786 270.4221 14.79915717 29154
KUIPER-00121            
1 65950U 25228D   26108.44477499  .00002037  00000+0  29605-3 0  9995
2 65950  51.8994 177.2945 0000268  64.7850 295.3140 14.79936597 29223
KUIPER-00122            
1 65951U 25228E   26108.50149909  .00002091  00000+0  30325-3 0  9996
2 65951  51.8997 187.0203 0000395  98.2650 261.8357 14.79928617 29091
KUIPER-00123            
1 65952U 25228F   26108.46772192  .00002129  00000+0  30804-3 0  9992
2 65952  51.8997 187.1876 0000474  95.7802 264.3215 14.79946125 29082
KUIPER-00124            
1 65953U 25228G   26108.47602442  .00002057  00000+0  29895-3 0  9992
2 65953  51.8987 179.6410 0000412  38.2972 321.8019 14.79910840 29192
KUIPER-00125            
1 65954U 25228H   26107.88424424  .00008109  00000+0  10917-2 0  9997
2 65954  51.9005 167.2869 0000595 312.5622  47.5290 14.79917309 29312
KUIPER-00126            
1 65955U 25228J   26108.50420879  .00002264  00000+0  32604-3 0  9992
2 65955  51.8998 184.5401 0000560  94.8510 265.2516 14.79915106 29127
KUIPER-00127            
1 65956U 25228K   26108.49164582  .00007860  00000+0  11522-2 0  9999
2 65956  51.9004 177.0149 0002176  12.5795 347.5220 14.76322325 29230
KUIPER-00128            
1 65957U 25228L   26108.47854158  .00002432  00000+0  34786-3 0  9991
2 65957  51.9009 177.1756 0000383  87.0762 273.0244 14.79930024 29222
KUIPER-00129            
1 65958U 25228M   26108.45016879  .00002038  00000+0  29628-3 0  9991
2 65958  51.9006 172.2845 0000337  83.3229 276.7772 14.79930000 29298
KUIPER-00130            
1 65959U 25228N   26108.48122721  .00000193  00000+0  54316-4 0  9992
2 65959  51.9036 174.6622 0000611 124.1731 235.9290 14.79927153 19553
KUIPER-00134            
1 65960U 25228P   26108.38489951  .00017022  00000+0  43157-3 0  9993
2 65960  51.8741 127.8829 0006250  90.6180 269.5524 15.39792625 29900
KUIPER-00135            
1 65961U 25228Q   26108.44745804  .00001982  00000+0  28880-3 0  9997
2 65961  51.9022 174.8712 0000391  88.9863 271.1145 14.79944900 29259
KUIPER-00136            
1 65962U 25228R   26108.48346442  .00002131  00000+0  30797-3 0  9994
2 65962  51.9004 172.1739 0000311 289.5863  70.5066 14.80001662 29299
KUIPER-00137            
1 65963U 25228S   26108.14896694  .00001970  00000+0  28736-3 0  9997
2 65963  51.9032 171.1298 0000464  98.9567 261.1448 14.79937784 29284
KUIPER-00138            
1 65964U 25228T   26108.45549938  .00002037  00000+0  29613-3 0  9998
2 65964  51.8999 167.2425 0000500  87.5747 272.5273 14.79935975 29360
KUIPER-00140            
1 65965U 25228U   26108.45286737  .00001882  00000+0  27572-3 0  9993
2 65965  51.8994 169.8391 0000409  89.4489 270.6520 14.79937967 29321
KUIPER-00141            
1 65966U 25228V   26108.45824273  .00002048  00000+0  29751-3 0  9993
2 65966  51.9033 164.8406 0000412  85.1700 274.9310 14.79936140 29395
KUIPER-00146            
1 65967U 25228W   26108.42178818  .00001821  00000+0  26784-3 0  9999
2 65967  51.9030 167.5107 0000461  73.6246 286.4767 14.79935641 29357
KUIPER-00149            
1 65968U 25228X   26108.46094224 -.00000078  00000+0  18714-4 0  9991
2 65968  51.9014 162.2383 0000360  81.9699 278.1304 14.79929848 29436
KUIPER-00154            
1 65969U 25228Y   26108.42982018  .00001463  00000+0  22084-3 0  9997
2 65969  51.9002 159.8716 0001817  97.6319 262.4850 14.79943851 29462
KUIPER-00157            
1 65970U 25228Z   26108.15704515 -.00001761  00000+0 -20217-3 0  9992
2 65970  51.9025 163.6999 0000352  73.5846 286.5155 14.79924392 29381
KUIPER-00144            
1 67133U 25301A   26108.61530231  .00002569  00000+0  33188-3 0  9996
2 67133  51.8993 238.3832 0003764 157.6090 202.5039 14.84117702 19796
KUIPER-00164            
1 67134U 25301B   26108.65931780  .00001802  00000+0  28728-3 0  9998
2 67134  51.9044 249.1812 0002042  77.2091 282.9098 14.76430783 19828
KUIPER-00175            
1 67135U 25301C   26108.62542041  .00005473  00000+0  55705-3 0  9997
2 67135  51.8993 240.6899 0000415 155.1961 204.9027 14.92069005 19836
KUIPER-00179            
1 67136U 25301D   26108.58335648  .00012573  00000+0  17137-2 0  9991
2 67136  51.8981 249.1876 0000699  64.9578 194.6709 14.78968457  5298
KUIPER-00181            
1 67137U 25301E   26107.90774446  .00012869  00000+0  18504-2 0  9997
2 67137  51.9038 264.6189 0001335 191.9440 168.1489 14.76669312 19527
KUIPER-00183            
1 67138U 25301F   26108.07469276  .00004080  00000+0  41744-3 0  9998
2 67138  51.8941 244.1207 0009144 195.6803 164.3882 14.92456898 19834
KUIPER-00184            
1 67139U 25301G   26107.65663208  .00001524  00000+0  24762-3 0  9994
2 67139  51.8993 247.1810 0001999  46.4257 313.6869 14.76455382 19867
KUIPER-00186            
1 67140U 25301H   26108.15051807  .00002345  00000+0  33657-3 0  9993
2 67140  51.9043 263.6219 0000435 127.2924 232.8079 14.79923989 19406
KUIPER-00187            
1 67141U 25301J   26108.14779210  .00002160  00000+0  31221-3 0  9998
2 67141  51.9025 266.1516 0000546 114.4064 245.6956 14.79939206 19361
KUIPER-00188            
1 67142U 25301K   26108.58335648 -.00016858  00000+0 -97941-3 0  9992
2 67142  51.8866 233.5653 0006675 209.7908 200.2583 15.11074822  5323
KUIPER-00191            
1 67143U 25301L   26108.66237727  .00002518  00000+0  35923-3 0  9999
2 67143  51.9014 256.3843 0000548 114.4310 245.6709 14.79926848 19578
KUIPER-00196            
1 67144U 25301M   26108.52937685  .00025916  00000+0  68512-3 0  9992
2 67144  51.8685 231.9976 0003391 146.6879 213.4322 15.38239732 19876
KUIPER-00204            
1 67145U 25301N   26108.34300223  .00014180  00000+0  55668-3 0  9994
2 67145  51.8844 241.8136 0002130  59.6313 300.4879 15.25959535 19834
KUIPER-00210            
1 67146U 25301P   26108.15588952  .00000095  00000+0  41454-4 0  9990
2 67146  51.9035 258.5830 0001049 109.3583 250.7493 14.79935820 19641
KUIPER-00221            
1 67147U 25301Q   26107.77636327  .00002052  00000+0  29810-3 0  9994
2 67147  51.9038 267.7679 0001082 145.3671 214.7362 14.79939514 19316
KUIPER-00232            
1 67148U 25301R   26108.12402911  .00001696  00000+0  27180-3 0  9996
2 67148  51.9013 250.8668 0000657 126.5434 233.5588 14.76481445 19575
KUIPER-00241            
1 67149U 25301S   26108.11941390 -.00001718  00000+0 -19644-3 0  9998
2 67149  51.9048 261.2662 0000435 112.3161 247.7847 14.79922620 19762
KUIPER-00245            
1 67150U 25301T   26108.17884487 -.00001625  00000+0 -18423-3 0  9990
2 67150  51.9009 268.5153 0000573 145.4810 214.6189 14.79920757 19331
KUIPER-00246            
1 67151U 25301U   26108.09382861  .00002309  00000+0  33184-3 0  9990
2 67151  51.9006 253.8653 0000867  86.5208 273.5853 14.79919769 19550
KUIPER-00247            
1 67152U 25301V   26108.58335648 -.00024415  00000+0 -34637-2 0  9993
2 67152  51.8955 241.4026 0000830  91.6689  98.9287 14.76397503  5907
KUIPER-00248            
1 67153U 25301W   26108.07750486  .00038471  00000+0  99165-3 0  9992
2 67153  51.8672 234.9021 0009823 191.9543 168.1212 15.38774384 19964
KUIPER-00249            
1 67154U 25301X   26108.58335648 -.00047415  00000+0 -61307-2 0  9994
2 67154  51.8998 238.7970 0001758 100.6745 145.5382 14.80634514  2797
KUIPER-00250            
1 67155U 25301Y   26108.58335648  .00013931  00000+0  18829-2 0  9990
2 67155  51.8988 254.1896 0001281  49.7247 237.4812 14.79247585  5302
KUIPER-00251            
1 67156U 25301Z   26108.58335648 -.00026230  00000+0 -37253-2 0  9991
2 67156  51.9004 241.4437 0001519 145.0789 226.0706 14.76386486  5923
KUIPER-00252            
1 67157U 25301AA  26108.64528696  .00001953  00000+0  30898-3 0  9998
2 67157  51.9032 243.6131 0001989 129.9084 230.2052 14.76406967 19721
KUIPER-00261            
1 67158U 25301AB  26107.41577336  .00002241  00000+0  32325-3 0  9996
2 67158  51.9027 259.4027 0001301 108.5985 251.5119 14.79890351 19396
KUIPER-00265            
1 67159U 25301AC  26108.17624850  .00002239  00000+0  32265-3 0  9995
2 67159  51.9043 271.0117 0000755 139.1005 221.0014 14.79930001 19337
KUIPER-00159            
1 67764U 26030A   26108.50357780  .00034955  00000+0  96285-3 0  9991
2 67764  51.8871  26.9609 0006065 168.8916 191.2206 15.36799170 11214
KUIPER-00160            
1 67765U 26030B   26108.18422047  .00023156  00000+0  64068-3 0  9990
2 67765  51.8851  28.5460 0005487 175.8678 184.2355 15.36886818 11163
KUIPER-00177            
1 67766U 26030C   26108.58335648  .00012431  00000+0  16565-2 0  9997
2 67766  51.9019  36.7063 0001041 117.8708 176.7079 14.79936349  4660
KUIPER-00178            
1 67767U 26030D   26108.48693688  .00001651  00000+0  26603-3 0  9995
2 67767  51.9026  35.6521 0000524  65.0148 295.0867 14.76378404 11097
KUIPER-00180            
1 67768U 26030E   26108.58335648 -.00058095  00000+0 -60092-2 0  9991
2 67768  51.8965  31.8299 0014462 202.3650 174.6507 14.89780610  5501
KUIPER-00197            
1 67769U 26030F   26108.47851962  .00031844  00000+0  85649-3 0  9999
2 67769  51.8881  26.7900 0003109 132.4594 227.6656 15.37597219 11211
KUIPER-00198            
1 67770U 26030G   26108.58335648  .00036247  00000+0  15494-2 0  9993
2 67770  51.8886  27.2695 0002297 180.3773 277.3801 15.22507310  4643
KUIPER-00199            
1 67771U 26030H   26108.50014112  .00023917  00000+0  69191-3 0  9990
2 67771  51.8830  27.6447 0010782 195.2282 164.8381 15.35434422 11200
KUIPER-00200            
1 67772U 26030J   26108.58335648  .00023423  00000+0  11426-2 0  9998
2 67772  51.8909  26.7492 0001294 175.0624 128.1455 15.18188607  5707
KUIPER-00203            
1 67773U 26030K   26108.51179583  .00001723  00000+0  27563-3 0  9995
2 67773  51.9071  41.9081 0000301  67.0377 293.0616 14.76479376 11005
KUIPER-00205            
1 67774U 26030L   26108.15081992  .00016770  00000+0  45426-3 0  9998
2 67774  51.8817  28.3310 0004525 145.5243 214.6038 15.37772495 11163
KUIPER-00208            
1 67775U 26030M   26108.58335648 -.00054965  00000+0 -57037-2 0  9996
2 67775  51.8995  32.5048 0017666 190.5388  95.4401 14.89583051  4273
KUIPER-00209            
1 67776U 26030N   26108.58335648  .00018588  00000+0  17875-2 0  9992
2 67776  51.8975  31.5519 0012780 196.5749 215.2910 14.92973473  5782
KUIPER-00213            
1 67777U 26030P   26108.58335648  .00020811  00000+0  16702-2 0  9993
2 67777  51.8943  30.1924 0016146 195.5107 177.5651 14.99930745  5920
KUIPER-00214            
1 67778U 26030Q   26108.58335648  .00027744  00000+0  18506-2 0  9990
2 67778  51.8947  27.8930 0001727 159.7786 282.4026 15.06843953  4068
KUIPER-00215            
1 67779U 26030R   26108.49633067  .00016944  00000+0  50159-3 0  9998
2 67779  51.8872  27.6413 0011100 195.1732 164.8923 15.34940045 11205
KUIPER-00218            
1 67780U 26030S   26108.58335648  .00022867  00000+0  18611-2 0  9991
2 67780  51.9105  29.4395 0007764 186.1698 295.8534 14.99412993  5424
KUIPER-00220            
1 67781U 26030T   26108.48376623  .00056551  00000+0  15919-2 0  9994
2 67781  51.8844  27.5414 0008649 190.5318 169.5488 15.35885665 11205
KUIPER-00222            
1 67782U 26030U   26108.56017741 -.00339832  00000+0 -12526-1 0  9995
2 67782  51.8852  28.7538 0017212 198.8135 161.2214 15.28572219 11193
KUIPER-00223            
1 67783U 26030V   26108.05249522  .00016246  00000+0  47784-3 0  9999
2 67783  51.8862  29.9052 0012356 190.8134 169.2588 15.35164383 11137
KUIPER-00225            
1 67784U 26030W   26108.58335648 -.00032268  00000+0 -11239-2 0  9992
2 67784  51.8881  26.6097 0003453 169.0073 228.2183 15.28935097  4959
KUIPER-00226            
1 67785U 26030X   26108.15831593 -.00004081  00000+0 -13537-3 0  9992
2 67785  51.8860  31.2966 0019621 200.0966 159.9246 15.27553612 11120
KUIPER-00259            
1 67786U 26030Y   26108.58335648  .00047469  00000+0  14230-2 0  9995
2 67786  51.8824  26.9422 0008715 174.7349  75.1900 15.33986197  5958
KUIPER-00260            
1 67787U 26030Z   26108.47214643  .00041538  00000+0  11049-2 0  9991
2 67787  51.8820  26.7290 0002091 162.0334 198.0727 15.37815345 11129
KUIPER-00262            
1 67788U 26030AA  26108.07173179  .00010883  00000+0  29580-3 0  9995
2 67788  51.8839  28.5536 0001519 126.4181 233.6947 15.38079999 11152
KUIPER-00266            
1 67789U 26030AB  26108.47976864  .00015454  00000+0  55315-3 0  9996
2 67789  51.8819  29.7000 0021557 209.3275 150.6500 15.28745719 11173
KUIPER-00268            
1 67790U 26030AC  26108.49493113  .00024090  00000+0  66448-3 0  9996
2 67790  51.8863  26.9030 0004351 159.6203 200.4958 15.36964484 11214
KUIPER-00270            
1 67791U 26030AD  26108.48960915  .00022630  00000+0  65096-3 0  9991
2 67791  51.8839  27.5770 0010475 189.2868 170.7926 15.35649439 11208
KUIPER-00274            
1 67792U 26030AE  26108.58335648  .00035849  00000+0  12896-2 0  9997
2 67792  51.8851  29.3161 0017964 211.5235 312.2915 15.28128008  3460
KUIPER-00275            
1 67793U 26030AF  26108.48220408  .00007556  00000+0  22400-3 0  9991
2 67793  51.8869  27.5538 0009691 177.0800 183.0244 15.35817691 11201
KUIPER-00276            
1 67794U 26030AG  26108.49225838  .00002303  00000+0  96775-4 0  9997
2 67794  51.8853  29.7926 0016584 182.8860 177.2029 15.27635656 11171
KUIPER-00279            
1 67795U 26030AH  26108.26271737 -.00172613  00000+0 -49352-2 0  9993
2 67795  51.8817  28.3091 0005777 175.9382 184.1652 15.36070229 11172
KUIPER-00131            
1 68573U 26072A   26107.95641882 -.00204929  00000+0 -57646-2 0  9992
2 68573  51.8683 108.2416 0007540 147.8928 212.2519 15.36699012  2117
KUIPER-00189            
1 68574U 26072B   26108.58335648  .00007566  00000+0  32728-3 0  9994
2 68574  51.8798 105.4480 0001647 151.4334 300.9757 15.23395585  2707
KUIPER-00192            
1 68575U 26072C   26107.88712232  .00011542  00000+0  31737-3 0  9993
2 68575  51.8736 108.5275 0005027 140.1870 219.9486 15.37647406  2101
KUIPER-00193            
1 68576U 26072D   26107.88576528  .00012034  00000+0  33006-3 0  9998
2 68576  51.8739 108.5181 0003314 126.7967 233.3324 15.37687211  2104
KUIPER-00194            
1 68577U 26072E   26107.88236799  .00015049  00000+0  40456-3 0  9998
2 68577  51.8752 108.4931 0002849 124.4163 235.7093 15.38101739  2103
KUIPER-00229            
1 68578U 26072F   26107.89286148  .00010572  00000+0  29817-3 0  9997
2 68578  51.8694 108.5657 0007530 146.1324 214.0145 15.36942324  2106
KUIPER-00230            
1 68579U 26072G   26107.87896177  .00012230  00000+0  32760-3 0  9999
2 68579  51.8754 108.4682 0001616 101.2995 258.8174 15.38406847  2101
KUIPER-00231            
1 68580U 26072H   26107.88331841  .00012206  00000+0  33123-3 0  9991
2 68580  51.8734 108.5035 0002719 125.3757 234.7485 15.38006246  2109
KUIPER-00234            
1 68581U 26072J   26107.88020007  .00012326  00000+0  32978-3 0  9991
2 68581  51.8745 108.4821 0002252 111.2821 248.8407 15.38434611  2103
KUIPER-00236            
1 68582U 26072K   26107.88076281  .00012050  00000+0  32369-3 0  9995
2 68582  51.8748 108.4840 0002679 116.0101 244.1162 15.38334505  2103
KUIPER-00244            
1 68583U 26072L   26107.88437885  .00011726  00000+0  31917-3 0  9994
2 68583  51.8745 108.5083 0003945 138.9534 221.1750 15.37949324  2109
KUIPER-00253            
1 68584U 26072M   26107.88814404 -.00000798  00000+0 -10816-4 0  9996
2 68584  51.8702 108.5351 0005450 147.7043 212.4278 15.37477116  2100
KUIPER-00254            
1 68585U 26072N   26107.89326558  .00010784  00000+0  30413-3 0  9994
2 68585  51.8705 108.5684 0007600 152.8727 207.2658 15.36922297  2106
KUIPER-00263            
1 68586U 26072P   26107.87903901  .00012653  00000+0  33746-3 0  9995
2 68586  51.8753 108.4707 0002082  83.6014 276.5210 15.38505965  2108
KUIPER-00269            
1 68587U 26072Q   26107.88643284  .00011120  00000+0  30603-3 0  9999
2 68587  51.8728 108.5237 0004517 129.8580 230.2805 15.37665198  2107
KUIPER-00272            
1 68588U 26072R   26107.88884342  .00011067  00000+0  30684-3 0  9991
2 68588  51.8712 108.5397 0005799 144.5630 215.5743 15.37434103  2108
KUIPER-00285            
1 68589U 26072S   26107.88973118  .00011012  00000+0  30626-3 0  9998
2 68589  51.8722 108.5453 0006269 150.8397 209.2941 15.37341864  2107
KUIPER-00286            
1 68590U 26072T   26107.88594172  .00011410  00000+0  31272-3 0  9999
2 68590  51.8720 108.5213 0004183 132.8353 227.2986 15.37765200  2109
KUIPER-00289            
1 68591U 26072U   26107.90143877  .00009078  00000+0  26505-3 0  9995
2 68591  51.8645 108.6181 0010700 167.2073 192.9187 15.36021111  2100
KUIPER-00290            
1 68592U 26072V   26107.96590853  .00013773  00000+0  39577-3 0  9992
2 68592  51.8631 108.2992 0010909 164.6345 195.4974 15.36054678  2113
KUIPER-00293            
1 68593U 26072W   26107.90394826 -.00010710  00000+0 -29321-3 0  9995
2 68593  51.8629 108.6329 0011439 168.7694 191.3549 15.35625648  2102
KUIPER-00294            
1 68594U 26072X   26107.89892620  .00013732  00000+0  39179-3 0  9996
2 68594  51.8667 108.6034 0009599 164.2836 195.8450 15.36293990  2103
KUIPER-00296            
1 68595U 26072Y   26107.89561223  .00009590  00000+0  27376-3 0  9992
2 68595  51.8687 108.5831 0008378 157.8509 202.2841 15.36679117  2105
KUIPER-00297            
1 68596U 26072Z   26107.96504071  .00013654  00000+0  39152-3 0  9990
2 68596  51.8616 108.2926 0009814 165.2517 194.8757 15.36140391  2118
KUIPER-00300            
1 68597U 26072AA  26107.89389968  .00010341  00000+0  29257-3 0  9994
2 68597  51.8661 108.5711 0007988 157.9659 202.1672 15.36867041  2105
KUIPER-00301            
1 68598U 26072AB  26107.89670207  .00009939  00000+0  28453-3 0  9992
2 68598  51.8639 108.5876 0008657 161.2098 198.9210 15.36540316  2105
KUIPER-00304            
1 68599U 26072AC  26107.96252974  .00014220  00000+0  40322-3 0  9996
2 68599  51.8654 108.2793 0009305 161.0401 199.0934 15.36458128  2110
KUIPER-00317            
1 68600U 26072AD  26107.89483407  .00009698  00000+0  27593-3 0  9996
2 68600  51.8674 108.5776 0008413 153.2341 206.9081 15.36766346  2108
KUIPER-00320            
1 68601U 26072AE  26107.90201149  .00008945  00000+0  26185-3 0  9990
2 68601  51.8593 108.6171 0011027 167.2703 192.8563 15.35955390  2107
