KUIPER-00008            
1 63724U 25088A   26042.91250635  .00004458  00000+0  38427-3 0  9997
2 63724  51.8885 204.4769 0008495  12.2879 347.8297 14.99085812 44191
KUIPER-00009            
1 63725U 25088B   26042.71644232  .00004148  00000+0  57167-3 0  9994
2 63725  51.9024 221.4885 0008990  19.0499 341.0798 14.80012500 43936
KUIPER-00010            
1 63726U 25088C   26043.04633829 -.00002180  00000+0 -25738-3 0  9997
2 63726  51.9018 196.4853 0000691  93.4628 266.6413 14.79885785 43933
KUIPER-00011            
1 63727U 25088D   26042.66693940  .00002414  00000+0  34644-3 0  9999
2 63727  51.9002 205.7306 0001729  76.0438 284.0717 14.79820187 43906
KUIPER-00012            
1 63728U 25088E   26042.76897399  .00002820  00000+0  42996-3 0  9995
2 63728  51.9001 190.0410 0008992  43.9504 316.2170 14.76663783 44089
KUIPER-00013            
1 63729U 25088F   26042.71538226 -.00004957  00000+0 -62191-3 0  9996
2 63729  51.9008 222.9515 0002306 314.5660  45.5114 14.79915518 43720
KUIPER-00014            
1 63730U 25088G   26042.84873732  .00000300  00000+0  68356-4 0  9992
2 63730  51.9026 223.3477 0001829   6.5840 353.5146 14.79958808 43547
KUIPER-00015            
1 63731U 25088H   26042.71905179  .00002375  00000+0  31433-3 0  9999
2 63731  51.8975 233.8240 0009252 354.6761   5.4103 14.83370939 43848
KUIPER-00016            
1 63732U 25088J   26041.83310753  .00004903  00000+0  67068-3 0  9992
2 63732  51.8997 230.3554 0007296 351.9655   8.1190 14.79992183 43359
KUIPER-00018            
1 63733U 25088K   26042.72359188  .00001644  00000+0  24485-3 0  9992
2 63733  51.9019 215.3852 0009240  10.3591 349.7560 14.79909257 43643
KUIPER-00019            
1 63734U 25088L   26042.72456925  .00001007  00000+0  16128-3 0  9998
2 63734  51.9008 213.9137 0001829  77.7899 282.3269 14.79906770 43662
KUIPER-00020            
1 63735U 25088M   26042.72078104  .00003448  00000+0  48042-3 0  9999
2 63735  51.8992 217.9196 0007270   9.0099 351.0992 14.79993723 43817
KUIPER-00021            
1 63736U 25088N   26043.12443495  .00013216  00000+0  17570-2 0  9999
2 63736  51.9002 217.1341 0005339   9.3672 350.7389 14.79980131 43690
KUIPER-00023            
1 63737U 25088P   26042.71806285  .00001185  00000+0  18466-3 0  9992
2 63737  51.9009 220.3910 0009041  19.3564 340.7740 14.79938936 43912
KUIPER-00024            
1 63738U 25088Q   26042.66410737  .00001268  00000+0  19536-3 0  9991
2 63738  51.9027 208.1908 0000552 102.3395 257.7629 14.79926272 44203
KUIPER-00025            
1 63739U 25088R   26042.92452865  .00007136  00000+0  96480-3 0  9992
2 63739  51.9020 215.5484 0001304 163.3973 196.7032 14.79899054 43984
KUIPER-00027            
1 63740U 25088S   26042.66134688 -.00001696  00000+0 -19348-3 0  9990
2 63740  51.8994 210.6690 0001076 161.7700 198.3301 14.79927998 43768
KUIPER-00028            
1 63741U 25088T   26042.44709968  .00002256  00000+0  30024-3 0  9991
2 63741  51.9001 209.2980 0004713  93.7385 266.4118 14.83347044 44171
KUIPER-00029            
1 63742U 25088U   26042.69412927  .00002086  00000+0  27895-3 0  9998
2 63742  51.8995 206.1758 0001127 100.0041 260.1050 14.83440478 43764
KUIPER-00030            
1 63743U 25088V   26043.11808302  .00016320  00000+0  21614-2 0  9991
2 63743  51.8975 223.6242 0010775 351.5949   8.4832 14.79961773 43845
KUIPER-00031            
1 63744U 25088W   26042.76872986  .00002360  00000+0  31207-3 0  9990
2 63744  51.8994 210.9634 0002689  82.0853 278.0416 14.83434259 43703
KUIPER-00032            
1 63745U 25088X   26043.30445076  .00023288  00000+0  66668-3 0  9999
2 63745  51.8690 146.8471 0003806  31.1933 328.9278 15.35824662 45644
KUIPER-00033            
1 63746U 25088Y   26042.95148119  .00004459  00000+0  56812-3 0  9997
2 63746  51.9003 240.2755 0000468  56.4342 303.6666 14.83194631 43796
KUIPER-00034            
1 63747U 25088Z   26041.62877098  .00002830  00000+0  36988-3 0  9999
2 63747  51.9015 208.5104 0001102 237.2117 122.8741 14.83297348 43806
KUIPER-00035            
1 63748U 25088AA  26042.70841063  .00002547  00000+0  36269-3 0  9990
2 63748  51.8982 229.0054 0002517   3.0553 357.0424 14.79973205 43667
KUIPER-00037            
1 63749U 25088AB  26043.11514668  .00002703  00000+0  38392-3 0  9998
2 63749  51.8984 226.1503 0000332 127.3972 232.7020 14.79871570 44524
KUIPER-00038            
1 63750U 25088AC  26042.65886207  .00002397  00000+0  34340-3 0  9997
2 63750  51.9000 213.1955 0001398  67.1888 292.9222 14.79930531 43662
KUIPER-00039            
1 64500U 25134A   26043.03639361  .00003833  00000+0  53162-3 0  9992
2 64500  51.9053 346.5276 0001273 281.3709  78.7111 14.79928768 36270
KUIPER-00040            
1 64501U 25134B   26043.22656047 -.00003904  00000+0 -48214-3 0  9997
2 64501  51.9019 356.8273 0015054 181.9828 178.1077 14.79915767 36140
KUIPER-00041            
1 64502U 25134C   26043.02064778  .00005591  00000+0  75638-3 0  9992
2 64502  51.9021 359.0671 0010514 178.3112 181.7888 14.80216574 36099
KUIPER-00042            
1 64503U 25134D   26043.22928349 -.00005657  00000+0 -71358-3 0  9998
2 64503  51.9028 354.1694 0009320 192.6551 167.4179 14.79889134 36187
KUIPER-00043            
1 64504U 25134E   26043.13492090  .00006850  00000+0  84975-3 0  9991
2 64504  51.9044 346.6947 0001201 226.0002 134.0863 14.83585522 36286
KUIPER-00044            
1 64505U 25134F   26043.22384222 -.00007007  00000+0 -89083-3 0  9991
2 64505  51.9030 359.1935 0009497 190.0131 170.0644 14.79899886 36111
KUIPER-00046            
1 64506U 25134G   26043.22825279  .00000602  00000+0  10794-3 0  9999
2 64506  51.9014 355.6455 0000554  91.0796 269.0229 14.79930781 36167
KUIPER-00047            
1 64507U 25134H   26043.20382166  .00005804  00000+0  84553-3 0  9994
2 64507  51.9022 328.0552 0002811  66.8865 293.2392 14.77004276 36545
KUIPER-00048            
1 64508U 25134J   26043.19024127  .00000844  00000+0  13967-3 0  9993
2 64508  51.9013 328.3379 0001159  53.7829 306.3240 14.79927318 36546
KUIPER-00049            
1 64509U 25134K   26043.24272061  .00000180  00000+0  52591-4 0  9992
2 64509  51.9023 341.5878 0001506  19.0847 341.0172 14.79966508 36364
KUIPER-00050            
1 64510U 25134L   26043.19609303  .00010382  00000+0  90464-3 0  9996
2 64510  51.8930 327.8262 0004346 229.7957 130.2633 14.97373961 36559
KUIPER-00051            
1 64511U 25134M   26043.22681748  .00007996  00000+0  98861-3 0  9990
2 64511  51.9025 339.0324 0000418  86.3694 273.7318 14.83525701 36392
KUIPER-00052            
1 64512U 25134N   26043.25003472  .00139041  18455-4  40077-3 0  9997
2 64512  51.8456 237.5645 0006187 253.9989 172.2512 15.92789182  5645
KUIPER-00053            
1 64513U 25134P   26043.24985202  .00012346  00000+0  16452-2 0  9996
2 64513  51.9021 335.5887 0001451  82.9404 277.1723 14.79941386 36444
KUIPER-00054            
1 64514U 25134Q   26043.18753088  .00006636  00000+0  89949-3 0  9992
2 64514  51.8999 330.8376 0000410 180.1285 179.9677 14.79889786 36500
KUIPER-00055            
1 64515U 25134R   26043.13027014  .00017948  00000+0  84170-3 0  9990
2 64515  51.8955 300.0960 0001303 121.1862 238.9245 15.19727855 36936
KUIPER-00056            
1 64516U 25134S   26043.01403844  .00006637  00000+0  82851-3 0  9994
2 64516  51.9045 337.3482 0000236  12.6083 347.4887 14.83364808 36408
KUIPER-00057            
1 64517U 25134T   26043.28167858  .00008235  00000+0  10167-2 0  9992
2 64517  51.9007 343.6950 0004962 188.0419 172.0467 14.83549034 36332
KUIPER-00058            
1 64518U 25134U   26043.17959189  .00005923  00000+0  80509-3 0  9996
2 64518  51.9031 338.3347 0000340 293.8925  66.2002 14.79940057 36406
KUIPER-00059            
1 64519U 25134V   26043.18492700 -.00000665  00000+0 -58179-4 0  9998
2 64519  51.9014 333.3581 0003677 135.8974 224.2283 14.79922827 36477
KUIPER-00060            
1 64520U 25134W   26043.21739449  .00007809  00000+0  96815-3 0  9991
2 64520  51.9050 333.9321 0001087  16.9887 343.1113 14.83437417 36454
KUIPER-00061            
1 64521U 25134X   26043.24361670  .00006728  00000+0  90711-3 0  9990
2 64521  51.9028 340.6009 0001136  87.3290 272.7802 14.80102179 36366
KUIPER-00062            
1 64522U 25134Y   26041.23568896  .00005171  00000+0  62067-3 0  9991
2 64522  51.8997 352.2478 0006887 190.7218 169.3601 14.85408527 36041
KUIPER-00063            
1 64523U 25134Z   26043.22995166  .00006718  00000+0  90118-3 0  9993
2 64523  51.9045 350.6366 0001789  70.5339 289.5816 14.80318053 36233
KUIPER-00064            
1 64524U 25134AA  26043.23629710  .00000049  00000+0  35487-4 0  9994
2 64524  51.9052 348.0660 0000977  80.4692 279.6381 14.79931189 36270
KUIPER-00065            
1 64525U 25134AB  26043.25003472  .00032532  00000+0  42173-2 0  9998
2 64525  51.9039 353.1594 0000404 188.5181 277.0105 14.80511431  5398
KUIPER-00066            
1 64526U 25134AC  26042.97715221  .00019609  00000+0  84730-3 0  9995
2 64526  51.8780 305.6199 0003498 169.2001 190.9055 15.22476173 36848
KUIPER-00069            
1 64816U 25151A   26043.18781205  .00005319  00000+0  72608-3 0  9999
2 64816  51.9028  33.3863 0000463 169.6446 190.4526 14.79938311 32982
KUIPER-00070            
1 64817U 25151B   26043.19461406  .00002916  00000+0  41144-3 0  9990
2 64817  51.9018  58.3051 0000451 101.0482 259.0532 14.79928295 32647
KUIPER-00071            
1 64818U 25151C   26043.19731204  .00010568  00000+0  14126-2 0  9998
2 64818  51.9015  55.8061 0002136 162.3449 197.7588 14.79948778 31492
KUIPER-00072            
1 64819U 25151D   26043.25003472 -.00010885  00000+0 -15206-2 0  9999
2 64819  51.8991  35.4850 0001257  41.7599 346.6365 14.76494356  2181
KUIPER-00073            
1 64820U 25151E   26043.22966065  .00004750  00000+0  64846-3 0  9991
2 64820  51.9008  55.6433 0002264 188.6726 171.4197 14.80140920 32681
KUIPER-00074            
1 64821U 25151F   26043.24453672  .00011568  00000+0  15427-2 0  9994
2 64821  51.9039  43.1219 0001686 353.1599   6.9340 14.79965521 31674
KUIPER-00075            
1 64822U 25151G   26043.09968066  .00052487  00000+0  12611-2 0  9993
2 64822  51.8741 346.2523 0004725 175.0921 185.0114 15.40810503 32459
KUIPER-00076            
1 64823U 25151H   26043.23883990  .00005343  00000+0  72414-3 0  9999
2 64823  51.9008  45.5981 0000730 214.9724 145.1191 14.80234327 31649
KUIPER-00077            
1 64824U 25151J   26043.23646530  .00000347  00000+0  74590-4 0  9994
2 64824  51.9036  50.6493 0001952 145.6557 214.4532 14.79916042 31577
KUIPER-00078            
1 64825U 25151K   26043.20539654  .00000288  00000+0  66718-4 0  9997
2 64825  51.8985  48.2764 0000388 294.5865  65.5057 14.79925238 31600
KUIPER-00079            
1 64826U 25151L   26042.42342544  .00005182  00000+0  70757-3 0  9996
2 64826  51.8998  56.7133 0000562 111.9941 248.1081 14.79974659 32619
KUIPER-00080            
1 64827U 25151M   26043.19999912  .00000722  00000+0  12375-3 0  9996
2 64827  51.8990  53.2841 0000621  81.7151 278.3882 14.79927180 31534
KUIPER-00082            
1 64828U 25151N   26043.17972531  .00000699  00000+0  12073-3 0  9991
2 64828  51.9018  40.9031 0000798  81.3901 278.7152 14.79927858 31700
KUIPER-00083            
1 64829U 25151P   26043.23915954  .00000002  00000+0  29259-4 0  9998
2 64829  51.8991  48.1273 0000543 160.6401 199.4582 14.79926978 32790
KUIPER-00084            
1 64830U 25151Q   26043.22834404  .00020745  00000+0  27434-2 0  9996
2 64830  51.9014  58.1670 0001880 110.8172 249.2992 14.79908029 31467
KUIPER-00085            
1 64831U 25151R   26043.21346296 -.00001711  00000+0 -19554-3 0  9992
2 64831  51.9053  40.7730 0000714  47.1078 312.9945 14.79923551 31707
KUIPER-00086            
1 64832U 25151S   26043.20269857  .00001556  00000+0  23306-3 0  9994
2 64832  51.9026  50.7987 0001223 140.8120 219.2931 14.79929817 31567
KUIPER-00087            
1 64833U 25151T   26043.15213713  .00004875  00000+0  66478-3 0  9993
2 64833  51.9002  33.4859 0001106  87.3150 272.7939 14.80136995 31792
KUIPER-00089            
1 64834U 25151U   26043.21581873  .00005088  00000+0  69469-3 0  9996
2 64834  51.9015  38.2294 0000657  28.5494 331.5504 14.80009133 31741
KUIPER-00090            
1 64835U 25151V   26043.15662137 -.00013286  00000+0 -17183-2 0  9999
2 64835  51.8995  31.0297 0000723 123.5223 236.5808 14.79906672 31835
KUIPER-00091            
1 64836U 25151W   26043.21662561 -.00017641  00000+0 -22888-2 0  9995
2 64836  51.9030  35.7153 0000814 234.6229 125.4657 14.79973939 31771
KUIPER-00092            
1 64837U 25151X   26043.21075424  .00004937  00000+0  67584-3 0  9997
2 64837  51.9011  43.2605 0000731  68.2586 291.8454 14.79948623 32880
KUIPER-00093            
1 64838U 25151Y   26043.20793805  .00004965  00000+0  68085-3 0  9995
2 64838  51.9004  45.7547 0000232  77.4506 282.6482 14.79866067 31637
KUIPER-00094            
1 64839U 25151Z   26043.14148905  .00013026  00000+0  92093-3 0  9998
2 64839  51.8925  19.8234 0005298 183.6936 176.3998 15.05166352 31998
KUIPER-00081            
1 65132U 25171A   26042.99309448  .00003973  00000+0  54997-3 0  9991
2 65132  51.9007 261.7028 0000975  92.3938 267.7136 14.79923015 29231
KUIPER-00088            
1 65133U 25171B   26043.05560723  .00005283  00000+0  66476-3 0  9996
2 65133  51.9011 279.0781 0000923 155.1071 204.9938 14.83394549 28998
KUIPER-00095            
1 65134U 25171C   26043.25003472 -.00034122  00000+0 -48444-2 0  9992
2 65134  51.8968 257.8594 0000529 328.4525  97.4376 14.76534841  5399
KUIPER-00096            
1 65135U 25171D   26043.01604315  .00004358  00000+0  60013-3 0  9993
2 65135  51.9012 271.6097 0001574 121.3306 238.7810 14.79944265 29095
KUIPER-00097            
1 65136U 25171E   26043.25003472 -.00023522  00000+0 -31268-2 0  9992
2 65136  51.9003 273.1830 0001722 112.1694  80.2860 14.79124443  5021
KUIPER-00098            
1 65137U 25171F   26043.07815649 -.00001488  00000+0 -16622-3 0  9995
2 65137  51.9023 276.3437 0003196  78.7056 281.4266 14.79908268 28371
KUIPER-00099            
1 65138U 25171G   26043.05504339  .00003565  00000+0  49579-3 0  9998
2 65138  51.9034 266.4218 0001094 116.6702 243.4372 14.79988440 29160
KUIPER-00100            
1 65139U 25171H   26043.02415715  .00004184  00000+0  57798-3 0  9995
2 65139  51.9008 264.0459 0000779  89.6461 270.4590 14.79896022 29192
KUIPER-00102            
1 65140U 25171J   26043.02144836  .00004081  00000+0  56390-3 0  9993
2 65140  51.8979 266.5885 0000897  56.2695 303.8353 14.79943726 29158
KUIPER-00103            
1 65141U 25171K   26043.03668786  .00004777  00000+0  65376-3 0  9996
2 65141  51.8998 284.0129 0003075  72.8427 287.2872 14.80029930 28912
KUIPER-00104            
1 65142U 25171L   26043.04976389 -.00000099  00000+0  15965-4 0  9993
2 65142  51.9014 271.4097 0000174 205.5236 154.5718 14.79914839 29091
KUIPER-00105            
1 65143U 25171M   26043.14094460 -.00052310  00000+0 -68999-2 0  9993
2 65143  51.9001 278.6085 0002270  85.1155 275.0066 14.79846132 29001
KUIPER-00106            
1 65144U 25171N   26043.00976602 -.00001493  00000+0 -10556-3 0  9999
2 65144  51.8954 271.6375 0006843  20.0344 340.0893 14.97146601 29095
KUIPER-00107            
1 65145U 25171P   26042.75660610  .00003784  00000+0  52486-3 0  9991
2 65145  51.9018 262.7650 0000776 115.5232 244.5811 14.79949408 29195
KUIPER-00108            
1 65146U 25171Q   26043.04710022  .00004251  00000+0  58624-3 0  9998
2 65146  51.9015 273.9962 0002254  98.0734 262.0484 14.79937940 29063
KUIPER-00109            
1 65147U 25171R   26043.01872277  .00004290  00000+0  59110-3 0  9991
2 65147  51.9027 269.0635 0000832  79.2168 280.8888 14.79949771 29120
KUIPER-00110            
1 65148U 25171S   26043.24150652 -.00004246  00000+0 -52841-3 0  9990
2 65148  51.9003 280.6691 0002566 110.4996 249.6242 14.79914028 28975
KUIPER-00111            
1 65149U 25171T   26042.86480722  .00004632  00000+0  63625-3 0  9991
2 65149  51.8992 287.2525 0002418  86.0560 274.0679 14.79928747 28858
KUIPER-00112            
1 65150U 25171U   26042.98454019  .00004295  00000+0  59287-3 0  9990
2 65150  51.9027 269.2625 0000706  90.3740 269.7304 14.79874173 29116
KUIPER-00114            
1 65151U 25171V   26043.06470926  .00003841  00000+0  53252-3 0  9998
2 65151  51.9003 288.9182 0002299  81.3825 278.7398 14.79938554 28846
KUIPER-00115            
1 65152U 25171W   26043.07264990  .00004748  00000+0  65103-3 0  9997
2 65152  51.9011 281.3682 0001005  95.4353 264.6724 14.79952389 28955
KUIPER-00116            
1 65153U 25171X   26043.03366274  .00005099  00000+0  69798-3 0  9996
2 65153  51.9007 286.5815 0002618  54.0951 306.0255 14.79897040 28875
KUIPER-00118            
1 65154U 25171Y   26042.89581153  .00004270  00000+0  58833-3 0  9993
2 65154  51.9003 289.6470 0001170 108.5941 251.5149 14.79964085 28824
KUIPER-00119            
1 65155U 25171Z   26043.25003472 -.00027232  00000+0 -36305-2 0  9992
2 65155  51.8996 275.6496 0006703  47.9313 336.6561 14.79061729  4824
KUIPER-00120            
1 65762U 25217A   26042.59388238  .00004556  00000+0  67707-3 0  9992
2 65762  51.8978 168.3433 0003264 191.1762 168.9126 14.76577678 20874
KUIPER-00132            
1 65763U 25217B   26043.23338113  .00064156  00000+0  16338-2 0  9997
2 65763  51.8601 126.9948 0007049 235.1854 124.8470 15.38939188 21506
KUIPER-00133            
1 65764U 25217C   26043.31492379  .00005067  00000+0  69287-3 0  9990
2 65764  51.9038 165.3204 0001798 292.2408  67.8363 14.79952491 20982
KUIPER-00139            
1 65765U 25217D   26042.82369704  .00002365  00000+0  19848-3 0  9997
2 65765  51.8859 152.2081 0008487 231.5124 128.5087 15.02072211 21129
KUIPER-00142            
1 65766U 25217E   26043.30008757  .00000189  00000+0  53874-4 0  9990
2 65766  51.8990 147.8667 0000921  61.7962 298.3093 14.79916574 21220
KUIPER-00145            
1 65767U 25217F   26043.29734158  .00005479  00000+0  74718-3 0  9996
2 65767  51.8986 150.3898 0000726  93.7492 266.3553 14.79928334 21185
KUIPER-00147            
1 65768U 25217G   26043.26072075 -.00007487  00000+0 -95374-3 0  9991
2 65768  51.9008 153.0545 0002222  40.5371 319.5757 14.79950054 21147
KUIPER-00148            
1 65769U 25217H   26042.79068268  .00012607  00000+0  78505-3 0  9993
2 65769  51.8767 144.6998 0008668 261.6147  98.3845 15.09883657 21221
KUIPER-00150            
1 65770U 25217J   26042.98003490  .00061452  00000+0  80211-2 0  9990
2 65770  51.9013 164.2896 0000828  78.0087 282.0968 14.79908357 20965
KUIPER-00151            
1 65771U 25217K   26042.51537086 -.00002846  00000+0 -34449-3 0  9990
2 65771  51.9022 158.8463 0000880 128.5338 231.5703 14.79930149 21009
KUIPER-00152            
1 65772U 25217L   26043.25003472  .00017934  00000+0  25179-2 0  9991
2 65772  51.8993 143.0260 0000848 102.8393 354.0018 14.77458265  5764
KUIPER-00153            
1 65773U 25217M   26043.30049327  .00014786  00000+0  84696-3 0  9999
2 65773  51.8757 145.7953 0011237 240.1352 119.8508 15.12762594 21252
KUIPER-00155            
1 65774U 25217N   26043.26871888  .00017877  00000+0  77065-3 0  9996
2 65774  51.8808 131.7410 0005311 258.1097 101.9289 15.22614162 21441
KUIPER-00156            
1 65775U 25217P   26043.27714391  .00003766  00000+0  52272-3 0  9998
2 65775  51.9021 137.9945 0000750  75.5833 284.5213 14.79939195 21354
KUIPER-00158            
1 65776U 25217Q   26043.28656953  .00005525  00000+0  74721-3 0  9997
2 65776  51.8963 157.8846 0000349 136.9722 223.1268 14.80265653 21085
KUIPER-00163            
1 65777U 25217R   26042.52736900  .00003134  00000+0  42147-3 0  9996
2 65777  51.8960 163.6055 0000200 233.3818 126.7127 14.81766818 20939
KUIPER-00165            
1 65778U 25217S   26042.59101650  .00000875  00000+0  14379-3 0  9997
2 65778  51.9008 151.0070 0000825  97.8959 262.2098 14.79929419 21113
KUIPER-00166            
1 65779U 25217T   26043.25003472  .00000940  00000+0  14945-3 0  9997
2 65779  51.9009 135.6147 0000862 121.0576 257.7311 14.80792674  5138
KUIPER-00167            
1 65780U 25217U   26042.64770389 -.00000317  00000+0 -12632-4 0  9991
2 65780  51.8956 160.7313 0000899  40.9786 319.1244 14.79927650 20986
KUIPER-00168            
1 65781U 25217V   26043.27444263  .00006737  00000+0  91115-3 0  9993
2 65781  51.9007 140.4851 0001062  56.3935 303.7129 14.79967586 21329
KUIPER-00169            
1 65782U 25217W   26043.26890175  .00005643  00000+0  76722-3 0  9992
2 65782  51.9010 145.5107 0000568  68.1160 291.9863 14.80006270 21256
KUIPER-00170            
1 65783U 25217X   26043.26360642 -.00000322  00000+0 -13208-4 0  9996
2 65783  51.9033 150.5314 0001086  22.5628 337.5382 14.79941489 21180
KUIPER-00172            
1 65785U 25217Z   26043.26010214  .00014929  00000+0  94428-3 0  9993
2 65785  51.8861 134.5310 0002675 235.6131 124.4591 15.09192553 21403
KUIPER-00173            
1 65786U 25217AA  26042.59441336  .00006426  00000+0  82018-3 0  9997
2 65786  51.9011 148.1551 0000339  88.7128 271.3875 14.82484200 21150
KUIPER-00174            
1 65787U 25217AB  26042.90326880  .00011447  00000+0  15242-2 0  9992
2 65787  51.9065 142.1479 0001018 184.1373 175.9581 14.80037941 21260
KUIPER-00176            
1 65788U 25217AC  26043.29196465  .00003126  00000+0  43882-3 0  9997
2 65788  51.8981 155.4101 0000452  53.2944 306.8060 14.79934005 21113
KUIPER-00101            
1 65947U 25228A   26043.23653032  .00005101  00000+0  69759-3 0  9994
2 65947  51.8985 113.1369 0000841  62.2900 297.8148 14.79931153 19467
KUIPER-00113            
1 65948U 25228B   26043.20815372 -.00000698  00000+0 -62545-4 0  9994
2 65948  51.8994 108.2800 0000909  93.3841 266.7225 14.79926204 19526
KUIPER-00117            
1 65949U 25228C   26043.23931202  .00005116  00000+0  70059-3 0  9995
2 65949  51.8970 110.6443 0000559  68.3259 291.7763 14.79867128 19497
KUIPER-00121            
1 65950U 25228D   26043.21086377  .00004669  00000+0  64086-3 0  9994
2 65950  51.9001 105.7618 0000718  72.2639 287.8401 14.79942593 19560
KUIPER-00122            
1 65951U 25228E   26042.45707084 -.00017925  00000+0 -23292-2 0  9999
2 65951  51.8984 119.0732 0000798   2.9292 357.1675 14.79919477 19310
KUIPER-00123            
1 65952U 25228F   26043.23385613  .00004087  00000+0  56487-3 0  9993
2 65952  51.8988 115.6634 0000874  67.7737 292.3318 14.79926374 19426
KUIPER-00124            
1 65953U 25228G   26043.17441006  .00004920  00000+0  67356-3 0  9999
2 65953  51.9006 108.4149 0000922  56.1754 303.9296 14.79953688 19528
KUIPER-00125            
1 65954U 25228H   26043.25003472 -.00039446  00000+0 -51635-2 0  9995
2 65954  51.8996  93.0995 0000878 117.0464 199.6305 14.80031196  5786
KUIPER-00126            
1 65955U 25228J   26041.44700031  .00000672  00000+0  11712-3 0  9990
2 65955  51.8998 121.0736 0001022  61.4666 298.6399 14.79924133 19195
KUIPER-00127            
1 65956U 25228K   26043.25003472 -.00015179  00000+0 -18073-2 0  9993
2 65956  51.8996 104.3961 0000968 295.4626 243.6124 14.83433609  5820
KUIPER-00128            
1 65957U 25228L   26041.48880213  .00004652  00000+0  63820-3 0  9996
2 65957  51.9009 113.3991 0000822  84.8928 275.2128 14.79971198 19302
KUIPER-00129            
1 65958U 25228M   26042.47338667  .00001336  00000+0  20443-3 0  9998
2 65958  51.8997 104.0298 0003012   8.8913 351.2103 14.79909429 19529
KUIPER-00130            
1 65959U 25228N   26042.16655566  .00004618  00000+0  63290-3 0  9998
2 65959  51.9033 107.8862 0000857  36.6963 323.4058 14.80033542  9736
KUIPER-00134            
1 65960U 25228P   26043.11667911  .00043411  00000+0  11587-2 0  9998
2 65960  51.8766  84.1718 0005952 246.5045 113.5317 15.37675290 19856
KUIPER-00135            
1 65961U 25228Q   26043.14602207  .00004711  00000+0  64677-3 0  9998
2 65961  51.9024 103.6220 0000719  98.6801 261.4243 14.79921235 19581
KUIPER-00136            
1 65962U 25228R   26043.18250511 -.00005729  00000+0 -72373-3 0  9994
2 65962  51.9024 100.9391 0001280   1.4305 358.6660 14.79899932 19621
KUIPER-00137            
1 65963U 25228S   26043.18597502  .00002767  00000+0  42045-3 0  9999
2 65963  51.9025  98.3869 0000299 177.0729 183.0234 14.76868373 19665
KUIPER-00138            
1 65964U 25228T   26043.15409124  .00004232  00000+0  58377-3 0  9993
2 65964  51.8988  96.0158 0000742  78.0833 282.0212 14.79932947 19699
KUIPER-00140            
1 65965U 25228U   26042.74600217  .00000058  00000+0  36713-4 0  9997
2 65965  51.8991 100.3979 0001698 130.0679 230.0432 14.79788839 19597
KUIPER-00141            
1 65966U 25228V   26043.25003472 -.00044468  00000+0 -58323-2 0  9999
2 65966  51.9020  93.1738 0002578 109.6218  27.8310 14.80003586  5282
KUIPER-00146            
1 65967U 25228W   26043.16519943  .00004328  00000+0  54373-3 0  9996
2 65967  51.9028  95.8260 0001401 110.6037 249.5077 14.83856844 19694
KUIPER-00149            
1 65968U 25228X   26043.25003472 -.00047089  00000+0 -58448-2 0  9991
2 65968  51.8999  90.6387 0001160  21.0237  79.6624 14.82332226  2664
KUIPER-00154            
1 65969U 25228Y   26043.25003472 -.00026662  00000+0 -28233-2 0  9995
2 65969  51.8998  88.3733 0006268 220.8707 286.3737 14.88527532  5373
KUIPER-00157            
1 65970U 25228Z   26043.25003472 -.00043491  00000+0 -52803-2 0  9996
2 65970  51.9011  90.7842 0001373  90.9267 171.7778 14.83207798  5892
KUIPER-00144            
1 67133U 25301A   26042.92070719  .00041448  00000+0  11133-2 0  9991
2 67133  51.8689 189.7774 0007233 302.5874  57.4414 15.37493880  9772
KUIPER-00164            
1 67134U 25301B   26043.25003472  .00072747  00000+0  20739-2 0  9999
2 67134  51.8697 187.9886 0002621 283.7984 195.1473 15.35405808  4809
KUIPER-00175            
1 67135U 25301C   26042.68716537  .00024021  00000+0  63442-3 0  9990
2 67135  51.8714 190.4787 0001585 215.9031 144.1850 15.38315844  9819
KUIPER-00179            
1 67136U 25301D   26042.76820666  .00023697  00000+0  63695-3 0  9997
2 67136  51.8708 190.2704 0001850 257.4313 102.6467 15.37780792  9932
KUIPER-00181            
1 67137U 25301E   26043.25003472  .00038009  00000+0  25696-2 0  9992
2 67137  51.8807 191.0465 0013442 314.2699  24.9055 15.06123869  5460
KUIPER-00183            
1 67138U 25301F   26042.77384254  .00026876  00000+0  75168-3 0  9998
2 67138  51.8609 190.9835 0013030 315.3032  44.6903 15.36397677  9914
KUIPER-00184            
1 67139U 25301G   26042.76251938  .00028320  00000+0  78740-3 0  9995
2 67139  51.8610 190.9192 0010734 312.7490  47.2592 15.36578665 10025
KUIPER-00186            
1 67140U 25301H   26043.25003472 -.00903042  00000+0 -77001-1 0  9992
2 67140  51.9111 191.3976 0007424 309.0116 323.4462 15.00276314  5593
KUIPER-00187            
1 67141U 25301J   26043.25003472 -.01590558  00000+0 -18073+0 0  9990
2 67141  51.8955 193.2570 0010581 312.1817 338.2727 14.89313856  5666
KUIPER-00188            
1 67142U 25301K   26042.80784830  .00040249  00000+0  10986-2 0  9997
2 67142  51.8669 190.5123 0008874 305.8398  54.1763 15.36996331  9754
KUIPER-00191            
1 67143U 25301L   26043.25003472 -.01372278  00000+0 -69776-1 0  9997
2 67143  51.8766 188.8954 0008104 310.4315  40.0463 15.19695956  5737
KUIPER-00196            
1 67144U 25301M   26042.70929948  .00055783  00000+0  14793-2 0  9998
2 67144  51.8699 190.6228 0003087 270.1987  89.8646 15.37773465  9741
KUIPER-00204            
1 67145U 25301N   26042.72100925  .00022109  00000+0  87522-3 0  9994
2 67145  51.8828 193.5957 0002720 238.8694 121.2021 15.25357934  9818
KUIPER-00210            
1 67146U 25301P   26043.25003472 -.01826775  00000+0 -86784-1 0  9994
2 67146  51.8717 189.1732 0011075 326.2060 285.8447 15.22391241  5462
KUIPER-00221            
1 67147U 25301Q   26043.25003472 -.00019716  00000+0 -21906-2 0  9999
2 67147  51.8978 193.2966 0004085 252.7099 172.7515 14.86423602  5427
KUIPER-00232            
1 67148U 25301R   26042.75499529  .00023442  00000+0  62325-3 0  9996
2 67148  51.8713 190.1869 0002040 197.0495 163.0424 15.38125069  9759
KUIPER-00241            
1 67149U 25301S   26043.25003472 -.01129036  00000+0 -76179-1 0  9990
2 67149  51.8949 189.6391 0001780 335.5771  80.9274 15.09185092  5891
KUIPER-00245            
1 67150U 25301T   26043.25003472  .00015251  00000+0  18887-2 0  9995
2 67150  51.9005 195.6805 0004538 326.0101 186.9479 14.82854728  5512
KUIPER-00246            
1 67151U 25301U   26043.25003472 -.00246581  00000+0 -70158-2 0  9999
2 67151  51.8707 188.0021 0004605 302.4376 176.3971 15.36548092  5899
KUIPER-00247            
1 67152U 25301V   26042.71995498  .00025330  00000+0  72137-3 0  9993
2 67152  51.8624 191.3812 0013345 325.1958  34.8154 15.35861758  9736
KUIPER-00248            
1 67153U 25301W   26042.76117659  .00028774  00000+0  80369-3 0  9995
2 67153  51.8651 190.9360 0010235 305.8835  54.1201 15.36433443  9919
KUIPER-00249            
1 67154U 25301X   26042.74335008  .00055053  00000+0  14846-2 0  9990
2 67154  51.8656 190.8142 0010307 315.5423  44.4735 15.37216986  9740
KUIPER-00250            
1 67155U 25301Y   26043.25003472 -.00661960  00000+0 -23408-1 0  9990
2 67155  51.8739 188.3301 0008253 312.5970   6.7744 15.31000649  5886
KUIPER-00251            
1 67156U 25301Z   26042.75388886  .00029211  00000+0  80665-3 0  9995
2 67156  51.8641 190.8815 0010491 311.7626  48.2463 15.36777929  9939
KUIPER-00252            
1 67157U 25301AA  26042.76780680  .00027307  00000+0  76192-3 0  9999
2 67157  51.8631 190.9681 0011205 314.8969  45.1106 15.36484010  9744
KUIPER-00261            
1 67158U 25301AB  26043.25003472 -.00477197  00000+0 -17758-1 0  9991
2 67158  51.8729 188.2993 0008850 300.7617   6.4945 15.28988172  5763
KUIPER-00265            
1 67159U 25301AC  26042.06434917  .00113154  00000+0  14775-1 0  9996
2 67159  51.9027 203.3412 0000509  43.7275 316.3727 14.79498715  9543
