KUIPER-00008            
1 63724U 25088A   26045.44589955 -.00008680  00000+0 -68689-3 0  9994
2 63724  51.8902 192.9310 0008774  18.7032 341.4260 14.99016980 44578
KUIPER-00009            
1 63725U 25088B   26045.48513047 -.00001190  00000+0 -12670-3 0  9996
2 63725  51.9005 209.2428 0008898  28.9615 331.1839 14.79927658 44347
KUIPER-00010            
1 63726U 25088C   26045.40996214  .00002592  00000+0  36938-3 0  9998
2 63726  51.9012 186.0333 0000812 108.7854 251.3196 14.79878047 44282
KUIPER-00011            
1 63727U 25088D   26045.43554786  .00004208  00000+0  57963-3 0  9993
2 63727  51.8985 193.4857 0001257  90.1691 269.9416 14.80009829 44311
KUIPER-00012            
1 63728U 25088E   26045.47612895  .00003517  00000+0  52827-3 0  9990
2 63728  51.9002 178.1319 0009106  51.5464 308.6313 14.76684810 44485
KUIPER-00013            
1 63729U 25088F   26045.48416627  .00002860  00000+0  40440-3 0  9995
2 63729  51.8987 210.7072 0002512 331.5954  28.4871 14.79898692 44131
KUIPER-00014            
1 63730U 25088G   26045.48246225  .00002698  00000+0  38308-3 0  9991
2 63730  51.8990 211.6860 0000648 100.2820 259.8216 14.79901883 43930
KUIPER-00015            
1 63731U 25088H   26045.48133544  .00002579  00000+0  33884-3 0  9993
2 63731  51.8976 221.5419 0009205   3.5941 356.5087 14.83385722 44252
KUIPER-00016            
1 63732U 25088J   26044.93950988  .00005007  00000+0  68608-3 0  9993
2 63732  51.8974 216.6209 0007288   5.5370 354.5672 14.79877342 43818
KUIPER-00018            
1 63733U 25088K   26045.42480323  .00001682  00000+0  24982-3 0  9992
2 63733  51.9022 203.4388 0008933  20.4489 339.6830 14.79928195 44040
KUIPER-00019            
1 63734U 25088L   26045.42578115  .00001218  00000+0  18886-3 0  9991
2 63734  51.8991 201.9678 0001851  93.5278 266.5896 14.79923824 44065
KUIPER-00020            
1 63735U 25088M   26045.42195994 -.00010415  00000+0 -13385-2 0  9991
2 63735  51.8966 205.9752 0007292  20.0134 340.1113 14.79928926 44212
KUIPER-00021            
1 63736U 25088N   26044.67753686  .00002952  00000+0  41538-3 0  9993
2 63736  51.8992 210.2637 0004732  17.6533 342.4593 14.80011525 43928
KUIPER-00023            
1 63737U 25088P   26045.48674795  .00001280  00000+0  19702-3 0  9998
2 63737  51.8990 208.1460 0008969  28.9206 331.2252 14.79956486 44320
KUIPER-00024            
1 63738U 25088Q   26044.41988420  .00000364  00000+0  76720-4 0  9990
2 63738  51.9012 200.4256 0000616 110.7578 249.3451 14.79929899 44461
KUIPER-00025            
1 63739U 25088R   26045.42312730  .00001177  00000+0  18329-3 0  9991
2 63739  51.9015 204.5012 0000615 122.5546 237.5476 14.79953545 44354
KUIPER-00027            
1 63740U 25088S   26044.95740711  .00001483  00000+0  22366-3 0  9990
2 63740  51.9007 200.5257 0000409 115.4466 244.6539 14.79904990 44109
KUIPER-00028            
1 63741U 25088T   26045.41154279  .00002240  00000+0  29815-3 0  9999
2 63741  51.8991 196.1166 0004640 103.0598 257.0883 14.83363517 44615
KUIPER-00029            
1 63742U 25088U   26045.38891017  .00002185  00000+0  29079-3 0  9994
2 63742  51.8999 194.1939 0001081  90.0826 270.0261 14.83455710 44167
KUIPER-00030            
1 63743U 25088V   26044.67120717  .00002671  00000+0  37874-3 0  9990
2 63743  51.8988 216.7547 0011135 356.4030   3.6850 14.79988397 44070
KUIPER-00031            
1 63744U 25088W   26045.46352128  .00002595  00000+0  34027-3 0  9994
2 63744  51.8986 198.9798 0002671  87.6381 272.4888 14.83450258 44101
KUIPER-00032            
1 63745U 25088X   26045.51673562  .00018647  00000+0  53420-3 0  9992
2 63745  51.8711 136.1739 0004039  38.2543 321.8729 15.35947683 45980
KUIPER-00033            
1 63746U 25088Y   26045.51195910  .00003862  00000+0  49566-3 0  9998
2 63746  51.8984 228.8946 0000572  61.2278 298.8743 14.83205539 44179
KUIPER-00034            
1 63747U 25088Z   26045.40180373  .00003829  00000+0  49026-3 0  9998
2 63747  51.8994 191.7406 0001056 250.5144 109.5706 14.83330706 44366
KUIPER-00035            
1 63748U 25088AA  26045.47703946  .00002782  00000+0  39329-3 0  9995
2 63748  51.8987 216.7627 0002866  11.9545 348.1485 14.79989167 44075
KUIPER-00037            
1 63749U 25088AB  26045.47877369  .00002809  00000+0  39779-3 0  9996
2 63749  51.8981 215.6973 0000493 153.3764 206.7224 14.79884341 44876
KUIPER-00038            
1 63750U 25088AC  26044.81980504  .00002563  00000+0  36504-3 0  9991
2 63750  51.8998 203.6400 0001476  62.7795 297.3317 14.79943565 43981
KUIPER-00039            
1 64500U 25134A   26045.19732387  .00005792  00000+0  78766-3 0  9996
2 64500  51.9026 336.9714 0000756 317.7349  42.3555 14.79960280 36598
KUIPER-00040            
1 64501U 25134B   26045.25251242  .00003582  00000+0  49858-3 0  9995
2 64501  51.8999 347.8678 0015680 184.3347 175.7482 14.79898133 36446
KUIPER-00041            
1 64502U 25134C   26045.24867513  .00005805  00000+0  78367-3 0  9996
2 64502  51.9009 349.2120 0010533 184.8509 175.2353 14.80244542 36426
KUIPER-00042            
1 64503U 25134D   26045.25522707  .00014113  00000+0  18757-2 0  9999
2 64503  51.9011 345.2204 0008910 200.4712 159.5894 14.79926610 36488
KUIPER-00043            
1 64504U 25134E   26045.22315924  .00006449  00000+0  80104-3 0  9997
2 64504  51.9023 337.4072 0001208 231.3509 128.7347 14.83615663 36599
KUIPER-00044            
1 64505U 25134F   26045.24982645  .00005679  00000+0  77401-3 0  9990
2 64505  51.9006 350.2420 0009242 194.0604 166.0103 14.79881650 36410
KUIPER-00046            
1 64506U 25134G   26045.25415175  .00005643  00000+0  76848-3 0  9996
2 64506  51.9007 346.6850 0000903  75.6534 284.4529 14.79939289 36463
KUIPER-00047            
1 64507U 25134H   26045.16605638  .00004648  00000+0  68299-3 0  9997
2 64507  51.9009 319.4186 0002815  73.3397 286.7873 14.77023381 36835
KUIPER-00048            
1 64508U 25134J   26045.14866230 -.00000143  00000+0  10235-4 0  9998
2 64508  51.9009 319.6794 0001248  57.9024 302.2060 14.79899904 36833
KUIPER-00049            
1 64509U 25134K   26045.40368806 -.00000855  00000+0 -83218-4 0  9996
2 64509  51.9019 332.0263 0001154  80.3956 279.7136 14.79919191 36681
KUIPER-00050            
1 64510U 25134L   26045.13161159  .00006694  00000+0  59110-3 0  9998
2 64510  51.8923 319.0280 0004628 231.9061 128.1492 14.97395609 36842
KUIPER-00051            
1 64511U 25134M   26045.18041443  .00006399  00000+0  79628-3 0  9995
2 64511  51.9028 330.3462 0000566  85.3622 274.7406 14.83552236 36680
KUIPER-00052            
1 64512U 25134N   26045.55801524  .00297557  45863-4  74826-3 0  9995
2 64512  51.8439 225.4130 0006589 269.1639  90.8617 15.95105950 38159
KUIPER-00053            
1 64513U 25134P   26045.20819205  .00002972  00000+0  41849-3 0  9996
2 64513  51.9024 326.9294 0001484  91.0612 269.0520 14.79955544 36739
KUIPER-00054            
1 64514U 25134Q   26045.14597763  .00002711  00000+0  38499-3 0  9990
2 64514  51.9001 322.1779 0000347 161.4125 198.6850 14.79878998 36795
KUIPER-00055            
1 64515U 25134R   26044.97151129  .00015371  00000+0  72202-3 0  9999
2 64515  51.8946 291.4346 0001178 129.6249 230.4834 15.19785866 37218
KUIPER-00056            
1 64516U 25134S   26044.96784393  .00005762  00000+0  72253-3 0  9993
2 64516  51.9041 328.6625 0000398  48.5808 311.5190 14.83392956 36693
KUIPER-00057            
1 64517U 25134T   26045.23524132  .00007083  00000+0  87777-3 0  9993
2 64517  51.9009 335.0067 0004934 194.1575 165.9252 14.83578159 36623
KUIPER-00058            
1 64518U 25134U   26045.00290601  .00001747  00000+0  25815-3 0  9996
2 64518  51.9028 330.2756 0000236 353.1175   6.9784 14.79930044 36670
KUIPER-00059            
1 64519U 25134V   26045.21082898  .00005357  00000+0  73112-3 0  9991
2 64519  51.9010 324.4091 0002061 101.0271 259.0924 14.79939502 36770
KUIPER-00060            
1 64520U 25134W   26045.17110875  .00006205  00000+0  77463-3 0  9991
2 64520  51.9045 325.2456 0000919  22.3815 337.7189 14.83462598 36748
KUIPER-00061            
1 64521U 25134X   26045.20173781  .00005814  00000+0  78744-3 0  9999
2 64521  51.9029 331.9397 0001265 100.8488 259.2616 14.80125862 36652
KUIPER-00062            
1 64522U 25134Y   26045.50002314 -.00160074  00000+0 -19733-1 0  9999
2 64522  51.8972 333.2571 0006629 203.2580 274.7493 14.83422374  4491
KUIPER-00063            
1 64523U 25134Z   26045.18778826  .00006102  00000+0  82084-3 0  9992
2 64523  51.9036 341.9752 0001762  75.7155 284.4003 14.80341519 36526
KUIPER-00064            
1 64524U 25134AA  26045.19464662  .00005845  00000+0  79470-3 0  9992
2 64524  51.9039 339.4110 0000858 105.3992 254.7065 14.79952973 36566
KUIPER-00065            
1 64525U 25134AB  26044.24280183  .00005871  00000+0  78717-3 0  9994
2 64525  51.9041 348.7642 0000456 192.6494 167.4457 14.80537803 36336
KUIPER-00066            
1 64526U 25134AC  26045.07761312  .00017065  00000+0  73788-3 0  9996
2 64526  51.8763 295.6882 0002994 174.8045 185.2967 15.22549361 37161
KUIPER-00069            
1 64816U 25151A   26045.34877561  .00002708  00000+0  38407-3 0  9998
2 64816  51.9020  23.8327 0000259 128.4295 231.6691 14.79932768 33309
KUIPER-00070            
1 64817U 25151B   26045.42308621  .00004814  00000+0  65982-3 0  9992
2 64817  51.9002  48.4455 0000498 147.9004 212.1989 14.79948378 32974
KUIPER-00071            
1 64818U 25151C   26045.42573560  .00004676  00000+0  64125-3 0  9993
2 64818  51.9009  45.9527 0001952 168.1917 191.9092 14.79978915 31820
KUIPER-00072            
1 64819U 25151D   26045.41002163  .00076401  00000+0  10619-1 0  9991
2 64819  51.8985  25.9768 0000681  53.0173 307.0850 14.77121312 32105
KUIPER-00073            
1 64820U 25151E   26045.39031464 -.00008028  00000+0 -10208-2 0  9993
2 64820  51.9006  46.0854 0001801 194.4109 165.6803 14.80115384 33008
KUIPER-00074            
1 64821U 25151F   26045.47297134 -.00005682  00000+0 -71675-3 0  9990
2 64821  51.9018  33.2569 0000452  47.6742 312.4259 14.79942468 32001
KUIPER-00075            
1 64822U 25151G   26045.17515285  .00035632  00000+0  85945-3 0  9999
2 64822  51.8732 336.1713 0003735 175.3714 184.7309 15.40873229 32772
KUIPER-00076            
1 64823U 25151H   26045.39933676  .00004913  00000+0  66792-3 0  9999
2 64823  51.9011  36.0396 0000638 224.1988 135.8923 14.80254049 31967
KUIPER-00077            
1 64824U 25151J   26045.46495979  .00004966  00000+0  67996-3 0  9992
2 64824  51.9020  40.7952 0001752 151.2782 208.8277 14.79935046 31906
KUIPER-00078            
1 64825U 25151K   26045.23129046  .00004770  00000+0  65413-3 0  9992
2 64825  51.9007  39.3180 0000081 178.4514 181.6448 14.79940864 31909
KUIPER-00079            
1 64826U 25151L   26045.46222997  .00001481  00000+0  22313-3 0  9995
2 64826  51.8996  43.2754 0001308  77.8432 282.2677 14.79947822 33063
KUIPER-00080            
1 64827U 25151M   26045.36095862  .00005203  00000+0  71091-3 0  9997
2 64827  51.8998  43.7298 0000705  75.6347 284.4694 14.79939964 31851
KUIPER-00082            
1 64828U 25151N   26045.13809450  .00000564  00000+0  10303-3 0  9993
2 64828  51.9020  32.2432 0000843  54.6194 305.4847 14.79927803 31990
KUIPER-00083            
1 64829U 25151P   26045.46764751  .00005006  00000+0  68511-3 0  9994
2 64829  51.9014  38.2752 0000272 150.6409 209.4568 14.79938582 33123
KUIPER-00084            
1 64830U 25151Q   26045.25422320 -.00000018  00000+0  26658-4 0  9992
2 64830  51.9006  49.2032 0002271 159.2532 200.8522 14.79925648 31764
KUIPER-00085            
1 64831U 25151R   26045.17184305  .00004455  00000+0  61300-3 0  9992
2 64831  51.9040  32.1168 0000813 105.4871 254.6181 14.79929294 31997
KUIPER-00086            
1 64832U 25151S   26045.36365961  .00004926  00000+0  67469-3 0  9998
2 64832  51.9012  41.2430 0000771 142.1886 217.9131 14.79936553 31888
KUIPER-00087            
1 64833U 25151T   26045.31277439  .00005815  00000+0  78686-3 0  9997
2 64833  51.9007  23.9287 0001111  84.2131 275.8958 14.80159790 32117
KUIPER-00089            
1 64834U 25151U   26045.37664403  .00005008  00000+0  68395-3 0  9995
2 64834  51.9009  28.6736 0000773  33.4724 326.6287 14.80029570 32064
KUIPER-00090            
1 64835U 25151V   26045.31766287  .00005270  00000+0  72036-3 0  9991
2 64835  51.8994  21.4746 0000779  93.7496 266.3555 14.79895255 32157
KUIPER-00091            
1 64836U 25151W   26045.44534029 -.00026220  00000+0 -34410-2 0  9996
2 64836  51.9029  25.8602 0000460  86.1296 273.9719 14.79722429 32101
KUIPER-00092            
1 64837U 25151X   26045.43921835 -.00000604  00000+0 -50197-4 0  9991
2 64837  51.9029  33.4068 0000797  72.7147 287.3902 14.79941691 33212
KUIPER-00093            
1 64838U 25151Y   26045.43650492  .00004944  00000+0  67781-3 0  9995
2 64838  51.9006  35.9004 0000288  72.4466 287.6528 14.79886612 31969
KUIPER-00094            
1 64839U 25151Z   26045.39893917  .00010404  00000+0  73887-3 0  9994
2 64839  51.8912   9.4392 0005341 192.6093 167.4748 15.05211977 32334
KUIPER-00081            
1 65132U 25171A   26045.01901547 -.00000881  00000+0 -86644-4 0  9997
2 65132  51.9000 252.7405 0001014 135.4245 224.6799 14.79907099 29532
KUIPER-00088            
1 65133U 25171B   26045.00938519  .00004396  00000+0  55761-3 0  9994
2 65133  51.8994 270.3907 0000991 167.2890 192.8099 14.83409741 29286
KUIPER-00095            
1 65134U 25171C   26044.99749246  .00002870  00000+0  43838-3 0  9996
2 65134  51.8968 250.1730 0000491 329.9476  30.1456 14.76528081 29563
KUIPER-00096            
1 65135U 25171D   26044.97442270  .00001535  00000+0  23031-3 0  9992
2 65135  51.8985 262.9531 0001539 119.0150 241.0967 14.79927292 29384
KUIPER-00097            
1 65136U 25171E   26045.50002314  .00039316  00000+0  52583-2 0  9995
2 65136  51.8997 263.2457 0001849 122.2454 178.2687 14.79104879  5355
KUIPER-00098            
1 65137U 25171F   26045.03656408  .00003654  00000+0  50847-3 0  9991
2 65137  51.9001 267.6834 0003151  89.5692 270.5632 14.79904933 28661
KUIPER-00099            
1 65138U 25171G   26045.01332635  .00003297  00000+0  46054-3 0  9991
2 65138  51.9009 257.7625 0001074 129.6789 230.4268 14.79997866 29458
KUIPER-00100            
1 65139U 25171H   26044.98255888  .00005861  00000+0  79749-3 0  9997
2 65139  51.8974 255.3912 0001445  59.1080 301.0024 14.79916838 29483
KUIPER-00102            
1 65140U 25171J   26044.03438405  .00003888  00000+0  53846-3 0  9990
2 65140  51.8974 262.1093 0000830  60.7192 299.3854 14.79950741 29302
KUIPER-00103            
1 65141U 25171K   26044.99491314  .00003693  00000+0  51192-3 0  9990
2 65141  51.8984 275.3538 0003203  76.4304 283.7015 14.80043073 29208
KUIPER-00104            
1 65142U 25171L   26045.00816608  .00003519  00000+0  49063-3 0  9992
2 65142  51.9010 262.7490 0000196 116.9048 243.1935 14.79910552 29383
KUIPER-00105            
1 65143U 25171M   26043.14094460 -.00052310  00000+0 -68999-2 0  9993
2 65143  51.9001 278.6085 0002270  85.1155 275.0066 14.79846132 29001
KUIPER-00106            
1 65144U 25171N   26045.01236595  .00005736  00000+0  51293-3 0  9997
2 65144  51.8925 262.5471 0007566  26.6209 333.5148 14.97146388 29399
KUIPER-00107            
1 65145U 25171P   26044.98509973 -.00001106  00000+0 -11617-3 0  9991
2 65145  51.8993 252.9129 0000597  82.2176 277.8854 14.79926991 29521
KUIPER-00108            
1 65146U 25171Q   26045.00544886  .00003426  00000+0  47802-3 0  9998
2 65146  51.9013 265.3352 0002384 104.1729 255.9499 14.79949287 29352
KUIPER-00109            
1 65147U 25171R   26044.97710630 -.00000754  00000+0 -69979-4 0  9999
2 65147  51.9016 260.4037 0000725 107.9954 252.1088 14.79920592 29418
KUIPER-00110            
1 65148U 25171S   26044.92979937 -.00006102  00000+0 -77304-3 0  9995
2 65148  51.8997 273.2043 0002500 113.0998 247.0228 14.79879431 29227
KUIPER-00111            
1 65149U 25171T   26045.02576899  .00000175  00000+0  52071-4 0  9995
2 65149  51.8986 277.6982 0002463  85.2257 274.8987 14.79924742 29172
KUIPER-00112            
1 65150U 25171U   26045.01055039  .00000759  00000+0  12881-3 0  9996
2 65150  51.9011 260.3075 0000734  89.7792 270.3254 14.79851257 29413
KUIPER-00114            
1 65151U 25171V   26045.02308450  .00001385  00000+0  21076-3 0  9998
2 65151  51.8996 280.2591 0002206  90.1601 269.9614 14.79926858 29133
KUIPER-00115            
1 65152U 25171W   26045.03101511 -.00000504  00000+0 -37100-4 0  9999
2 65152  51.9001 272.7089 0000806 115.1873 244.9173 14.79936559 29247
KUIPER-00116            
1 65153U 25171X   26045.05954435  .00008860  00000+0  11889-2 0  9998
2 65153  51.9005 277.6226 0002716  62.1190 298.0047 14.79963597 29178
KUIPER-00118            
1 65154U 25171Y   26044.92164740  .00003702  00000+0  51382-3 0  9999
2 65154  51.9002 280.6892 0001265 106.7247 253.3854 14.79980429 29123
KUIPER-00119            
1 65155U 25171Z   26045.50002314  .00048727  00000+0  64966-2 0  9990
2 65155  51.8989 265.7128 0006404  57.2470  75.0352 14.79121859  5154
KUIPER-00120            
1 65762U 25217A   26045.30114427  .00019718  00000+0  28160-2 0  9996
2 65762  51.8988 156.4343 0001997 194.4527 165.6377 14.76670371 21270
KUIPER-00132            
1 65763U 25217B   26045.44127037  .00039422  00000+0  10091-2 0  9991
2 65763  51.8604 116.2909 0006816 245.0877 114.9402 15.38999959 21848
KUIPER-00133            
1 65764U 25217C   26045.47591870 -.00002074  00000+0 -24335-3 0  9997
2 65764  51.9034 155.7653 0001657 302.1076  57.9725 14.79899380 21301
KUIPER-00139            
1 65765U 25217D   26045.48514042 -.00004528  00000+0 -32097-3 0  9995
2 65765  51.8856 140.0157 0008301 234.7524 125.2671 15.02002981 21523
KUIPER-00142            
1 65766U 25217E   26045.46105919  .00004692  00000+0  64409-3 0  9995
2 65766  51.8987 138.3100 0001018  76.6136 283.4940 14.79930447 21545
KUIPER-00145            
1 65767U 25217F   26045.45827844  .00005251  00000+0  71692-3 0  9997
2 65767  51.8993 140.8352 0000763  94.1008 266.0042 14.79953526 21508
KUIPER-00147            
1 65768U 25217G   26045.42173894  .00000294  00000+0  67600-4 0  9991
2 65768  51.8974 143.4919 0001400  82.9101 277.2021 14.79887916 21469
KUIPER-00148            
1 65769U 25217H   26045.50437337  .00013018  00000+0  80865-3 0  9991
2 65769  51.8772 132.1192 0008421 271.7749  88.2262 15.09948673 21638
KUIPER-00150            
1 65770U 25217J   26045.47862594 -.00007931  00000+0 -10134-2 0  9996
2 65770  51.9001 153.2432 0000888 125.9792 234.1253 14.79901603 21331
KUIPER-00151            
1 65771U 25217K   26045.48668218  .00001697  00000+0  25156-3 0  9997
2 65771  51.8986 145.7032 0000554  95.8105 264.2920 14.79938730 21446
KUIPER-00152            
1 65772U 25217L   26045.46390375  .00059520  00000+0  81850-2 0  9992
2 65772  51.8998 133.2734 0001756  54.5344 305.5781 14.77718048 21612
KUIPER-00153            
1 65773U 25217M   26045.48052295  .00014094  00000+0  80689-3 0  9998
2 65773  51.8781 135.6441 0011008 243.6173 116.3673 15.12822961 21580
KUIPER-00155            
1 65774U 25217N   26045.43464244  .00017189  00000+0  74043-3 0  9990
2 65774  51.8800 121.5007 0005286 264.1422  95.8956 15.22667190 21779
KUIPER-00156            
1 65775U 25217P   26045.43808166  .00003138  00000+0  44026-3 0  9993
2 65775  51.9021 128.4396 0000741  78.0478 282.0568 14.79948455 21672
KUIPER-00158            
1 65776U 25217Q   26045.51452918  .00005213  00000+0  70627-3 0  9995
2 65776  51.8966 148.0276 0000246  41.8231 318.2750 14.80289977 21416
KUIPER-00163            
1 65777U 25217R   26045.29265499  .00002242  00000+0  30958-3 0  9999
2 65777  51.8958 151.3413 0000118 268.1213  91.9737 14.81773778 21340
KUIPER-00165            
1 65778U 25217S   26045.42724862  .00005073  00000+0  69354-3 0  9996
2 65778  51.8989 138.4645 0000830  89.3028 270.8029 14.79957219 21530
KUIPER-00166            
1 65779U 25217T   26045.50002314 -.00008782  00000+0 -11260-2 0  9991
2 65779  51.9018 125.6626 0001459  51.6001  84.3910 14.79876406  5473
KUIPER-00167            
1 65780U 25217U   26043.72819191 -.00000943  00000+0 -94705-4 0  9992
2 65780  51.8977 155.9468 0000627 197.7438 162.3502 14.79915091 21140
KUIPER-00168            
1 65781U 25217V   26045.43533656  .00001186  00000+0  18437-3 0  9997
2 65781  51.9002 130.9287 0001095  60.0770 300.0301 14.79973452 21642
KUIPER-00169            
1 65782U 25217W   26045.42972500  .00005010  00000+0  68410-3 0  9998
2 65782  51.9004 135.9542 0000603  56.0898 304.0122 14.80030788 21579
KUIPER-00170            
1 65783U 25217X   26045.42454993  .00004569  00000+0  62775-3 0  9996
2 65783  51.8987 140.9700 0000527  61.0369 299.0646 14.79946349 21509
KUIPER-00172            
1 65785U 25217Z   26045.50002314  .00000165  00000+0  29738-4 0  9994
2 65785  51.8858 124.1879 0002310 256.8672  29.0464 15.06875088  5820
KUIPER-00173            
1 65786U 25217AA  26045.42572998  .00006129  00000+0  78271-3 0  9997
2 65786  51.9013 135.5840 0000340  62.0599 298.0399 14.82526438 21575
KUIPER-00174            
1 65787U 25217AB  26045.46924832  .00003054  00000+0  42864-3 0  9993
2 65787  51.9040 130.8020 0000434  31.5281 328.5707 14.80012449 21647
KUIPER-00176            
1 65788U 25217AC  26045.52043610 -.00002214  00000+0 -26154-3 0  9990
2 65788  51.8989 145.5548 0000423  48.2873 311.8125 14.79934444 21440
KUIPER-00101            
1 65947U 25228A   26045.39751933 -.00003790  00000+0 -46882-3 0  9998
2 65947  51.8975 103.5803 0001015  50.5244 309.5808 14.79895170 19784
KUIPER-00113            
1 65948U 25228B   26045.50416027  .00004705  00000+0  64554-3 0  9995
2 65948  51.8982  98.1258 0000799  94.0309 266.0745 14.79945995 19866
KUIPER-00117            
1 65949U 25228C   26045.40034171  .00004520  00000+0  62220-3 0  9994
2 65949  51.8978 101.0892 0000596  66.9860 293.1165 14.79888245 19811
KUIPER-00121            
1 65950U 25228D   26045.50685565 -.00002493  00000+0 -29809-3 0  9991
2 65950  51.9004  95.6087 0000686  61.0756 299.0275 14.79937629 19906
KUIPER-00122            
1 65951U 25228E   26045.36094512  .00004455  00000+0  61347-3 0  9993
2 65951  51.8981 106.2331 0000775  39.1591 320.9428 14.79896691 19742
KUIPER-00123            
1 65952U 25228F   26045.46232973  .00004497  00000+0  61833-3 0  9996
2 65952  51.8977 105.8079 0000877  71.5182 288.5875 14.79947537 19753
KUIPER-00124            
1 65953U 25228G   26045.33535589 -.00003961  00000+0 -49092-3 0  9992
2 65953  51.8987  98.8566 0001124  68.7832 291.3251 14.79923763 19848
KUIPER-00125            
1 65954U 25228H   26045.48665203  .00001076  00000+0  17014-3 0  9998
2 65954  51.8988  83.2072 0001577 122.6260 237.4854 14.79927254 20073
KUIPER-00126            
1 65955U 25228J   26045.36372941 -.00002879  00000+0 -34884-3 0  9998
2 65955  51.8989 103.7510 0000927  84.8779 275.2289 14.79923123 19770
KUIPER-00127            
1 65956U 25228K   26045.50713260  .00003806  00000+0  48625-3 0  9995
2 65956  51.8998  94.3601 0001112 312.4231  47.6639 14.83436569 19922
KUIPER-00128            
1 65957U 25228L   26045.33783640  .00004469  00000+0  61374-3 0  9998
2 65957  51.9006  96.3774 0000823  81.7676 278.3380 14.80012162 19870
KUIPER-00129            
1 65958U 25228M   26045.37718505  .00001343  00000+0  20515-3 0  9991
2 65958  51.8994  91.1900 0000640  30.6454 329.4546 14.79924130 19950
KUIPER-00130            
1 65959U 25228N   26045.47575782  .00004305  00000+0  59478-3 0  9992
2 65959  51.9019  93.2562 0001049  83.0929 277.0152 14.79828595 10220
KUIPER-00134            
1 65960U 25228P   26045.45635551  .00045049  00000+0  11996-2 0  9995
2 65960  51.8764  72.8519 0004916 242.3463 117.7025 15.37735694 20213
KUIPER-00135            
1 65961U 25228Q   26045.50956428  .00004305  00000+0  59328-3 0  9993
2 65961  51.9011  93.1702 0000642  88.3092 271.7944 14.79941257 19935
KUIPER-00136            
1 65962U 25228R   26045.41104132  .00010036  00000+0  13438-2 0  9990
2 65962  51.8999  91.0834 0001495  24.9501 335.1533 14.79921867 19957
KUIPER-00137            
1 65963U 25228S   26045.48674723  .00003330  00000+0  49963-3 0  9998
2 65963  51.9032  88.2606 0000267 185.2550 174.8408 14.76879429 20003
KUIPER-00138            
1 65964U 25228T   26045.31506429 -.00001480  00000+0 -16528-3 0  9995
2 65964  51.8986  86.4582 0000453  82.2880 277.8134 14.79914994 20014
KUIPER-00140            
1 65965U 25228U   26045.31238406 -.00002601  00000+0 -31346-3 0  9994
2 65965  51.8976  89.0556 0000963  85.7144 274.3928 14.79782620 19976
KUIPER-00141            
1 65966U 25228V   26045.50002314  .00033473  00000+0  44048-2 0  9994
2 65966  51.9018  83.2264 0000872  96.6305 155.3668 14.79866940  5620
KUIPER-00146            
1 65967U 25228W   26045.32065701 -.00052159  00000+0 -62900-2 0  9995
2 65967  51.9029  86.2385 0001077  84.4930 275.6157 14.83575989 20011
KUIPER-00149            
1 65968U 25228X   26045.50002314  .00011053  00000+0  14343-2 0  9991
2 65968  51.9004  80.6609 0001574  30.7220 199.9750 14.81157396  3003
KUIPER-00154            
1 65969U 25228Y   26045.50002314  .00040369  00000+0  43084-2 0  9998
2 65969  51.9001  78.2908 0005608 230.8691 100.0842 14.88426167  5721
KUIPER-00157            
1 65970U 25228Z   26045.50002314  .00015606  00000+0  19718-2 0  9993
2 65970  51.9011  80.7929 0001513 332.2804  67.7197 14.82003322  5774
KUIPER-00144            
1 67133U 25301A   26045.52060616  .00035342  00000+0  94850-3 0  9999
2 67133  51.8688 177.1981 0006691 299.6215  60.4104 15.37596843 10173
KUIPER-00164            
1 67134U 25301B   26045.50002314  .00001297  00000+0  51210-4 0  9995
2 67134  51.8716 177.1416 0003094 292.1138  26.5562 15.33266225  5141
KUIPER-00175            
1 67135U 25301C   26044.70100590  .00036236  00000+0  94711-3 0  9995
2 67135  51.8735 180.7288 0001456 226.8276 133.2589 15.38418578 10121
KUIPER-00179            
1 67136U 25301D   26045.36760551  .00035820  00000+0  95230-3 0  9993
2 67136  51.8708 177.6891 0002003 260.6751  99.4010 15.37899477 10335
KUIPER-00181            
1 67137U 25301E   26045.50002314 -.01958338  00000+0 -15462+0 0  9992
2 67137  51.8848 180.6786 0013466 321.7352 336.1336 15.04062184  5808
KUIPER-00183            
1 67138U 25301F   26044.59506787  .00030618  00000+0  85181-3 0  9992
2 67138  51.8601 182.1879 0012813 320.8414  39.1644 15.36495432 10191
KUIPER-00184            
1 67139U 25301G   26045.36393183  .00035707  00000+0  98440-3 0  9999
2 67139  51.8595 178.3539 0011117 326.3368  33.6911 15.36720858 10424
KUIPER-00186            
1 67140U 25301H   26045.50002314 -.01733502  00000+0 -16880+0 0  9995
2 67140  51.8924 181.1664 0007591 317.7498 216.4657 14.95729730  5022
KUIPER-00187            
1 67141U 25301J   26045.50002314 -.00044908  00000+0 -53819-2 0  9996
2 67141  51.8997 183.1827 0009817 326.0869 132.2404 14.83719315  5620
KUIPER-00188            
1 67142U 25301K   26044.75840543  .00031559  00000+0  86174-3 0  9994
2 67142  51.8687 181.0868 0009450 318.1612  41.8652 15.37096269 10059
KUIPER-00191            
1 67143U 25301L   26045.50002314 -.01125046  00000+0 -66290-1 0  9998
2 67143  51.8801 178.3298 0008291 320.9773  83.0342 15.13960266  2028
KUIPER-00196            
1 67144U 25301M   26045.37370852  .00049805  00000+0  13178-2 0  9992
2 67144  51.8702 177.7274 0002274 262.3393  97.7335 15.37894644 10157
KUIPER-00204            
1 67145U 25301N   26045.34163225  .00021094  00000+0  83386-3 0  9993
2 67145  51.8821 181.1494 0002774 243.1986 116.8712 15.25434069 10210
KUIPER-00210            
1 67146U 25301P   26045.50002314 -.01660492  00000+0 -86019-1 0  9991
2 67146  51.8760 178.5907 0011705 338.1276 352.4399 15.19101451  5800
KUIPER-00221            
1 67147U 25301Q   26045.50002314 -.00031469  00000+0 -37158-2 0  9998
2 67147  51.9005 183.2734 0003139 277.9561 304.3379 14.84195481  5771
KUIPER-00232            
1 67148U 25301R   26045.35385426  .00037635  00000+0  99068-3 0  9998
2 67148  51.8699 177.6040 0001467 189.5019 170.5940 15.38182420 10159
KUIPER-00241            
1 67149U 25301S   26045.50002314 -.01184993  00000+0 -89557-1 0  9991
2 67149  51.9023 179.2693 0001963 343.0056  45.8472 15.05184388  5824
KUIPER-00245            
1 67150U 25301T   26045.50002314 -.00042492  00000+0 -53393-2 0  9999
2 67150  51.9009 185.6924 0001639 133.2682 154.4170 14.81773049  5858
KUIPER-00246            
1 67151U 25301U   26045.50002314 -.00617164  00000+0 -18711-1 0  9998
2 67151  51.8723 177.1499 0004830 318.4136   9.2091 15.35722391  5472
KUIPER-00247            
1 67152U 25301V   26045.51779079  .00038270  00000+0  10779-2 0  9999
2 67152  51.8610 177.8763 0013042 334.9910  25.0442 15.35995911 10165
KUIPER-00248            
1 67153U 25301W   26044.77748258  .00032652  00000+0  90693-3 0  9994
2 67153  51.8659 181.1987 0010295 312.0391  47.9718 15.36540721 10224
KUIPER-00249            
1 67154U 25301X   26045.27872773  .00036744  00000+0  99357-3 0  9993
2 67154  51.8636 178.5514 0010137 326.0489  33.9848 15.37317949 10138
KUIPER-00250            
1 67155U 25301Y   26045.50002314 -.00003737  00000+0 -12245-3 0  9995
2 67155  51.8760 177.5886 0008211 322.3253 152.4639 15.27875222  5058
KUIPER-00251            
1 67156U 25301Z   26045.35495811  .00036354  00000+0  99576-3 0  9998
2 67156  51.8647 178.3125 0010177 321.4796  38.5463 15.36922823 10330
KUIPER-00252            
1 67157U 25301AA  26045.36938785  .00035805  00000+0  99022-3 0  9998
2 67157  51.8630 178.4040 0011180 328.8399  31.1924 15.36620408 10149
KUIPER-00261            
1 67158U 25301AB  26045.50002314 -.01057427  00000+0 -44780-1 0  9991
2 67158  51.8751 177.5687 0009757 312.7740 133.3468 15.25502804  5509
KUIPER-00265            
1 67159U 25301AC  26044.90062542 -.00000119  00000+0  13431-4 0  9990
2 67159  51.9013 190.8015 0000967  19.1697 340.9302 14.79904296  9964
