KUIPER-00008            
1 63724U 25088A   26191.37023441 -.00000265  00000+0 -57726-5 0  9994
2 63724  51.9018 265.5174 0000750 108.6095 251.4949 14.79924857 66214
KUIPER-00009            
1 63725U 25088B   26191.25008506  .00002569  00000+0  36598-3 0  9996
2 63725  51.9038 283.6797 0000670  85.7783 274.3256 14.79923062 65940
KUIPER-00010            
1 63726U 25088C   26191.20681578 -.00000212  00000+0  11996-5 0  9999
2 63726  51.9023 261.3419 0000614  98.7180 261.3852 14.79925406 65876
KUIPER-00011            
1 63727U 25088D   26189.54424690  .00000803  00000+0  13439-3 0  9991
2 63727  51.9007 276.2429 0000548  99.4073 260.6951 14.79924203 65652
KUIPER-00012            
1 63728U 25088E   26191.01231342  .00000513  00000+0  96359-4 0  9998
2 63728  51.8997 254.6838 0000697 108.6192 251.4847 14.79926590 66030
KUIPER-00013            
1 63729U 25088F   26190.47078747  .00001082  00000+0  17101-3 0  9995
2 63729  51.9015 289.5981 0000507  90.1823 269.9198 14.79913792 65600
KUIPER-00014            
1 63730U 25088G   26191.58501230  .00000512  00000+0  96219-4 0  9993
2 63730  51.9023 284.6143 0000562 103.1921 256.9104 14.79933346 65589
KUIPER-00015            
1 63731U 25088H   26190.52753125  .00000845  00000+0  13983-3 0  9994
2 63731  51.8996 299.3530 0000555  99.8964 260.2061 14.79922502 65741
KUIPER-00016            
1 63732U 25088J   26191.31220546  .00001774  00000+0  26180-3 0  9994
2 63732  51.9002 288.3353 0000634  85.5219 274.5815 14.79916037 65500
KUIPER-00018            
1 63733U 25088K   26190.47886624  .00000747  00000+0  12702-3 0  9990
2 63733  51.9028 282.0492 0000621 104.3104 255.7927 14.79930767 65526
KUIPER-00019            
1 63734U 25088L   26191.24835797 -.00000093  00000+0  16773-4 0  9990
2 63734  51.8992 277.4058 0001206 104.8560 255.2536 14.79929338 65650
KUIPER-00020            
1 63735U 25088M   26190.88126975 -.00010156  00000+0 -13045-2 0  9990
2 63735  51.9039 282.7729 0000171  76.3549 283.7432 14.79954870 65759
KUIPER-00021            
1 63736U 25088N   26191.25276803  .00000751  00000+0  12749-3 0  9998
2 63736  51.8994 281.0859 0000625 102.9439 257.1593 14.79927502 65646
KUIPER-00023            
1 63737U 25088P   26191.28371792  .00001996  00000+0  29050-3 0  9990
2 63737  51.9014 283.4381 0000445 116.8065 243.2943 14.79964824 65919
KUIPER-00024            
1 63738U 25088Q   26189.54155038  .00000696  00000+0  12031-3 0  9997
2 63738  51.9038 278.7414 0000677 101.5853 258.5185 14.79918973 65958
KUIPER-00025            
1 63739U 25088R   26191.25547552  .00000662  00000+0  11591-3 0  9998
2 63739  51.9039 278.6437 0000536  79.2827 280.8196 14.79918715 65965
KUIPER-00027            
1 63740U 25088S   26190.48426612  .00000292  00000+0  67358-4 0  9999
2 63740  51.9011 277.0232 0000567  91.1823 268.9204 14.79926902 65656
KUIPER-00028            
1 63741U 25088T   26191.26354278  .00000629  00000+0  11148-3 0  9994
2 63741  51.9001 271.0289 0000524  94.9106 265.1917 14.79933597 66211
KUIPER-00029            
1 63742U 25088U   26190.22661331  .00001118  00000+0  17574-3 0  9994
2 63742  51.9021 274.2983 0000184 186.9249 173.1711 14.79914546 65607
KUIPER-00030            
1 63743U 25088V   26191.27843056  .00000930  00000+0  15092-3 0  9991
2 63743  51.9001 288.4699 0000533 105.2349 254.8672 14.79933836 65785
KUIPER-00031            
1 63744U 25088W   26190.49383322  .00002032  00000+0  31930-3 0  9994
2 63744  51.9004 276.7168 0001884 184.5875 175.5069 14.76539352 65594
KUIPER-00032            
1 63745U 25088X   26191.32133661  .00010670  00000+0  26541-3 0  9996
2 63745  51.8666 149.5844 0003186 192.3739 167.7171 15.40833186 68436
KUIPER-00033            
1 63746U 25088Y   26190.75579388  .00002336  00000+0  33535-3 0  9994
2 63746  51.9010 305.8059 0000559 109.9530 250.1492 14.79928241 65696
KUIPER-00034            
1 63747U 25088Z   26191.20140817  .00000441  00000+0  86896-4 0  9991
2 63747  51.9018 266.3681 0000593  67.1457 292.9568 14.79924421 65962
KUIPER-00035            
1 63748U 25088AA  26191.30950321  .00001011  00000+0  16160-3 0  9992
2 63748  51.9009 290.8648 0000663 115.5606 244.5425 14.79933733 65680
KUIPER-00037            
1 63749U 25088AB  26191.30243400  .00000249  00000+0  61630-4 0  9991
2 63749  51.9015 289.7534 0000480 100.5049 259.5967 14.79927903 66489
KUIPER-00038            
1 63750U 25088AC  26191.56205317  .00000139  00000+0  47238-4 0  9992
2 63750  51.9043 274.7729 0000573  92.8244 267.2784 14.79927324 65710
KUIPER-00039            
1 64500U 25134A   26191.06190724  .00002260  00000+0  32531-3 0  9994
2 64500  51.9011  51.9801 0000577 106.9929 253.1096 14.79930644 58199
KUIPER-00040            
1 64501U 25134B   26191.01736710  .00002292  00000+0  32956-3 0  9997
2 64501  51.8983  62.2569 0000746 110.2335 249.8708 14.79929546 58045
KUIPER-00041            
1 64502U 25134C   26190.03546789  .00002421  00000+0  34651-3 0  9992
2 64502  51.8992  68.9838 0000744 102.5751 257.5294 14.79929659 57862
KUIPER-00042            
1 64503U 25134D   26191.02004045  .00002287  00000+0  32897-3 0  9997
2 64503  51.8984  59.6089 0000673  92.7803 267.3236 14.79931534 58083
KUIPER-00043            
1 64504U 25134E   26191.29824659  .00002182  00000+0  31512-3 0  9995
2 64504  51.9008  50.8759 0000774 108.2354 251.8693 14.79935725 58233
KUIPER-00044            
1 64505U 25134F   26191.01464712  .00002370  00000+0  33980-3 0  9996
2 64505  51.8977  64.6352 0000666 115.7251 244.3780 14.79933085 58016
KUIPER-00046            
1 64506U 25134G   26190.37581065  .00002192  00000+0  31655-3 0  9995
2 64506  51.8987  64.9372 0000680 108.4902 251.6134 14.79920612 57959
KUIPER-00047            
1 64507U 25134H   26189.83146939  .00001968  00000+0  28718-3 0  9998
2 64507  51.8993  39.8671 0000717 102.7578 257.3465 14.79924993 58257
KUIPER-00048            
1 64508U 25134J   26190.00028939  .00000817  00000+0  13621-3 0  9998
2 64508  51.9008  39.1329 0000835 110.3456 249.7597 14.79914462 58284
KUIPER-00049            
1 64509U 25134K   26191.30363810  .00002302  00000+0  33085-3 0  9990
2 64509  51.8992  45.8356 0000624 107.1412 252.9618 14.79932126 58302
KUIPER-00050            
1 64510U 25134L   26189.97192331  .00002054  00000+0  29843-3 0  9991
2 64510  51.9003  34.2459 0000740 110.9821 249.1221 14.79924471 58356
KUIPER-00051            
1 64511U 25134M   26191.00954149  .00002040  00000+0  29663-3 0  9997
2 64511  51.9005  45.8295 0000776 106.5959 253.5088 14.79923425 58276
KUIPER-00053            
1 64513U 25134P   26190.96874072  .00001550  00000+0  22321-3 0  9998
2 64513  51.9012  41.3162 0000287 302.6013  57.4922 14.81682229 58339
KUIPER-00054            
1 64514U 25134Q   26189.99759858  .00002128  00000+0  30824-3 0  9993
2 64514  51.8980  41.6251 0000836 110.5593 249.5460 14.79906563 58242
KUIPER-00055            
1 64515U 25134R   26191.43320675  .00002379  00000+0  34099-3 0  9993
2 64515  51.9020 347.9077 0000614 110.3998 249.7031 14.79936716 59125
KUIPER-00056            
1 64516U 25134S   26190.97139769  .00002313  00000+0  33234-3 0  9992
2 64516  51.9026  42.4123 0000758 110.5998 249.5045 14.79930654 58321
KUIPER-00057            
1 64517U 25134T   26191.33336806 -.00018586  00000+0 -24150-2 0  9992
2 64517  51.9000  48.2430 0000721 110.5068  62.4994 14.79944622  5582
KUIPER-00058            
1 64518U 25134U   26191.00245811  .00002237  00000+0  32244-3 0  9990
2 64518  51.9001  44.6772 0000632 115.4747 244.6281 14.79924458 58296
KUIPER-00059            
1 64519U 25134V   26191.00785248  .00002245  00000+0  32341-3 0  9991
2 64519  51.8998  39.6940 0000812 109.6047 250.5003 14.79932012 58361
KUIPER-00060            
1 64520U 25134W   26190.97409843  .00002204  00000+0  31800-3 0  9996
2 64520  51.9013  39.9065 0000637  89.8850 270.2185 14.79932683 58341
KUIPER-00061            
1 64521U 25134X   26191.20231369  .00002269  00000+0  32686-3 0  9994
2 64521  51.9007  46.3492 0000840  90.9826 269.1232 14.79896941 58271
KUIPER-00062            
1 64522U 25134Y   26190.32174039  .00006549  00000+0  88672-3 0  9998
2 64522  51.8959  52.7204 0000942  95.5367 264.5703 14.79954369 58128
KUIPER-00063            
1 64523U 25134Z   26190.38121335  .00002539  00000+0  36188-3 0  9996
2 64523  51.9015  60.0098 0000775 104.5397 255.5651 14.79932179 58020
KUIPER-00064            
1 64524U 25134AA  26190.04625129  .00002121  00000+0  30715-3 0  9997
2 64524  51.9019  58.9156 0000723 111.3501 248.7539 14.79930421 58018
KUIPER-00065            
1 64525U 25134AB  26191.05382698  .00002158  00000+0  31197-3 0  9996
2 64525  51.9025  59.6298 0000732 104.9399 255.1645 14.79934036 58076
KUIPER-00066            
1 64526U 25134AC  26191.49262327  .00002261  00000+0  32547-3 0  9996
2 64526  51.9029 354.9668 0000567 107.0811 253.0214 14.79934833 59033
KUIPER-00069            
1 64816U 25151A   26191.14573563  .00002248  00000+0  32380-3 0  9996
2 64816  51.9009  99.1420 0000724 106.9851 253.1190 14.79934687 54894
KUIPER-00070            
1 64817U 25151B   26191.22005923  .00002171  00000+0  31372-3 0  9991
2 64817  51.8993 123.7257 0000856  89.2639 270.8422 14.79930946 54563
KUIPER-00071            
1 64818U 25151C   26191.22273871  .00000939  00000+0  15226-3 0  9991
2 64818  51.8999 121.2517 0000754  92.8985 267.2064 14.79910588 53418
KUIPER-00072            
1 64819U 25151D   26191.14302619  .00002148  00000+0  31081-3 0  9997
2 64819  51.8946 101.5485 0000823  97.3353 262.7702 14.79919121 53682
KUIPER-00073            
1 64820U 25151E   26191.18896779  .00002591  00000+0  36866-3 0  9996
2 64820  51.8993 121.3850 0000892  90.8698 269.2367 14.79939657 54594
KUIPER-00074            
1 64821U 25151F   26191.58337963  .00176727  24026-4  36414-3 0  9997
2 64821  51.8767  22.2150 0002700 241.9372 302.1825 15.98889759  5832
KUIPER-00075            
1 64822U 25151G   26190.89237394  .00035753  00000+0  74231-3 0  9991
2 64822  51.8686 345.3609 0003293 341.3635  18.7234 15.45340863 55273
KUIPER-00076            
1 64823U 25151H   26190.92966057  .00002424  00000+0  34691-3 0  9996
2 64823  51.8991 112.5514 0000782  91.0628 269.0424 14.79927260 53518
KUIPER-00077            
1 64824U 25151J   26191.19438907  .00002322  00000+0  33349-3 0  9991
2 64824  51.9008 116.3989 0000373 160.0283 200.0694 14.79928582 53485
KUIPER-00078            
1 64825U 25151K   26191.16330123 -.00000629  00000+0 -53489-4 0  9998
2 64825  51.8990 114.0135 0000835  93.3217 266.7841 14.79927578 53512
KUIPER-00079            
1 64826U 25151L   26191.19166223  .00003215  00000+0  45046-3 0  9991
2 64826  51.8978 118.8477 0002155  74.8920 285.2281 14.79946059 54646
KUIPER-00080            
1 64827U 25151M   26188.25412865 -.00001397  00000+0 -15427-3 0  9992
2 64827  51.8984 131.8507 0000787  99.2579 260.8473 14.79918968 53013
KUIPER-00082            
1 64828U 25151N   26191.13764511  .00002352  00000+0  33752-3 0  9993
2 64828  51.8996 106.6525 0000731  94.2095 265.8950 14.79926917 53618
KUIPER-00083            
1 64829U 25151P   26190.92696036  .00002414  00000+0  34559-3 0  9991
2 64829  51.8997 115.0674 0000788  99.4050 260.7001 14.79934413 54666
KUIPER-00084            
1 64830U 25151Q   26191.18629136  .00000918  00000+0  14936-3 0  9993
2 64830  51.9017 123.9055 0000620  84.2513 275.8520 14.79930766 53371
KUIPER-00085            
1 64831U 25151R   26191.17141482  .00002267  00000+0  32636-3 0  9992
2 64831  51.9017 106.5486 0000749 111.0355 249.0688 14.79928442 53615
KUIPER-00086            
1 64832U 25151S   26191.22815130  .00002340  00000+0  33578-3 0  9995
2 64832  51.9001 116.2444 0000826  98.8357 261.2698 14.79934052 53487
KUIPER-00087            
1 64833U 25151T   26191.11195146  .00000292  00000+0  67350-4 0  9992
2 64833  51.8976  99.2200 0000848 126.9089 233.1951 14.79933256 53707
KUIPER-00089            
1 64834U 25151U   26191.17410131  .00002248  00000+0  32383-3 0  9993
2 64834  51.8980 103.9689 0000672 107.1007 253.0029 14.79934213 53658
KUIPER-00090            
1 64835U 25151V   26191.18219041  .00002383  00000+0  34142-3 0  9997
2 64835  51.8976  96.4405 0000642 110.6128 249.4903 14.79934381 53753
KUIPER-00091            
1 64836U 25151W   26191.17680083  .00001574  00000+0  23546-3 0  9992
2 64836  51.9005 101.4722 0000760  94.5398 265.5651 14.79926819 53685
KUIPER-00092            
1 64837U 25151X   26191.16869877  .00002558  00000+0  36444-3 0  9996
2 64837  51.8985 109.0011 0000914 110.2005 249.9056 14.79939410 54798
KUIPER-00093            
1 64838U 25151Y   26190.22059181  .00001179  00000+0  18371-3 0  9999
2 64838  51.8986 115.6671 0000794  85.0330 275.0723 14.79928522 53401
KUIPER-00094            
1 64839U 25151Z   26190.06650445  .00002314  00000+0  33281-3 0  9991
2 64839  51.9021  71.4376 0000964  94.5968 265.5104 14.79885845 54010
KUIPER-00081            
1 65132U 25171A   26191.35616399  .00002203  00000+0  31790-3 0  9993
2 65132  51.9012 325.6431 0000422 103.5799 256.5211 14.79937302 51208
KUIPER-00088            
1 65133U 25171B   26190.45940913  .00002354  00000+0  33770-3 0  9993
2 65133  51.8995 347.1099 0000682 104.7335 255.3703 14.79927165 50820
KUIPER-00095            
1 65134U 25171C   26191.35886609  .00002272  00000+0  32686-3 0  9999
2 65134  51.8981 323.1810 0000471 105.2450 254.8564 14.79937258 51230
KUIPER-00096            
1 65135U 25171D   26191.37913924  .00002203  00000+0  31781-3 0  9992
2 65135  51.9002 335.5399 0000441 112.4261 247.6748 14.79939482 51068
KUIPER-00097            
1 65136U 25171E   26191.44399783  .00002202  00000+0  31768-3 0  9996
2 65136  51.9022 337.9084 0000667 110.9087 249.1947 14.79934931 51025
KUIPER-00098            
1 65137U 25171F   26191.44128327  .00002220  00000+0  32014-3 0  9996
2 65137  51.9007 340.2860 0000515 100.3233 259.7788 14.79937074 50341
KUIPER-00099            
1 65138U 25171G   26191.41830393  .00002295  00000+0  32985-3 0  9996
2 65138  51.9024 330.3918 0000594 109.1185 250.9842 14.79938187 51133
KUIPER-00100            
1 65139U 25171H   26191.58981597 -.00000268  00000+0 -61927-5 0  9998
2 65139  51.9023 327.1044 0000543  97.5666 262.5358 14.79925809 51199
KUIPER-00102            
1 65140U 25171J   26189.69629403  .00002420  00000+0  34641-3 0  9995
2 65140  51.8990 337.9663 0000575  84.7621 275.3407 14.79926544 50871
KUIPER-00103            
1 65141U 25171K   26191.46695212  .00002283  00000+0  32831-3 0  9991
2 65141  51.8991 347.6343 0000515 110.8568 249.2450 14.79937876 50891
KUIPER-00104            
1 65142U 25171L   26190.67008513  .00002596  00000+0  36944-3 0  9992
2 65142  51.9019 338.6564 0000516 102.5768 257.5252 14.79927148 50950
KUIPER-00105            
1 65143U 25171M   26190.69577433  .00002411  00000+0  34516-3 0  9996
2 65143  51.9008 346.1450 0000664 109.5008 250.6026 14.79927065 50855
KUIPER-00106            
1 65144U 25171N   26190.67648642  .00002465  00000+0  35217-3 0  9994
2 65144  51.9013 324.9921 0000598 113.4763 246.6262 14.79932977 51156
KUIPER-00107            
1 65145U 25171P   26190.64711518  .00002437  00000+0  34867-3 0  9994
2 65145  51.9020 328.8019 0000575 107.2441 252.8585 14.79925945 51092
KUIPER-00108            
1 65146U 25171Q   26190.46480923  .00002330  00000+0  33457-3 0  9994
2 65146  51.9025 342.1433 0000579 101.1896 258.9131 14.79931416 50899
KUIPER-00109            
1 65147U 25171R   26191.38184986  .00002165  00000+0  31292-3 0  9998
2 65147  51.9009 333.0300 0000411  91.4313 268.6696 14.79925995 51096
KUIPER-00110            
1 65148U 25171S   26190.72683753  .00002365  00000+0  33918-3 0  9991
2 65148  51.9013 348.4873 0000648 110.4555 249.6477 14.79933339 50815
KUIPER-00111            
1 65149U 25171T   26190.75519420  .00002375  00000+0  34045-3 0  9997
2 65149  51.8982 353.2404 0000682 107.9545 252.1492 14.79927065 50750
KUIPER-00112            
1 65150U 25171U   26191.41562216  .00002186  00000+0  31568-3 0  9991
2 65150  51.9015 332.9302 0000611 110.9566 249.1462 14.79929312 51098
KUIPER-00114            
1 65151U 25171V   26191.49533048  .00002119  00000+0  30686-3 0  9997
2 65151  51.9002 352.5493 0000540 106.1368 253.9654 14.79935753 50824
KUIPER-00115            
1 65152U 25171W   26190.69306571  .00002333  00000+0  33497-3 0  9999
2 65152  51.9002 348.5970 0000614 107.8447 252.2583 14.79932521 50810
KUIPER-00116            
1 65153U 25171X   26191.46427229  .00002256  00000+0  32487-3 0  9992
2 65153  51.9006 350.2219 0000589 112.4664 247.6361 14.79932256 50856
KUIPER-00118            
1 65154U 25171Y   26191.46151445 -.00003838  00000+0 -47476-3 0  9990
2 65154  51.9009 352.6815 0000626 141.1391 218.9617 14.79932570 50827
KUIPER-00119            
1 65155U 25171Z   26191.40753719  .00002135  00000+0  30901-3 0  9999
2 65155  51.9020 340.5189 0000105 135.1517 224.9454 14.79930233 50983
KUIPER-00120            
1 65762U 25217A   26191.10410796  .00000323  00000+0  71313-4 0  9996
2 65762  51.8985 231.7405 0000502  92.3280 267.7740 14.79927088 42865
KUIPER-00132            
1 65763U 25217B   26191.46303252  .00026656  00000+0  59660-3 0  9991
2 65763  51.8543 125.7924 0007532  45.2867 314.8735 15.43252575 44361
KUIPER-00133            
1 65764U 25217C   26191.54307115  .00001302  00000+0  19983-3 0  9998
2 65764  51.9028 229.9067 0000462  91.0201 269.0815 14.79924913 42933
KUIPER-00139            
1 65765U 25217D   26191.03786812  .00001452  00000+0  21948-3 0  9998
2 65765  51.8973 199.6004 0000543  80.7804 279.3220 14.79928404 43316
KUIPER-00142            
1 65766U 25217E   26191.32555933  .00001332  00000+0  20364-3 0  9997
2 65766  51.8987 213.2882 0000431  81.7179 278.3832 14.79932455 43141
KUIPER-00145            
1 65767U 25217F   26191.32288062  .00001439  00000+0  21782-3 0  9997
2 65767  51.9004 215.8220 0000434  69.3877 290.7132 14.79912699 43102
KUIPER-00147            
1 65768U 25217G   26191.08382608  .00001343  00000+0  20516-3 0  9990
2 65768  51.8970 219.3592 0000591  85.8749 274.2281 14.79931158 43035
KUIPER-00148            
1 65769U 25217H   26190.01261154  .00001401  00000+0  23174-3 0  9993
2 65769  51.9032 206.5074 0000912 308.5502  51.5377 14.76125880 43124
KUIPER-00150            
1 65770U 25217J   26191.47822970  .00001411  00000+0  21412-3 0  9999
2 65770  51.9004 227.6493 0000409  87.3007 272.8002 14.79927375 42952
KUIPER-00151            
1 65771U 25217K   26191.48630061  .00001306  00000+0  20030-3 0  9997
2 65771  51.8991 220.1114 0000441  82.8762 277.2250 14.79934045 43068
KUIPER-00152            
1 65772U 25217L   26191.33097817  .00001134  00000+0  17770-3 0  9994
2 65772  51.9000 208.2832 0000360  68.5609 291.5392 14.79922899 43213
KUIPER-00153            
1 65773U 25217M   26191.06624205  .00001320  00000+0  20209-3 0  9990
2 65773  51.9013 204.5271 0000474  81.7704 278.3312 14.79934731 43249
KUIPER-00155            
1 65774U 25217N   26191.36601613 -.00000093  00000+0  16834-4 0  9999
2 65774  51.9011 175.6648 0000589  70.1414 289.9611 14.79926751 43671
KUIPER-00156            
1 65775U 25217P   26191.03248582  .00001490  00000+0  22452-3 0  9999
2 65775  51.9026 204.6585 0000472  72.0331 288.0683 14.79920836 43230
KUIPER-00163            
1 65777U 25217R   26191.32163979  .00385023  75551-4  67546-3 0  9997
2 65777  51.8744 143.8087 0004137  70.2538 289.8922 16.01504080 44096
KUIPER-00165            
1 65778U 25217S   26191.08919592  .00001130  00000+0  17725-3 0  9991
2 65778  51.8981 214.3544 0000659  92.2244 267.8794 14.79930956 43107
KUIPER-00166            
1 65779U 25217T   26190.73128880 -.00000255  00000+0 -44852-5 0  9997
2 65779  51.9010 203.4845 0000460  76.2952 283.8061 14.79925460 43225
KUIPER-00167            
1 65780U 25217U   26191.48356352  .00001351  00000+0  20626-3 0  9996
2 65780  51.8950 222.5211 0000514  86.1763 273.9258 14.79927824 43020
KUIPER-00168            
1 65781U 25217V   26191.02977728 -.00000216  00000+0  63878-6 0  9992
2 65781  51.8993 207.1207 0000485  79.8961 280.2056 14.79925271 43209
KUIPER-00169            
1 65782U 25217W   26191.09192541  .00001295  00000+0  19882-3 0  9992
2 65782  51.8997 211.8553 0000467  80.3951 279.7064 14.79928137 43145
KUIPER-00170            
1 65783U 25217X   26191.55922432  .00000609  00000+0  10885-3 0  9996
2 65783  51.8988 214.7459 0000492  98.1054 261.9965 14.79924475 43146
KUIPER-00172            
1 65785U 25217Z   26191.40928977  .00001353  00000+0  20652-3 0  9992
2 65785  51.8982 197.9394 0000831  92.1501 267.9557 14.79928056 43366
KUIPER-00173            
1 65786U 25217AA  26191.46329094  .00001326  00000+0  20298-3 0  9990
2 65786  51.8996 210.2086 0000528  81.8367 278.2655 14.79929649 43191
KUIPER-00174            
1 65787U 25217AB  26191.46872062  .00000864  00000+0  14236-3 0  9990
2 65787  51.9004 205.2333 0000459  82.2912 277.8102 14.79934559 43262
KUIPER-00176            
1 65788U 25217AC  26191.11486833  .00001534  00000+0  23010-3 0  9995
2 65788  51.8991 221.7328 0000353  88.3406 271.7597 14.79940386 43000
KUIPER-00101            
1 65947U 25228A   26191.32953994  .00001523  00000+0  22864-3 0  9998
2 65947  51.8977 178.2415 0000535  69.3644 290.7376 14.79938342 41394
KUIPER-00113            
1 65948U 25228B   26191.30117637  .00001570  00000+0  23490-3 0  9991
2 65948  51.8979 173.3869 0000534  70.7768 289.3252 14.79925391 41452
KUIPER-00117            
1 65949U 25228C   26190.99460212  .00001734  00000+0  25645-3 0  9992
2 65949  51.8971 177.2429 0000599  68.4520 291.6506 14.79924310 41370
KUIPER-00121            
1 65950U 25228D   26190.96622467  .00001737  00000+0  25676-3 0  9990
2 65950  51.8986 172.3806 0000571  60.9068 299.1952 14.79936798 41446
KUIPER-00122            
1 65951U 25228E   26190.68531849  .00001652  00000+0  24568-3 0  9998
2 65951  51.8983 183.5962 0000489  71.3134 288.7881 14.79931187 41261
KUIPER-00123            
1 65952U 25228F   26191.39436924  .00001381  00000+0  21003-3 0  9996
2 65952  51.8966 180.4730 0000520  47.6866 312.4140 14.79939352 41362
KUIPER-00124            
1 65953U 25228G   26191.33493146  .00001098  00000+0  17300-3 0  9990
2 65953  51.8980 173.2244 0000538  68.2055 291.8964 14.79936599 41462
KUIPER-00125            
1 65954U 25228H   26191.28360404  .00001794  00000+0  26435-3 0  9997
2 65954  51.8986 158.4948 0000639  78.6434 281.4600 14.79925429 41667
KUIPER-00126            
1 65955U 25228J   26191.36330656  .00001621  00000+0  24149-3 0  9992
2 65955  51.8986 178.1292 0000642  70.2230 289.8801 14.79939061 41397
KUIPER-00127            
1 65956U 25228K   26190.74674681  .00001762  00000+0  26015-3 0  9993
2 65956  51.9002 173.3255 0000661  72.4701 287.6334 14.79918988 41417
KUIPER-00128            
1 65957U 25228L   26191.33764267  .00001704  00000+0  25251-3 0  9997
2 65957  51.9004 170.7778 0000574  69.9768 290.1256 14.79934195 41496
KUIPER-00129            
1 65958U 25228M   26191.30927175  .00001700  00000+0  25196-3 0  9998
2 65958  51.8987 165.8844 0000571  71.8997 288.2028 14.79935217 41567
KUIPER-00130            
1 65959U 25228N   26190.66498928 -.00017205  00000+0 -22306-2 0  9994
2 65959  51.9040 171.2650 0002275 267.1115  92.9587 14.79985248 31726
KUIPER-00134            
1 65960U 25228P   26191.34168275  .00030741  00000+0  72152-3 0  9994
2 65960  51.8718  84.6633 0007015  36.2596 323.8867 15.41755022 42692
KUIPER-00135            
1 65961U 25228Q   26190.63129289  .00000845  00000+0  13983-3 0  9997
2 65961  51.9006 171.4694 0000534  72.1439 287.9582 14.79924893 41428
KUIPER-00136            
1 65962U 25228R   26191.34302713  .00001750  00000+0  25851-3 0  9995
2 65962  51.9002 165.7776 0000659  60.8304 299.2724 14.79939261 41569
KUIPER-00137            
1 65963U 25228S   26191.34572675  .00001757  00000+0  25933-3 0  9990
2 65963  51.9017 163.2590 0000700  68.1165 291.9872 14.79940713 41608
KUIPER-00138            
1 65964U 25228T   26191.31466694  .00001770  00000+0  26115-3 0  9999
2 65964  51.8966 160.8263 0000662  73.8645 286.2390 14.79931296 41635
KUIPER-00140            
1 65965U 25228U   26191.31196979  .00001788  00000+0  26347-3 0  9992
2 65965  51.8982 163.4277 0000558  75.3014 284.8010 14.79933287 41599
KUIPER-00141            
1 65966U 25228V   26191.31737995  .00001742  00000+0  25749-3 0  9997
2 65966  51.9009 158.4578 0000728  73.4076 286.6967 14.79926994 41661
KUIPER-00146            
1 65967U 25228W   26191.34844979  .00000974  00000+0  15675-3 0  9995
2 65967  51.9012 160.8304 0000754  60.3221 299.7816 14.79929747 41630
KUIPER-00149            
1 65968U 25228X   26191.32004637  .00001923  00000+0  28135-3 0  9993
2 65968  51.9006 155.8425 0000712  83.1153 276.9890 14.79910865 41701
KUIPER-00154            
1 65969U 25228Y   26191.28898320  .00001868  00000+0  27393-3 0  9992
2 65969  51.8984 153.4704 0000720  70.4837 289.6204 14.79938028 41731
KUIPER-00157            
1 65970U 25228Z   26191.28197711  .00001914  00000+0  27206-3 0  9995
2 65970  51.9004 156.0953 0000893  38.1160 321.9865 14.81188788 41694
KUIPER-00144            
1 67133U 25301A   26190.39235370  .00001905  00000+0  27886-3 0  9999
2 67133  51.9017 237.4508 0000263  73.2860 286.8131 14.79929871 31898
KUIPER-00164            
1 67134U 25301B   26191.16854660 -.00004933  00000+0 -67139-3 0  9996
2 67134  51.9027 246.3091 0001566 324.8876  35.1982 14.76517226 32013
KUIPER-00175            
1 67135U 25301C   26191.58337963 -.00008212  00000+0 -10150-2 0  9999
2 67135  51.8986 227.1598 0001590 102.7482 270.3959 14.81315710  5713
KUIPER-00179            
1 67136U 25301D   26191.46204536  .00000669  00000+0  11682-3 0  9994
2 67136  51.8973 242.6916 0000636  98.0978 262.0057 14.79927322 32096
KUIPER-00181            
1 67137U 25301E   26190.77326246  .00015388  00000+0  20448-2 0  9994
2 67137  51.9026 258.2738 0001398  49.0831 311.0252 14.79892100 31795
KUIPER-00183            
1 67138U 25301F   26191.09909599 -.00002597  00000+0 -22436-3 0  9999
2 67138  51.8918 229.5604 0009628 107.3942 252.8079 14.92792467 32232
KUIPER-00184            
1 67139U 25301G   26191.36611945  .00001539  00000+0  23087-3 0  9991
2 67139  51.8953 238.1179 0000339  96.9093 263.1907 14.79928010 32241
KUIPER-00186            
1 67140U 25301H   26191.21221173  .00001795  00000+0  26445-3 0  9992
2 67140  51.9025 256.3442 0000508  83.0629 277.0391 14.79930852 31707
KUIPER-00187            
1 67141U 25301J   26191.14199264  .00001027  00000+0  16378-3 0  9992
2 67141  51.9024 259.1774 0000548  92.4678 267.6348 14.79921052 31651
KUIPER-00188            
1 67142U 25301K   26191.48091250  .00000821  00000+0  13674-3 0  9993
2 67142  51.9014 225.2643 0000515  92.0349 268.0672 14.79936087 32150
KUIPER-00191            
1 67143U 25301L   26189.49559533  .00002390  00000+0  34252-3 0  9993
2 67143  51.8997 258.9456 0000553 102.8360 257.2664 14.79924044 31543
KUIPER-00196            
1 67144U 25301M   26191.45020458  .00001092  00000+0  18654-3 0  9998
2 67144  51.8977 206.5660 0001015 336.2309  23.8605 14.76342663 32415
KUIPER-00204            
1 67145U 25301N   26190.09923455  .00001671  00000+0  24819-3 0  9990
2 67145  51.9009 228.7601 0000166  53.9185 306.1793 14.79919737 32101
KUIPER-00210            
1 67146U 25301P   26191.48772502  .00000459  00000+0  89237-4 0  9999
2 67146  51.8989 250.0888 0000520  84.7066 275.3955 14.79925843 31984
KUIPER-00221            
1 67147U 25301Q   26191.17574025  .00001804  00000+0  26561-3 0  9991
2 67147  51.9019 258.9939 0000410  83.7152 276.3857 14.79935211 31664
KUIPER-00232            
1 67148U 25301R   26190.41533421  .00001594  00000+0  23805-3 0  9997
2 67148  51.8981 247.3796 0000570 102.8506 257.2520 14.79931294 31750
KUIPER-00241            
1 67149U 25301S   26191.18110583  .00002582  00000+0  36771-3 0  9997
2 67149  51.9013 253.9876 0003724 296.0223  64.0356 14.79927460 32062
KUIPER-00245            
1 67150U 25301T   26191.51066852  .00000381  00000+0  79011-4 0  9995
2 67150  51.9007 260.0440 0000687 117.1720 242.9312 14.79935023 31672
KUIPER-00246            
1 67151U 25301U   26191.15546808  .00001621  00000+0  24165-3 0  9997
2 67151  51.8995 246.5693 0000496  95.5772 264.5247 14.79925267 31857
KUIPER-00247            
1 67152U 25301V   26191.09871513 -.00000171  00000+0  66311-5 0  9996
2 67152  51.8924 236.7901 0000563 102.1379 257.9646 14.79923646 31966
KUIPER-00248            
1 67153U 25301W   26191.59033392  .00016287  00000+0  21602-2 0  9992
2 67153  51.8943 217.2442 0001178  79.4717 280.6378 14.79934760 32445
KUIPER-00249            
1 67154U 25301X   26191.43906956  .00001539  00000+0  23088-3 0  9996
2 67154  51.8980 232.8452 0000377  91.5518 268.5488 14.79931663 32047
KUIPER-00250            
1 67155U 25301Y   26191.52415836  .00001534  00000+0  23022-3 0  9992
2 67155  51.8978 247.4232 0000573  92.0674 268.0354 14.79933880 31881
KUIPER-00251            
1 67156U 25301Z   26191.13249671  .00001639  00000+0  24403-3 0  9992
2 67156  51.8989 236.7220 0000991  93.8154 266.2922 14.79919772 32154
KUIPER-00252            
1 67157U 25301AA  26190.45448741 -.00000310  00000+0 -11733-4 0  9996
2 67157  51.8986 242.1711 0000529  95.6402 264.4621 14.79924836 31838
KUIPER-00261            
1 67158U 25301AB  26190.47747731  .00001721  00000+0  25474-3 0  9991
2 67158  51.9004 252.1220 0000460  97.0769 263.0245 14.79926313 31696
KUIPER-00265            
1 67159U 25301AC  26190.22493565  .00001638  00000+0  24378-3 0  9997
2 67159  51.9020 268.2143 0000583 101.7124 258.3904 14.79931270 31485
KUIPER-00159            
1 67764U 26030A   26191.58337963 -.00033279  00000+0 -10156-2 0  9994
2 67764  51.8870 345.1782 0006234 116.7193 334.6911 15.33162084  4738
KUIPER-00160            
1 67765U 26030B   26190.71740184  .00020102  00000+0  54728-3 0  9995
2 67765  51.8799 349.2747 0007256 118.7619 241.4098 15.37470908 23862
KUIPER-00177            
1 67766U 26030C   26189.76664464  .00002306  00000+0  33151-3 0  9998
2 67766  51.9003  37.7215 0000672 109.8362 250.2673 14.79918458 23108
KUIPER-00178            
1 67767U 26030D   26189.86793616  .00000845  00000+0  13981-3 0  9997
2 67767  51.8995  37.2568 0000891 109.4967 250.6092 14.79923391 23127
KUIPER-00180            
1 67768U 26030E   26189.94085854  .00002151  00000+0  31120-3 0  9992
2 67768  51.8985  31.9392 0000756 113.0002 247.1040 14.79920755 23208
KUIPER-00197            
1 67769U 26030F   26191.44809142  .00002237  00000+0  32239-3 0  9992
2 67769  51.8994   5.2861 0000522 154.9322 205.1666 14.79930187 23707
KUIPER-00198            
1 67770U 26030G   26189.84763094  .00005115  00000+0  69917-3 0  9991
2 67770  51.8991  24.8477 0000452 110.2346 249.8665 14.79945605 23298
KUIPER-00199            
1 67771U 26030H   26191.45524123  .00030897  00000+0  84750-3 0  9997
2 67771  51.8814 347.4338 0009614 138.0357 222.1368 15.36966237 23957
KUIPER-00200            
1 67772U 26030J   26191.58337963 -.00023114  00000+0 -30175-2 0  9993
2 67772  51.8987   2.2132 0001453  70.9931  96.5998 14.79875046  5687
KUIPER-00203            
1 67773U 26030K   26189.96384152  .00002210  00000+0  31883-3 0  9995
2 67773  51.9057  41.8916 0000722 114.5362 245.5676 14.79927860 23060
KUIPER-00205            
1 67774U 26030L   26190.94697716  .00002267  00000+0  32596-3 0  9993
2 67774  51.9006   2.4780 0000963 114.1584 245.9479 14.79975857 23701
KUIPER-00208            
1 67775U 26030M   26191.00353934  .00001452  00000+0  23709-3 0  9994
2 67775  51.8990  29.5847 0008179 104.4685 255.7184 14.76513230 23328
KUIPER-00209            
1 67776U 26030N   26189.97463445  .00002099  00000+0  30432-3 0  9996
2 67776  51.9003  31.8793 0000813 117.1374 242.9671 14.79926080 23204
KUIPER-00213            
1 67777U 26030P   26191.49674350  .00002092  00000+0  30326-3 0  9991
2 67777  51.8968  22.6310 0000694 105.6217 254.4822 14.79937524 23461
KUIPER-00214            
1 67778U 26030Q   26191.26310560  .00002302  00000+0  33086-3 0  9997
2 67778  51.9019  21.1724 0000553 102.8599 257.2425 14.79927063 23466
KUIPER-00215            
1 67779U 26030R   26191.50568177  .00001363  00000+0  22513-3 0  9993
2 67779  51.8989   7.3885 0000559  71.4218 288.6803 14.76354080 23683
KUIPER-00218            
1 67780U 26030S   26189.97730531  .00002064  00000+0  29968-3 0  9998
2 67780  51.8979  29.2680 0000751 107.5995 252.5050 14.79922833 23243
KUIPER-00220            
1 67781U 26030T   26191.58337963 -.00021911  00000+0 -28535-2 0  9993
2 67781  51.8961 357.2064 0001440  33.4026 104.3633 14.79946164  5630
KUIPER-00222            
1 67782U 26030U   26191.50215714  .00002115  00000+0  30636-3 0  9994
2 67782  51.8988  17.6798 0000533 109.6139 250.4881 14.79928873 23538
KUIPER-00223            
1 67783U 26030V   26189.92326990  .00002023  00000+0  29438-3 0  9993
2 67783  51.9007  16.9541 0000692 110.7061 249.3975 14.79925858 23411
KUIPER-00225            
1 67784U 26030W   26189.91791742  .00002019  00000+0  29378-3 0  9992
2 67784  51.8992  22.1430 0000809  97.2952 262.8102 14.79938508 23337
KUIPER-00226            
1 67785U 26030X   26191.58337963 -.00072923  00000+0 -10068-1 0  9997
2 67785  51.9007   0.6672 0006680 100.0902 295.6029 14.78085911  4674
KUIPER-00259            
1 67786U 26030Y   26191.50483831  .00001860  00000+0  27295-3 0  9998
2 67786  51.9003  15.0282 0000710 103.0284 257.0758 14.79927610 23575
KUIPER-00260            
1 67787U 26030Z   26191.50753755  .00001897  00000+0  27772-3 0  9994
2 67787  51.9007  12.6089 0000806 123.7541 236.3498 14.79934079 23511
KUIPER-00262            
1 67788U 26030AA  26189.24527008 -.00001810  00000+0 -20847-3 0  9996
2 67788  51.9017  22.5328 0000934 145.7952 214.3071 14.79935176 23276
KUIPER-00266            
1 67789U 26030AB  26191.51022528  .00001984  00000+0  28926-3 0  9993
2 67789  51.8998  10.0133 0002448 161.2699 198.8353 14.79931281 23646
KUIPER-00268            
1 67790U 26030AC  26189.92592572 -.00010441  00000+0 -13431-2 0  9992
2 67790  51.9050  14.5311 0000385 114.3526 245.7476 14.79919503 23440
KUIPER-00270            
1 67791U 26030AD  26191.45599328  .00002003  00000+0  29134-3 0  9991
2 67791  51.8997 357.7516 0000874  45.6736 314.4298 14.79989816 23812
KUIPER-00274            
1 67792U 26030AE  26190.95920273  .00002279  00000+0  32789-3 0  9998
2 67792  51.9013  22.4439 0000612 150.3843 209.7155 14.79931886 23425
KUIPER-00275            
1 67793U 26030AF  26190.84571963  .00006149  00000+0  83535-3 0  9990
2 67793  51.9007   2.9551 0000887 120.1012 240.0038 14.79908027 23681
KUIPER-00276            
1 67794U 26030AG  26189.86113571  .00000992  00000+0  15923-3 0  9994
2 67794  51.8994  12.2911 0002768 125.4599 234.6622 14.79924643 23475
KUIPER-00279            
1 67795U 26030AH  26191.05368137  .00002329  00000+0  33442-3 0  9991
2 67795  51.9030 357.0440 0001171 147.6084 212.4951 14.79929387 23780
KUIPER-00131            
1 68573U 26072A   26191.11735765  .00002426  00000+0  34711-3 0  9992
2 68573  51.9001  94.2527 0000730  98.8698 261.2347 14.79937205 14517
KUIPER-00189            
1 68574U 26072B   26190.94584230  .00002113  00000+0  30617-3 0  9996
2 68574  51.8983  97.4971 0000748 102.8629 257.2417 14.79923980 14454
KUIPER-00192            
1 68575U 26072C   26189.90449957  .00003984  00000+0  55113-3 0  9992
2 68575  51.8984  97.1101 0001071 130.2450 229.8606 14.79944346 14370
KUIPER-00193            
1 68576U 26072D   26190.10531988  .00001581  00000+0  25481-3 0  9999
2 68576  51.9042  86.1104 0000484 358.5999   1.4961 14.76600212 14543
KUIPER-00194            
1 68577U 26072E   26191.08890883  .00002428  00000+0  34746-3 0  9995
2 68577  51.9020  89.3872 0000806 143.6684 216.4333 14.79916974 14582
KUIPER-00229            
1 68578U 26072F   26191.15110948 -.00001120  00000+0 -11795-3 0  9990
2 68578  51.8999  94.0995 0000842 113.1426 246.9625 14.79929662 14526
KUIPER-00230            
1 68579U 26072G   26190.08379322  .00019129  00000+0  50388-3 0  9992
2 68579  51.8762  70.7124 0003098  81.3992 278.7347 15.38544159 14759
KUIPER-00231            
1 68580U 26072H   26191.58337963 -.00024661  00000+0 -17792-2 0  9995
2 68580  51.8929  65.6002 0002766  63.8656 268.3085 15.03399514  4902
KUIPER-00234            
1 68581U 26072J   26191.11093067  .00001436  00000+0  23428-3 0  9996
2 68581  51.8987  89.1488 0000379 270.8591  89.2327 14.76585991 14581
KUIPER-00236            
1 68582U 26072K   26191.07806476  .00023945  00000+0  63752-3 0  9991
2 68582  51.8760  66.1239 0003290 101.6913 258.4444 15.38067027 14904
KUIPER-00244            
1 68583U 26072L   26191.16726763 -.00001725  00000+0 -19708-3 0  9998
2 68583  51.8989  79.0438 0001427 104.4043 255.7078 14.79979482 14732
KUIPER-00253            
1 68584U 26072M   26191.16461284  .00002380  00000+0  34102-3 0  9994
2 68584  51.9035  81.5579 0000710  97.2192 262.8851 14.79933555 14692
KUIPER-00254            
1 68585U 26072N   26191.12814969  .00002299  00000+0  33055-3 0  9998
2 68585  51.9028  84.2173 0001893 100.6005 259.5171 14.79933929 14659
KUIPER-00263            
1 68586U 26072P   26191.58337963  .00010895  00000+0  11396-2 0  9997
2 68586  51.8990  67.5681 0003624  78.8263 328.4230 14.90063568  4872
KUIPER-00269            
1 68587U 26072Q   26191.58337963 -.00017763  00000+0 -22100-2 0  9996
2 68587  51.9001  69.7143 0001513 340.8414 206.5064 14.81723058  5418
KUIPER-00272            
1 68588U 26072R   26191.08629622  .00002490  00000+0  35563-3 0  9995
2 68588  51.8982  91.8770 0000786 108.8772 251.2276 14.79916162 14541
KUIPER-00285            
1 68589U 26072S   26191.58337963 -.00008644  00000+0 -10585-2 0  9990
2 68589  51.9038  69.7670 0001136  31.1135 336.2193 14.81763891  4856
KUIPER-00286            
1 68590U 26072T   26191.58337963  .00008547  00000+0  88822-3 0  9992
2 68590  51.8959  67.0028 0004352  80.3170  13.6732 14.90584206  5874
KUIPER-00289            
1 68591U 26072U   26191.10247307  .00002196  00000+0  31703-3 0  9993
2 68591  51.8974  76.8244 0000652 127.8577 232.2444 14.79928893 14754
KUIPER-00290            
1 68592U 26072V   26191.58337963 -.00016541  00000+0 -21654-2 0  9998
2 68592  51.9027  73.0945 0000473 156.0896 170.6011 14.79558313  4188
KUIPER-00293            
1 68593U 26072W   26191.09168462  .00002509  00000+0  35806-3 0  9993
2 68593  51.8987  86.8548 0002788 116.1338 243.9912 14.79934757 14616
KUIPER-00294            
1 68594U 26072X   26191.58337963  .00038886  00000+0  52437-2 0  9997
2 68594  51.8987  72.1743 0001633  80.6071 319.0780 14.78762067  5765
KUIPER-00296            
1 68595U 26072Y   26191.58337963  .00047764  00000+0  12940-2 0  9998
2 68595  51.8699  63.6834 0009903 105.8378 144.7753 15.37140378  5618
KUIPER-00297            
1 68596U 26072Z   26191.09111502  .00001490  00000+0  24329-3 0  9995
2 68596  51.8999  86.4927 0001209 130.0653 230.0414 14.76356339 14627
KUIPER-00300            
1 68597U 26072AA  26191.08338354  .00000992  00000+0  17182-3 0  9996
2 68597  51.9035  83.5888 0001891 121.1699 238.9447 14.76473719 14661
KUIPER-00301            
1 68598U 26072AB  26190.95451305  .00022131  00000+0  57807-3 0  9991
2 68598  51.8645  66.6950 0009889 106.4285 253.7790 15.38665743 14881
KUIPER-00304            
1 68599U 26072AC  26191.03274328  .00029687  00000+0  77554-3 0  9994
2 68599  51.8660  66.4799 0011865 106.4101 253.8192 15.38470452 14891
KUIPER-00317            
1 68600U 26072AD  26190.93639224  .00009097  00000+0  12207-2 0  9991
2 68600  51.8982  75.0687 0000810  98.6045 261.5009 14.79934639 14765
KUIPER-00320            
1 68601U 26072AE  26191.06601321  .00002354  00000+0  33778-3 0  9990
2 68601  51.9023  79.4829 0000742 114.1065 245.9975 14.79918460 14716
KUIPER-00299            
1 68864U 26095A   26191.28103259  .00001449  00000+0  23685-3 0  9997
2 68864  51.8996 146.9858 0001590 249.3680 110.7110 14.76469969 11059
KUIPER-00353            
1 68865U 26095B   26191.58337963 -.00037377  00000+0 -37929-2 0  9998
2 68865  51.8967 132.4313 0002421  57.6001  15.5323 14.90418004  5900
KUIPER-00357            
1 68866U 26095C   26191.43749719  .00001876  00000+0  27514-3 0  9992
2 68866  51.9005 140.3461 0000987  83.1892 276.9183 14.79905978 11164
KUIPER-00364            
1 68867U 26095D   26190.99578681  .00001868  00000+0  27431-3 0  9990
2 68867  51.9024 144.8054 0001379 146.3696 213.7354 14.79886365 11069
KUIPER-00375            
1 68868U 26095E   26191.58337963 -.00058694  00000+0 -70635-2 0  9997
2 68868  51.9007 134.0820 0001240  87.8561 259.9623 14.83720606  5132
KUIPER-00433            
1 68869U 26095F   26190.61677480  .00001831  00000+0  26910-3 0  9999
2 68869  51.8991 153.9759 0000925  75.3327 284.7738 14.79934708 10905
KUIPER-00437            
1 68870U 26095G   26191.22162629  .00034750  00000+0  90429-3 0  9995
2 68870  51.8791 130.9456 0009042  37.4255 322.7361 15.38538681 11274
KUIPER-00448            
1 68871U 26095H   26190.27772902  .00001720  00000+0  27565-3 0  9993
2 68871  51.9057 143.5974 0001554 174.4232 185.6746 14.76427370 11011
KUIPER-00459            
1 68872U 26095J   26191.58337963 -.01634446  00000+0 -68898-1 0  9995
2 68872  51.8737 130.5436 0010578  37.2186 178.7459 15.25978988  5800
KUIPER-00468            
1 68873U 26095K   26191.58337963  .00006588  00000+0  23767-3 0  9991
2 68873  51.8845 129.4086 0004723  16.4770 100.8825 15.29716985  5750
KUIPER-00476            
1 68874U 26095L   26191.31174205  .00012458  00000+0  37833-3 0  9993
2 68874  51.8718 131.4891 0009743  29.4599 330.6934 15.34416040 11270
KUIPER-00478            
1 68875U 26095M   26191.58337963 -.01849334  00000+0 -13028+0 0  9995
2 68875  51.8855 130.8069 0006435  29.2814 112.4987 15.08134156  5910
KUIPER-00480            
1 68876U 26095N   26191.58337963 -.01181625  00000+0 -54249-1 0  9990
2 68876  51.8812 129.6769 0005683  20.0266 309.7262 15.22718430  5906
KUIPER-00482            
1 68877U 26095P   26191.58337963 -.00016954  00000+0 -23919-2 0  9993
2 68877  51.8992 136.8391 0000932 223.1077 185.7892 14.76420364  3436
KUIPER-00483            
1 68878U 26095Q   26190.61580887  .00000902  00000+0  15884-3 0  9999
2 68878  51.8988 153.6015 0001599 226.5504 133.5324 14.76515505 10907
KUIPER-00488            
1 68879U 26095R   26191.58337963 -.00034651  00000+0 -31835-2 0  9995
2 68879  51.8917 132.6745 0010237  61.9299 100.7998 14.94270429  4514
KUIPER-00489            
1 68880U 26095S   26191.38548702  .00017496  00000+0  54611-3 0  9994
2 68880  51.8719 131.2460 0013126  28.7871 331.3835 15.33212767 11281
KUIPER-00499            
1 68881U 26095T   26191.58337963 -.00054381  00000+0 -34374-2 0  9991
2 68881  51.8818 131.5920 0008225  51.4902 328.4762 15.08642055  2193
KUIPER-00500            
1 68882U 26095U   26191.32813486  .00000458  00000+0  89151-4 0  9992
2 68882  51.8969 148.3297 0001290  23.9904 336.1118 14.79922836 11045
KUIPER-00502            
1 68883U 26095V   26191.58337963 -.01276057  00000+0 -40843-1 0  9997
2 68883  51.8796 129.0624 0006896  37.7636 232.7516 15.34595224  4916
KUIPER-00503            
1 68884U 26095W   26191.49966230  .00001816  00000+0  26722-3 0  9991
2 68884  51.8998 145.0585 0000472 150.8611 209.2378 14.79912659 11106
KUIPER-00504            
1 68885U 26095X   26191.32275373  .00001842  00000+0  27051-3 0  9990
2 68885  51.9003 153.3510 0000714  62.5123 297.5912 14.79938027 10976
KUIPER-00505            
1 68886U 26095Y   26190.96215042  .00002044  00000+0  29711-3 0  9997
2 68886  51.8832 144.9503 0000727  88.7639 271.3407 14.79917336 11059
KUIPER-00507            
1 68887U 26095Z   26191.58337963 -.00034219  00000+0 -30417-2 0  9999
2 68887  51.8947 132.3817 0003875 110.7220 275.9363 14.95595819  4717
KUIPER-00511            
1 68888U 26095AA  26191.58337963 -.01366662  00000+0 -50215-1 0  9998
2 68888  51.8795 129.3155 0006589  28.4787  94.9273 15.30439780  5329
KUIPER-00512            
1 68889U 26095AB  26190.92565499  .00001394  00000+0  21181-3 0  9990
2 68889  51.9000 147.6093 0000733  93.3620 266.7426 14.79938376 11015
KUIPER-00519            
1 68890U 26095AC  26191.58337963 -.00056304  00000+0 -70325-2 0  9994
2 68890  51.9005 134.7819 0002187 343.6043 214.3957 14.82160171  4890
KUIPER-00521            
1 68891U 26095AD  26191.58337963 -.00031631  00000+0 -19528-2 0  9999
2 68891  51.8900 130.1509 0000914 180.9017 267.1796 15.09278262  3852
KUIPER-00524            
1 68892U 26095AE  26191.58337963 -.00009621  00000+0 -13422-2 0  9991
2 68892  51.9541 135.8991 0002038  99.2012 256.2080 14.76432742  5875
KUIPER-00370            
1 68919U 26098A   26191.58337963 -.01086466  00000+0 -52555-1 0  9996
2 68919  51.8756 317.7734 0011376 243.9209 102.5822 15.21114108  4228
KUIPER-00380            
1 68920U 26098B   26191.00628297  .00014487  00000+0  50985-3 0  9996
2 68920  51.8758 319.1442 0006734 236.9346 123.0991 15.29541006 10838
KUIPER-00386            
1 68921U 26098C   26191.58337963 -.01932949  00000+0 -69485-1 0  9995
2 68921  51.8756 314.5958 0003027 327.0976 142.2088 15.31806813  5052
KUIPER-00388            
1 68922U 26098D   26191.58337963 -.00049882  00000+0 -49381-2 0  9994
2 68922  51.8935 319.8034 0015744 228.2925 103.4467 14.91440405  5449
KUIPER-00405            
1 68923U 26098E   26191.58337963 -.00094500  00000+0 -68060-2 0  9997
2 68923  51.8865 318.2889 0009890 252.0288 142.2869 15.04100208  4079
KUIPER-00408            
1 68924U 26098F   26191.58337963 -.00021100  00000+0 -78507-3 0  9992
2 68924  51.8773 317.8737 0013123 241.2229  50.6819 15.26452999  5781
KUIPER-00409            
1 68925U 26098G   26191.58337963 -.01751870  00000+0 -11442+0 0  9999
2 68925  51.8870 316.6536 0005117 260.8447 226.2800 15.10693354  2746
KUIPER-00410            
1 68926U 26098H   26190.87137490  .00007134  00000+0  28144-3 0  9999
2 68926  51.8759 321.2009 0012879 236.2175 123.7581 15.26553464 10793
KUIPER-00412            
1 68927U 26098J   26191.33008574  .00018389  00000+0  50002-3 0  9994
2 68927  51.8795 315.3988 0003106 319.2620  40.8134 15.37588350 10915
KUIPER-00413            
1 68928U 26098K   26191.58337963 -.00078358  00000+0 -46805-2 0  9998
2 68928  51.8852 319.0462 0021065 245.5904 163.3940 15.10699467  5562
KUIPER-00414            
1 68929U 26098L   26191.42100325 -.00000094  00000+0  16679-4 0  9991
2 68929  51.8957 328.0175 0001274 256.1311 103.9510 14.79929054 10741
KUIPER-00415            
1 68930U 26098M   26191.33475582  .00009847  00000+0  34257-3 0  9998
2 68930  51.8800 317.6226 0008993 228.5555 131.4657 15.30300747 10882
KUIPER-00416            
1 68931U 26098N   26190.93214149  .00020222  00000+0  54943-3 0  9998
2 68931  51.8754 317.2129 0001553 314.7093  45.3767 15.37548473 10858
KUIPER-00420            
1 68932U 26098P   26191.62897561  .00019700  00000+0  55159-3 0  9990
2 68932  51.8772 314.3864 0003438 289.8882  70.1734 15.36626784 10957
KUIPER-00421            
1 68933U 26098Q   26191.37276004  .00013633  00000+0  47308-3 0  9992
2 68933  51.8755 317.1275 0007419 209.5335 150.5230 15.30051125 10893
KUIPER-00425            
1 68934U 26098R   26191.58337963 -.01147082  00000+0 -54160-1 0  9999
2 68934  51.8806 317.9593 0013933 237.7099   2.9993 15.21576354  5841
KUIPER-00430            
1 68935U 26098S   26191.58337963 -.00072142  00000+0 -46653-2 0  9992
2 68935  51.8886 318.6095 0016963 240.8641  91.1557 15.07846093  5412
KUIPER-00431            
1 68936U 26098T   26191.58337963 -.00051079  00000+0 -48081-2 0  9996
2 68936  51.8927 320.1110 0015847 226.4139  27.8735 14.93442850  3663
KUIPER-00432            
1 68937U 26098U   26191.39501426  .00010136  00000+0  37956-3 0  9990
2 68937  51.8758 317.9801 0011332 228.0922 131.9095 15.27822651 10887
KUIPER-00434            
1 68938U 26098V   26191.58337963 -.01137637  00000+0 -67521-1 0  9993
2 68938  51.8852 316.5882 0003551 197.2590  40.4471 15.13783377  5566
KUIPER-00436            
1 68939U 26098W   26191.58337963 -.01249898  00000+0 -71821-1 0  9995
2 68939  51.8821 316.9839 0008454 236.8603 154.0707 15.15157608  4344
KUIPER-00438            
1 68940U 26098X   26191.58337963 -.02199157  00000+0 -10207+0 0  9999
2 68940  51.8789 315.9204 0006072 275.0110 239.7974 15.23333462  5246
KUIPER-00439            
1 68941U 26098Y   26191.58337963 -.01708087  00000+0 -71541-1 0  9997
2 68941  51.8795 316.0926 0005150 244.9945 208.7073 15.26411085  3520
KUIPER-00440            
1 68942U 26098Z   26190.94651651  .00019702  00000+0  64972-3 0  9998
2 68942  51.8809 318.7879 0002984 272.0820  87.9822 15.31433861 10832
KUIPER-00442            
1 68943U 26098AA  26191.36457804  .00018248  00000+0  54857-3 0  9995
2 68943  51.8780 316.3541 0003654 240.9214 119.1406 15.34445611 10900
KUIPER-00446            
1 68944U 26098AB  26191.37814363  .00010951  00000+0  35931-3 0  9999
2 68944  51.8751 316.4149 0004865 218.1742 141.8898 15.32100999 10904
KUIPER-00451            
1 68945U 26098AC  26191.58337963 -.00033316  00000+0 -29540-2 0  9999
2 68945  51.8923 319.9962 0009862 237.2388  15.9887 14.95643858  5724
KUIPER-00452            
1 68946U 26098AD  26191.36897076  .00018788  00000+0  53631-3 0  9995
2 68946  51.8737 315.6240 0002753 251.9348 108.1338 15.36057690 10913
KUIPER-00453            
1 68947U 26098AE  26190.35590253  .00019638  00000+0  53618-3 0  9991
2 68947  51.8777 320.0974 0003168 298.8372  61.2296 15.37414647 10765
KUIPER-00454            
1 68948U 26098AF  26191.58337963 -.00051227  00000+0 -55937-2 0  9992
2 68948  51.8974 320.9116 0012817 225.7118   8.9901 14.87556141  5259
KUIPER-00455            
1 68949U 26098AG  26191.58337963 -.00043525  00000+0 -39305-2 0  9996
2 68949  51.8923 320.1714 0015736 228.4235  60.2140 14.94994486  5806
KUIPER-00458            
1 68950U 26098AH  26190.51172779  .00017488  00000+0  48981-3 0  9990
2 68950  51.8775 319.6469 0003239 274.9301  85.1315 15.36703315 10787
KUIPER-00282            
1 69267U 26118A   26191.58337963 -.01067501  00000+0 -46309-1 0  9995
2 69267  51.8679 301.1403 0011581 279.5545 200.3658 15.24705347  5460
KUIPER-00383            
1 69268U 26118B   26191.34594413  .00025560  00000+0  80394-3 0  9995
2 69268  51.8597 302.0830 0009189 266.7516  93.2417 15.32760363  7531
KUIPER-00527            
1 69269U 26118C   26191.33384502  .00014827  00000+0  44769-3 0  9991
2 69269  51.8613 302.0147 0008719 259.5560 100.4442 15.34443294  7531
KUIPER-00562            
1 69270U 26118D   26190.53118774  .00023346  00000+0  62332-3 0  9992
2 69270  51.8723 304.9342 0000370   9.2895 350.8099 15.37997312  7424
KUIPER-00570            
1 69271U 26118E   26191.58337963 -.01418909  00000+0 -90257-1 0  9993
2 69271  51.8741 301.8439 0008676 283.1772 172.6433 15.11444096  5554
KUIPER-00572            
1 69272U 26118F   26191.61909103 -.00174153  00000+0 -54278-2 0  9992
2 69272  51.8711 300.2174 0009058 293.2751  66.7280 15.33346822  7585
KUIPER-00581            
1 69273U 26118G   26191.58337963 -.00080868  00000+0 -50998-2 0  9992
2 69273  51.8860 301.4990 0006906 296.3683 351.0316 15.08934789  5201
KUIPER-00584            
1 69274U 26118H   26191.58337963 -.00039280  00000+0 -32065-2 0  9990
2 69274  51.8883 303.1717 0011873 292.6313 207.9043 14.98896559  5252
KUIPER-00587            
1 69275U 26118J   26190.50807146  .00017196  00000+0  47545-3 0  9997
2 69275  51.8623 305.4981 0007020 277.6151  82.4038 15.37104335  7413
KUIPER-00590            
1 69276U 26118K   26191.58337963 -.02199557  00000+0 -10316+0 0  9990
2 69276  51.8755 300.4337 0001707   3.0529 160.0826 15.23032433  4471
KUIPER-00592            
1 69277U 26118L   26191.58337963 -.01112921  00000+0 -43666-1 0  9996
2 69277  51.8760 300.3690 0001432 178.2621  18.5432 15.28242803  3784
KUIPER-00593            
1 69278U 26118M   26191.31481734  .00017569  00000+0  46115-3 0  9997
2 69278  51.8712 301.1868 0002832 256.6600 103.4072 15.38714906  7609
KUIPER-00594            
1 69279U 26118N   26191.37584446  .00011959  00000+0  33149-3 0  9998
2 69279  51.8718 300.8464 0001791  54.7572 305.3583 15.37364066  7553
KUIPER-00595            
1 69280U 26118P   26191.31353431  .00024671  00000+0  67116-3 0  9998
2 69280  51.8719 301.1803 0000844 341.8722  18.2235 15.37384934  7574
KUIPER-00596            
1 69281U 26118Q   26191.58337963 -.00031895  00000+0 -25741-2 0  9995
2 69281  51.8849 303.0379 0014127 288.5019 301.6568 14.99207250  5368
KUIPER-00597            
1 69282U 26118R   26190.49635137  .00011944  00000+0  32800-3 0  9995
2 69282  51.8652 305.4298 0006087 263.2330  96.7964 15.37646140  7417
KUIPER-00599            
1 69283U 26118S   26190.87972114  .00011798  00000+0  32278-3 0  9993
2 69283  51.8675 303.5132 0005819 260.7904  99.2424 15.37778774  7474
KUIPER-00600            
1 69284U 26118T   26191.28546623  .00022984  00000+0  62655-3 0  9993
2 69284  51.8652 301.7140 0007723 272.1218  87.8884 15.37339982  7534
KUIPER-00601            
1 69285U 26118U   26191.58337963 -.00014473  00000+0 -60948-3 0  9991
2 69285  51.8794 300.4594 0002844 259.7025 227.1679 15.22150284  5794
KUIPER-00602            
1 69286U 26118V   26191.31140560  .00012438  00000+0  32860-3 0  9997
2 69286  51.8700 301.1631 0002088 260.5519  99.5233 15.38817242  7543
KUIPER-00603            
1 69287U 26118W   26191.32805493  .00021751  00000+0  57861-3 0  9998
2 69287  51.8669 301.2623 0005043 264.4860  95.5551 15.38147490  7546
KUIPER-00605            
1 69288U 26118X   26191.58337963 -.00086485  00000+0 -52037-2 0  9995
2 69288  51.8848 301.5004 0003735 295.8622  71.7078 15.10692303  2860
KUIPER-00606            
1 69289U 26118Y   26190.47950891  .00019595  00000+0  52108-3 0  9990
2 69289  51.8701 305.3319 0003948 244.9841 115.0737 15.38230886  7418
KUIPER-00607            
1 69290U 26118Z   26191.33208870  .00023272  00000+0  62231-3 0  9996
2 69290  51.8665 301.2941 0005106 260.5440  99.4970 15.37942566  7544
KUIPER-00608            
1 69291U 26118AA  26191.32995775  .00011186  00000+0  34418-3 0  9990
2 69291  51.8582 301.9839 0007643 280.3897  79.6227 15.34126766  7537
KUIPER-00610            
1 69292U 26118AB  26190.53036957  .00020920  00000+0  54711-3 0  9995
2 69292  51.8681 304.9258 0002231 280.5949  79.4787 15.38705398  7429
KUIPER-00613            
1 69293U 26118AC  26191.58337963 -.01229447  00000+0 -72594-1 0  9998
2 69293  51.8789 301.5597 0008791 273.0138  25.6153 15.14145295  4641
KUIPER-00618            
1 69294U 26118AD  26191.31552799  .00023242  00000+0  63097-3 0  9998
2 69294  51.8732 301.1919 0000217 203.7552 156.3425 15.37484821  7541
KUIPER-00620            
1 69295U 26118AE  26191.37412409  .00012563  00000+0  33321-3 0  9999
2 69295  51.8719 300.8360 0000988 223.9502 136.1406 15.38684198  7553
KUIPER-00423            
1 69592U 26140A   26191.37593422  .00036847  00000+0  95484-3 0  9998
2 69592  51.8789 286.3918 0013574 253.0513 106.8987 15.38588034  4803
KUIPER-00428            
1 69593U 26140B   26191.27931295  .00018615  00000+0  51735-3 0  9996
2 69593  51.8818 287.2409 0007858  16.4101 343.7139 15.36879109  4786
KUIPER-00481            
1 69594U 26140C   26191.58022925  .00018490  00000+0  49636-3 0  9990
2 69594  51.8773 285.5071 0010903 264.7381  95.2362 15.37933276  4836
KUIPER-00490            
1 69595U 26140D   26190.61509600  .00020131  00000+0  54112-3 0  9994
2 69595  51.8782 290.2805 0006540 318.3400  41.7088 15.37868929  4681
KUIPER-00493            
1 69596U 26140E   26191.28371234  .00017729  00000+0  49772-3 0  9994
2 69596  51.8797 287.2660 0007699  21.4042 338.7265 15.36600794  4783
KUIPER-00496            
1 69597U 26140F   26191.36564055  .00011083  00000+0  33772-3 0  9999
2 69597  51.8780 287.0540 0010383  37.4339 322.7368 15.34427947  4794
KUIPER-00513            
1 69598U 26140G   26190.61253992  .00026350  00000+0  69986-3 0  9991
2 69598  51.8820 290.2737 0007047 316.5040  43.5391 15.38069388  4684
KUIPER-00516            
1 69599U 26140H   26190.61880120  .00012103  00000+0  33370-3 0  9990
2 69599  51.8784 290.3069 0006835 334.1487  25.9157 15.37505084  4689
KUIPER-00517            
1 69600U 26140J   26191.57393092  .00036899  00000+0  95023-3 0  9997
2 69600  51.8774 285.4622 0010680 273.2031  86.7735 15.38814134  4836
KUIPER-00520            
1 69601U 26140K   26190.61986370  .00026029  00000+0  70279-3 0  9999
2 69601  51.8793 290.3215 0006880 333.8181  26.2457 15.37569154  4688
KUIPER-00522            
1 69602U 26140L   26190.59591053  .00011416  00000+0  30433-3 0  9999
2 69602  51.8792 290.1610 0013256 244.9258 115.0353 15.38558445  4681
KUIPER-00528            
1 69603U 26140M   26190.62200721  .00024351  00000+0  66169-3 0  9990
2 69603  51.8764 290.3271 0005926 340.6948  19.3813 15.37415170  4684
KUIPER-00532            
1 69604U 26140N   26190.63012575  .00025515  00000+0  70892-3 0  9991
2 69604  51.8764 290.3785 0005654  14.2215 345.8929 15.36698531  4682
KUIPER-00533            
1 69605U 26140P   26190.60899255  .00012480  00000+0  33629-3 0  9991
2 69605  51.8775 290.2427 0007954 306.5126  53.5128 15.38181942  4689
KUIPER-00534            
1 69606U 26140Q   26191.50036260  .00017242  00000+0  45260-3 0  9996
2 69606  51.8798 285.7297 0013903 245.1340 114.8202 15.38643816  4829
KUIPER-00537            
1 69607U 26140R   26191.62268009  .00027334  00000+0  81814-3 0  9996
2 69607  51.8781 285.7847 0010832  35.6027 324.5679 15.34284606  4838
KUIPER-00538            
1 69608U 26140S   26191.26761974  .00019374  00000+0  52469-3 0  9995
2 69608  51.8811 287.1649 0006491 327.8715  32.1875 15.37663768  4782
KUIPER-00540            
1 69609U 26140T   26191.27709233  .00019318  00000+0  53627-3 0  9992
2 69609  51.8832 287.2299 0006449  10.1044 350.0071 15.36898247  4789
KUIPER-00541            
1 69610U 26140U   26190.66668981  .00044474  00000+0  11622-2 0  9999
2 69610  51.8828 289.9778 0007566 303.5884  15.2827 15.38306830  4603
KUIPER-00542            
1 69611U 26140V   26190.86738933  .00023935  00000+0  63267-3 0  9999
2 69611  51.8796 288.9797 0007892 287.9362  72.0765 15.38268011  4729
KUIPER-00543            
1 69612U 26140W   26190.63093524  .00011141  00000+0  31556-3 0  9997
2 69612  51.8763 290.3813 0007703  16.9946 343.1297 15.36747809  4681
KUIPER-00544            
1 69613U 26140X   26190.61156104  .00027399  00000+0  72658-3 0  9990
2 69613  51.8779 290.2597 0006940 298.6802  61.3487 15.38097081  4681
KUIPER-00546            
1 69614U 26140Y   26190.85174142  .00031109  00000+0  80348-3 0  9998
2 69614  51.8782 288.8760 0014042 246.2805 113.6710 15.38767557  4722
KUIPER-00547            
1 69615U 26140Z   26190.60477986  .00015069  00000+0  40823-3 0  9995
2 69615  51.8825 290.2251 0010976 268.4053  91.5677 15.37813223  4688
KUIPER-00549            
1 69616U 26140AA  26191.27321464  .00020497  00000+0  56016-3 0  9991
2 69616  51.8791 287.1940 0007290   2.9228 357.1800 15.37338623  4787
KUIPER-00550            
1 69617U 26140AB  26190.85001609 -.00075643  00000+0 -23442-2 0  9992
2 69617  51.8790 289.5986 0007274  38.0407 322.1091 15.33047749  4713
KUIPER-00551            
1 69618U 26140AC  26190.59824009 -.00041327  00000+0 -10604-2 0  9999
2 69618  51.8759 290.1745 0014669 236.3858 123.5730 15.38541546  4687
KUIPER-00554            
1 69619U 26140AD  26191.25298191  .00022076  00000+0  59105-3 0  9999
2 69619  51.8775 287.0639 0010891 274.9137  85.0606 15.37895633  4787
KUIPER-00555            
1 69620U 26140AE  26190.92529254  .00000879  00000+0  33687-4 0  9996
2 69620  51.8824 288.6222 0011948 256.9551 103.0103 15.37953262  4734
KUIPER-00556            
1 69621U 26140AF  26191.25026391  .00020618  00000+0  54617-3 0  9996
2 69621  51.8812 287.0516 0011650 251.0389 108.9336 15.38260697  4787
KUIPER-00557            
1 69622U 26140AG  26191.25750435  .00024118  00000+0  65286-3 0  9993
2 69622  51.8818 287.1006 0009933 283.8251  76.1631 15.37510748  4789
KUIPER-00560            
1 69623U 26140AH  26191.57604173  .00029128  00000+0  75380-3 0  9998
2 69623  51.8781 285.4808 0008504 293.7135  66.2960 15.38803489  4833
KUIPER-00561            
1 69624U 26140AJ  26191.25379120  .00021594  00000+0  56479-3 0  9992
2 69624  51.8821 287.0794 0008110 293.2180  66.7953 15.38655455  4788
KUIPER-00564            
1 69625U 26140AK  26191.33336806 -.00001914  00000+0 -40894-4 0  9997
2 69625  51.8816 286.6867 0009261 280.2463 161.3962 15.37260467  4042
KUIPER-00567            
1 69626U 26140AL  26191.57288332  .00149596  00000+0  38703-2 0  9995
2 69626  51.8792 285.4597 0012627 268.1576  91.7965 15.37951201  4832
KUIPER-00573            
1 69627U 26140AM  26191.26104898  .00027907  00000+0  75591-3 0  9994
2 69627  51.8827 287.1176 0010458 271.4984  88.4805 15.37401499  4783
KUIPER-00258            
1 69763U 26151A   26191.58337963  .00009722  00000+0  28826-3 0  9997
2 69763  51.8667 202.7943 0011994 153.8087 221.1927 15.35434221  1677
KUIPER-00526            
1 69764U 26151B   26191.58337963  .00015235  00000+0  42059-3 0  9998
2 69764  51.8761 202.6894 0006008 124.3830 301.6988 15.37254497  1438
KUIPER-00558            
1 69765U 26151C   26191.58337963  .00014291  00000+0  40158-3 0  9998
2 69765  51.8752 202.7184 0007606 135.9093 276.2562 15.36747872  1917
KUIPER-00569            
1 69766U 26151D   26191.58337963  .00014762  00000+0  40594-3 0  9996
2 69766  51.8785 202.6751 0005068 122.5048 309.3553 15.37407441  1302
KUIPER-00589            
1 69767U 26151E   26191.58337963  .00014761  00000+0  40664-3 0  9994
2 69767  51.8752 202.6844 0005347 128.0746 300.8612 15.37350575  1943
KUIPER-00598            
1 69768U 26151F   26191.58337963  .00010571  00000+0  31187-3 0  9990
2 69768  51.8633 202.7836 0009925 151.7845 227.8528 15.35510235  1856
KUIPER-00604            
1 69769U 26151G   26191.58337963  .00015011  00000+0  40263-3 0  9990
2 69769  51.8798 202.6276 0002672  90.6905   2.9120 15.38172716  2263
KUIPER-00609            
1 69770U 26151H   26191.58337963  .00014715  00000+0  38989-3 0  9994
2 69770  51.8802 202.6007 0001120  31.9016  74.4687 15.38569766  1302
KUIPER-00611            
1 69771U 26151J   26191.58337963  .00015083  00000+0  40178-3 0  9997
2 69771  51.8804 202.6099 0001597  84.7463  15.2175 15.38382765  1303
KUIPER-00612            
1 69772U 26151K   26191.58337963  .00015646  00000+0  42325-3 0  9999
2 69772  51.8790 202.6479 0003660  99.3948 345.3728 15.37872664  1305
KUIPER-00614            
1 69773U 26151L   26191.58337963  .00015470  00000+0  41576-3 0  9992
2 69773  51.8801 202.6312 0002655 106.0262 345.0129 15.38085527  1849
KUIPER-00615            
1 69774U 26151M   26191.58337963  .00015209  00000+0  42111-3 0  9999
2 69774  51.8771 202.6941 0006040 131.2008 292.1885 15.37165030  1303
KUIPER-00616            
1 69775U 26151N   26191.58337963  .00015201  00000+0  40560-3 0  9998
2 69775  51.8784 202.6293 0003071 105.2519 349.3016 15.38322992  1301
KUIPER-00617            
1 69776U 26151P   26191.58337963  .00015228  00000+0  41441-3 0  9997
2 69776  51.8795 202.6534 0003976 119.2305 322.1884 15.37709797  1307
KUIPER-00619            
1 69777U 26151Q   26191.58337963  .00014982  00000+0  39804-3 0  9994
2 69777  51.8803 202.6048 0001741  45.5179  57.9157 15.38470517  1331
KUIPER-00621            
1 69778U 26151R   26191.58337963  .00015261  00000+0  40800-3 0  9994
2 69778  51.8794 202.6237 0001941  95.0058   1.3272 15.38261374  2082
KUIPER-00622            
1 69779U 26151S   26191.58337963  .00014163  00000+0  39589-3 0  9997
2 69779  51.8730 202.7078 0006792 132.4819 285.3215 15.36927578  1945
KUIPER-00623            
1 69780U 26151T   26191.58337963  .00015314  00000+0  42126-3 0  9999
2 69780  51.8776 202.6744 0004953 118.7177 314.0265 15.37367188  2062
KUIPER-00626            
1 69781U 26151U   26191.58337963  .00012526  00000+0  36465-3 0  9991
2 69781  51.8711 202.7661 0010044 149.6834 239.3982 15.35745587  2305
KUIPER-00627            
1 69782U 26151V   26191.58337963  .00012685  00000+0  37213-3 0  9990
2 69782  51.8684 202.7818 0011196 152.5729 228.7447 15.35478769  1306
KUIPER-00629            
1 69783U 26151W   26191.58337963  .00014607  00000+0  40821-3 0  9996
2 69783  51.8741 202.7118 0007306 132.1058 283.4407 15.36904092  1635
KUIPER-00631            
1 69784U 26151X   26191.58337963  .00014461  00000+0  40714-3 0  9996
2 69784  51.8708 202.7265 0007848 139.7098 268.9682 15.36675811  1301
KUIPER-00634            
1 69785U 26151Y   26191.58337963  .00014908  00000+0  40647-3 0  9998
2 69785  51.8769 202.6620 0003657 119.5681 319.7456 15.37668705  1300
KUIPER-00639            
1 69786U 26151Z   26191.58337963  .00011371  00000+0  32898-3 0  9999
2 69786  51.8683 202.7530 0009568 145.1144 250.5690 15.36047615  1305
KUIPER-00641            
1 69787U 26151AA  26191.58337963  .00022354  00000+0  65166-3 0  9997
2 69787  51.8670 202.7804 0010749 147.3949 234.5656 15.35234477  1943
KUIPER-00644            
1 69788U 26151AB  26191.58337963  .00013105  00000+0  37214-3 0  9995
2 69788  51.8733 202.7374 0008539 142.2546 260.9190 15.36492956  2246
KUIPER-00646            
1 69789U 26151AC  26191.58337963  .00014154  00000+0  40772-3 0  9994
2 69789  51.8696 202.7495 0009561 145.3748 251.9346 15.35966015  1303
KUIPER-00647            
1 69790U 26151AD  26191.58337963  .00010982  00000+0  32211-3 0  9990
2 69790  51.8658 202.7759 0010774 148.9553 235.1020 15.35641389  2080
KUIPER-00662            
1 69791U 26151AE  26191.58337963  .00014192  00000+0  40084-3 0  9995
2 69791  51.8720 202.7318 0008496 137.2544 268.7575 15.36588422  1301
