KUIPER-00008            
1 63724U 25088A   26230.94267053  .00000888  00000+0  14551-3 0  9996
2 63724  51.9002  90.5249 0000972 115.6069 244.4994 14.79939568 72079
KUIPER-00009            
1 63725U 25088B   26231.05459213  .00006787  00000+0  45732-3 0  9990
2 63725  51.9017 103.7581 0001104  48.5131 311.5938 15.07726597 71895
KUIPER-00010            
1 63726U 25088C   26231.31947591  .00001069  00000+0  16916-3 0  9991
2 63726  51.9018  83.9657 0000556 109.7439 250.3583 14.79930037 71813
KUIPER-00011            
1 63727U 25088D   26231.27765655  .00010127  00000+0  13565-2 0  9997
2 63727  51.8992  91.6963 0001550  73.8704 286.2429 14.79902292 71832
KUIPER-00012            
1 63728U 25088E   26231.26003056  .00000565  00000+0  10308-3 0  9995
2 63728  51.9020  76.7115 0000797 112.7753 247.3294 14.79930748 71990
KUIPER-00013            
1 63729U 25088F   26231.39380504  .00001433  00000+0  21695-3 0  9992
2 63729  51.9018 108.6406 0000956 102.6350 257.4719 14.79925006 71663
KUIPER-00014            
1 63730U 25088G   26231.08992541 -.00000261  00000+0 -52270-5 0  9995
2 63730  51.9041 109.9288 0001037 110.7868 249.3206 14.79933811 71437
KUIPER-00015            
1 63731U 25088H   26231.38301771  .00000104  00000+0  42696-4 0  9992
2 63731  51.8975 118.6828 0001029  86.3306 273.7774 14.79938003 71794
KUIPER-00016            
1 63732U 25088J   26231.35733524  .00002141  00000+0  30972-3 0  9991
2 63732  51.8988 111.2539 0000823  89.3171 270.7886 14.79941504 71433
KUIPER-00018            
1 63733U 25088K   26231.33436647  .00001124  00000+0  17638-3 0  9990
2 63733  51.9032 101.3959 0000866 107.9992 252.1065 14.79943587 71577
KUIPER-00019            
1 63734U 25088L   26231.36105186  .00000449  00000+0  87874-4 0  9994
2 63734  51.9022 100.0278 0001076 114.5903 245.5172 14.79934647 71591
KUIPER-00020            
1 63735U 25088M   26230.92649814  .00001219  00000+0  18890-3 0  9994
2 63735  51.9019 105.6974 0001046 106.6136 253.4941 14.79924395 71680
KUIPER-00021            
1 63736U 25088N   26231.02777903 -.00003748  00000+0 -46286-3 0  9999
2 63736  51.8998 105.2040 0001460  98.4496 261.6632 14.79938250 71530
KUIPER-00023            
1 63737U 25088P   26231.05884923  .00001463  00000+0  22089-3 0  9999
2 63737  51.9009 107.5545 0001065 100.4062 259.7020 14.79932024 71806
KUIPER-00024            
1 63738U 25088Q   26231.07234477 -.00001753  00000+0 -20104-3 0  9995
2 63738  51.9035  95.1017 0000975 104.4266 255.6805 14.79932415 72105
KUIPER-00025            
1 63739U 25088R   26230.96297071  .00001717  00000+0  25421-3 0  9997
2 63739  51.9034 103.0666 0001086 101.5978 258.5107 14.79933481 71847
KUIPER-00027            
1 63740U 25088S   26231.06964337  .00001917  00000+0  28040-3 0  9999
2 63740  51.9016  97.5576 0001199 107.0494 253.0600 14.79935788 71665
KUIPER-00028            
1 63741U 25088T   26231.30869177  .00000982  00000+0  15789-3 0  9990
2 63741  51.9002  93.9460 0001100 107.3275 252.7807 14.79926945 72149
KUIPER-00029            
1 63742U 25088U   26231.01458440  .00001079  00000+0  17058-3 0  9995
2 63742  51.9023  93.9383 0001414  88.0537 272.0587 14.79939200 71643
KUIPER-00030            
1 63743U 25088V   26231.05347031  .00001036  00000+0  16492-3 0  9997
2 63743  51.9017 112.5896 0000962 103.1403 256.9667 14.79932109 71676
KUIPER-00031            
1 63744U 25088W   26231.03587305  .00001389  00000+0  21122-3 0  9993
2 63744  51.9016  97.6893 0000855 107.4458 252.6598 14.79931317 71591
KUIPER-00032            
1 63745U 25088X   26230.48361466  .00013676  00000+0  32695-3 0  9999
2 63745  51.8677 319.0569 0004059 341.6538  18.4303 15.41776271 74474
KUIPER-00033            
1 63746U 25088Y   26231.00351316  .00003147  00000+0  44146-3 0  9998
2 63746  51.8997 127.8318 0000864  70.9872 289.1184 14.79947806 71655
KUIPER-00034            
1 63747U 25088Z   26231.31408227  .00000972  00000+0  15649-3 0  9996
2 63747  51.9019  88.9939 0000775 105.6430 254.4618 14.79935724 71906
KUIPER-00035            
1 63748U 25088AA  26230.94947559 -.00001004  00000+0 -10270-3 0  9995
2 63748  51.8998 115.5753 0001271  92.0285 268.0823 14.79934029 71559
KUIPER-00037            
1 63749U 25088AB  26230.87486405 -.00002665  00000+0 -32064-3 0  9995
2 63749  51.9008 114.7640 0000935  98.7263 261.3805 14.79948068 72346
KUIPER-00038            
1 63750U 25088AC  26231.33705873  .00001448  00000+0  21891-3 0  9994
2 63750  51.9020  98.8906 0001012 104.9651 255.1424 14.79943185 71608
KUIPER-00039            
1 64500U 25134A   26231.51222343  .00002301  00000+0  33070-3 0  9997
2 64500  51.9002 233.1138 0000372  53.1909 306.9088 14.79940380 64182
KUIPER-00040            
1 64501U 25134B   26231.46768552  .00002040  00000+0  29658-3 0  9996
2 64501  51.8973 243.3790 0000554  47.4830 312.6179 14.79928186 64036
KUIPER-00041            
1 64502U 25134C   26230.48578244  .00001637  00000+0  24360-3 0  9991
2 64502  51.8989 250.1101 0000407  62.6529 297.4475 14.79935800 63856
KUIPER-00042            
1 64503U 25134D   26231.53790733  .00002080  00000+0  30184-3 0  9992
2 64503  51.8981 240.4347 0000479  84.1553 275.9464 14.79925085 64087
KUIPER-00043            
1 64504U 25134E   26230.39796053 -.00000213  00000+0  10508-5 0  9994
2 64504  51.8988 237.9820 0000494  40.8417 319.2582 14.79934047 64022
KUIPER-00044            
1 64505U 25134F   26231.39745155  .00002403  00000+0  34410-3 0  9991
2 64505  51.8977 246.0602 0000441  45.5824 314.5174 14.79924390 63996
KUIPER-00046            
1 64506U 25134G   26231.56898022  .00001847  00000+0  27114-3 0  9997
2 64506  51.8978 242.7747 0000450  56.2634 303.8371 14.79945390 64050
KUIPER-00047            
1 64507U 25134H   26231.15968713  .00002331  00000+0  33459-3 0  9996
2 64507  51.8980 217.1108 0000682  48.1294 311.9727 14.79936880 64374
KUIPER-00048            
1 64508U 25134J   26231.19344231 -.00000887  00000+0 -87390-4 0  9994
2 64508  51.8985 216.9738 0000627  70.9105 289.1925 14.79924722 64388
KUIPER-00049            
1 64509U 25134K   26231.48382977  .00000896  00000+0  14653-3 0  9995
2 64509  51.9004 228.1599 0000596  52.4113 307.6903 14.79932358 64253
KUIPER-00050            
1 64510U 25134L   26231.16506568  .00002425  00000+0  34683-3 0  9991
2 64510  51.8989 212.0889 0000741  44.3069 315.7953 14.79945112 64451
KUIPER-00051            
1 64511U 25134M   26231.18975316  .00002245  00000+0  32324-3 0  9995
2 64511  51.8996 228.1562 0000611  63.7538 296.3487 14.79945835 64221
KUIPER-00053            
1 64513U 25134P   26231.23563512  .00002275  00000+0  31400-3 0  9991
2 64513  51.8995 222.7598 0001621  43.2696 316.8395 14.81737914 64306
KUIPER-00054            
1 64514U 25134Q   26231.25826449  .00000214  00000+0  57085-4 0  9994
2 64514  51.8980 219.1644 0000578  42.5325 317.5682 14.79930811 64354
KUIPER-00055            
1 64515U 25134R   26231.14069573 -.00000652  00000+0 -56582-4 0  9999
2 64515  51.9024 172.3272 0000831  54.4914 305.6126 14.79932359 65003
KUIPER-00056            
1 64516U 25134S   26231.48926357  .00002354  00000+0  33753-3 0  9992
2 64516  51.9010 223.2500 0000640  40.1530 319.9479 14.79944137 64323
KUIPER-00057            
1 64517U 25134T   26231.00845509  .00001196  00000+0  18589-3 0  9993
2 64517  51.8991 232.7981 0000527  50.8804 309.2206 14.79933686 64142
KUIPER-00058            
1 64518U 25134U   26231.18264909  .00002239  00000+0  32250-3 0  9992
2 64518  51.8991 227.0018 0000572  46.3765 313.7244 14.79943952 64247
KUIPER-00059            
1 64519U 25134V   26231.45818333  .00002302  00000+0  33089-3 0  9991
2 64519  51.8985 220.8215 0000644  37.9692 322.1315 14.79936400 64351
KUIPER-00060            
1 64520U 25134W   26231.49198882  .00002526  00000+0  36016-3 0  9998
2 64520  51.9030 220.7453 0000696  49.0506 311.0517 14.79938986 64344
KUIPER-00061            
1 64521U 25134X   26231.17999750  .00002235  00000+0  32209-3 0  9994
2 64521  51.8996 229.5700 0000494  58.8392 301.2619 14.79930598 64192
KUIPER-00062            
1 64522U 25134Y   26231.31232995  .00001910  00000+0  27946-3 0  9993
2 64522  51.8953 231.4440 0000539  46.0806 314.0201 14.79942156 64190
KUIPER-00063            
1 64523U 25134Z   26231.50684683  .00002209  00000+0  31868-3 0  9990
2 64523  51.9012 238.1619 0000541  56.4845 303.6169 14.79924538 64114
KUIPER-00064            
1 64524U 25134AA  26231.50951146 -.00000645  00000+0 -55606-4 0  9993
2 64524  51.9016 235.5753 0000719  38.5945 321.5069 14.79931049 64155
KUIPER-00065            
1 64525U 25134AB  26231.50415052  .00002164  00000+0  31275-3 0  9996
2 64525  51.9028 240.7726 0000502  70.5423 289.5594 14.79941039 64060
KUIPER-00066            
1 64526U 25134AC  26231.13260440  .00003013  00000+0  42416-3 0  9998
2 64526  51.9002 179.6861 0000841  72.4086 287.6968 14.79926008 64901
KUIPER-00069            
1 64816U 25151A   26230.51557655  .00001949  00000+0  28452-3 0  9997
2 64816  51.9023 285.0562 0000513 102.5186 257.5834 14.79951527 60726
KUIPER-00070            
1 64817U 25151B   26231.46776919 -.00001582  00000+0 -17850-3 0  9994
2 64817  51.8991 305.7515 0000519  44.5339 315.5665 14.79935788 60525
KUIPER-00071            
1 64818U 25151C   26231.20035992  .00003094  00000+0  43468-3 0  9998
2 64818  51.9012 304.4761 0000246  74.1930 285.9060 14.79935979 59331
KUIPER-00072            
1 64819U 25151D   26230.51285127  .00001885  00000+0  27615-3 0  9991
2 64819  51.8981 287.4484 0000201  69.0308 291.0676 14.79940238 59516
KUIPER-00073            
1 64820U 25151E   26231.50424124 -.00000790  00000+0 -74617-4 0  9996
2 64820  51.9004 303.1130 0000310  37.0275 323.0709 14.79937407 60562
KUIPER-00075            
1 64822U 25151G   26231.47743681  .00032196  00000+0  84725-3 0  9999
2 64822  51.8650 147.1269 0004402 110.3134 249.8326 15.38260792 61545
KUIPER-00076            
1 64823U 25151H   26231.17738999  .00002750  00000+0  38936-3 0  9999
2 64823  51.9002 294.5792 0000349  27.4742 332.6239 14.79951280 59471
KUIPER-00077            
1 64824U 25151J   26230.90189425  .00002473  00000+0  35318-3 0  9997
2 64824  51.9013 300.8184 0000277  89.8970 270.2024 14.79940377 59367
KUIPER-00078            
1 64825U 25151K   26231.20845116  .00002863  00000+0  40430-3 0  9992
2 64825  51.9001 296.9370 0000229  91.3659 268.7330 14.79943385 59449
KUIPER-00079            
1 64826U 25151L   26231.16927716  .00002855  00000+0  40320-3 0  9994
2 64826  51.9003 302.0671 0000298  84.3351 275.7645 14.79940780 60560
KUIPER-00080            
1 64827U 25151M   26230.59530418  .00002399  00000+0  34341-3 0  9999
2 64827  51.9001 304.6173 0000230  89.6765 270.4223 14.79947109 59280
KUIPER-00082            
1 64828U 25151N   26230.57499968  .00000233  00000+0  59535-4 0  9990
2 64828  51.9011 292.2673 0000340  79.9265 280.1736 14.79942442 59459
KUIPER-00083            
1 64829U 25151P   26231.17468370  .00001032  00000+0  16429-3 0  9993
2 64829  51.9005 297.0986 0000376  23.2592 336.8388 14.79943391 60624
KUIPER-00084            
1 64830U 25151Q   26231.63660456  .00002759  00000+0  39059-3 0  9996
2 64830  51.9011 305.0385 0000479  93.6398 266.4619 14.79946799 59364
KUIPER-00085            
1 64831U 25151R   26230.87889426  .00002328  00000+0  33406-3 0  9994
2 64831  51.9027 290.9735 0000145 119.7076 240.3900 14.79950685 59493
KUIPER-00086            
1 64832U 25151S   26231.20579072  .00002910  00000+0  41048-3 0  9994
2 64832  51.9008 299.4682 0000333  94.7895 265.3106 14.79944919 59407
KUIPER-00087            
1 64833U 25151T   26230.48180901  .00001861  00000+0  27307-3 0  9999
2 64833  51.8999 285.1275 0000224  75.0368 285.0619 14.79933101 59535
KUIPER-00089            
1 64834U 25151U   26231.15171664  .00002722  00000+0  38581-3 0  9994
2 64834  51.9000 287.1893 0000237  62.1652 297.9335 14.79942838 59573
KUIPER-00090            
1 64835U 25151V   26231.56497143  .00002098  00000+0  30401-3 0  9992
2 64835  51.8984 277.8612 0000253  75.8064 284.2926 14.79953218 59732
KUIPER-00091            
1 64836U 25151W   26231.42453382  .00002809  00000+0  39726-3 0  9994
2 64836  51.9002 283.5021 0000400  78.7055 281.3952 14.79932372 59644
KUIPER-00092            
1 64837U 25151X   26230.47100003  .00001962  00000+0  28630-3 0  9999
2 64837  51.9020 295.2071 0000273  75.2070 284.8923 14.79938515 60617
KUIPER-00093            
1 64838U 25151Y   26231.48125417 -.00000247  00000+0 -33913-5 0  9997
2 64838  51.9026 293.2141 0000362  86.4749 273.6255 14.79937238 59518
KUIPER-00094            
1 64839U 25151Z   26231.52983498  .00002128  00000+0  30799-3 0  9999
2 64839  51.9030 248.1015 0000493  32.1032 327.9960 14.79936405 60154
KUIPER-00081            
1 65132U 25171A   26230.99613700  .00003098  00000+0  43517-3 0  9993
2 65132  51.9001 150.3541 0000958  78.8954 281.2116 14.79931799 57076
KUIPER-00088            
1 65133U 25171B   26231.04478415  .00003347  00000+0  46776-3 0  9990
2 65133  51.8991 167.6393 0000923  71.9121 288.1942 14.79938684 56838
KUIPER-00095            
1 65134U 25171C   26231.13387289  .00003803  00000+0  52752-3 0  9997
2 65134  51.8972 147.2868 0001052  82.9293 277.1789 14.79934237 57125
KUIPER-00096            
1 65135U 25171D   26231.08663551  .00003052  00000+0  42912-3 0  9994
2 65135  51.8984 159.9496 0000823  83.7548 276.3509 14.79939847 56945
KUIPER-00097            
1 65136U 25171E   26231.01642131  .00003512  00000+0  48924-3 0  9999
2 65136  51.9006 162.9234 0001022  71.5213 288.5860 14.79948064 56881
KUIPER-00098            
1 65137U 25171F   26231.01372858  .00003284  00000+0  45939-3 0  9995
2 65137  51.8995 165.2972 0001032  65.7641 294.3429 14.79947690 56200
KUIPER-00099            
1 65138U 25171G   26230.99073162  .00000162  00000+0  50275-4 0  9990
2 65138  51.9029 155.4095 0001398  67.3222 292.7888 14.79934360 56992
KUIPER-00100            
1 65139U 25171H   26231.16226457  .00003735  00000+0  51849-3 0  9994
2 65139  51.9010 152.1189 0001091  76.0244 284.0840 14.79953140 57059
KUIPER-00102            
1 65140U 25171J   26231.09202821  .00003723  00000+0  51715-3 0  9996
2 65140  51.8974 154.9060 0001059  78.9621 281.1460 14.79933807 57000
KUIPER-00103            
1 65141U 25171K   26231.64715138  .00003447  00000+0  48069-3 0  9999
2 65141  51.8982 169.9522 0000994  67.5969 292.5099 14.79951637 56841
KUIPER-00104            
1 65142U 25171L   26231.05287859  .00003404  00000+0  47519-3 0  9991
2 65142  51.9012 160.0900 0001042  72.0031 288.1045 14.79946771 56930
KUIPER-00105            
1 65143U 25171M   26231.01110331  .00003079  00000+0  43225-3 0  9996
2 65143  51.8999 167.8719 0001205  83.0442 277.0657 14.79982544 56828
KUIPER-00106            
1 65144U 25171N   26231.19433604 -.00000064  00000+0  20650-4 0  9997
2 65144  51.9012 145.8268 0001024  81.0145 279.0933 14.79932296 57153
KUIPER-00107            
1 65145U 25171P   26231.16497564  .00003585  00000+0  49904-3 0  9992
2 65145  51.8997 149.6323 0001046  74.8987 285.2092 14.79936722 57093
KUIPER-00108            
1 65146U 25171Q   26231.18524598  .00003767  00000+0  52255-3 0  9998
2 65146  51.9015 162.0853 0000966  67.8768 292.2297 14.79954364 56920
KUIPER-00109            
1 65147U 25171R   26231.08932958  .00003244  00000+0  45408-3 0  9993
2 65147  51.9019 157.4523 0001056  70.3265 289.7811 14.79958520 56975
KUIPER-00110            
1 65148U 25171S   26231.10962146  .00003165  00000+0  44395-3 0  9995
2 65148  51.8984 169.9126 0000984  65.6675 294.4390 14.79937462 56791
KUIPER-00111            
1 65149U 25171T   26231.13798413  .00003162  00000+0  44366-3 0  9998
2 65149  51.8963 174.6561 0000889  67.1038 293.0019 14.79931088 56734
KUIPER-00112            
1 65150U 25171U   26230.98808356  .00003425  00000+0  47801-3 0  9999
2 65150  51.9011 157.9463 0001118  73.5001 286.6084 14.79934443 56955
KUIPER-00114            
1 65151U 25171V   26231.06777486  .00003250  00000+0  45501-3 0  9990
2 65151  51.8987 177.5568 0001134  61.1634 298.9442 14.79948828 56680
KUIPER-00115            
1 65152U 25171W   26231.07584033  .00003414  00000+0  47643-3 0  9997
2 65152  51.9012 170.0273 0000790  78.4677 281.6375 14.79954212 56797
KUIPER-00116            
1 65153U 25171X   26231.03671201  .00003242  00000+0  45415-3 0  9992
2 65153  51.8995 175.2319 0000802  79.0516 281.0537 14.79923858 56716
KUIPER-00118            
1 65154U 25171Y   26231.10153363  .00003154  00000+0  44266-3 0  9990
2 65154  51.8989 177.3956 0000834  74.5848 285.5206 14.79926130 56698
KUIPER-00119            
1 65155U 25171Z   26231.25010722  .00003698  00000+0  51358-3 0  9991
2 65155  51.9006 164.3380 0000954  66.2329 293.8734 14.79948554 56885
KUIPER-00120            
1 65762U 25217A   26230.81157899  .00002367  00000+0  33950-3 0  9994
2 65762  51.8991  56.1463 0000721 111.5291 248.5748 14.79920019 48749
KUIPER-00132            
1 65763U 25217B   26230.59826377  .00025977  00000+0  67287-3 0  9996
2 65763  51.8533 295.0382 0005460 185.4558 174.6370 15.38857024 50404
KUIPER-00133            
1 65764U 25217C   26230.71031806  .00002413  00000+0  34549-3 0  9991
2 65764  51.9044  56.7196 0000658 104.6538 255.4497 14.79921228 48736
KUIPER-00139            
1 65765U 25217D   26231.15052434  .00002281  00000+0  32797-3 0  9997
2 65765  51.8987  22.2134 0000328 252.4495 107.6432 14.79956875 49251
KUIPER-00142            
1 65766U 25217E   26230.89799002  .00003084  00000+0  43311-3 0  9993
2 65766  51.8998  38.2937 0000663 113.5788 246.5244 14.79950909 49005
KUIPER-00145            
1 65767U 25217F   26231.16541775  .00001930  00000+0  28214-3 0  9990
2 65767  51.8993  39.6362 0000557 126.6248 233.4766 14.79931268 49007
KUIPER-00147            
1 65768U 25217G   26230.85885295  .00002821  00000+0  39903-3 0  9991
2 65768  51.8994  43.4674 0000762 126.9988 233.1045 14.79923966 48923
KUIPER-00148            
1 65769U 25217H   26231.08033213  .00002985  00000+0  42029-3 0  9997
2 65769  51.9064  25.0222 0000575 132.9243 227.1768 14.79946954 49200
KUIPER-00150            
1 65770U 25217J   26230.71299306  .00002691  00000+0  38175-3 0  9996
2 65770  51.9012  54.1545 0000823 115.0001 245.1047 14.79951257 48768
KUIPER-00151            
1 65771U 25217K   26230.72108653 -.00000265  00000+0 -57984-5 0  9990
2 65771  51.9020  46.6142 0000744 124.2778 235.8255 14.79931353 48876
KUIPER-00152            
1 65772U 25217L   26231.17350509 -.00003004  00000+0 -36517-3 0  9991
2 65772  51.9021  32.0982 0000525 127.3563 232.7447 14.79936878 49116
KUIPER-00153            
1 65773U 25217M   26230.84126165 -.00001940  00000+0 -22558-3 0  9991
2 65773  51.9036  28.6483 0000768  95.0316 265.0734 14.79926067 49135
KUIPER-00155            
1 65774U 25217N   26230.87091006 -.00000888  00000+0 -87512-4 0  9992
2 65774  51.9036   0.9813 0000535 124.9844 235.1168 14.79930258 49525
KUIPER-00156            
1 65775U 25217P   26230.67243511  .00002862  00000+0  40416-3 0  9994
2 65775  51.9037  29.3781 0000667  88.4170 271.6869 14.79940707 49105
KUIPER-00165            
1 65778U 25217S   26230.86420374  .00004786  00000+0  65625-3 0  9998
2 65778  51.9016  38.4662 0000888 189.7742 170.3204 14.79937886 48997
KUIPER-00166            
1 65779U 25217T   26230.84394409  .00005713  00000+0  77731-3 0  9998
2 65779  51.9061  26.1103 0001183 206.3534 153.7368 14.79956563 49165
KUIPER-00167            
1 65780U 25217U   26230.71839975  .00002666  00000+0  37861-3 0  9992
2 65780  51.8959  49.0073 0000664 112.6720 247.4313 14.79926803 48839
KUIPER-00168            
1 65781U 25217V   26231.14244062  .00001719  00000+0  25431-3 0  9996
2 65781  51.9014  29.7426 0000601 131.1436 228.9579 14.79946439 49141
KUIPER-00169            
1 65782U 25217W   26230.66436130  .00002637  00000+0  37478-3 0  9996
2 65782  51.9013  36.8681 0000709 108.8117 251.2922 14.79925712 49006
KUIPER-00170            
1 65783U 25217X   26231.13167033  .00002828  00000+0  39983-3 0  9998
2 65783  51.8995  39.7515 0000640 116.5755 243.5273 14.79924057 49005
KUIPER-00172            
1 65785U 25217Z   26230.64405773  .00002831  00000+0  40023-3 0  9992
2 65785  51.9002  24.4387 0000440 119.2686 240.8320 14.79931733 49176
KUIPER-00173            
1 65786U 25217AA  26230.90069191  .00003106  00000+0  43602-3 0  9994
2 65786  51.9009  35.8156 0000749 132.9431 227.1594 14.79954939 49035
KUIPER-00174            
1 65787U 25217AB  26230.83855757  .00003381  00000+0  47206-3 0  9997
2 65787  51.9032  31.1481 0000583 124.5367 235.5651 14.79952988 49098
KUIPER-00176            
1 65788U 25217AC  26230.68739515  .00002643  00000+0  37494-3 0  9992
2 65788  51.9001  46.7409 0000446  96.8176 263.2837 14.79997585 48864
KUIPER-00101            
1 65947U 25228A   26230.63187400  .00001030  00000+0  16403-3 0  9992
2 65947  51.9006   4.4382 0000487 136.1422 223.9579 14.79943425 47212
KUIPER-00113            
1 65948U 25228B   26230.80609248  .00003295  00000+0  46094-3 0  9995
2 65948  51.9009 358.6871 0000488 116.8733 243.2280 14.79934521 47305
KUIPER-00117            
1 65949U 25228C   26230.76963474  .00003025  00000+0  42548-3 0  9996
2 65949  51.8996   1.3488 0000477 124.3761 235.7246 14.79951641 47264
KUIPER-00121            
1 65950U 25228D   26230.60620978  .00002875  00000+0  40595-3 0  9992
2 65950  51.9013 357.0892 0000452 122.7232 237.3774 14.79933474 47319
KUIPER-00122            
1 65951U 25228E   26230.79801796  .00002995  00000+0  42151-3 0  9995
2 65951  51.9000   6.2127 0000455 109.6545 250.4467 14.79949155 47200
KUIPER-00123            
1 65952U 25228F   26230.76421753  .00003001  00000+0  42237-3 0  9998
2 65952  51.9005   6.3720 0000427 120.1704 239.9301 14.79942874 47198
KUIPER-00124            
1 65953U 25228G   26230.77233795  .00003005  00000+0  42282-3 0  9991
2 65953  51.8994 358.8256 0000360 100.5758 259.5245 14.79950720 47308
KUIPER-00125            
1 65954U 25228H   26230.51838828  .00003069  00000+0  43117-3 0  9990
2 65954  51.9014 344.9985 0000410 114.4986 245.6019 14.79949187 47479
KUIPER-00126            
1 65955U 25228J   26230.66562850 -.00000569  00000+0 -45634-4 0  9997
2 65955  51.9005   4.3282 0000459 130.6615 229.4388 14.79934483 47213
KUIPER-00127            
1 65956U 25228K   26231.06201066  .00000404  00000+0  81968-4 0  9998
2 65956  51.9019 355.0521 0000360 139.9372 220.1617 14.79932079 47384
KUIPER-00128            
1 65957U 25228L   26230.77501635 -.00000790  00000+0 -74678-4 0  9991
2 65957  51.9034 356.3874 0000898 145.6822 214.4199 14.79931780 47331
KUIPER-00129            
1 65958U 25228M   26230.74665355  .00003019  00000+0  42484-3 0  9993
2 65958  51.9017 351.4933 0000466 111.6631 248.4381 14.79937715 47409
KUIPER-00130            
1 65959U 25228N   26230.77771484  .00003004  00000+0  42292-3 0  9999
2 65959  51.9041 353.8956 0000420 129.4954 230.6046 14.79933200 37666
KUIPER-00134            
1 65960U 25228P   26231.55487643  .00025039  00000+0  67902-3 0  9996
2 65960  51.8702 249.1948 0004137 165.9949 194.1154 15.37468493 48890
KUIPER-00135            
1 65961U 25228Q   26230.54138431  .00003112  00000+0  43689-3 0  9997
2 65961  51.9037 354.9937 0000437 122.5527 237.5478 14.79949146 47339
KUIPER-00136            
1 65962U 25228R   26230.78040277 -.00010449  00000+0 -13432-2 0  9999
2 65962  51.9017 351.3868 0000292 170.0153 190.0815 14.79952235 47403
KUIPER-00137            
1 65963U 25228S   26230.71560125  .00003085  00000+0  43347-3 0  9997
2 65963  51.9044 349.1774 0000424 142.3686 217.7306 14.79932583 47434
KUIPER-00138            
1 65964U 25228T   26230.61697679  .00003043  00000+0  42759-3 0  9992
2 65964  51.9001 347.0245 0000388  64.5456 295.5546 14.79968713 47453
KUIPER-00140            
1 65965U 25228U   26230.74935001  .00002979  00000+0  41958-3 0  9998
2 65965  51.9002 349.0311 0000368  91.9262 268.1743 14.79931490 47433
KUIPER-00141            
1 65966U 25228V   26230.68722223 -.00001460  00000+0 -16254-3 0  9999
2 65966  51.9025 344.3727 0000649 111.0846 249.0186 14.79933185 47490
KUIPER-00146            
1 65967U 25228W   26230.71830052  .00003221  00000+0  45115-3 0  9997
2 65967  51.9048 346.7476 0000454 142.3252 217.7742 14.79951761 47462
KUIPER-00149            
1 65968U 25228X   26230.68991432  .00003044  00000+0  42812-3 0  9998
2 65968  51.9022 341.7519 0000329 115.0601 245.0396 14.79933686 47537
KUIPER-00154            
1 65969U 25228Y   26230.72635890 -.00000250  00000+0 -37873-5 0  9998
2 65969  51.9004 339.0769 0000488  90.4587 269.6431 14.79927693 47577
KUIPER-00157            
1 65970U 25228Z   26230.68505473  .00001896  00000+0  26942-3 0  9996
2 65970  51.9036 341.5094 0001167 135.7492 224.3565 14.81249350 47538
KUIPER-00144            
1 67133U 25301A   26230.70761910  .00002835  00000+0  40080-3 0  9997
2 67133  51.9010  59.1782 0000759 102.4149 257.6898 14.79920504 37862
KUIPER-00164            
1 67134U 25301B   26230.76164659 -.00001163  00000+0 -12360-3 0  9996
2 67134  51.9041  71.4526 0000803 109.2613 250.8436 14.79930314 37875
KUIPER-00175            
1 67135U 25301C   26231.08441422  .00000199  00000+0  55102-4 0  9997
2 67135  51.9011  52.4679 0000692 113.7854 246.3181 14.79924880 38064
KUIPER-00179            
1 67136U 25301D   26230.96693753 -.00000627  00000+0 -53237-4 0  9995
2 67136  51.8992  67.9912 0000610 118.6156 241.4868 14.79930407 37948
KUIPER-00181            
1 67137U 25301E   26231.29110829  .00003045  00000+0  42815-3 0  9995
2 67137  51.9025  79.1110 0000820 115.5631 244.5416 14.79938913 37795
KUIPER-00183            
1 67138U 25301F   26231.58336806 -.00024186  00000+0 -31509-2 0  9991
2 67138  51.9022  47.8246 0000868 105.0719  20.7563 14.79987964  5486
KUIPER-00184            
1 67139U 25301G   26230.87104317  .00002840  00000+0  40137-3 0  9992
2 67139  51.8995  63.4232 0000857 107.7567 252.3489 14.79934769 38090
KUIPER-00186            
1 67140U 25301H   26230.78463927  .00002515  00000+0  35872-3 0  9998
2 67140  51.9021  81.3601 0000951 114.6834 245.4228 14.79934846 37562
KUIPER-00187            
1 67141U 25301J   26231.32219964  .00003045  00000+0  42827-3 0  9997
2 67141  51.9025  81.5092 0000808 121.7667 238.3374 14.79926557 37605
KUIPER-00188            
1 67142U 25301K   26230.91830925  .00002762  00000+0  39112-3 0  9996
2 67142  51.9023  50.8798 0000804 131.6030 228.5001 14.79936783 37998
KUIPER-00191            
1 67143U 25301L   26230.82379170 -.00000860  00000+0 -83781-4 0  9998
2 67143  51.9005  76.1934 0000637 112.2105 247.8925 14.79927460 37669
KUIPER-00196            
1 67144U 25301M   26230.84743014  .00002316  00000+0  36060-3 0  9996
2 67144  51.8991  33.3186 0002143  98.8309 261.2895 14.76425336 38238
KUIPER-00204            
1 67145U 25301N   26231.22485472  .00002103  00000+0  30468-3 0  9991
2 67145  51.9035  46.9080 0000433  91.2447 268.8565 14.79945504 38191
KUIPER-00210            
1 67146U 25301P   26230.79002731  .00002669  00000+0  37895-3 0  9994
2 67146  51.8997  76.2913 0000940 116.4846 243.6213 14.79941423 37809
KUIPER-00221            
1 67147U 25301Q   26231.01829623  .00000496  00000+0  94131-4 0  9991
2 67147  51.9009  82.8145 0000754 106.4877 253.6168 14.79924899 37562
KUIPER-00232            
1 67148U 25301R   26230.93318153 -.00002097  00000+0 -24616-3 0  9994
2 67148  51.9001  68.2035 0000865 113.4678 246.6375 14.79929003 37756
KUIPER-00241            
1 67149U 25301S   26231.29380935  .00003216  00000+0  45053-3 0  9992
2 67149  51.9030  76.6234 0000930 115.7648 244.3410 14.79946321 38004
KUIPER-00245            
1 67150U 25301T   26231.28572197 -.00000544  00000+0 -42377-4 0  9996
2 67150  51.9044  84.1684 0000816  94.1232 265.9824 14.79929534 37561
KUIPER-00246            
1 67151U 25301U   26230.99799766  .00002881  00000+0  40668-3 0  9991
2 67151  51.8990  70.3836 0000794 108.0164 252.0885 14.79937184 37756
KUIPER-00247            
1 67152U 25301V   26230.94127441  .00002701  00000+0  38327-3 0  9992
2 67152  51.8957  60.5919 0000812 121.1202 238.9840 14.79926119 37865
KUIPER-00248            
1 67153U 25301W   26231.16272371  .00002233  00000+0  32158-3 0  9997
2 67153  51.8967  42.2500 0000055 259.1161 100.9795 14.79958406 38306
KUIPER-00249            
1 67154U 25301X   26231.21408857  .00003177  00000+0  44558-3 0  9999
2 67154  51.8993  56.9550 0000597 107.1003 253.0025 14.79932592 37933
KUIPER-00250            
1 67155U 25301Y   26230.89404847  .00002996  00000+0  42156-3 0  9998
2 67155  51.8986  73.3233 0001064 105.6543 254.4536 14.79965139 37710
KUIPER-00251            
1 67156U 25301Z   26230.70492457  .00002927  00000+0  41292-3 0  9997
2 67156  51.9006  61.7321 0000868 118.6503 241.4546 14.79921445 38018
KUIPER-00252            
1 67157U 25301AA  26230.83727979  .00001510  00000+0  22705-3 0  9997
2 67157  51.9010  63.5941 0000971 136.5314 223.5725 14.79923099 37810
KUIPER-00261            
1 67158U 25301AB  26230.99533217  .00003021  00000+0  42502-3 0  9991
2 67158  51.9015  72.9591 0000846 115.2702 244.8349 14.79940638 37699
KUIPER-00265            
1 67159U 25301AC  26230.81031484  .00001152  00000+0  18017-3 0  9999
2 67159  51.9016  88.7548 0000793 103.9729 256.1322 14.79929759 37498
KUIPER-00159            
1 67764U 26030A   26231.01127466  .00001872  00000+0  29618-3 0  9998
2 67764  51.9011 165.8129 0000628 160.2085 199.8900 14.76596024 29909
KUIPER-00160            
1 67765U 26030B   26231.01530231  .00021821  00000+0  58665-3 0  9997
2 67765  51.8794 154.3948 0004762 259.5306 100.5145 15.37818469 30067
KUIPER-00177            
1 67766U 26030C   26231.16236806  .00002523  00000+0  35973-3 0  9990
2 67766  51.8994 214.6715 0000669  44.6854 315.4162 14.79945450 29234
KUIPER-00178            
1 67767U 26030D   26231.19616979  .00002501  00000+0  35703-3 0  9994
2 67767  51.8989 214.5041 0000623  62.3645 297.7381 14.79930960 29241
KUIPER-00180            
1 67768U 26030E   26231.13401989  .00002360  00000+0  33840-3 0  9995
2 67768  51.8975 209.7759 0000705  54.5266 305.5762 14.79945891 29309
KUIPER-00197            
1 67769U 26030F   26231.15558766  .00003059  00000+0  43009-3 0  9998
2 67769  51.8979 189.6959 0000882  44.0826 316.0207 14.79936375 29582
KUIPER-00198            
1 67770U 26030G   26231.17590314  .00002829  00000+0  39994-3 0  9999
2 67770  51.8972 202.0833 0000721  67.1350 292.9689 14.79931068 29410
KUIPER-00199            
1 67771U 26030H   26231.05211217  .00019785  00000+0  54315-3 0  9992
2 67771  51.8809 156.0999 0008560 275.7622  84.2389 15.37213493 30049
KUIPER-00200            
1 67772U 26030J   26231.19203086 -.00000732  00000+0 -66985-4 0  9994
2 67772  51.8980 187.0535 0000846  76.8915 283.2142 14.79933721 29622
KUIPER-00203            
1 67773U 26030K   26231.15700677  .00002396  00000+0  34319-3 0  9990
2 67773  51.9052 219.7597 0000579  53.1857 306.9159 14.79935316 29163
KUIPER-00205            
1 67774U 26030L   26231.12722056  .00002686  00000+0  38122-3 0  9991
2 67774  51.9000 184.8020 0000869  61.0384 299.0665 14.79923425 29651
KUIPER-00208            
1 67775U 26030M   26231.13133070  .00002386  00000+0  34185-3 0  9997
2 67775  51.8968 212.2869 0001364  26.4748 333.6284 14.79944280 29262
KUIPER-00209            
1 67776U 26030N   26231.16777203  .00000806  00000+0  13466-3 0  9997
2 67776  51.8992 209.7216 0000423  31.0570 329.0418 14.79934815 29303
KUIPER-00213            
1 67777U 26030P   26231.47440338  .00002736  00000+0  38773-3 0  9990
2 67777  51.8950 205.8341 0000980  70.1533 289.9535 14.79943574 29389
KUIPER-00214            
1 67778U 26030Q   26231.17317668  .00002628  00000+0  37348-3 0  9994
2 67778  51.9001 204.6908 0000600  72.3112 287.7916 14.79938602 29374
KUIPER-00215            
1 67779U 26030R   26231.15287874  .00002034  00000+0  29570-3 0  9997
2 67779  51.8977 192.1378 0000913  48.5286 311.5755 14.79939051 29558
KUIPER-00218            
1 67780U 26030S   26231.17047681  .00002503  00000+0  35715-3 0  9990
2 67780  51.8970 207.1017 0000894  58.1563 301.9486 14.79936470 29346
KUIPER-00220            
1 67781U 26030T   26231.06237954  .00003138  00000+0  44038-3 0  9996
2 67781  51.8942 182.6097 0000901  85.0505 275.0560 14.79937561 29677
KUIPER-00222            
1 67782U 26030U   26231.14212435  .00002591  00000+0  36863-3 0  9992
2 67782  51.8974 202.3857 0000783  49.1028 311.0002 14.79947903 29400
KUIPER-00223            
1 67783U 26030V   26231.11642948  .00002857  00000+0  40341-3 0  9997
2 67783  51.9001 194.8018 0000827  49.0652 311.0382 14.79949080 29519
KUIPER-00225            
1 67784U 26030W   26231.11104149  .00002763  00000+0  39112-3 0  9994
2 67784  51.8969 199.9802 0000814  49.8804 310.2230 14.79949091 29438
KUIPER-00226            
1 67785U 26030X   26231.31090454  .00002219  00000+0  34692-3 0  9994
2 67785  51.8990 185.9601 0002818 286.7459  73.3192 14.76399248 29657
KUIPER-00259            
1 67786U 26030Y   26231.21232505  .00003027  00000+0  42586-3 0  9998
2 67786  51.8970 199.4342 0000768  56.4393 303.6642 14.79929763 29450
KUIPER-00260            
1 67787U 26030Z   26231.07997952  .00003284  00000+0  45934-3 0  9992
2 67787  51.9013 197.6214 0000760  34.0650 326.0361 14.79949676 29371
KUIPER-00262            
1 67788U 26030AA  26231.18128509  .00002982  00000+0  41998-3 0  9999
2 67788  51.8989 197.0935 0001154  25.3357 334.7662 14.79937442 29482
KUIPER-00266            
1 67789U 26030AB  26231.15023066  .00002658  00000+0  37757-3 0  9997
2 67789  51.8987 194.7241 0001069 353.6732   6.4217 14.79932017 29510
KUIPER-00268            
1 67790U 26030AC  26231.32174738  .00003310  00000+0  46277-3 0  9994
2 67790  51.9033 191.4966 0000897  50.4513 309.6528 14.79946632 29577
KUIPER-00270            
1 67791U 26030AD  26231.29875642  .00003491  00000+0  48661-3 0  9992
2 67791  51.8978 181.5623 0000712  74.2366 285.8675 14.79942344 29711
KUIPER-00274            
1 67792U 26030AE  26231.13940642  .00002666  00000+0  37861-3 0  9992
2 67792  51.9005 204.7729 0000851  35.6069 324.4950 14.79928328 29378
KUIPER-00275            
1 67793U 26030AF  26231.09342957  .00003177  00000+0  44541-3 0  9994
2 67793  51.8981 184.9769 0001074  40.6991 319.4051 14.79953315 29642
KUIPER-00276            
1 67794U 26030AG  26231.18936136  .00003168  00000+0  44447-3 0  9998
2 67794  51.8983 189.5341 0000960 323.0623  37.0273 14.79925941 29592
KUIPER-00279            
1 67795U 26030AH  26231.09882943  .00003118  00000+0  43760-3 0  9997
2 67795  51.9022 179.9723 0001271  23.6428 336.4592 14.79954913 29712
KUIPER-00131            
1 68573U 26072A   26231.16251405  .00002666  00000+0  37840-3 0  9998
2 68573  51.8999 277.1746 0000261  91.7321 268.3672 14.79949066 20447
KUIPER-00189            
1 68574U 26072B   26230.51826204  .00001871  00000+0  27441-3 0  9995
2 68574  51.8995 282.5042 0000199  80.3611 279.7374 14.79931804 20311
KUIPER-00192            
1 68575U 26072C   26230.42237015  .00002015  00000+0  29325-3 0  9996
2 68575  51.9006 277.9443 0000551  50.5491 309.5520 14.79925518 20372
KUIPER-00193            
1 68576U 26072D   26231.10845101 -.00000442  00000+0 -28983-4 0  9998
2 68576  51.9053 264.9465 0001512  48.1006 312.0085 14.79926356 20611
KUIPER-00194            
1 68577U 26072E   26231.53930932  .00002129  00000+0  30825-3 0  9992
2 68577  51.9013 270.5252 0000496  24.8468 335.2519 14.79930059 20577
KUIPER-00229            
1 68578U 26072F   26231.39887326  .00002239  00000+0  32273-3 0  9996
2 68578  51.9020 276.1307 0000267  39.8642 320.2340 14.79920140 20481
KUIPER-00230            
1 68579U 26072G   26230.42352651  .00026377  00000+0  69249-3 0  9990
2 68579  51.8758 235.3432 0001298 292.3467  67.7382 15.38446026 20965
KUIPER-00231            
1 68580U 26072H   26231.09088286 -.00004097  00000+0 -50817-3 0  9994
2 68580  51.8954 250.0706 0001757  39.8972 320.2119 14.79971535 20819
KUIPER-00234            
1 68581U 26072J   26231.37050449  .00002124  00000+0  30743-3 0  9999
2 68581  51.9008 271.2432 0000547  12.8837 347.2140 14.79938487 20541
KUIPER-00236            
1 68582U 26072K   26231.58336806 -.01365035  00000+0 -46773-1 0  9991
2 68582  51.8767 230.1345 0001001 260.1090 224.7234 15.32708936  3521
KUIPER-00244            
1 68583U 26072L   26231.07739511  .00001912  00000+0  27967-3 0  9990
2 68583  51.9007 262.5620 0000400 313.3487  46.7442 14.79941766 20643
KUIPER-00253            
1 68584U 26072M   26231.34480927  .00002079  00000+0  30158-3 0  9996
2 68584  51.9041 263.8956 0000343  69.0669 291.0330 14.79938171 20648
KUIPER-00254            
1 68585U 26072N   26231.57846934 -.00000263  00000+0 -55407-5 0  9997
2 68585  51.9029 265.3645 0001006 336.5110  23.5807 14.79927734 20647
KUIPER-00263            
1 68586U 26072P   26231.52714283  .00002035  00000+0  29577-3 0  9998
2 68586  51.9012 250.6576 0000403  37.1555 322.9435 14.79942141 20841
KUIPER-00269            
1 68587U 26072Q   26231.59195183  .00001903  00000+0  27861-3 0  9995
2 68587  51.8997 252.7833 0000545  33.9719 326.1279 14.79923299 20828
KUIPER-00272            
1 68588U 26072R   26231.40155746  .00002680  00000+0  38030-3 0  9990
2 68588  51.8972 273.5974 0000323  45.6472 314.4517 14.79946834 20510
KUIPER-00285            
1 68589U 26072S   26231.49066770  .00001979  00000+0  28851-3 0  9998
2 68589  51.9037 253.3010 0000958 307.7221  52.3655 14.79931388 20800
KUIPER-00286            
1 68590U 26072T   26231.56089117  .00002191  00000+0  31627-3 0  9990
2 68590  51.9006 250.4243 0000482  70.8000 289.3015 14.79930883 20855
KUIPER-00289            
1 68591U 26072U   26231.55276760  .00002205  00000+0  31804-3 0  9995
2 68591  51.8984 257.9482 0000425  36.6153 323.4839 14.79945809 20749
KUIPER-00290            
1 68592U 26072V   26231.59221371  .00001517  00000+0  24658-3 0  9992
2 68592  51.9017 257.1337 0000451 280.6577  79.4333 14.76448322 20763
KUIPER-00293            
1 68593U 26072W   26231.40694251  .00002504  00000+0  35731-3 0  9995
2 68593  51.8974 268.5738 0001130 275.5725  84.5108 14.79931923 20583
KUIPER-00294            
1 68594U 26072X   26231.08276518 -.00000237  00000+0 -20992-5 0  9990
2 68594  51.8986 257.5262 0000609  91.4821 268.6211 14.79929064 20717
KUIPER-00296            
1 68595U 26072Y   26231.58336806 -.00005262  00000+0 -66086-3 0  9998
2 68595  51.8994 237.8256 0000864 257.1372 331.2670 14.79986826  5848
KUIPER-00297            
1 68596U 26072Z   26231.57576558 -.00001135  00000+0 -11992-3 0  9999
2 68596  51.8997 267.8234 0001510  47.7882 312.3208 14.79928467 20615
KUIPER-00300            
1 68597U 26072AA  26231.07219237  .00001987  00000+0  29005-3 0  9990
2 68597  51.9033 267.5776 0001021 111.5726 248.5346 14.79870364 20570
KUIPER-00301            
1 68598U 26072AB  26231.58336806 -.00022810  00000+0 -24296-2 0  9995
2 68598  51.9503 234.4192 0005451 217.0590 117.5414 14.88212352  5885
KUIPER-00304            
1 68599U 26072AC  26231.58336806 -.00053972  00000+0 -75679-2 0  9990
2 68599  51.8989 236.0790 0001161 330.0335 349.4561 14.77286500  5526
KUIPER-00317            
1 68600U 26072AD  26231.11654448  .00001827  00000+0  26856-3 0  9991
2 68600  51.8983 257.3851 0000319  64.6305 295.4690 14.79931673 20719
KUIPER-00320            
1 68601U 26072AE  26231.51634086  .00004536  00000+0  62328-3 0  9996
2 68601  51.9024 260.6214 0000353  65.3295 294.7704 14.79955799 20703
KUIPER-00299            
1 68864U 26095A   26231.01423004  .00001812  00000+0  28851-3 0  9990
2 68864  51.9006 332.2439 0002152  31.0136 329.0951 14.76460247 16923
KUIPER-00353            
1 68865U 26095B   26230.44404520  .00002796  00000+0  39541-3 0  9999
2 68865  51.9012 320.3596 0000173 165.5067 194.5901 14.79950489 17049
KUIPER-00357            
1 68866U 26095C   26230.46972018  .00000113  00000+0  43745-4 0  9997
2 68866  51.9000 327.7501 0000261 157.2140 202.8834 14.79935034 16947
KUIPER-00364            
1 68867U 26095D   26230.70338517  .00002779  00000+0  39316-3 0  9993
2 68867  51.9050 329.2345 0000516 282.5239  77.5666 14.79953395 16940
KUIPER-00375            
1 68868U 26095E   26230.47511800  .00000947  00000+0  15320-3 0  9990
2 68868  51.9018 322.7260 0000821  91.4813 268.6243 14.79926309 17011
KUIPER-00433            
1 68869U 26095F   26230.59402292  .00002849  00000+0  40247-3 0  9997
2 68869  51.9018 337.1947 0000300 156.5335 203.5641 14.79939766 16827
KUIPER-00437            
1 68870U 26095G   26230.92440602  .00030734  00000+0  82709-3 0  9996
2 68870  51.8781 298.8190 0006334 164.3551 195.7632 15.37585269 17382
KUIPER-00448            
1 68871U 26095H   26231.63684776  .00001550  00000+0  25215-3 0  9991
2 68871  51.9053 321.7350 0001847 318.2244  41.8575 14.76291977 17124
KUIPER-00459            
1 68872U 26095J   26230.48320740  .00033475  00000+0  44067-2 0  9998
2 68872  51.9041 315.2490 0001965 124.7118 235.4030 14.79851553 17117
KUIPER-00468            
1 68873U 26095K   26231.62938981  .00001434  00000+0  23414-3 0  9992
2 68873  51.8991 306.9979 0001999 114.4096 245.7073 14.76586113 17337
KUIPER-00476            
1 68874U 26095L   26231.31012470  .00015528  00000+0  54999-3 0  9996
2 68874  51.8756 299.7744 0008402 163.4136 196.7124 15.29263603 17406
KUIPER-00478            
1 68875U 26095M   26231.49344584  .00001106  00000+0  17403-3 0  9996
2 68875  51.8996 313.2257 0000661   5.3761 354.7208 14.79926498 17233
KUIPER-00480            
1 68876U 26095N   26231.58336806  .00018046  00000+0  23991-2 0  9994
2 68876  51.9038 310.3334 0002122 132.3954 151.6598 14.79770341  5489
KUIPER-00482            
1 68877U 26095P   26231.51914233  .00003183  00000+0  44617-3 0  9999
2 68877  51.9022 320.6074 0001053 231.0675 129.0194 14.79946741 17132
KUIPER-00483            
1 68878U 26095Q   26231.64073447  .00009614  00000+0  12890-2 0  9999
2 68878  51.9026 332.5378 0002016 168.0105 192.0906 14.79909930 16974
KUIPER-00488            
1 68879U 26095R   26231.49075810  .00002803  00000+0  39640-3 0  9995
2 68879  51.9013 315.7441 0000144  48.6655 311.4320 14.79941058 17197
KUIPER-00489            
1 68880U 26095S   26231.58336806  .00016074  00000+0  21341-2 0  9995
2 68880  51.8969 307.8245 0000894  33.4919  57.5876 14.79902191  5397
KUIPER-00499            
1 68881U 26095T   26231.18957577  .00000312  00000+0  69910-4 0  9990
2 68881  51.9011 314.6184 0000239 231.1982 128.8959 14.79941452 17182
KUIPER-00500            
1 68882U 26095U   26231.64341705  .00000521  00000+0  97308-4 0  9996
2 68882  51.9038 330.0572 0000372 123.5018 236.5980 14.79931858 17019
KUIPER-00502            
1 68883U 26095V   26229.42908254  .00023650  00000+0  33635-2 0  9997
2 68883  51.9024 316.0694 0002780 116.7552 243.3694 14.76746118 17014
KUIPER-00503            
1 68884U 26095W   26230.66692348 -.00001069  00000+0 -11129-3 0  9997
2 68884  51.8998 331.8550 0000421 128.6977 231.4023 14.79936763 16904
KUIPER-00504            
1 68885U 26095X   26230.69260077  .00002915  00000+0  41110-3 0  9993
2 68885  51.9038 339.2635 0000305 127.0311 233.0680 14.79949387 16805
KUIPER-00505            
1 68886U 26095Y   26231.00726439  .00000591  00000+0  10642-3 0  9993
2 68886  51.9016 327.8737 0000039 119.6519 240.4447 14.79951405 16985
KUIPER-00507            
1 68887U 26095Z   26230.93373343  .00002834  00000+0  40030-3 0  9993
2 68887  51.9010 318.1896 0000685  66.1368 293.9666 14.79964379 17110
KUIPER-00511            
1 68888U 26095AA  26230.51967180  .00002701  00000+0  38321-3 0  9999
2 68888  51.8994 312.6355 0000606 236.9482 123.1422 14.79932491 17155
KUIPER-00512            
1 68889U 26095AB  26230.49810079  .00002724  00000+0  38614-3 0  9991
2 68889  51.9025 332.6278 0000263 106.7994 253.2997 14.79939786 16873
KUIPER-00519            
1 68890U 26095AC  26231.52184172  .00003086  00000+0  43361-3 0  9993
2 68890  51.9031 318.1632 0001708 119.0332 241.0802 14.79943203 17165
KUIPER-00521            
1 68891U 26095AD  26230.43961397  .00001759  00000+0  25953-3 0  9997
2 68891  51.9037 316.6418 0000471 110.8279 249.2734 14.79961720 17092
KUIPER-00524            
1 68892U 26095AE  26230.97953773  .00001339  00000+0  22111-3 0  9993
2 68892  51.8996 322.6416 0001798 215.1577 144.9266 14.76471049 17058
KUIPER-00370            
1 68919U 26098A   26231.04070836  .00003683  00000+0  51185-3 0  9992
2 68919  51.8981 140.0896 0000807  87.6079 272.4976 14.79933646 16799
KUIPER-00380            
1 68920U 26098B   26231.58336806  .00040202  00000+0  55268-2 0  9998
2 68920  51.8955 130.2748 0001340  68.4609 290.5330 14.77928204  5580
KUIPER-00386            
1 68921U 26098C   26231.58336806  .00034682  00000+0  45496-2 0  9996
2 68921  51.8975 132.8198 0001336 126.4266 128.7504 14.79982348  5833
KUIPER-00388            
1 68922U 26098D   26230.96778750  .00003152  00000+0  44209-3 0  9996
2 68922  51.9001 145.7002 0000794  93.5025 266.6028 14.79950913 16700
KUIPER-00405            
1 68923U 26098E   26231.46020023  .00003490  00000+0  48626-3 0  9998
2 68923  51.9006 140.8761 0002011 113.9818 246.1355 14.79957480 16819
KUIPER-00408            
1 68924U 26098F   26231.58336806  .00014614  00000+0  19372-2 0  9996
2 68924  51.8967 132.7505 0000998 110.3139 233.7586 14.80031939  5180
KUIPER-00409            
1 68925U 26098G   26231.15887337  .00003638  00000+0  50577-3 0  9997
2 68925  51.9014 139.7044 0001384 118.6546 241.4556 14.79945515 16809
KUIPER-00410            
1 68926U 26098H   26231.16160839  .00003689  00000+0  51281-3 0  9999
2 68926  51.8966 137.1824 0002086  62.3892 297.7282 14.79922803 16841
KUIPER-00412            
1 68927U 26098J   26231.58336806  .00036336  00000+0  47704-2 0  9994
2 68927  51.9011 127.8357 0001223  57.3942  77.5317 14.79926472  5794
KUIPER-00413            
1 68928U 26098K   26231.44316400  .00003159  00000+0  44309-3 0  9994
2 68928  51.8980 140.9373 0001804  81.7605 278.3562 14.79944558 16818
KUIPER-00414            
1 68929U 26098L   26230.99347792  .00002875  00000+0  40585-3 0  9998
2 68929  51.8963 153.0165 0002386  46.5349 313.5811 14.79948283 16609
KUIPER-00415            
1 68930U 26098M   26231.14748784  .00003411  00000+0  47562-3 0  9993
2 68930  51.9005 134.7571 0000660  98.0223 262.0815 14.79983852 16874
KUIPER-00416            
1 68931U 26098N   26231.58336806  .00023536  00000+0  25202-2 0  9996
2 68931  51.8983 124.4079 0001067  60.2596 261.2770 14.88571521  3507
KUIPER-00420            
1 68932U 26098P   26231.58336806 -.00034928  00000+0 -38780-2 0  9991
2 68932  51.8956 125.3858 0003392   5.3602  59.7232 14.86758959  5497
KUIPER-00421            
1 68933U 26098Q   26231.58336806  .00006265  00000+0  83162-3 0  9998
2 68933  51.8997 130.2789 0002905  38.7545 108.3548 14.80862932  5667
KUIPER-00425            
1 68934U 26098R   26231.00691368 -.00001963  00000+0 -22846-3 0  9997
2 68934  51.8981 140.3750 0000803 129.6725 230.4309 14.79939897 16786
KUIPER-00430            
1 68935U 26098S   26231.47692264  .00003088  00000+0  43395-3 0  9995
2 68935  51.9024 140.6847 0001794  72.7384 287.3775 14.79930882 16823
KUIPER-00431            
1 68936U 26098T   26231.00152513  .00000068  00000+0  37979-4 0  9990
2 68936  51.9006 145.3899 0001333  98.8400 261.2713 14.79935869 16711
KUIPER-00432            
1 68937U 26098U   26231.00962637 -.00002729  00000+0 -32907-3 0  9990
2 68937  51.8995 137.7483 0000719  84.1951 275.9093 14.79945509 16825
KUIPER-00434            
1 68938U 26098V   26231.45946801  .00013884  00000+0  19994-2 0  9997
2 68938  51.8997 139.0724 0001563  72.1044 288.0088 14.76544973 16847
KUIPER-00436            
1 68939U 26098W   26231.46275243  .00001385  00000+0  21058-3 0  9992
2 68939  51.8993 138.3593 0001163  94.6521 265.4574 14.79947047 16857
KUIPER-00438            
1 68940U 26098X   26231.46545167 -.00001673  00000+0 -19049-3 0  9998
2 68940  51.9014 135.8622 0000461 102.9620 257.1394 14.79935817 16885
KUIPER-00439            
1 68941U 26098Y   26231.04324506  .00003616  00000+0  50211-3 0  9998
2 68941  51.9026 137.7171 0000440 117.9887 242.1120 14.80012068 16828
KUIPER-00440            
1 68942U 26098Z   26231.58336806  .00012345  00000+0  14611-2 0  9996
2 68942  51.8974 127.9246 0002450  26.2422 149.1359 14.84900889  4934
KUIPER-00442            
1 68943U 26098AA  26231.58336806  .00032947  00000+0  46974-2 0  9994
2 68943  51.9002 129.7548 0001597  55.0579 133.8380 14.76471838  5255
KUIPER-00446            
1 68944U 26098AB  26231.43429176  .00014823  00000+0  19645-2 0  9990
2 68944  51.8985 133.4990 0002182 158.9990 201.1063 14.80032130 16914
KUIPER-00451            
1 68945U 26098AC  26231.49113946  .00003403  00000+0  47507-3 0  9993
2 68945  51.8993 143.2300 0001082  73.4253 286.6828 14.79940228 16785
KUIPER-00452            
1 68946U 26098AD  26231.43697942 -.00004432  00000+0 -55263-3 0  9994
2 68946  51.9011 130.9768 0000899   1.6254 358.4711 14.79940304 16951
KUIPER-00453            
1 68947U 26098AE  26231.58336806  .00018342  00000+0  24205-2 0  9994
2 68947  51.8968 127.7595 0003803  49.2244 266.1418 14.80069225  5435
KUIPER-00454            
1 68948U 26098AF  26231.44903059  .00002791  00000+0  42739-3 0  9994
2 68948  51.8995 145.3247 0002203 260.8041  99.2671 14.76506378 16758
KUIPER-00455            
1 68949U 26098AG  26230.98464820  .00003476  00000+0  48442-3 0  9999
2 68949  51.9008 145.4724 0002757  38.3562 321.7596 14.79960803 16711
KUIPER-00458            
1 68950U 26098AH  26231.58336806  .00040212  00000+0  55078-2 0  9991
2 68950  51.8993 127.8075 0000780 291.8930 132.0486 14.78084268  4288
KUIPER-00282            
1 69267U 26118A   26231.38032102  .00001440  00000+0  21778-3 0  9997
2 69267  51.8952 121.2120 0001584  95.5409 264.5734 14.79942146 13519
KUIPER-00383            
1 69268U 26118B   26231.39996424  .00003283  00000+0  45959-3 0  9999
2 69268  51.8972 118.6416 0000467  77.5308 282.5707 14.79919136 13554
KUIPER-00527            
1 69269U 26118C   26230.89344512  .00000198  00000+0  55009-4 0  9999
2 69269  51.8978 121.0133 0000362  76.0972 284.0030 14.79923859 13474
KUIPER-00562            
1 69270U 26118D   26231.58336806 -.00002743  00000+0 -24777-3 0  9992
2 69270  51.8917 110.5533 0002186 329.5552  77.7855 14.91380037  5924
KUIPER-00570            
1 69271U 26118E   26231.42830768  .00003551  00000+0  49449-3 0  9991
2 69271  51.8997 123.6140 0000805  71.0704 289.0346 14.79935593 13477
KUIPER-00572            
1 69272U 26118F   26231.40862992  .00001880  00000+0  29744-3 0  9993
2 69272  51.8999 118.5067 0001387  48.2953 311.8126 14.76566817 13554
KUIPER-00581            
1 69273U 26118G   26231.54646573  .00000782  00000+0  13164-3 0  9993
2 69273  51.9025 122.9873 0003007  88.7714 271.3593 14.79931672 13595
KUIPER-00584            
1 69274U 26118H   26231.66195194  .00002797  00000+0  39581-3 0  9994
2 69274  51.9011 125.0897 0001101 104.0958 256.0127 14.79933177 13489
KUIPER-00587            
1 69275U 26118J   26231.07090552  .00001667  00000+0  26732-3 0  9991
2 69275  51.9008 117.4804 0000395 177.7470 182.3493 14.76557382 13540
KUIPER-00590            
1 69276U 26118K   26231.07640106  .00003249  00000+0  45513-3 0  9994
2 69276  51.9021 122.5735 0001628  73.7725 286.3416 14.79919276 13473
KUIPER-00592            
1 69277U 26118L   26230.90343472  .00001732  00000+0  27699-3 0  9992
2 69277  51.9041 122.9988 0001696   4.8422 355.2555 14.76480976 13459
KUIPER-00593            
1 69278U 26118M   26231.58336806 -.01592632  00000+0 -63786-1 0  9993
2 69278  51.8759 106.5719 0003589  43.4968  65.9139 15.27659484  5523
KUIPER-00594            
1 69279U 26118N   26231.58336806 -.01879641  00000+0 -16291+0 0  9999
2 69279  51.8921 108.4012 0002325 292.3762 343.4007 15.00545313  4833
KUIPER-00595            
1 69280U 26118P   26231.58336806 -.01174627  00000+0 -46350-1 0  9994
2 69280  51.8728 106.6440 0000422 190.2256 271.3309 15.27752163  5292
KUIPER-00596            
1 69281U 26118Q   26230.96976223 -.00000850  00000+0 -82522-4 0  9998
2 69281  51.9012 128.0411 0000953 114.2263 245.8799 14.79938698 13382
KUIPER-00597            
1 69282U 26118R   26231.58336806 -.02115427  00000+0 -11172+0 0  9992
2 69282  51.8752 107.2505 0007294  30.7360  85.8604 15.18800448  4923
KUIPER-00599            
1 69283U 26118S   26231.58336806  .00034538  00000+0  45369-2 0  9990
2 69283  51.8992 115.2414 0001505 112.5456 131.2368 14.79927223  5552
KUIPER-00600            
1 69284U 26118T   26231.58336806 -.00303965  00000+0 -16126-1 0  9994
2 69284  51.8797 107.7475 0007034  42.7549 235.2191 15.16287817  5008
KUIPER-00601            
1 69285U 26118U   26231.58336806  .00045294  00000+0  59269-2 0  9997
2 69285  51.9001 120.3254 0000246  67.0703  24.8118 14.79957215  5739
KUIPER-00602            
1 69286U 26118V   26231.58336806  .00036213  00000+0  47509-2 0  9993
2 69286  51.8995 112.7399 0002167 117.0316 292.3436 14.79956711  5652
KUIPER-00603            
1 69287U 26118W   26231.58336806  .00040226  00000+0  52834-2 0  9990
2 69287  51.9019 115.3238 0000552  51.2476 282.3140 14.79858217  5411
KUIPER-00605            
1 69288U 26118X   26230.90492435  .00003271  00000+0  45766-3 0  9993
2 69288  51.8984 125.8170 0000446 132.1025 227.9975 14.79954432 13410
KUIPER-00606            
1 69289U 26118Y   26231.36870818 -.00004364  00000+0 -54306-3 0  9996
2 69289  51.9003 116.2739 0001198 135.6658 224.4401 14.79982904 13583
KUIPER-00607            
1 69290U 26118Z   26231.58336806 -.02363618  00000+0 -13505+0 0  9990
2 69290  51.8755 107.3578 0006266  23.1083  82.9820 15.15897740  5468
KUIPER-00608            
1 69291U 26118AA  26231.58336806 -.01082567  00000+0 -68295-1 0  9999
2 69291  51.8738 109.5763 0009683  54.8311  26.3415 15.11406991  5632
KUIPER-00610            
1 69292U 26118AB  26231.58336806  .00035022  00000+0  49918-2 0  9993
2 69292  51.8999 112.7141 0002543 106.2532 180.1365 14.76453202  4294
KUIPER-00613            
1 69293U 26118AC  26231.66463839  .00003266  00000+0  45688-3 0  9996
2 69293  51.9000 122.4686 0001092 113.4595 246.6483 14.79959665 13520
KUIPER-00618            
1 69294U 26118AD  26231.58336806 -.00035018  00000+0 -35918-2 0  9997
2 69294  51.8959 110.4687 0002874  22.3125 304.2946 14.89957606  5921
KUIPER-00620            
1 69295U 26118AE  26231.58336806  .00007600  00000+0  99498-3 0  9996
2 69295  51.9020 112.8406 0001671 164.1360 150.8457 14.81183873  5681
KUIPER-00423            
1 69592U 26140A   26231.32564103  .00351849  00000+0  88615-2 0  9991
2 69592  51.8793  92.9294 0012954  24.4291 335.7308 15.37917374 10955
KUIPER-00428            
1 69593U 26140B   26231.32832802  .00029984  00000+0  81418-3 0  9993
2 69593  51.8793  93.6800 0006947 145.6663 214.4774 15.37316386 10946
KUIPER-00481            
1 69594U 26140C   26231.58336806 -.01970571  00000+0 -89190-1 0  9998
2 69594  51.8824  92.4581 0010311  43.6588 289.1833 15.23711259  5805
KUIPER-00490            
1 69595U 26140D   26231.58336806  .00010730  00000+0  10153-2 0  9992
2 69595  51.8909  95.6889 0004400  57.0048 192.4766 14.94095432  5309
KUIPER-00493            
1 69596U 26140E   26231.58336806  .00033941  00000+0  44603-2 0  9999
2 69596  51.9021 100.3254 0001859 159.8717 177.4020 14.79918527  4706
KUIPER-00496            
1 69597U 26140F   26231.13404479 -.00027735  00000+0 -90203-3 0  9997
2 69597  51.8774  96.0789 0010716 158.3402 201.8037 15.31004374 10894
KUIPER-00513            
1 69598U 26140G   26231.58336806 -.01223949  00000+0 -12313+0 0  9993
2 69598  51.9327  95.6485 0004940 105.1865  46.4724 14.93864735  5929
KUIPER-00516            
1 69599U 26140H   26231.23347551  .00029601  00000+0  78303-3 0  9996
2 69599  51.8782  93.7913 0007568 118.1745 242.0008 15.38127529 10938
KUIPER-00517            
1 69600U 26140J   26230.89205701  .00027919  00000+0  75921-3 0  9993
2 69600  51.8772  95.2505 0010451  60.8632 299.3399 15.37280310 10886
KUIPER-00520            
1 69601U 26140K   26231.58336806  .00010554  00000+0  10994-2 0  9997
2 69601  51.8978  97.1658 0005032 162.0953 323.5792 14.90258979  5633
KUIPER-00522            
1 69602U 26140L   26231.21934447  .00042872  00000+0  11994-2 0  9992
2 69602  51.8805  93.7043 0016177  27.9882 332.1971 15.36109847 10939
KUIPER-00528            
1 69603U 26140M   26231.58336806 -.00088907  00000+0 -10831-1 0  9997
2 69603  51.9189  97.8847 0003806 113.4096 275.2488 14.83449310  4404
KUIPER-00532            
1 69604U 26140N   26230.88458900  .00023860  00000+0  65630-3 0  9994
2 69604  51.8788  95.9400 0005414 155.7631 204.3612 15.37051751 10872
KUIPER-00533            
1 69605U 26140P   26231.58336806 -.02346532  00000+0 -17367+0 0  9991
2 69605  51.8923  93.8651 0007383  68.6498 253.0572 15.06606831  4790
KUIPER-00534            
1 69606U 26140Q   26231.23414448 -.00000636  00000+0 -73432-5 0  9994
2 69606  51.8793  93.8111 0013160  26.9709 333.1958 15.34407650 10939
KUIPER-00537            
1 69607U 26140R   26231.58336806  .00029641  00000+0  42233-2 0  9991
2 69607  51.8995  99.9639 0002880 116.9793 189.5484 14.76550917  5498
KUIPER-00538            
1 69608U 26140S   26231.58336806  .00001141  00000+0  16882-3 0  9999
2 69608  51.8999  97.6673 0001275  67.4091 309.4286 14.82456326  4852
KUIPER-00540            
1 69609U 26140T   26230.99848874  .00025897  00000+0  69864-3 0  9999
2 69609  51.8798  95.2279 0006461 141.6467 218.4980 15.37600431 10890
KUIPER-00541            
1 69610U 26140U   26231.58336806  .00049720  00000+0  13419-2 0  9999
2 69610  51.8813  91.8341 0008614  82.9586 195.4294 15.37253073  4940
KUIPER-00542            
1 69611U 26140V   26231.58336806  .00049995  00000+0  13541-2 0  9990
2 69611  51.8779  91.7973 0008752  69.0564 215.8449 15.37138338  5101
KUIPER-00543            
1 69612U 26140W   26231.33844649  .00026849  00000+0  73959-3 0  9996
2 69612  51.8783  93.7277 0007538 152.2591 207.8799 15.36926563 10943
KUIPER-00544            
1 69613U 26140X   26231.58336806  .00047042  00000+0  12716-2 0  9996
2 69613  51.8783  91.8546 0006807  84.8413 172.1400 15.37242717  5415
KUIPER-00546            
1 69614U 26140Y   26230.93565184  .01464796  00000+0  31897-1 0  9998
2 69614  51.8798  94.8062 0015789 327.8439  32.1585 15.40673742 10892
KUIPER-00547            
1 69615U 26140Z   26231.34370160  .00037141  00000+0  96654-3 0  9996
2 69615  51.8804  93.0527 0011627  55.7480 304.4607 15.38479285 10958
KUIPER-00549            
1 69616U 26140AA  26230.99101259  .00030654  00000+0  82447-3 0  9995
2 69616  51.8783  95.1612 0007689 138.6871 221.4699 15.37594794 10895
KUIPER-00550            
1 69617U 26140AB  26231.00718313  .00008842  00000+0  32216-3 0  9997
2 69617  51.8795  97.4625 0008214 176.6317 183.4723 15.28923564 10863
KUIPER-00551            
1 69618U 26140AC  26231.00200145  .00034436  00000+0  91045-3 0  9990
2 69618  51.8785  94.4971 0012228  42.6711 317.5224 15.38022301 10905
KUIPER-00554            
1 69619U 26140AD  26231.14282520  .00045824  00000+0  11873-2 0  9996
2 69619  51.8833  93.9393 0012491  43.0903 317.1060 15.38505192 10922
KUIPER-00555            
1 69620U 26140AE  26231.33927325  .00030160  00000+0  78835-3 0  9997
2 69620  51.8820  93.0257 0011353  44.1161 316.0730 15.38450421 10953
KUIPER-00556            
1 69621U 26140AF  26231.58336806 -.00830154  00000+0 -31645-1 0  9992
2 69621  51.8835  92.0179 0012643  29.1309 175.0220 15.28678346  5905
KUIPER-00557            
1 69622U 26140AG  26230.83475633  .00025170  00000+0  66862-3 0  9995
2 69622  51.8809  95.6353 0010864  55.6970 304.5044 15.38059164 10878
KUIPER-00560            
1 69623U 26140AH  26230.90746811  .00036411  00000+0  10046-2 0  9995
2 69623  51.8766  95.3546 0010205  80.5651 279.6489 15.36696758 10884
KUIPER-00561            
1 69624U 26140AJ  26231.58336806  .00027101  00000+0  18837-2 0  9992
2 69624  51.8882  93.8697 0007778  57.5019   0.3731 15.05305625  5651
KUIPER-00564            
1 69625U 26140AK  26231.58336806 -.01975342  00000+0 -10062+0 0  9994
2 69625  51.8861  92.8292 0008770  59.4005 122.6823 15.19760221  5414
KUIPER-00567            
1 69626U 26140AL  26231.58336806 -.00112482  00000+0 -41823-2 0  9994
2 69626  51.8829  91.9461 0011525  27.3849 173.1129 15.27344667  2934
KUIPER-00573            
1 69627U 26140AM  26231.58336806 -.02053800  00000+0 -11411+0 0  9992
2 69627  51.8887  92.7646 0011463  37.5433 113.8352 15.16876438  5606
KUIPER-00258            
1 69763U 26151A   26231.51081244  .00001983  00000+0  72665-4 0  9995
2 69763  51.8702  10.6314 0011874 305.0851  54.9020 15.33070339  7432
KUIPER-00526            
1 69764U 26151B   26231.58336806 -.00052338  00000+0 -67497-2 0  9997
2 69764  51.8996  15.4115 0002139 153.4216 142.6379 14.80790635  4735
KUIPER-00558            
1 69765U 26151C   26231.58336806 -.00057095  00000+0 -67595-2 0  9992
2 69765  51.8995  15.4022 0003441 326.4870 114.4252 14.84374919  4450
KUIPER-00569            
1 69766U 26151D   26231.58336806 -.00038372  00000+0 -36327-2 0  9999
2 69766  51.8977  13.1364 0004815 308.0490 236.0163 14.93177263  3651
KUIPER-00589            
1 69767U 26151E   26231.58336806 -.00056021  00000+0 -77224-2 0  9992
2 69767  51.9037  15.1404 0001088 307.2692 217.9948 14.78028670  5247
KUIPER-00598            
1 69768U 26151F   26231.58336806 -.02106551  00000+0 -10392+0 0  9999
2 69768  51.8739  10.7082 0007002 303.5857 254.3300 15.21109174  5833
KUIPER-00604            
1 69769U 26151G   26231.58336806 -.00916463  00000+0 -71500-1 0  9999
2 69769  51.9056  10.9101 0001837 307.6059 133.3724 15.03709500  4744
KUIPER-00609            
1 69770U 26151H   26231.58336806 -.00016339  00000+0 -80597-3 0  9992
2 69770  51.8914   9.8292 0001778  19.5717 244.9971 15.16848235  5310
KUIPER-00611            
1 69771U 26151J   26231.58336806 -.01151231  00000+0 -89182-1 0  9992
2 69771  51.8943  11.4127 0001967 325.4717 328.6087 15.04174358  4523
KUIPER-00612            
1 69772U 26151K   26231.58336806 -.00908419  00000+0 -90673-1 0  9997
2 69772  51.9328  13.0708 0001954 351.6012 161.8470 14.93801470  4791
KUIPER-00614            
1 69773U 26151L   26231.58336806 -.01061976  00000+0 -87516-1 0  9999
2 69773  51.8946  11.4311 0004476 330.6412 167.5779 15.01592179  4880
KUIPER-00615            
1 69774U 26151M   26231.58336806 -.00053694  00000+0 -69228-2 0  9998
2 69774  51.9033  14.7264 0002800 103.4190  23.2667 14.80813142  5641
KUIPER-00616            
1 69775U 26151N   26230.80502460  .00027208  00000+0  74065-3 0  9990
2 69775  51.8813  12.7295 0002201 279.4060  80.6678 15.37308085  7340
KUIPER-00617            
1 69776U 26151P   26231.58336806 -.00802242  00000+0 -30900-1 0  9995
2 69776  51.8839   9.2699 0004903 274.6697 276.8220 15.28357971  5430
KUIPER-00619            
1 69777U 26151Q   26231.58336806 -.01238131  00000+0 -73162-1 0  9994
2 69777  51.8893  10.0288 0002079 309.4455 188.9667 15.14208737  4400
KUIPER-00621            
1 69778U 26151R   26231.58336806 -.01285967  00000+0 -10079+0 0  9990
2 69778  51.9096  11.2500 0001889  19.6048 308.5207 15.03579589  5374
KUIPER-00622            
1 69779U 26151S   26231.58336806 -.00052277  00000+0 -61881-2 0  9996
2 69779  51.9009  13.6999 0006525 310.0733 194.9004 14.84323719  4852
KUIPER-00623            
1 69780U 26151T   26231.58336806 -.00102607  00000+0 -11067-1 0  9991
2 69780  51.8990  12.6922 0008511 304.6491 256.3801 14.88483980  5371
KUIPER-00626            
1 69781U 26151U   26231.58336806 -.01831800  00000+0 -93291-1 0  9996
2 69781  51.8820  10.6961 0007811 316.5885 281.8594 15.19524708  5872
KUIPER-00627            
1 69782U 26151V   26230.87739154  .00024674  00000+0  81207-3 0  9997
2 69782  51.8718  13.8903 0008584 303.4942  56.5221 15.31330765  7336
KUIPER-00629            
1 69783U 26151W   26231.58336806 -.00029558  00000+0 -38641-2 0  9995
2 69783  51.9026  17.7650 0001037  55.5913 347.2704 14.79945355  4859
KUIPER-00631            
1 69784U 26151X   26231.58336806 -.00001584  00000+0 -17954-3 0  9990
2 69784  51.9016  17.8261 0001337 122.0519 191.2061 14.79777783  5147
KUIPER-00634            
1 69785U 26151Y   26231.58336806 -.00089650  00000+0 -91533-2 0  9995
2 69785  51.8972  13.1216 0005425 339.3175  72.9975 14.90617014  5894
KUIPER-00639            
1 69786U 26151Z   26230.78065210  .00019422  00000+0  60124-3 0  9996
2 69786  51.8711  13.9982 0008824 284.8976  75.1032 15.33442416  7322
KUIPER-00641            
1 69787U 26151AA  26230.81563217  .00030672  00000+0  98424-3 0  9995
2 69787  51.8711  14.2192 0012570 301.5574  58.4183 15.31986320  7320
KUIPER-00644            
1 69788U 26151AB  26231.11683879  .00021676  00000+0  60000-3 0  9990
2 69788  51.8763  11.7876 0008735 299.1372  60.8740 15.36893535  7376
KUIPER-00646            
1 69789U 26151AC  26231.19320782 -.00266689  00000+0 -92579-2 0  9992
2 69789  51.8742  12.2597 0009322 284.6052  75.3898 15.30317167  7389
KUIPER-00647            
1 69790U 26151AD  26230.81262950  .00010398  00000+0  35178-3 0  9999
2 69790  51.8679  14.1945 0011271 295.9666  64.0156 15.31128387  7321
KUIPER-00662            
1 69791U 26151AE  26231.58336806 -.00076487  00000+0 -10812-1 0  9996
2 69791  51.9024  17.2341 0004407 113.1857 324.3913 14.77125997  5859
