IRIDIUM 106             
1 41917U 17003A   26235.00350018  .00000061  00000+0  14708-4 0  9998
2 41917  86.3915  60.6008 0002368  82.9195 277.2270 14.34217768502781
IRIDIUM 103             
1 41918U 17003B   26235.26988667  .00000061  00000+0  14708-4 0  9994
2 41918  86.3915  60.3888 0002279  93.3734 266.7722 14.34217579502843
IRIDIUM 109             
1 41919U 17003C   26234.92739017  .00000061  00000+0  14791-4 0  9992
2 41919  86.3916  60.5929 0002192  90.5142 269.6305 14.34217634502761
IRIDIUM 102             
1 41920U 17003D   26234.96544263  .00000053  00000+0  12004-4 0  9991
2 41920  86.3916  60.4991 0002179  88.2859 271.8587 14.34217143502857
IRIDIUM 105             
1 41921U 17003E   26234.43566008 -.00000022  00000+0 -14949-4 0  9993
2 41921  86.3965  29.1568 0001900  98.6817 261.4594 14.34217148504630
IRIDIUM 104             
1 41922U 17003F   26234.97813986  .00000064  00000+0  15959-4 0  9999
2 41922  86.3916  60.5373 0002127  97.6531 262.4907 14.34218463502845
IRIDIUM 114             
1 41923U 17003G   26235.26354249  .00000132  00000+0  39902-4 0  9995
2 41923  86.3916  60.4009 0002210  92.8462 267.2987 14.34217177502868
IRIDIUM 108             
1 41924U 17003H   26235.15229702  .00000100  00000+0  28814-4 0  9994
2 41924  86.3962  28.7432 0002085  92.2496 267.8939 14.34217619504707
IRIDIUM 112             
1 41925U 17003J   26235.25085885  .00000067  00000+0  16852-4 0  9999
2 41925  86.3911  60.2450 0002123  91.1670 268.9769 14.34218072502882
IRIDIUM 111             
1 41926U 17003K   26234.74979510  .00000062  00000+0  15009-4 0  9998
2 41926  86.3914  60.5270 0002200  89.2928 270.8519 14.34217876502795
IRIDIUM 113             
1 42803U 17039A   26234.65999062  .00000016  00000+0 -14176-5 0  9991
2 42803  86.3961 294.4004 0002248  97.0451 263.1001 14.34217724480715
IRIDIUM 123             
1 42804U 17039B   26235.18984967  .00000004  00000+0 -55510-5 0  9993
2 42804  86.4010 325.6435 0002283  93.8954 266.2503 14.34217482479550
IRIDIUM 120             
1 42805U 17039C   26235.14202766  .00000020  00000+0  19144-6 0  9991
2 42805  86.3948 293.9725 0002345  91.2672 268.8793 14.34217688480770
IRIDIUM 115             
1 42806U 17039D   26235.16149199  .00000080  00000+0  17841-4 0  9990
2 42806  86.4487 294.1023 0002503  93.4495 266.6992 14.43280093483924
IRIDIUM 118             
1 42807U 17039E   26234.66341414 -.00000007  00000+0 -95657-5 0  9992
2 42807  86.4010 325.8609 0002170  93.1270 267.0174 14.34217694479476
IRIDIUM 117             
1 42808U 17039F   26234.96151570  .00000004  00000+0 -58066-5 0  9997
2 42808  86.4009 325.6936 0002213  95.5113 264.6336 14.34217613479548
IRIDIUM 126             
1 42809U 17039G   26234.63804365  .00000010  00000+0 -34821-5 0  9999
2 42809  86.4011 325.8810 0002190  98.2884 261.8560 14.34217573479479
IRIDIUM 124             
1 42810U 17039H   26234.81798341  .00000235  00000+0  63773-4 0  9992
2 42810  86.4439 262.4922 0002404  92.6802 267.4674 14.43277910484724
IRIDIUM 128             
1 42811U 17039J   26234.41947527  .00000067  00000+0  16750-4 0  9997
2 42811  86.4014 357.4632 0002257  90.7882 269.3572 14.34218268479475
IRIDIUM 121             
1 42812U 17039K   26235.21521974 -.00000030  00000+0 -17933-4 0  9997
2 42812  86.4012 325.6684 0002105  93.2572 266.8864 14.34217310479433
IRIDIUM 133             
1 42955U 17061A   26234.80003103  .00000022  00000+0  86207-6 0  9994
2 42955  86.4016 357.4234 0002213  92.9551 267.1898 14.34217874464320
IRIDIUM 100             
1 42956U 17061B   26235.28206828  .00000009  00000+0 -39201-5 0  9994
2 42956  86.4013 357.1396 0002062  93.2107 266.9324 14.34217559464395
IRIDIUM 122             
1 42957U 17061C   26235.32012421 -.00000007  00000+0 -96523-5 0  9993
2 42957  86.4014 357.1242 0002148  95.5515 264.5926 14.34217468464403
IRIDIUM 129             
1 42958U 17061D   26235.27572509  .00000186  00000+0  59376-4 0  9996
2 42958  86.4017 357.2101 0002079  99.1486 260.9945 14.34217680464410
IRIDIUM 119             
1 42959U 17061E   26235.31378142 -.00000013  00000+0 -11544-4 0  9995
2 42959  86.4015 357.1907 0002141  96.3139 263.8301 14.34217535464435
IRIDIUM 107             
1 42960U 17061F   26235.26304126  .00000055  00000+0  12538-4 0  9990
2 42960  86.4016 357.2333 0002439  93.4555 266.6920 14.34217848464437
IRIDIUM 132             
1 42961U 17061G   26235.26937903  .00000194  00000+0  62051-4 0  9995
2 42961  86.4017 357.2096 0002261 100.3290 259.8161 14.34221111464431
IRIDIUM 136             
1 42962U 17061H   26234.74294728  .00000100  00000+0  28813-4 0  9994
2 42962  86.4015 357.4363 0002144  93.0251 267.1191 14.34216999464370
IRIDIUM 139             
1 42963U 17061J   26235.30743876  .00000027  00000+0  27203-5 0  9992
2 42963  86.4017 357.2635 0002205  91.9226 268.2223 14.34217789464466
IRIDIUM 125             
1 42964U 17061K   26235.29475435 -.00000056  00000+0 -27094-4 0  9995
2 42964  86.4017 357.3314 0002467 102.0021 258.1452 14.34217319464471
IRIDIUM 135             
1 43070U 17083A   26235.12934255  .00000004  00000+0 -56915-5 0  9997
2 43070  86.3953 294.0364 0002169  95.0158 265.1286 14.34217488453749
IRIDIUM 138             
1 43071U 17083B   26235.01517583  .00000035  00000+0  54554-5 0  9997
2 43071  86.3968 293.7899 0002310  97.4563 262.6895 14.34217798453718
IRIDIUM 116             
1 43072U 17083C   26235.05323145  .00000022  00000+0  85604-6 0  9998
2 43072  86.3953 294.0534 0002218  86.6295 273.5155 14.34217645453757
IRIDIUM 130             
1 43073U 17083D   26235.16105603  .00000019  00000+0 -15014-6 0  9993
2 43073  86.3963 294.2904 0002452  89.9080 270.2397 14.34217650453714
IRIDIUM 151             
1 43074U 17083E   26235.13568544  .00000013  00000+0 -24129-5 0  9998
2 43074  86.3956 294.0784 0002277  92.6827 267.4629 14.34217566453730
IRIDIUM 134             
1 43075U 17083F   26235.17374087  .00000010  00000+0 -36158-5 0  9992
2 43075  86.3955 294.0715 0002214  92.9036 267.2414 14.34217525453702
IRIDIUM 137             
1 43076U 17083G   26235.11665665  .00000026  00000+0  23939-5 0  9991
2 43076  86.3960 294.1896 0002027  86.3539 273.7888 14.34217762453763
IRIDIUM 141             
1 43077U 17083H   26235.11031433  .00000062  00000+0  14907-4 0  9996
2 43077  86.3954 294.0191 0002278  96.0184 264.1272 14.34217973453761
IRIDIUM 153             
1 43078U 17083J   26235.06249316  .00000029  00000+0  31313-5 0  9996
2 43078  86.3915 262.5047 0002378  95.3656 264.7811 14.34217685454863
IRIDIUM 131             
1 43079U 17083K   26235.09762957  .00000168  00000+0  52811-4 0  9990
2 43079  86.3960 294.2147 0002200  95.7109 264.4338 14.34217687453691
IRIDIUM 144             
1 43249U 18030A   26234.85951991  .00000129  00000+0  38892-4 0  9993
2 43249  86.3913 262.5170 0002318  89.3035 270.8427 14.34221753439692
IRIDIUM 149             
1 43250U 18030B   26234.79610439  .00000040  00000+0  71817-5 0  9994
2 43250  86.3912 262.5099 0002296  93.3210 266.8248 14.34217682439702
IRIDIUM 157             
1 43251U 18030C   26235.02443747  .00000032  00000+0  44260-5 0  9991
2 43251  86.3915 262.4691 0002316  91.8968 268.2493 14.34217791439719
IRIDIUM 140             
1 43252U 18030D   26235.32253896  .00000049  00000+0  10548-4 0  9998
2 43252  86.3914 262.3568 0002354  91.6395 268.5071 14.34217933439819
IRIDIUM 145             
1 43253U 18030E   26235.03078029  .00000063  00000+0  15483-4 0  9999
2 43253  86.3915 262.4510 0002395  85.0696 275.0773 14.34217968439703
IRIDIUM 146             
1 43254U 18030F   26235.08152026  .00000026  00000+0  21828-5 0  9995
2 43254  86.3913 262.4416 0002338  89.3312 270.8152 14.34217783439727
IRIDIUM 148             
1 43255U 18030G   26234.98003891  .00000036  00000+0  57334-5 0  9991
2 43255  86.3916 262.5284 0002179  91.7232 268.4213 14.34217761439745
IRIDIUM 142             
1 43256U 18030H   26235.01809528  .00000030  00000+0  38034-5 0  9998
2 43256  86.3911 262.3989 0002297  87.7186 272.4273 14.34217699439713
IRIDIUM 150             
1 43257U 18030J   26235.05615107  .00000046  00000+0  94388-5 0  9992
2 43257  86.3914 262.5014 0002375  90.6976 269.4492 14.34217689439746
IRIDIUM 143             
1 43258U 18030K   26235.31621091  .00000168  00000+0  52785-4 0  9990
2 43258  86.3917 262.4879 0002380  89.3533 270.7935 14.34220140439718
IRIDIUM 161             
1 43478U 18047C   26234.51860692  .00000074  00000+0  16023-4 0  9996
2 43478  86.4435  60.7144 0002072  92.4740 267.6698 14.43280225434700
IRIDIUM 152             
1 43479U 18047D   26234.45169314  .00000159  00000+0  49668-4 0  9998
2 43479  86.3913  60.6040 0002149  90.0576 270.0866 14.34217226431984
IRIDIUM 147             
1 43480U 18047E   26234.80687809  .00000063  00000+0  15305-4 0  9998
2 43480  86.3912  60.4618 0002165  86.0256 274.1187 14.34217976432032
IRIDIUM 110             
1 43481U 18047F   26235.23183455  .00000066  00000+0  16414-4 0  9990
2 43481  86.3914  60.3775 0002015  96.0527 264.0898 14.34217513432083
IRIDIUM 162             
1 43482U 18047G   26234.99761866  .00000061  00000+0  11993-4 0  9993
2 43482  86.4434  60.4039 0002250  88.7258 271.4201 14.43280020434766
IRIDIUM 160             
1 43569U 18061A   26234.82882482 -.00000068  00000+0 -31448-4 0  9991
2 43569  86.3962  28.9182 0001996  92.1723 267.9701 14.34217200422927
IRIDIUM 166             
1 43570U 18061B   26234.43558441 -.00000042  00000+0 -22088-4 0  9997
2 43570  86.3961  29.0322 0002075  88.9010 271.2423 14.34217274422893
IRIDIUM 158             
1 43571U 18061C   26235.17132480 -.00000027  00000+0 -16614-4 0  9992
2 43571  86.3964  28.7347 0002116  93.2227 266.9211 14.34217449422963
IRIDIUM 165             
1 43572U 18061D   26234.49900962  .00000197  00000+0  63318-4 0  9994
2 43572  86.3966  29.0631 0002187  88.3800 271.7646 14.34219606422891
IRIDIUM 155             
1 43573U 18061E   26235.15863719  .00000199  00000+0  64128-4 0  9999
2 43573  86.3963  28.6530 0002235  91.5017 268.6435 14.34219396422956
IRIDIUM 154             
1 43574U 18061F   26234.51169228  .00000203  00000+0  65282-4 0  9991
2 43574  86.3966  29.0605 0002158  88.7903 271.3540 14.34219866422910
IRIDIUM 163             
1 43575U 18061G   26235.19035029  .00000183  00000+0  58420-4 0  9991
2 43575  86.3965  28.6898 0002135  93.3035 266.8405 14.34217162422985
IRIDIUM 156             
1 43576U 18061H   26234.39753243  .00000201  00000+0  64678-4 0  9991
2 43576  86.3962  29.0286 0002331  90.8222 269.3241 14.34219117422862
IRIDIUM 164             
1 43577U 18061J   26235.14595424  .00000002  00000+0 -64514-5 0  9991
2 43577  86.3963  28.7573 0002009  88.8861 271.2565 14.34217609423010
IRIDIUM 159             
1 43578U 18061K   26235.18400937  .00000108  00000+0  31576-4 0  9997
2 43578  86.3965  28.6767 0002139  94.4516 265.6924 14.34219049422982
IRIDIUM 180             
1 43922U 19002A   26234.69514179  .00000487  00000+0  16677-3 0  9999
2 43922  86.4013 325.8104 0002211  95.5161 264.6287 14.34218803398526
IRIDIUM 176             
1 43923U 19002B   26235.24311439  .00000604  00000+0  91816-4 0  9996
2 43923  86.6133 325.5154 0002384  92.8054 267.3436 14.72250630409116
IRIDIUM 168             
1 43924U 19002C   26235.24693240  .00000018  00000+0 -68441-6 0  9990
2 43924  86.4014 325.6588 0002208  95.7227 264.4221 14.34217705398586
IRIDIUM 173             
1 43925U 19002D   26234.67609901  .00000022  00000+0  81388-6 0  9997
2 43925  86.4010 325.7829 0002278  95.6043 264.5413 14.34217803398486
IRIDIUM 169             
1 43926U 19002E   26235.30401874  .00000238  00000+0  71342-4 0  9994
2 43926  86.4270 357.1374 0002710  94.3683 265.7825 14.38611634399874
IRIDIUM 172             
1 43927U 19002F   26235.22790469  .00000012  00000+0 -29043-5 0  9990
2 43927  86.4009 325.5609 0002211  95.8983 264.2465 14.34217641398576
IRIDIUM 175             
1 43928U 19002G   26235.02532705  .00000205  00000+0  54620-4 0  9997
2 43928  86.4468 262.5754 0004015  37.7612 322.3870 14.43641571408622
IRIDIUM 171             
1 43929U 19002H   26235.13910802  .00000108  00000+0  31404-4 0  9995
2 43929  86.4019 325.9115 0002242  92.7532 267.3920 14.34217743398556
IRIDIUM 170             
1 43930U 19002J   26235.18132610  .00000596  00000+0  90661-4 0  9996
2 43930  86.6130 325.5428 0002330  96.4317 263.7166 14.72251436409113
IRIDIUM 167             
1 43931U 19002K   26235.20253323  .00000115  00000+0  33846-4 0  9994
2 43931  86.4008 325.5939 0002379  89.1944 270.9525 14.34217535398566
IRIDIUM 181             
1 56726U 23068S   26234.52401889  .00000249  00000+0  68051-4 0  9997
2 56726  86.4501  29.0453 0002013  90.2102 269.9329 14.43308022172002
IRIDIUM 177             
1 56727U 23068T   26235.12061290  .00000750  00000+0  95658-4 0  9993
2 56727  86.1961 297.0212 0002505  96.3179 263.8327 14.80033811176262
IRIDIUM 174             
1 56728U 23068U   26234.96506536  .00000758  00000+0  11629-3 0  9995
2 56728  86.6139 325.7872 0002562 100.5800 259.5706 14.72249496175843
IRIDIUM 178             
1 56729U 23068V   26235.31255585  .00000909  00000+0  11673-3 0  9998
2 56729  86.6586 357.3186 0002472  93.6367 266.5137 14.80041922176298
IRIDIUM 179             
1 56730U 23068W   26235.30718196  .00000860  00000+0  11021-3 0  9994
2 56730  86.6813   6.4944 0002496  90.6680 269.4827 14.80046698176291
