GLOBALSTAR M069         
1 31573U 07020C   26119.10884367 -.00000097  00000+0 -36937-4 0  9993
2 31573  52.0057  31.0347 0002413  50.0782  87.7892 12.23469887872794
GLOBALSTAR M072         
1 31574U 07020D   26119.22079139 -.00000085  00000+0 -79802-5 0  9996
2 31574  51.9928 230.6081 0001462 191.7443 173.8072 11.91657412869141
GLOBALSTAR M066         
1 32265U 07048C   26119.16069568 -.00000094  00000+0  24196-5 0  9997
2 32265  51.9584 198.6548 0004391 296.1260  77.3951 12.30387753854194
GLOBALSTAR M079         
1 37188U 10054A   26118.63571764 -.00000104  00000+0 -25238-5 0  9995
2 37188  52.0040 259.5119 0000542 138.4076 235.2374 12.62265173716298
GLOBALSTAR M074         
1 37189U 10054B   26119.09280714 -.00000108  00000+0 -23330-4 0  9993
2 37189  52.0016 257.3936 0000616 107.2385  64.2847 12.62267667716952
GLOBALSTAR M076         
1 37190U 10054C   26119.11877734 -.00000101  00000+0  16008-4 0  9998
2 37190  52.0030 257.5122 0000390 104.2713  66.2120 12.62272442716672
GLOBALSTAR M077         
1 37191U 10054D   26119.00630351 -.00000079  00000+0 -17300-4 0  9990
2 37191  51.9973 304.1252 0003309  86.6018  80.5301 11.67547501715397
GLOBALSTAR M075         
1 37192U 10054E   26119.21130421 -.00000085  00000+0  10345-3 0  9994
2 37192  51.9955 299.3140 0000814 103.7231  66.6634 12.62266277715753
GLOBALSTAR M073         
1 37193U 10054F   26118.97424382 -.00000101  00000+0  17796-4 0  9996
2 37193  52.0056 214.0973 0000312 158.2497  13.3699 12.62266529717716
GLOBALSTAR M083         
1 37739U 11033A   26119.03071608 -.00000078  00000+0  14631-3 0  9994
2 37739  51.9832 162.2207 0000179 201.2940 168.6755 12.62262839686744
GLOBALSTAR M088         
1 37740U 11033B   26119.16397227 -.00000109  00000+0 -30700-4 0  9990
2 37740  52.0218  68.1223 0000511  57.1632 316.5698 12.62263163682303
GLOBALSTAR M091         
1 37741U 11033C   26119.12533736 -.00000103  00000+0  26948-5 0  9997
2 37741  52.0021  31.2775 0000568  83.6977  55.8324 12.62262829683080
GLOBALSTAR M085         
1 37742U 11033D   26119.03475955 -.00000081  00000+0  12864-3 0  9991
2 37742  52.0145 342.8044 0000711 102.6975  45.2178 12.62262932683588
GLOBALSTAR M081         
1 37743U 11033E   26119.06228777 -.00000073  00000+0  17273-3 0  9993
2 37743  51.9979 345.2135 0000675  83.3090  69.0560 12.62263786683736
GLOBALSTAR M089         
1 37744U 11033F   26118.75461365 -.00000084  00000+0  11300-3 0  9998
2 37744  51.9936 300.3191 0000832  79.8110 294.2062 12.62266067684546
GLOBALSTAR M084         
1 38040U 11080A   26119.08523450 -.00000071  00000+0  18383-3 0  9995
2 38040  51.9989 166.7669 0000211  50.4892 326.5708 12.62266760662565
GLOBALSTAR M080         
1 38041U 11080B   26119.05481095 -.00000069  00000+0  19148-3 0  9998
2 38041  52.0041 168.5611 0000677 146.3860 222.1232 12.62268626662689
GLOBALSTAR M082         
1 38042U 11080C   26119.16449126 -.00000084  00000+0  11104-3 0  9991
2 38042  52.0050 123.7207 0000322 144.6919 292.5598 12.62269403663408
GLOBALSTAR M092         
1 38043U 11080D   26119.00052199 -.00000103  00000+0  67789-5 0  9999
2 38043  52.0083 214.6158 0000463 123.9237  47.2192 12.62266718661835
GLOBALSTAR M090         
1 38044U 11080E   26119.19178851 -.00000087  00000+0  92114-4 0  9994
2 38044  52.0102 117.5772 0000086  65.2667  15.2029 12.62268366663520
GLOBALSTAR M086         
1 38045U 11080F   26119.04685527 -.00000077  00000+0  14848-3 0  9998
2 38045  51.9874 118.0286 0000899 312.9802  86.2188 12.62285591663451
GLOBALSTAR M097         
1 39072U 13005A   26119.14734481 -.00000109  00000+0 -26480-4 0  9996
2 39072  52.0068  32.6121 0000470  77.2650 282.8270 12.62260053610718
GLOBALSTAR M093         
1 39073U 13005B   26119.12108425 -.00000098  00000+0  33069-4 0  9995
2 39073  52.0129  26.0228 0000348  82.3297 277.7609 12.62264658610668
GLOBALSTAR M094         
1 39074U 13005C   26119.20031858 -.00000089  00000+0  82754-4 0  9995
2 39074  51.9963 299.9506 0000636 117.5089 242.5842 12.62267953612283
GLOBALSTAR M096         
1 39075U 13005D   26118.97608939 -.00000079  00000+0  13709-3 0  9991
2 39075  52.0095 349.3949 0000666  96.7780 263.3163 12.62264453611178
GLOBALSTAR M078         
1 39076U 13005E   26119.18654861 -.00000113  00000+0 -52514-4 0  9999
2 39076  51.9874  72.8258 0001017 131.1840 228.9114 12.62266022609821
GLOBALSTAR M095         
1 39077U 13005F   26119.13417951 -.00000115  00000+0 -60445-4 0  9996
2 39077  52.0081  70.5211 0000352 124.7321 235.3579 12.62267346609671
GLOBALSTAR M087         
1 52888U 22064A   26119.22681389 -.00000090  00000+0  78559-4 0  9990
2 52888  51.9992 211.5112 0000528 161.6068 198.4817 12.62268452184957
