IRIDIUM 106             
1 41917U 17003A   26193.07261733 -.00000038  00000+0 -20619-4 0  9997
2 41917  86.3945  78.1512 0002134  94.9370 265.2069 14.34216912496771
IRIDIUM 103             
1 41918U 17003B   26193.05993341  .00000000  00000+0 -71520-5 0  9999
2 41918  86.3942  78.0561 0001876  82.9318 277.2091 14.34217298496791
IRIDIUM 109             
1 41919U 17003C   26193.13604259 -.00000044  00000+0 -22934-4 0  9999
2 41919  86.3943  78.0841 0002027  83.8040 276.3387 14.34217030496775
IRIDIUM 102             
1 41920U 17003D   26192.75549040 -.00000023  00000+0 -15287-4 0  9994
2 41920  86.3942  78.1661 0002097  84.0393 276.1042 14.34217007496802
IRIDIUM 105             
1 41921U 17003E   26193.55130653  .00000151  00000+0  46895-4 0  9999
2 41921  86.3943  46.2616 0002184  79.7435 280.4007 14.34217352498775
IRIDIUM 104             
1 41922U 17003F   26193.11701653  .00000147  00000+0  45497-4 0  9998
2 41922  86.3947  78.0584 0002060  78.4037 281.7390 14.34217608496843
IRIDIUM 114             
1 41923U 17003G   26193.12335854 -.00000007  00000+0 -96451-5 0  9990
2 41923  86.3943  78.0383 0001956  81.1027 279.0391 14.34217335496826
IRIDIUM 108             
1 41924U 17003H   26193.50049163  .00000157  00000+0  48884-4 0  9998
2 41924  86.3939  46.1715 0002255  85.1347 275.0106 14.34217727498736
IRIDIUM 112             
1 41925U 17003J   26191.64552802  .00000122  00000+0  36640-4 0  9990
2 41925  86.3941  78.4973 0002156  81.8094 278.3346 14.34219864496639
IRIDIUM 111             
1 41926U 17003K   26193.09798923  .00000147  00000+0  45333-4 0  9994
2 41926  86.3943  77.9613 0002169  84.9245 275.2198 14.34217819496823
IRIDIUM 113             
1 42803U 17039A   26193.42679492 -.00000025  00000+0 -16056-4 0  9991
2 42803  86.3989 311.6294 0002043  90.8641 269.2789 14.34216999474809
IRIDIUM 123             
1 42804U 17039B   26193.46827308 -.00000023  00000+0 -15098-4 0  9990
2 42804  86.3985 343.0685 0002034  96.1552 263.9876 14.34217094473577
IRIDIUM 120             
1 42805U 17039C   26193.28091816 -.00000034  00000+0 -19145-4 0  9997
2 42805  86.3977 311.4699 0002227  98.0173 262.1275 14.34216625474773
IRIDIUM 115             
1 42806U 17039D   26193.00835055  .00000183  00000+0  48350-4 0  9992
2 42806  86.4515 311.7155 0002168  98.3820 261.7626 14.43276520477845
IRIDIUM 118             
1 42807U 17039E   26193.49998758  .00000046  00000+0  93231-5 0  9993
2 42807  86.3985 343.0530 0002181  90.9877 269.1568 14.34217676473576
IRIDIUM 117             
1 42808U 17039F   26193.44924525  .00000132  00000+0  40117-4 0  9990
2 42808  86.3988 343.0315 0002187  94.9699 265.1746 14.34217325473590
IRIDIUM 126             
1 42809U 17039G   26193.47461704  .00000097  00000+0  27658-4 0  9994
2 42809  86.3988 343.0728 0002060  90.4029 269.7402 14.34217944473571
IRIDIUM 124             
1 42810U 17039H   26193.21946380  .00000185  00000+0  49137-4 0  9990
2 42810  86.4484 279.8929 0002295  95.8099 264.3363 14.43285178478723
IRIDIUM 128             
1 42811U 17039J   26193.53512498  .00000025  00000+0  17291-5 0  9995
2 42811  86.3962  14.5490 0002268  94.7630 265.3825 14.34216579473616
IRIDIUM 121             
1 42812U 17039K   26193.49364520 -.00000035  00000+0 -19419-4 0  9998
2 42812  86.3985 343.0929 0002107  92.6138 267.5299 14.34217170473450
IRIDIUM 133             
1 42955U 17061A   26193.49706823  .00000055  00000+0  12594-4 0  9994
2 42955  86.3966  14.6836 0002198  91.0116 269.1332 14.34216970458405
IRIDIUM 100             
1 42956U 17061B   26193.49072725  .00000038  00000+0  65229-5 0  9997
2 42956  86.3963  14.6042 0002223  90.0028 270.1423 14.34217026458408
IRIDIUM 122             
1 42957U 17061C   26193.52877811  .00000029  00000+0  34665-5 0  9991
2 42957  86.3966  14.5887 0002144  91.4210 268.7231 14.34216952458416
IRIDIUM 129             
1 42958U 17061D   26193.48438110  .00000030  00000+0  35637-5 0  9994
2 42958  86.3964  14.6745 0002177  83.3935 276.7509 14.34216825458426
IRIDIUM 119             
1 42959U 17061E   26193.52243918  .00000028  00000+0  29957-5 0  9995
2 42959  86.3961  14.6542 0002106  89.6910 270.4527 14.34216486458449
IRIDIUM 107             
1 42960U 17061F   26193.54146499  .00000000  00000+0 -69513-5 0  9998
2 42960  86.3960  14.6680 0001961  94.7450 265.3970 14.34216862458451
IRIDIUM 132             
1 42961U 17061G   26193.54780839  .00000037  00000+0  59952-5 0  9996
2 42961  86.3964  14.6446 0002189  90.1924 269.9523 14.34216461458454
IRIDIUM 136             
1 42962U 17061H   26193.50975485  .00000032  00000+0  44179-5 0  9996
2 42962  86.3965  14.6671 0002252  90.3640 269.7814 14.34216993458466
IRIDIUM 139             
1 42963U 17061J   26193.51609779  .00000007  00000+0 -46871-5 0  9992
2 42963  86.3963  14.7269 0002125  92.1427 268.0012 14.34216837458471
IRIDIUM 125             
1 42964U 17061K   26193.50341287  .00000035  00000+0  52636-5 0  9995
2 42964  86.3968  14.7938 0001664  89.7067 270.4320 14.34217262458482
IRIDIUM 135             
1 43070U 17083A   26193.33800051  .00000132  00000+0  40049-4 0  9990
2 43070  86.3983 311.5017 0002184  94.1154 266.0292 14.34217975447757
IRIDIUM 138             
1 43071U 17083B   26193.43313873  .00000129  00000+0  38909-4 0  9991
2 43071  86.3998 311.1612 0002058  91.5205 268.6226 14.34217931447756
IRIDIUM 116             
1 43072U 17083C   26193.33165551  .00000112  00000+0  33074-4 0  9999
2 43072  86.3987 311.4902 0002391  99.4154 260.7312 14.34217071447776
IRIDIUM 130             
1 43073U 17083D   26193.29994668  .00000124  00000+0  37127-4 0  9990
2 43073  86.3992 311.7811 0002197 100.7123 259.4320 14.34217176447715
IRIDIUM 151             
1 43074U 17083E   26193.27457458  .00000143  00000+0  43955-4 0  9997
2 43074  86.3986 311.5721 0002229  95.3596 264.7854 14.34217502447732
IRIDIUM 134             
1 43075U 17083F   26193.24286117  .00000127  00000+0  38332-4 0  9992
2 43075  86.3985 311.5937 0002189  95.4623 264.6823 14.34218012447695
IRIDIUM 137             
1 43076U 17083G   26193.32531639  .00000125  00000+0  37638-4 0  9990
2 43076  86.3988 311.6527 0002652  94.3842 265.7656 14.34217916447778
IRIDIUM 141             
1 43077U 17083H   26193.31897135  .00000138  00000+0  42168-4 0  9994
2 43077  86.3984 311.4844 0002148  92.9824 267.1618 14.34217557447774
IRIDIUM 153             
1 43078U 17083J   26193.20138208  .00000057  00000+0  13325-4 0  9995
2 43078  86.3960 280.0134 0002111  94.2419 265.9018 14.34217620448869
IRIDIUM 131             
1 43079U 17083K   26193.30628811  .00000037  00000+0  61080-5 0  9991
2 43079  86.3990 311.6773 0002242  92.5209 267.6243 14.34217498447700
IRIDIUM 144             
1 43249U 18030A   26193.20772496  .00000063  00000+0  15411-4 0  9996
2 43249  86.3957 279.9393 0002366  98.3111 261.8353 14.34217775433722
IRIDIUM 149             
1 43250U 18030B   26193.21406783  .00000121  00000+0  36066-4 0  9996
2 43250  86.3958 279.9034 0002251  93.5504 266.5949 14.34217781433745
IRIDIUM 157             
1 43251U 18030C   26193.23309783  .00000128  00000+0  38710-4 0  9996
2 43251  86.3961 279.9493 0002243  94.1288 266.0164 14.34217295433728
IRIDIUM 140             
1 43252U 18030D   26193.18235637  .00000146  00000+0  45076-4 0  9990
2 43252  86.3960 279.9831 0002221  95.4317 264.7132 14.34216889433770
IRIDIUM 145             
1 43253U 18030E   26193.16966764  .00000140  00000+0  43039-4 0  9992
2 43253  86.3959 279.9602 0002458 100.7220 259.4253 14.34217045433703
IRIDIUM 146             
1 43254U 18030F   26193.22040957  .00000012  00000+0 -26043-5 0  9993
2 43254  86.3959 279.9513 0002245  97.3084 262.8367 14.34217078433720
IRIDIUM 148             
1 43255U 18030G   26193.18870018  .00000151  00000+0  46941-4 0  9999
2 43255  86.3962 280.0080 0002344  94.5825 265.5638 14.34217343433758
IRIDIUM 142             
1 43256U 18030H   26193.22675316  .00000127  00000+0  38244-4 0  9999
2 43256  86.3956 279.8804 0002403  97.9956 262.1513 14.34217953433729
IRIDIUM 150             
1 43257U 18030J   26191.17174645 -.00000245  00000+0 -94436-4 0  9999
2 43257  86.3963 280.8566 0002215  95.9860 264.1588 14.34219143433455
IRIDIUM 143             
1 43258U 18030K   26193.17601228  .00000090  00000+0  25134-4 0  9999
2 43258  86.3962 280.1121 0002317  96.6168 263.5291 14.34217422433673
IRIDIUM 161             
1 43478U 18047C   26192.15744448  .00000172  00000+0  45078-4 0  9990
2 43478  86.4467  78.4474 0002306  78.8180 281.3280 14.43284936428596
IRIDIUM 152             
1 43479U 18047D   26193.14873407  .00000144  00000+0  44307-4 0  9992
2 43479  86.3939  77.8940 0002138  82.7975 277.3464 14.34219431426067
IRIDIUM 147             
1 43480U 18047E   26192.80622844  .00000147  00000+0  45287-4 0  9994
2 43480  86.3941  78.0429 0002275  88.4643 271.6813 14.34217175426017
IRIDIUM 110             
1 43481U 18047F   26193.09164735  .00000138  00000+0  42044-4 0  9995
2 43481  86.3945  78.0162 0002173  76.6103 283.5335 14.34217713426045
IRIDIUM 162             
1 43482U 18047G   26191.11118814  .00000189  00000+0  50126-4 0  9990
2 43482  86.4467  78.7759 0002187  84.2783 275.8667 14.43283456428433
IRIDIUM 160             
1 43569U 18061A   26193.52585980  .00000108  00000+0  31462-4 0  9994
2 43569  86.3943  46.1986 0002228  85.9681 274.1769 14.34216368417003
IRIDIUM 166             
1 43570U 18061B   26192.50470310  .00000031  00000+0  39317-5 0  9996
2 43570  86.3940  46.5761 0002260  89.6407 270.5047 14.34217869416881
IRIDIUM 158             
1 43571U 18061C   26193.51951953  .00000049  00000+0  10301-4 0  9996
2 43571  86.3939  46.1613 0002060  86.2927 273.8505 14.34217280416994
IRIDIUM 165             
1 43572U 18061D   26193.54488933  .00000091  00000+0  25565-4 0  9998
2 43572  86.3942  46.1976 0002266  90.8182 269.3273 14.34217303417026
IRIDIUM 155             
1 43573U 18061E   26193.50683389  .00000066  00000+0  16628-4 0  9999
2 43573  86.3939  46.0815 0002094  88.8162 271.3274 14.34217108416989
IRIDIUM 154             
1 43574U 18061F   26193.55757411  .00000142  00000+0  43477-4 0  9990
2 43574  86.3940  46.1951 0002306  90.0128 270.1332 14.34217689417041
IRIDIUM 163             
1 43575U 18061G   26193.53854649  .00000106  00000+0  30770-4 0  9992
2 43575  86.3937  46.1175 0002154  85.4815 274.6626 14.34217552417019
IRIDIUM 156             
1 43576U 18061H   26193.51317654  .00000075  00000+0  19767-4 0  9999
2 43576  86.3938  46.1353 0002101  91.9069 268.2368 14.34217612417002
IRIDIUM 164             
1 43577U 18061J   26193.00577139  .00000157  00000+0  48909-4 0  9991
2 43577  86.3939  46.3886 0002307  89.4265 270.7195 14.34217478416976
IRIDIUM 159             
1 43578U 18061K   26193.53220382  .00000009  00000+0 -37820-5 0  9993
2 43578  86.3935  46.1046 0002044  85.0545 275.0884 14.34217112417014
IRIDIUM 180             
1 43922U 19002A   26193.46193360  .00000085  00000+0  23195-4 0  9991
2 43922  86.3991 343.0314 0002235  90.7071 269.4381 14.34217652392611
IRIDIUM 176             
1 43923U 19002B   26193.44307846  .00000428  00000+0  63907-4 0  9992
2 43923  86.6108 342.9790 0002342  89.6206 270.5279 14.72246965402967
IRIDIUM 168             
1 43924U 19002C   26191.36253025  .00000045  00000+0  89730-5 0  9999
2 43924  86.3988 343.9865 0002243  90.7210 269.4243 14.34217872392298
IRIDIUM 173             
1 43925U 19002D   26193.51267213 -.00000087  00000+0 -38279-4 0  9992
2 43925  86.3988 342.9764 0002050  91.6648 268.4783 14.34216926392586
IRIDIUM 169             
1 43926U 19002E   26193.50095457  .00000025  00000+0  17752-5 0  9995
2 43926  86.4219  14.6068 0001801 100.9063 259.2338 14.38613012393860
IRIDIUM 172             
1 43927U 19002F   26193.43656219  .00000097  00000+0  27412-4 0  9999
2 43927  86.3984 343.0158 0002178  89.7876 270.3569 14.34217816392588
IRIDIUM 175             
1 43928U 19002G   26193.22908725  .00000177  00000+0  46268-4 0  9998
2 43928  86.4513 280.0540 0005169 121.1648 239.0060 14.43626275402598
IRIDIUM 171             
1 43929U 19002H   26193.41753406  .00000059  00000+0  13879-4 0  9995
2 43929  86.3996 343.3327 0002214  95.2588 264.8861 14.34217603392573
IRIDIUM 170             
1 43930U 19002J   26193.44924955  .00000430  00000+0  64306-4 0  9993
2 43930  86.6107 342.9787 0002297  85.9412 274.2068 14.72247523402976
IRIDIUM 167             
1 43931U 19002K   26193.48095993  .00000059  00000+0  14069-4 0  9997
2 43931  86.3988 343.0196 0002250  99.1004 261.0446 14.34217698392587
IRIDIUM 181             
1 56726U 23068S   26193.55034003  .00000179  00000+0  47239-4 0  9991
2 56726  86.4476  46.1843 0002413  83.9584 276.1892 14.43311324166099
IRIDIUM 177             
1 56727U 23068T   26193.40498097  .00000581  00000+0  73374-4 0  9999
2 56727  86.1983 316.8182 0002146  93.6275 266.5192 14.80027657170096
IRIDIUM 174             
1 56728U 23068U   26193.43682235  .00000442  00000+0  66208-4 0  9996
2 56728  86.6116 343.1337 0002026  85.5654 274.5795 14.72256065169738
IRIDIUM 178             
1 56729U 23068V   26193.52918932  .00000196  00000+0  22499-4 0  9993
2 56729  86.6533  14.7675 0002323  90.2389 269.9099 14.80025335170118
IRIDIUM 179             
1 56730U 23068W   26193.52384565  .00000472  00000+0  58970-4 0  9994
2 56730  86.6765  23.8246 0002292  92.3443 267.8041 14.80034074170115
