ORBCOMM FM06            
1 25118U 97084G   26221.82709428  .00000526  00000+0  18038-3 0  9993
2 25118  45.0129 154.4623 0001393 312.5576  76.9358 14.47675726502161
ORBCOMM FM04            
1 25159U 98007C   26221.83292909  .00000289  00000+0  14453-3 0  9999
2 25159 107.9626 279.8358 0041947 233.5343 126.1928 14.35816934484295
ORBCOMM FM19            
1 25415U 98046C   26221.74484292  .00000430  00000+0  18170-3 0  9993
2 25415  44.9952 348.9633 0004913 212.2235 300.9149 14.39585341464498
ORBCOMM FM20            
1 25416U 98046D   26221.08712404  .00000302  00000+0  14521-3 0  9994
2 25416  44.9954   0.6000 0001959 199.1124 160.9651 14.38133376464407
ORBCOMM FM27            
1 25481U 98053G   26221.01340644  .00000366  00000+0  16271-3 0  9994
2 25481  45.0050  84.4277 0000726  78.6189 281.4741 14.39225275457847
ORBCOMM FM32            
1 25982U 99065C   26219.93938819  .00000223  00000+0  12172-3 0  9997
2 25982  45.0157 288.2658 0006862 296.9656  63.0491 14.37196311394537
ORBCOMM FM109           
1 40086U 14040A   26221.24376794  .00000086  00000+0  54321-4 0  9994
2 40086  47.0019 200.6308 0000422 110.4611 249.6320 14.58887589642092
ORBCOMM FM110           
1 41182U 15081D   26221.72698850  .00000250  00000+0  88942-4 0  9990
2 41182  47.0017 108.2759 0003375 319.2274  40.8359 14.58951869565444
ORBCOMM FM118           
1 41183U 15081E   26221.69321471  .00000236  00000+0  86058-4 0  9999
2 41183  47.0041 108.7820 0003427 282.8745  77.1758 14.58934617565541
ORBCOMM FM112           
1 41184U 15081F   26221.76509205  .00000170  00000+0  71980-4 0  9996
2 41184  47.0000  16.8765 0002514 103.3577 256.7589 14.58968736566772
ORBCOMM FM113           
1 41185U 15081G   26221.74375396  .00000111  00000+0  59617-4 0  9995
2 41185  47.0018  17.3838 0001059 109.5349 250.5651 14.58904920566752
ORBCOMM FM108           
1 41187U 15081J   26221.56821209  .00000212  00000+0  81001-4 0  9990
2 41187  47.0051 289.8008 0001276  92.5902 267.5130 14.58942986567871
ORBCOMM FM117           
1 41188U 15081K   26221.67114281  .00000182  00000+0  74560-4 0  9996
2 41188  47.0013 287.9354 0001749 102.0999 258.0083 14.58928932567935
ORBCOMM FM116           
1 41189U 15081L   26221.85660019  .00000123  00000+0  62223-4 0  9990
2 41189  47.0035  16.8460 0001690 292.6612  67.4095 14.58933390566770
