QIANFAN-1               
1 60379U 24140A   26143.44730455  .00000093  00000+0  12437-3 0  9995
2 60379  88.9712 282.4975 0019578 107.5376 252.7916 13.51010323 89185
QIANFAN-2               
1 60380U 24140B   26143.47600280  .00000088  00000+0  11667-3 0  9990
2 60380  88.9699 282.3117 0014677  83.5138 276.7683 13.51005599 89245
QIANFAN-3               
1 60381U 24140C   26143.48423907  .00000095  00000+0  12771-3 0  9996
2 60381  88.9691 282.4313 0015945  94.2653 266.0320 13.51006579 89156
QIANFAN-4               
1 60382U 24140D   26143.45957690  .00000105  00000+0  14330-3 0  9990
2 60382  88.9716 282.3722 0014952  85.8050 274.4809 13.51009070 89279
QIANFAN-5               
1 60383U 24140E   26143.43487944  .00000077  00000+0  10051-3 0  9993
2 60383  88.9691 282.4613 0017258 104.1657 256.1413 13.51008214 89134
QIANFAN-6               
1 60384U 24140F   26143.45544602  .00000100  00000+0  13600-3 0  9991
2 60384  88.9718 282.2490 0015131  90.8655 269.4229 13.51008780 89335
QIANFAN-7               
1 60385U 24140G   26143.50063280  .00000365  00000+0  14180-3 0  9993
2 60385  88.9755 274.6758 0013684 220.1321 139.8864 14.27811045 93473
QIANFAN-8               
1 60386U 24140H   26143.46360163  .00000092  00000+0  12320-3 0  9990
2 60386  88.9719 282.4879 0018603  92.3883 267.9398 13.51005240 89189
QIANFAN-9               
1 60387U 24140J   26143.43903529  .00000079  00000+0  10327-3 0  9997
2 60387  88.9717 282.5626 0018295  92.3102 268.0144 13.51010624 89161
QIANFAN-10              
1 60388U 24140K   26143.44319227  .00000092  00000+0  12344-3 0  9991
2 60388  88.9728 281.9256 0016424  72.4057 287.8887 13.51011496 89291
QIANFAN-11              
1 60389U 24140L   26143.48004440  .00000103  00000+0  13981-3 0  9995
2 60389  88.9652 282.3877 0016336  92.1736 268.1286 13.51006090 88958
QIANFAN-12              
1 60390U 24140M   26143.50075822  .00000085  00000+0  11301-3 0  9995
2 60390  88.9696 282.4995 0015197  99.3168 260.9702 13.51007984 89083
QIANFAN-13              
1 60391U 24140N   26143.47191472  .00000088  00000+0  11693-3 0  9999
2 60391  88.9708 282.6221 0015020 101.7389 258.5448 13.51008052 89100
QIANFAN-14              
1 60392U 24140P   26143.49651828  .00000097  00000+0  13119-3 0  9993
2 60392  88.9687 282.4829 0018716 101.4404 258.8851 13.51009135 89114
QIANFAN-15              
1 60393U 24140Q   26143.43071851  .00000079  00000+0  10413-3 0  9994
2 60393  88.9711 282.4846 0014414  89.9151 270.3652 13.51010929 89090
QIANFAN-16              
1 60394U 24140R   26143.49258045  .00000098  00000+0  13333-3 0  9998
2 60394  88.9713 282.6030 0016657 104.9220 255.3777 13.51005693 89011
QIANFAN-17              
1 60395U 24140S   26143.48829794  .00000093  00000+0  12439-3 0  9994
2 60395  88.9724 282.6671 0017031  99.3741 260.9337 13.51006428 89973
QIANFAN-18              
1 60396U 24140T   26143.46772780  .00000089  00000+0  11814-3 0  9996
2 60396  88.9718 282.1916 0016215  84.2696 276.0303 13.51010782 89361
QIANFAN-19              
1 61552U 24185A   26143.45377689  .00000312  00000+0  15548-3 0  9995
2 61552  88.9850  59.3967 0008250 130.1847 230.0064 14.14456076 92528
QIANFAN-20              
1 61553U 24185B   26143.47251132  .00000265  00000+0  14491-3 0  9995
2 61553  88.9846  59.8794 0005286 165.9351 194.1981 14.09000688 92266
QIANFAN-21              
1 61554U 24185C   26143.44495819  .00000441  00000+0  19015-3 0  9998
2 61554  88.9767  58.0266 0009752 183.6399 176.4724 14.22824718 92963
QIANFAN-22              
1 61555U 24185D   26143.46572328  .00000186  00000+0  14904-3 0  9990
2 61555  88.9831  61.5142 0004779 205.1079 154.9860 13.86381409 91344
QIANFAN-23              
1 61556U 24185E   26143.48282350  .00000396  00000+0  19177-3 0  9996
2 61556  88.9842  59.1271 0008548 139.0606 221.1225 14.16480168 92644
QIANFAN-24              
1 61557U 24185F   26143.45144420  .00000473  00000+0  19948-3 0  9991
2 61557  88.9826  58.2729 0010924 121.4099 238.8163 14.24040481 93036
QIANFAN-25              
1 61558U 24185G   26143.48980428  .00000376  00000+0  22065-3 0  9997
2 61558  88.9833  59.8699 0010573 172.0929 188.0422 14.06054582 92234
QIANFAN-26              
1 61559U 24185H   26143.47472145  .00000194  00000+0  18097-3 0  9997
2 61559  88.9837  62.2803 0003559 232.2530 127.8314 13.77901604 90947
QIANFAN-27              
1 61560U 24185J   26143.47044978  .00000325  00000+0  12623-3 0  9993
2 61560  88.9836  57.9716 0009573 110.0731 250.1495 14.27515604 93232
QIANFAN-28              
1 61561U 24185K   26143.43565796  .00000518  00000+0  20157-3 0  9991
2 61561  88.9855  57.9864 0009352 107.8537 252.3678 14.28346427 93256
QIANFAN-29              
1 61562U 24185L   26143.48807029  .00000078  00000+0  10206-3 0  9990
2 61562  88.9811  64.5788 0008336 312.1108  47.9334 13.51069486 89630
QIANFAN-30              
1 61563U 24185M   26143.43740249  .00000144  00000+0  20705-3 0  9995
2 61563  88.9830  64.1713 0005731 301.1078  58.9510 13.50044936 89883
QIANFAN-31              
1 61564U 24185N   26143.48751175  .00000098  00000+0  11866-3 0  9997
2 61564  88.9814  63.7114 0004962 286.2657  73.7952 13.58031548 90113
QIANFAN-32              
1 61565U 24185P   26143.46495404  .00000089  00000+0  11938-3 0  9996
2 61565  88.9872  64.3517 0008778 330.2012  29.8638 13.50783694 89878
QIANFAN-33              
1 61566U 24185Q   26143.46588448  .00000292  00000+0  20071-3 0  9992
2 61566  88.9830  60.7634 0007268 162.5013 197.6416 13.96687518 91737
QIANFAN-34              
1 61567U 24185R   26143.48106902  .00000367  00000+0  22987-3 0  9997
2 61567  88.9807  60.1110 0005755 153.5850 206.5624 14.02450015 92025
QIANFAN-35              
1 61568U 24185S   26143.48281477  .00000507  00000+0  19754-3 0  9993
2 61568  88.9835  57.8814 0008618 105.1767 255.0381 14.28235917 93268
QIANFAN-36              
1 61569U 24185T   26143.46267205  .00000124  00000+0  16036-3 0  9990
2 61569  88.9807  64.1797 0004492 309.0745  51.0009 13.55630715 89839
QIANFAN-37              
1 62238U 24232B   26143.45067376  .00000092  00000+0  12429-3 0  9999
2 62238  89.0095  25.0660 0002157  60.5626 299.5740 13.51009923121006
QIANFAN-38              
1 62239U 24232C   26143.47540451  .00000102  00000+0  13898-3 0  9995
2 62239  89.0102  24.9903 0016562  86.9032 273.4014 13.51009365121063
QIANFAN-39              
1 62240U 24232D   26143.44135718  .00000282  00000+0  11322-3 0  9999
2 62240  89.0081  18.8827 0013759 270.3939  89.5677 14.25510709124423
QIANFAN-40              
1 62241U 24232E   26143.43425623  .00000109  00000+0  14960-3 0  9995
2 62241  89.0129  24.6242 0015540  93.9161 266.3767 13.51009183121428
QIANFAN-41              
1 62242U 24232F   26143.44249231  .00000106  00000+0  14453-3 0  9990
2 62242  89.0100  24.9423 0015977  83.4942 276.8028 13.51005340121086
QIANFAN-42              
1 62243U 24232G   26143.47208451  .00000261  00000+0  10634-3 0  9992
2 62243  89.0080  18.9504 0012663 278.1750  81.8006 14.24600612124397
QIANFAN-43              
1 62244U 24232H   26143.43836653  .00000101  00000+0  13747-3 0  9991
2 62244  89.0104  25.0151 0017499  88.2084 272.1072 13.51005212 89699
QIANFAN-44              
1 62245U 24232J   26143.50010231  .00000092  00000+0  12320-3 0  9991
2 62245  89.0103  24.8171 0015726  85.3604 274.9342 13.51007311121177
QIANFAN-45              
1 62246U 24232K   26143.46718471  .00000093  00000+0  12568-3 0  9993
2 62246  89.0106  24.9725 0016389  85.1572 275.1450 13.51004880121097
QIANFAN-46              
1 62247U 24232L   26143.49186824  .00000092  00000+0  12329-3 0  9992
2 62247  89.0102  25.0324 0016416  89.9764 270.3268 13.51005747121050
QIANFAN-47              
1 62248U 24232M   26143.49597066  .00000087  00000+0  11600-3 0  9992
2 62248  89.0098  24.9586 0016849  89.2322 271.0759 13.51009553121081
QIANFAN-48              
1 62249U 24232N   26143.45896426  .00000097  00000+0  13122-3 0  9993
2 62249  89.0102  24.9704 0019083  91.8026 268.5311 13.51008608121088
QIANFAN-49              
1 62250U 24232P   26143.44661432  .00000105  00000+0  14436-3 0  9990
2 62250  89.0101  24.9828 0016195  86.7815 273.5188 13.51007543 89679
QIANFAN-50              
1 62251U 24232Q   26143.47128525  .00000087  00000+0  11590-3 0  9992
2 62251  89.0106  24.9973 0017854  88.0824 272.2371 13.51004267 89708
QIANFAN-51              
1 62252U 24232R   26143.45482429  .00000089  00000+0  11911-3 0  9996
2 62252  89.0101  24.9829 0015312  91.1371 269.1535 13.51009382 89691
QIANFAN-52              
1 62253U 24232S   26143.48363215  .00000104  00000+0  14188-3 0  9998
2 62253  89.0097  24.8475 0017362  84.4005 275.9125 13.51006393 89787
QIANFAN-53              
1 62254U 24232T   26143.46305701  .00000095  00000+0  12791-3 0  9990
2 62254  89.0104  24.9661 0016235  85.3751 274.9254 13.51009199 89746
QIANFAN-54              
1 62255U 24232U   26143.43012140  .00000099  00000+0  13539-3 0  9995
2 62255  89.0095  24.6338 0003755 104.2821 255.8747 13.51007741121244
QIANFAN-55              
1 62785U 25016A   26143.45618059  .00000098  00000+0  13275-3 0  9993
2 62785  88.9732  86.4387 0015080 238.6851 121.2824 13.51012320 69025
QIANFAN-56              
1 62786U 25016B   26143.47267602  .00000095  00000+0  12888-3 0  9996
2 62786  88.9706  86.2301 0013693 241.1329 118.8448 13.51013711 69072
QIANFAN-57              
1 62787U 25016C   26143.43154916  .00000109  00000+0  15008-3 0  9999
2 62787  88.9736  86.4382 0003069  69.8820 290.2661 13.51012081 69031
QIANFAN-58              
1 62788U 25016D   26143.47686127  .00000097  00000+0  13091-3 0  9994
2 62788  88.9707  86.2157 0011719 231.6813 128.3285 13.51011573 69083
QIANFAN-59              
1 62789U 25016E   26143.50139770  .00000105  00000+0  14424-3 0  9997
2 62789  88.9730  86.3250 0012041 236.1366 123.8640 13.51005723 69082
QIANFAN-60              
1 62790U 25016F   26143.46025000  .00000100  00000+0  13657-3 0  9996
2 62790  88.9711  86.2699 0013631 232.5630 127.4282 13.51008087 69065
QIANFAN-61              
1 62791U 25016G   26143.49318216  .00000105  00000+0  14470-3 0  9993
2 62791  88.9778  86.5391 0012588 231.3752 128.6273 13.51011832 69080
QIANFAN-62              
1 62792U 25016H   26143.49741201  .00000106  00000+0  14492-3 0  9993
2 62792  88.9725  86.3200 0013954 232.2326 127.7561 13.51010408 69072
QIANFAN-63              
1 62793U 25016J   26143.44787981  .00000066  00000+0  83818-4 0  9998
2 62793  88.9732  86.2874 0013937 238.5453 121.4336 13.51007243 69106
QIANFAN-64              
1 62794U 25016K   26143.48908128  .00000099  00000+0  13415-3 0  9992
2 62794  88.9718  86.2356 0011983 229.6549 130.3556 13.51011512 69109
QIANFAN-65              
1 62795U 25016L   26143.48493701  .00000095  00000+0  12814-3 0  9997
2 62795  88.9715  86.2564 0011803 231.6263 128.3828 13.51008668 69089
QIANFAN-66              
1 62796U 25016M   26143.43971360  .00000094  00000+0  12722-3 0  9992
2 62796  88.9734  86.2630 0012964 227.0880 132.9184 13.51013117 69124
QIANFAN-67              
1 62797U 25016N   26143.44383061  .00000095  00000+0  12884-3 0  9999
2 62797  88.9724  86.2722 0012812 235.0807 124.9141 13.51013293 69091
QIANFAN-68              
1 62798U 25016P   26143.43577735  .00000094  00000+0  12763-3 0  9997
2 62798  88.9728  86.3241 0012916 232.6583 127.3392 13.51011817 69075
QIANFAN-69              
1 62799U 25016Q   26143.45202662  .00000109  00000+0  15044-3 0  9996
2 62799  88.9707  86.1572 0013648 234.4347 125.5533 13.51012182 69117
QIANFAN-70              
1 62800U 25016R   26143.46847145  .00000099  00000+0  13438-3 0  9994
2 62800  88.9727  86.3278 0013429 223.1572 136.8527 13.51013286 69078
QIANFAN-71              
1 62801U 25016S   26143.46439277  .00000106  00000+0  14493-3 0  9999
2 62801  88.9721  86.2980 0013505 238.4731 121.5102 13.51013206 69075
QIANFAN-72              
1 62802U 25016T   26143.48089477  .00000090  00000+0  12096-3 0  9994
2 62802  88.9712  86.2939 0016689 247.1695 112.7694 13.51011663 69064
QIANFAN-73              
1 63159U 25046A   26143.50799043  .00000077  00000+0  10003-3 0  9994
2 63159  88.9688 303.2533 0015426  23.7986 336.3875 13.51014301 69251
QIANFAN-74              
1 63160U 25046B   26143.49150727  .00000093  00000+0  12587-3 0  9991
2 63160  88.9689 303.1444 0001863  99.7187 260.4175 13.51003936 69319
QIANFAN-75              
1 63161U 25046C   26143.47906866 -.00000070  00000+0 -12668-3 0  9990
2 63161  88.9686 303.3819 0016567  26.3192 333.8797 13.51003458 69183
QIANFAN-76              
1 63162U 25046D   26143.47499791  .00000150  00000+0  21286-3 0  9998
2 63162  88.9691 303.3619 0014155  28.3196 331.8721 13.51007784 69197
QIANFAN-77              
1 63163U 25046E   26143.51562178  .00000086  00000+0  52497-4 0  9991
2 63163  88.9696 300.0311 0012732 299.0589  60.9312 13.96191648 71021
QIANFAN-78              
1 63164U 25046F   26143.51615061  .00000039  00000+0  41074-4 0  9999
2 63164  88.9690 303.2199 0015576  29.6108 330.5922 13.51007345 69276
QIANFAN-79              
1 63165U 25046G   26143.47094610  .00000085  00000+0  11324-3 0  9991
2 63165  88.9693 303.3383 0015340  28.2194 331.9785 13.51006946 69217
QIANFAN-80              
1 63166U 25046H   26143.48739837  .00000036  00000+0  37243-4 0  9995
2 63166  88.9690 303.0391 0014347  33.0039 327.2004 13.51005210 69371
QIANFAN-81              
1 63167U 25046J   26143.46694890 -.00000006  00000+0 -28519-4 0  9998
2 63167  88.9685 303.1093 0015228  21.8611 338.3187 13.51013410 69327
QIANFAN-82              
1 63168U 25046K   26143.49968080  .00000042  00000+0  45779-4 0  9992
2 63168  88.9690 303.1495 0013354  29.8959 330.2952 13.51007080 69317
QIANFAN-83              
1 63169U 25046L   26143.46848205  .00000084  00000+0  92722-4 0  9992
2 63169  88.9692 302.6106 0013874   6.0851 354.0472 13.62036046 69618
QIANFAN-84              
1 63170U 25046M   26143.45562645  .00000135  00000+0  18958-3 0  9999
2 63170  88.9690 303.2870 0016286  24.9245 335.2689 13.51030221 69235
QIANFAN-85              
1 63171U 25046N   26143.45038301  .00000059  00000+0  72202-4 0  9995
2 63171  88.9689 303.1579 0013833  28.5761 331.6146 13.51014659 69300
QIANFAN-86              
1 63172U 25046P   26143.53281044  .00000044  00000+0  49613-4 0  9993
2 63172  88.9691 303.0151 0011818  33.8742 326.3162 13.51012466 69390
QIANFAN-87              
1 63173U 25046Q   26143.50392513  .00000095  00000+0  12831-3 0  9992
2 63173  88.9688 303.1238 0012185  29.3000 330.8832 13.51013556 69327
QIANFAN-88              
1 63174U 25046R   26143.52027876  .00000050  00000+0  59383-4 0  9997
2 63174  88.9691 303.0806 0012910  36.4268 323.7759 13.51005628 69356
QIANFAN-89              
1 63175U 25046S   26143.48341520  .00000079  00000+0  10366-3 0  9996
2 63175  88.9690 303.2736 0017121  24.9363 335.2612 13.51012633 69245
QIANFAN-90              
1 63176U 25046T   26143.51202227  .00000120  00000+0  16741-3 0  9991
2 63176  88.9691 303.2432 0014015  25.1978 334.9854 13.51010332 69264
QIANFAN-91              
1 66033U 25233A   26143.47032226  .00000122  00000+0  17028-3 0  9990
2 66033  89.0019  45.6865 0002159  68.1475 291.9906 13.51005111 29846
QIANFAN-92              
1 66034U 25233B   26143.47858551  .00000119  00000+0  16625-3 0  9996
2 66034  89.0002  45.6614 0002270  73.6682 286.4718 13.51008197 29843
QIANFAN-93              
1 66035U 25233C   26143.26462108  .00000127  00000+0  17878-3 0  9993
2 66035  89.0030  45.7282 0002224  69.2707 290.8682 13.51007126 29812
QIANFAN-94              
1 66036U 25233D   26143.47444095  .00000121  00000+0  16846-3 0  9990
2 66036  89.0026  45.6111 0002125  73.4969 286.6415 13.51005670 29892
QIANFAN-95              
1 66037U 25233E   26143.26053581  .00000125  00000+0  17456-3 0  9996
2 66037  89.0024  45.1772 0002029  68.9144 291.2223 13.51006818 30117
QIANFAN-96              
1 66038U 25233F   26143.43331775  .00000131  00000+0  18492-3 0  9998
2 66038  89.0021  45.7036 0002114  66.9610 293.1764 13.51005997 29830
QIANFAN-97              
1 66039U 25233G   26143.26871694  .00000132  00000+0  18559-3 0  9994
2 66039  89.0025  45.7034 0002155  69.1182 291.0200 13.51005959 29826
QIANFAN-98              
1 66040U 25233H   26143.27692307  .00000124  00000+0  17412-3 0  9997
2 66040  89.0013  45.4363 0001878  83.6543 276.4822 13.51006148 29963
QIANFAN-99              
1 66041U 25233J   26143.42914410  .00000133  00000+0  18801-3 0  9990
2 66041  89.0026  45.6911 0001880  77.6209 282.5153 13.51005819 29840
QIANFAN-100             
1 66042U 25233K   26143.42095816  .00000136  00000+0  19149-3 0  9990
2 66042  89.0035  45.6162 0002182  69.2499 290.8886 13.51008786 29899
QIANFAN-101             
1 66043U 25233L   26143.46749830  .00000198  00000+0  75606-4 0  9996
2 66043  89.0020  43.4033 0013317 218.5566 141.4678 14.26792164 31103
QIANFAN-102             
1 66044U 25233M   26143.44151434  .00000125  00000+0  17440-3 0  9993
2 66044  89.0023  45.6001 0002066  72.9322 287.2055 13.51005838 29890
QIANFAN-103             
1 66045U 25233N   26143.44565861  .00000124  00000+0  17396-3 0  9996
2 66045  89.0026  45.6941 0002207  68.5804 291.5582 13.51006761 29844
QIANFAN-104             
1 66046U 25233P   26143.22758882  .00000129  00000+0  18045-3 0  9997
2 66046  89.0030  45.6172 0002150  75.6533 284.4857 13.51008898 29862
QIANFAN-105             
1 66047U 25233Q   26143.45798984  .00000135  00000+0  18997-3 0  9993
2 66047  89.0042  45.4338 0002043  70.2591 289.8780 13.51008450 30000
QIANFAN-106             
1 66048U 25233R   26143.45389707  .00000123  00000+0  17164-3 0  9995
2 66048  89.0012  45.6548 0001913  81.3359 278.8009 13.51005965 29843
QIANFAN-107             
1 66049U 25233S   26143.23989683  .00000136  00000+0  19199-3 0  9995
2 66049  89.0028  45.7049 0002182  70.1760 289.9626 13.51018217 29829
QIANFAN-108             
1 66050U 25233T   26143.46622811  .00000131  00000+0  18374-3 0  9998
2 66050  89.0020  45.6715 0001968  80.8275 279.3099 13.51006456 29854
QIANFAN-109             
1 68636U 26075A   26143.27161735  .00000039  00000+0  30592-4 0  9991
2 68636  88.9899 323.5820 0010785  73.9196 286.3152 13.69018712  6428
QIANFAN-110             
1 68637U 26075B   26143.30604439  .00000038  00000+0  30407-4 0  9993
2 68637  88.9902 323.5846 0010734  77.4949 282.7411 13.66775869  6429
QIANFAN-111             
1 68638U 26075C   26143.29760713  .00000042  00000+0  29489-4 0  9993
2 68638  88.9892 323.5651 0010854  84.8508 275.3896 13.75841539  6432
QIANFAN-112             
1 68639U 26075D   26143.24192934  .00000044  00000+0  33623-4 0  9990
2 68639  88.9877 323.5784 0010023  76.8085 283.4197 13.73198947  6421
QIANFAN-113             
1 68640U 26075E   26143.38996463  .00000044  00000+0  35790-4 0  9993
2 68640  88.9853 323.5735 0012212  73.1990 287.0511 13.70136015  6447
QIANFAN-114             
1 68641U 26075F   26143.31627542  .00000038  00000+0  30014-4 0  9993
2 68641  88.9871 323.5695 0009564  83.5872 276.6377 13.67225441  6434
QIANFAN-115             
1 68642U 26075G   26143.04318929  .00000034  00000+0  26724-4 0  9999
2 68642  88.9881 323.6064 0010842  78.5520 281.6855 13.63189280  6390
QIANFAN-116             
1 68643U 26075H   26142.62012066 -.02004930  00000+0 -24540+1 0  9999
2 68643  88.9854 323.6334 0010814  64.6525 295.5756 13.69692153  6344
QIANFAN-117             
1 68644U 26075J   26142.63921567 -.01999695  00000+0 -24909+1 0  9995
2 68644  88.9875 323.6384 0015274  87.2452 273.0457 13.68580558  6341
QIANFAN-118             
1 68645U 26075K   26142.58275275  .00000031  00000+0  22020-4 0  9998
2 68645  88.9877 323.6472 0008725  78.1662 282.0476 13.66569566  6331
QIANFAN-119             
1 68646U 26075L   26141.57895636 -.02046087  00000+0 -25586+1 0  9997
2 68646  88.9878 323.7415 0014261  76.0221 284.2525 13.68443543  6204
QIANFAN-120             
1 68647U 26075M   26141.64560030 -.02108907  00000+0 -25974+1 0  9994
2 68647  88.9872 323.7308 0013328  73.1918 287.0705 13.69509555  6213
QIANFAN-121             
1 68648U 26075N   26142.52762351  .00000030  00000+0  19606-4 0  9996
2 68648  88.9891 323.6416 0009171  75.1662 285.0515 13.69201152  6335
QIANFAN-122             
1 68649U 26075P   26141.86047236 -.02208729  00000+0 -28286+1 0  9990
2 68649  88.9871 323.7081 0014069  66.1743 294.0891 13.67311753  6249
QIANFAN-123             
1 68650U 26075Q   26141.94906919 -.02097114  00000+0 -24335+1 0  9998
2 68650  88.9873 323.7017 0006897  65.4670 294.7212 13.73143487  6229
QIANFAN-124             
1 68651U 26075R   26141.64815996 -.02062893  00000+0 -25447+1 0  9991
2 68651  88.9874 323.7322 0010473  63.7249 296.4987 13.69334037  6213
QIANFAN-125             
1 68652U 26075S   26142.36889161 -.01895734  00000+0 -24227+1 0  9999
2 68652  88.9871 323.6543 0012955  60.4822 299.7628 13.67491942  6319
QIANFAN-126             
1 68653U 26075T   26142.58696454  .00000037  00000+0  26240-4 0  9997
2 68653  88.9879 323.6114 0009739  77.8899 282.3356 13.73978823  6359
QIANFAN-127             
1 69073U 26104A   26143.28365649  .00000066  00000+0  21975-4 0  9996
2 69073  88.9860 344.4695 0003999 181.6082 178.5098 14.24693114  1551
QIANFAN-128             
1 69074U 26104B   26142.66571476 -.01914826  00000+0 -10544+1 0  9992
2 69074  88.9862 344.5415 0005114 193.4605 166.6447 14.15514641  1461
QIANFAN-129             
1 69075U 26104C   26143.48848456  .00000074  00000+0  24767-4 0  9993
2 69075  88.9869 344.4404 0003112 161.6346 198.4960 14.26564542  1584
QIANFAN-130             
1 69076U 26104D   26143.29549701  .00000087  00000+0  33946-4 0  9997
2 69076  88.9869 344.4674 0003334 162.2712 197.8595 14.20281238  1550
QIANFAN-131             
1 69077U 26104E   26143.49687029  .00000066  00000+0  23190-4 0  9993
2 69077  88.9867 344.4415 0002566 180.5653 179.5536 14.22029157  1582
QIANFAN-132             
1 69078U 26104F   26143.30039745  .00000065  00000+0  24402-4 0  9996
2 69078  88.9869 344.4671 0003309 166.6294 193.4984 14.18517465  1559
QIANFAN-133             
1 69079U 26104G   26143.50510289  .00000084  00000+0  32252-4 0  9999
2 69079  88.9868 344.4428 0003649 186.0498 174.0649 14.20666546  1582
QIANFAN-134             
1 69080U 26104H   26143.50266703  .00000087  00000+0  33345-4 0  9997
2 69080  88.9868 344.4424 0003566 156.0812 204.0545 14.20842346  1588
QIANFAN-135             
1 69081U 26104J   26143.50107669  .00000044  00000+0  13495-4 0  9990
2 69081  88.9869 344.4423 0003055 198.9156 161.1921 14.21138727  1581
QIANFAN-136             
1 69082U 26104K   26143.49976125  .00000049  00000+0  15751-4 0  9992
2 69082  88.9867 344.4420 0003436 187.8815 172.2322 14.21449540  1585
QIANFAN-137             
1 69083U 26104L   26143.49143291  .00000101  00000+0  36572-4 0  9996
2 69083  88.9868 344.4407 0003581 170.5068 189.6193 14.25595847  1586
QIANFAN-138             
1 69084U 26104M   26143.49615075  .00000066  00000+0  23203-4 0  9998
2 69084  88.9869 344.4416 0002700 183.1499 176.9676 14.22290967  1585
QIANFAN-139             
1 69085U 26104N   26143.49461258  .00000066  00000+0  23195-4 0  9991
2 69085  88.9869 344.4415 0002786 173.0900 187.0330 14.22599398  1584
QIANFAN-140             
1 69086U 26104P   26143.49318819  .00000067  00000+0  23211-4 0  9996
2 69086  88.9868 344.4410 0002859 178.9413 181.1785 14.22876959  1583
QIANFAN-141             
1 69087U 26104Q   26143.35063426  .00000071  00000+0  24635-4 0  9999
2 69087  88.9866 344.4591 0002365 180.8313 179.2876 14.24126662  1563
QIANFAN-142             
1 69088U 26104R   26143.41939753  .00000076  00000+0  25764-4 0  9991
2 69088  88.9869 344.4486 0002598 166.9744 193.1517 14.25626107  1579
QIANFAN-143             
1 69089U 26104S   26143.48970913  .00000127  00000+0  47460-4 0  9996
2 69089  88.9868 344.4405 0003661 168.4856 191.6422 14.25634440  1581
QIANFAN-144             
1 69090U 26104T   26142.64581975 -.01877886  00000+0 -92142+0 0  9990
2 69090  88.9864 344.5381 0006261 189.8818 170.2250 14.21608787  1467
