GLOBALSTAR M001         
1 25162U 98008A   26051.19492425 -.00000017  00000+0  61004-3 0  9993
2 25162  52.0061 331.3680 0002098  62.1260  87.0361 12.38228928274432
GLOBALSTAR M004         
1 25163U 98008B   26051.26755056 -.00000087  00000+0  96039-4 0  9998
2 25163  52.0023  17.3063 0003457 116.0454  22.8518 12.63414907293042
GLOBALSTAR M002         
1 25164U 98008C   26051.18204678 -.00000063  00000+0  27332-3 0  9992
2 25164  52.0046 338.3964 0000817 237.0379 123.0362 11.61514929212887
GLOBALSTAR M003         
1 25165U 98008D   26050.78464465 -.00000192  00000+0 -10986-2 0  9990
2 25165  51.9855 202.7313 0008919  73.6251  65.6292 12.12027459263243
GLOBALSTAR M014         
1 25306U 98023A   26051.09425575 -.00000074  00000+0  74195-4 0  9990
2 25306  51.9813 256.6281 0002006  88.9574  87.3418 11.65484660220077
GLOBALSTAR M006         
1 25307U 98023B   26051.19315609 -.00000050  00000+0  52198-3 0  9990
2 25307  51.9963 318.1223 0002597 188.9433 328.5791 11.58176787245569
GLOBALSTAR M015         
1 25308U 98023C   26051.19316267 -.00000099  00000+0 -59067-3 0  9998
2 25308  51.9826  67.9568 0012943 157.2645 281.2069 11.48860553222589
GLOBALSTAR M008         
1 25309U 98023D   26050.59806721 -.00000090  00000+0  46212-4 0  9990
2 25309  51.9949 200.7379 0002201 357.0703  82.7861 12.36080982268441
GLOBALSTAR M023         
1 25621U 99004A   26051.24479302 -.00000058  00000+0  25366-3 0  9991
2 25621  52.0127  18.0903 0009549 317.5442 150.8945 12.62518576247063
GLOBALSTAR M040         
1 25622U 99004B   26051.23568023 -.00000097  00000+0  38120-4 0  9996
2 25622  51.9940  22.6368 0000652 196.5398 266.7631 12.62028512246572
GLOBALSTAR M036         
1 25623U 99004C   26051.13750274 -.00000047  00000+0  51980-3 0  9990
2 25623  51.9985 306.7668 0010517 162.6934 349.1189 11.86619455208414
GLOBALSTAR M038         
1 25624U 99004D   26051.25200455 -.00000073  00000+0  18295-3 0  9996
2 25624  51.9968  77.1630 0001861 200.1228 239.6473 12.32541346232961
GLOBALSTAR M022         
1 25649U 99012A   26051.21347737 -.00000043  00000+0  52947-3 0  9992
2 25649  52.0071 336.6476 0002417 312.6569 197.5549 12.02509807206219
GLOBALSTAR M041         
1 25650U 99012B   26050.95801060 -.00000085  00000+0  77496-5 0  9992
2 25650  51.9991 226.3464 0002310  93.7160 266.3940 11.96684407207941
GLOBALSTAR M046         
1 25651U 99012C   26051.05720089 -.00000025  00000+0  70590-3 0  9996
2 25651  52.0052 278.1614 0002644  41.2265 110.0398 12.09420672213652
GLOBALSTAR M037         
1 25652U 99012D   26051.29094147 -.00000071  00000+0  18482-3 0  9995
2 25652  51.9997 148.4759 0001953  39.4002 326.9078 12.62461814242611
GLOBALSTAR M045         
1 25676U 99019A   26051.15823484 -.00000091  00000+0  23927-4 0  9990
2 25676  51.9994 318.4937 0000850  52.5223  95.4594 12.27072546223832
GLOBALSTAR M019         
1 25677U 99019B   26051.10656111  .00000033  00000+0  12812-2 0  9991
2 25677  51.9873 106.4533 0001926 110.7769 264.5249 12.13884726215252
GLOBALSTAR M044         
1 25678U 99019C   26051.07331464 -.00000097  00000+0 -19196-3 0  9994
2 25678  51.9963  88.9140 0006495 155.8942 225.8683 11.90262363200842
GLOBALSTAR M042         
1 25679U 99019D   26051.21487150 -.00000112  00000+0 -18577-3 0  9995
2 25679  52.0015  70.7553 0003149  94.5809 344.1693 12.22094802215584
GLOBALSTAR M025         
1 25770U 99031A   26051.04740006 -.00000068  00000+0 -22738-4 0  9999
2 25770  51.9834 305.0869 0001809 170.5398 326.5369 11.22560776509549
GLOBALSTAR M049         
1 25771U 99031B   26051.24170202 -.00000074  00000+0 -29907-3 0  9998
2 25771  51.9922 351.8608 0003221  75.7331 284.3823 11.12123749145020
GLOBALSTAR M047         
1 25772U 99031C   26051.11664912 -.00000053  00000+0  46788-3 0  9993
2 25772  51.9867 325.4296 0016376 331.2418  28.7484 11.31932137499182
GLOBALSTAR M052         
1 25773U 99031D   26050.38330250 -.00000051  00000+0  50746-3 0  9994
2 25773  51.9857  99.0045 0002774 210.3588 237.2853 11.15064057506084
GLOBALSTAR M035         
1 25851U 99037A   26050.64042294 -.00000064  00000+0 -12044-4 0  9999
2 25851  51.9922 223.1182 0014047  28.0260  52.1748 11.04541880123605
GLOBALSTAR M032         
1 25852U 99037B   26051.20382685 -.00000080  00000+0 -42658-3 0  9995
2 25852  51.9983  29.9474 0012498 224.6693 135.3101 11.19067466162554
GLOBALSTAR M051         
1 25853U 99037C   26051.24074650 -.00000059  00000+0  32777-3 0  9996
2 25853  51.9783 162.4916 0000996 119.3051 240.7860 11.42200110160737
GLOBALSTAR M030         
1 25854U 99037D   26051.09136842 -.00000112  00000+0 -78349-3 0  9998
2 25854  51.9900 313.1944 0004136 112.8835 247.2418 11.55106370178695
GLOBALSTAR M048         
1 25872U 99041A   26051.08955060 -.00000041  00000+0  78396-3 0  9995
2 25872  51.9360 107.4737 0013136 251.5789 120.6389 11.33862375153108
GLOBALSTAR M026         
1 25873U 99041B   26051.15996433 -.00000012  00000+0  19171-2 0  9996
2 25873  52.0053 337.3038 0001990 337.2865 163.0528 11.06839433175941
GLOBALSTAR M043         
1 25874U 99041C   26050.65941409 -.00000094  00000+0 -76617-3 0  9994
2 25874  51.9370 225.9983 0013496  18.1847  63.7549 11.25697939150746
GLOBALSTAR M028         
1 25875U 99041D   26050.51689835 -.00000082  00000+0  11508-3 0  9996
2 25875  51.9616 175.5610 0062801 248.1040 111.3136 12.50596199221129
GLOBALSTAR M024         
1 25883U 99043A   26050.63316770 -.00000002  00000+0  22306-2 0  9994
2 25883  52.0010 182.2939 0002580 131.5677 321.6591 11.10170954142345
GLOBALSTAR M027         
1 25884U 99043B   26051.04746663 -.00000037  00000+0  99893-3 0  9993
2 25884  52.0194 266.3693 0021995  33.4130 326.8046 11.04373800168624
GLOBALSTAR M054         
1 25885U 99043C   26051.19211868 -.00000040  00000+0  79503-3 0  9994
2 25885  52.0178 351.7203 0004352 245.7617 253.3244 11.39224387147319
GLOBALSTAR M053         
1 25886U 99043D   26051.11183859 -.00000047  00000+0  61629-3 0  9992
2 25886  52.0008 312.7673 0003693 130.6879  12.7471 11.27670256147416
GLOBALSTAR M058         
1 25907U 99049A   26051.26860826 -.00000099  00000+0 -19211-3 0  9992
2 25907  51.9932 166.7250 0002269  48.3692 311.7337 11.93208211571154
GLOBALSTAR M050         
1 25908U 99049B   26051.30159559 -.00000165  00000+0 -87291-3 0  9999
2 25908  51.9980 155.7756 0009692 162.8391 231.1887 12.07464929178167
GLOBALSTAR M033         
1 25909U 99049C   26051.04356476 -.00000056  00000+0  34654-3 0  9991
2 25909  51.9938  11.1976 0014712  54.6735 305.5486 12.20304611566000
GLOBALSTAR M055         
1 25910U 99049D   26051.22200428 -.00000090  00000+0  34488-4 0  9992
2 25910  52.0047   9.3628 0006688 289.6657  70.3473 12.29440741198798
GLOBALSTAR M057         
1 25943U 99058A   26051.27779531 -.00000069  00000+0  21288-3 0  9998
2 25943  52.0013   4.1160 0002389 154.8984 205.1982 12.24833921197334
GLOBALSTAR M059         
1 25944U 99058B   26051.00244104 -.00000061  00000+0  30807-3 0  9992
2 25944  51.9993 256.7464 0001377  92.6328  59.8703 11.99994571603796
GLOBALSTAR M056         
1 25945U 99058C   26051.01185528 -.00000128  00000+0 -47316-3 0  9996
2 25945  51.9938 252.3293 0000840  17.8974 139.7121 12.04785257192496
GLOBALSTAR M031         
1 25946U 99058D   26051.13686289 -.00000167  00000+0 -77711-3 0  9995
2 25946  51.9957 129.4603 0000697 341.0538  24.1510 12.16049307194713
GLOBALSTAR M039         
1 25961U 99062A   26050.91830321 -.00000085  00000+0  10222-3 0  9992
2 25961  51.9821 234.1643 0002897 156.1723 203.9278 12.62342321211501
GLOBALSTAR M034         
1 25962U 99062B   26051.08108118 -.00000059  00000+0  34138-3 0  9997
2 25962  51.9865  87.0002 0014563 149.7350 235.2414 11.79456021167646
GLOBALSTAR M029         
1 25963U 99062C   26051.24965015 -.00000060  00000+0  32458-3 0  9998
2 25963  51.9795 143.8984 0002235 225.6014 161.8594 11.99908292198903
GLOBALSTAR M061         
1 25964U 99062D   26051.08659654 -.00000055  00000+0  40826-3 0  9992
2 25964  51.9781 274.3173 0006948  72.1923  88.8366 11.76777787150369
GLOBALSTAR M063         
1 26081U 00008A   26051.31426352 -.00000055  00000+0  40218-3 0  9993
2 26081  51.9938 178.0862 0005282  76.6338 303.6125 11.86181420187026
GLOBALSTAR M062         
1 26082U 00008B   26051.09171266 -.00000126  00000+0 -19953-3 0  9992
2 26082  51.9847  86.7582 0007067 280.9471 106.7823 12.43477181527460
GLOBALSTAR M060         
1 26083U 00008C   26051.12139704 -.00000048  00000+0  42337-3 0  9992
2 26083  52.0014  81.7580 0002973 263.1379 130.8585 12.17676271182577
GLOBALSTAR M064         
1 26084U 00008D   26050.98410143 -.00000057  00000+0  37030-3 0  9999
2 26084  52.0018 274.8687 0001714 138.6833 221.4130 11.88541843196568
GLOBALSTAR M065         
1 31571U 07020A   26050.82745097 -.00000087  00000+0  94216-4 0  9992
2 31571  51.9876 192.5177 0010667 133.8691  30.7299 12.62021059864677
GLOBALSTAR M069         
1 31573U 07020C   26050.89453126 -.00000073  00000+0  18482-3 0  9995
2 31573  52.0006 224.1102 0000783 250.2779 258.2017 12.23469031864448
GLOBALSTAR M072         
1 31574U 07020D   26051.21310729 -.00000082  00000+0  24260-4 0  9996
2 31574  51.9941  51.6612 0001350  89.1031 354.4885 11.91655948861037
GLOBALSTAR M071         
1 31576U 07020F   26051.01154208 -.00000119  00000+0 -27138-3 0  9992
2 31576  52.0039 256.3851 0000370 128.0352  26.7881 12.18265764525145
GLOBALSTAR M067         
1 32263U 07048A   26051.23390518 -.00000114  00000+0 -12637-3 0  9999
2 32263  51.9748  30.1152 0001254 138.5316 325.8882 12.40684635840279
GLOBALSTAR M070         
1 32264U 07048B   26051.20041862 -.00000071  00000+0  18229-3 0  9996
2 32264  51.9745  92.9449 0000385 102.7032 287.8395 12.62330688844993
GLOBALSTAR M066         
1 32265U 07048C   26051.18146724 -.00000115  00000+0 -17069-3 0  9998
2 32265  51.9605  33.8012 0004793 154.8686 289.7974 12.30384900845827
GLOBALSTAR M068         
1 32266U 07048D   26051.06629604 -.00000075  00000+0  15940-3 0  9999
2 32266  51.9873 266.6293 0001040  20.7334 140.4541 12.62840849848870
GLOBALSTAR M079         
1 37188U 10054A   26051.09183800 -.00000077  00000+0  14833-3 0  9996
2 37188  52.0035 105.1256 0000824 116.5861 258.2542 12.62263744707768
GLOBALSTAR M074         
1 37189U 10054B   26050.59706095 -.00000074  00000+0  16850-3 0  9996
2 37189  52.0011 105.9166 0000626 137.0573  27.4999 12.62266144708309
GLOBALSTAR M076         
1 37190U 10054C   26051.06430314 -.00000078  00000+0  14505-3 0  9998
2 37190  52.0022 104.6872 0000793 131.9729 236.6940 12.62270308708086
GLOBALSTAR M077         
1 37191U 10054D   26051.10350515 -.00000079  00000+0 -10369-4 0  9995
2 37191  51.9963 116.6256 0001098 136.3278 232.9796 11.68178246707467
GLOBALSTAR M075         
1 37192U 10054E   26051.23903605 -.00000073  00000+0  17162-3 0  9994
2 37192  51.9944 146.2738 0000702 110.7053 272.9076 12.62264423707170
GLOBALSTAR M073         
1 37193U 10054F   26051.25247173 -.00000103  00000+0  16695-5 0  9994
2 37193  52.0063  60.2422 0000588 115.4663 327.9370 12.62269583709162
GLOBALSTAR M083         
1 37739U 11033A   26051.28452230 -.00000096  00000+0  42346-4 0  9995
2 37739  51.9883   8.5333 0000610  87.0578  83.7376 12.62266928678187
GLOBALSTAR M088         
1 37740U 11033B   26051.01478138 -.00000081  00000+0  12573-3 0  9995
2 37740  52.0205 275.5021 0000856  76.2953  67.3364 12.62261653673694
GLOBALSTAR M091         
1 37741U 11033C   26051.03451845 -.00000103  00000+0  41454-5 0  9991
2 37741  51.9972 238.5797 0001022  82.9700  90.0786 12.62269964674485
GLOBALSTAR M085         
1 37742U 11033D   26051.30068804 -.00000099  00000+0  25871-4 0  9999
2 37742  52.0111 188.9567 0001035  94.7458 268.8201 12.62269162675030
GLOBALSTAR M081         
1 37743U 11033E   26050.80446213 -.00000108  00000+0 -24163-4 0  9993
2 37743  51.9941 193.0357 0001035 106.4700  41.4190 12.62262473675114
GLOBALSTAR M089         
1 37744U 11033F   26051.29425677 -.00000084  00000+0  10861-3 0  9990
2 37744  51.9921 145.7275 0000697 136.4996 258.0907 12.62264161676028
GLOBALSTAR M084         
1 38040U 11080A   26051.07996498 -.00000097  00000+0  38634-4 0  9995
2 38040  52.0031  13.7978 0000303 127.1393 312.9547 12.62267973653971
GLOBALSTAR M080         
1 38041U 11080B   26051.30361459 -.00000099  00000+0  26529-4 0  9997
2 38041  52.0083  14.7955 0000697  40.9086 105.4756 12.62266495654125
GLOBALSTAR M082         
1 38042U 11080C   26051.15977482 -.00000081  00000+0  12500-3 0  9994
2 38042  52.0101 330.7246 0000886  52.0768  90.2357 12.62267395654816
GLOBALSTAR M092         
1 38043U 11080D   26051.19848775 -.00000114  00000+0 -56132-4 0  9999
2 38043  52.0107  60.9932 0000390 105.2754 333.2406 12.62264596653277
GLOBALSTAR M090         
1 38044U 11080E   26051.10680543 -.00000113  00000+0 -51709-4 0  9992
2 38044  52.0151 324.8048 0000764  70.8666  69.3725 12.62271012654926
GLOBALSTAR M086         
1 38045U 11080F   26051.13008616 -.00000086  00000+0  99171-4 0  9994
2 38045  51.9920 324.8542 0001399 124.2646  15.7068 12.62282834654878
GLOBALSTAR M097         
1 39072U 13005A   26050.96981339 -.00000082  00000+0  12178-3 0  9993
2 39072  52.0030 240.1547 0001143  95.8926 264.2071 12.62284281602101
GLOBALSTAR M093         
1 39073U 13005B   26050.78522339 -.00000106  00000+0 -11499-4 0  9999
2 39073  52.0081 234.0199 0001329  94.9840 265.1179 12.62273051602038
GLOBALSTAR M094         
1 39074U 13005C   26051.18125417 -.00000080  00000+0  13133-3 0  9997
2 39074  51.9951 147.0486 0000942 106.6761 253.4209 12.62266873603699
GLOBALSTAR M096         
1 39075U 13005D   26050.56088324 -.00000113  00000+0 -53678-4 0  9991
2 39075  52.0054 197.6437 0001083  95.2142 264.8848 12.62263178602538
GLOBALSTAR M078         
1 39076U 13005E   26051.00952243 -.00000104  00000+0 -35107-5 0  9990
2 39076  51.9873 280.4536 0001343  39.8081 320.2884 12.62275257601214
GLOBALSTAR M095         
1 39077U 13005F   26051.03612877 -.00000077  00000+0  14903-3 0  9997
2 39077  52.0067 277.8121 0001313  66.4072 293.6933 12.62275752601077
GLOBALSTAR M087         
1 52888U 22064A   26051.20775227 -.00000114  00000+0 -55348-4 0  9997
2 52888  51.9996  58.5904 0000585  92.9597 267.1336 12.62266719176365
