EUTELSAT 139 WEST A     
1 28187U 04008A   26046.09815968 -.00000274  00000+0  00000+0 0  9994
2 28187   5.5178  73.4895 0001141 125.6442 268.7636  1.00839914 80136
EUTELSAT 174A           
1 28924U 05052A   26045.93262556  .00000013  00000+0  00000+0 0  9994
2 28924   3.9070  78.0647 0006079 250.4336 326.1598  1.00270328 51107
EUTELSAT 33F            
1 29270U 06032A   26046.11913313  .00000160  00000+0  00000+0 0  9996
2 29270   1.3449  83.7239 0003450 249.2697 248.1013  1.00274568 46086
EUTELSAT HOTBIRD 13C    
1 33459U 08065A   26046.07544687 -.00000279  00000+0  00000+0 0  9999
2 33459   2.6351  80.6804 0003678 258.5099 142.7371  1.00270836 46126
EUTELSAT 36B            
1 36101U 09065A   26046.12251314  .00000117  00000+0  00000+0 0  9995
2 36101   0.1810  75.9091 0005695 252.9447 270.8634  1.00270169 59484
EUTELSAT KA-SAT 9A      
1 37258U 10069A   26046.17753109  .00000066  00000+0  00000+0 0  9992
2 37258   0.0544 351.5186 0002036 150.6868  75.8437  1.00271423 42789
EUTELSAT 7 WEST A       
1 37816U 11051A   26046.11107308 -.00000055  00000+0  00000+0 0  9991
2 37816   0.0692  21.5877 0002232 224.9733 291.2261  1.00272738 52654
EUTELSAT 16A            
1 37836U 11057A   26046.17753109  .00000108  00000+0  00000+0 0  9999
2 37836   0.0589 344.0802 0005510 342.3258 258.6622  1.00270128  6110
EUTELSAT 21B            
1 38992U 12062B   26046.17197618  .00000135  00000+0  00000+0 0  9997
2 38992   0.0682 352.7107 0002921 327.2280 268.7263  1.00269729 48600
EUTELSAT 70B            
1 39020U 12069A   26046.12649981 -.00000038  00000+0  00000+0 0  9990
2 39020   0.0646   4.1285 0002662 295.2446 321.7634  1.00271411 48285
EUTELSAT 117 WEST A     
1 39122U 13012A   26046.17782648 -.00000008  00000+0  00000+0 0  9992
2 39122   0.0160  70.2292 0002848 267.0136 115.1394  1.00271093 47216
EUTELSAT 7B             
1 39163U 13022A   26046.17753109  .00000053  00000+0  00000+0 0  9997
2 39163   0.0707 340.0072 0006038   7.6188 228.4445  1.00271250 46727
EXPRESS-AT1             
1 39612U 14010A   26045.91483314  .00000084  00000+0  00000+0 0  9997
2 39612   0.0343 279.4860 0000390  50.3710 200.3824  1.00272359 43596
EXPRESS-AT2             
1 39613U 14010B   26046.21156228  .00000000  00000+0  00000+0 0  9991
2 39613   0.0271 111.3645 0001026 151.4275  98.4383  1.00267597 43277
EUTELSAT 3B             
1 39773U 14030A   26046.14280818  .00000025  00000+0  00000+0 0  9992
2 39773   0.0644   2.6777 0001737 257.0175 299.9395  1.00272426 42847
EUTELSAT 115 WEST B     
1 40425U 15010B   26046.17315406 -.00000020  00000+0  00000+0 0  9998
2 40425   0.0106 244.9593 0000239  24.0379 183.5991  1.00270617 40171
EUTELSAT 8 WEST B       
1 40875U 15039B   26046.11098640 -.00000061  00000+0  00000+0 0  9995
2 40875   0.0670 354.0704 0003931 330.8353 212.1486  1.00271448 38432
EUTELSAT 9B             
1 41310U 16005A   26046.17753109  .00000066  00000+0  00000+0 0  9992
2 41310   0.0327  69.1240 0004512 240.1623 268.7761  1.00272764 36897
EUTELSAT 65 WEST A      
1 41382U 16014A   26046.09963302 -.00000271  00000+0  00000+0 0  9999
2 41382   0.0522 357.1120 0002156 327.4202 151.2337  1.00273426 36312
EUTELSAT 117 WEST B     
1 41589U 16038B   26046.18385922 -.00000006  00000+0  00000+0 0  9996
2 41589   0.0129 251.6998 0000344  54.2454 148.4297  1.00269093 35447
EUTELSAT 172B           
1 42741U 17029B   26045.93253889 -.00000001  00000+0  00000+0 0  9991
2 42741   0.0189 149.7678 0000187 316.9385 185.9098  1.00272053 32501
EUTELSAT 7C             
1 44334U 19034B   26046.17753109  .00000053  00000+0  00000+0 0  9992
2 44334   0.0767 178.8369 0003331 138.2225 259.0250  1.00273512  5611
EUTELSAT 5 WEST B       
1 44624U 19067A   26046.11159308 -.00000038  00000+0  00000+0 0  9999
2 44624   0.1011 303.4694 0002963  32.7915 203.9996  1.00271740 23219
EUTELSAT KONNECT        
1 45027U 20005B   26046.09350240  .00000054  00000+0  00000+0 0  9993
2 45027   0.0630  98.2793 0000431 179.5039 268.1717  1.00269943 23112
EUTELSAT QUANTUM        
1 49056U 21069B   26046.12199314  .00000000  00000+0  00000+0 0  9998
2 49056   0.0241  91.5010 0002808 237.3165 267.9398  1.00270590 16706
EUTELSAT KONNECT VHTS   
1 53765U 22110A   26046.14280818  .00000021  00000+0  00000+0 0  9993
2 53765   0.0572 101.9687 0002859 198.7807 258.5027  1.00269254  5618
EUTELSAT HOTBIRD 13F    
1 54048U 22134A   26046.17753109  .00000092  00000+0  00000+0 0  9993
2 54048   0.0589 288.7984 0002253  75.9222 217.3510  1.00274370 12152
EUTELSAT HOTBIRD 13G    
1 54225U 22146A   26046.17753109  .00000091  00000+0  00000+0 0  9992
2 54225   0.0535 243.0425 0002013 292.0020  47.0177  1.00269990  6248
EUTELSAT 10B            
1 54259U 22157A   26046.17753109  .00000073  00000+0  00000+0 0  9991
2 54259   0.0562 100.6206 0002099 358.2622 120.1918  1.00270281 11806
EUTELSAT 36D            
1 59346U 24059A   26046.11965312  .00000161  00000+0  00000+0 0  9999
2 59346   0.0073 130.5628 0000262 259.3012 194.1774  1.00272352  6928
