ORBCOMM FM06            
1 25118U 97084G   26130.58841975  .00000856  00000+0  27009-3 0  9993
2 25118  45.0137 233.7012 0001391 203.6551 170.6062 14.47471044488944
ORBCOMM FM04            
1 25159U 98007C   26130.83921389  .00000660  00000+0  27213-3 0  9990
2 25159 107.9623  92.5592 0039895  29.7148 330.6248 14.35665839471232
ORBCOMM FM19            
1 25415U 98046C   26130.80575552  .00000718  00000+0  27404-3 0  9998
2 25415  44.9943  61.2359 0001951  99.0077 289.2693 14.39422625451395
ORBCOMM FM20            
1 25416U 98046D   26130.56765245  .00000462  00000+0  19804-3 0  9993
2 25416  44.9943  69.8777 0001107 326.2512  33.8265 14.38009423451378
ORBCOMM FM27            
1 25481U 98053G   26130.35340328  .00000495  00000+0  20436-3 0  9990
2 25481  45.0034 155.0400 0001972 273.8062  86.2561 14.39066383444788
ORBCOMM FM32            
1 25982U 99065C   26130.33410852  .00000464  00000+0  20224-3 0  9999
2 25982  45.0169 352.4051 0005382 228.9365 131.1018 14.37078245381644
ORBCOMM FM109           
1 40086U 14040A   26130.77203500  .00000229  00000+0  84660-4 0  9993
2 40086  47.0037 268.3771 0000866  40.3488 319.7461 14.58805400628880
ORBCOMM FM114           
1 41179U 15081A   26130.44710307  .00000185  00000+0  75515-4 0  9995
2 41179  47.0034 180.4290 0001887 357.3429   2.7446 14.58815793552245
ORBCOMM FM110           
1 41182U 15081D   26130.64129281  .00000269  00000+0  93234-4 0  9997
2 41182  47.0004 178.9622 0004032 262.9995  97.0432 14.58820011552141
ORBCOMM FM118           
1 41183U 15081E   26130.40186427  .00000270  00000+0  93432-4 0  9999
2 41183  47.0029 180.4209 0003912 232.5322 127.5208 14.58841405552219
ORBCOMM FM112           
1 41184U 15081F   26130.61197669  .00000512  00000+0  14495-3 0  9993
2 41184  46.9981  87.9156 0002441  20.7811 339.3174 14.58754037553460
ORBCOMM FM113           
1 41185U 15081G   26130.58795336  .00000260  00000+0  91341-4 0  9991
2 41185  47.0002  88.3927 0001501   0.9578 359.1310 14.58815962553449
ORBCOMM FM108           
1 41187U 15081J   26130.34507141  .00000457  00000+0  13311-3 0  9990
2 41187  47.0064   1.1056 0002434  14.2720 345.8234 14.58816567554550
ORBCOMM FM117           
1 41188U 15081K   26130.78993697  .00000419  00000+0  12493-3 0  9992
2 41188  47.0028 357.6477 0002805  24.7550 335.3470 14.58815074554666
ORBCOMM FM116           
1 41189U 15081L   26130.29124315  .00000198  00000+0  78183-4 0  9995
2 41189  47.0017  89.7928 0002465 266.6969  93.3634 14.58823539553401
