EUTELSAT 174A           
1 28924U 05052A   26182.90414270  .00000016  00000+0  00000+0 0  9998
2 28924   4.2536  76.3505 0006183  25.0431 318.0699  1.00269114 52474
EUTELSAT 33F            
1 29270U 06032A   26182.80497064  .00000165  00000+0  00000+0 0  9998
2 29270   1.6973  82.0929 0003724  16.8897 143.7296  1.00272525 47459
EUTELSAT HOTBIRD 13C    
1 33459U 08065A   26182.95102832 -.00000274  00000+0  00000+0 0  9994
2 33459   2.9860  79.0249 0003447  21.5673 111.4724  1.00271245 47490
EUTELSAT 36B            
1 36101U 09065A   26182.91336338  .00000123  00000+0  00000+0 0  9990
2 36101   0.5260  81.2642 0006121  19.0931 198.9220  1.00268586 60858
EUTELSAT KA-SAT 9A      
1 37258U 10069A   26182.87197624  .00000071  00000+0  00000+0 0  9990
2 37258   0.0607  12.6745 0004140 127.5362 102.6028  1.00267490 44152
EUTELSAT 7 WEST A       
1 37816U 11051A   26182.86826546 -.00000050  00000+0  00000+0 0  9991
2 37816   0.0600   5.9069 0004733 105.6033 113.6681  1.00271542 54026
EUTELSAT 16A            
1 37836U 11057A   26182.97468175  .00000115  00000+0  00000+0 0  9992
2 37836   0.0425 335.9244 0005658 124.2274 186.7669  1.00274192  7484
EUTELSAT 21B            
1 38992U 12062B   26182.87393885  .00000141  00000+0  00000+0 0  9996
2 38992   0.0666 345.3012 0002864 107.6559 163.1962  1.00274792 49971
EUTELSAT 70B            
1 39020U 12069A   26182.95441804 -.00000033  00000+0  00000+0 0  9991
2 39020   0.0609   5.1029 0003462  94.6068 234.3707  1.00271029 49658
EUTELSAT 117 WEST A     
1 39122U 13012A   26182.91782275 -.00000002  00000+0  00000+0 0  9995
2 39122   0.0187 326.9263 0003011 134.2607  32.3822  1.00271474 48585
EUTELSAT 7B             
1 39163U 13022A   26182.87197624  .00000058  00000+0  00000+0 0  9994
2 39163   0.0660 344.5181 0004382  62.2966 194.0231  1.00270383 48095
EXPRESS-AT1             
1 39612U 14010A   26182.96553049  .00000018  00000+0  00000+0 0  9994
2 39612   0.2947  85.5224 0004529  44.9504 201.2693  1.00307822 44966
EXPRESS-AT2             
1 39613U 14010B   26182.88078331  .00000089  00000+0  00000+0 0  9990
2 39613   0.0180 339.9988 0000510  87.1601 225.8428  1.00271696 44642
EUTELSAT 3B             
1 39773U 14030A   26182.87034547  .00000030  00000+0  00000+0 0  9995
2 39773   0.0602   4.6615 0004229  93.8288 137.8353  1.00271803 44219
EUTELSAT 115 WEST B     
1 40425U 15010B   26182.90480845 -.00000014  00000+0  00000+0 0  9993
2 40425   0.0045 194.9373 0000240  74.2257 221.6021  1.00271834 41538
EUTELSAT 8 WEST B       
1 40875U 15039B   26182.94837830 -.00000055  00000+0  00000+0 0  9992
2 40875   0.0641 344.8106 0003733 110.6281 157.9698  1.00272128 39806
EUTELSAT 9B             
1 41310U 16005A   26182.87197624  .00000072  00000+0  00000+0 0  9991
2 41310   0.0561  68.7538 0001611   7.0881 166.9748  1.00271563 38268
EUTELSAT 65 WEST A      
1 41382U 16014A   26182.92804946 -.00000266  00000+0  00000+0 0  9994
2 41382   0.0844 302.5716 0002754 159.0708  87.2209  1.00269981 37675
EUTELSAT 117 WEST B     
1 41589U 16038B   26182.47753068 -.00000001  00000+0  00000+0 0  9994
2 41589   0.0045 199.2910 0000120  75.4259  59.7184  1.00272874 36806
EUTELSAT 172B           
1 42741U 17029B   26182.90379603  .00000005  00000+0  00000+0 0  9996
2 42741   0.0243 117.7555 0000297 310.6191 348.9459  1.00271217 33884
EUTELSAT 7C             
1 44334U 19034B   26182.87197624  .00000059  00000+0  00000+0 0  9990
2 44334   0.0747 182.2448 0003509 264.2344 154.3675  1.00271574  6980
EUTELSAT 5 WEST B       
1 44624U 19067A   26182.86869880 -.00000031  00000+0  00000+0 0  9998
2 44624   0.0708 330.0335 0003348 131.5809 126.0367  1.00272909 24583
EUTELSAT KONNECT        
1 45027U 20005B   26182.87197624  .00000060  00000+0  00000+0 0  9992
2 45027   0.0682  93.3959 0002115 129.2496  18.4075  1.00271071 24488
EUTELSAT QUANTUM        
1 49056U 21069B   26182.87913663  .00000136  00000+0  00000+0 0  9992
2 49056   0.0095  19.7996 0002650  80.9510 183.3548  1.00272407 18078
EUTELSAT KONNECT VHTS   
1 53765U 22110A   26182.37121808  .00000027  00000+0  00000+0 0  9998
2 53765   0.0614  98.4813 0003056 342.3407 334.9638  1.00270298  6976
EUTELSAT HOTBIRD 13F    
1 54048U 22134A   26182.80098396  .00000099  00000+0  00000+0 0  9991
2 54048   0.0571 288.9447 0002291  66.1603 226.1318  1.00278454 13529
EUTELSAT HOTBIRD 13G    
1 54225U 22146A   26182.97244439  .00000098  00000+0  00000+0 0  9999
2 54225   0.0637 217.0978 0002039 316.0851 109.9197  1.00271101  7611
EUTELSAT 10B            
1 54259U 22157A   26182.51526966  .00000079  00000+0  00000+0 0  9995
2 54259   0.0611  96.7132 0002158   0.2115  18.1355  1.00276534 13171
EUTELSAT 36D            
1 59346U 24059A   26182.80549064  .00000000  00000+0  00000+0 0  9990
2 59346   0.0241  45.5438 0000430  85.3511 114.7796  1.00275117  8293
