ORBCOMM FM06            
1 25118U 97084G   26108.91616414  .00000888  00000+0  27898-3 0  9994
2 25118  45.0150 338.0123 0001218 357.5500  16.7830 14.47410822485804
ORBCOMM FM04            
1 25159U 98007C   26108.82071157  .00000605  00000+0  25356-3 0  9998
2 25159 107.9612  47.2564 0038933  69.0423 291.4877 14.35616802468077
ORBCOMM FM19            
1 25415U 98046C   26108.90074294  .00000611  00000+0  24018-3 0  9991
2 25415  44.9930 165.3439 0002844 329.4791 200.3018 14.39376165448232
ORBCOMM FM20            
1 25416U 98046D   26108.89177624  .00000426  00000+0  18629-3 0  9996
2 25416  44.9930 172.6619 0001689 260.9240  99.1417 14.37976327448251
ORBCOMM FM27            
1 25481U 98053G   26108.83227543  .00000626  00000+0  24650-3 0  9999
2 25481  45.0048 257.2436 0000811 210.3217 149.7585 14.39026578441685
ORBCOMM FM32            
1 25982U 99065C   26108.64414080  .00000470  00000+0  20454-3 0  9997
2 25982  45.0148  95.0584 0003781 124.2484 235.8723 14.37040824378523
ORBCOMM FM109           
1 40086U 14040A   26108.99221741  .00000300  00000+0  99850-4 0  9996
2 40086  47.0049  11.3412 0002178 305.8709  54.1975 14.58781023625706
ORBCOMM FM114           
1 41179U 15081A   26108.87290770  .00000301  00000+0  99975-4 0  9990
2 41179  47.0048 282.4207 0002675 280.4773  79.5811 14.58790667549094
ORBCOMM FM110           
1 41182U 15081D   26108.79331897  .00000297  00000+0  99202-4 0  9998
2 41182  47.0020 282.2555 0003040 170.0303 190.0644 14.58809419548955
ORBCOMM FM118           
1 41183U 15081E   26109.17044587  .00000337  00000+0  10775-3 0  9991
2 41183  47.0041 280.7966 0002758 132.4844 227.6275 14.58807463549118
ORBCOMM FM112           
1 41184U 15081F   26108.21450129  .00000390  00000+0  11893-3 0  9990
2 41184  46.9985 193.7972 0002778 275.2228  84.8341 14.58804811550199
ORBCOMM FM113           
1 41185U 15081G   26109.21924171  .00000248  00000+0  88872-4 0  9999
2 41185  47.0000 189.4225 0002326 282.7603  77.3023 14.58793188550325
ORBCOMM FM108           
1 41187U 15081J   26109.04482080  .00000340  00000+0  10841-3 0  9993
2 41187  47.0041 101.8000 0003676 285.3318  74.7162 14.58809292551445
ORBCOMM FM117           
1 41188U 15081K   26109.01025991  .00000216  00000+0  82099-4 0  9992
2 41188  47.0001 100.6156 0004085 290.2080  69.8366 14.58803135551482
ORBCOMM FM116           
1 41189U 15081L   26109.19663251  .00000430  00000+0  12740-3 0  9992
2 41189  47.0017 189.5251 0001737 189.1391 170.9463 14.58802762550323
