GLOBALSTAR M069         
1 31573U 07020C   26223.02752785 -.00000076  00000+0  15275-3 0  9995
2 31573  52.0027  96.9061 0001095 272.8889 227.9609 12.23473482885515
GLOBALSTAR M072         
1 31574U 07020D   26222.67675146 -.00000068  00000+0  21830-3 0  9996
2 31574  51.9952 315.1824 0001571  76.4676  72.1082 11.91659117881476
GLOBALSTAR M066         
1 32265U 07048C   26223.14850619 -.00000085  00000+0  76375-4 0  9991
2 32265  51.9577 260.1370 0005036 156.8276 237.6052 12.30390629866990
GLOBALSTAR M079         
1 37188U 10054A   26223.15782948 -.00000077  00000+0  14814-3 0  9991
2 37188  52.0052 301.3345 0000832 117.0629 252.4207 12.62266879729493
GLOBALSTAR M074         
1 37189U 10054B   26222.66397314 -.00000080  00000+0  12994-3 0  9997
2 37189  52.0028 302.0953 0000514 129.0713  34.7208 12.62262222730036
GLOBALSTAR M076         
1 37190U 10054C   26222.49885892 -.00000084  00000+0  10953-3 0  9990
2 37190  52.0042 302.8060 0000763 131.5761 241.5102 12.62262990729736
GLOBALSTAR M077         
1 37191U 10054D   26222.81694780 -.00000063  00000+0  27385-3 0  9995
2 37191  51.9970  40.6358 0002047 279.0250  93.3283 11.67547946727529
GLOBALSTAR M075         
1 37192U 10054E   26222.78270016 -.00000095  00000+0  49712-4 0  9998
2 37192  51.9974 343.9623 0000723  98.1623  66.4351 12.62268103728834
GLOBALSTAR M073         
1 37193U 10054F   26223.06831082 -.00000070  00000+0  18712-3 0  9995
2 37193  52.0043 257.2371 0000565 130.0218 251.2565 12.62267527730867
GLOBALSTAR M083         
1 37739U 11033A   26223.17374872 -.00000111  00000+0 -42408-4 0  9997
2 37739  51.9841 205.0677 0000427 109.3769 331.9390 12.62258385699895
GLOBALSTAR M088         
1 37740U 11033B   26223.08253125 -.00000096  00000+0  44652-4 0  9990
2 37740  52.0210 111.9056 0000630  58.2175  87.8498 12.62269741695423
GLOBALSTAR M091         
1 37741U 11033C   26223.02049843 -.00000096  00000+0  45351-4 0  9992
2 37741  51.9996  74.9790 0000937  71.0386  93.2241 12.62264496696209
GLOBALSTAR M085         
1 37742U 11033D   26222.92825726 -.00000106  00000+0 -98237-5 0  9998
2 37742  52.0140  26.5987 0001032  86.7898  78.0684 12.62264596696700
GLOBALSTAR M081         
1 37743U 11033E   26222.87130872 -.00000099  00000+0  24554-4 0  9994
2 37743  51.9973  29.1456 0000885  94.0253  51.9549 12.62265714696843
GLOBALSTAR M089         
1 37744U 11033F   26222.83637892 -.00000105  00000+0 -75337-5 0  9990
2 37744  51.9957 343.4016 0000542 123.0402  45.4566 12.62267743697683
GLOBALSTAR M084         
1 38040U 11080A   26223.14681928 -.00000102  00000+0  88946-5 0  9992
2 38040  51.9986 209.9658 0000199 167.9254 271.5735 12.62269924675705
GLOBALSTAR M080         
1 38041U 11080B   26223.19835655 -.00000101  00000+0  14264-4 0  9996
2 38041  52.0037 211.5481 0000579  43.7994  38.9953 12.62258202675830
GLOBALSTAR M082         
1 38042U 11080C   26223.13966660 -.00000128  00000+0 -13344-3 0  9999
2 38042  52.0065 167.2307 0000647  52.6657  54.5202 12.62274942676535
GLOBALSTAR M092         
1 38043U 11080D   26223.09612991 -.00000099  00000+0  27130-4 0  9995
2 38043  52.0075 257.7664 0000319 122.4439 265.8649 12.62268469674984
GLOBALSTAR M090         
1 38044U 11080E   26223.16643323 -.00000124  00000+0 -11085-3 0  9998
2 38044  52.0112 161.1231 0000649  71.6653  35.8347 12.62269796676654
GLOBALSTAR M086         
1 38045U 11080F   26223.02281946 -.00000112  00000+0 -48370-4 0  9998
2 38045  51.9889 161.3991 0001121 145.7824 294.4081 12.62288537676582
GLOBALSTAR M097         
1 39072U 13005A   26223.03735028 -.00000105  00000+0 -64433-5 0  9995
2 39072  52.0049  76.3658 0000886  76.5478 283.5487 12.62271308623838
GLOBALSTAR M093         
1 39073U 13005B   26223.01069332 -.00000095  00000+0  48927-4 0  9998
2 39073  52.0103  69.8157 0001080  85.6407 274.4583 12.62266660623786
GLOBALSTAR M094         
1 39074U 13005C   26222.61465643 -.00000108  00000+0 -22125-4 0  9997
2 39074  51.9986 345.0847 0000956 104.6340 255.4633 12.62264308625344
GLOBALSTAR M096         
1 39075U 13005D   26222.94480360 -.00000105  00000+0 -61537-5 0  9995
2 39075  52.0084  32.9214 0001058  85.9433 274.1555 12.62275939624302
GLOBALSTAR M078         
1 39076U 13005E   26223.07648524 -.00000090  00000+0  79350-4 0  9992
2 39076  51.9867 116.4583 0001456  42.5514 317.5465 12.62261649622941
GLOBALSTAR M095         
1 39077U 13005F   26222.86556109 -.00000105  00000+0 -87514-5 0  9996
2 39077  52.0076 114.7811 0001071  60.3220 299.7753 12.62264175622775
GLOBALSTAR M087         
1 52888U 22064A   26223.11620589 -.00000081  00000+0  12757-3 0  9996
2 52888  51.9979 255.2269 0000556 105.7469 254.3459 12.62262582198075
