ORBCOMM FM06            
1 25118U 97084G   26134.61819057  .00000667  00000+0  21903-3 0  9994
2 25118  45.0130 214.3045 0001725 220.0925 293.4744 14.47477563489525
ORBCOMM FM04            
1 25159U 98007C   26134.67147207  .00000613  00000+0  25590-3 0  9999
2 25159 107.9626 100.4452 0040081  22.9684 337.3238 14.35671655471784
ORBCOMM FM19            
1 25415U 98046C   26134.83513990  .00000656  00000+0  25409-3 0  9997
2 25415  44.9948  42.0854 0002164 127.5528 281.0254 14.39429323451971
ORBCOMM FM20            
1 25416U 98046D   26134.87497998  .00000380  00000+0  17121-3 0  9997
2 25416  44.9948  49.4530 0000736 342.4418  17.6405 14.38014171451996
ORBCOMM FM27            
1 25481U 98053G   26134.37987710  .00000457  00000+0  19230-3 0  9996
2 25481  45.0036 135.9171 0001926 285.9672  74.0964 14.39071155445362
ORBCOMM FM32            
1 25982U 99065C   26134.78326992  .00000374  00000+0  17215-3 0  9999
2 25982  45.0166 331.3474 0005609 246.9710 113.0547 14.37082660382285
ORBCOMM FM109           
1 40086U 14040A   26134.67592702  .00000181  00000+0  74605-4 0  9996
2 40086  47.0033 249.9214 0000695  73.0313 287.0649 14.58808315629450
ORBCOMM FM114           
1 41179U 15081A   26134.41945769  .00000185  00000+0  75340-4 0  9994
2 41179  47.0031 161.6491 0001664  16.1699 343.9239 14.58818542552827
ORBCOMM FM110           
1 41182U 15081D   26134.40816786  .00000271  00000+0  93666-4 0  9990
2 41182  47.0002 161.1525 0004066 277.5398  82.5026 14.58823159552695
ORBCOMM FM118           
1 41183U 15081E   26134.51112214  .00000189  00000+0  76369-4 0  9997
2 41183  47.0026 160.9926 0004050 248.9107 111.1346 14.58844025552810
ORBCOMM FM112           
1 41184U 15081F   26134.51600630  .00000327  00000+0  10573-3 0  9990
2 41184  46.9989  69.4592 0002296  43.2979 316.8087 14.58757726554035
ORBCOMM FM113           
1 41185U 15081G   26134.90275004  .00000193  00000+0  77074-4 0  9998
2 41185  47.0009  67.9927 0001253  25.1572 334.9375 14.58819203554070
ORBCOMM FM108           
1 41187U 15081J   26134.93382086  .00000381  00000+0  11693-3 0  9995
2 41187  47.0060 339.4121 0002160  39.1885 320.9157 14.58821527555225
ORBCOMM FM117           
1 41188U 15081K   26134.89926967  .00000357  00000+0  11189-3 0  9996
2 41188  47.0025 338.2195 0002586  47.5849 312.5255 14.58819236555264
ORBCOMM FM116           
1 41189U 15081L   26134.87996836  .00000203  00000+0  79284-4 0  9998
2 41189  47.0026  68.0980 0002351 281.6901  78.3721 14.58827638554074
