QIANFAN-1               
1 60379U 24140A   26240.54285628  .00000046  00000+0  52486-4 0  9998
2 60379  88.9681 272.4196 0017540 180.3431 179.7711 13.51025083102290
QIANFAN-2               
1 60380U 24140B   26240.57175770  .00000061  00000+0  74830-4 0  9993
2 60380  88.9667 272.2208 0013793 151.6669 208.5235 13.51033900102354
QIANFAN-3               
1 60381U 24140C   26240.58003842  .00000045  00000+0  51279-4 0  9999
2 60381  88.9660 272.3330 0014529 163.8997 196.2619 13.51022171102269
QIANFAN-4               
1 60382U 24140D   26240.55519917  .00000038  00000+0  39566-4 0  9999
2 60382  88.9685 272.2984 0013966 154.1159 206.0693 13.51020637102388
QIANFAN-5               
1 60383U 24140E   26240.53056327  .00000060  00000+0  74137-4 0  9997
2 60383  88.9659 272.3626 0015354 175.5995 184.5294 13.51030335102240
QIANFAN-6               
1 60384U 24140F   26240.55112013  .00000040  00000+0  42410-4 0  9992
2 60384  88.9686 272.1769 0013883 159.6999 200.4706 13.51023496102447
QIANFAN-7               
1 60385U 24140G   26240.56121497  .00000202  00000+0  75672-4 0  9996
2 60385  88.9724 263.2607 0012454 268.2597  91.7170 14.27888293107323
QIANFAN-8               
1 60386U 24140H   26240.55950325  .00000049  00000+0  56965-4 0  9999
2 60386  88.9687 272.4167 0017236 163.4383 196.7335 13.51025455102296
QIANFAN-9               
1 60387U 24140J   26240.53466285  .00000061  00000+0  74936-4 0  9997
2 60387  88.9686 272.4894 0016939 163.1565 197.0153 13.51020840102274
QIANFAN-10              
1 60388U 24140K   26240.53878344  .00000044  00000+0  49563-4 0  9990
2 60388  88.9696 271.8634 0016100 141.4358 218.7947 13.51021000102406
QIANFAN-11              
1 60389U 24140L   26240.57592017  .00000044  00000+0  49511-4 0  9998
2 60389  88.9621 272.2518 0014990 161.9010 198.2678 13.51020536102066
QIANFAN-12              
1 60390U 24140M   26240.52241351  .00000048  00000+0  56203-4 0  9997
2 60390  88.9664 272.4135 0013555 169.1770 190.9675 13.51022882102186
QIANFAN-13              
1 60391U 24140N   26240.56763152  .00000059  00000+0  72295-4 0  9991
2 60391  88.9925 272.5930 0013300 171.1578 188.9810 13.51022841102215
QIANFAN-14              
1 60392U 24140P   26240.51829057  .00000047  00000+0  53605-4 0  9995
2 60392  88.9656 272.3880 0016920 173.5927 186.5444 13.51018323102211
QIANFAN-15              
1 60393U 24140Q   26240.52653968  .00000075  00000+0  98004-4 0  9996
2 60393  88.9679 272.4053 0013231 158.1827 201.9891 13.51026773102205
QIANFAN-16              
1 60394U 24140R   26240.58817969  .00000043  00000+0  47117-4 0  9990
2 60394  88.9681 272.5261 0014747 176.1377 183.9890 13.51024739102123
QIANFAN-17              
1 60395U 24140S   26240.58414505  .00000042  00000+0  46730-4 0  9999
2 60395  88.9692 272.6008 0015358 170.1941 189.9513 13.51020891103085
QIANFAN-18              
1 60396U 24140T   26240.56357717  .00000047  00000+0  53789-4 0  9996
2 60396  88.9686 272.1196 0015276 153.5320 206.6615 13.51020347102475
QIANFAN-19              
1 61552U 24185A   26240.58189948  .00000331  00000+0  16548-3 0  9998
2 61552  88.9820  48.2801 0006720 174.4038 185.7226 14.14519119106252
QIANFAN-20              
1 61553U 24185B   26240.55043866  .00000370  00000+0  20562-3 0  9998
2 61553  88.9814  48.8634 0003967 221.9828 138.1053 14.09059548105934
QIANFAN-21              
1 61554U 24185C   26240.56380177  .00000483  00000+0  20831-3 0  9993
2 61554  88.9740  46.6652 0008676 232.4400 127.6004 14.22915396106773
QIANFAN-22              
1 61555U 24185D   26240.53899519  .00000182  00000+0  14559-3 0  9992
2 61555  88.9795  50.8902 0004339 290.6538  69.4168 13.86422717104792
QIANFAN-23              
1 61556U 24185E   26240.54290959  .00000333  00000+0  16015-3 0  9994
2 61556  88.9814  47.9734 0006966 183.9532 176.1603 14.16541320106384
QIANFAN-24              
1 61557U 24185F   26240.55755796  .00000531  00000+0  22455-3 0  9996
2 61557  88.9797  46.9552 0009986 161.0686 199.0879 14.24139313106859
QIANFAN-25              
1 61558U 24185G   26240.55720537  .00000357  00000+0  20900-3 0  9991
2 61558  88.9801  48.8987 0009935 242.3326 117.6848 14.06116166105871
QIANFAN-26              
1 61559U 24185H   26240.56416751  .00000174  00000+0  16095-3 0  9990
2 61559  88.9800  51.8122 0004292 326.9419  33.1479 13.77937797104317
QIANFAN-27              
1 61560U 24185J   26240.55170510  .00000491  00000+0  19379-3 0  9991
2 61560  88.9810  46.6050 0008433 144.7580 215.4174 14.27587041107081
QIANFAN-28              
1 61561U 24185K   26240.52868170  .00000611  00000+0  23816-3 0  9990
2 61561  88.9827  46.6221 0008362 143.1805 216.9965 14.28464344107113
QIANFAN-29              
1 61562U 24185L   26240.57941783  .00000132  00000+0  18482-3 0  9999
2 61562  88.9768  54.5530 0010700  32.0172 328.1627 13.51088968102745
QIANFAN-30              
1 61563U 24185M   26240.52788913  .00000129  00000+0  18443-3 0  9992
2 61563  88.9789  54.1828 0008125  22.0955 338.0544 13.50070856102981
QIANFAN-31              
1 61564U 24185N   26240.52321112  .00000142  00000+0  17897-3 0  9994
2 61564  88.9773  53.5744 0007147  10.4190 349.7112 13.58058204103285
QIANFAN-32              
1 61565U 24185P   26240.57686655  .00000103  00000+0  14157-3 0  9999
2 61565  88.9828  54.3880 0011044  47.6309 312.5775 13.50802215102982
QIANFAN-33              
1 61566U 24185Q   26240.53937113  .00000305  00000+0  21012-3 0  9996
2 61566  88.9796  49.9535 0005977 227.3542 132.7132 13.96741956105287
QIANFAN-34              
1 61567U 24185R   26240.58403937  .00000308  00000+0  19160-3 0  9998
2 61567  88.9774  49.1700 0004652 219.5346 140.5496 14.02506204105636
QIANFAN-35              
1 61568U 24185S   26240.58393394  .00000571  00000+0  22273-3 0  9995
2 61568  88.9809  46.4972 0007656 139.0423 221.1348 14.28338739107128
QIANFAN-36              
1 61569U 24185T   26240.52287925  .00000067  00000+0  79051-4 0  9999
2 61569  88.9765  54.0743 0007005  28.0078 332.1452 13.55644779102983
QIANFAN-37              
1 62238U 24232B   26240.54653145  .00000087  00000+0  11632-3 0  9991
2 62238  89.0127  15.3266 0002479  92.8578 267.2857 13.51027210134113
QIANFAN-38              
1 62239U 24232C   26240.64531139  .00000069  00000+0  87860-4 0  9998
2 62239  89.0134  15.2500 0015399 160.7545 199.4191 13.51025610134182
QIANFAN-39              
1 62240U 24232D   26240.59001502  .00000313  00000+0  12635-3 0  9999
2 62240  89.0120   7.8336 0014207 315.9658  44.0402 14.25548498138268
QIANFAN-40              
1 62241U 24232E   26240.60417160  .00000050  00000+0  58085-4 0  9991
2 62241  89.0162  14.9108 0014218 167.7856 192.3643 13.51025737134541
QIANFAN-41              
1 62242U 24232F   26240.53833556  .00000061  00000+0  75787-4 0  9995
2 62242  89.0132  15.2074 0014912 157.1175 203.0643 13.51026865134197
QIANFAN-42              
1 62243U 24232G   26240.54236216  .00000293  00000+0  12001-3 0  9993
2 62243  89.0118   7.9244 0013261 324.5823  35.4488 14.24636163138215
QIANFAN-43              
1 62244U 24232H   26240.53421406  .00000064  00000+0  80937-4 0  9990
2 62244  89.0136  15.2846 0016291 162.6470 197.5241 13.51026496102805
QIANFAN-44              
1 62245U 24232J   26240.59596597  .00000068  00000+0  87133-4 0  9990
2 62245  89.0135  15.0849 0014606 158.9614 201.2141 13.51026795134283
QIANFAN-45              
1 62246U 24232K   26240.56304565  .00000074  00000+0  95239-4 0  9993
2 62246  89.0138  15.2439 0015269 158.9994 201.1787 13.51025633134208
QIANFAN-46              
1 62247U 24232L   26240.58768370  .00000072  00000+0  92009-4 0  9994
2 62247  89.0134  15.2999 0015161 164.1554 196.0075 13.51026693134162
QIANFAN-47              
1 62248U 24232M   26240.59182879  .00000079  00000+0  10353-3 0  9998
2 62248  89.0130  15.2220 0015605 163.5261 196.6401 13.51025761134194
QIANFAN-48              
1 62249U 24232N   26240.55479230  .00000095  00000+0  12782-3 0  9991
2 62249  89.0134  15.2377 0017776 166.9443 193.2172 13.51020061134198
QIANFAN-49              
1 62250U 24232P   26240.54248135  .00000071  00000+0  91477-4 0  9993
2 62250  89.0133  15.2493 0015037 160.7462 199.4260 13.51027266102789
QIANFAN-50              
1 62251U 24232Q   26240.64118115  .00000072  00000+0  93311-4 0  9999
2 62251  89.0138  15.2618 0016651 162.3930 197.7802 13.51026707102822
QIANFAN-51              
1 62252U 24232R   26240.55068673  .00000073  00000+0  94802-4 0  9990
2 62252  89.0132  15.2488 0014003 165.1583 194.9982 13.51025774102805
QIANFAN-52              
1 62253U 24232S   26240.57949671  .00000081  00000+0  10606-3 0  9997
2 62253  89.0129  15.1094 0016253 158.5279 201.6557 13.51027684102896
QIANFAN-53              
1 62254U 24232T   26240.55894633  .00000074  00000+0  96272-4 0  9999
2 62254  89.0136  15.2355 0015105 159.1706 201.0063 13.51024646102850
QIANFAN-54              
1 62255U 24232U   26240.52601370  .00000065  00000+0  82059-4 0  9999
2 62255  89.0127  14.8944 0002378 158.5534 201.5717 13.51026351134356
QIANFAN-55              
1 62785U 25016A   26240.55207776  .00000030  00000+0  27791-4 0  9997
2 62785  88.9666  76.3521 0016316 326.1272  33.8836 13.51023515 82138
QIANFAN-56              
1 62786U 25016B   26240.56841995  .00000055  00000+0  66438-4 0  9994
2 62786  88.9641  76.1178 0015001 329.4359  30.5917 13.51026643 82184
QIANFAN-57              
1 62787U 25016C   26240.52742237  .00000046  00000+0  53135-4 0  9990
2 62787  88.9671  76.3562 0002505  94.8042 265.3396 13.51026371 82147
QIANFAN-58              
1 62788U 25016D   26240.57258710  .00000057  00000+0  70206-4 0  9994
2 62788  88.9642  76.1042 0012693 322.3081  37.7179 13.51018787 82195
QIANFAN-59              
1 62789U 25016E   26240.52310599  .00000050  00000+0  58991-4 0  9994
2 62789  88.9665  76.2442 0013175 326.3345  33.6968 13.51023097 82189
QIANFAN-60              
1 62790U 25016F   26240.55608015  .00000057  00000+0  69014-4 0  9997
2 62790  88.9646  76.1629 0014603 321.6851  38.3262 13.51026367 82174
QIANFAN-61              
1 62791U 25016G   26240.58903394  .00000051  00000+0  60498-4 0  9990
2 62791  88.9712  76.4976 0013563 321.5391  38.4792 13.51026095 82198
QIANFAN-62              
1 62792U 25016H   26240.59314410  .00000050  00000+0  58361-4 0  9992
2 62792  88.9660  76.2265 0014898 321.1801  38.8279 13.51018572 82188
QIANFAN-63              
1 62793U 25016J   26240.54375410  .00000053  00000+0  63532-4 0  9994
2 62793  88.9666  76.2007 0015125 327.0494  32.9714 13.51021675 82217
QIANFAN-64              
1 62794U 25016K   26240.58494362  .00000049  00000+0  57739-4 0  9994
2 62794  88.9653  76.1358 0012854 320.2650  39.7559 13.51026066 82218
QIANFAN-65              
1 62795U 25016L   26240.58066486  .00000062  00000+0  77726-4 0  9990
2 62795  88.9650  76.1529 0012763 322.2062  37.8192 13.51022274 82190
QIANFAN-66              
1 62796U 25016M   26240.53544129  .00000056  00000+0  67488-4 0  9998
2 62796  88.9669  76.1787 0013730 317.0779  42.9300 13.51027961 82230
QIANFAN-67              
1 62797U 25016N   26240.53959981  .00000059  00000+0  73135-4 0  9994
2 62797  88.9659  76.1784 0013898 324.5315  35.4911 13.51027747 82205
QIANFAN-68              
1 62798U 25016P   26240.53135428  .00000053  00000+0  63144-4 0  9990
2 62798  88.9663  76.2337 0013910 322.2343  37.7831 13.51020486 82183
QIANFAN-69              
1 62799U 25016Q   26240.54775098  .00000047  00000+0  54425-4 0  9990
2 62799  88.9642  76.0463 0014678 323.3526  36.6620 13.51023017 82228
QIANFAN-70              
1 62800U 25016R   26240.56432648  .00000064  00000+0  81156-4 0  9996
2 62800  88.9662  76.2370 0014009 313.0489  46.9488 13.51022079 82182
QIANFAN-71              
1 62801U 25016S   26240.56022231  .00000046  00000+0  52883-4 0  9995
2 62801  88.9656  76.2013 0014701 327.1776  32.8460 13.51025475 82181
QIANFAN-72              
1 62802U 25016T   26240.57670344  .00000064  00000+0  80486-4 0  9991
2 62802  88.9647  76.1876 0018177 333.5068  26.5152 13.51019298 82177
QIANFAN-73              
1 63159U 25046A   26240.60372368  .00000093  00000+0  12483-3 0  9992
2 63159  88.9679 293.1568 0017229  95.8872 264.4243 13.51023934 82362
QIANFAN-74              
1 63160U 25046B   26240.58718642  .00000112  00000+0  15530-3 0  9998
2 63160  88.9680 293.0483 0002075  93.6366 266.5023 13.51018290 82423
QIANFAN-75              
1 63161U 25046C   26240.57506434  .00000133  00000+0  18693-3 0  9998
2 63161  88.9681 293.2868 0018387  99.1176 261.2057 13.51027728 82297
QIANFAN-76              
1 63162U 25046D   26240.57089513  .00000078  00000+0  10133-3 0  9992
2 63162  88.9681 293.2671 0015859  99.5407 260.7537 13.51022622 82309
QIANFAN-77              
1 63163U 25046E   26240.55214193  .00000195  00000+0  13199-3 0  9990
2 63163  88.9682 289.1429 0014441   2.1578 357.9658 13.96242803 84568
QIANFAN-78              
1 63164U 25046F   26240.61233833 -.00000002  00000+0 -22296-4 0  9998
2 63164  88.9679 293.1241 0017235 101.1269 259.1821 13.51011264 82382
QIANFAN-79              
1 63165U 25046G   26240.56663523  .00000112  00000+0  15466-3 0  9996
2 63165  88.9684 293.2457 0016988  99.9826 260.3244 13.51020003 82324
QIANFAN-80              
1 63166U 25046H   26240.58322533  .00000126  00000+0  17624-3 0  9995
2 63166  88.9681 292.9439 0015871 103.8064 256.4854 13.51027271 82481
QIANFAN-81              
1 63167U 25046J   26240.56250652  .00000119  00000+0  16528-3 0  9990
2 63167  88.9680 293.0134 0017108  94.7995 265.5111 13.51023102 82432
QIANFAN-82              
1 63168U 25046K   26240.59546396  .00000121  00000+0  16863-3 0  9992
2 63168  88.9681 293.0542 0014960 100.4692 259.8146 13.51018318 82425
QIANFAN-83              
1 63169U 25046L   26240.58647644  .00000119  00000+0  13850-3 0  9990
2 63169  88.9682 292.3214 0016167  75.2155 285.0793 13.62062330 82838
QIANFAN-84              
1 63170U 25046M   26240.55018510  .00000046  00000+0  52237-4 0  9995
2 63170  88.9681 293.1917 0017965  97.7666 262.5526 13.51018279 82342
QIANFAN-85              
1 63171U 25046N   26240.54605592  .00000125  00000+0  17386-3 0  9990
2 63171  88.9680 293.0618 0015512  99.5892 260.7013 13.51026962 82413
QIANFAN-86              
1 63172U 25046P   26240.55431965  .00000133  00000+0  18716-3 0  9990
2 63172  88.9682 292.9291 0013383 102.9819 257.2827 13.51022906 82499
QIANFAN-87              
1 63173U 25046Q   26240.59968843  .00000104  00000+0  14229-3 0  9998
2 63173  88.9678 293.0264 0013906  98.6706 261.6021 13.51030960 82432
QIANFAN-88              
1 63174U 25046R   26240.61607808  .00000117  00000+0  16213-3 0  9992
2 63174  88.9681 292.9857 0014313 105.9737 254.2992 13.51027215 82469
QIANFAN-89              
1 63175U 25046S   26240.57898942  .00000127  00000+0  17710-3 0  9993
2 63175  88.9681 293.1783 0018880  97.9429 262.3866 13.51022511 82354
QIANFAN-90              
1 63176U 25046T   26240.60779329  .00000103  00000+0  13970-3 0  9993
2 63176  88.9681 293.1485 0015795  96.5237 263.7713 13.51018649 82373
QIANFAN-91              
1 66033U 25233A   26240.34407530  .00000043  00000+0  48466-4 0  9991
2 66033  89.0013  35.8866 0002160  89.8916 270.2482 13.51026903 42929
QIANFAN-92              
1 66034U 25233B   26240.35230534  .00000034  00000+0  34161-4 0  9998
2 66034  88.9998  35.8458 0002034  95.5654 264.5729 13.51027056 42920
QIANFAN-93              
1 66035U 25233C   26239.99016283  .00000035  00000+0  36273-4 0  9997
2 66035  89.0024  35.9537 0002137  91.9296 268.2100 13.51019174 42878
QIANFAN-94              
1 66036U 25233D   26240.34818080  .00000044  00000+0  49121-4 0  9990
2 66036  89.0022  35.8184 0001961  92.3662 267.7714 13.51018888 42977
QIANFAN-95              
1 66037U 25233E   26239.98608346  .00000045  00000+0  51005-4 0  9996
2 66037  89.0019  35.3967 0002071  87.6380 272.5009 13.51019653 43170
QIANFAN-96              
1 66038U 25233F   26240.38111271  .00000034  00000+0  33989-4 0  9998
2 66038  89.0016  35.8985 0002167  88.5272 271.6127 13.51026441 42925
QIANFAN-97              
1 66039U 25233G   26239.99433216  .00000039  00000+0  41663-4 0  9993
2 66039  89.0019  35.9239 0002139  90.5070 269.6327 13.51018613 42886
QIANFAN-98              
1 66040U 25233H   26240.37286140  .00000025  00000+0  20154-4 0  9998
2 66040  89.0008  35.6088 0001541  89.0802 271.0526 13.51017962 43073
QIANFAN-99              
1 66041U 25233J   26240.00664677  .00000030  00000+0  27545-4 0  9991
2 66041  89.0020  35.9271 0001737  86.6397 273.4953 13.51018168 42881
QIANFAN-100             
1 66042U 25233K   26239.99837662  .00000024  00000+0  18627-4 0  9998
2 66042  89.0031  35.8631 0002136  91.3809 268.7586 13.51017804 42939
QIANFAN-101             
1 66043U 25233L   26239.96740564  .00000470  00000+0  18766-3 0  9998
2 66043  89.0021  32.3225 0012827 268.5700  91.4025 14.26848114 44868
QIANFAN-102             
1 66044U 25233M   26239.94496016  .00000042  00000+0  46386-4 0  9992
2 66044  89.0017  35.8413 0001949  91.0298 269.1077 13.51018055 42921
QIANFAN-103             
1 66045U 25233N   26239.94904088  .00000035  00000+0  35237-4 0  9991
2 66045  89.0019  35.9380 0002170  91.4782 268.6618 13.51018865 42875
QIANFAN-104             
1 66046U 25233P   26240.32343671  .00000031  00000+0  28936-4 0  9995
2 66046  89.0026  35.8058 0001932  93.6733 266.4639 13.51024085 42971
QIANFAN-105             
1 66047U 25233Q   26240.33170491  .00000027  00000+0  23822-4 0  9999
2 66047  89.0038  35.6573 0002051  88.2324 271.9062 13.51023857 43084
QIANFAN-106             
1 66048U 25233R   26240.32761968  .00000038  00000+0  39525-4 0  9993
2 66048  89.0005  35.8486 0001560  88.2118 271.9212 13.51027620 42920
QIANFAN-107             
1 66049U 25233S   26240.33585197  .00000024  00000+0  19295-4 0  9990
2 66049  89.0022  35.8913 0002118  91.5388 268.6006 13.51026841 42930
QIANFAN-108             
1 66050U 25233T   26240.33993408  .00000030  00000+0  27314-4 0  9998
2 66050  89.0016  35.8735 0001673  90.8045 269.3298 13.51019031 42938
QIANFAN-109             
1 68636U 26075A   26240.57594047  .00000043  00000+0  47558-4 0  9993
2 68636  88.9903 313.6298 0002627  93.2800 266.8651 13.51018341 19561
QIANFAN-110             
1 68637U 26075B   26240.58427749  .00000088  00000+0  11762-3 0  9995
2 68637  88.9903 313.6504 0002306 103.1021 257.0388 13.51029518 19569
QIANFAN-111             
1 68638U 26075C   26240.57203643  .00000109  00000+0  14940-3 0  9995
2 68638  88.9902 313.6108 0002311 102.6232 257.5178 13.51018873 19589
QIANFAN-112             
1 68639U 26075D   26240.60901080  .00000107  00000+0  14737-3 0  9992
2 68639  88.9900 313.6151 0002748  97.4168 262.7296 13.51021375 19589
QIANFAN-113             
1 68640U 26075E   26240.58011380  .00000100  00000+0  13698-3 0  9994
2 68640  88.9906 313.6158 0002428 102.5136 257.6287 13.51027353 19587
QIANFAN-114             
1 68641U 26075F   26240.58835635  .00000088  00000+0  11826-3 0  9998
2 68641  88.9901 313.6307 0002303 102.1839 257.9570 13.51025581 19575
QIANFAN-115             
1 68642U 26075G   26240.61718605  .00000095  00000+0  12819-3 0  9991
2 68642  88.9901 313.6350 0002325  98.1648 261.9767 13.51022179 19573
QIANFAN-116             
1 68643U 26075H   26240.60482661  .00000103  00000+0  14079-3 0  9991
2 68643  88.9894 313.5912 0002652  99.7856 260.3595 13.51022904 19588
QIANFAN-117             
1 68644U 26075J   26240.59254070  .00000089  00000+0  11921-3 0  9997
2 68644  88.9899 313.6115 0002475  97.5118 262.6315 13.51020672 19585
QIANFAN-118             
1 68645U 26075K   26240.55134545  .00000092  00000+0  12427-3 0  9994
2 68645  88.9904 313.6272 0002292 105.4529 254.6875 13.51022528 19572
QIANFAN-119             
1 68646U 26075L   26240.60066441  .00000109  00000+0  15016-3 0  9996
2 68646  88.9904 313.6179 0002500  94.5751 265.5686 13.51020553 19584
QIANFAN-120             
1 68647U 26075M   26240.61299597  .00000107  00000+0  14721-3 0  9998
2 68647  88.9906 313.6027 0002457  91.5094 268.6339 13.51029746 19590
QIANFAN-121             
1 68648U 26075N   26240.56375768  .00000106  00000+0  14527-3 0  9991
2 68648  88.9903 313.6111 0002255 103.3192 256.8210 13.51021562 19583
QIANFAN-122             
1 68649U 26075P   26240.55553331  .00000101  00000+0  13813-3 0  9997
2 68649  88.9902 313.6092 0002538  96.2052 263.9388 13.51025006 19571
QIANFAN-123             
1 68650U 26075Q   26240.59660104  .00000095  00000+0  12894-3 0  9990
2 68650  88.9899 313.5927 0002693  92.6076 267.5384 13.51030269 19564
QIANFAN-124             
1 68651U 26075R   26240.54732207  .00000093  00000+0  12527-3 0  9991
2 68651  88.9902 313.6086 0002604  95.8493 264.2955 13.51024624 19585
QIANFAN-125             
1 68652U 26075S   26240.55964511  .00000103  00000+0  14084-3 0  9990
2 68652  88.9901 313.6094 0002283 103.6296 256.5110 13.51021629 19585
QIANFAN-126             
1 68653U 26075T   26240.56778220  .00000114  00000+0  15721-3 0  9993
2 68653  88.9905 313.5771 0002670  92.7313 267.4144 13.51026889 19603
QIANFAN-127             
1 69073U 26104A   26240.57305700  .00000118  00000+0  16358-3 0  9994
2 69073  88.9944 334.0866 0002265 109.0439 251.0958 13.51023687 14933
QIANFAN-128             
1 69074U 26104B   26240.58128717  .00000130  00000+0  18284-3 0  9991
2 69074  88.9922 334.1145 0001871 112.3083 247.8267 13.51030823 14919
QIANFAN-129             
1 69075U 26104C   26240.53179560  .00000036  00000+0  37771-4 0  9997
2 69075  88.9925 334.0533 0002021 111.5077 248.6290 13.51019356 14941
QIANFAN-130             
1 69076U 26104D   26240.56893962  .00000120  00000+0  16689-3 0  9998
2 69076  88.9927 334.1149 0002501 108.8383 251.3039 13.51030303 14914
QIANFAN-131             
1 69077U 26104E   26240.58959863  .00000132  00000+0  18609-3 0  9991
2 69077  88.9920 334.0748 0001926 104.0895 256.0471 13.51022065 14938
QIANFAN-132             
1 69078U 26104F   26240.57708393  .00000127  00000+0  17779-3 0  9992
2 69078  88.9923 334.1322 0002337 108.1386 252.0020 13.51028856 14905
QIANFAN-133             
1 69079U 26104G   26240.58550173  .00000136  00000+0  19139-3 0  9997
2 69079  88.9926 334.0807 0001706 104.5574 255.5766 13.51021946 14924
QIANFAN-134             
1 69080U 26104H   26240.54020262  .00000134  00000+0  18906-3 0  9995
2 69080  88.9930 334.1108 0001815 110.3365 249.7981 13.51025248 14912
QIANFAN-135             
1 69081U 26104J   26240.51949291  .00000134  00000+0  18889-3 0  9995
2 69081  88.9924 334.1050 0001914 116.7392 243.3955 13.51028620 14910
QIANFAN-136             
1 69082U 26104K   26240.52786065  .00000128  00000+0  17940-3 0  9995
2 69082  88.9926 334.1068 0001715 106.2501 253.8839 13.51028309 14918
QIANFAN-137             
1 69083U 26104L   26240.52373572  .00000126  00000+0  17621-3 0  9995
2 69083  88.9935 333.9818 0002273 106.3518 253.7884 13.51028183 14984
QIANFAN-138             
1 69084U 26104M   26240.54835325  .00000137  00000+0  19374-3 0  9996
2 69084  88.9919 334.1060 0002181 115.0420 245.0958 13.51035810 14910
QIANFAN-139             
1 69085U 26104N   26240.53620037  .00000037  00000+0  38919-4 0  9994
2 69085  88.9922 334.0886 0002353 110.6143 249.5261 13.51026272 14923
QIANFAN-140             
1 69086U 26104P   26239.95163451  .00000028  00000+0  24822-4 0  9999
2 69086  88.9922 334.1513 0002009 118.1360 241.9994 13.51031012 14842
QIANFAN-141             
1 69087U 26104Q   26240.55249510  .00000138  00000+0  19556-3 0  9998
2 69087  88.9919 334.0552 0001890 113.4885 246.6466 13.51025003 14948
QIANFAN-142             
1 69088U 26104R   26240.56068692  .00000133  00000+0  18725-3 0  9992
2 69088  88.9918 334.0540 0002120 114.5266 245.6107 13.51027420 14943
QIANFAN-143             
1 69089U 26104S   26240.55664926  .00000126  00000+0  17694-3 0  9990
2 69089  88.9929 334.0586 0001920 102.1671 257.9696 13.51023667 14944
QIANFAN-144             
1 69090U 26104T   26240.56479529  .00000119  00000+0  16532-3 0  9998
2 69090  88.9927 334.0763 0002276 113.3591 246.7800 13.51027848 14938
QIANFAN-145             
1 69104U 26108A   26240.64321604  .00000005  00000+0 -10222-4 0  9993
2 69104  89.0164  14.8031 0001866  89.5674 270.5692 13.51030966 14221
QIANFAN-146             
1 69105U 26108B   26240.60148424 -.02047730  00000+0 -35236+1 0  9994
2 69105  89.0163  14.6440 0011548 260.4163  99.5682 13.48415390 14316
QIANFAN-147             
1 69106U 26108C   26240.57744113  .00000055  00000+0  66874-4 0  9999
2 69106  89.0166  14.8136 0002039 102.6786 257.4593 13.51021576 14204
QIANFAN-148             
1 69107U 26108D   26240.56502253  .00000077  00000+0  10082-3 0  9999
2 69107  89.0159  14.8063 0001797 103.1359 256.9993 13.51021103 14202
QIANFAN-149             
1 69108U 26108E   26240.64723923  .00000074  00000+0  95884-4 0  9999
2 69108  89.0159  14.8194 0001967 110.6625 249.4738 13.51020594 14214
QIANFAN-150             
1 69109U 26108F   26240.65544699  .00000082  00000+0  10858-3 0  9998
2 69109  89.0164  14.7707 0001995 110.5547 249.5818 13.51021266 14232
QIANFAN-151             
1 69110U 26108G   26240.53630372  .00000070  00000+0  89799-4 0  9999
2 69110  89.0164  14.8063 0001936  95.7220 264.4152 13.51016377 14208
QIANFAN-152             
1 69111U 26108H   26240.58966231  .00000079  00000+0  10361-3 0  9998
2 69111  89.0160  14.7937 0002301 103.2031 256.9378 13.51025523 14227
QIANFAN-153             
1 69112U 26108J   26240.58549412  .00000065  00000+0  82593-4 0  9999
2 69112  89.0156  14.7713 0002087 106.3183 253.8198 13.51021460 14220
QIANFAN-154             
1 69113U 26108K   26240.59389099  .00000078  00000+0  10209-3 0  9992
2 69113  89.0167  14.8169 0001975 105.5232 254.6137 13.51023571 14216
QIANFAN-155             
1 69114U 26108L   26240.59783961  .00000070  00000+0  90345-4 0  9991
2 69114  89.0164  14.7816 0002060 108.5435 251.5940 13.51034452 14225
QIANFAN-156             
1 69115U 26108M   26240.54436093  .00000079  00000+0  10384-3 0  9991
2 69115  89.0179  14.7849 0001822  99.9476 260.1881 13.51033836 14237
QIANFAN-157             
1 69116U 26108N   26240.60636202 -.02123790  00000+0 -36165+1 0  9995
2 69116  89.0157  14.7073 0003180 161.6660 198.4606 13.49264815 14276
QIANFAN-158             
1 69117U 26108P   26240.62259418  .00000073  00000+0  94207-4 0  9997
2 69117  89.0162  14.7456 0001853  97.8753 262.2609 13.51032056 14250
QIANFAN-159             
1 69118U 26108Q   26240.61429666  .00000073  00000+0  94214-4 0  9999
2 69118  89.0153  14.7547 0001943  98.0122 262.1250 13.51020214 14248
QIANFAN-160             
1 69119U 26108R   26240.55682958  .00000088  00000+0  11839-3 0  9995
2 69119  89.0169  14.7944 0002105 111.3199 248.8177 13.51020365 14225
QIANFAN-161             
1 69120U 26108S   26240.56094181  .00000077  00000+0  10065-3 0  9991
2 69120  89.0176  14.7091 0001883  96.8004 263.3362 13.51035372 14279
QIANFAN-162             
1 69121U 26108T   26240.55258752  .00000071  00000+0  92066-4 0  9993
2 69121  89.0165  14.7376 0002189 101.8042 258.3355 13.51040351 14249
QIANFAN-163             
1 69325U 26121A   26240.59127988  .00000131  00000+0  18479-3 0  9996
2 69325  89.0135 293.3121 0001501 121.7341 238.3956 13.51021134 11942
QIANFAN-164             
1 69326U 26121B   26240.55835430  .00000138  00000+0  19491-3 0  9993
2 69326  89.0134 293.3061 0001665 103.8877 256.2459 13.51019685 11946
QIANFAN-165             
1 69382U 26124A   26240.56802700  .00000130  00000+0  18343-3 0  9990
2 69382  89.0065 354.3250 0001444 104.4418 255.6893 13.51017435 11814
QIANFAN-166             
1 69383U 26124B   26240.57218423  .00000127  00000+0  17839-3 0  9990
2 69383  89.0084 354.3312 0001948  96.5712 263.5661 13.51017780 11816
QIANFAN-167             
1 69384U 26124C   26240.57632786  .00000124  00000+0  17320-3 0  9995
2 69384  89.0057 354.3424 0002009 108.0897 252.0474 13.51026976 11804
QIANFAN-168             
1 69385U 26124D   26240.58029965  .00000124  00000+0  17316-3 0  9991
2 69385  89.0054 354.3227 0001780  92.0427 268.0928 13.51029039 11814
QIANFAN-169             
1 69386U 26124E   26240.58296456 -.01883646  00000+0 -32902+1 0  9999
2 69386  89.0048 354.3224 0016821 314.2386  45.7382 13.47765107 11812
QIANFAN-170             
1 69387U 26124F   26240.58635521 -.01890980  00000+0 -32533+1 0  9999
2 69387  89.0066 354.2903 0012279 310.1563  49.8511 13.48783693 11833
QIANFAN-171             
1 69388U 26124G   26240.59562877 -.01825170  00000+0 -31909+1 0  9999
2 69388  89.0082 354.2987 0011538 320.1781  39.8520 13.47595724 11838
QIANFAN-172             
1 69389U 26124H   26240.59278355  .00000119  00000+0  16640-3 0  9998
2 69389  89.0068 354.2928 0001534 100.0108 260.1217 13.51025071 11831
QIANFAN-173             
1 69390U 26124J   26240.52685086  .00000026  00000+0  20985-4 0  9991
2 69390  89.0057 354.2984 0001906  90.3392 269.7978 13.51038680 11820
QIANFAN-174             
1 69391U 26124K   26240.53924962  .00000027  00000+0  23703-4 0  9994
2 69391  89.0037 354.2591 0001965 109.2911 250.8453 13.51025485 11834
QIANFAN-175             
1 69392U 26124L   26240.61739025  .00000119  00000+0  16599-3 0  9994
2 69392  89.0089 354.2844 0001995  95.7927 264.3452 13.51015932 11848
QIANFAN-176             
1 69393U 26124M   26240.54743619  .00000115  00000+0  15984-3 0  9994
2 69393  89.0051 354.2800 0001993  96.4192 263.7187 13.51016787 11825
QIANFAN-177             
1 69394U 26124N   26240.55573511  .00000118  00000+0  16453-3 0  9993
2 69394  89.0061 354.2654 0001880 107.0480 253.0877 13.51015560 11846
QIANFAN-178             
1 69395U 26124P   26240.55155674  .00000108  00000+0  14898-3 0  9990
2 69395  89.0006 354.2339 0002012  96.3014 263.8366 13.51021743 11850
QIANFAN-179             
1 69396U 26124Q   26240.55864094 -.01945202  00000+0 -33826+1 0  9999
2 69396  89.0035 354.2441 0001838 252.8990 107.1959 13.48255022 11857
QIANFAN-180             
1 69397U 26124R   26240.56381647  .00000122  00000+0  16982-3 0  9996
2 69397  89.0045 354.2630 0010989 322.6417  37.3969 13.51008382 11849
QIANFAN-181             
1 69398U 26124S   26240.52959127 -.01877880  00000+0 -32843+1 0  9994
2 69398  89.0063 354.3549 0011879 293.8990  66.0914 13.47696132 11798
QIANFAN-182             
1 69399U 26124T   26240.53512832  .00000129  00000+0  18122-3 0  9992
2 69399  89.0042 354.3306 0001941  96.9620 263.1752 13.51023823 11794
QIANFAN-183             
1 69401U 26125A   26240.56976823  .00000048  00000+0  55731-4 0  9992
2 69401  88.9849 272.6560 0001785  96.2449 263.8905 13.51026905 11716
QIANFAN-184             
1 69402U 26125B   26240.57801523  .00000040  00000+0  43867-4 0  9997
2 69402  88.9900 272.6709 0001877  93.1209 267.0157 13.51017094 11716
QIANFAN-185             
1 69403U 26125C   26240.52856821  .00000048  00000+0  55916-4 0  9990
2 69403  88.9916 272.6127 0001801  93.2642 266.8715 13.51016833 11747
QIANFAN-186             
1 69404U 26125D   26240.57335863 -.02091160  00000+0 -35556+1 0  9997
2 69404  88.9896 272.6707 0005132 301.5890  58.4759 13.49291210 11711
QIANFAN-187             
1 69405U 26125E   26240.58189749  .00000037  00000+0  38512-4 0  9997
2 69405  88.9902 272.6526 0006455 312.6554  47.4052 13.51109320 11726
QIANFAN-188             
1 69406U 26125F   26240.59030272  .00000075  00000+0  97111-4 0  9997
2 69406  88.9900 272.6520 0001754  97.7727 262.3623 13.51028427 11729
QIANFAN-189             
1 69407U 26125G   26240.52439351  .00000050  00000+0  59530-4 0  9998
2 69407  88.9883 272.6573 0001593 101.4606 258.6724 13.51027890 11709
QIANFAN-190             
1 69408U 26125H   26240.58619131  .00000048  00000+0  55567-4 0  9994
2 69408  88.9884 272.6485 0001890  90.8455 269.2912 13.51032571 11727
QIANFAN-191             
1 69409U 26125J   26240.53687812  .00000050  00000+0  58199-4 0  9998
2 69409  88.9898 272.6625 0001745  96.2569 263.8781 13.51032085 11717
QIANFAN-192             
1 69410U 26125K   26240.52028121  .00000038  00000+0  40505-4 0  9999
2 69410  88.9904 272.6632 0001690 101.7093 258.4248 13.51029576 11717
QIANFAN-193             
1 69411U 26125L   26240.54510341  .00000034  00000+0  34219-4 0  9993
2 69411  88.9883 272.6418 0001684  93.8160 266.3184 13.51026556 11728
QIANFAN-194             
1 69412U 26125M   26240.54095405  .00000049  00000+0  56990-4 0  9999
2 69412  88.9916 272.6495 0001769  97.0709 263.0644 13.51025436 11710
QIANFAN-195             
1 69413U 26125N   26240.54724858  .00000064  00000+0  81332-4 0  9996
2 69413  88.9917 272.6329 0023253 319.1559  40.7848 13.50116243 11735
QIANFAN-196             
1 69414U 26125P   26240.55736348 -.02115780  00000+0 -36009+1 0  9998
2 69414  88.9916 272.6365 0013905 207.6695 152.3717 13.49247959 11732
QIANFAN-197             
1 69415U 26125Q   26240.56564622  .00000050  00000+0  59265-4 0  9996
2 69415  88.9896 272.6117 0001814  95.3563 264.7796 13.51023116 11732
QIANFAN-198             
1 69416U 26125R   26240.62646896 -.02004303  00000+0 -34490+1 0  9996
2 69416  88.9884 272.6199 0003734 217.2628 142.8263 13.48348756 11742
QIANFAN-199             
1 69417U 26125S   26240.56146147  .00000045  00000+0  51999-4 0  9996
2 69417  88.9893 272.5755 0020957 309.6922  50.2380 13.51008408 11764
QIANFAN-200             
1 69418U 26125T   26240.53271758  .00000054  00000+0  64887-4 0  9991
2 69418  88.9901 272.6624 0001653  98.9031 261.2307 13.51025556 11713
QIANFAN-201             
1 69800U 26153A   26240.57871591 -.02045595  00000+0 -12382+1 0  9994
2 69800  88.9967 354.0046 0015543  43.6195 316.6215 14.10575018  7834
QIANFAN-202             
1 69801U 26153B   26240.55385725  .00000423  00000+0  21362-3 0  9990
2 69801  88.9974 354.0001 0009902  51.6704 308.5372 14.14354989  7820
QIANFAN-203             
1 69802U 26153C   26240.59271293  .00000423  00000+0  22616-3 0  9992
2 69802  88.9974 354.0250 0008920  54.6261 305.5757 14.11313903  7829
QIANFAN-204             
1 69803U 26153D   26240.56246367  .00000380  00000+0  19712-3 0  9999
2 69803  88.9975 354.0207 0009180  53.0753 307.1273 14.12797640  7827
QIANFAN-205             
1 69804U 26153E   26240.55085774  .00000375  00000+0  20426-3 0  9990
2 69804  88.9973 354.0368 0009529  52.7338 307.4714 14.10089013  7814
QIANFAN-206             
1 69805U 26153F   26240.57151617  .00000436  00000+0  21388-3 0  9999
2 69805  88.9974 354.0030 0009283  58.5736 301.6359 14.15961028  7838
QIANFAN-207             
1 69806U 26153G   26240.57227834  .00000341  00000+0  18091-3 0  9997
2 69806  88.9974 354.0218 0009195  50.3403 309.8592 14.11289062  7825
QIANFAN-208             
1 69807U 26153H   26240.53540065  .00000451  00000+0  22343-3 0  9995
2 69807  88.9974 354.0164 0008448  63.7231 296.4823 14.15510469  7834
QIANFAN-209             
1 69808U 26153J   26240.58608349  .00000066  00000+0  29055-4 0  9991
2 69808  88.9974 354.0240 0009382  50.8872 309.3146 14.10887185  7824
QIANFAN-210             
1 69809U 26153K   26240.56770007  .00000363  00000+0  19240-3 0  9995
2 69809  88.9975 354.0216 0009954  54.0978 306.1130 14.11491894  7824
QIANFAN-211             
1 69810U 26153L   26240.58442976  .00000320  00000+0  15929-3 0  9993
2 69810  88.9974 354.0049 0009401  54.8133 305.3933 14.14529556  7830
QIANFAN-212             
1 69811U 26153M   26240.52571295  .00000416  00000+0  21507-3 0  9990
2 69811  88.9973 354.0146 0010763  56.6252 303.5963 14.13083838  7822
QIANFAN-213             
1 69812U 26153N   26240.52865763  .00000410  00000+0  21379-3 0  9998
2 69812  88.9973 354.0149 0009351  53.3688 306.8357 14.12642340  7825
QIANFAN-214             
1 69813U 26153P   26240.54774173  .00000437  00000+0  21105-3 0  9991
2 69813  88.9973 353.9805 0009528  56.8410 303.3691 14.16845769  7849
QIANFAN-215             
1 69814U 26153Q   26240.58510572  .00000518  00000+0  22888-3 0  9996
2 69814  88.9972 353.9480 0009814  62.1077 298.1107 14.21797753  7865
QIANFAN-216             
1 69815U 26153R   26240.58168317 -.02018647  00000+0 -11250+1 0  9997
2 69815  88.9966 353.9672 0005970  51.8427 308.3297 14.15076359  7853
QIANFAN-217             
1 69816U 26153S   26240.56713047  .00000580  00000+0  23321-3 0  9990
2 69816  88.9972 353.9265 0009557  64.6899 295.5284 14.26798117  7879
QIANFAN-218             
1 69817U 26153T   26240.56545435  .00000563  00000+0  22601-3 0  9996
2 69817  88.9975 353.9280 0009205  63.1628 297.0506 14.26841730  7878
QIANFAN-219             
1 69848U 26155A   26240.50684254 -.02051099  00000+0 -25679+1 0  9998
2 69848  89.0042  56.0419 0042418  69.6314 290.9396 13.68041122  7613
QIANFAN-220             
1 69849U 26155B   26240.53710092  .00000064  00000+0  51405-4 0  9994
2 69849  89.0063  56.0862 0034528  73.0793 287.4154 13.76454900  7593
QIANFAN-221             
1 69850U 26155C   26240.54007808 -.02017044  00000+0 -15484+1 0  9994
2 69850  89.0050  55.9386 0030883  72.3227 288.1318 13.97065326  7676
QIANFAN-222             
1 69851U 26155D   26240.59855712  .00000031  00000+0  21169-4 0  9990
2 69851  89.0059  56.0743 0035063  72.3160 288.1824 13.67800914  7608
QIANFAN-223             
1 69852U 26155E   26240.51362935 -.02053632  00000+0 -26337+1 0  9990
2 69852  89.0055  56.0821 0039264  70.3611 290.1780 13.66624099  7597
QIANFAN-224             
1 69853U 26155F   26240.51025399 -.01993301  00000+0 -23497+1 0  9990
2 69853  89.0028  56.0534 0035167  76.9105 283.5980 13.71719089  7607
QIANFAN-225             
1 69854U 26155G   26240.52153926 -.02096498  00000+0 -27829+1 0  9995
2 69854  89.0037  56.0822 0035558  68.3730 292.1211 13.64645610  7592
QIANFAN-226             
1 69855U 26155H   26240.56377493 -.02093400  00000+0 -26208+1 0  9997
2 69855  89.0044  56.0688 0041204  70.1174 290.4420 13.68150296  7609
QIANFAN-227             
1 69856U 26155J   26240.53975853 -.02040328  00000+0 -24993+1 0  9999
2 69856  89.0051  56.0660 0038632  70.2230 290.3091 13.69419215  7606
QIANFAN-228             
1 69857U 26155K   26240.60026661  .00000037  00000+0  26947-4 0  9996
2 69857  89.0056  56.0569 0036287  74.0719 286.4438 13.71527371  7616
QIANFAN-229             
1 69858U 26155L   26240.52272460 -.02099462  00000+0 -24950+1 0  9990
2 69858  89.0042  56.0469 0034927  74.8847 285.6176 13.71445357  7613
QIANFAN-230             
1 69859U 26155M   26240.54651565 -.02045507  00000+0 -24971+1 0  9994
2 69859  89.0049  56.0835 0038831  73.3318 287.2101 13.69635500  7594
QIANFAN-231             
1 69860U 26155N   26240.50538939 -.01992535  00000+0 -23556+1 0  9990
2 69860  89.0050  56.0438 0037784  71.3656 289.1603 13.71499843  7618
QIANFAN-232             
1 69861U 26155P   26240.55711557 -.02059941  00000+0 -24584+1 0  9993
2 69861  89.0048  56.0307 0026792  69.2664 291.1366 13.71217501  7622
QIANFAN-233             
1 69862U 26155Q   26240.55979025 -.02043820  00000+0 -24315+1 0  9991
2 69862  89.0053  56.0340 0037311  70.5539 289.9649 13.71228462  7628
QIANFAN-234             
1 69863U 26155R   26240.55606411 -.02055609  00000+0 -20962+1 0  9990
2 69863  89.0050  56.0145 0039343  72.6291 287.9174 13.80486555  7635
QIANFAN-235             
1 69864U 26155S   26240.56328306 -.02076496  00000+0 -14275+1 0  9993
2 69864  89.0051  55.9238 0026528  86.1096 274.3117 14.03473806  7685
QIANFAN-236             
1 69865U 26155T   26240.56654847 -.02049814  00000+0 -25062+1 0  9996
2 69865  89.0055  56.0539 0038095  71.1515 289.3772 13.69562346  7613
QIANFAN-237             
1 69866U 26155U   26240.53345487 -.02096798  00000+0 -23607+1 0  9997
2 69866  89.0044  56.0311 0038686  80.5496 280.0039 13.74654035  7615
QIANFAN-238             
1 69867U 26155V   26240.54669061 -.02104182  00000+0 -26327+1 0  9995
2 69867  89.0060  56.0309 0029578  59.0055 301.4005 13.68385028  7621
