GLOBALSTAR M069         
1 31573U 07020C   26118.01852978 -.00000108  00000+0 -14212-3 0  9999
2 31573  52.0056  34.1205 0002389  48.0076 325.3425 12.23469819872669
GLOBALSTAR M072         
1 31574U 07020D   26118.30262272 -.00000091  00000+0 -95011-4 0  9992
2 31574  51.9928 233.0525 0001474 189.4450 195.4183 11.91657387869038
GLOBALSTAR M066         
1 32265U 07048C   26118.27176549 -.00000106  00000+0 -93686-4 0  9990
2 32265  51.9581 201.2065 0004365 294.1046 100.1358 12.30387765854084
GLOBALSTAR M079         
1 37188U 10054A   26118.31721499 -.00000097  00000+0  40260-4 0  9993
2 37188  52.0039 260.4815 0000544 138.3913 227.2251 12.62265215716259
GLOBALSTAR M074         
1 37189U 10054B   26118.14235260 -.00000108  00000+0 -21739-4 0  9995
2 37189  52.0016 260.2871 0000627 106.3277  64.0747 12.62267637716836
GLOBALSTAR M076         
1 37190U 10054C   26118.16882611 -.00000099  00000+0  27776-4 0  9992
2 37190  52.0030 260.4040 0000404 103.7674  67.8673 12.62272405716556
GLOBALSTAR M077         
1 37191U 10054D   26118.23657176 -.00000079  00000+0 -21164-4 0  9991
2 37191  51.9973 306.0789 0003310  85.2926  85.1068 11.67547501715300
GLOBALSTAR M075         
1 37192U 10054E   26118.02375385 -.00000082  00000+0  12149-3 0  9993
2 37192  51.9953 302.9299 0000820 102.1176  69.2263 12.62266202715604
GLOBALSTAR M073         
1 37193U 10054F   26118.22774110 -.00000108  00000+0 -21955-4 0  9991
2 37193  52.0057 216.3696 0000328 156.3014 221.4420 12.62266485717620
GLOBALSTAR M083         
1 37739U 11033A   26118.33367696 -.00000083  00000+0  11409-3 0  9997
2 37739  51.9834 164.3436 0000197 196.0724 244.9073 12.62262839686655
GLOBALSTAR M088         
1 37740U 11033B   26118.32465840 -.00000104  00000+0  38764-7 0  9999
2 37740  52.0216  70.6762 0000498  57.0047 100.9117 12.62263170682196
GLOBALSTAR M091         
1 37741U 11033C   26118.18086681 -.00000103  00000+0  54068-5 0  9998
2 37741  52.0019  34.1527 0000565  83.4397  82.1917 12.62262815682967
GLOBALSTAR M085         
1 37742U 11033D   26118.08820788 -.00000081  00000+0  12911-3 0  9996
2 37742  52.0145 345.6853 0000707 101.7314  62.8259 12.62262913683460
GLOBALSTAR M081         
1 37743U 11033E   26118.11435310 -.00000076  00000+0  15615-3 0  9992
2 37743  51.9982 348.0997 0000664  82.1056  80.6077 12.62263750683614
GLOBALSTAR M089         
1 37744U 11033F   26117.91230140 -.00000082  00000+0  12059-3 0  9990
2 37744  51.9937 302.8840 0000832  78.8432  65.7116 12.62266014684432
GLOBALSTAR M084         
1 38040U 11080A   26118.30678521 -.00000080  00000+0  13170-3 0  9998
2 38040  51.9991 169.1368 0000207  56.4219  21.5199 12.62266721662467
GLOBALSTAR M080         
1 38041U 11080B   26118.19027869 -.00000082  00000+0  12069-3 0  9997
2 38041  52.0040 171.1926 0000703 144.9031 253.1182 12.62268563662577
GLOBALSTAR M082         
1 38042U 11080C   26118.27968770 -.00000078  00000+0  14555-3 0  9999
2 38042  52.0050 126.4141 0000341 145.0278 229.5720 12.62269390663298
GLOBALSTAR M092         
1 38043U 11080D   26118.25563170 -.00000103  00000+0  27585-5 0  9991
2 38043  52.0084 216.8831 0000475 123.2545 261.3432 12.62266731661747
GLOBALSTAR M090         
1 38044U 11080E   26118.30607052 -.00000080  00000+0  13070-3 0  9992
2 38044  52.0102 120.2732 0000076  77.6021 296.0625 12.62268363663413
GLOBALSTAR M086         
1 38045U 11080F   26118.32861637 -.00000073  00000+0  17433-3 0  9995
2 38045  51.9873 120.2160 0000886 310.5445  63.2241 12.62285569663369
GLOBALSTAR M097         
1 39072U 13005A   26118.19713075 -.00000106  00000+0 -14302-4 0  9993
2 39072  52.0067  35.5045 0000456  76.9182 283.1735 12.62260077610596
GLOBALSTAR M093         
1 39073U 13005B   26118.09168914 -.00000097  00000+0  38371-4 0  9999
2 39073  52.0127  29.1558 0000340  83.2070 276.8836 12.62264657610534
GLOBALSTAR M094         
1 39074U 13005C   26118.25011105 -.00000084  00000+0  10978-3 0  9995
2 39074  51.9962 302.8438 0000644 116.1330 243.9603 12.62267919612162
GLOBALSTAR M096         
1 39075U 13005D   26118.02587854 -.00000079  00000+0  13623-3 0  9994
2 39075  52.0096 352.2872 0000660  95.7314 264.3628 12.62264424611055
GLOBALSTAR M078         
1 39076U 13005E   26118.23634005 -.00000108  00000+0 -25583-4 0  9992
2 39076  51.9872  75.7195 0001027 130.1309 229.9648 12.62266029609708
GLOBALSTAR M095         
1 39077U 13005F   26118.26315502 -.00000104  00000+0 -39462-5 0  9992
2 39077  52.0079  73.1724 0000359 125.9346 234.1554 12.62267382609561
GLOBALSTAR M087         
1 52888U 22064A   26118.27660660 -.00000101  00000+0  16424-4 0  9999
2 52888  51.9993 214.4039 0000554 158.2912 201.7978 12.62268391184832
