ORBCOMM-X               
1 21576U 91050C   26049.19507397  .00000292  00000+0  99038-4 0  9993
2 21576  98.3110 115.4064 0004245 147.5194 212.6259 14.43501365817603
ORBCOMM FM01            
1 23545U 95017A   26048.72080970  .00007020  00000+0  65961-3 0  9992
2 23545  69.9619 180.0565 0006745 289.9415  70.1015 14.94312546649132
ORBCOMM FM02            
1 23546U 95017B   26048.78290560  .00010709  00000+0  95224-3 0  9990
2 23546  69.9622 198.0707 0007913 291.8917  68.1398 14.96282509648824
ORBCOMM FM08            
1 25112U 97084A   26048.94756301  .00001143  00000+0  35148-3 0  9996
2 25112  45.0132 267.1725 0006626  57.7332 302.4161 14.46898296476950
ORBCOMM FM10            
1 25113U 97084B   26049.03784650  .00001170  00000+0  36090-3 0  9993
2 25113  45.0143 269.5937 0005007  24.7487 335.3604 14.46627293652108
ORBCOMM FM11            
1 25114U 97084C   26049.08585044  .00001227  00000+0  37855-3 0  9998
2 25114  45.0131 270.4529 0005848  25.8843 334.2300 14.46366143477060
ORBCOMM FM12            
1 25115U 97084D   26049.04468964  .00001198  00000+0  37048-3 0  9997
2 25115  45.0135 270.3734 0004897  23.9094 336.1985 14.46394704476852
ORBCOMM FM09            
1 25116U 97084E   26049.23975677  .00001168  00000+0  36339-3 0  9992
2 25116  45.0141 270.6529 0006058  11.9122 348.1872 14.46223304477086
ORBCOMM FM05            
1 25117U 97084F   26049.23960032  .00001181  00000+0  36104-3 0  9997
2 25117  45.0138 265.7496 0002480  32.0238 328.0764 14.47008825476231
ORBCOMM FM06            
1 25118U 97084G   26049.02752492  .00001321  00000+0  39791-3 0  9995
2 25118  45.0131 266.2016 0001416  36.5359 114.9202 14.47186159477125
ORBCOMM FM07            
1 25119U 97084H   26048.73423512  .00001222  00000+0  37101-3 0  9994
2 25119  45.0127 268.3544 0003276  22.3264 337.7730 14.47188772477072
ORBCOMM FM03            
1 25158U 98007B   26049.22926298  .00000860  00000+0  34248-3 0  9993
2 25158 107.9656 281.2853 0044136 180.5476 179.5623 14.35256296459335
ORBCOMM FM04            
1 25159U 98007C   26049.24146599  .00000843  00000+0  33603-3 0  9999
2 25159 107.9641 284.6975 0039856 177.9378 182.1933 14.35486580459522
ORBCOMM FM17            
1 25413U 98046A   26049.29846730  .00000808  00000+0  32585-3 0  9993
2 25413  44.9931 175.5588 0001300 348.3177  11.7640 14.35703754438534
ORBCOMM FM18            
1 25414U 98046B   26049.05752810  .00000981  00000+0  35809-3 0  9997
2 25414  44.9923  87.3376 0002171  79.9557 280.1537 14.39385314439661
ORBCOMM FM19            
1 25415U 98046C   26049.18373558  .00001031  00000+0  37525-3 0  9994
2 25415  44.9935  89.1096 0000980  61.4050 345.5476 14.39209246439638
ORBCOMM FM20            
1 25416U 98046D   26048.30726158  .00000936  00000+0  35415-3 0  9995
2 25416  44.9935  99.9042 0001506 241.0451 119.0246 14.37847935439534
ORBCOMM FM16            
1 25417U 98046E   26049.24448402  .00001132  00000+0  40297-3 0  9996
2 25417  44.9933  83.6033 0002156 115.0740 245.0333 14.39773576439703
ORBCOMM FM15            
1 25418U 98046F   26049.07512948  .00000686  00000+0  26386-3 0  9991
2 25418  44.9961  90.3107 0001852 116.4012 243.7027 14.39393579439662
ORBCOMM FM14            
1 25419U 98046G   26049.23349402  .00001030  00000+0  37015-3 0  9998
2 25419  44.9950  87.0224 0000666 136.2774 223.8128 14.39830354439669
ORBCOMM FM13            
1 25420U 98046H   26049.08904682  .00000895  00000+0  33701-3 0  9996
2 25420  44.9966  98.2362 0002677  73.1563 286.9579 14.38395555438638
ORBCOMM FM21            
1 25475U 98053A   26048.81178534  .00000875  00000+0  33342-3 0  9992
2 25475  45.0069 185.7712 0000179  65.5112 294.5755 14.37968663432590
ORBCOMM FM22            
1 25476U 98053B   26048.44853975  .00001204  00000+0  43067-3 0  9993
2 25476  45.0062 180.2098 0001674  17.0885 343.0020 14.39184960432598
ORBCOMM FM23            
1 25477U 98053C   26048.35854657  .00001037  00000+0  38449-3 0  9994
2 25477  45.0069 189.6322 0001107  11.7741 348.3133 14.38224213432680
ORBCOMM FM24            
1 25478U 98053D   26048.74972984  .00001003  00000+0  36873-3 0  9994
2 25478  45.0065 184.1159 0000798  32.6645 327.4253 14.38865879432809
ORBCOMM FM25            
1 25479U 98053E   26048.58738197  .00000996  00000+0  36689-3 0  9998
2 25479  45.0058 183.1962 0003143  45.3436 314.7669 14.38832569433079
ORBCOMM FM26            
1 25480U 98053F   26048.42134999  .00001038  00000+0  38834-3 0  9995
2 25480  45.0052 182.3104 0005210  61.0583 299.0787 14.37773975432933
ORBCOMM FM27            
1 25481U 98053G   26048.77755593  .00000989  00000+0  36436-3 0  9993
2 25481  45.0039 182.3988 0000790 183.7724 176.3119 14.38873302433030
ORBCOMM FM28            
1 25482U 98053H   26049.20620831  .00000886  00000+0  33023-3 0  9994
2 25482  45.0046 117.5818 0002862 118.3035 241.8103 14.38979938433787
ORBCOMM FM30            
1 25980U 99065A   26049.21715212  .00000942  00000+0  35571-3 0  9993
2 25980  45.0329   4.6224 0004856 174.5702 185.5200 14.37938728369850
ORBCOMM FM31            
1 25981U 99065B   26049.20226108  .00000951  00000+0  35908-3 0  9998
2 25981  45.0242 358.1370 0003244 216.9252 143.1373 14.37862378369404
ORBCOMM FM32            
1 25982U 99065C   26048.99358797  .00000820  00000+0  32193-3 0  9992
2 25982  45.0168  17.3418 0005314 200.9089 159.1543 14.36922100369944
ORBCOMM FM33            
1 25983U 99065D   26049.04778227  .00000716  00000+0  26628-3 0  9994
2 25983  45.0280 269.4282 0007755 219.8457 140.1824 14.40738951371510
ORBCOMM FM36            
1 25984U 99065E   26049.18909405  .00001236  00000+0  44326-3 0  9997
2 25984  45.0405   4.3956 0001654  58.2305 301.8705 14.38926492369846
ORBCOMM FM35            
1 25985U 99065F   26049.28203770  .00000488  00000+0  20743-3 0  9996
2 25985  45.0403  11.0115 0003245 221.2900 138.7704 14.37820112370195
ORBCOMM FM34            
1 25986U 99065G   26049.25170690  .00000868  00000+0  33269-3 0  9997
2 25986  45.0403  11.6546 0001941 151.1337 208.9620 14.37741788370307
ORBCOMM FM38            
1 33060U 08031A   26048.91210585  .00001747  00000+0  24116-3 0  9990
2 33060  48.4373 223.1165 0004236  16.4809 343.6244 14.82633465951199
ORBCOMM FM41            
1 33061U 08031B   26048.95045068  .00001630  00000+0  22932-3 0  9992
2 33061  48.4421 231.5970 0003568 357.7940 163.9390 14.82171164950675
ORBCOMM FM29            
1 33062U 08031C   26048.98114137  .00001552  00000+0  21875-3 0  9998
2 33062  48.4376 238.9101 0005298   0.0710 164.7653 14.82341312950593
ORBCOMM FM39            
1 33063U 08031D   26048.96341188  .00001317  00000+0  19679-3 0  9993
2 33063  48.4396 266.0963 0006505 329.7521  30.3018 14.80736004950202
ORBCOMM FM37            
1 33064U 08031E   26048.78441632  .00001273  00000+0  19035-3 0  9996
2 33064  48.4389 255.0893 0004929 348.2756 116.1701 14.80926588950434
ORBCOMM FM40            
1 33065U 08031F   26049.21575232  .00002080  00000+0  27610-3 0  9995
2 33065  48.4386 232.6627 0005623   7.6161 327.8483 14.83542913950668
VESSELSAT 1             
1 37840U 11058C   26049.06315787  .00000361  00000+0  52118-4 0  9995
2 37840  19.9629  46.0173 0013663  12.1291 347.9441 14.11415802741085
ORBCOMM FM109           
1 40086U 14040A   26049.06123338  .00000526  00000+0  14790-3 0  9990
2 40086  47.0035 294.6448 0001562  16.1467 343.9469 14.58691532616954
ORBCOMM FM107           
1 40087U 14040B   26049.07695979  .00000588  00000+0  16083-3 0  9992
2 40087  47.0051 295.4302 0001436 313.8101  46.2666 14.58771495617032
ORBCOMM FM106           
1 40088U 14040C   26049.16994399  .00000826  00000+0  16665-3 0  9992
2 40088  47.0593  97.1503 0015666 132.8901 227.3308 14.70249332619661
ORBCOMM FM111           
1 40089U 14040D   26048.96729576  .00002354  00000+0  27414-3 0  9995
2 40089  46.9999 274.1370 0029060 290.0456  69.7314 14.88216556626815
ORBCOMM FM104           
1 40090U 14040E   26049.20044238  .00000560  00000+0  16043-3 0  9993
2 40090  47.0063 331.4408 0016711 251.1300 108.7773 14.57136234616491
ORBCOMM FM103           
1 40091U 14040F   26049.06343119  .00000534  00000+0  14969-3 0  9994
2 40091  47.0055 296.2008 0002026 318.5924  41.4808 14.58675853599994
ORBCOMM FM114           
1 41179U 15081A   26048.80524407  .00000536  00000+0  15002-3 0  9991
2 41179  47.0033 206.3624 0001906 358.3182   1.7697 14.58693653540324
ORBCOMM FM119           
1 41180U 15081B   26049.21474872  .00000537  00000+0  15040-3 0  9992
2 41180  46.9999 113.7856 0000301 169.9087 190.1805 14.58638626541639
ORBCOMM FM105           
1 41181U 15081C   26048.28181926  .00000273  00000+0  12123-3 0  9990
2 41181  47.0006 147.1558 0001994 313.5963  46.4752 14.45476169536209
ORBCOMM FM110           
1 41182U 15081D   26048.45197066  .00000855  00000+0  21795-3 0  9993
2 41182  47.0005 207.5090 0003399 242.3264 117.7277 14.58688388540149
ORBCOMM FM118           
1 41183U 15081E   26048.82898868  .00000496  00000+0  14162-3 0  9994
2 41183  47.0026 206.0379 0003423 210.4756 149.5931 14.58684209540303
ORBCOMM FM112           
1 41184U 15081F   26049.17447037  .00000815  00000+0  20932-3 0  9999
2 41184  46.9985 112.9144 0001683 341.7960  18.2866 14.58692327541571
ORBCOMM FM113           
1 41185U 15081G   26049.22019392  .00000774  00000+0  20051-3 0  9991
2 41185  47.0003 113.0636 0001186 342.8762  17.2084 14.58694967541565
ORBCOMM FM115           
1 41186U 15081H   26049.14875880  .00000657  00000+0  16084-3 0  9996
2 41186  46.9993 309.2700 0000347 124.2826 235.8094 14.63080385543788
ORBCOMM FM108           
1 41187U 15081J   26048.97741756  .00000788  00000+0  20371-3 0  9990
2 41187  47.0060  25.7435 0002897 347.4347  12.6466 14.58696203542677
ORBCOMM FM117           
1 41188U 15081K   26049.28534543  .00000808  00000+0  20783-3 0  9990
2 41188  47.0021  22.9605 0003080 358.1616   1.9258 14.58690166542768
ORBCOMM FM116           
1 41189U 15081L   26049.19756751  .00000832  00000+0  21292-3 0  9991
2 41189  47.0017 113.1575 0002654 243.3969 116.6645 14.58685506541568
