GLOBALSTAR M069         
1 31573U 07020C   26176.54387612 -.00000060  00000+0  30421-3 0  9995
2 31573  52.0009 228.4743 0002148 166.3867 341.7045 12.23471416879828
GLOBALSTAR M072         
1 31574U 07020D   26176.68067519 -.00000090  00000+0 -75663-4 0  9994
2 31574  51.9936  77.6334 0001511 352.9884  24.8184 11.91658401875993
GLOBALSTAR M066         
1 32265U 07048C   26176.59594337 -.00000134  00000+0 -33226-3 0  9992
2 32265  51.9609  33.7736 0005613  62.0125 315.1136 12.30386868861268
GLOBALSTAR M079         
1 37188U 10054A   26176.67666895 -.00000112  00000+0 -47391-4 0  9995
2 37188  52.0044  82.8267 0000896  42.8801 326.1584 12.62266166723620
GLOBALSTAR M074         
1 37189U 10054B   26176.50103204 -.00000113  00000+0 -53701-4 0  9991
2 37189  52.0023  82.6248 0000717  63.8298 107.0045 12.62268400724206
GLOBALSTAR M076         
1 37190U 10054C   26176.73147807 -.00000114  00000+0 -58084-4 0  9995
2 37190  52.0029  82.1272 0000918  59.2469 319.1533 12.62261883723955
GLOBALSTAR M077         
1 37191U 10054D   26176.70981837 -.00000062  00000+0  29026-3 0  9996
2 37191  51.9923 157.6630 0002597 188.2249 342.9805 11.67547922722137
GLOBALSTAR M075         
1 37192U 10054E   26176.62004200 -.00000112  00000+0 -44587-4 0  9995
2 37192  51.9938 124.5158 0000370  33.7535 138.1078 12.62267340723004
GLOBALSTAR M073         
1 37193U 10054F   26176.58718189 -.00000096  00000+0  41871-4 0  9992
2 37193  52.0075  38.7233 0001052  64.7529 316.1536 12.62266608724996
GLOBALSTAR M083         
1 37739U 11033A   26176.69237985 -.00000080  00000+0  12995-3 0  9995
2 37739  51.9878 346.6196 0000959  80.9515 359.6261 12.62263518694024
GLOBALSTAR M088         
1 37740U 11033B   26176.60113075 -.00000088  00000+0  90488-4 0  9993
2 37740  52.0205 253.3478 0000525 139.2589   4.9184 12.62268972689552
GLOBALSTAR M091         
1 37741U 11033C   26176.53914013 -.00000086  00000+0  10043-3 0  9993
2 37741  51.9971 216.4889 0000098 171.3227 351.8930 12.62264039690339
GLOBALSTAR M085         
1 37742U 11033D   26176.68608351 -.00000092  00000+0  67247-4 0  9991
2 37742  52.0098 167.3393 0000304 350.9257 180.4157 12.62264154690867
GLOBALSTAR M081         
1 37743U 11033E   26176.30163250 -.00000083  00000+0  11329-3 0  9994
2 37743  51.9929 170.9365 0000203  37.6637  65.5240 12.62265188690962
GLOBALSTAR M089         
1 37744U 11033F   26176.18285414 -.00000098  00000+0  31434-4 0  9994
2 37744  51.9917 125.4549 0000452  77.9696  26.1481 12.62267366691799
GLOBALSTAR M084         
1 38040U 11080A   26176.66574110 -.00000094  00000+0  54198-4 0  9991
2 38040  52.0028 351.4704 0001102  99.6309 339.7971 12.62267631669835
GLOBALSTAR M080         
1 38041U 11080B   26176.63633130 -.00000089  00000+0  82243-4 0  9993
2 38041  52.0083 353.2810 0000416  78.1411 357.6724 12.62269653669952
GLOBALSTAR M082         
1 38042U 11080C   26176.63860573 -.00000105  00000+0 -62064-5 0  9997
2 38042  52.0092 308.7764 0000481 106.1992 269.8127 12.62263689670668
GLOBALSTAR M092         
1 38043U 11080D   26176.40909264 -.00000101  00000+0  14583-4 0  9991
2 38043  52.0097  39.8721 0000806  75.1505  96.5278 12.62267078669087
GLOBALSTAR M090         
1 38044U 11080E   26176.66448014 -.00000105  00000+0 -81176-5 0  9999
2 38044  52.0136 302.6560 0000730 101.6949 271.1266 12.62269081670780
GLOBALSTAR M086         
1 38045U 11080F   26176.60690148 -.00000084  00000+0  11311-3 0  9998
2 38045  51.9915 302.7477 0001684  81.8389 290.7764 12.62287117670722
GLOBALSTAR M097         
1 39072U 13005A   26176.47728500 -.00000079  00000+0  13769-3 0  9990
2 39072  52.0019 218.1017 0000142 105.8377 254.2505 12.62271180617959
GLOBALSTAR M093         
1 39073U 13005B   26176.52961704 -.00000082  00000+0  12298-3 0  9992
2 39073  52.0076 211.2911 0000203  44.3026 315.7857 12.62266042617916
GLOBALSTAR M094         
1 39074U 13005C   26176.60867470 -.00000113  00000+0 -51944-4 0  9995
2 39074  51.9944 125.1572 0000623  25.0723 335.0174 12.62268511619531
GLOBALSTAR M096         
1 39075U 13005D   26176.30543911 -.00000112  00000+0 -45624-4 0  9991
2 39075  52.0052 174.8893 0000239 356.8696   3.2169 12.62265642618414
GLOBALSTAR M078         
1 39076U 13005E   26176.59523363 -.00000001  00000+0  57558-3 0  9996
2 39076  51.9866 258.0065 0000484 265.9200  94.1612 12.62259356617073
GLOBALSTAR M095         
1 39077U 13005F   26176.46358825 -.00000093  00000+0  58773-4 0  9994
2 39077  52.0077 256.0234 0000078 114.0594 246.0281 12.62263562616911
GLOBALSTAR M087         
1 52888U 22064A   26176.63515626 -.00000101  00000+0  17061-4 0  9992
2 52888  52.0010  36.7333 0000877  55.5990 304.4960 12.62269213192205
