IRIDIUM 7               
1 24793U 97020B   26078.20110270  .00000343  00000+0  11083-3 0  9994
2 24793  86.3917  61.6026 0001886  83.1197 277.0214 14.36192208511369
IRIDIUM 5               
1 24795U 97020D   26078.70845065  .00002879  00000+0  21909-3 0  9992
2 24795  86.3878 316.3651 0100088 226.1201 133.1733 14.97715740526655
IRIDIUM 4               
1 24796U 97020E   26078.84724206  .00000358  00000+0  11383-3 0  9996
2 24796  86.3923  58.0227 0002154  85.1449 274.9994 14.37101591512057
IRIDIUM 914             
1 24836U 97030A   26077.93739746  .00000409  00000+0  12077-3 0  9994
2 24836  86.3886  66.1967 0003353  65.6701 294.4849 14.41169904646698
IRIDIUM 16              
1 24841U 97030F   26078.31164019  .00000361  00000+0  11076-3 0  9993
2 24841  86.3965  89.7029 0001009 163.5773 196.5458 14.38989908506564
IRIDIUM 911             
1 24842U 97030G   26078.25708188  .00000493  00000+0  12730-3 0  9992
2 24842  86.4392  88.1863 0011871 258.5511 101.4360 14.48027585514888
IRIDIUM 17              
1 24870U 97034B   26078.18686557  .00000353  00000+0  10981-3 0  9995
2 24870  86.3932 119.1977 0002544 131.3898 228.7519 14.38127992503106
IRIDIUM 920             
1 24871U 97034C   26078.28700354  .00000353  00000+0  10201-3 0  9994
2 24871  86.3911  97.7193 0009385 250.0963 109.9227 14.41830893506213
IRIDIUM 26              
1 24903U 97043A   26078.81238285  .00000355  00000+0  11223-3 0  9995
2 24903  86.4017 354.7714 0001976  87.4098 272.7325 14.37426102496339
IRIDIUM 22              
1 24907U 97043E   26078.83331436  .00000306  00000+0  98121-4 0  9992
2 24907  86.4023 358.5371 0002147  90.1640 269.9803 14.36204828496333
DUMMY MASS 1            
1 24925U 97048A   26078.82855188  .00000405  00000+0  41843-4 0  9990
2 24925  86.3397   7.7699 0004394 237.8507 122.2292 14.87286753546095
DUMMY MASS 2            
1 24926U 97048B   26078.83683186  .00000403  00000+0  41810-4 0  9991
2 24926  86.3395   9.4228 0004959 257.0886 102.9785 14.87036266545860
IRIDIUM 29              
1 24944U 97051A   26078.82434014  .00000365  00000+0  11704-3 0  9993
2 24944  86.3984  28.1546 0002366  88.0482 272.0986 14.36752499492847
IRIDIUM 33              
1 24946U 97051C   26078.83608092  .00000260  00000+0  84134-4 0  9997
2 24946  86.3901  27.4411 0005736 254.9149 105.1413 14.35107457492274
IRIDIUM 28              
1 24948U 97051E   26078.83360002  .00000361  00000+0  11360-3 0  9997
2 24948  86.3995  25.5133 0001656  89.0770 271.0618 14.37646681493442
IRIDIUM 36              
1 24967U 97056C   26078.19691342  .00000387  00000+0  12190-3 0  9996
2 24967  86.3932  57.3853 0002048  93.7536 266.3896 14.37881033491731
IRIDIUM 39              
1 25042U 97069D   26078.31055312  .00000564  00000+0  14089-3 0  9996
2 25042  86.3849  93.1842 0019851 105.2710 255.0690 14.49663967488811
IRIDIUM 38              
1 25043U 97069E   26078.53701589  .00000353  00000+0  10943-3 0  9996
2 25043  86.3928 117.4006 0000366  80.6230 279.5010 14.38421113485532
IRIDIUM 42              
1 25077U 97077A   26078.67456630  .00000349  00000+0  11212-3 0  9996
2 25077  86.3946 123.8625 0001575  81.6389 278.4986 14.36629734480741
IRIDIUM 44              
1 25078U 97077B   26078.30170679  .00000285  00000+0  83378-4 0  9995
2 25078  86.3907 105.1891 0002294 139.6201 220.5169 14.40517522483305
IRIDIUM 45              
1 25104U 97082A   26078.26231711  .00017082  00000+0  41074-3 0  9990
2 25104  86.3466 272.8728 0087638  11.9715 348.3591 15.37161693494078
IRIDIUM 24              
1 25105U 97082B   26078.74759789  .00000451  00000+0  13030-3 0  9997
2 25105  86.3927 323.4135 0009274 243.2982 116.7270 14.42451913482937
IRIDIUM 57              
1 25273U 98019B   26078.83289346  .00000315  00000+0  10143-3 0  9992
2 25273  86.3986  29.6407 0002048  88.0406 272.1025 14.36132717464344
IRIDIUM 63              
1 25286U 98021B   26078.78039309  .00000302  00000+0  95749-4 0  9997
2 25286  86.4007 326.5170 0002346  87.7694 272.3772 14.36831971463411
IRIDIUM 69              
1 25319U 98026A   26078.77423678  .00000428  00000+0  12617-3 0  9995
2 25319  86.4021 338.9360 0002705 143.3954 216.7431 14.41331724462756
IRIDIUM 71              
1 25320U 98026B   26078.75487403  .00000342  00000+0  99338-4 0  9992
2 25320  86.4012 333.6119 0000306 152.0742 208.0475 14.41415466463286
IRIDIUM 73              
1 25344U 98032C   26078.53074441  .00000422  00000+0  99030-4 0  9993
2 25344  86.4365 289.8593 0002641 101.4077 258.7425 14.52132073470517
IRIDIUM 82              
1 25467U 98051A   26078.79598091  .00050066  00000+0  59782-3 0  9998
2 25467  86.3585 331.8197 0043269 316.5426  43.2430 15.59659770466459
