QIANFAN-1               
1 60379U 24140A   26186.32943631  .00000142  00000+0  20158-3 0  9995
2 60379  88.9738 278.0490 0016497 351.2865   8.7997 13.51018670 94978
QIANFAN-2               
1 60380U 24140B   26186.35827780  .00000162  00000+0  23255-3 0  9999
2 60380  88.9724 277.8575 0010845 323.2828  36.7579 13.51014392 95037
QIANFAN-3               
1 60381U 24140C   26186.36648087  .00000152  00000+0  21653-3 0  9991
2 60381  88.9717 277.9738 0012350 336.8691  23.1902 13.51015436 94942
QIANFAN-4               
1 60382U 24140D   26186.34173429  .00000154  00000+0  22035-3 0  9990
2 60382  88.9742 277.9255 0011142 326.2216  33.8224 13.51018284 95062
QIANFAN-5               
1 60383U 24140E   26186.39113895  .00000158  00000+0  22546-3 0  9998
2 60383  88.9716 277.9959 0014034 348.2408  11.8413 13.51016933 94935
QIANFAN-6               
1 60384U 24140F   26186.33762606  .00000134  00000+0  18848-3 0  9997
2 60384  88.9743 277.8031 0011462 332.9382  27.1171 13.51017275 95122
QIANFAN-7               
1 60385U 24140G   26186.32015486  .00000761  00000+0  30149-3 0  9998
2 60385  88.9773 269.6442 0017658  89.6324 270.6894 14.27858456 99585
QIANFAN-8               
1 60386U 24140H   26186.34588326  .00000143  00000+0  20261-3 0  9997
2 60386  88.9744 278.0423 0014968 333.4204  26.6178 13.51013664 94977
QIANFAN-9               
1 60387U 24140J   26186.32114340  .00000153  00000+0  21853-3 0  9996
2 60387  88.9742 278.1161 0014635 333.3431  26.6966 13.51019271 94951
QIANFAN-10              
1 60388U 24140K   26186.32526744  .00000151  00000+0  21464-3 0  9998
2 60388  88.9754 277.4842 0012520 308.1895  51.8128 13.51020386 95082
QIANFAN-11              
1 60389U 24140L   26186.36231014  .00000158  00000+0  22559-3 0  9999
2 60389  88.9678 277.9137 0012690 334.0089  26.0423 13.51014455 94745
QIANFAN-12              
1 60390U 24140M   26186.38296566  .00000149  00000+0  21169-3 0  9992
2 60390  88.9721 278.0440 0011797 343.7895  16.2877 13.51016618 94875
QIANFAN-13              
1 60391U 24140N   26186.35412382  .00000156  00000+0  22259-3 0  9995
2 60391  88.9733 278.1718 0011731 346.9390  13.1456 13.51016655 94893
QIANFAN-14              
1 60392U 24140P   26186.37884068  .00000138  00000+0  19539-3 0  9999
2 60392  88.9713 278.0235 0015354 344.4301  15.6376 13.51010144 94902
QIANFAN-15              
1 60393U 24140Q   26186.38700245  .00000152  00000+0  21643-3 0  9990
2 60393  88.9736 278.0278 0010731 331.8535  28.2035 13.51010756 94897
QIANFAN-16              
1 60394U 24140R   26186.37475434  .00000143  00000+0  20215-3 0  9993
2 60394  88.9739 278.1550 0013487 349.7825  10.3050 13.51018599 94809
QIANFAN-17              
1 60395U 24140S   26186.37055276  .00000133  00000+0  18788-3 0  9993
2 60395  88.9750 278.2237 0013632 342.7659  17.3028 13.51014692 95764
QIANFAN-18              
1 60396U 24140T   26186.34994617  .00000155  00000+0  22123-3 0  9994
2 60396  88.9744 277.7458 0012409 323.8494  36.1817 13.51014127 95156
QIANFAN-19              
1 61552U 24185A   26186.32365552  .00000457  00000+0  23089-3 0  9993
2 61552  88.9822  54.4995 0007739  25.0114 335.1446 14.14489667 98589
QIANFAN-20              
1 61553U 24185B   26186.57929686  .00000389  00000+0  21641-3 0  9991
2 61553  88.9818  54.9974 0007815  61.9319 298.2654 14.09031404 98337
QIANFAN-21              
1 61554U 24185C   26186.55496641  .00000655  00000+0  28508-3 0  9995
2 61554  88.9738  52.9924 0012767  61.4566 298.7909 14.22874131 99092
QIANFAN-22              
1 61555U 24185D   26186.55364352  .00000291  00000+0  23996-3 0  9991
2 61555  88.9804  56.8083 0008708  88.1324 272.0844 13.86403950 97316
QIANFAN-23              
1 61556U 24185E   26186.57403618  .00000430  00000+0  20897-3 0  9995
2 61556  88.9814  54.1841 0008643  30.9376 329.2319 14.16513941 98747
QIANFAN-24              
1 61557U 24185F   26186.59489841  .00000686  00000+0  29230-3 0  9993
2 61557  88.9797  53.2541 0009512   4.9291 355.1993 14.24090590 99171
QIANFAN-25              
1 61558U 24185G   26186.33093067  .00000430  00000+0  25367-3 0  9991
2 61558  88.9812  55.0370 0013014  58.2783 301.9666 14.06091052 98258
QIANFAN-26              
1 61559U 24185H   26186.39193169  .00000258  00000+0  24445-3 0  9996
2 61559  88.9811  57.6628 0007697 104.5508 255.6513 13.77921048 96856
QIANFAN-27              
1 61560U 24185J   26186.57928124  .00000560  00000+0  22183-3 0  9998
2 61560  88.9807  52.9329 0007010 356.6113   3.5032 14.27551950 99384
QIANFAN-28              
1 61561U 24185K   26186.58904316  .00000790  00000+0  31009-3 0  9999
2 61561  88.9825  52.9448 0006809 354.9141   5.1984 14.28410810 99412
QIANFAN-29              
1 61562U 24185L   26186.59058471  .00000121  00000+0  16780-3 0  9990
2 61562  88.9785  60.1381 0009970 166.7069 193.4347 13.51077002 95456
QIANFAN-30              
1 61563U 24185M   26186.57250894  .00000158  00000+0  22881-3 0  9991
2 61563  88.9805  59.7437 0007957 150.2584 209.9020 13.50059310 95709
QIANFAN-31              
1 61564U 24185N   26186.59017274  .00000172  00000+0  22050-3 0  9991
2 61564  88.9789  59.2184 0008024 137.4228 222.7551 13.58044713 95962
QIANFAN-32              
1 61565U 24185P   26186.57659999  .00000160  00000+0  22961-3 0  9994
2 61565  88.9845  59.9387 0009098 182.5522 177.5585 13.50790033 95697
QIANFAN-33              
1 61566U 24185Q   26186.59418041  .00000178  00000+0  11876-3 0  9990
2 61566  88.9803  55.9703 0009453  55.4804 304.7264 13.96717320 97751
QIANFAN-34              
1 61567U 24185R   26186.57497764  .00000406  00000+0  25531-3 0  9995
2 61567  88.9781  55.2647 0008034  54.5223 305.6706 14.02481009 98062
QIANFAN-35              
1 61568U 24185S   26186.56961123  .00000729  00000+0  28671-3 0  9996
2 61568  88.9806  52.8388 0005900 355.1466   4.9670 14.28290938 99410
QIANFAN-36              
1 61569U 24185T   26186.56787582  .00000091  00000+0  11360-3 0  9991
2 61569  88.9781  59.7015 0006733 150.5284 209.6250 13.55638694 95672
QIANFAN-37              
1 62238U 24232B   26186.55522933  .00000049  00000+0  57926-4 0  9996
2 62238  89.0064  20.7396 0001691 104.4617 255.6722 13.51010674126823
QIANFAN-38              
1 62239U 24232C   26186.50585038  .00000041  00000+0  44544-4 0  9991
2 62239  89.0071  20.6743 0013442 331.0897  28.9509 13.51007335126871
QIANFAN-39              
1 62240U 24232D   26186.47065660  .00000168  00000+0  64708-4 0  9997
2 62240  89.0057  13.9835 0018093 123.4942 236.7983 14.25530867130553
QIANFAN-40              
1 62241U 24232E   26186.53873535  .00000037  00000+0  38894-4 0  9995
2 62241  89.0098  20.3126 0012745 340.0587  20.0064 13.51009044127246
QIANFAN-41              
1 62242U 24232F   26186.54697094  .00000039  00000+0  41344-4 0  9997
2 62242  89.0069  20.6179 0012722 327.0482  32.9875 13.51011702126908
QIANFAN-42              
1 62243U 24232G   26186.52886461  .00000151  00000+0  58514-4 0  9996
2 62243  89.0055  14.0544 0016771 128.9919 231.2771 14.24619357130521
QIANFAN-43              
1 62244U 24232H   26186.54284987  .00000036  00000+0  36650-4 0  9993
2 62244  89.0073  20.6926 0014414 331.8637  28.1733 13.51011265 95516
QIANFAN-44              
1 62245U 24232J   26186.53046423  .00000043  00000+0  48237-4 0  9996
2 62245  89.0071  20.5013 0012540 329.6791  30.3633 13.51013163126984
QIANFAN-45              
1 62246U 24232K   26186.49762312  .00000037  00000+0  38200-4 0  9996
2 62246  89.0075  20.6584 0013201 329.0385  30.9987 13.51010578126908
QIANFAN-46              
1 62247U 24232L   26186.52228345  .00000031  00000+0  28918-4 0  9993
2 62247  89.0071  20.7165 0013419 334.8423  25.2073 13.51011309126860
QIANFAN-47              
1 62248U 24232M   26186.52640917  .00000051  00000+0  60379-4 0  9996
2 62248  89.0067  20.6409 0013836 333.7315  26.3133 13.51010563126890
QIANFAN-48              
1 62249U 24232N   26186.48926570  .00000060  00000+0  73940-4 0  9992
2 62249  89.0071  20.6544 0016159 335.5238  24.5144 13.51015184126897
QIANFAN-49              
1 62250U 24232P   26186.55102758  .00000031  00000+0  30301-4 0  9998
2 62250  89.0070  20.6591 0013072 330.9606  29.0817 13.51013596 95492
QIANFAN-50              
1 62251U 24232Q   26186.50173197  .00000040  00000+0  43769-4 0  9991
2 62251  89.0076  20.6834 0014755 331.6998  28.3350 13.51010405 95513
QIANFAN-51              
1 62252U 24232R   26186.48528583  .00000043  00000+0  48589-4 0  9990
2 62252  89.0069  20.6663 0012411 337.1430  22.9167 13.51007136 95507
QIANFAN-52              
1 62253U 24232S   26186.51400536  .00000037  00000+0  38180-4 0  9991
2 62253  89.0066  20.5290 0014130 327.5578  32.4703 13.51013068 95598
QIANFAN-53              
1 62254U 24232T   26186.49346607  .00000057  00000+0  70316-4 0  9996
2 62254  89.0073  20.6511 0013049 329.3774  30.6614 13.51009493 95554
QIANFAN-54              
1 62255U 24232U   26186.53458528  .00000035  00000+0  35439-4 0  9991
2 62255  89.0064  20.3073 0003111  46.6796 313.4614 13.51013308127061
QIANFAN-55              
1 62785U 25016A   26186.33853632  .00000174  00000+0  25037-3 0  9999
2 62785  88.9728  81.9956 0018995 112.9858 247.3300 13.51009519 74819
QIANFAN-56              
1 62786U 25016B   26186.35501585  .00000159  00000+0  22636-3 0  9994
2 62786  88.9701  81.7757 0017577 114.7967 245.5015 13.51008095 74860
QIANFAN-57              
1 62787U 25016C   26186.38786964  .00000156  00000+0  22268-3 0  9992
2 62787  88.9732  81.9895 0001491  62.0182 298.1120 13.51008212 74831
QIANFAN-58              
1 62788U 25016D   26186.35900654  .00000152  00000+0  21675-3 0  9991
2 62788  88.9702  81.7617 0015658 107.3621 252.9244 13.51022816 74875
QIANFAN-59              
1 62789U 25016E   26186.38373228  .00000155  00000+0  22164-3 0  9993
2 62789  88.9726  81.8812 0015964 110.8201 249.4662 13.51016959 74879
QIANFAN-60              
1 62790U 25016F   26186.34269832  .00000174  00000+0  25004-3 0  9993
2 62790  88.9707  81.8179 0017566 108.1116 252.1950 13.51004627 74859
QIANFAN-61              
1 62791U 25016G   26186.37557742  .00000168  00000+0  24048-3 0  9997
2 62791  88.9774  82.1161 0016512 107.2799 253.0161 13.51012035 74874
QIANFAN-62              
1 62792U 25016H   26186.37960741  .00000160  00000+0  22926-3 0  9990
2 62792  88.9721  81.8740 0017885 107.9026 252.4077 13.51021558 74868
QIANFAN-63              
1 62793U 25016J   26186.33026983  .00000182  00000+0  26227-3 0  9990
2 62793  88.9727  81.8445 0017811 112.8519 247.4515 13.51015561 74899
QIANFAN-64              
1 62794U 25016K   26186.37144539  .00000168  00000+0  24099-3 0  9992
2 62794  88.9714  81.7868 0015910 105.9383 254.3522 13.51012031 74898
QIANFAN-65              
1 62795U 25016L   26186.36741569  .00000176  00000+0  25361-3 0  9990
2 62795  88.9711  81.8060 0015731 107.3839 252.9034 13.51028601 74874
QIANFAN-66              
1 62796U 25016M   26186.32215308  .00000168  00000+0  24158-3 0  9998
2 62796  88.9730  81.8210 0016901 103.8842 256.4191 13.51007826 74912
QIANFAN-67              
1 62797U 25016N   26186.32622192  .00000171  00000+0  24491-3 0  9996
2 62797  88.9720  81.8260 0016743 110.0268 250.2688 13.51010399 74881
QIANFAN-68              
1 62798U 25016P   26186.16979692  .00000159  00000+0  22715-3 0  9992
2 62798  88.9724  81.8947 0016841 108.5234 251.7749 13.51023002 74847
QIANFAN-69              
1 62799U 25016Q   26186.33432356  .00000179  00000+0  25823-3 0  9998
2 62799  88.9703  81.7034 0017568 109.5995 250.7055 13.51017010 74901
QIANFAN-70              
1 62800U 25016R   26186.35084609  .00000168  00000+0  24110-3 0  9993
2 62800  88.9723  81.8830 0017345 100.8945 259.4160 13.51015325 74868
QIANFAN-71              
1 62801U 25016S   26186.34681318  .00000156  00000+0  22228-3 0  9998
2 62801  88.9717  81.8506 0017405 112.7663 247.5329 13.51009648 74864
QIANFAN-72              
1 62802U 25016T   26186.36311726  .00000169  00000+0  24183-3 0  9990
2 62802  88.9707  81.8423 0020484 120.0697 240.2489 13.51012465 74859
QIANFAN-73              
1 63159U 25046A   26186.39009635  .00000175  00000+0  25191-3 0  9992
2 63159  88.9723 298.7917 0013214 246.8542 113.1218 13.51012794 75044
QIANFAN-74              
1 63160U 25046B   26186.37386782  .00000191  00000+0  27705-3 0  9994
2 63160  88.9723 298.6830 0002422 109.3393 250.8020 13.51014064 75104
QIANFAN-75              
1 63161U 25046C   26186.36141345  .00000188  00000+0  27188-3 0  9999
2 63161  88.9724 298.9208 0014190 250.8199 109.1416 13.51012948 74977
QIANFAN-76              
1 63162U 25046D   26186.35723992  .00000190  00000+0  27548-3 0  9996
2 63162  88.9724 298.9011 0011742 250.4943 109.4940 13.51011369 74985
QIANFAN-77              
1 63163U 25046E   26186.37273296  .00000459  00000+0  32364-3 0  9996
2 63163  88.9727 295.2208 0016273 154.8381 205.3592 13.96216737 77004
QIANFAN-78              
1 63164U 25046F   26186.32433718  .00000189  00000+0  27398-3 0  9990
2 63164  88.9723 298.7666 0013061 253.4670 106.5046 13.51006688 75058
QIANFAN-79              
1 63165U 25046G   26186.35316977  .00000197  00000+0  28632-3 0  9992
2 63165  88.9726 298.8785 0012882 251.6672 108.3078 13.51017127 75007
QIANFAN-80              
1 63166U 25046H   26186.36970065  .00000198  00000+0  28774-3 0  9996
2 63166  88.9723 298.5782 0011645 256.3087 103.6768 13.51014344 75166
QIANFAN-81              
1 63167U 25046J   26186.34901111  .00000198  00000+0  28776-3 0  9993
2 63167  88.9723 298.6479 0013160 244.6656 115.3133 13.51021877 75117
QIANFAN-82              
1 63168U 25046K   26186.38192472  .00000200  00000+0  29120-3 0  9998
2 63168  88.9723 298.6885 0010859 251.4212 108.5760 13.51016358 75102
QIANFAN-83              
1 63169U 25046L   26186.37105047  .00000230  00000+0  28175-3 0  9992
2 63169  88.9725 298.0630 0012932 222.7402 137.2750 13.62048178 75456
QIANFAN-84              
1 63170U 25046M   26186.33707683  .00000203  00000+0  29527-3 0  9996
2 63170  88.9723 298.8260 0013997 248.7896 111.1761 13.51041873 75029
QIANFAN-85              
1 63171U 25046N   26186.33251888  .00000193  00000+0  28104-3 0  9996
2 63171  88.9723 298.6965 0011395 250.4457 109.5464 13.51014029 75094
QIANFAN-86              
1 63172U 25046P   26186.34083180  .00000203  00000+0  29582-3 0  9999
2 63172  88.9725 298.5626 0009134 254.1119 105.9026 13.51021538 75170
QIANFAN-87              
1 63173U 25046Q   26186.38605489  .00000198  00000+0  28847-3 0  9992
2 63173  88.9722 298.6618 0009788 248.5279 111.4829 13.51007089 75111
QIANFAN-88              
1 63174U 25046R   26186.32850508  .00000191  00000+0  27723-3 0  9996
2 63174  88.9724 298.6275 0010036 259.0438 100.9584 13.51014817 75135
QIANFAN-89              
1 63175U 25046S   26186.36547678  .00000185  00000+0  26777-3 0  9993
2 63175  88.9723 298.8126 0014826 249.4302 110.5258 13.51021860 75036
QIANFAN-90              
1 63176U 25046T   26186.32015744  .00000195  00000+0  28333-3 0  9995
2 63176  88.9724 298.7902 0011784 246.7908 113.2002 13.51014062 75045
QIANFAN-91              
1 66033U 25233A   26186.57481625  .00000076  00000+0  99421-4 0  9995
2 66033  88.9987  41.3307 0001891  90.9196 269.2172 13.51014219 35666
QIANFAN-92              
1 66034U 25233B   26186.13861998  .00000105  00000+0  14450-3 0  9994
2 66034  88.9970  41.3436 0001929  84.3976 275.7396 13.51012441 35606
QIANFAN-93              
1 66035U 25233C   26186.14686761  .00000095  00000+0  12901-3 0  9996
2 66035  88.9997  41.3996 0001867  88.6242 271.5123 13.51016044 35606
QIANFAN-94              
1 66036U 25233D   26186.57891835  .00000085  00000+0  11363-3 0  9994
2 66036  88.9994  41.2585 0002030  86.5534 273.5849 13.51014830 35711
QIANFAN-95              
1 66037U 25233E   26186.14279316  .00000098  00000+0  13250-3 0  9993
2 66037  88.9991  40.8458 0002003  92.0597 268.0783 13.51015811 35901
QIANFAN-96              
1 66038U 25233F   26186.53779232  .00000080  00000+0  10516-3 0  9992
2 66038  88.9989  41.3489 0001889  92.7963 267.3404 13.51014751 35650
QIANFAN-97              
1 66039U 25233G   26186.52131398  .00000091  00000+0  12293-3 0  9993
2 66039  88.9991  41.3353 0001901  90.1933 269.9436 13.51014931 35662
QIANFAN-98              
1 66040U 25233H   26186.60358219  .00000073  00000+0  94721-4 0  9994
2 66040  88.9981  41.0558 0002448  85.3501 274.7929 13.51014808 35812
QIANFAN-99              
1 66041U 25233J   26186.16330846  .00000085  00000+0  11293-3 0  9997
2 66041  88.9992  41.3756 0002297  88.6552 271.4862 13.51014760 35617
QIANFAN-100             
1 66042U 25233K   26186.15519118  .00000083  00000+0  10994-3 0  9993
2 66042  89.0004  41.3055 0001873  88.9950 271.1416 13.51042714 35667
QIANFAN-101             
1 66043U 25233L   26186.10748859  .00000404  00000+0  16060-3 0  9992
2 66043  88.9989  38.5111 0017580  85.7876 274.5326 14.26818916 37187
QIANFAN-102             
1 66044U 25233M   26186.54599109  .00000089  00000+0  11982-3 0  9990
2 66044  88.9990  41.2460 0002068  87.5896 272.5492 13.51014713 35714
QIANFAN-103             
1 66045U 25233N   26186.55010590  .00000094  00000+0  12632-3 0  9993
2 66045  88.9993  41.3413 0001867  89.7294 270.4071 13.51015636 35668
QIANFAN-104             
1 66046U 25233P   26186.11002317  .00000092  00000+0  12458-3 0  9998
2 66046  88.9997  41.2888 0002061  84.4182 275.7205 13.51002311 35655
QIANFAN-105             
1 66047U 25233Q   26186.11827140  .00000091  00000+0  12182-3 0  9991
2 66047  89.0002  41.1347 0002252  85.8929 274.2480 13.51011717 35761
QIANFAN-106             
1 66048U 25233R   26186.55837182  .00000088  00000+0  11839-3 0  9991
2 66048  88.9979  41.2961 0002362  86.0180 274.1241 13.51014746 35668
QIANFAN-107             
1 66049U 25233S   26186.56657949  .00000078  00000+0  10260-3 0  9990
2 66049  88.9995  41.3306 0001893  88.6948 271.4420 13.51014192 35674
QIANFAN-108             
1 66050U 25233T   26186.12631189  .00000085  00000+0  11238-3 0  9996
2 66050  88.9988  41.3616 0002315  85.3658 274.7758 13.51015328 35610
QIANFAN-109             
1 68636U 26075A   26186.36263320  .00000117  00000+0  16187-3 0  9991
2 68636  88.9909 319.1550 0001976 115.6840 244.4515 13.51013040 12248
QIANFAN-110             
1 68637U 26075B   26186.37083794  .00000121  00000+0  16863-3 0  9994
2 68637  88.9909 319.1756 0002001 100.3075 259.8302 13.51014340 12246
QIANFAN-111             
1 68638U 26075C   26186.35853027  .00000123  00000+0  17233-3 0  9991
2 68638  88.9908 319.1365 0002007  99.0386 261.0993 13.51021256 12264
QIANFAN-112             
1 68639U 26075D   26186.39535474  .00000053  00000+0  62872-4 0  9991
2 68639  88.9907 319.1415 0001767 114.1983 245.9353 13.51011456 12266
QIANFAN-113             
1 68640U 26075E   26186.36668525  .00000115  00000+0  15871-3 0  9999
2 68640  88.9912 319.1391 0001893 102.3636 257.7728 13.51017165 12261
QIANFAN-114             
1 68641U 26075F   26186.37486899  .00000116  00000+0  16109-3 0  9999
2 68641  88.9908 319.1566 0001999 100.9591 259.1785 13.51015928 12255
QIANFAN-115             
1 68642U 26075G   26186.32954918  .00000111  00000+0  15362-3 0  9992
2 68642  88.9908 319.1684 0002063 105.6927 254.4452 13.51021133 12248
QIANFAN-116             
1 68643U 26075H   26186.39125636  .00000132  00000+0  18629-3 0  9999
2 68643  88.9901 319.1209 0001743 108.5506 251.5835 13.51024444 12267
QIANFAN-117             
1 68644U 26075J   26186.37894943  .00000112  00000+0  15555-3 0  9995
2 68644  88.9905 319.1386 0001948 108.3015 251.8348 13.51023123 12263
QIANFAN-118             
1 68645U 26075K   26186.33777317  .00000129  00000+0  18168-3 0  9998
2 68645  88.9910 319.1517 0001989  97.8491 262.2886 13.51021789 12259
QIANFAN-119             
1 68646U 26075L   26186.38720770  .00000110  00000+0  15144-3 0  9996
2 68646  88.9910 319.1423 0001996 111.7162 248.4202 13.51019290 12268
QIANFAN-120             
1 68647U 26075M   26186.32560495  .00000130  00000+0  18230-3 0  9998
2 68647  88.9912 319.1339 0002126 113.9975 246.1399 13.51019680 12264
QIANFAN-121             
1 68648U 26075N   26186.35010743  .00000108  00000+0  14897-3 0  9998
2 68648  88.9910 319.1359 0002036  99.1970 260.9412 13.51011707 12267
QIANFAN-122             
1 68649U 26075P   26186.34202492  .00000107  00000+0  14693-3 0  9995
2 68649  88.9909 319.1347 0001928 110.5196 249.6162 13.51015487 12254
QIANFAN-123             
1 68650U 26075Q   26186.38319961  .00000117  00000+0  16321-3 0  9992
2 68650  88.9905 319.1199 0001928 117.2281 242.9067 13.51013885 12245
QIANFAN-124             
1 68651U 26075R   26186.33379833  .00000130  00000+0  18240-3 0  9999
2 68651  88.9908 319.1344 0001896 112.6943 247.4409 13.51015059 12266
QIANFAN-125             
1 68652U 26075S   26186.34600130  .00000109  00000+0  15017-3 0  9993
2 68652  88.9908 319.1353 0002004  99.1792 260.9586 13.51011988 12263
QIANFAN-126             
1 68653U 26075T   26186.35434434  .00000102  00000+0  13911-3 0  9991
2 68653  88.9912 319.1007 0001950 117.1659 242.9692 13.51017109 12288
QIANFAN-127             
1 69073U 26104A   26185.15632518  .00000040  00000+0  29774-4 0  9997
2 69073  88.9886 339.7621 0009217  29.3382 330.8297 13.71597009  7439
QIANFAN-128             
1 69074U 26104B   26184.90189510 -.01877738  00000+0 -24792+1 0  9999
2 69074  88.9869 339.8172 0008873  62.1209 298.0848 13.65457214  7380
QIANFAN-129             
1 69075U 26104C   26185.13723305  .00000039  00000+0  28287-4 0  9998
2 69075  88.9879 339.7411 0009003  38.6502 321.5305 13.73478428  7443
QIANFAN-130             
1 69076U 26104D   26184.72360319 -.01938279  00000+0 -24312+1 0  9995
2 69076  88.9879 339.8275 0013835  51.2757 308.9638 13.68039043  7363
QIANFAN-131             
1 69077U 26104E   26184.95160185  .00000043  00000+0  33985-4 0  9996
2 69077  88.9867 339.7865 0008405  39.9867 320.1913 13.71098943  7402
QIANFAN-132             
1 69078U 26104F   26184.72032059 -.01897788  00000+0 -25743+1 0  9992
2 69078  88.9879 339.8461 0007866  29.1462 331.0134 13.63833110  7355
QIANFAN-133             
1 69079U 26104G   26184.76270366 -.02057957  00000+0 -25132+1 0  9991
2 69079  88.9872 339.8155 0011713  35.0160 325.1770 13.69932245  7373
QIANFAN-134             
1 69080U 26104H   26184.74417096 -.01880025  00000+0 -24312+1 0  9992
2 69080  88.9881 339.8292 0011393  52.0798 308.1391 13.66733716  7365
QIANFAN-135             
1 69081U 26104J   26185.14948252  .00000044  00000+0  35900-4 0  9992
2 69081  88.9875 339.7810 0008642  37.3992 322.7770 13.69867144  7425
QIANFAN-136             
1 69082U 26104K   26185.15585906  .00000039  00000+0  30878-4 0  9990
2 69082  88.9875 339.7799 0011302  37.1195 323.0745 13.67752034  7427
QIANFAN-137             
1 69083U 26104L   26185.16537541  .00000051  00000+0  33960-4 0  9993
2 69083  88.9884 339.6878 0009359  39.9631 320.2226 13.83521945  7470
QIANFAN-138             
1 69084U 26104M   26185.14995167  .00000041  00000+0  33698-4 0  9991
2 69084  88.9869 339.7802 0009080  36.5815 323.5964 13.66537228  7422
QIANFAN-139             
1 69085U 26104N   26185.17686509  .00000042  00000+0  34068-4 0  9995
2 69085  88.9880 339.7637 0008042  38.6025 321.5710 13.69560152  7438
QIANFAN-140             
1 69086U 26104P   26185.02233126  .00000042  00000+0  32554-4 0  9991
2 69086  88.9877 339.7827 0008145  35.7097 324.4608 13.70487052  7412
QIANFAN-141             
1 69087U 26104Q   26184.90323491 -.01885995  00000+0 -22125+1 0  9993
2 69087  88.9882 339.7799 0008276  30.0333 330.1304 13.72725803  7400
QIANFAN-142             
1 69088U 26104R   26184.87342998 -.01866970  00000+0 -21452+1 0  9997
2 69088  88.9876 339.7745 0011113  18.4828 341.6737 13.73928316  7400
QIANFAN-143             
1 69089U 26104S   26185.16423649  .00000039  00000+0  28201-4 0  9990
2 69089  88.9888 339.7457 0009669  28.8420 331.3277 13.73191408  7443
QIANFAN-144             
1 69090U 26104T   26184.89025384 -.01936084  00000+0 -23726+1 0  9999
2 69090  88.9876 339.7776 0007941  66.2372 293.9622 13.69488064  7404
QIANFAN-145             
1 69104U 26108A   26184.63656622 -.01816879  00000+0 -19385+1 0  9991
2 69104  89.0094  20.4650 0016636  52.8917 307.3767 13.78237415  6621
QIANFAN-146             
1 69105U 26108B   26184.79697953 -.01744354  00000+0 -14800+1 0  9996
2 69105  89.0102  20.3817 0015833  58.3231 301.9484 13.91561630  6680
QIANFAN-147             
1 69106U 26108C   26184.81419171 -.01858295  00000+0 -20571+1 0  9996
2 69106  89.0099  20.4360 0014178  61.5180 298.7411 13.76141670  6651
QIANFAN-148             
1 69107U 26108D   26184.82003279 -.02016101  00000+0 -21553+1 0  9990
2 69107  89.0090  20.4355 0020173  61.1685 299.1503 13.77845219  6653
QIANFAN-149             
1 69108U 26108E   26184.84085448 -.01876490  00000+0 -21440+1 0  9990
2 69108  89.0097  20.4400 0017260  69.1101 291.1909 13.74253194  6650
QIANFAN-150             
1 69109U 26108F   26184.83368082 -.01942458  00000+0 -19876+1 0  9996
2 69109  89.0097  20.4221 0021476  47.1063 313.1903 13.80298129  6663
QIANFAN-151             
1 69110U 26108G   26184.78841669 -.01724364  00000+0 -18768+1 0  9992
2 69110  89.0097  20.4333 0014937  60.3609 299.9042 13.76834500  6654
QIANFAN-152             
1 69111U 26108H   26184.83229052 -.01928921  00000+0 -20343+1 0  9992
2 69111  89.0095  20.4210 0017779  58.0434 302.2458 13.78499446  6662
QIANFAN-153             
1 69112U 26108J   26184.71035638 -.01928562  00000+0 -21337+1 0  9990
2 69112  89.0087  20.4368 0018237  46.7694 313.4990 13.75621888  6647
QIANFAN-154             
1 69113U 26108K   26184.70091891 -.01868313  00000+0 -21273+1 0  9999
2 69113  89.0101  20.4394 0017337  38.3107 321.9285 13.74443656  6645
QIANFAN-155             
1 69114U 26108L   26184.83427501 -.01930144  00000+0 -20250+1 0  9991
2 69114  89.0099  20.4223 0019364  55.5134 304.7858 13.78799599  6667
QIANFAN-156             
1 69115U 26108M   26184.78282485 -.01906456  00000+0 -19402+1 0  9992
2 69115  89.0106  20.4178 0022828  46.6585 313.6480 13.80534473  6667
QIANFAN-157             
1 69116U 26108N   26184.83295543 -.01860330  00000+0 -17503+1 0  9998
2 69116  89.0089  20.3840 0020216  63.7680 296.5566 13.85776039  6685
QIANFAN-158             
1 69117U 26108P   26184.73559385 -.01947379  00000+0 -19112+1 0  9992
2 69117  89.0094  20.4078 0025276  59.5143 300.8517 13.82743500  6661
QIANFAN-159             
1 69118U 26108Q   26184.83038323 -.01913823  00000+0 -19879+1 0  9995
2 69118  89.0089  20.3998 0020220  52.6340 307.6664 13.79355853  6678
QIANFAN-160             
1 69119U 26108R   26184.84181799 -.01934135  00000+0 -20888+1 0  9994
2 69119  89.0097  20.4053 0017509  65.9578 294.3418 13.77089245  6673
QIANFAN-161             
1 69120U 26108S   26185.77692676  .00000053  00000+0  32018-4 0  9992
2 69120  89.0107  20.2877 0017923  56.2093 304.0784 13.90035874  6819
QIANFAN-162             
1 69121U 26108T   26184.78643817 -.01858468  00000+0 -18655+1 0  9997
2 69121  89.0095  20.3955 0022217  49.1916 311.1175 13.81927986  6672
QIANFAN-163             
1 69325U 26121A   26171.83152253  .00000035  00000+0  30105-4 0  9993
2 69325  89.0159 300.1473 0020476 178.2353 181.8879 13.59758614  2659
QIANFAN-164             
1 69326U 26121B   26181.41126428  .00000135  00000+0  17150-3 0  9999
2 69326  89.0375 299.2171 0025338 148.7167 211.5502 13.57335987  3950
QIANFAN-165             
1 69382U 26124A   26185.43233474 -.01924881  00000+0 -12225+1 0  9991
2 69382  88.9976   0.0917 0007603 120.3459 239.8478 14.07730613  4258
QIANFAN-166             
1 69383U 26124B   26185.55649988 -.01984633  00000+0 -12437+1 0  9992
2 69383  88.9924   0.0695 0009943 100.9143 259.3160 14.08580785  4279
QIANFAN-167             
1 69384U 26124C   26184.78416010 -.01876647  00000+0 -11702+1 0  9994
2 69384  88.9985   0.1626 0006715 136.1933 223.9785 14.08648249  4162
QIANFAN-168             
1 69385U 26124D   26185.89794824 -.01803471  00000+0 -11474+1 0  9991
2 69385  88.9985   0.0329 0006305 132.9207 227.2507 14.08040311  4328
QIANFAN-169             
1 69386U 26124E   26185.96093121 -.01774422  00000+0 -11172+1 0  9990
2 69386  88.9982   0.0222 0008180 129.3545 230.8365 14.08542523  4331
QIANFAN-170             
1 69387U 26124F   26185.52200685 -.01781457  00000+0 -10854+1 0  9990
2 69387  88.9983   0.0697 0009124  93.0828 267.1401 14.10363348  4275
QIANFAN-171             
1 69388U 26124G   26185.22642235 -.02048810  00000+0 -12045+1 0  9993
2 69388  88.9980   0.0991 0004896 121.3184 238.8481 14.12237183  4239
QIANFAN-172             
1 69389U 26124H   26185.86792017 -.01761191  00000+0 -10708+1 0  9995
2 69389  88.9982   0.0261 0010289 133.7736 226.4302 14.10420986  4323
QIANFAN-173             
1 69390U 26124J   26185.43043764 -.01762220  00000+0 -10385+1 0  9993
2 69390  88.9993   0.0723 0008408 133.6401 226.5484 14.12143818  4261
QIANFAN-174             
1 69391U 26124K   26184.71694412 -.01933532  00000+0 -10939+1 0  9997
2 69391  88.9980   0.1522 0004214 167.3013 192.8281 14.14093640  4168
QIANFAN-175             
1 69392U 26124L   26185.41769584 -.01913271  00000+0 -11018+1 0  9996
2 69392  88.9984   0.0715 0005826 125.0667 235.1067 14.13081680  4266
QIANFAN-176             
1 69393U 26124M   26184.77623233 -.02007349  00000+0 -11465+1 0  9992
2 69393  88.9986   0.1428 0004781 150.5150 209.6307 14.13725247  4177
QIANFAN-177             
1 69394U 26124N   26185.68010513 -.01827158  00000+0 -10463+1 0  9999
2 69394  88.9979   0.0373 0008111 109.8242 250.3819 14.13206195  4300
QIANFAN-178             
1 69395U 26124P   26184.90989037 -.01963713  00000+0 -11062+1 0  9994
2 69395  88.9981   0.1253 0002987 156.3641 203.7684 14.14388570  4195
QIANFAN-179             
1 69396U 26124Q   26185.95564722 -.01927664  00000+0 -10807+1 0  9992
2 69396  88.9989   0.0049 0004505 156.8550 203.2841 14.14573553  4342
QIANFAN-180             
1 69397U 26124R   26185.24485952 -.01975946  00000+0 -11076+1 0  9997
2 69397  88.9985   0.0843 0004410 167.7153 192.4142 14.14679465  4247
QIANFAN-181             
1 69398U 26124S   26185.42332791 -.01855304  00000+0 -11925+1 0  9998
2 69398  88.9986   0.0910 0009342 143.8790 216.3025 14.06919415  4255
QIANFAN-182             
1 69399U 26124T   26184.75194544 -.01953982  00000+0 -11766+1 0  9990
2 69399  88.9984   0.1578 0010256 110.6007 249.6279 14.10710415  4168
QIANFAN-183             
1 69401U 26125A   26185.79004290 -.01853939  00000+0 -11521+1 0  9998
2 69401  88.9946 278.4578 0019212 113.4944 246.8261 14.08709061  4197
QIANFAN-184             
1 69402U 26125B   26185.14268466  .00000106  00000+0  45748-4 0  9994
2 69402  88.9955 278.5277 0016672 118.0116 242.2761 14.16890389  4103
QIANFAN-185             
1 69403U 26125C   26185.57592138 -.01834428  00000+0 -11280+1 0  9993
2 69403  88.9949 278.4809 0021970 109.7455 250.6101 14.09220811  4163
QIANFAN-186             
1 69404U 26125D   26185.62666422 -.01914611  00000+0 -11531+1 0  9990
2 69404  88.9951 278.4729 0020936 106.1152 254.2340 14.10534494  4177
QIANFAN-187             
1 69405U 26125E   26185.75490241 -.01874578  00000+0 -11095+1 0  9991
2 69405  88.9949 278.4520 0021805 112.2965 248.0536 14.11396722  4191
QIANFAN-188             
1 69406U 26125F   26185.17446480  .00000130  00000+0  54840-4 0  9995
2 69406  88.9955 278.5136 0016561 123.4275 236.8501 14.19444320  4119
QIANFAN-189             
1 69407U 26125G   26184.68716875 -.01775348  00000+0 -10288+1 0  9996
2 69407  88.9950 278.5711 0017540 134.4028 225.8598 14.13027428  4046
QIANFAN-190             
1 69408U 26125H   26185.38696662 -.01882273  00000+0 -10874+1 0  9993
2 69408  88.9949 278.4900 0020085 118.4366 241.8847 14.12749815  4145
QIANFAN-191             
1 69409U 26125J   26185.09083724 -.01873053  00000+0 -10487+1 0  9997
2 69409  88.9945 278.5198 0016864 126.5483 233.7260 14.14461019  4106
QIANFAN-192             
1 69410U 26125K   26185.64891950 -.01966835  00000+0 -11109+1 0  9991
2 69410  88.9945 278.4548 0017307 121.1140 239.1748 14.14176089  4189
QIANFAN-193             
1 69411U 26125L   26185.56997513 -.01786384  00000+0 -10174+1 0  9995
2 69411  88.9949 278.4616 0018880 122.2251 238.0769 14.13987440  4172
QIANFAN-194             
1 69412U 26125M   26185.35217587  .00000138  00000+0  56233-4 0  9992
2 69412  88.9955 278.4846 0016087 125.0057 235.2646 14.21408413  4133
QIANFAN-195             
1 69413U 26125N   26185.62838714 -.01907337  00000+0 -10595+1 0  9991
2 69413  88.9949 278.4520 0017261 131.9186 228.3477 14.14954465  4185
QIANFAN-196             
1 69414U 26125P   26185.83286865 -.01864824  00000+0 -10326+1 0  9994
2 69414  88.9944 278.4267 0017059 130.7510 229.5161 14.15042843  4218
QIANFAN-197             
1 69415U 26125Q   26185.05147696 -.01859601  00000+0 -98648+0 0  9996
2 69415  88.9949 278.5142 0014910 145.1308 215.0861 14.17361276  4094
QIANFAN-198             
1 69416U 26125R   26185.41220957 -.01891310  00000+0 -10440+1 0  9997
2 69416  88.9950 278.4752 0016959 133.0385 227.2226 14.15267243  4153
QIANFAN-199             
1 69417U 26125S   26185.32178620 -.01923848  00000+0 -99002+0 0  9999
2 69417  88.9943 278.4789 0019211 131.4897 228.7945 14.19080547  4147
QIANFAN-200             
1 69418U 26125T   26185.30910165 -.02005905  00000+0 -11351+1 0  9994
2 69418  88.9947 278.4966 0017582 125.2996 234.9839 14.14151271  4137
