KUIPER-00008            
1 63724U 25088A   26038.71249367  .00004089  00000+0  35408-3 0  9996
2 63724  51.8892 223.6185 0008573 357.9862   2.1072 14.99103303 43560
KUIPER-00009            
1 63725U 25088B   26038.79987040  .00003449  00000+0  48153-3 0  9992
2 63725  51.9010 238.8067 0009316   6.3488 353.7591 14.79900204 43357
KUIPER-00010            
1 63726U 25088C   26038.79190910  .00003094  00000+0  43455-3 0  9991
2 63726  51.9012 215.2979 0000805  66.3696 293.7351 14.79942108 43303
KUIPER-00011            
1 63727U 25088D   26038.95249788  .00002211  00000+0  31992-3 0  9991
2 63727  51.8999 222.1522 0001749  67.6371 292.4777 14.79799026 43352
KUIPER-00012            
1 63728U 25088E   26038.77585830  .00002960  00000+0  44999-3 0  9995
2 63728  51.9017 207.6081 0009035  31.4724 328.6776 14.76639469 43497
KUIPER-00013            
1 63729U 25088F   26038.86618601  .00002913  00000+0  41105-3 0  9993
2 63729  51.9018 239.9712 0002311 301.5535  58.5202 14.79928392 43154
KUIPER-00014            
1 63730U 25088G   26038.86455746  .00002930  00000+0  41298-3 0  9996
2 63730  51.8998 240.9509 0000997 105.2730 254.8343 14.79954446 42955
KUIPER-00015            
1 63731U 25088H   26038.87875984  .00003047  00000+0  39555-3 0  9991
2 63731  51.8985 250.8985 0009134 341.9183  18.1455 14.83351403 43273
KUIPER-00016            
1 63732U 25088J   26038.86189016  .00005317  00000+0  72514-3 0  9999
2 63732  51.8997 243.4885 0006943 342.3549  17.7171 14.79976975 42912
KUIPER-00018            
1 63733U 25088K   26038.87432203  .00001936  00000+0  28284-3 0  9998
2 63733  51.9017 232.4029 0009279 359.2503   0.8444 14.79950867 43073
KUIPER-00019            
1 63734U 25088L   26038.74025173  .00001464  00000+0  22104-3 0  9990
2 63734  51.9002 231.5318 0002064  75.8397 284.2794 14.79922825 43075
KUIPER-00020            
1 63735U 25088M   26038.73664131  .00002522  00000+0  35999-3 0  9995
2 63735  51.9006 235.5386 0007383 355.1991   4.8899 14.79913461 43227
KUIPER-00021            
1 63736U 25088N   26038.73497844  .00002444  00000+0  34986-3 0  9999
2 63736  51.8993 236.5429 0004859 358.5119   1.5828 14.79891539 43042
KUIPER-00023            
1 63737U 25088P   26038.80134194  .00001413  00000+0  21436-3 0  9995
2 63737  51.9002 237.7111 0008847   7.2658 352.8431 14.79953518 43333
KUIPER-00024            
1 63738U 25088Q   26038.81489643  .00001673  00000+0  24843-3 0  9992
2 63738  51.9024 225.2111 0000678  97.9768 262.1271 14.79938572 43633
KUIPER-00025            
1 63739U 25088R   26038.73750180  .00001494  00000+0  22504-3 0  9994
2 63739  51.9026 234.0622 0000749 134.3211 225.7813 14.79901976 43364
KUIPER-00027            
1 63740U 25088S   26038.81214209 -.00002050  00000+0 -23999-3 0  9992
2 63740  51.9015 227.6953 0000685 149.6740 210.4262 14.79931450 43194
KUIPER-00028            
1 63741U 25088T   26038.80887556  .00002193  00000+0  29269-3 0  9995
2 63741  51.8996 225.4727 0004680  84.8072 275.3426 14.83330443 43635
KUIPER-00029            
1 63742U 25088U   26038.85402170  .00002224  00000+0  29574-3 0  9990
2 63742  51.8988 223.2506 0001106 107.6747 252.4338 14.83423817 43198
KUIPER-00030            
1 63743U 25088V   26038.86357296  .00002545  00000+0  36347-3 0  9992
2 63743  51.9001 242.4344 0011220 336.6035  23.4416 14.79849176 43212
KUIPER-00031            
1 63744U 25088W   26038.72649388  .00002735  00000+0  35740-3 0  9991
2 63744  51.9007 228.9378 0002787  68.3443 291.7818 14.83415778 43101
KUIPER-00032            
1 63745U 25088X   26038.61913108  .00019702  00000+0  56903-3 0  9990
2 63745  51.8708 169.4497 0004005  14.0193 346.0904 15.35653960 44921
KUIPER-00033            
1 63746U 25088Y   26038.90885955  .00222338  00000+0  26170-1 0  9993
2 63746  51.8992 258.2472 0001426  93.5144 266.5982 14.83118694 43191
KUIPER-00034            
1 63747U 25088Z   26038.79894750  .00002908  00000+0  37949-3 0  9991
2 63747  51.9012 221.0967 0001216 222.5787 137.5083 14.83279719 43383
KUIPER-00035            
1 63748U 25088AA  26038.79174206  .00002391  00000+0  34323-3 0  9998
2 63748  51.9000 246.3277 0003120 349.1975  10.8920 14.79852719 43088
KUIPER-00037            
1 63749U 25088AB  26038.79319885  .00003604  00000+0  50034-3 0  9998
2 63749  51.8985 245.2612 0000823  77.5312 282.5742 14.80034912 43882
KUIPER-00038            
1 63750U 25088AC  26038.74210768  .00002796  00000+0  39584-3 0  9993
2 63750  51.9009 230.5151 0001262  50.5531 309.5543 14.79911337 43083
KUIPER-00039            
1 64500U 25134A   26038.10669593  .00007064  00000+0  95424-3 0  9991
2 64500  51.9032   8.3239 0000929 244.3066 115.7800 14.79951869 35545
KUIPER-00040            
1 64501U 25134B   26038.36443372 -.00000791  00000+0 -74063-4 0  9994
2 64501  51.9025  18.3320 0015098 167.3368 192.7977 14.79958043 35420
KUIPER-00041            
1 64502U 25134C   26038.15935458  .00006495  00000+0  87496-3 0  9991
2 64502  51.8998  20.5739 0010838 162.9446 197.1883 14.80159743 35374
KUIPER-00042            
1 64503U 25134D   26038.43464574 -.00005439  00000+0 -68391-3 0  9991
2 64503  51.9015  15.3792 0009734 177.0764 183.0257 14.79946864 35476
KUIPER-00043            
1 64504U 25134E   26038.35201337  .00001723  00000+0  23477-3 0  9995
2 64504  51.9033   7.9639 0001510 203.1023 156.9873 14.83521042 35573
KUIPER-00044            
1 64505U 25134F   26038.36169795  .00006793  00000+0  91810-3 0  9996
2 64505  51.9009  20.6996 0009704 169.3663 190.7506 14.79963095 35393
KUIPER-00046            
1 64506U 25134G   26038.36610105  .00005652  00000+0  76964-3 0  9999
2 64506  51.9008  17.1448 0000936  72.8835 287.2230 14.79939892 35443
KUIPER-00047            
1 64507U 25134H   26038.26427089  .00007189  00000+0  10413-2 0  9999
2 64507  51.9011 349.7961 0002482  56.7842 303.3356 14.76946230 35810
KUIPER-00048            
1 64508U 25134J   26038.26055191  .00005430  00000+0  74022-3 0  9995
2 64508  51.9016 350.1379 0001452  21.9383 338.1641 14.79961065 35814
KUIPER-00049            
1 64509U 25134K   26038.31312842 -.00003938  00000+0 -48789-3 0  9995
2 64509  51.9011   3.3804 0000134 248.9278 111.1670 14.79928669 35634
KUIPER-00050            
1 64510U 25134L   26038.25705615  .00010931  00000+0  95162-3 0  9990
2 64510  51.8916 350.2751 0004594 204.0721 156.0035 14.97358107 35811
KUIPER-00051            
1 64511U 25134M   26038.91667824  .00005533  00000+0  69376-3 0  9993
2 64511  51.9026 358.1991 0000438 105.0743 262.4140 14.83464432  5725
KUIPER-00052            
1 64512U 25134N   26038.91667824  .00122901  16646-4  40398-3 0  9994
2 64512  51.8481 260.2953 0005429 228.2477 192.7680 15.90319870  5535
KUIPER-00053            
1 64513U 25134P   26038.18503443  .00002859  00000+0  40384-3 0  9996
2 64513  51.9049 357.9758 0001215  81.9974 278.1126 14.79936126 35698
KUIPER-00054            
1 64514U 25134Q   26038.25762489  .00004375  00000+0  60246-3 0  9996
2 64514  51.8990 352.6373 0000858 306.3534  53.7349 14.79936765 35778
KUIPER-00055            
1 64515U 25134R   26038.19798396  .00026085  00000+0  12216-2 0  9991
2 64515  51.8936 323.3018 0001708  87.3204 272.7971 15.19544958 36189
KUIPER-00056            
1 64516U 25134S   26038.09566761  .00006182  00000+0  77510-3 0  9995
2 64516  51.9038 359.2122 0000081 296.9076  63.1880 14.83289411 35670
KUIPER-00057            
1 64517U 25134T   26038.91667824  .00014217  00000+0  17366-2 0  9999
2 64517  51.9010   3.1053 0005244 174.7332 259.2526 14.83476798  5592
KUIPER-00058            
1 64518U 25134U   26038.11485259  .00002780  00000+0  39347-3 0  9998
2 64518  51.9022   0.7336 0000913 232.6131 127.4749 14.79940676 35651
KUIPER-00059            
1 64519U 25134V   26038.25525572 -.00000666  00000+0 -58349-4 0  9994
2 64519  51.9019 355.1678 0001844  73.6236 286.4929 14.79939326 35743
KUIPER-00060            
1 64520U 25134W   26038.29925234  .00009127  00000+0  11288-2 0  9997
2 64520  51.9038 355.7973 0000669 347.0864  13.0083 14.83362748 35725
KUIPER-00061            
1 64521U 25134X   26038.11182577  .00006983  00000+0  94185-3 0  9999
2 64521  51.9021   3.2983 0001100  96.4622 263.6466 14.80032818 35606
KUIPER-00062            
1 64522U 25134Y   26038.27531796  .00007756  00000+0  91766-3 0  9999
2 64522  51.8991   5.4544 0006776 180.7595 179.3361 14.85385567 35603
KUIPER-00063            
1 64523U 25134Z   26038.30145913  .00007528  00000+0  10077-2 0  9998
2 64523  51.9029  12.4430 0001665  59.8470 300.2658 14.80256847 35505
KUIPER-00064            
1 64524U 25134AA  26038.30662610  .00007446  00000+0  10050-2 0  9997
2 64524  51.9046   9.8669 0000942  99.3781 260.7287 14.79918430 35543
KUIPER-00065            
1 64525U 25134AB  26038.30212490  .00022910  00000+0  30490-2 0  9998
2 64525  51.9040  15.0505 0002263 170.3541 189.7465 14.79584896 35451
KUIPER-00066            
1 64526U 25134AC  26038.64477902  .00030049  00000+0  12877-2 0  9998
2 64526  51.8791 326.0942 0001789 140.6151 219.4960 15.22514116 36182
KUIPER-00069            
1 64816U 25151A   26038.25812286  .00004700  00000+0  64494-3 0  9992
2 64816  51.8996  55.1843 0000634 196.6383 163.4558 14.79942045 32259
KUIPER-00070            
1 64817U 25151B   26038.39997745  .00004202  00000+0  57978-3 0  9998
2 64817  51.8980  79.5036 0000926 167.3456 192.7530 14.79939809 31930
KUIPER-00071            
1 64818U 25151C   26038.47016442  .00006114  00000+0  83037-3 0  9993
2 64818  51.9006  76.7091 0002642 143.5348 216.5795 14.79931949 30792
KUIPER-00072            
1 64819U 25151D   26038.23810119  .00006164  00000+0  85660-3 0  9990
2 64819  51.8993  57.5505 0001339 358.8153   1.2805 14.78938249 31040
KUIPER-00073            
1 64820U 25151E   26038.30060962  .00006104  00000+0  82578-3 0  9992
2 64820  51.8996  77.4457 0002548 171.2614 188.8393 14.80095132 31956
KUIPER-00074            
1 64821U 25151F   26038.44961271  .00006029  00000+0  82279-3 0  9995
2 64821  51.9009  64.3107 0001074 162.3728 197.7272 14.79745194 30963
KUIPER-00075            
1 64822U 25151G   26038.16997431  .00051816  00000+0  12528-2 0  9995
2 64822  51.8751  10.2137 0005174 164.4051 195.7098 15.40625271 31694
KUIPER-00076            
1 64823U 25151H   26038.44513127  .00006166  00000+0  83202-3 0  9999
2 64823  51.9010  66.8043 0001048 194.0171 166.0762 14.80189601 30935
KUIPER-00077            
1 64824U 25151J   26038.30673766  .00000009  00000+0  30248-4 0  9994
2 64824  51.9035  72.4467 0001929 134.8002 225.3117 14.79906399 30841
KUIPER-00078            
1 64825U 25151K   26038.47829667  .00005607  00000+0  76372-3 0  9992
2 64825  51.8995  69.1793 0000480 190.6934 169.4018 14.79938027 30904
KUIPER-00079            
1 64826U 25151L   26038.30417027  .00006578  00000+0  89103-3 0  9992
2 64826  51.8992  74.9307 0000805 121.3918 238.7123 14.79932020 32008
KUIPER-00080            
1 64827U 25151M   26038.47289825  .00003243  00000+0  45407-3 0  9999
2 64827  51.9005  74.1898 0000236  71.6656 288.4332 14.79938024 30839
KUIPER-00082            
1 64828U 25151N   26038.25003851  .00003678  00000+0  51121-3 0  9991
2 64828  51.9022  62.7010 0000901  79.5506 280.5557 14.79938115 30976
KUIPER-00083            
1 64829U 25151P   26038.37700447  .00000472  00000+0  90951-4 0  9994
2 64829  51.9025  69.6291 0000771 165.9037 194.1947 14.79934050 32071
KUIPER-00084            
1 64830U 25151Q   26038.29867487  .00006264  00000+0  84985-3 0  9999
2 64830  51.9002  79.9608 0002939 135.4625 224.6574 14.79935405 30738
KUIPER-00085            
1 64831U 25151R   26038.48637938  .00006090  00000+0  82716-3 0  9994
2 64831  51.9034  61.6778 0000574  76.1635 283.9391 14.79929173 31006
KUIPER-00086            
1 64832U 25151S   26038.27301225  .00005441  00000+0  74219-3 0  9997
2 64832  51.8991  72.5947 0001703 145.5239 214.5834 14.79931902 30838
KUIPER-00087            
1 64833U 25151T   26038.42565100  .00005002  00000+0  68187-3 0  9999
2 64833  51.8999  54.3945 0001098  70.6330 289.4751 14.80106278 31090
KUIPER-00089            
1 64834U 25151U   26038.42139816  .00003830  00000+0  53041-3 0  9991
2 64834  51.9006  59.4316 0000271  28.9213 331.1764 14.79987993 31039
KUIPER-00090            
1 64835U 25151V   26038.42957557  .00006203  00000+0  84089-3 0  9995
2 64835  51.8992  51.9336 0000705  94.9383 265.1660 14.79983551 31133
KUIPER-00091            
1 64836U 25151W   26038.49005480  .00005965  00000+0  80586-3 0  9994
2 64836  51.9017  56.6192 0003013 196.9117 163.1745 14.80191019 31074
KUIPER-00092            
1 64837U 25151X   26037.47046666  .00000732  00000+0  12479-3 0  9996
2 64837  51.8981  68.6396 0001225 131.6350 228.4717 14.80003431 32032
KUIPER-00093            
1 64838U 25151Y   26038.48059959 -.00019003  00000+0 -24692-2 0  9990
2 64838  51.8991  66.6561 0000856 223.9816 136.1079 14.79958439 30935
KUIPER-00094            
1 64839U 25151Z   26038.22812390 -.00003652  00000+0 -23366-3 0  9990
2 64839  51.8928  42.4324 0004992 165.1578 194.9542 15.05204877 31255
KUIPER-00081            
1 65132U 25171A   26038.87371509  .00018230  00000+0  24289-2 0  9992
2 65132  51.9009 279.9206 0001203  30.1252 329.9780 14.79669579 28626
KUIPER-00088            
1 65133U 25171B   26038.91667824 -.00024311  00000+0 -29202-2 0  9995
2 65133  51.9003 297.4807 0001116 151.7189  52.4702 14.83362113  4710
KUIPER-00095            
1 65134U 25171C   26038.03551978  .00000463  00000+0  85646-4 0  9997
2 65134  51.8987 280.8938 0000846 124.2581 235.8462 14.82163293 28535
KUIPER-00096            
1 65135U 25171D   26038.89672646  .00004291  00000+0  59140-3 0  9990
2 65135  51.9002 289.8296 0001695 103.1427 256.9725 14.79938528 28486
KUIPER-00097            
1 65136U 25171E   26038.89118537  .00005166  00000+0  69979-3 0  9998
2 65136  51.9014 292.4472 0003424  85.9123 274.2230 14.80316539 28431
KUIPER-00098            
1 65137U 25171F   26038.91667824  .00013689  00000+0  18297-2 0  9995
2 65137  51.8998 294.7449 0003333  64.4159  71.2830 14.79730957  5406
KUIPER-00099            
1 65138U 25171G   26038.86832071  .00004368  00000+0  60122-3 0  9997
2 65138  51.9022 284.9363 0001125 120.2802 239.8272 14.79961296 28549
KUIPER-00100            
1 65139U 25171H   26038.90475573 -.00001360  00000+0 -14934-3 0  9994
2 65139  51.9039 282.2585 0000764  77.9314 282.1734 14.79939367 28581
KUIPER-00102            
1 65140U 25171J   26038.96964846  .00003335  00000+0  46651-3 0  9991
2 65140  51.8993 284.5017 0000510  63.5909 296.5106 14.79910635 28552
KUIPER-00103            
1 65141U 25171K   26038.91759179  .00005202  00000+0  70994-3 0  9990
2 65141  51.9005 302.2323 0002838  64.5564 295.5691 14.79988514 28301
KUIPER-00104            
1 65142U 25171L   26038.93040665  .00002400  00000+0  34355-3 0  9994
2 65142  51.9022 289.6239 0000831 182.7146 177.3812 14.79961568 28486
KUIPER-00105            
1 65143U 25171M   26038.95453037  .00005245  00000+0  71211-3 0  9990
2 65143  51.9004 297.1252 0002833  70.2918 289.8350 14.80194490 28387
KUIPER-00106            
1 65144U 25171N   26038.93787790  .00006704  00000+0  59572-3 0  9992
2 65144  51.8936 290.1457 0007471   7.8029 352.3055 14.97142729 28488
KUIPER-00107            
1 65145U 25171P   26038.90741855  .00002652  00000+0  37661-3 0  9995
2 65145  51.9016 279.7875 0000556 105.6527 254.4496 14.79943002 28623
KUIPER-00108            
1 65146U 25171Q   26038.92775478 -.00003566  00000+0 -43915-3 0  9992
2 65146  51.9051 292.2112 0002307  83.2497 276.8728 14.79912784 28450
KUIPER-00109            
1 65147U 25171R   26038.89940390 -.00005337  00000+0 -67113-3 0  9990
2 65147  51.9008 287.2781 0000946 175.1231 184.9740 14.79963013 28514
KUIPER-00110            
1 65148U 25171S   26038.91965241  .00005246  00000+0  71628-3 0  9999
2 65148  51.9013 299.7807 0002870 101.1045 259.0240 14.79957806 28330
KUIPER-00111            
1 65149U 25171T   26038.94805011  .00005439  00000+0  74220-3 0  9996
2 65149  51.8984 304.5744 0002473  76.0599 284.0639 14.79918917 28278
KUIPER-00112            
1 65150U 25171U   26038.93259247 -.00015062  00000+0 -19473-2 0  9994
2 65150  51.9011 287.1801 0000626 149.3292 210.7707 14.80014810 28514
KUIPER-00114            
1 65151U 25171V   26038.94538982 -.00000671  00000+0 -58959-4 0  9996
2 65151  51.9018 307.1357 0002153  62.5029 297.6152 14.79924864 28236
KUIPER-00115            
1 65152U 25171W   26038.95335353  .00000055  00000+0  36208-4 0  9992
2 65152  51.9018 299.5839 0001214  99.1750 260.9350 14.79942273 28349
KUIPER-00116            
1 65153U 25171X   26038.91428060  .00005978  00000+0  81095-3 0  9999
2 65153  51.9000 304.7970 0002966  32.1115 328.0028 14.80012471 28262
KUIPER-00118            
1 65154U 25171Y   26038.91159413  .00004344  00000+0  59856-3 0  9999
2 65154  51.9010 307.2650 0001222 109.4160 250.6934 14.79922826 28234
KUIPER-00119            
1 65155U 25171Z   26038.92251151  .00003588  00000+0  49650-3 0  9993
2 65155  51.9027 294.7768 0008045  29.9438 330.1984 14.80184401 28406
KUIPER-00120            
1 65762U 25217A   26038.60052287  .00005056  00000+0  74856-3 0  9990
2 65762  51.8990 185.9098 0003284 177.9586 182.1388 14.76542638 20289
KUIPER-00132            
1 65763U 25217B   26038.55746264  .00050883  00000+0  13084-2 0  9993
2 65763  51.8604 149.6607 0007435 217.2999 142.7473 15.38740932 20781
KUIPER-00133            
1 65764U 25217C   26038.65537796  .00005337  00000+0  72817-3 0  9997
2 65764  51.9024 185.9217 0001627 258.5595 101.5185 14.79955352 20293
KUIPER-00139            
1 65765U 25217D   26038.56567457 -.00002293  00000+0 -15190-3 0  9996
2 65765  51.8848 171.7100 0007133 217.1249 142.9230 15.02117145 20484
KUIPER-00142            
1 65766U 25217E   26038.57302592  .00006069  00000+0  82421-3 0  9999
2 65766  51.8987 168.7698 0000918  59.5584 300.5469 14.79939224 20525
KUIPER-00145            
1 65767U 25217F   26038.57020752 -.00008032  00000+0 -10256-2 0  9995
2 65767  51.8992 171.2932 0000673 114.9077 245.1956 14.79938588 20485
KUIPER-00147            
1 65768U 25217G   26038.66883752  .00005920  00000+0  80432-3 0  9998
2 65768  51.8986 173.3572 0000776  57.2758 302.8279 14.79964338 20460
KUIPER-00148            
1 65769U 25217H   26038.81921544  .00017890  00000+0  11086-2 0  9995
2 65769  51.8774 163.1093 0008833 247.1212 112.8831 15.09786649 20620
KUIPER-00150            
1 65770U 25217J   26038.58980846 -.00041357  00000+0 -54630-2 0  9990
2 65770  51.8995 183.6960 0001327  67.3508 292.7595 14.79673364 20314
KUIPER-00151            
1 65771U 25217K   26038.66621942  .00058650  00000+0  76658-2 0  9995
2 65771  51.9001 175.8636 0000958  83.8960 276.2111 14.79875691 20432
KUIPER-00152            
1 65772U 25217L   26038.90827122 -.00096718  00000+0 -12587-1 0  9990
2 65772  51.8994 162.2074 0001273 126.8455 233.2625 14.80768850 20643
KUIPER-00153            
1 65773U 25217M   26038.60992529  .00018269  00000+0  10443-2 0  9995
2 65773  51.8767 167.6358 0011561 221.0680 138.9427 15.12676760 20549
KUIPER-00155            
1 65774U 25217N   26038.60840159  .00021396  00000+0  92299-3 0  9992
2 65774  51.8822 153.7685 0005413 238.0754 121.9700 15.22470400 20731
KUIPER-00156            
1 65775U 25217P   26038.91667824 -.00039748  00000+0 -51654-2 0  9994
2 65775  51.9013 157.2784 0000540  36.9633 116.3211 14.80339222  5738
KUIPER-00158            
1 65776U 25217Q   26038.69550436  .00007539  00000+0  10101-2 0  9993
2 65776  51.8970 178.1983 0000252 121.2243 238.8744 14.80211229 20406
KUIPER-00163            
1 65777U 25217R   26038.61547287  .00003632  00000+0  48412-3 0  9993
2 65777  51.8960 180.9545 0000303 181.3885 178.7077 14.81753265 20354
KUIPER-00165            
1 65778U 25217S   26038.60678744  .00006117  00000+0  83030-3 0  9992
2 65778  51.8997 168.6258 0000784  67.9863 292.1183 14.79951160 20526
KUIPER-00166            
1 65779U 25217T   26038.91667824 -.00037184  00000+0 -45408-2 0  9990
2 65779  51.9010 154.8338 0001165 114.3151 173.5311 14.82893948  5780
KUIPER-00167            
1 65780U 25217U   26038.59594861  .00005674  00000+0  77234-3 0  9996
2 65780  51.8951 178.6487 0000745  29.2852 330.8152 14.79952599 20387
KUIPER-00168            
1 65781U 25217V   26038.54734933  .00004894  00000+0  67089-3 0  9998
2 65781  51.9010 161.3896 0001052  41.8540 318.2502 14.79905738 20623
KUIPER-00169            
1 65782U 25217W   26038.54196887  .00006076  00000+0  82491-3 0  9997
2 65782  51.8999 166.4139 0000624  78.2836 281.8197 14.79950119 20551
KUIPER-00170            
1 65783U 25217X   26038.67158813  .00004664  00000+0  64065-3 0  9997
2 65783  51.9003 170.8325 0000570  63.6080 296.4940 14.79917266 20503
KUIPER-00171            
1 65784U 25217Y   26038.70400042  .04838185  12026-4  15596-2 0  9993
2 65784  51.8322 120.7131 0003709 311.0970  48.9733 16.25411306 21183
KUIPER-00172            
1 65785U 25217Z   26038.69089876  .00014965  00000+0  94622-3 0  9990
2 65785  51.8844 155.6850 0003384 220.1101 139.9624 15.09203398 20712
KUIPER-00173            
1 65786U 25217AA  26038.54953449  .00007580  00000+0  96357-3 0  9993
2 65786  51.9025 166.1134 0000445  69.4781 290.6230 14.82426224 20555
KUIPER-00174            
1 65787U 25217AB  26038.64864634  .00006165  00000+0  83640-3 0  9991
2 65787  51.9032 160.9597 0000640 191.9867 168.1081 14.79962111 20630
KUIPER-00176            
1 65788U 25217AC  26038.56485263  .00001867  00000+0  27386-3 0  9999
2 65788  51.9009 176.3119 0000290 134.2113 225.8873 14.79926154 20414
KUIPER-00101            
1 65947U 25228A   26038.50944003  .00007204  00000+0  97265-3 0  9998
2 65947  51.8978 134.0409 0000636  51.5807 308.5213 14.79943969 18768
KUIPER-00113            
1 65948U 25228B   26038.54859220 -.00000781  00000+0 -73503-4 0  9994
2 65948  51.8984 128.8777 0000757 109.7266 250.3778 14.79931150 18831
KUIPER-00117            
1 65949U 25228C   26038.44466655  .00007510  00000+0  10114-2 0  9992
2 65949  51.8972 131.8472 0000310 359.9207   0.1755 14.79997046 18780
KUIPER-00121            
1 65950U 25228D   26038.55129810  .00006053  00000+0  82190-3 0  9990
2 65950  51.8999 126.3662 0000346  64.7169 295.3829 14.79953314 18878
KUIPER-00122            
1 65951U 25228E   26038.47293693  .00007825  00000+0  10530-2 0  9999
2 65951  51.8987 136.6926 0000319 350.5342   9.5614 14.79980974 18725
KUIPER-00123            
1 65952U 25228F   26038.57429882  .00006664  00000+0  90213-3 0  9999
2 65952  51.8985 136.2679 0000784  58.4169 301.6870 14.79937295 18731
KUIPER-00124            
1 65953U 25228G   26038.44731543 -.00001811  00000+0 -20864-3 0  9992
2 65953  51.9006 129.3164 0001007  65.2976 294.8091 14.79918641 18822
KUIPER-00125            
1 65954U 25228H   26038.91667824 -.00042707  00000+0 -53481-2 0  9994
2 65954  51.8986 112.2906 0002174 110.0466 130.0692 14.81915691  5787
KUIPER-00126            
1 65955U 25228J   26038.47568126  .00006641  00000+0  89917-3 0  9990
2 65955  51.8993 134.2142 0000887  43.2435 316.8597 14.79938072 18758
KUIPER-00127            
1 65956U 25228K   26038.91667824 -.01807392  00000+0 -20210+0 0  9997
2 65956  51.8975 123.6932 0002547 256.5406 137.9683 14.89911327  5175
KUIPER-00128            
1 65957U 25228L   26038.45001364  .00005940  00000+0  80738-3 0  9999
2 65957  51.8998 126.8375 0000932  81.9232 278.1836 14.79939759 18855
KUIPER-00129            
1 65958U 25228M   26038.42160654  .00007092  00000+0  95766-3 0  9992
2 65958  51.8990 121.9469 0000727  90.7959 269.3086 14.79960775 18923
KUIPER-00130            
1 65959U 25228N   26038.45263388  .00006237  00000+0  84494-3 0  9990
2 65959  51.9023 124.3103 0000783  35.5623 324.5391 14.80005245  9186
KUIPER-00134            
1 65960U 25228P   26038.43696386  .00054078  00000+0  14459-2 0  9997
2 65960  51.8764 106.8039 0006529 208.2159 151.8475 15.37518942 19135
KUIPER-00135            
1 65961U 25228Q   26038.48644355  .00005280  00000+0  71996-3 0  9993
2 65961  51.9012 124.2244 0000815  66.1713 293.9335 14.80000563 18891
KUIPER-00136            
1 65962U 25228R   26038.52291818  .00006329  00000+0  85781-3 0  9993
2 65962  51.9000 121.5427 0000802 346.2201  13.8739 14.79965177 18933
KUIPER-00137            
1 65963U 25228S   26038.91667824 -.00027708  00000+0 -38943-2 0  9994
2 65963  51.9008 117.1730 0000917 163.4675 164.3826 14.76859811  5806
KUIPER-00138            
1 65964U 25228T   26038.91667824 -.00040709  00000+0 -53229-2 0  9995
2 65964  51.8974 114.7547 0000990  86.1646   3.8024 14.80092875  5369
KUIPER-00140            
1 65965U 25228U   26038.42404637  .00007256  00000+0  97669-3 0  9998
2 65965  51.8989 119.5095 0000966  78.7952 281.3119 14.80067660 18958
KUIPER-00141            
1 65966U 25228V   26038.91667824 -.00044185  00000+0 -55006-2 0  9994
2 65966  51.9008 112.3722 0000401 308.6447 108.1037 14.82179881  5680
KUIPER-00146            
1 65967U 25228W   26038.51792977  .00005542  00000+0  68883-3 0  9999
2 65967  51.9023 116.5023 0001335 101.2897 258.8217 14.83830116 19001
KUIPER-00149            
1 65968U 25228X   26038.91667824 -.00082968  00000+0 -95436-2 0  9998
2 65968  51.8999 109.9265 0002252 128.0646 206.9315 14.85766214  2021
KUIPER-00154            
1 65969U 25228Y   26038.91667824 -.01125751  00000+0 -10571+0 0  9992
2 65969  51.9150 107.9230 0005962 211.9905  34.2537 14.96783780  4718
KUIPER-00157            
1 65970U 25228Z   26038.91667824 -.00032493  00000+0 -36066-2 0  9993
2 65970  51.8996 110.1025 0001604 224.8765 263.3257 14.86740525  5883
KUIPER-00144            
1 67133U 25301A   26038.69547759  .00050017  00000+0  13472-2 0  9993
2 67133  51.8691 210.2123 0006775 273.4907  86.5305 15.37325722  9126
KUIPER-00164            
1 67134U 25301B   26038.74159925  .00067393  00000+0  17943-2 0  9996
2 67134  51.8712 209.7824 0002633 262.9924  97.0763 15.37567491  9310
KUIPER-00175            
1 67135U 25301C   26038.72410552  .00054024  00000+0  14157-2 0  9992
2 67135  51.8724 209.6706 0001653 207.1621 152.9280 15.38156982  9201
KUIPER-00179            
1 67136U 25301D   26038.73877915  .00056022  00000+0  14931-2 0  9994
2 67136  51.8729 209.7688 0002114 256.8012 103.2739 15.37618862  9314
KUIPER-00181            
1 67137U 25301E   26038.91667824  .00057200  00000+0  33660-2 0  9990
2 67137  51.8797 211.1436 0013999 297.7946 236.5858 15.11011684  5882
KUIPER-00183            
1 67138U 25301F   26038.74073340  .00041717  00000+0  11658-2 0  9995
2 67138  51.8617 210.4611 0013001 297.9015  62.0654 15.36203006  9297
KUIPER-00184            
1 67139U 25301G   26038.72999118  .00044978  00000+0  12463-2 0  9991
2 67139  51.8611 210.3984 0011356 297.3768  62.6063 15.36453025  9405
KUIPER-00186            
1 67140U 25301H   26038.91667824 -.01750636  00000+0 -12505+0 0  9992
2 67140  51.8832 211.2645 0006661 287.2993 279.6616 15.07432033  5681
KUIPER-00187            
1 67141U 25301J   26038.91667824 -.01302223  00000+0 -12055+0 0  9998
2 67141  51.8906 212.8888 0009712 296.1765  72.2524 14.97236432  5370
KUIPER-00188            
1 67142U 25301K   26038.77642384  .00029506  00000+0  81170-3 0  9992
2 67142  51.8682 209.9960 0008298 291.6811  68.3292 15.36910554  9134
KUIPER-00191            
1 67143U 25301L   26038.91667824 -.00907375  00000+0 -34522-1 0  9993
2 67143  51.8722 209.4752 0008112 296.0499  21.4695 15.29049714  5653
KUIPER-00196            
1 67144U 25301M   26038.67984287  .00052416  00000+0  13986-2 0  9999
2 67144  51.8704 210.1167 0003428 255.2316 104.8291 15.37611209  9120
KUIPER-00204            
1 67145U 25301N   26038.78982344  .00026064  00000+0  10324-2 0  9997
2 67145  51.8850 212.2495 0002848 224.2895 135.7859 15.25243310  9217
KUIPER-00210            
1 67146U 25301P   26038.91667824 -.01190420  00000+0 -44743-1 0  9998
2 67146  51.8647 209.7438 0011187 306.7078 248.7649 15.29720709  4791
KUIPER-00221            
1 67147U 25301Q   26038.91667824 -.01062539  00000+0 -97843-1 0  9997
2 67147  51.9253 212.8263 0005140 246.2115 281.4822 14.97360464  5553
KUIPER-00232            
1 67148U 25301R   26038.72647196  .00071342  00000+0  18735-2 0  9990
2 67148  51.8729 209.6882 0001844 184.3463 175.7508 15.37967719  9132
KUIPER-00241            
1 67149U 25301S   26038.91667824 -.00917009  00000+0 -46976-1 0  9990
2 67149  51.8838 209.8387 0001714 293.8430 249.5440 15.18778732  5924
KUIPER-00245            
1 67150U 25301T   26038.91667824  .00029229  00000+0  33281-2 0  9994
2 67150  51.8982 214.9856 0010166 295.1396  89.3573 14.85919652  4850
KUIPER-00246            
1 67151U 25301U   26038.74416743  .00029788  00000+0  79597-3 0  9999
2 67151  51.8716 209.7988 0004425 277.0034  83.0449 15.37828361  9158
KUIPER-00247            
1 67152U 25301V   26038.75052583  .00040456  00000+0  11502-2 0  9995
2 67152  51.8623 210.5278 0012595 306.5583  53.4243 15.35684391  9123
KUIPER-00248            
1 67153U 25301W   26038.66311082  .00046146  00000+0  12873-2 0  9992
2 67153  51.8674 210.7213 0010069 287.2694  72.7190 15.36246184  9280
KUIPER-00249            
1 67154U 25301X   26038.77730678  .00042947  00000+0  11714-2 0  9999
2 67154  51.8642 209.9818 0009217 287.5992  72.3987 15.36985603  9134
KUIPER-00250            
1 67155U 25301Y   26038.91667824 -.02003892  00000+0 -63764-1 0  9999
2 67155  51.8707 209.1502 0008170 287.4177 217.7137 15.35691056  5807
KUIPER-00251            
1 67156U 25301Z   26038.78680447  .00044260  00000+0  12219-2 0  9991
2 67156  51.8661 210.0479 0010135 293.4011  66.5909 15.36586459  9328
KUIPER-00252            
1 67157U 25301AA  26038.73493187  .00044458  00000+0  12382-2 0  9990
2 67157  51.8648 210.4406 0011004 295.9989  63.9863 15.36301816  9125
KUIPER-00261            
1 67158U 25301AB  26038.91667824 -.00609599  00000+0 -18309-1 0  9991
2 67158  51.8681 209.1319 0008411 281.4942 223.6897 15.36316967  5477
KUIPER-00265            
1 67159U 25301AC  26038.91667824  .00043535  00000+0  58467-2 0  9992
2 67159  51.9011 217.2454 0000868 315.2918 193.6939 14.78880619  5864
