KUIPER-00008            
1 63724U 25088A   26247.62253182  .00000346  00000+0  74390-4 0  9994
2 63724  51.9015  16.7655 0000430 125.1353 234.9650 14.79935551 74540
KUIPER-00009            
1 63725U 25088B   26247.42578503  .00003244  00000+0  22734-3 0  9994
2 63725  51.9031  28.1454 0001028 100.3985 259.7105 15.07890855 74362
KUIPER-00010            
1 63726U 25088C   26247.72923265  .00000336  00000+0  73083-4 0  9990
2 63726  51.9044  11.4038 0000457 104.1855 255.9159 14.79928213 74245
KUIPER-00011            
1 63727U 25088D   26246.80950134  .00000794  00000+0  13311-3 0  9999
2 63727  51.9021  23.0152 0000303 115.0079 245.0915 14.79932604 74133
KUIPER-00012            
1 63728U 25088E   26247.60225965 -.00000874  00000+0 -85711-4 0  9991
2 63728  51.9031   4.4483 0000193  94.1747 265.9237 14.79924328 74414
KUIPER-00013            
1 63729U 25088F   26247.66849694  .00000796  00000+0  13336-3 0  9993
2 63729  51.9024  36.6737 0000649 110.4062 249.6970 14.79933865 74075
KUIPER-00014            
1 63730U 25088G   26247.70221596 -.00000459  00000+0 -31253-4 0  9992
2 63730  51.9030  36.4687 0000533 102.2277 257.8746 14.79917756 73897
KUIPER-00015            
1 63731U 25088H   26247.86030970 -.00000636  00000+0 -54473-4 0  9990
2 63731  51.8992  45.8191 0000697 110.0579 250.0458 14.79930166 74235
KUIPER-00016            
1 63732U 25088J   26247.69956475  .00001491  00000+0  22454-3 0  9990
2 63732  51.9001  38.9869 0000593 133.1107 226.9905 14.79936160 73857
KUIPER-00018            
1 63733U 25088K   26247.67659003 -.00000799  00000+0 -75798-4 0  9998
2 63733  51.9035  29.1328 0000375 115.8719 244.2282 14.79925133 73995
KUIPER-00019            
1 63734U 25088L   26247.77078539  .00000926  00000+0  15039-3 0  9990
2 63734  51.9019  27.4647 0000593 138.2853 221.8155 14.79931385 74024
KUIPER-00020            
1 63735U 25088M   26247.80895887  .00000740  00000+0  12609-3 0  9992
2 63735  51.9024  31.0439 0000516  93.8181 266.2840 14.79928556 74183
KUIPER-00021            
1 63736U 25088N   26247.77518126  .00000694  00000+0  12003-3 0  9993
2 63736  51.9015  31.1440 0000534 123.8317 236.2696 14.79936841 74016
KUIPER-00023            
1 63737U 25088P   26247.80624998 -.00002428  00000+0 -28953-3 0  9993
2 63737  51.9023  33.4963 0000399 107.8088 252.2919 14.79944304 74285
KUIPER-00024            
1 63738U 25088Q   26247.81974929  .00000370  00000+0  77561-4 0  9999
2 63738  51.9054  21.0480 0000447  97.9151 262.1862 14.79926846 74582
KUIPER-00025            
1 63739U 25088R   26247.37272102 -.00000456  00000+0 -30782-4 0  9996
2 63739  51.9049  30.5054 0000826 106.6931 253.4122 14.79927959 74278
KUIPER-00027            
1 63740U 25088S   26247.41185950  .00001492  00000+0  22462-3 0  9991
2 63740  51.9033  25.2888 0000533 115.0992 245.0026 14.79931823 74089
KUIPER-00028            
1 63741U 25088T   26247.38080484  .00000665  00000+0  11619-3 0  9997
2 63741  51.9019  22.8731 0000620 143.2807 216.8198 14.79932754 74528
KUIPER-00029            
1 63742U 25088U   26247.76190645  .00000776  00000+0  13073-3 0  9990
2 63742  51.9032  19.8816 0000786 133.3148 226.7881 14.79960570 74127
KUIPER-00030            
1 63743U 25088V   26247.80086786  .00000696  00000+0  12031-3 0  9990
2 63743  51.9026  38.5321 0000541 115.2564 244.8455 14.79928227 74154
KUIPER-00031            
1 63744U 25088W   26246.77032940 -.00000183  00000+0  50030-5 0  9994
2 63744  51.9021  28.1109 0000488 120.0745 240.0266 14.79927652 73927
KUIPER-00032            
1 63745U 25088X   26247.46363757  .00009981  00000+0  23793-3 0  9993
2 63745  51.8652 236.3598 0005010  38.8621 321.2727 15.42202534 77099
KUIPER-00033            
1 63746U 25088Y   26247.21066145  .00001640  00000+0  24396-3 0  9992
2 63746  51.9008  56.1636 0000641 122.0983 238.0042 14.79947180 74059
KUIPER-00034            
1 63747U 25088Z   26247.79137502 -.00000822  00000+0 -78893-4 0  9997
2 63747  51.9028  16.1319 0000571 100.7896 259.3131 14.79933247 74340
KUIPER-00035            
1 63748U 25088AA  26247.42674130  .00001503  00000+0  22608-3 0  9998
2 63748  51.9026  42.7095 0000459 100.4870 259.6144 14.79945902 73997
KUIPER-00037            
1 63749U 25088AB  26247.82486083  .00000610  00000+0  10901-3 0  9992
2 63749  51.9015  39.8101 0000610 114.1785 245.9241 14.79929402 74856
KUIPER-00038            
1 63750U 25088AC  26247.67929190  .00000509  00000+0  95721-4 0  9999
2 63750  51.9024  26.6265 0000443 130.2576 229.8426 14.79928143 74020
KUIPER-00039            
1 64500U 25134A   26247.78691028  .00001882  00000+0  27585-3 0  9990
2 64500  51.9021 161.1498 0000772 100.7490 259.3560 14.79927671 66591
KUIPER-00040            
1 64501U 25134B   26246.99955993  .00001798  00000+0  26488-3 0  9994
2 64501  51.8978 174.6942 0001022  75.8394 284.2682 14.79929695 66331
KUIPER-00041            
1 64502U 25134C   26247.36824021  .00000510  00000+0  95870-4 0  9997
2 64502  51.8994 175.4537 0000922 103.3440 256.7625 14.79923317 66354
KUIPER-00042            
1 64503U 25134D   26247.81258132  .00001923  00000+0  28117-3 0  9990
2 64503  51.8997 168.4664 0000693 101.7773 258.3267 14.79934116 66491
KUIPER-00043            
1 64504U 25134E   26247.48301377  .00000553  00000+0  10149-3 0  9998
2 64504  51.9018 162.4357 0000787  98.9832 261.1220 14.79937291 66552
KUIPER-00044            
1 64505U 25134F   26247.80719927  .00001079  00000+0  17047-3 0  9997
2 64505  51.8989 173.4948 0000878  88.2694 271.8369 14.79933719 66425
KUIPER-00046            
1 64506U 25134G   26247.50601336  .00001079  00000+0  17049-3 0  9991
2 64506  51.8992 172.2978 0000957  81.4168 278.6903 14.79930776 66417
KUIPER-00047            
1 64507U 25134H   26247.43435625  .00001695  00000+0  25134-3 0  9998
2 64507  51.8994 145.1431 0000766  84.6539 275.4511 14.79931707 66783
KUIPER-00048            
1 64508U 25134J   26247.73815892  .00001678  00000+0  24923-3 0  9996
2 64508  51.9006 143.8103 0000893 102.0886 258.0176 14.79907568 66839
KUIPER-00049            
1 64509U 25134K   26247.75852835 -.00000052  00000+0  22141-4 0  9994
2 64509  51.9017 156.1930 0000793  90.6920 269.4133 14.79929046 66662
KUIPER-00050            
1 64510U 25134L   26247.43976984  .00001648  00000+0  24516-3 0  9991
2 64510  51.9009 140.1235 0000806 104.8455 255.2596 14.79932500 66869
KUIPER-00051            
1 64511U 25134M   26247.46444881  .00000296  00000+0  67792-4 0  9993
2 64511  51.9018 156.1898 0000812 102.5617 257.5436 14.79930839 66630
KUIPER-00053            
1 64513U 25134P   26247.76013228  .00000550  00000+0  97332-4 0  9991
2 64513  51.9004 149.4808 0002197  81.2372 278.8840 14.81760430 66751
KUIPER-00054            
1 64514U 25134Q   26247.73555539  .00001762  00000+0  26002-3 0  9996
2 64514  51.8979 146.2992 0000966  89.2063 270.9010 14.79939430 66799
KUIPER-00055            
1 64515U 25134R   26247.01021684 -.00000290  00000+0 -90737-5 0  9992
2 64515  51.9016 102.1545 0000710  99.1296 260.9746 14.79936310 67355
KUIPER-00056            
1 64516U 25134S   26247.76395583  .00000294  00000+0  67618-4 0  9990
2 64516  51.9031 151.2877 0001105  84.0421 276.0667 14.79931973 66739
KUIPER-00057            
1 64517U 25134T   26247.14807286 -.00011605  00000+0 -14965-2 0  9996
2 64517  51.8980 161.4282 0001139  90.0334 270.0759 14.79913914 66531
KUIPER-00058            
1 64518U 25134U   26247.11970125  .00002073  00000+0  30093-3 0  9995
2 64518  51.9008 156.5303 0000741 107.3052 252.7992 14.79929672 66602
KUIPER-00059            
1 64519U 25134V   26247.46275767  .00000734  00000+0  12535-3 0  9997
2 64519  51.9008 150.0495 0001280  83.1743 276.9365 14.79930069 66728
KUIPER-00060            
1 64520U 25134W   26247.76664714  .00001818  00000+0  26745-3 0  9998
2 64520  51.9030 148.7818 0000734  99.0080 261.0966 14.79931874 66751
KUIPER-00061            
1 64521U 25134X   26247.79232036  .00001950  00000+0  28479-3 0  9993
2 64521  51.9010 156.1109 0000958  94.4461 265.6611 14.79927107 66656
KUIPER-00062            
1 64522U 25134Y   26247.72205479  .00002310  00000+0  33186-3 0  9990
2 64522  51.8955 158.8763 0000690  78.6582 281.4458 14.79944468 66621
KUIPER-00063            
1 64523U 25134Z   26247.51139830 -.00000585  00000+0 -47715-4 0  9993
2 64523  51.9016 167.3934 0000785  93.3584 266.7468 14.79922924 66481
KUIPER-00064            
1 64524U 25134AA  26247.78422393  .00001701  00000+0  25213-3 0  9999
2 64524  51.9034 163.6135 0001070  79.2570 280.8513 14.79929747 66567
KUIPER-00065            
1 64525U 25134AB  26247.17107468  .00002041  00000+0  29661-3 0  9995
2 64525  51.9034 171.4988 0000867  85.2059 274.9002 14.79938102 66385
KUIPER-00066            
1 64526U 25134AC  26247.87999627  .00001477  00000+0  22268-3 0  9997
2 64526  51.9020 105.6326 0000883 112.7734 247.3322 14.79932757 67380
KUIPER-00069            
1 64816U 25151A   26247.26298712  .00001604  00000+0  23934-3 0  9991
2 64816  51.9005 211.0004 0000720  83.9617 276.1427 14.79934481 63208
KUIPER-00070            
1 64817U 25151B   26247.94507221  .00001473  00000+0  22224-3 0  9990
2 64817  51.8994 232.8859 0000813  53.5032 306.6006 14.79927924 62969
KUIPER-00071            
1 64818U 25151C   26247.94777078  .00001501  00000+0  22584-3 0  9991
2 64818  51.9007 230.4194 0000705 100.9150 259.1891 14.79936438 61817
KUIPER-00072            
1 64819U 25151D   26247.59792100  .00001473  00000+0  22220-3 0  9991
2 64819  51.8958 211.8913 0000949  31.9045 328.1975 14.79933943 62044
KUIPER-00073            
1 64820U 25151E   26247.64388914  .00001636  00000+0  24360-3 0  9991
2 64820  51.8989 231.7412 0000600  47.7315 312.3699 14.79923511 62952
KUIPER-00075            
1 64822U 25151G   26247.06816709  .00016691  00000+0  44150-3 0  9993
2 64822  51.8652  71.6068 0003151 170.9754 189.1290 15.38516009 63942
KUIPER-00076            
1 64823U 25151H   26247.31701088  .00000060  00000+0  36932-4 0  9998
2 64823  51.9016 223.2109 0000822  44.5444 315.5585 14.79927882 61863
KUIPER-00077            
1 64824U 25151J   26247.64928753  .00000650  00000+0  11423-3 0  9997
2 64824  51.9023 226.7609 0000703  48.8858 311.2165 14.79931418 61844
KUIPER-00078            
1 64825U 25151K   26247.95584474  .00001534  00000+0  23024-3 0  9992
2 64825  51.8996 222.8785 0000704  65.9780 294.1256 14.79926169 61926
KUIPER-00079            
1 64826U 25151L   26247.64658008  .00001011  00000+0  16164-3 0  9991
2 64826  51.8985 229.2027 0000727  36.6602 323.4410 14.79925827 63007
KUIPER-00080            
1 64827U 25151M   26247.68034182  .00001062  00000+0  16823-3 0  9995
2 64827  51.8992 229.0649 0000551  71.4096 288.6927 14.79931480 61817
KUIPER-00082            
1 64828U 25151N   26246.91723928  .00001815  00000+0  26700-3 0  9995
2 64828  51.9013 220.0006 0000576  56.1407 303.9610 14.79930544 61870
KUIPER-00083            
1 64829U 25151P   26247.65198026  .00001615  00000+0  24081-3 0  9991
2 64829  51.8997 224.2340 0000730  49.2751 310.8275 14.79927548 63062
KUIPER-00084            
1 64830U 25151Q   26247.37106964 -.00000225  00000+0 -49699-6 0  9995
2 64830  51.9013 235.4628 0000711 101.1207 258.9835 14.79939167 61691
KUIPER-00085            
1 64831U 25151R   26247.89643523  .00001665  00000+0  24745-3 0  9999
2 64831  51.9025 215.7258 0000725  59.1317 300.9717 14.79924987 62012
KUIPER-00086            
1 64832U 25151S   26247.95315852  .00001696  00000+0  25135-3 0  9996
2 64832  51.9006 225.4106 0000643  71.4947 288.6085 14.79935344 61880
KUIPER-00087            
1 64833U 25151T   26247.29673492  .00001649  00000+0  24524-3 0  9990
2 64833  51.8985 210.7696 0000815  50.5050 309.5985 14.79940424 62025
KUIPER-00089            
1 64834U 25151U   26247.29133637 -.00001626  00000+0 -18440-3 0  9990
2 64834  51.8996 215.8191 0000579  59.8266 300.2753 14.79934069 61963
KUIPER-00090            
1 64835U 25151V   26247.90718429  .00001587  00000+0  23710-3 0  9997
2 64835  51.8978 205.5920 0000858  80.0828 280.0232 14.79936138 62158
KUIPER-00091            
1 64836U 25151W   26247.29404733  .00001553  00000+0  23265-3 0  9998
2 64836  51.8997 213.3277 0000852  56.8191 303.2853 14.79934358 61990
KUIPER-00092            
1 64837U 25151X   26247.21841601  .00001679  00000+0  24910-3 0  9997
2 64837  51.9011 221.1513 0000569  53.9972 306.1043 14.79939316 63094
KUIPER-00093            
1 64838U 25151Y   26247.89103169  .00000341  00000+0  73719-4 0  9999
2 64838  51.8991 220.6483 0000959  62.5124 297.5936 14.79930617 61940
KUIPER-00094            
1 64839U 25151Z   26247.19675244  .00000826  00000+0  13738-3 0  9993
2 64839  51.9051 178.8274 0001046  70.7900 289.3176 14.79930587 62472
KUIPER-00081            
1 65132U 25171A   26247.81106431 -.00000113  00000+0  14224-4 0  9990
2 65132  51.8993  75.9976 0000712 102.9595 257.1447 14.79932963 59566
KUIPER-00088            
1 65133U 25171B   26247.85972401  .00001479  00000+0  22296-3 0  9995
2 65133  51.8996  93.2834 0000850 112.8489 247.2563 14.79930105 59320
KUIPER-00095            
1 65134U 25171C   26247.88127162  .00000536  00000+0  99224-4 0  9994
2 65134  51.8985  73.2243 0000499 181.1610 178.9351 14.79938916 59609
KUIPER-00096            
1 65135U 25171D   26247.83404587  .00001541  00000+0  23106-3 0  9991
2 65135  51.8991  85.8907 0000643 113.2996 246.8034 14.79928291 59425
KUIPER-00097            
1 65136U 25171E   26247.83136337  .00001460  00000+0  22047-3 0  9990
2 65136  51.9005  88.5697 0000653 107.9492 252.1541 14.79923610 59378
KUIPER-00098            
1 65137U 25171F   26247.01829714  .00000398  00000+0  81204-4 0  9999
2 65137  51.8998  94.5270 0000550  96.9608 263.1417 14.79928151 58575
KUIPER-00099            
1 65138U 25171G   26247.53556196  .00001577  00000+0  23581-3 0  9991
2 65138  51.9022  82.2508 0000762 116.5318 243.5723 14.79928677 59447
KUIPER-00100            
1 65139U 25171H   26247.57198337  .00001706  00000+0  25273-3 0  9999
2 65139  51.9017  79.5555 0000647 100.7903 259.3132 14.79925582 59485
KUIPER-00102            
1 65140U 25171J   26247.83943712  .00001624  00000+0  24197-3 0  9998
2 65140  51.8979  80.8454 0000909 118.1155 241.9900 14.79929794 59488
KUIPER-00103            
1 65141U 25171K   26247.04397306  .00000754  00000+0  12793-3 0  9996
2 65141  51.8988 101.8663 0000987 106.2192 253.8879 14.79927669 59127
KUIPER-00104            
1 65142U 25171L   26247.53013985  .00001710  00000+0  25329-3 0  9991
2 65142  51.9020  87.2299 0000650 104.8183 255.2851 14.79935401 59375
KUIPER-00105            
1 65143U 25171M   26246.88054562  .00000415  00000+0  83462-4 0  9999
2 65143  51.8999  97.6964 0000653 110.7578 249.3455 14.79930171 59172
KUIPER-00106            
1 65144U 25171N   26247.87377238 -.00032993  00000+0 -43309-2 0  9990
2 65144  51.9008  72.0656 0000706 120.4772 239.6260 14.79827965 59625
KUIPER-00107            
1 65145U 25171P   26247.91237120  .00001519  00000+0  22829-3 0  9994
2 65145  51.9008  75.5750 0000825 116.6086 243.4961 14.79926860 59575
KUIPER-00108            
1 65146U 25171Q   26247.93265235  .00001594  00000+0  23802-3 0  9990
2 65146  51.9022  88.0312 0000685 112.9367 247.1668 14.79929186 59401
KUIPER-00109            
1 65147U 25171R   26247.56659260  .00004242  00000+0  58481-3 0  9999
2 65147  51.9018  84.5891 0000610 154.8968 205.2024 14.79952915 59418
KUIPER-00110            
1 65148U 25171S   26247.85702217  .00000042  00000+0  34484-4 0  9995
2 65148  51.8997  95.8572 0000783 102.8268 257.2782 14.79934402 59275
KUIPER-00111            
1 65149U 25171T   26247.88538979  .00000326  00000+0  71815-4 0  9995
2 65149  51.8970 100.5949 0000876 110.3448 249.7609 14.79926946 59218
KUIPER-00112            
1 65150U 25171U   26247.19520003  .00001791  00000+0  26401-3 0  9997
2 65150  51.9014  86.2790 0000813 106.5863 253.5189 14.79918871 59352
KUIPER-00114            
1 65151U 25171V   26247.88269062  .00001529  00000+0  22950-3 0  9993
2 65151  51.8995 103.2000 0000765 110.9109 249.1935 14.79935855 59173
KUIPER-00115            
1 65152U 25171W   26247.01289176  .00001851  00000+0  27174-3 0  9998
2 65152  51.9010  99.5542 0000679 109.0804 251.0232 14.79935390 59150
KUIPER-00116            
1 65153U 25171X   26247.31140397  .00001725  00000+0  25519-3 0  9994
2 65153  51.9003 103.2661 0000708 106.8862 253.2178 14.79936181 59129
KUIPER-00118            
1 65154U 25171Y   26247.64635700  .00001588  00000+0  23737-3 0  9995
2 65154  51.8994 104.2338 0000852 105.7244 254.3812 14.79925471 59141
KUIPER-00119            
1 65155U 25171Z   26247.92994401  .00001315  00000+0  20150-3 0  9997
2 65155  51.9001  90.5806 0000833 101.2988 258.8068 14.79918663 59354
KUIPER-00120            
1 65762U 25217A   26247.69405464  .00001881  00000+0  27568-3 0  9990
2 65762  51.9007 341.4916 0000592  58.0085 302.0935 14.79935910 51242
KUIPER-00132            
1 65763U 25217B   26247.54671120  .00016483  00000+0  42736-3 0  9997
2 65763  51.8530 212.8421 0004880 242.9127 117.1362 15.39135693 53013
KUIPER-00133            
1 65764U 25217C   26247.66032424 -.00000187  00000+0  44607-5 0  9995
2 65764  51.9065 341.7751 0000396  89.3637 270.7371 14.79924680 51247
KUIPER-00139            
1 65765U 25217D   26247.56026420  .00000006  00000+0  29744-4 0  9997
2 65765  51.8990 309.6483 0000442  68.9771 291.1238 14.79922383 51688
KUIPER-00142            
1 65766U 25217E   26247.91550261  .00000440  00000+0  86801-4 0  9991
2 65766  51.9014 323.0438 0000687  97.8187 262.2853 14.79919057 51529
KUIPER-00145            
1 65767U 25217F   26247.91283259  .00000504  00000+0  95115-4 0  9991
2 65767  51.9017 325.5807 0000284  85.1682 274.9313 14.79931076 51484
KUIPER-00147            
1 65768U 25217G   26247.60624387  .00001756  00000+0  25929-3 0  9994
2 65768  51.9007 329.4101 0000150  81.0348 279.0631 14.79939045 51405
KUIPER-00148            
1 65769U 25217H   26247.89524887  .00000580  00000+0  10509-3 0  9992
2 65769  51.9063 310.6763 0000307  61.8163 298.2830 14.79932706 51691
KUIPER-00150            
1 65770U 25217J   26247.25782939  .00000729  00000+0  12460-3 0  9991
2 65770  51.9025 340.9960 0000630 103.3718 256.7314 14.79929872 51217
KUIPER-00151            
1 65771U 25217K   26247.67108494  .00001635  00000+0  24337-3 0  9999
2 65771  51.9031 331.6674 0000528  79.6811 280.4211 14.79937883 51388
KUIPER-00152            
1 65772U 25217L   26247.92091636  .00001164  00000+0  18166-3 0  9997
2 65772  51.9020 318.0435 0000294  78.9385 281.1610 14.79938471 51597
KUIPER-00153            
1 65773U 25217M   26247.92632788  .00001229  00000+0  19012-3 0  9990
2 65773  51.9053 313.1056 0000275  93.3591 266.7403 14.79936796 51663
KUIPER-00155            
1 65774U 25217N   26247.41574120  .00001288  00000+0  19787-3 0  9994
2 65774  51.9028 287.8256 0000465  74.6907 285.4107 14.79930179 51971
KUIPER-00156            
1 65775U 25217P   26247.89255208  .00000797  00000+0  13358-3 0  9992
2 65775  51.9045 313.2370 0000516  96.2176 263.8845 14.79925414 51657
KUIPER-00165            
1 65778U 25217S   26246.59869338  .00001786  00000+0  26315-3 0  9992
2 65778  51.9023 328.8925 0000359 101.5511 258.5491 14.79933769 51326
KUIPER-00166            
1 65779U 25217T   26247.59133639  .00005794  00000+0  78763-3 0  9999
2 65779  51.9031 312.0621 0000415 111.2813 248.8194 14.79970718 51642
KUIPER-00167            
1 65780U 25217U   26247.53329186  .00001699  00000+0  25182-3 0  9996
2 65780  51.8978 334.6460 0000501  87.8273 272.2746 14.79921309 51329
KUIPER-00168            
1 65781U 25217V   26247.88984590  .00000282  00000+0  65974-4 0  9992
2 65781  51.9026 315.6884 0000230  99.0750 261.0238 14.79930100 51622
KUIPER-00169            
1 65782U 25217W   26247.47930183 -.00000543  00000+0 -42221-4 0  9999
2 65782  51.9025 322.5163 0000550 100.0739 260.0286 14.79919854 51494
KUIPER-00170            
1 65783U 25217X   26247.60892157  .00001637  00000+0  24367-3 0  9996
2 65783  51.9008 326.8881 0000589 113.0742 247.0283 14.79934138 51449
KUIPER-00172            
1 65785U 25217Z   26247.45896641  .00001436  00000+0  21733-3 0  9994
2 65785  51.9007 310.0828 0000383  52.2345 307.8652 14.79920546 51668
KUIPER-00173            
1 65786U 25217AA  26247.51304654  .00001538  00000+0  23073-3 0  9992
2 65786  51.9019 322.3590 0000214  74.9416 285.1570 14.79937003 51491
KUIPER-00174            
1 65787U 25217AB  26247.45088433  .00000716  00000+0  12291-3 0  9997
2 65787  51.9031 317.6947 0000430  53.0376 307.0625 14.79923974 51556
KUIPER-00176            
1 65788U 25217AC  26247.70483842 -.00000384  00000+0 -21324-4 0  9990
2 65788  51.9010 331.4899 0000451  99.0427 261.0587 14.79922154 51380
KUIPER-00101            
1 65947U 25228A   26247.37926918  .00001089  00000+0  17183-3 0  9996
2 65947  51.9001 290.3803 0001036  67.4344 292.6728 14.79930079 49695
KUIPER-00113            
1 65948U 25228B   26247.48595168  .00001273  00000+0  19592-3 0  9999
2 65948  51.8989 284.9288 0000342  62.0583 298.0414 14.79934307 49770
KUIPER-00117            
1 65949U 25228C   26247.51702191  .00001307  00000+0  20036-3 0  9993
2 65949  51.8991 287.2903 0000400  56.8000 303.3000 14.79930215 49746
KUIPER-00121            
1 65950U 25228D   26247.82630773  .00001232  00000+0  19061-3 0  9998
2 65950  51.8996 280.9432 0000458  58.1659 301.9347 14.79922878 49865
KUIPER-00122            
1 65951U 25228E   26247.81550048  .00001060  00000+0  16804-3 0  9995
2 65951  51.9006 290.9612 0000404  59.7786 300.3217 14.79940144 49729
KUIPER-00123            
1 65952U 25228F   26247.84927866 -.00000095  00000+0  16508-4 0  9995
2 65952  51.8983 290.8205 0000414  58.4178 301.6824 14.79926539 49722
KUIPER-00124            
1 65953U 25228G   26247.58724685  .00001368  00000+0  20835-3 0  9991
2 65953  51.8990 284.4684 0000308  53.5250 306.5741 14.79937292 49797
KUIPER-00125            
1 65954U 25228H   26247.67095677  .00001297  00000+0  19912-3 0  9999
2 65954  51.9002 269.1503 0000580  62.5385 297.5636 14.79937341 50018
KUIPER-00126            
1 65955U 25228J   26247.81821808  .00001156  00000+0  18058-3 0  9993
2 65955  51.8999 288.4807 0000491  88.1376 271.9643 14.79934069 49756
KUIPER-00127            
1 65956U 25228K   26247.80941842  .00001128  00000+0  17695-3 0  9999
2 65956  51.9012 280.9984 0000336  47.5283 312.5707 14.79936595 49862
KUIPER-00128            
1 65957U 25228L   26247.52243168  .00001268  00000+0  19525-3 0  9994
2 65957  51.9014 282.3335 0000476  91.1781 268.9236 14.79934916 49815
KUIPER-00129            
1 65958U 25228M   26247.49404698  .00001205  00000+0  18704-3 0  9997
2 65958  51.9001 277.4376 0000386  75.2926 284.8079 14.79938820 49883
KUIPER-00130            
1 65959U 25228N   26247.79525229  .00000164  00000+0  50560-4 0  9995
2 65959  51.9013 278.6501 0000544  82.6671 277.4353 14.79929167 40186
KUIPER-00134            
1 65960U 25228P   26247.34894395  .00021764  00000+0  58793-3 0  9995
2 65960  51.8698 172.7946 0004479 216.7576 143.3104 15.37672801 51326
KUIPER-00135            
1 65961U 25228Q   26247.82901565  .00001291  00000+0  19839-3 0  9998
2 65961  51.9026 278.5520 0000377  59.9817 300.1183 14.79926916 49897
KUIPER-00136            
1 65962U 25228R   26247.79794666  .00001200  00000+0  18644-3 0  9990
2 65962  51.9003 276.1370 0000383  54.4621 305.6377 14.79925564 49927
KUIPER-00137            
1 65963U 25228S   26247.12534196  .00000646  00000+0  11378-3 0  9998
2 65963  51.9025 276.6183 0000296  61.6625 298.4368 14.79926344 49865
KUIPER-00138            
1 65964U 25228T   26247.09426261  .00000068  00000+0  37917-4 0  9994
2 65964  51.8982 274.1599 0000488  70.9351 289.1664 14.79930327 49898
KUIPER-00140            
1 65965U 25228U   26247.49673775  .00001341  00000+0  20489-3 0  9993
2 65965  51.8998 274.9732 0000660  64.0116 296.0914 14.79929589 49914
KUIPER-00141            
1 65966U 25228V   26247.77226984  .00001199  00000+0  18622-3 0  9998
2 65966  51.9026 268.8276 0000435  67.0069 293.0939 14.79936171 50026
KUIPER-00146            
1 65967U 25228W   26247.80333641 -.00000557  00000+0 -44103-4 0  9995
2 65967  51.9012 271.2011 0000418  89.5516 270.5495 14.79930137 49991
KUIPER-00149            
1 65968U 25228X   26247.77496330  .00001257  00000+0  19389-3 0  9990
2 65968  51.9009 266.2038 0000513  46.3729 313.7276 14.79932603 50061
KUIPER-00154            
1 65969U 25228Y   26247.74372522  .00004458  00000+0  61240-3 0  9993
2 65969  51.8999 263.8222 0001263 272.2266  87.8552 14.80002179 50093
KUIPER-00157            
1 65970U 25228Z   26247.75475950  .00000973  00000+0  15197-3 0  9993
2 65970  51.9025 265.8733 0000349 205.4871 154.6075 14.81270955 50069
KUIPER-00144            
1 67133U 25301A   26247.65760994  .00001766  00000+0  26060-3 0  9994
2 67133  51.9032 344.2281 0000508  77.6557 282.4462 14.79929822 40371
KUIPER-00164            
1 67134U 25301B   26247.71166074  .00001630  00000+0  24276-3 0  9998
2 67134  51.9042 356.5051 0000410 104.2315 255.8693 14.79930331 40383
KUIPER-00175            
1 67135U 25301C   26247.62922830  .00001799  00000+0  26490-3 0  9995
2 67135  51.9024 339.3077 0000337 101.9570 258.1430 14.79929619 40513
KUIPER-00179            
1 67136U 25301D   26247.78185413  .00000342  00000+0  73878-4 0  9997
2 67136  51.9002 353.6324 0000602  99.7642 260.3388 14.79929713 40436
KUIPER-00181            
1 67137U 25301E   26247.36321544  .00001710  00000+0  25337-3 0  9995
2 67137  51.9036   8.0430 0000389 110.3150 249.7854 14.79922365 40175
KUIPER-00183            
1 67138U 25301F   26247.36181485  .00001889  00000+0  27675-3 0  9998
2 67138  51.9041 338.0570 0000470  95.4781 264.6235 14.79929537 40602
KUIPER-00184            
1 67139U 25301G   26247.28079080  .00000053  00000+0  35895-4 0  9993
2 67139  51.9010 350.8580 0000634  81.3209 278.7825 14.79932930 40526
KUIPER-00186            
1 67140U 25301H   26247.32944199  .00000165  00000+0  50644-4 0  9995
2 67140  51.9007   8.2009 0000511 115.2367 244.8649 14.79927155 40015
KUIPER-00187            
1 67141U 25301J   26247.73193816 -.00000153  00000+0  88992-5 0  9999
2 67141  51.9020   8.9479 0000818  95.3412 264.7644 14.79933410 40037
KUIPER-00188            
1 67142U 25301K   26247.26048948  .00001643  00000+0  24456-3 0  9990
2 67142  51.9045 338.6192 0000440  88.1437 271.9575 14.79922526 40419
KUIPER-00191            
1 67143U 25301L   26247.36861919  .00000191  00000+0  54066-4 0  9991
2 67143  51.9010   3.0331 0000640  64.5113 295.5915 14.79930110 40116
KUIPER-00196            
1 67144U 25301M   26247.88718006  .00000095  00000+0  41460-4 0  9994
2 67144  51.8997 318.1968 0000161  28.1058 331.9913 14.79946881 40753
KUIPER-00204            
1 67145U 25301N   26246.68920251  .00001747  00000+0  25809-3 0  9992
2 67145  51.9025 338.5252 0000288  95.1071 264.9924 14.79934557 40482
KUIPER-00210            
1 67146U 25301P   26247.60496052  .00000241  00000+0  60557-4 0  9991
2 67146  51.9028   1.9344 0000726 134.4334 225.6688 14.79932602 40294
KUIPER-00221            
1 67147U 25301Q   26247.63063588  .00001862  00000+0  27308-3 0  9995
2 67147  51.9028   9.3552 0000531 105.3421 254.7600 14.79941173 40027
KUIPER-00232            
1 67148U 25301R   26247.68059459  .00000247  00000+0  61404-4 0  9995
2 67148  51.9015 354.1467 0000441 111.7585 248.3424 14.79926697 40232
KUIPER-00241            
1 67149U 25301S   26247.70356360  .00000506  00000+0  95362-4 0  9998
2 67149  51.9050   4.0634 0000426 123.0917 237.0087 14.79927247 40431
KUIPER-00245            
1 67150U 25301T   26247.35783448  .00001801  00000+0  26522-3 0  9992
2 67150  51.9042  13.1016 0000518 107.3878 252.7141 14.79932266 39948
KUIPER-00246            
1 67151U 25301U   26247.67788201  .00001678  00000+0  24909-3 0  9999
2 67151  51.9021 356.6256 0000563 100.3121 259.7905 14.79930917 40220
KUIPER-00247            
1 67152U 25301V   26247.28348830  .00001634  00000+0  24330-3 0  9997
2 67152  51.8981 348.3215 0000311 109.4659 250.6337 14.79932963 40283
KUIPER-00248            
1 67153U 25301W   26246.62706231 -.00001901  00000+0 -22038-3 0  9990
2 67153  51.9000 333.8673 0000239 143.6930 216.4048 14.79953791 40590
KUIPER-00249            
1 67154U 25301X   26247.62385318 -.00000018  00000+0  26637-4 0  9998
2 67154  51.9015 344.3899 0000390  98.5981 261.5026 14.79929185 40368
KUIPER-00250            
1 67155U 25301Y   26247.70893609  .00001969  00000+0  28725-3 0  9999
2 67155  51.9011 358.9662 0000512  92.8360 267.2661 14.79929866 40205
KUIPER-00251            
1 67156U 25301Z   26247.65491739  .00002007  00000+0  29214-3 0  9990
2 67156  51.9024 346.7810 0000395 100.2676 259.8331 14.79933507 40526
KUIPER-00252            
1 67157U 25301AA  26247.31456267  .00000482  00000+0  92193-4 0  9993
2 67157  51.9012 350.7358 0000415 112.4293 247.6713 14.79935394 40254
KUIPER-00261            
1 67158U 25301AB  26247.74272427  .00001682  00000+0  24958-3 0  9991
2 67158  51.9040 358.9049 0000410  91.0212 269.0797 14.79937481 40171
KUIPER-00265            
1 67159U 25301AC  26247.76030916  .00001855  00000+0  27219-3 0  9994
2 67159  51.9033  13.8031 0000471 115.9016 244.1995 14.79936422 40007
KUIPER-00159            
1 67764U 26030A   26247.93177285 -.00003405  00000+0 -45322-3 0  9996
2 67764  51.9015  91.3831 0000267 147.5703 212.5274 14.76585884 32408
KUIPER-00160            
1 67765U 26030B   26247.91668981  .00011873  00000+0  88284-3 0  9993
2 67765  51.8929  74.3178 0009570 321.8304 268.0636 15.03326955  5554
KUIPER-00177            
1 67766U 26030C   26247.09943258  .00000854  00000+0  14101-3 0  9990
2 67766  51.9012 144.1981 0000991  94.4120 265.6956 14.79928070 31593
KUIPER-00178            
1 67767U 26030D   26247.74095857  .00001777  00000+0  26207-3 0  9991
2 67767  51.9012 141.3438 0000677 100.1997 259.9042 14.79930627 31692
KUIPER-00180            
1 67768U 26030E   26247.94894425  .00000004  00000+0  29555-4 0  9994
2 67768  51.8978 135.4176 0000778 121.2805 238.8234 14.79926257 31794
KUIPER-00197            
1 67769U 26030F   26247.22768610  .00001829  00000+0  26888-3 0  9993
2 67769  51.9001 118.6240 0001112  99.1087 261.0002 14.79923512 31967
KUIPER-00198            
1 67770U 26030G   26247.92327604  .00000201  00000+0  55379-4 0  9997
2 67770  51.8979 128.0236 0001119 100.3958 259.7130 14.79925335 31894
KUIPER-00199            
1 67771U 26030H   26247.82283517  .00011733  00000+0  32338-3 0  9992
2 67771  51.8801  75.0137 0009283 334.7389  25.3143 15.37535335 32626
KUIPER-00200            
1 67772U 26030J   26247.66933565  .00001684  00000+0  24991-3 0  9990
2 67772  51.8983 114.1908 0000663  98.9692 261.1345 14.79923440 32063
KUIPER-00203            
1 67773U 26030K   26247.70176610  .00001907  00000+0  27897-3 0  9992
2 67773  51.9066 146.6089 0001064  89.9539 270.1545 14.79956632 31614
KUIPER-00205            
1 67774U 26030L   26247.60447078  .00001698  00000+0  25165-3 0  9994
2 67774  51.9004 111.9397 0000763  73.6210 286.4837 14.79928783 32098
KUIPER-00208            
1 67775U 26030M   26247.67612343  .00001885  00000+0  27627-3 0  9994
2 67775  51.8981 139.1229 0001358  83.7341 276.3776 14.79926014 31719
KUIPER-00209            
1 67776U 26030N   26247.71259838  .00001911  00000+0  27965-3 0  9991
2 67776  51.9001 136.5591 0000949  94.8850 265.2221 14.79931102 31750
KUIPER-00213            
1 67777U 26030P   26247.68151830 -.00003312  00000+0 -40544-3 0  9998
2 67777  51.8965 134.1597 0000993 158.0761 202.0244 14.79949115 31782
KUIPER-00214            
1 67778U 26030Q   26247.17774939 -.00000322  00000+0 -13252-4 0  9999
2 67778  51.9005 133.9183 0000751 102.6884 257.4163 14.79932203 31740
KUIPER-00215            
1 67779U 26030R   26247.02237928  .00002537  00000+0  36160-3 0  9996
2 67779  51.8989 121.9616 0000926  95.0632 265.0436 14.79944201 31906
KUIPER-00218            
1 67780U 26030S   26247.71528895  .00001867  00000+0  27383-3 0  9992
2 67780  51.8984 133.9374 0001166  96.3263 263.7832 14.79935521 31795
KUIPER-00220            
1 67781U 26030T   26246.93188029  .00002054  00000+0  29830-3 0  9995
2 67781  51.8953 112.4275 0001071 135.5478 224.5571 14.79943951 32021
KUIPER-00222            
1 67782U 26030U   26247.95700726  .00001711  00000+0  25348-3 0  9992
2 67782  51.8986 128.0277 0001062  94.0350 266.0734 14.79926473 31897
KUIPER-00223            
1 67783U 26030V   26247.66119694  .00001556  00000+0  23308-3 0  9990
2 67783  51.9021 121.6430 0000921 100.4154 259.6912 14.79922647 31969
KUIPER-00225            
1 67784U 26030W   26247.04809207  .00000495  00000+0  93894-4 0  9998
2 67784  51.8985 129.5047 0000972  95.5418 264.5655 14.79930272 31795
KUIPER-00226            
1 67785U 26030X   26247.89518684  .00000949  00000+0  16588-3 0  9996
2 67785  51.9004 113.0306 0002879 350.1501   9.9403 14.76421311 32100
KUIPER-00259            
1 67786U 26030Y   26247.95972990  .00000392  00000+0  80431-4 0  9999
2 67786  51.8999 125.3707 0000825  77.1750 282.9304 14.79930767 31931
KUIPER-00260            
1 67787U 26030Z   26247.62479270  .00001607  00000+0  23972-3 0  9993
2 67787  51.8997 124.4645 0000998  96.8304 263.2772 14.79939038 31824
KUIPER-00262            
1 67788U 26030AA  26247.05077613  .00002005  00000+0  29191-3 0  9998
2 67788  51.9013 126.9202 0001385  81.4555 278.6564 14.79930591 31835
KUIPER-00266            
1 67789U 26030AB  26247.62748045  .00001750  00000+0  25856-3 0  9996
2 67789  51.8998 121.8617 0001092  79.6098 280.4987 14.79935044 31958
KUIPER-00268            
1 67790U 26030AC  26247.05616540  .00000606  00000+0  10856-3 0  9992
2 67790  51.9039 121.9251 0001099  98.6440 261.4647 14.79929610 31900
KUIPER-00270            
1 67791U 26030AD  26247.57342185  .00000799  00000+0  13384-3 0  9993
2 67791  51.9009 109.5951 0000755 108.8084 251.2960 14.79936320 32129
KUIPER-00274            
1 67792U 26030AE  26247.68422835  .00000566  00000+0  10331-3 0  9998
2 67792  51.9014 131.6157 0001214  88.6220 271.4881 14.79931245 31821
KUIPER-00275            
1 67793U 26030AF  26247.90834968 -.00000757  00000+0 -70337-4 0  9995
2 67793  51.8995 110.6219 0000315 113.3583 246.7413 14.79927748 32138
KUIPER-00276            
1 67794U 26030AG  26247.93674356  .00001618  00000+0  24114-3 0  9998
2 67794  51.8987 115.4742 0001090  56.0626 304.0440 14.79938286 32076
KUIPER-00279            
1 67795U 26030AH  26247.91376980  .00001675  00000+0  24862-3 0  9992
2 67795  51.9026 105.6210 0001173  88.1528 271.9569 14.79932710 32207
KUIPER-00131            
1 68573U 26072A   26247.90992264  .00001632  00000+0  24305-3 0  9996
2 68573  51.9008 203.1179 0000784  63.9786 296.1257 14.79927271 22921
KUIPER-00189            
1 68574U 26072B   26247.26566573  .00003271  00000+0  45772-3 0  9998
2 68574  51.9004 208.4445 0000720  76.4351 283.6691 14.79943213 22791
KUIPER-00192            
1 68575U 26072C   26247.57496341  .00001770  00000+0  26117-3 0  9992
2 68575  51.8988 202.0936 0000985  61.1110 298.9952 14.79933953 22917
KUIPER-00193            
1 68576U 26072D   26247.85587050  .00001391  00000+0  21148-3 0  9990
2 68576  51.9045 190.8935 0000991  85.6926 274.4150 14.79931713 23090
KUIPER-00194            
1 68577U 26072E   26247.88155029 -.00000697  00000+0 -62394-4 0  9990
2 68577  51.9025 198.2620 0001096  53.2443 306.8620 14.79928510 22995
KUIPER-00229            
1 68578U 26072F   26247.60603250  .00001230  00000+0  19025-3 0  9999
2 68578  51.9013 204.4629 0000911 103.8604 256.2459 14.79935413 22884
KUIPER-00230            
1 68579U 26072G   26247.91668981 -.00078519  00000+0 -43941-2 0  9995
2 68579  51.8870 151.9737 0003070 317.0798 259.5640 15.13240784  1304
KUIPER-00231            
1 68580U 26072H   26247.23052477  .00000542  00000+0  10017-3 0  9997
2 68580  51.8986 178.6989 0002049  74.2664 285.8524 14.79933155 23206
KUIPER-00234            
1 68581U 26072J   26246.96984635  .00001942  00000+0  28366-3 0  9998
2 68581  51.8989 202.2602 0001029  53.3008 306.8048 14.79936029 22851
KUIPER-00236            
1 68582U 26072K   26247.91668981 -.00054198  00000+0 -43010-2 0  9993
2 68582  51.8907 153.5614 0005829 282.7511 262.7317 15.00175563  5743
KUIPER-00244            
1 68583U 26072L   26247.21703750  .00001224  00000+0  18961-3 0  9999
2 68583  51.9008 191.1909 0000852  60.8420 299.2628 14.79931330 23036
KUIPER-00253            
1 68584U 26072M   26247.82209336  .00001609  00000+0  23998-3 0  9991
2 68584  51.9029 191.0367 0000842  71.3401 288.7652 14.79933521 23081
KUIPER-00254            
1 68585U 26072N   26246.23244787  .00000539  00000+0  99779-4 0  9997
2 68585  51.9031 200.5640 0000942  15.4037 344.6954 14.79930045 22815
KUIPER-00263            
1 68586U 26072P   26247.19405314  .00002028  00000+0  29488-3 0  9993
2 68586  51.9011 181.3778 0000827  92.0087 268.0970 14.79936086 23167
KUIPER-00269            
1 68587U 26072Q   26247.79912008  .00001792  00000+0  26397-3 0  9996
2 68587  51.8990 181.1142 0001145  65.0077 295.1004 14.79936181 23221
KUIPER-00272            
1 68588U 26072R   26247.87883353  .00000228  00000+0  58966-4 0  9997
2 68588  51.8966 200.7308 0000994  55.0283 305.0773 14.79928787 22952
KUIPER-00285            
1 68589U 26072S   26247.22512949 -.00000048  00000+0  22722-4 0  9999
2 68589  51.9052 183.7303 0001655  20.3184 339.7844 14.79928298 23136
KUIPER-00286            
1 68590U 26072T   26247.83557539  .00001191  00000+0  18526-3 0  9997
2 68590  51.9047 178.4597 0001617 119.9333 240.1790 14.79942933 23268
KUIPER-00289            
1 68591U 26072U   26247.28725289  .00001497  00000+0  22544-3 0  9990
2 68591  51.9007 188.3735 0002237  22.8544 337.2518 14.79927991 23076
KUIPER-00290            
1 68592U 26072V   26247.56681089 -.00001823  00000+0 -22921-3 0  9995
2 68592  51.9026 186.8841 0001181  12.5314 347.5676 14.76424362 23123
KUIPER-00293            
1 68593U 26072W   26247.88422852  .00001533  00000+0  23007-3 0  9994
2 68593  51.8974 195.7077 0001577 359.3186   0.7774 14.79926891 23026
KUIPER-00294            
1 68594U 26072X   26247.56007112 -.00000441  00000+0 -28799-4 0  9991
2 68594  51.8972 184.6629 0000761  83.4034 276.7014 14.79932452 23152
KUIPER-00296            
1 68595U 26072Y   26247.81528023 -.00000716  00000+0 -64933-4 0  9994
2 68595  51.9003 166.0476 0000484  80.8298 279.2719 14.79928916 23439
KUIPER-00297            
1 68596U 26072Z   26247.24269347  .00000544  00000+0  10032-3 0  9990
2 68596  51.8998 198.5410 0001297  78.9172 281.1936 14.79932097 22934
KUIPER-00300            
1 68597U 26072AA  26247.27915896 -.00000146  00000+0  98052-5 0  9990
2 68597  51.9031 195.9129 0000714  75.3603 284.7438 14.79935084 22974
KUIPER-00301            
1 68598U 26072AB  26247.80356841  .00001230  00000+0  20556-3 0  9995
2 68598  51.9028 162.7605 0002269 151.6144 208.4941 14.76484162 23478
KUIPER-00304            
1 68599U 26072AC  26247.49616698  .00001072  00000+0  18264-3 0  9997
2 68599  51.9010 166.0794 0000283 306.4575  53.6360 14.76601234 23407
KUIPER-00317            
1 68600U 26072AD  26247.86394387  .00002650  00000+0  37638-3 0  9998
2 68600  51.8976 183.3238 0000376  78.9720 281.1285 14.79940235 23191
KUIPER-00320            
1 68601U 26072AE  26247.85855673  .00001497  00000+0  22529-3 0  9999
2 68601  51.9033 188.3595 0000601  88.0125 272.0906 14.79930110 23123
KUIPER-00299            
1 68864U 26095A   26247.32710796  .00000947  00000+0  16539-3 0  9996
2 68864  51.9000 260.5009 0002417  64.4483 295.6728 14.76478862 19332
KUIPER-00353            
1 68865U 26095B   26246.31357676  .00001548  00000+0  23195-3 0  9993
2 68865  51.9000 250.1846 0000465  33.9789 326.1203 14.79937392 19393
KUIPER-00357            
1 68866U 26095C   26247.48725336  .00001365  00000+0  20804-3 0  9996
2 68866  51.9010 252.5026 0000583  17.2663 342.8319 14.79925820 19462
KUIPER-00364            
1 68867U 26095D   26246.30279914  .00001507  00000+0  22658-3 0  9990
2 68867  51.9036 260.2599 0001025 355.8799   4.2154 14.79934260 19256
KUIPER-00375            
1 68868U 26095E   26247.69523061  .00001392  00000+0  21159-3 0  9996
2 68868  51.9014 246.5795 0000466  86.3886 273.7130 14.79935896 19566
KUIPER-00433            
1 68869U 26095F   26247.47647426  .00001311  00000+0  20099-3 0  9998
2 68869  51.9007 262.5420 0000489  24.4463 335.6522 14.79922527 19325
KUIPER-00437            
1 68870U 26095G   26247.91668981  .00015087  00000+0  53540-3 0  9990
2 68870  51.8815 216.8617 0005730 229.9623 195.2455 15.29239633  5300
KUIPER-00448            
1 68871U 26095H   26247.41002933  .00001025  00000+0  17716-3 0  9997
2 68871  51.9024 252.3897 0002722   6.3969 353.7026 14.76310487 19451
KUIPER-00459            
1 68872U 26095J   26247.50075247 -.00000351  00000+0 -17062-4 0  9994
2 68872  51.9033 240.0014 0000625  65.0460 295.0567 14.79927394 19637
KUIPER-00468            
1 68873U 26095K   26247.26405837  .00001062  00000+0  18116-3 0  9998
2 68873  51.8970 238.2207 0001234 149.5421 210.5612 14.76603807 19643
KUIPER-00476            
1 68874U 26095L   26247.91668981 -.01193929  00000+0 -54171-1 0  9998
2 68874  51.8780 220.6187 0009864 214.5883 120.0868 15.23091792  5377
KUIPER-00478            
1 68875U 26095M   26247.36297744  .00003450  00000+0  48135-3 0  9994
2 68875  51.9028 243.0511 0000910   5.8707 354.2266 14.79934992 19582
KUIPER-00480            
1 68876U 26095N   26247.66957060  .00001469  00000+0  22160-3 0  9990
2 68876  51.9031 239.2021 0000441  89.9075 270.1937 14.79931802 19667
KUIPER-00482            
1 68877U 26095P   26247.38864493  .00001334  00000+0  20391-3 0  9992
2 68877  51.9005 250.4342 0000987 330.2005  29.8901 14.79936195 19480
KUIPER-00483            
1 68878U 26095Q   26247.44268535  .00001299  00000+0  19934-3 0  9996
2 68878  51.8986 262.6613 0001538 278.5908  81.4880 14.79942228 19319
KUIPER-00488            
1 68879U 26095R   26246.21228174  .00001559  00000+0  23346-3 0  9997
2 68879  51.8996 250.6446 0000705  46.7316 313.3705 14.79932946 19370
KUIPER-00489            
1 68880U 26095S   26247.36838275 -.00000507  00000+0 -37537-4 0  9997
2 68880  51.8959 238.0161 0001080  55.7134 304.3931 14.79925621 19654
KUIPER-00499            
1 68881U 26095T   26247.93698329  .00001254  00000+0  19345-3 0  9999
2 68881  51.8991 240.5585 0000573  32.2330 327.8667 14.79931359 19665
KUIPER-00500            
1 68882U 26095U   26247.04022621 -.00000118  00000+0  13542-4 0  9991
2 68882  51.9008 261.9742 0000474  72.8627 287.2388 14.79930878 19290
KUIPER-00502            
1 68883U 26095V   26247.53008689 -.00001607  00000+0 -18178-3 0  9998
2 68883  51.8995 236.0601 0001031  21.3439 338.7566 14.79934977 19690
KUIPER-00503            
1 68884U 26095W   26247.41432400  .00001343  00000+0  20505-3 0  9990
2 68884  51.8972 257.7964 0000471  47.3389 312.7613 14.79938857 19389
KUIPER-00504            
1 68885U 26095X   26246.35951921  .00002874  00000+0  40579-3 0  9990
2 68885  51.9029 269.9891 0000465  91.4378 268.6637 14.79941323 19128
KUIPER-00505            
1 68886U 26095Y   26247.75467186  .00001297  00000+0  19913-3 0  9997
2 68886  51.9014 253.8207 0000518  62.4954 297.6061 14.79928898 19465
KUIPER-00507            
1 68887U 26095Z   26247.95116300  .00001354  00000+0  20657-3 0  9990
2 68887  51.8989 242.9377 0000287  79.9696 280.1299 14.79935338 19638
KUIPER-00511            
1 68888U 26095AA  26247.53721600  .00001548  00000+0  23204-3 0  9996
2 68888  51.8988 237.3820 0000750 356.0321   4.0635 14.79925022 19678
KUIPER-00512            
1 68889U 26095AB  26247.71821756  .00001323  00000+0  20244-3 0  9992
2 68889  51.9017 256.4831 0000521  36.1079 323.9918 14.79937511 19425
KUIPER-00519            
1 68890U 26095AC  26247.39136250  .00001417  00000+0  21484-3 0  9997
2 68890  51.9021 247.9915 0000510 114.4039 245.6977 14.79926529 19516
KUIPER-00521            
1 68891U 26095AD  26247.25457375  .00004538  00000+0  62357-3 0  9998
2 68891  51.9026 242.2903 0000537  57.8998 302.2016 14.79951451 19583
KUIPER-00524            
1 68892U 26095AE  26247.91668981  .00035490  00000+0  46646-2 0  9992
2 68892  51.8967 248.0818 0000365  28.1294  86.9289 14.79889829  4395
KUIPER-00370            
1 68919U 26098A   26247.78804267  .00001526  00000+0  22912-3 0  9993
2 68919  51.8987  66.0294 0000705 108.1444 251.9595 14.79927187 19274
KUIPER-00380            
1 68920U 26098B   26247.45852976 -.00000052  00000+0  22171-4 0  9991
2 68920  51.8970  60.1258 0000574  63.6250 296.4771 14.79930619 19327
KUIPER-00386            
1 68921U 26098C   26247.87791304  .00001297  00000+0  19912-3 0  9994
2 68921  51.8984  60.7637 0000673 108.6113 251.4923 14.79933217 19358
KUIPER-00388            
1 68922U 26098D   26247.91778160 -.00000085  00000+0  17838-4 0  9996
2 68922  51.9008  70.7477 0000779 108.2413 251.8634 14.79925944 19212
KUIPER-00405            
1 68923U 26098E   26247.53217072  .00001435  00000+0  21721-3 0  9999
2 68923  51.9011  69.8055 0001466 151.6496 208.4547 14.79928334 19199
KUIPER-00408            
1 68924U 26098F   26247.92854079 -.00000786  00000+0 -74126-4 0  9995
2 68924  51.8999  60.4687 0000785 133.5356 226.5672 14.79938149 19363
KUIPER-00409            
1 68925U 26098G   26247.50108616  .00003081  00000+0  43285-3 0  9999
2 68925  51.9031  67.4397 0000819 158.9926 201.1070 14.79938372 19223
KUIPER-00410            
1 68926U 26098H   26247.90895872  .00001429  00000+0  21642-3 0  9998
2 68926  51.8973  63.1190 0001733 110.6850 249.4298 14.79934790 19327
KUIPER-00412            
1 68927U 26098J   26247.83265469  .00001438  00000+0  21759-3 0  9993
2 68927  51.9029  55.9837 0001115 102.8677 257.2410 14.79931796 19418
KUIPER-00413            
1 68928U 26098K   26247.92046011 -.00000092  00000+0  16968-4 0  9997
2 68928  51.8992  68.0730 0001136 127.5282 232.5784 14.79928179 19256
KUIPER-00414            
1 68929U 26098L   26247.80838213  .00001591  00000+0  23774-3 0  9994
2 68929  51.8968  78.6547 0002013 100.0736 260.0454 14.79930868 19098
KUIPER-00415            
1 68930U 26098M   26247.75973364  .00000245  00000+0  61167-4 0  9991
2 68930  51.9012  61.2971 0000794 110.7467 249.3581 14.79927789 19339
KUIPER-00416            
1 68931U 26098N   26247.84441951  .00001452  00000+0  21884-3 0  9996
2 68931  51.9012  52.2658 0002431  97.9541 262.1697 14.80074353 19468
KUIPER-00420            
1 68932U 26098P   26247.83533812  .00001497  00000+0  22534-3 0  9996
2 68932  51.9004  53.4258 0000748 108.9562 251.1482 14.79938571 19452
KUIPER-00421            
1 68933U 26098Q   26247.49229290  .00001321  00000+0  20232-3 0  9990
2 68933  51.9021  59.9252 0000723 116.2756 243.8281 14.79925785 19332
KUIPER-00425            
1 68934U 26098R   26247.88938766  .00001395  00000+0  21194-3 0  9998
2 68934  51.8985  65.7181 0000670 115.5304 244.5727 14.79934606 19288
KUIPER-00430            
1 68935U 26098S   26247.88667596 -.00001211  00000+0 -12984-3 0  9995
2 68935  51.9022  68.1257 0001665 112.8390 247.2748 14.79928044 19252
KUIPER-00431            
1 68936U 26098T   26247.88399392  .00001663  00000+0  24715-3 0  9996
2 68936  51.8996  70.7299 0000954 122.1297 237.9759 14.79933662 19213
KUIPER-00432            
1 68937U 26098U   26247.89207954  .00001632  00000+0  24305-3 0  9991
2 68937  51.9010  63.0913 0000616 111.9237 248.1791 14.79929963 19326
KUIPER-00434            
1 68938U 26098V   26247.50098031 -.00003551  00000+0 -47476-3 0  9992
2 68938  51.9011  68.5138 0001819 105.7297 254.3865 14.76500627 19218
KUIPER-00436            
1 68939U 26098W   26247.87251045  .00001622  00000+0  24181-3 0  9992
2 68939  51.8998  65.7926 0000669 117.4553 242.6478 14.79926416 19281
KUIPER-00438            
1 68940U 26098X   26247.53756626  .00001408  00000+0  21371-3 0  9992
2 68940  51.9021  64.7933 0000738 110.4594 249.6448 14.79924270 19261
KUIPER-00439            
1 68941U 26098Y   26247.92576661  .00025117  00000+0  33520-2 0  9996
2 68941  51.9032  63.0670 0002077  30.3150 329.7932 14.79418030 19327
KUIPER-00440            
1 68942U 26098Z   26247.88329243  .00001370  00000+0  20867-3 0  9990
2 68942  51.9029  55.7530 0000092 282.1763  77.9189 14.79933113 19420
KUIPER-00442            
1 68943U 26098AA  26247.86035166  .00001197  00000+0  20072-3 0  9992
2 68943  51.9024  58.1676 0001796  99.3851 260.7314 14.76518709 19386
KUIPER-00446            
1 68944U 26098AB  26247.77659557  .00001647  00000+0  24499-3 0  9996
2 68944  51.8995  61.2308 0001186 196.7502 163.3421 14.79931833 19330
KUIPER-00451            
1 68945U 26098AC  26247.76581860  .00000084  00000+0  40082-4 0  9998
2 68945  51.8986  71.2599 0001045 109.2073 250.9003 14.79929853 19192
KUIPER-00452            
1 68946U 26098AD  26247.50918513  .00001544  00000+0  23146-3 0  9993
2 68946  51.9008  59.9043 0000726  77.1323 282.9720 14.79927716 19335
KUIPER-00453            
1 68947U 26098AE  26247.86641343  .00001547  00000+0  23198-3 0  9997
2 68947  51.8983  55.7513 0002751  98.5949 261.5325 14.79925551 19423
KUIPER-00454            
1 68948U 26098AF  26247.82938031  .00001032  00000+0  17746-3 0  9998
2 68948  51.8995  73.2825 0002195 311.7661  48.3112 14.76492211 19177
KUIPER-00455            
1 68949U 26098AG  26247.25934093 -.00000036  00000+0  24362-4 0  9997
2 68949  51.9002  73.5045 0002503  92.4941 267.6307 14.79931029 19127
KUIPER-00458            
1 68950U 26098AH  26247.84948414  .00001553  00000+0  23269-3 0  9994
2 68950  51.9013  55.9150 0000549  97.1450 262.9575 14.79923728 19411
KUIPER-00282            
1 69267U 26118A   26246.50702016  .00001661  00000+0  24685-3 0  9990
2 69267  51.8969  54.3139 0000996 132.4283 227.6763 14.79927881 15759
KUIPER-00383            
1 69268U 26118B   26247.47202630  .00001558  00000+0  23337-3 0  9993
2 69268  51.8984  47.5649 0000649 121.5635 238.5390 14.79927701 15930
KUIPER-00527            
1 69269U 26118C   26247.84344954  .00001722  00000+0  25479-3 0  9993
2 69269  51.8977  46.0545 0000479 102.1326 257.9690 14.79933285 15982
KUIPER-00562            
1 69270U 26118D   26247.41259749  .00001441  00000+0  21793-3 0  9998
2 69270  51.9031  40.2668 0000801 124.2468 235.8570 14.79944308 16036
KUIPER-00570            
1 69271U 26118E   26246.96014481  .00002004  00000+0  29174-3 0  9997
2 69271  51.9008  54.9297 0000667 129.2731 230.8290 14.79939589 15778
KUIPER-00572            
1 69272U 26118F   26247.82652150  .00000238  00000+0  60190-4 0  9996
2 69272  51.8992  45.9903 0000898  88.6093 271.4973 14.79927069 15981
KUIPER-00581            
1 69273U 26118G   26247.48348882  .00001628  00000+0  24256-3 0  9999
2 69273  51.9017  52.5141 0002021 134.5926 225.5201 14.79935579 15951
KUIPER-00584            
1 69274U 26118H   26247.86912522  .00001407  00000+0  21363-3 0  9991
2 69274  51.9005  53.4208 0000778 127.3498 232.7536 14.79926250 15883
KUIPER-00587            
1 69275U 26118J   26247.82922058  .00001636  00000+0  24366-3 0  9993
2 69275  51.9007  43.4861 0001063  68.2586 291.8489 14.79927247 16026
KUIPER-00590            
1 69276U 26118K   26247.89139638  .00001687  00000+0  25032-3 0  9992
2 69276  51.9025  48.2201 0001345 118.4794 241.6304 14.79928857 15969
KUIPER-00592            
1 69277U 26118L   26247.73939356 -.00005192  00000+0 -65296-3 0  9994
2 69277  51.9049  48.7731 0000605 102.0613 258.0417 14.79908910 15949
KUIPER-00593            
1 69278U 26118M   26247.91668981 -.00024672  00000+0 -24102-2 0  9992
2 69278  51.8958  30.9486 0005527 359.3666 317.3333 14.91710604  4489
KUIPER-00594            
1 69279U 26118N   26247.88792344  .00022340  00000+0  29494-2 0  9997
2 69279  51.9038  35.7383 0001889  48.6561 311.4563 14.79936087 16134
KUIPER-00595            
1 69280U 26118P   26247.91668981 -.00013087  00000+0 -11783-2 0  9994
2 69280  51.8928  31.0006 0005496  80.4309 335.6176 14.94495430  5030
KUIPER-00596            
1 69281U 26118Q   26247.44704801  .00001780  00000+0  26249-3 0  9994
2 69281  51.9022  55.1796 0000690 107.5939 252.5099 14.79925098 15821
KUIPER-00597            
1 69282U 26118R   26247.91668981 -.00051955  00000+0 -69030-2 0  9990
2 69282  51.8991  32.9896 0003529 239.8731 139.0326 14.79534711  5631
KUIPER-00599            
1 69283U 26118S   26247.81235623  .00002250  00000+0  32420-3 0  9999
2 69283  51.9013  43.4769 0001008 150.6928 209.4091 14.79917986 16027
KUIPER-00600            
1 69284U 26118T   26247.91668981 -.00023814  00000+0 -26529-2 0  9991
2 69284  51.8982  33.1335 0005706  65.2603   7.4271 14.86418812  5810
KUIPER-00601            
1 69285U 26118U   26247.70566249  .00001731  00000+0  25599-3 0  9992
2 69285  51.8999  49.0315 0000801  99.8840 260.2212 14.79927322 15931
KUIPER-00602            
1 69286U 26118V   26247.71375880 -.00000294  00000+0 -95019-5 0  9994
2 69286  51.9018  41.4130 0001120 160.8930 199.2075 14.79933804 16043
KUIPER-00603            
1 69287U 26118W   26247.86300188  .00002473  00000+0  35322-3 0  9998
2 69287  51.9042  43.3387 0000640 113.3637 246.7392 14.79945920 16029
KUIPER-00605            
1 69288U 26118X   26247.44974260  .00001707  00000+0  25296-3 0  9999
2 69288  51.8997  52.6514 0000617 112.3712 247.7315 14.79921525 15862
KUIPER-00606            
1 69289U 26118Y   26247.44094840  .00000490  00000+0  93305-4 0  9992
2 69289  51.9030  45.2053 0000574 139.5740 220.5265 14.79924189 15965
KUIPER-00607            
1 69290U 26118Z   26247.91668981 -.00040392  00000+0 -49021-2 0  9990
2 69290  51.9002  33.1473 0005542 109.5270 279.5005 14.83175269  5814
KUIPER-00608            
1 69291U 26118AA  26247.91668981 -.00032303  00000+0 -39082-2 0  9990
2 69291  51.9004  35.5080 0011572  94.5426 218.4920 14.83153823  4980
KUIPER-00610            
1 69292U 26118AB  26247.47739979  .00000428  00000+0  85146-4 0  9993
2 69292  51.9037  42.5422 0000645 108.5026 251.6006 14.79932478 16002
KUIPER-00613            
1 69293U 26118AC  26247.87179283  .00002629  00000+0  37358-3 0  9990
2 69293  51.9018  50.7992 0000695 101.3640 258.7401 14.79944544 15927
KUIPER-00618            
1 69294U 26118AD  26247.71661194  .00001407  00000+0  21273-3 0  9993
2 69294  51.9032  38.9922 0003098 133.1433 226.9789 14.80102089 16073
KUIPER-00620            
1 69295U 26118AE  26247.46052472  .00001504  00000+0  22628-3 0  9992
2 69295  51.9037  42.6269 0000459 111.9548 248.1464 14.79930942 16008
KUIPER-00423            
1 69592U 26140A   26247.91668981 -.00085836  00000+0 -53468-2 0  9992
2 69592  51.8926  14.2475 0013709  81.3262 294.7277 15.09349273  4958
KUIPER-00428            
1 69593U 26140B   26247.91668981  .00004947  00000+0  14222-3 0  9991
2 69593  51.8803  13.4694 0005806 209.0616 224.2855 15.37628298  5373
KUIPER-00481            
1 69594U 26140C   26247.91668981 -.00051224  00000+0 -62406-2 0  9990
2 69594  51.9019  17.6679 0012644  82.6950 106.3223 14.83080087  5420
KUIPER-00490            
1 69595U 26140D   26247.76638353  .00087897  00000+0  11467-1 0  9997
2 69595  51.9038  23.7175 0001363 131.0598 229.0482 14.79718997 13347
KUIPER-00493            
1 69596U 26140E   26247.79477748  .00001585  00000+0  23681-3 0  9993
2 69596  51.9029  28.6454 0000801 202.3778 157.7150 14.79934255 13278
KUIPER-00496            
1 69597U 26140F   26247.91668981 -.01039314  00000+0 -42556-1 0  9993
2 69597  51.8796  15.8087 0009825 225.0199 125.7043 15.26559601  5822
KUIPER-00513            
1 69598U 26140G   26247.91668981  .00003767  00000+0  52254-3 0  9992
2 69598  51.9002  23.1041 0001085  75.9187 185.4284 14.79962501  4097
KUIPER-00516            
1 69599U 26140H   26247.91668981 -.01095472  00000+0 -35602-1 0  9996
2 69599  51.8812  13.1125 0006652 172.5618  76.5853 15.34149100  4878
KUIPER-00517            
1 69600U 26140J   26247.73268018  .00028766  00000+0  78902-3 0  9997
2 69600  51.8786  13.8705 0010247 112.3110 247.8964 15.36998882 13479
KUIPER-00520            
1 69601U 26140K   26247.91668981  .00009380  00000+0  13603-2 0  9998
2 69601  51.9015  24.7231 0001368 136.5412  52.1525 14.76586045  4554
KUIPER-00522            
1 69602U 26140L   26247.91668981 -.00024815  00000+0 -16007-2 0  9992
2 69602  51.8895  14.5871 0015351  78.2532 170.0312 15.07439946  5893
KUIPER-00528            
1 69603U 26140M   26247.03774045  .00002011  00000+0  29281-3 0  9996
2 69603  51.9037  29.5020 0000709  95.1976 264.9068 14.79922244 13195
KUIPER-00532            
1 69604U 26140N   26247.91668981 -.00866639  00000+0 -39250-1 0  9996
2 69604  51.8868  14.0650 0003963 185.3174 333.7562 15.23234232  5909
KUIPER-00533            
1 69605U 26140P   26247.91668981  .00002767  00000+0  40463-3 0  9999
2 69605  51.9017  20.6006 0000783  96.2004 336.3557 14.78543565  4895
KUIPER-00534            
1 69606U 26140Q   26247.78641652 -.00009392  00000+0 -28002-3 0  9999
2 69606  51.8820  14.2470 0013354  82.7363 277.5139 15.32783210 13477
KUIPER-00537            
1 69607U 26140R   26247.91668981  .00027333  00000+0  36025-2 0  9995
2 69607  51.9005  28.0280 0000663 295.3690 174.0652 14.79900827  5769
KUIPER-00538            
1 69608U 26140S   26247.79734110  .00001680  00000+0  24897-3 0  9992
2 69608  51.9027  26.0741 0000869  76.6109 283.4950 14.79994737 13316
KUIPER-00540            
1 69609U 26140T   26247.37505309  .00019859  00000+0  53189-3 0  9996
2 69609  51.8822  16.0013 0005363 200.6360 159.4411 15.37995804 13418
KUIPER-00541            
1 69610U 26140U   26247.71873316  .00011085  00000+0  30564-3 0  9997
2 69610  51.8826  13.8206 0007600 136.8329 223.3255 15.37595169 13477
KUIPER-00542            
1 69611U 26140V   26247.78386292  .00018524  00000+0  50516-3 0  9991
2 69611  51.8795  13.4766 0007917 123.1211 237.0537 15.37471754 13489
KUIPER-00543            
1 69612U 26140W   26247.91668981 -.01254180  00000+0 -57372-1 0  9993
2 69612  51.8855  13.9591 0006458 215.9883 307.5829 15.23004636  5149
KUIPER-00544            
1 69613U 26140X   26247.78722400  .00011007  00000+0  30313-3 0  9990
2 69613  51.8800  13.4996 0005740 135.0386 225.1067 15.37649093 13489
KUIPER-00546            
1 69614U 26140Y   26247.91668981 -.00080920  00000+0 -53638-2 0  9995
2 69614  51.8937  14.5429 0019094  78.0359 241.9656 15.06966053  5527
KUIPER-00547            
1 69615U 26140Z   26247.64695704  .00015172  00000+0  39867-3 0  9993
2 69615  51.8833  14.0882 0010160 106.4626 253.7479 15.38761162 13464
KUIPER-00549            
1 69616U 26140AA  26247.91668981 -.00945128  00000+0 -32063-1 0  9995
2 69616  51.8812  13.3279 0006374 198.8602 289.5435 15.32847652  5277
KUIPER-00550            
1 69617U 26140AB  26247.74647695 -.00012006  00000+0 -42006-3 0  9996
2 69617  51.8821  17.6261 0009019 248.0520 111.9504 15.28042446 13426
KUIPER-00551            
1 69618U 26140AC  26247.63581252  .00017727  00000+0  47293-3 0  9997
2 69618  51.8788  13.9906 0012282  97.4275 262.8108 15.38143939 13463
KUIPER-00554            
1 69619U 26140AD  26247.91668981  .00003440  00000+0  10352-3 0  9997
2 69619  51.8778  12.7180 0010356 111.8077 321.7293 15.37188430  5347
KUIPER-00555            
1 69620U 26140AE  26247.77238042  .00019986  00000+0  52218-3 0  9993
2 69620  51.8827  13.4298 0010927  99.1487 261.0737 15.38715210 13485
KUIPER-00556            
1 69621U 26140AF  26247.91668981 -.00851088  00000+0 -78116-1 0  9991
2 69621  51.9302  16.1639 0015941  83.7830 180.9868 14.97174011  5168
KUIPER-00557            
1 69622U 26140AG  26247.72645617  .00015936  00000+0  42407-3 0  9990
2 69622  51.8831  13.8617 0008623 119.9214 240.2631 15.38341116 13471
KUIPER-00560            
1 69623U 26140AH  26247.61933963  .00003461  00000+0  10488-3 0  9997
2 69623  51.8811  14.6188 0009059 134.4092 225.7637 15.36948413 13455
KUIPER-00561            
1 69624U 26140AJ  26247.91668981 -.00000799  00000+0 -78735-4 0  9999
2 69624  51.9018  20.5603 0001768  31.9316 225.1044 14.78489803  5672
KUIPER-00564            
1 69625U 26140AK  26247.91668981 -.00039813  00000+0 -45888-2 0  9990
2 69625  51.8993  17.9113 0013845 108.1369  32.4777 14.85224660  5267
KUIPER-00567            
1 69626U 26140AL  26247.91668981 -.00042661  00000+0 -40464-2 0  9991
2 69626  51.8971  16.0212 0010937  82.0417 114.3921 14.93111554  5455
KUIPER-00573            
1 69627U 26140AM  26247.91668981 -.00049861  00000+0 -59427-2 0  9990
2 69627  51.9005  18.1835 0013987  67.5682 128.1527 14.83957891  5781
KUIPER-00258            
1 69763U 26151A   26247.91668981  .00013106  00000+0  50245-3 0  9994
2 69763  51.8703 291.9689 0011596 358.8621 176.2787 15.26772046  5289
KUIPER-00526            
1 69764U 26151B   26247.86952809  .00001270  00000+0  19563-3 0  9991
2 69764  51.8999 303.3876 0000554  80.5670 279.5355 14.79926993  9784
KUIPER-00558            
1 69765U 26151C   26246.68780452 -.00000145  00000+0  10043-4 0  9990
2 69765  51.8981 308.5347 0000538  97.6984 262.4040 14.79932793  9614
KUIPER-00569            
1 69766U 26151D   26247.51775036  .00001384  00000+0  21055-3 0  9995
2 69766  51.9029 302.3524 0000432  52.1340 307.9662 14.79929268  9778
KUIPER-00589            
1 69767U 26151E   26247.86405761  .00000628  00000+0  11988-3 0  9993
2 69767  51.9014 303.5261 0002326  29.3430 330.7661 14.76513207  9787
KUIPER-00598            
1 69768U 26151F   26247.91668981 -.00063918  00000+0 -70231-2 0  9993
2 69768  51.8995 295.7568 0011352   2.0416 127.2427 14.87429116  5375
KUIPER-00604            
1 69769U 26151G   26247.91668981  .00002743  00000+0  42035-3 0  9993
2 69769  51.9018 297.9242 0002651 323.7670  80.8199 14.76527416  4990
KUIPER-00609            
1 69770U 26151H   26247.91668981 -.00069250  00000+0 -87779-2 0  9996
2 69770  51.9011 295.1223 0002072  17.0252 348.2808 14.81658185  5386
KUIPER-00611            
1 69771U 26151J   26247.91668981  .00002116  00000+0  30698-3 0  9992
2 69771  51.8984 298.0917 0000309 344.5417 147.6730 14.79869230  3429
KUIPER-00612            
1 69772U 26151K   26247.91668981 -.00000783  00000+0 -80601-4 0  9993
2 69772  51.9008 300.3054 0000453  70.0513 324.3849 14.76620404  3784
KUIPER-00614            
1 69773U 26151L   26247.91668981  .00002982  00000+0  42019-3 0  9995
2 69773  51.8980 298.1610 0000778  62.9265 159.3096 14.79912574  5179
KUIPER-00615            
1 69774U 26151M   26247.86674025  .00000658  00000+0  12384-3 0  9996
2 69774  51.9022 303.0582 0000748 190.9235 169.1710 14.76599876  9795
KUIPER-00616            
1 69775U 26151N   26247.91668981 -.00052930  00000+0 -27619-2 0  9995
2 69775  51.8890 290.7634 0003683  84.1685 314.6203 15.15520962  5033
KUIPER-00617            
1 69776U 26151P   26247.91668981 -.00043361  00000+0 -42561-2 0  9997
2 69776  51.8974 293.4569 0006888 348.4130 126.2841 14.91795533  4287
KUIPER-00619            
1 69777U 26151Q   26247.91668981 -.00070305  00000+0 -79792-2 0  9992
2 69777  51.8972 295.2074 0003951  56.5827 213.0654 14.86212297  5446
KUIPER-00621            
1 69778U 26151R   26247.91668981  .00002104  00000+0  32554-3 0  9999
2 69778  51.9004 298.0359 0002262 119.3318 317.8766 14.77076546  2830
KUIPER-00622            
1 69779U 26151S   26247.78578354  .00000740  00000+0  13572-3 0  9992
2 69779  51.9011 302.2839 0000935  76.2917 283.8148 14.76547336  9798
KUIPER-00623            
1 69780U 26151T   26247.62671403  .00000818  00000+0  14674-3 0  9996
2 69780  51.8985 301.8078 0001433   9.0201 351.0785 14.76560041  9785
KUIPER-00626            
1 69781U 26151U   26247.91668981 -.00059640  00000+0 -62765-2 0  9998
2 69781  51.8964 295.7757 0007890  25.3731 160.5114 14.89160848  5746
KUIPER-00627            
1 69782U 26151V   26247.91668981 -.00568773  00000+0 -33937-1 0  9999
2 69782  51.8815 292.8346 0007763  25.6679  55.3252 15.13014581  5077
KUIPER-00629            
1 69783U 26151W   26247.57987458  .00001379  00000+0  20990-3 0  9994
2 69783  51.9027 307.0313 0000594  74.2528 285.8499 14.79935458  9719
KUIPER-00631            
1 69784U 26151X   26247.46170713  .00001377  00000+0  20949-3 0  9993
2 69784  51.9023 307.6151 0000444  99.4603 260.6410 14.79940642  9691
KUIPER-00634            
1 69785U 26151Y   26247.88915860  .00000516  00000+0  96686-4 0  9996
2 69785  51.9014 300.7300 0001815 114.7311 245.3840 14.79935128  9827
KUIPER-00639            
1 69786U 26151Z   26247.91668981 -.00063584  00000+0 -37448-2 0  9995
2 69786  51.8817 292.4805 0011508   7.4327 313.2703 15.11246050  3700
KUIPER-00641            
1 69787U 26151AA  26247.91668981 -.00026517  00000+0 -20898-2 0  9992
2 69787  51.8888 293.9093 0013594   3.9385 306.2744 15.00023450  5777
KUIPER-00644            
1 69788U 26151AB  26247.91668981 -.00012983  00000+0 -41348-3 0  9999
2 69788  51.8769 290.6543 0009090   2.8047 117.4603 15.31135564  5678
KUIPER-00646            
1 69789U 26151AC  26247.91668981 -.00035020  00000+0 -29014-2 0  9992
2 69789  51.8942 293.9974 0007822  18.2032 159.5514 14.98307757  5127
KUIPER-00647            
1 69790U 26151AD  26247.91668981 -.00019920  00000+0 -14847-2 0  9993
2 69790  51.8856 294.0193 0012256  10.3514 279.9253 15.01984818  4460
KUIPER-00662            
1 69791U 26151AE  26247.88134246  .00000696  00000+0  12969-3 0  9994
2 69791  51.9030 305.5573 0001445 324.6092  35.4773 14.76434918  9757
