GLOBALSTAR M069         
1 31573U 07020C   26248.32442056 -.00000076  00000+0  15389-3 0  9998
2 31573  52.0050  25.3032 0001222 330.4671  42.6076 12.23473690888612
GLOBALSTAR M072         
1 31574U 07020D   26248.06693809 -.00000065  00000+0  26319-3 0  9997
2 31574  51.9906 247.5850 0001331 100.3342 300.5962 11.91660052884505
GLOBALSTAR M066         
1 32265U 07048C   26248.28015103 -.00000099  00000+0 -41067-4 0  9990
2 32265  51.9582 187.9881 0004376 208.5238 316.7646 12.30391491870089
GLOBALSTAR M079         
1 37188U 10054A   26248.26009463 -.00000087  00000+0  91562-4 0  9991
2 37188  52.0019 224.9165 0000362 114.0395 259.6451 12.62267302732666
GLOBALSTAR M074         
1 37189U 10054B   26248.20733634 -.00000093  00000+0  59925-4 0  9994
2 37189  51.9997 224.3311 0000233  59.6856 313.3117 12.62263032733260
GLOBALSTAR M076         
1 37190U 10054C   26248.25364830 -.00000109  00000+0 -30730-4 0  9991
2 37190  52.0016 224.4009 0000154 128.3499 335.2078 12.62263458732989
GLOBALSTAR M077         
1 37191U 10054D   26247.68170565 -.00000063  00000+0  28027-3 0  9991
2 37191  51.9992 337.5283 0002363 326.1027 202.9066 11.67547970730422
GLOBALSTAR M075         
1 37192U 10054E   26248.26166111 -.00000090  00000+0  77912-4 0  9997
2 37192  51.9932 266.3864 0000375  86.4291 354.6608 12.62260427732054
GLOBALSTAR M073         
1 37193U 10054F   26248.28012078 -.00000099  00000+0  26945-4 0  9991
2 37193  52.0053 180.4893 0000387  92.2532  71.3056 12.62267897734044
GLOBALSTAR M083         
1 37739U 11033A   26248.13528411 -.00000111  00000+0 -41846-4 0  9995
2 37739  51.9849 129.0518 0000603  95.9667  69.0580 12.62258779703045
GLOBALSTAR M088         
1 37740U 11033B   26247.86936071 -.00000107  00000+0 -18273-4 0  9994
2 37740  52.0227  36.4773 0000742  91.4092  64.9344 12.62270154698552
GLOBALSTAR M091         
1 37741U 11033C   26248.33069256 -.00000100  00000+0  18436-4 0  9993
2 37741  52.0025 357.9240 0000811 106.0421 287.5199 12.62264640699404
GLOBALSTAR M085         
1 37742U 11033D   26248.15708545 -.00000088  00000+0  89118-4 0  9995
2 37742  52.0139 309.8176 0000655 116.5788 267.5956 12.62265004699890
GLOBALSTAR M081         
1 37743U 11033E   26248.18455454 -.00000089  00000+0  80042-4 0  9995
2 37743  51.9972 312.0782 0000459 124.0356 265.2443 12.62265978700046
GLOBALSTAR M089         
1 37744U 11033F   26248.23487162 -.00000079  00000+0  13889-3 0  9996
2 37744  51.9914 266.0679 0000144  37.3077  41.8628 12.62263291700895
GLOBALSTAR M084         
1 38040U 11080A   26248.10820377 -.00000097  00000+0  37357-4 0  9990
2 38040  52.0001 133.9747 0000402  57.9109 105.4526 12.62263977678858
GLOBALSTAR M080         
1 38041U 11080B   26248.15955666 -.00000108  00000+0 -21355-4 0  9991
2 38041  52.0052 135.5676 0001081  73.8181  91.0390 12.62258531678988
GLOBALSTAR M082         
1 38042U 11080C   26247.82438753 -.00000106  00000+0 -10544-4 0  9994
2 38042  52.0067  92.0930 0000969  89.2450 283.7326 12.62262696679650
GLOBALSTAR M092         
1 38043U 11080D   26248.22924473 -.00000095  00000+0  49469-4 0  9993
2 38043  52.0078 181.2623 0000478  59.8017 113.0441 12.62268357678157
GLOBALSTAR M090         
1 38044U 11080E   26248.28172765 -.00000107  00000+0 -16483-4 0  9994
2 38044  52.0113  84.6819 0000919  98.2681  72.7816 12.62268189679820
GLOBALSTAR M086         
1 38045U 11080F   26248.30216451 -.00000099  00000+0  27943-4 0  9991
2 38045  51.9887  84.4167 0000715 187.1358 344.3613 12.62289020679778
GLOBALSTAR M097         
1 39072U 13005A   26248.05942678 -.00000109  00000+0 -31584-4 0  9999
2 39072  52.0071   0.1948 0000779 110.2275 249.8675 12.62271270626994
GLOBALSTAR M093         
1 39073U 13005B   26248.27041957 -.00000096  00000+0  42405-4 0  9992
2 39073  52.0134 352.9331 0000833 125.6892 234.4053 12.62266898626973
GLOBALSTAR M094         
1 39074U 13005C   26248.19114885 -.00000086  00000+0  10014-3 0  9994
2 39074  51.9943 267.2140 0000445 125.9342 234.1566 12.62264706628578
GLOBALSTAR M096         
1 39075U 13005D   26248.20444362 -.00000083  00000+0  11442-3 0  9996
2 39075  52.0090 316.0362 0000690 113.6689 246.4250 12.62264205627493
GLOBALSTAR M078         
1 39076U 13005E   26248.09875815 -.00000111  00000+0 -42691-4 0  9999
2 39076  51.9883  40.2566 0001640  87.1193 272.9862 12.62260236626105
GLOBALSTAR M095         
1 39077U 13005F   26248.12533029 -.00000112  00000+0 -43946-4 0  9997
2 39077  52.0088  37.8909 0001170 102.6961 257.4037 12.62264503625968
GLOBALSTAR M087         
1 52888U 22064A   26248.13844749 -.00000099  00000+0  24987-4 0  9999
2 52888  51.9990 179.0460 0000586  86.2630 273.8304 12.62262668201233
