IRIDIUM 7               
1 24793U 97020B   26068.51657804  .00000494  00000+0  16271-3 0  9997
2 24793  86.3905  65.6703 0002021  80.3255 279.8170 14.36184661509977
IRIDIUM 5               
1 24795U 97020D   26068.41893382  .00004935  00000+0  37865-3 0  9997
2 24795  86.3894 321.1343 0099621 264.1297  94.8572 14.97630821525112
IRIDIUM 4               
1 24796U 97020E   26068.47254946  .00000524  00000+0  16983-3 0  9999
2 24796  86.3905  62.3865 0002181  84.7283 275.4163 14.37093115510564
IRIDIUM 914             
1 24836U 97030A   26068.49458869  .00000580  00000+0  17378-3 0  9998
2 24836  86.3876  70.1982 0003682  78.3867 281.7746 14.41160948645332
IRIDIUM 16              
1 24841U 97030F   26068.50685168  .00000438  00000+0  13563-3 0  9994
2 24841  86.3971  93.8327 0000179  27.3457 332.7751 14.38982479505151
IRIDIUM 911             
1 24842U 97030G   26068.51342728  .00000626  00000+0  16306-3 0  9995
2 24842  86.4395  92.3018 0012032 296.9626  63.0348 14.48016884513476
IRIDIUM 17              
1 24870U 97034B   26068.51536441  .00000450  00000+0  14207-3 0  9990
2 24870  86.3951 123.2683 0001712 139.5598 220.5728 14.38121026501719
IRIDIUM 920             
1 24871U 97034C   26068.50151911  .00000438  00000+0  12788-3 0  9993
2 24871  86.3922 101.8657 0009357 289.7293  70.2898 14.41823466504806
IRIDIUM 26              
1 24903U 97043A   26068.30080388  .00000582  00000+0  18815-3 0  9993
2 24903  86.4015 359.1829 0001968  83.5138 276.6283 14.37417002494823
IRIDIUM 22              
1 24907U 97043E   26068.31280769  .00000476  00000+0  15643-3 0  9991
2 24907  86.4018   2.9432 0002058  89.0633 271.0800 14.36197261494820
DUMMY MASS 1            
1 24925U 97048A   26068.33266365  .00000644  00000+0  68308-4 0  9998
2 24925  86.3387  12.6214 0004331 295.3823  64.6953 14.87276547544533
DUMMY MASS 2            
1 24926U 97048B   26068.33917961  .00000642  00000+0  68564-4 0  9996
2 24926  86.3385  14.2736 0005373 311.0008  49.0751 14.87026127544302
IRIDIUM 29              
1 24944U 97051A   26068.44712769  .00000530  00000+0  17323-3 0  9993
2 24944  86.3967  32.5100 0002292  90.5984 269.5476 14.36743633491356
IRIDIUM 33              
1 24946U 97051C   26068.44699351  .00000391  00000+0  13017-3 0  9997
2 24946  86.3883  31.7999 0005982 300.9137  59.1471 14.35101279490786
IRIDIUM 28              
1 24948U 97051E   26068.39323505  .00000549  00000+0  17641-3 0  9990
2 24948  86.3976  29.9002 0001706  79.3108 280.8282 14.37638206491949
IRIDIUM 36              
1 24967U 97056C   26068.52375071  .00000571  00000+0  18275-3 0  9995
2 24967  86.3916  61.4581 0001917  91.1730 268.9687 14.37872558490343
IRIDIUM 39              
1 25042U 97069D   26068.50884663  .00000737  00000+0  18593-3 0  9991
2 25042  86.3857  97.3979 0019265 134.8774 225.3999 14.49651860487397
IRIDIUM 38              
1 25043U 97069E   26068.51965929  .00000468  00000+0  14708-3 0  9993
2 25043  86.3948 121.6192 0001260  36.1156 324.0127 14.38413270484094
IRIDIUM 42              
1 25077U 97077A   26068.43577419  .00000411  00000+0  13301-3 0  9999
2 25077  86.3967 128.1594 0001905  74.1744 285.9663 14.36622104479271
IRIDIUM 44              
1 25078U 97077B   26068.50731131  .00000374  00000+0  11128-3 0  9994
2 25078  86.3924 109.3308 0001339 148.3421 211.7859 14.40511432481897
IRIDIUM 45              
1 25104U 97082A   26068.56110087  .00026684  00000+0  64803-3 0  9997
2 25104  86.3478 277.7017 0090008  48.6178 312.2767 15.36661972492584
IRIDIUM 24              
1 25105U 97082B   26068.20323197  .00000548  00000+0  15965-3 0  9993
2 25105  86.3942 327.8846 0009305 286.1722  73.8454 14.42440442481418
IRIDIUM 51              
1 25262U 98018A   26068.55563743  .01200164  91625-3  12685-2 0  9997
2 25262  86.3478 280.5630 0015746 278.3058  81.6449 16.10278801488337
IRIDIUM 57              
1 25273U 98019B   26068.45121027  .00000508  00000+0  16778-3 0  9994
2 25273  86.3967  33.9935 0002031  86.2353 273.9076 14.36124915462850
IRIDIUM 63              
1 25286U 98021B   26068.26447495  .00000456  00000+0  14777-3 0  9999
2 25286  86.4023 330.9261 0002289  90.5349 269.6110 14.36824522461905
IRIDIUM 69              
1 25319U 98026A   26068.29110803  .00000638  00000+0  19106-3 0  9997
2 25319  86.4028 343.3623 0001491 165.6873 194.4370 14.41321092461247
IRIDIUM 71              
1 25320U 98026B   26068.27236334  .00000538  00000+0  15988-3 0  9998
2 25320  86.4023 338.0394 0001000  14.2285 345.8942 14.41406461461771
IRIDIUM 73              
1 25344U 98032C   26068.53897281  .00000605  00000+0  14430-3 0  9990
2 25344  86.4381 294.1102 0002267 105.2283 254.9173 14.52122432469069
IRIDIUM 82              
1 25467U 98051A   26068.20464276  .00090343  00000+0  11309-2 0  9994
2 25467  86.3596 337.2536 0047671   0.2640 359.8639 15.58082726464808
