IRIDIUM 7               
1 24793U 97020B   26080.91833556  .00000354  00000+0  11458-3 0  9992
2 24793  86.3923  60.4616 0001877  84.6369 275.5042 14.36193966511752
IRIDIUM 5               
1 24795U 97020D   26080.91329559  .00004820  00000+0  36817-3 0  9995
2 24795  86.3871 315.3424 0100273 218.0559 141.3562 14.97733692526980
IRIDIUM 4               
1 24796U 97020E   26080.93609994  .00000394  00000+0  12605-3 0  9993
2 24796  86.3926  57.1442 0002140  85.2598 274.8844 14.37103121512357
IRIDIUM 914             
1 24836U 97030A   26080.71468492  .00000423  00000+0  12515-3 0  9994
2 24836  86.3891  65.0200 0003206  62.0610 298.0914 14.41171938647097
IRIDIUM 16              
1 24841U 97030F   26080.95405798  .00000362  00000+0  11100-3 0  9997
2 24841  86.3966  88.5898 0001331 159.4413 200.6839 14.38991611506945
IRIDIUM 911             
1 24842U 97030G   26080.95212580  .00000514  00000+0  13300-3 0  9996
2 24842  86.4392  87.0480 0011969 247.9148 112.0785 14.48030177515271
IRIDIUM 17              
1 24870U 97034B   26080.83086567  .00000355  00000+0  11048-3 0  9992
2 24870  86.3928 118.0846 0002748 128.4123 231.7322 14.38129691503483
IRIDIUM 920             
1 24871U 97034C   26080.78541899  .00000344  00000+0  99214-4 0  9991
2 24871  86.3911  96.6605 0009523 240.0984 119.9271 14.41832488506576
IRIDIUM 26              
1 24903U 97043A   26080.83115691  .00000379  00000+0  12031-3 0  9999
2 24903  86.4015 353.9241 0001977  88.2139 271.9285 14.37427478496624
IRIDIUM 22              
1 24907U 97043E   26080.85380349  .00000337  00000+0  10896-3 0  9990
2 24907  86.4020 357.6908 0002167  90.3577 269.7869 14.36206157496628
DUMMY MASS 1            
1 24925U 97048A   26080.84698566  .00000447  00000+0  46457-4 0  9992
2 24925  86.3397   6.8369 0004576 227.5743 132.5096 14.87288394546391
DUMMY MASS 2            
1 24926U 97048B   26080.85560499  .00000441  00000+0  46107-4 0  9993
2 24926  86.3397   8.4901 0005049 246.6343 113.4351 14.87037913546162
IRIDIUM 29              
1 24944U 97051A   26080.91370512  .00000396  00000+0  12771-3 0  9997
2 24944  86.3987  27.2778 0002364  87.5963 272.5504 14.36754064493148
IRIDIUM 33              
1 24946U 97051C   26080.92783992  .00000264  00000+0  85602-4 0  9998
2 24946  86.3904  26.5636 0005815 245.6479 114.4111 14.35108340492570
IRIDIUM 28              
1 24948U 97051E   26080.85206451  .00000391  00000+0  12385-3 0  9990
2 24948  86.3998  24.6653 0001667  91.3154 268.8235 14.37648148493737
IRIDIUM 36              
1 24967U 97056C   26080.91095769  .00000400  00000+0  12624-3 0  9998
2 24967  86.3938  56.2430 0002076  94.2562 265.8873 14.37882941492124
IRIDIUM 39              
1 25042U 97069D   26080.72645349  .00000612  00000+0  15348-3 0  9992
2 25042  86.3850  92.1456 0019922  98.0998 262.2467 14.49666813489163
IRIDIUM 38              
1 25043U 97069E   26080.83265336  .00000361  00000+0  11200-3 0  9993
2 25043  86.3924 116.4336 0000411 115.8657 244.2584 14.38422687485866
IRIDIUM 42              
1 25077U 97077A   26080.62480676  .00000365  00000+0  11754-3 0  9990
2 25077  86.3944 123.0439 0001530  84.3383 275.7988 14.36631105481028
IRIDIUM 44              
1 25078U 97077B   26080.80239772  .00000281  00000+0  82086-4 0  9994
2 25078  86.3905 104.1314 0002522 136.6080 223.5318 14.40518809483665
IRIDIUM 45              
1 25104U 97082A   26080.93129487  .00031018  00000+0  74404-3 0  9991
2 25104  86.3466 271.5427 0086935   1.7469 358.4069 15.37294648494486
IRIDIUM 24              
1 25105U 97082B   26080.89808545  .00000505  00000+0  14662-3 0  9993
2 25105  86.3922 322.5012 0009407 234.7095 125.3226 14.42454153483245
IRIDIUM 57              
1 25273U 98019B   26080.85348397  .00000356  00000+0  11551-3 0  9998
2 25273  86.3988  28.7937 0002044  88.6251 271.5181 14.36134102464632
IRIDIUM 63              
1 25286U 98021B   26080.93928439  .00000335  00000+0  10670-3 0  9993
2 25286  86.4003 325.6115 0002364  87.3435 272.8033 14.36833349463725
IRIDIUM 69              
1 25319U 98026A   26080.99581817  .00000486  00000+0  14408-3 0  9996
2 25319  86.4017 337.9977 0002936 139.3320 220.8100 14.41333917463073
IRIDIUM 71              
1 25320U 98026B   26080.97632632  .00000372  00000+0  10869-3 0  9999
2 25320  86.4007 332.6733 0000566 159.3205 200.8018 14.41417107463606
IRIDIUM 73              
1 25344U 98032C   26080.59799984  .00000483  00000+0  11420-3 0  9991
2 25344  86.4363 288.9797 0002702 100.1388 260.0123 14.52134152470814
IRIDIUM 82              
1 25467U 98051A   26080.65653160  .00088733  00000+0  10457-2 0  9992
2 25467  86.3574 330.8634 0042587 308.5618  51.1834 15.59942229466740
