KUIPER-00008            
1 63724U 25088A   26208.25265092  .00000731  00000+0  12479-3 0  9990
2 63724  51.8998 190.8604 0000518  49.8189 310.2819 14.79944642 68711
KUIPER-00009            
1 63725U 25088B   26206.23172936  .00001776  00000+0  25458-3 0  9992
2 63725  51.9019 217.3295 0000391  53.7054 306.3945 14.81172074 68162
KUIPER-00010            
1 63726U 25088C   26208.62946347  .00001100  00000+0  17317-3 0  9999
2 63726  51.9019 184.2984 0000583  50.6077 309.4937 14.79950904 68454
KUIPER-00011            
1 63727U 25088D   26208.38502450 -.00001889  00000+0 -21892-3 0  9995
2 63727  51.8989 192.9283 0000649  39.1436 320.9573 14.79926494 68442
KUIPER-00012            
1 63728U 25088E   26208.29990477  .00001804  00000+0  26541-3 0  9997
2 63728  51.9013 178.2408 0000515  55.3685 304.7326 14.79953003 68594
KUIPER-00013            
1 63729U 25088F   26208.23107616 -.00001361  00000+0 -14959-3 0  9997
2 63729  51.9011 211.0629 0000382  23.7252 336.3728 14.79935144 68239
KUIPER-00014            
1 63730U 25088G   26208.19731170  .00000758  00000+0  12833-3 0  9998
2 63730  51.9011 211.1559 0000421  49.5368 310.5631 14.79950035 68044
KUIPER-00015            
1 63731U 25088H   26208.42289422  .00000487  00000+0  92852-4 0  9992
2 63731  51.8980 220.2168 0000382  53.6451 306.4547 14.79926268 68390
KUIPER-00016            
1 63732U 25088J   26208.39720003  .00000360  00000+0  76222-4 0  9997
2 63732  51.8979 212.7852 0000504  66.6421 293.4595 14.79921951 68035
KUIPER-00018            
1 63733U 25088K   26208.37424184  .00000769  00000+0  12982-3 0  9992
2 63733  51.9023 202.9198 0000492  46.2737 313.8267 14.79946591 68176
KUIPER-00019            
1 63734U 25088L   26208.40090456  .00001095  00000+0  17258-3 0  9992
2 63734  51.8993 201.5576 0000492  51.9039 308.1968 14.79947795 68199
KUIPER-00020            
1 63735U 25088M   26208.37161498  .00000911  00000+0  14850-3 0  9995
2 63735  51.9008 205.4335 0000647  48.0302 312.0715 14.79939657 68345
KUIPER-00021            
1 63736U 25088N   26208.40530156  .00000654  00000+0  11477-3 0  9997
2 63736  51.8993 205.2379 0000460  63.5574 296.5435 14.79923244 68182
KUIPER-00023            
1 63737U 25088P   26208.23383803  .00001621  00000+0  24152-3 0  9993
2 63737  51.8992 208.4868 0000441  46.5577 313.5422 14.79934194 68422
KUIPER-00024            
1 63738U 25088Q   26208.31477811 -.00002121  00000+0 -24922-3 0  9999
2 63738  51.9022 195.7298 0001957  80.8112 279.3072 14.79931083 68730
KUIPER-00025            
1 63739U 25088R   26208.47550476  .00001302  00000+0  19972-3 0  9993
2 63739  51.9023 202.4994 0000648  36.1578 323.9428 14.79948899 68517
KUIPER-00027            
1 63740U 25088S   26208.17698670  .00001363  00000+0  20765-3 0  9990
2 63740  51.9000 198.7848 0000406  50.1169 309.9829 14.79957095 68273
KUIPER-00028            
1 63741U 25088T   26208.34848428  .00000823  00000+0  13686-3 0  9992
2 63741  51.8993 195.4764 0000568  43.0258 317.0748 14.79957719 68749
KUIPER-00029            
1 63742U 25088U   26208.32456183  .00002979  00000+0  41963-3 0  9997
2 63742  51.9001 194.2691 0000764   8.7489 351.3487 14.79926533 68289
KUIPER-00030            
1 63743U 25088V   26208.02577633  .00000706  00000+0  12150-3 0  9991
2 63743  51.9002 214.4152 0000354  36.8101 323.2886 14.79950331 68268
KUIPER-00031            
1 63744U 25088W   26208.14319928  .00003042  00000+0  42791-3 0  9996
2 63744  51.8983 198.9175 0001053 106.1662 253.9416 14.79925937 68203
KUIPER-00032            
1 63745U 25088X   26208.05282959  .00014361  00000+0  34900-3 0  9999
2 63745  51.8661  68.2218 0002938 251.0541 109.0129 15.41237025 71012
KUIPER-00033            
1 63746U 25088Y   26208.04336638  .00002588  00000+0  36816-3 0  9999
2 63746  51.8989 229.3609 0000297  45.6376 314.4611 14.79955667 68258
KUIPER-00034            
1 63747U 25088Z   26208.15135396  .00000668  00000+0  11657-3 0  9993
2 63747  51.9012 191.4162 0000748  56.4066 303.6968 14.79951095 68477
KUIPER-00035            
1 63748U 25088AA  26208.39449982  .00000661  00000+0  11564-3 0  9999
2 63748  51.8991 215.3142 0000446  35.7619 324.3373 14.79950770 68217
KUIPER-00037            
1 63749U 25088AB  26208.38742310  .00000586  00000+0  10586-3 0  9999
2 63749  51.8998 214.2027 0000393  57.3410 302.7591 14.79926948 69016
KUIPER-00038            
1 63750U 25088AC  26208.17432956  .00000830  00000+0  13777-3 0  9997
2 63750  51.9011 201.3129 0000469  56.3348 303.7659 14.79943632 68179
KUIPER-00039            
1 64500U 25134A   26208.34948668  .00004077  00000+0  56355-3 0  9990
2 64500  51.9025 335.5360 0000532  99.3925 260.7098 14.79929679 60754
KUIPER-00040            
1 64501U 25134B   26208.64260316  .00004248  00000+0  58582-3 0  9995
2 64501  51.8998 344.3146 0000500 112.5665 247.5350 14.79937856 60656
KUIPER-00041            
1 64502U 25134C   26208.40354158  .00004079  00000+0  56377-3 0  9990
2 64502  51.8991 347.7570 0000932 114.4558 245.6502 14.79934223 60584
KUIPER-00042            
1 64503U 25134D   26208.64528863  .00004389  00000+0  60420-3 0  9991
2 64503  51.9004 341.6681 0000527 105.6511 254.4510 14.79940665 60694
KUIPER-00043            
1 64504U 25134E   26208.38323721  .00004162  00000+0  57453-3 0  9990
2 64504  51.9028 335.3277 0000511 116.0262 244.0753 14.79937881 60762
KUIPER-00044            
1 64505U 25134F   26208.63988842  .00004411  00000+0  60714-3 0  9991
2 64505  51.9003 346.6942 0000471 112.0956 248.0057 14.79942210 60629
KUIPER-00046            
1 64506U 25134G   26208.33867828  .00004057  00000+0  56079-3 0  9994
2 64506  51.8992 345.5011 0000618  89.1269 270.9764 14.79942467 60617
KUIPER-00047            
1 64507U 25134H   26208.26704644  .00001111  00000+0  17471-3 0  9994
2 64507  51.9000 318.3440 0000476 105.7974 254.3041 14.79945792 60981
KUIPER-00048            
1 64508U 25134J   26208.30079416  .00008112  00000+0  10909-2 0  9998
2 64508  51.9004 318.2080 0000219 319.6908  40.4038 14.79967671 60994
KUIPER-00049            
1 64509U 25134K   26208.38863236  .00004173  00000+0  57595-3 0  9994
2 64509  51.9014 330.2855 0000431 103.5488 256.5522 14.79939520 60832
KUIPER-00050            
1 64510U 25134L   26208.33999253  .00003804  00000+0  52770-3 0  9990
2 64510  51.9007 313.0228 0000341 107.2977 252.8022 14.79937855 61073
KUIPER-00051            
1 64511U 25134M   26208.29702620 -.00007516  00000+0 -95833-3 0  9999
2 64511  51.9063 329.3845 0000303 229.7948 130.2987 14.79917900 60838
KUIPER-00053            
1 64513U 25134P   26207.62877975  .00002639  00000+0  35988-3 0  9997
2 64513  51.9015 327.4426 0000731   7.0524 353.0449 14.81707267 60804
KUIPER-00054            
1 64514U 25134Q   26208.36565831 -.00006615  00000+0 -83941-3 0  9997
2 64514  51.8982 320.3977 0000769 100.8998 259.2051 14.79941307 60963
KUIPER-00055            
1 64515U 25134R   26208.58573199  .00003059  00000+0  43010-3 0  9998
2 64515  51.9011 272.0636 0000340  79.8291 280.2710 14.79926663 61661
KUIPER-00056            
1 64516U 25134S   26208.59665034  .00004204  00000+0  58007-3 0  9995
2 64516  51.9036 324.4771 0000414 107.5596 252.5411 14.79938380 60938
KUIPER-00057            
1 64517U 25134T   26208.31842215  .00004482  00000+0  61645-3 0  9994
2 64517  51.8998 333.1336 0000430  99.4252 260.6759 14.79939148 60786
KUIPER-00058            
1 64518U 25134U   26208.62769878  .00000158  00000+0  49685-4 0  9999
2 64518  51.9003 326.7398 0000480 120.0570 240.0440 14.79920494 60907
KUIPER-00059            
1 64519U 25134V   26208.29544494  .00004194  00000+0  57874-3 0  9990
2 64519  51.9006 323.2479 0000397 111.5143 248.5862 14.79940044 60927
KUIPER-00060            
1 64520U 25134W   26208.32923031  .00003925  00000+0  54359-3 0  9990
2 64520  51.9024 323.1648 0000553  96.7208 263.3817 14.79935536 60910
KUIPER-00061            
1 64521U 25134X   26208.62499103  .00002834  00000+0  40062-3 0  9996
2 64521  51.9003 329.3067 0001088 111.7764 248.3314 14.79927794 60855
KUIPER-00062            
1 64522U 25134Y   26208.35217831  .00003963  00000+0  54852-3 0  9999
2 64522  51.8959 332.9815 0000584 111.6861 248.4163 14.79936455 60793
KUIPER-00063            
1 64523U 25134Z   26208.34408586  .00004135  00000+0  57100-3 0  9999
2 64523  51.9030 340.5811 0000450 106.1408 253.9604 14.79939510 60688
KUIPER-00064            
1 64524U 25134AA  26208.34679386  .00004092  00000+0  56546-3 0  9993
2 64524  51.9039 337.9945 0000508 109.1610 250.9408 14.79935003 60725
KUIPER-00065            
1 64525U 25134AB  26208.40894755  .00004083  00000+0  56422-3 0  9993
2 64525  51.9046 342.8907 0000539 113.2952 246.8067 14.79937230 60646
KUIPER-00066            
1 64526U 25134AC  26208.17245114 -.00001190  00000+0 -12724-3 0  9992
2 64526  51.9019 281.2130 0000074  11.0275 349.0689 14.79921274 61501
KUIPER-00069            
1 64816U 25151A   26208.43333045  .00004000  00000+0  55338-3 0  9992
2 64816  51.9021  22.6986 0000799 107.8237 252.2812 14.79938167 57459
KUIPER-00070            
1 64817U 25151B   26208.57515885 -.00007293  00000+0 -92849-3 0  9999
2 64817  51.8978  46.9790 0001626  99.9713 260.1433 14.79937126 57138
KUIPER-00071            
1 64818U 25151C   26208.57787362  .00002271  00000+0  32680-3 0  9997
2 64818  51.9018  44.5101 0000289  53.9520 306.1469 14.79924405 55982
KUIPER-00072            
1 64819U 25151D   26208.49814213 -.00001786  00000+0 -20530-3 0  9998
2 64819  51.9028  24.8045 0001279 117.2475 242.8618 14.79923991 56257
KUIPER-00073            
1 64820U 25151E   26208.54410696  .00003689  00000+0  51254-3 0  9992
2 64820  51.9004  44.6406 0000667 109.1088 250.9946 14.79937304 57162
KUIPER-00074            
1 64821U 25151F   26200.22359862  .00365209  71752-4  52861-3 0  9998
2 64821  51.8723 336.2423 0006386 301.9766  58.0628 16.04703404 56196
KUIPER-00075            
1 64822U 25151G   26208.48091266  .00016943  00000+0  35278-3 0  9990
2 64822  51.8655 259.2514 0004318  45.1682 314.9659 15.45712687 57997
KUIPER-00076            
1 64823U 25151H   26208.55488882  .00003934  00000+0  54468-3 0  9991
2 64823  51.9004  34.6132 0000580 115.5275 244.5748 14.79940926 56121
KUIPER-00077            
1 64824U 25151J   26208.54951121  .00003731  00000+0  51807-3 0  9991
2 64824  51.9015  39.6564 0000693 114.0532 246.0503 14.79937649 56059
KUIPER-00078            
1 64825U 25151K   26207.97819239  .00003960  00000+0  54806-3 0  9997
2 64825  51.9004  39.6593 0000651 109.3132 250.7901 14.79936558 56004
KUIPER-00079            
1 64826U 25151L   26208.54679861  .00003705  00000+0  51476-3 0  9994
2 64826  51.8997  42.1045 0000645 103.6054 256.4980 14.79933712 57212
KUIPER-00080            
1 64827U 25151M   26208.58054504  .00009183  00000+0  12311-2 0  9990
2 64827  51.9019  41.9662 0000489 121.5584 238.5426 14.79961700 56026
KUIPER-00082            
1 64828U 25151N   26208.49274902  .00003873  00000+0  53661-3 0  9991
2 64828  51.9017  29.9088 0000680 117.4640 242.6392 14.79941853 56185
KUIPER-00083            
1 64829U 25151P   26208.55219327  .00002607  00000+0  37079-3 0  9998
2 64829  51.9013  37.1292 0000589 119.0400 241.0621 14.79941901 57273
KUIPER-00084            
1 64830U 25151Q   26208.54140567  .00003767  00000+0  52295-3 0  9993
2 64830  51.9012  47.1624 0000675 112.1310 247.9724 14.79929265 55944
KUIPER-00085            
1 64831U 25151R   26208.59406243  .00004112  00000+0  56791-3 0  9995
2 64831  51.9031  29.5100 0000710 108.8542 251.2498 14.79941157 56196
KUIPER-00086            
1 64832U 25151S   26207.97548529  .00004161  00000+0  57445-3 0  9992
2 64832  51.9013  42.1891 0000613 114.9989 245.1037 14.79935888 55969
KUIPER-00087            
1 64833U 25151T   26208.53460895  .00003870  00000+0  53625-3 0  9997
2 64833  51.8998  22.1776 0000721 116.6205 243.4831 14.79943713 56286
KUIPER-00089            
1 64834U 25151U   26208.52921871  .00003930  00000+0  54414-3 0  9997
2 64834  51.9002  27.2235 0000626 106.9828 253.1203 14.79940030 56221
KUIPER-00090            
1 64835U 25151V   26208.53729593 -.00000740  00000+0 -68049-4 0  9994
2 64835  51.8991  19.6915 0000611 111.0843 249.0185 14.79930690 56321
KUIPER-00091            
1 64836U 25151W   26208.53190825  .00003941  00000+0  54551-3 0  9991
2 64836  51.9011  24.7299 0000658 118.9303 241.1725 14.79942293 56253
KUIPER-00092            
1 64837U 25151X   26208.52381588  .00000755  00000+0  12798-3 0  9996
2 64837  51.9005  32.2560 0000590 101.7980 258.3049 14.79936492 57364
KUIPER-00093            
1 64838U 25151Y   26207.98088080  .00003715  00000+0  51601-3 0  9992
2 64838  51.9001  37.1305 0000627 108.1327 251.9703 14.79931893 56038
KUIPER-00094            
1 64839U 25151Z   26208.43464556  .00004117  00000+0  56857-3 0  9995
2 64839  51.9048 350.2191 0000824 127.6210 232.4827 14.79940526 56739
KUIPER-00081            
1 65132U 25171A   26208.50868922  .00002584  00000+0  36780-3 0  9996
2 65132  51.8982 249.7945 0000320  56.9663 303.1330 14.79933724 53743
KUIPER-00088            
1 65133U 25171B   26208.55735210  .00002961  00000+0  41714-3 0  9997
2 65133  51.8982 267.0809 0000340  80.5556 279.5445 14.79936410 53504
KUIPER-00095            
1 65134U 25171C   26208.51140339  .00002570  00000+0  36599-3 0  9997
2 65134  51.8969 247.3299 0000333  60.3015 299.7981 14.79927910 53775
KUIPER-00096            
1 65135U 25171D   26208.12650125  .00002808  00000+0  39713-3 0  9999
2 65135  51.8977 261.4820 0000241  79.1472 280.9517 14.79936719 53544
KUIPER-00097            
1 65136U 25171E   26208.52900279  .00002784  00000+0  39402-3 0  9990
2 65136  51.9005 262.3619 0000296  75.0783 285.0213 14.79934811 53555
KUIPER-00098            
1 65137U 25171F   26208.59381836  .00002959  00000+0  41694-3 0  9990
2 65137  51.8995 264.4398 0000317  70.9311 289.1686 14.79940396 52884
KUIPER-00099            
1 65138U 25171G   26208.50331575 -.00000849  00000+0 -82349-4 0  9998
2 65138  51.9023 254.8461 0000426 119.0187 241.0818 14.79924556 53660
KUIPER-00100            
1 65139U 25171H   26208.53977342  .00002641  00000+0  37538-3 0  9999
2 65139  51.8998 252.1546 0000342  64.8718 295.2280 14.79929123 53704
KUIPER-00102            
1 65140U 25171J   26208.53707310  .00002674  00000+0  37967-3 0  9999
2 65140  51.8972 254.6499 0000436  58.7753 301.3253 14.79932969 53663
KUIPER-00103            
1 65141U 25171K   26208.55195477  .00002832  00000+0  40029-3 0  9996
2 65141  51.8980 272.0828 0000325  81.3780 278.7219 14.79941691 53427
KUIPER-00104            
1 65142U 25171L   26208.16025869  .00002719  00000+0  38552-3 0  9993
2 65142  51.9013 261.3190 0000334  85.3363 274.7638 14.79928236 53544
KUIPER-00105            
1 65143U 25171M   26208.11841631  .00003015  00000+0  42429-3 0  9990
2 65143  51.8995 269.1033 0000359  85.3320 274.7683 14.79932491 53431
KUIPER-00106            
1 65144U 25171N   26208.09912213 -.00001376  00000+0 -15153-3 0  9997
2 65144  51.9023 247.9538 0000296  85.0494 275.0502 14.79934270 53732
KUIPER-00107            
1 65145U 25171P   26208.54247371  .00002551  00000+0  36355-3 0  9995
2 65145  51.8989 249.6697 0000307  57.6936 302.4056 14.79930404 53742
KUIPER-00108            
1 65146U 25171Q   26207.88745152  .00000744  00000+0  12654-3 0  9990
2 65146  51.9027 265.1038 0000472  74.7670 285.3345 14.79927337 53478
KUIPER-00109            
1 65147U 25171R   26208.12918413  .00000192  00000+0  54183-4 0  9992
2 65147  51.9011 258.9784 0000676  73.3933 286.7104 14.79934751 53570
KUIPER-00110            
1 65148U 25171S   26208.21701406  .00003009  00000+0  42358-3 0  9995
2 65148  51.8997 271.1463 0000348  84.6205 275.4797 14.79925755 53406
KUIPER-00111            
1 65149U 25171T   26208.17784601  .00006901  00000+0  93386-3 0  9990
2 65149  51.8937 276.1916 0001083 100.1050 260.0034 14.79910107 53339
KUIPER-00112            
1 65150U 25171U   26208.16296779  .00002772  00000+0  39245-3 0  9991
2 65150  51.9002 258.8764 0000304  81.8334 278.2663 14.79929097 53571
KUIPER-00114            
1 65151U 25171V   26208.58031157  .00003248  00000+0  45469-3 0  9999
2 65151  51.8990 276.9993 0000271  82.7438 277.3555 14.79948063 53350
KUIPER-00115            
1 65152U 25171W   26208.58843111  .00002929  00000+0  41310-3 0  9997
2 65152  51.9001 269.4670 0000341  82.2926 277.8075 14.79932188 53464
KUIPER-00116            
1 65153U 25171X   26208.54927964  .00003109  00000+0  43668-3 0  9992
2 65153  51.8999 274.6739 0000544  95.3229 264.7795 14.79932838 53387
KUIPER-00118            
1 65154U 25171Y   26208.54654977  .00003141  00000+0  44081-3 0  9990
2 65154  51.8992 277.1358 0000508  99.8078 260.2942 14.79931198 53357
KUIPER-00119            
1 65155U 25171Z   26208.15489155  .00002974  00000+0  41899-3 0  9999
2 65155  51.9002 266.4642 0000195  18.7167 341.3802 14.79926242 53461
KUIPER-00120            
1 65762U 25217A   26208.25664632  .00003626  00000+0  50443-3 0  9990
2 65762  51.8979 155.8880 0000767  83.0807 277.0242 14.79926693 45401
KUIPER-00132            
1 65763U 25217B   26208.55690958  .00053165  00000+0  11593-2 0  9999
2 65763  51.8528  42.3372 0007611 112.0840 248.0958 15.43691969 47000
KUIPER-00133            
1 65764U 25217C   26208.15535007  .00010207  00000+0  13652-2 0  9997
2 65764  51.9021 156.4509 0000685  87.4418 272.6623 14.79952032 45390
KUIPER-00139            
1 65765U 25217D   26208.19038831 -.00001093  00000+0 -11438-3 0  9991
2 65765  51.8988 123.7474 0000828  93.8640 266.2417 14.79935987 45858
KUIPER-00142            
1 65766U 25217E   26208.20798341  .00000878  00000+0  14418-3 0  9992
2 65766  51.8980 138.6314 0000707  97.5748 262.5294 14.79931405 45645
KUIPER-00145            
1 65767U 25217F   26208.00270381  .00003723  00000+0  51689-3 0  9993
2 65767  51.8985 142.0615 0000844  95.4329 264.6730 14.79954456 45579
KUIPER-00147            
1 65768U 25217G   26208.23635139  .00000424  00000+0  84629-4 0  9991
2 65768  51.8970 143.5070 0001039 131.5184 228.5868 14.79929628 45577
KUIPER-00148            
1 65769U 25217H   26208.18769319 -.00002134  00000+0 -25108-3 0  9992
2 65769  51.9041 126.2443 0000979 103.1388 256.9684 14.79928849 45815
KUIPER-00150            
1 65770U 25217J   26208.56321681 -.00000043  00000+0  23432-4 0  9997
2 65770  51.8995 152.1020 0000932  70.1400 289.9663 14.79928925 45481
KUIPER-00151            
1 65771U 25217K   26208.03106177 -.00005735  00000+0 -72396-3 0  9997
2 65771  51.8993 146.9504 0000970  79.7683 280.3389 14.79927954 45513
KUIPER-00152            
1 65772U 25217L   26208.01079786  .00003997  00000+0  55304-3 0  9997
2 65772  51.8997 134.5239 0000795  85.3473 274.7581 14.79930997 45681
KUIPER-00153            
1 65773U 25217M   26208.08372551  .00004234  00000+0  58395-3 0  9999
2 65773  51.9014 129.2790 0000846  97.7124 262.3934 14.79940454 45766
KUIPER-00155            
1 65774U 25217N   26208.11336651 -.00010346  00000+0 -13298-2 0  9990
2 65774  51.9035 101.6138 0001815  90.7573 269.3598 14.79941506 46154
KUIPER-00156            
1 65775U 25217P   26207.98241954  .00003973  00000+0  54979-3 0  9994
2 65775  51.9013 129.7094 0000863  93.1104 266.9957 14.79933383 45742
KUIPER-00163            
1 65777U 25217R   26207.75621728  .05224431  12272-4  65873-3 0  9995
2 65777  51.8570  55.1298 0009117 275.3767  84.6221 16.35051133 46747
KUIPER-00165            
1 65778U 25217S   26208.10668928 -.00000901  00000+0 -89147-4 0  9992
2 65778  51.9002 139.1015 0000785  98.0018 262.1034 14.79933368 45626
KUIPER-00166            
1 65779U 25217T   26208.15392996  .00001045  00000+0  16610-3 0  9999
2 65779  51.9010 126.4435 0000635 104.7979 255.3053 14.79921516 45803
KUIPER-00167            
1 65780U 25217U   26208.02837115  .00000418  00000+0  83865-4 0  9994
2 65780  51.8944 149.3519 0000747  85.5099 274.5949 14.79929812 45477
KUIPER-00168            
1 65781U 25217V   26207.97972802  .00003949  00000+0  54667-3 0  9990
2 65781  51.9003 132.1681 0000848  92.6645 267.4415 14.79934605 45715
KUIPER-00169            
1 65782U 25217W   26208.17691197 -.00001528  00000+0 -17151-3 0  9999
2 65782  51.9031 136.3048 0000533 114.7014 245.4004 14.79932595 45678
KUIPER-00170            
1 65783U 25217X   26208.03644705 -.00001195  00000+0 -12778-3 0  9998
2 65783  51.8982 141.8826 0000822  83.8512 276.2545 14.79930859 45581
KUIPER-00172            
1 65785U 25217Z   26208.15662883 -.00000240  00000+0 -25242-5 0  9992
2 65785  51.8985 123.8802 0001004 108.0959 252.0113 14.79922337 45842
KUIPER-00173            
1 65786U 25217AA  26208.21070659  .00010706  00000+0  14320-2 0  9992
2 65786  51.8994 136.1508 0001131 123.4899 236.6171 14.79907272 45672
KUIPER-00174            
1 65787U 25217AB  26208.08100719  .00002858  00000+0  40340-3 0  9990
2 65787  51.9013 131.7763 0000750 101.5882 258.5165 14.79966195 45726
KUIPER-00176            
1 65788U 25217AC  26208.19989228 -.00001005  00000+0 -10289-3 0  9997
2 65788  51.8993 146.1822 0000796  85.0728 275.0326 14.79931782 45530
KUIPER-00101            
1 65947U 25228A   26208.14442751  .00004297  00000+0  59220-3 0  9998
2 65947  51.8977 103.8828 0000778 106.2787 253.8261 14.79940291 43889
KUIPER-00113            
1 65948U 25228B   26208.11606147 -.00001746  00000+0 -20011-3 0  9991
2 65948  51.8968  99.0301 0000973 103.3059 256.8012 14.79925965 43944
KUIPER-00117            
1 65949U 25228C   26208.14710433  .00004364  00000+0  60120-3 0  9991
2 65949  51.8985 101.3907 0000711  97.6280 262.4764 14.79922010 43916
KUIPER-00121            
1 65950U 25228D   26208.65899387  .00001621  00000+0  24162-3 0  9994
2 65950  51.8987  94.1436 0001007 111.4848 248.6222 14.79927114 44062
KUIPER-00122            
1 65951U 25228E   26208.10796470  .00003977  00000+0  55032-3 0  9990
2 65951  51.8987 106.5511 0000837  95.3380 264.7677 14.79934868 43848
KUIPER-00123            
1 65952U 25228F   26208.14173887 -.00001128  00000+0 -11894-3 0  9992
2 65952  51.8999 106.4131 0000946  98.5183 261.5887 14.79929099 43844
KUIPER-00124            
1 65953U 25228G   26208.08228969  .00002873  00000+0  40578-3 0  9995
2 65953  51.8981  99.1655 0000779 105.2598 254.8451 14.79928143 43947
KUIPER-00125            
1 65954U 25228H   26208.03094432  .00004049  00000+0  55960-3 0  9995
2 65954  51.9002  84.4385 0000881 104.8730 255.2330 14.79947419 44148
KUIPER-00126            
1 65955U 25228J   26208.24572461  .00003347  00000+0  46783-3 0  9995
2 65955  51.8994 103.4732 0000806 106.9989 253.1061 14.79932913 43894
KUIPER-00127            
1 65956U 25228K   26208.64210668  .00004006  00000+0  55402-3 0  9999
2 65956  51.9003  94.1926 0000841 111.4931 248.6121 14.79940237 44069
KUIPER-00128            
1 65957U 25228L   26207.94993168 -.00002207  00000+0 -26060-3 0  9996
2 65957  51.9029  97.3195 0000677  97.4592 262.6447 14.79922422 43954
KUIPER-00129            
1 65958U 25228M   26208.12414665  .00000149  00000+0  48529-4 0  9994
2 65958  51.8998  91.5306 0000815  98.3875 261.7180 14.79928510 44057
KUIPER-00130            
1 65959U 25228N   26208.08770425 -.00001218  00000+0 -13087-3 0  9999
2 65959  51.9017  94.2285 0001038  93.4531 266.6550 14.79923670 34304
KUIPER-00134            
1 65960U 25228P   26208.45251798  .00063457  00000+0  14557-2 0  9992
2 65960  51.8705   1.3506 0006254  93.2479 266.9226 15.42113094 45338
KUIPER-00135            
1 65961U 25228Q   26208.05394699  .00012822  00000+0  17093-2 0  9995
2 65961  51.9013  94.4302 0000871 111.7819 248.3236 14.79893035 44009
KUIPER-00136            
1 65962U 25228R   26207.88780724 -.00000951  00000+0 -95744-4 0  9997
2 65962  51.8969  92.6152 0001162  99.8431 260.2662 14.79925731 44018
KUIPER-00137            
1 65963U 25228S   26208.09309072  .00004220  00000+0  58215-3 0  9997
2 65963  51.9031  89.2079 0001010 100.0129 260.0947 14.79935831 44084
KUIPER-00138            
1 65964U 25228T   26208.06201436  .00000872  00000+0  14337-3 0  9996
2 65964  51.8981  86.7674 0001064 106.4156 253.6924 14.79936069 44111
KUIPER-00140            
1 65965U 25228U   26208.05932452 -.00001554  00000+0 -17490-3 0  9998
2 65965  51.8971  89.3702 0000805 115.0004 245.1043 14.79927557 44077
KUIPER-00141            
1 65966U 25228V   26208.06472118  .00002642  00000+0  37542-3 0  9995
2 65966  51.9015  84.4060 0000865 101.9423 258.1637 14.79934360 44147
KUIPER-00146            
1 65967U 25228W   26208.09579763  .00004215  00000+0  58139-3 0  9996
2 65967  51.9029  86.7791 0000814 109.4823 250.6227 14.79942106 44116
KUIPER-00149            
1 65968U 25228X   26208.06740880  .00001783  00000+0  26288-3 0  9991
2 65968  51.9012  81.7867 0000899 109.2456 250.8604 14.79933166 44185
KUIPER-00154            
1 65969U 25228Y   26208.03634169 -.00000411  00000+0 -24972-4 0  9999
2 65969  51.9005  79.4134 0000881 100.5295 259.5767 14.79925942 44218
KUIPER-00157            
1 65970U 25228Z   26208.62224336  .00002891  00000+0  39610-3 0  9993
2 65970  51.9019  79.2671 0001544  79.0819 281.0317 14.81220153 44269
KUIPER-00144            
1 67133U 25301A   26208.28770619 -.00002687  00000+0 -32359-3 0  9998
2 67133  51.9001 158.3174 0000592  59.2380 300.8641 14.79932784 34542
KUIPER-00164            
1 67134U 25301B   26208.61179681 -.00003551  00000+0 -43729-3 0  9992
2 67134  51.9006 169.3921 0000896  97.5755 262.5309 14.79912816 34592
KUIPER-00175            
1 67135U 25301C   26208.05672612 -.00000877  00000+0 -86104-4 0  9996
2 67135  51.8985 154.2914 0000919 138.9141 221.1891 14.79931310 34652
KUIPER-00179            
1 67136U 25301D   26208.61457180  .00003482  00000+0  48543-3 0  9997
2 67136  51.8965 166.8384 0000683  71.4323 288.6714 14.79936520 34630
KUIPER-00181            
1 67137U 25301E   26208.12837906 -.00001835  00000+0 -21178-3 0  9999
2 67137  51.9000 181.5315 0001275  80.1540 279.9566 14.79929829 34368
KUIPER-00183            
1 67138U 25301F   26208.57258138  .00004822  00000+0  48452-3 0  9994
2 67138  51.8937 150.7099 0009317 162.0798 198.0501 14.92818724 34843
KUIPER-00184            
1 67139U 25301G   26208.58619733  .00003562  00000+0  49597-3 0  9999
2 67139  51.8979 161.9692 0000723  75.5742 284.5300 14.79937095 34792
KUIPER-00186            
1 67140U 25301H   26208.36471811  .00003455  00000+0  48169-3 0  9995
2 67140  51.9010 180.4963 0000679  52.8650 307.2374 14.79959742 34241
KUIPER-00187            
1 67141U 25301J   26208.63216283  .00003094  00000+0  43470-3 0  9995
2 67141  51.9017 181.8383 0000575  69.0385 291.0639 14.79931923 34245
KUIPER-00188            
1 67142U 25301K   26208.56595082  .00001514  00000+0  22757-3 0  9995
2 67142  51.9032 149.7191 0000808  89.1256 270.9799 14.79925443 34683
KUIPER-00191            
1 67143U 25301L   26208.60647588  .00000218  00000+0  57643-4 0  9993
2 67143  51.9017 174.4330 0000971  41.9089 318.1948 14.79948043 34376
KUIPER-00196            
1 67144U 25301M   26208.17057269 -.00002607  00000+0 -34177-3 0  9999
2 67144  51.8972 133.0429 0001824  34.0297 326.0780 14.76341043 34880
KUIPER-00204            
1 67145U 25301N   26208.19720486  .00004012  00000+0  55493-3 0  9994
2 67145  51.9003 148.7322 0000816  58.0245 302.0796 14.79933838 34783
KUIPER-00210            
1 67146U 25301P   26208.16751633  .00003003  00000+0  42276-3 0  9994
2 67146  51.8982 176.3282 0000701  70.3999 289.7039 14.79925571 34457
KUIPER-00221            
1 67147U 25301Q   26208.12568448  .00001103  00000+0  17372-3 0  9999
2 67147  51.8986 184.0398 0000586  73.1135 286.9892 14.79925680 34176
KUIPER-00232            
1 67148U 25301R   26208.58079470 -.00000659  00000+0 -57391-4 0  9995
2 67148  51.8988 167.0484 0001121  57.4450 302.6620 14.79949044 34442
KUIPER-00241            
1 67149U 25301S   26208.33368668  .00003321  00000+0  46414-3 0  9999
2 67149  51.9018 178.1462 0000609  63.4087 296.6937 14.79954924 34604
KUIPER-00245            
1 67150U 25301T   26208.32556700  .00003060  00000+0  42998-3 0  9999
2 67150  51.9003 185.6920 0000568  40.9550 319.1456 14.79958548 34165
KUIPER-00246            
1 67151U 25301U   26208.57809969  .00000881  00000+0  14453-3 0  9998
2 67151  51.8983 169.5246 0000870  75.4634 284.6425 14.79942224 34432
KUIPER-00247            
1 67152U 25301V   26208.25125433 -.00000222  00000+0 -86955-7 0  9992
2 67152  51.8953 160.9367 0000769  82.3923 277.7127 14.79925073 34507
KUIPER-00248            
1 67153U 25301W   26208.20258998  .00001578  00000+0  23602-3 0  9990
2 67153  51.8973 143.7845 0001083  86.6151 273.4935 14.79917694 34904
KUIPER-00249            
1 67154U 25301X   26208.59158642  .00000985  00000+0  15823-3 0  9995
2 67154  51.8978 156.9940 0000733  71.5581 288.5462 14.79939345 34586
KUIPER-00250            
1 67155U 25301Y   26208.20398619  .00003045  00000+0  42798-3 0  9995
2 67155  51.8974 173.6613 0000654  64.1989 295.9041 14.79960797 34353
KUIPER-00251            
1 67156U 25301Z   26208.08241560 -.00004338  00000+0 -54021-3 0  9994
2 67156  51.8988 161.7668 0001438  77.5974 282.5149 14.79941290 34662
KUIPER-00252            
1 67157U 25301AA  26208.28230713 -.00003963  00000+0 -49110-3 0  9991
2 67157  51.8993 163.3360 0000484  95.6653 264.4365 14.79931908 34474
KUIPER-00261            
1 67158U 25301AB  26208.10271544  .00003081  00000+0  43279-3 0  9999
2 67158  51.9006 174.1859 0000705  59.0565 301.0467 14.79955805 34301
KUIPER-00265            
1 67159U 25301AC  26208.32285637  .00010921  00000+0  14580-2 0  9995
2 67159  51.9001 188.1882 0001166 359.6241   0.4720 14.79969213 34164
KUIPER-00159            
1 67764U 26030A   26208.58335648  .00031570  00000+0  26397-2 0  9995
2 67764  51.8974 265.5089 0006781 153.0808 271.8328 14.98205588  5419
KUIPER-00160            
1 67765U 26030B   26208.52821469  .00035337  00000+0  94933-3 0  9998
2 67765  51.8786 263.1622 0004783 190.4759 169.6129 15.37575411 26604
KUIPER-00177            
1 67766U 26030C   26208.33730476  .00002451  00000+0  35049-3 0  9999
2 67766  51.9027 315.6039 0000391  97.8465 262.2542 14.79918702 25858
KUIPER-00178            
1 67767U 26030D   26208.30352816  .00011880  00000+0  15843-2 0  9990
2 67767  51.9005 315.7332 0000325 139.7069 220.3918 14.79939439 25857
KUIPER-00180            
1 67768U 26030E   26208.30891985  .00003784  00000+0  52499-3 0  9999
2 67768  51.8994 310.7124 0000454 103.2472 256.8541 14.79934548 25925
KUIPER-00197            
1 67769U 26030F   26208.60061909  .00003408  00000+0  47564-3 0  9998
2 67769  51.8994 289.4372 0000119 287.4386  72.6563 14.79941497 26245
KUIPER-00198            
1 67770U 26030G   26208.21573205 -.00000696  00000+0 -62255-4 0  9997
2 67770  51.8982 303.6193 0001865 116.5269 243.5885 14.79929772 26018
KUIPER-00199            
1 67771U 26030H   26208.55647825  .00028938  00000+0  79402-3 0  9993
2 67771  51.8811 264.8152 0008713 193.6725 166.4027 15.36997695 26581
KUIPER-00200            
1 67772U 26030J   26208.23209182  .00012635  00000+0  16798-2 0  9994
2 67772  51.8982 288.5932 0000332 316.0302  44.0634 14.80019626 26224
KUIPER-00203            
1 67773U 26030K   26208.26438079  .00003939  00000+0  54528-3 0  9998
2 67773  51.9072 320.9773 0000481 108.0533 252.0482 14.79938258 25770
KUIPER-00205            
1 67774U 26030L   26208.23458146  .00006555  00000+0  88863-3 0  9999
2 67774  51.9084 286.0365 0000539 278.2102  81.8800 14.79901054 26260
KUIPER-00208            
1 67775U 26030M   26208.30620522  .00003754  00000+0  52129-3 0  9991
2 67775  51.8993 313.2247 0000262 320.3846  39.7097 14.79923329 25884
KUIPER-00209            
1 67776U 26030N   26207.59977954  .00004290  00000+0  59062-3 0  9995
2 67776  51.9003 313.9403 0000154 171.6348 188.4617 14.79990945 25814
KUIPER-00213            
1 67777U 26030P   26208.31148721  .00004035  00000+0  55703-3 0  9994
2 67777  51.8966 308.2688 0000255 121.8642 238.2345 14.79999850 25951
KUIPER-00214            
1 67778U 26030Q   26208.28057086  .00000243  00000+0  60827-4 0  9995
2 67778  51.8972 305.9186 0000440 100.2863 259.8149 14.79923776 25986
KUIPER-00215            
1 67779U 26030R   26208.26030108 -.00003667  00000+0 -45201-3 0  9993
2 67779  51.8987 293.3742 0001465 118.4518 241.6592 14.79949673 26163
KUIPER-00218            
1 67780U 26030S   26208.00773300  .00002949  00000+0  41560-3 0  9999
2 67780  51.8995 309.5339 0000142 127.8551 232.2425 14.79941611 25915
KUIPER-00220            
1 67781U 26030T   26208.57493870  .00001295  00000+0  19881-3 0  9997
2 67781  51.8944 282.0608 0001059  70.7530 289.3547 14.79932309 26345
KUIPER-00222            
1 67782U 26030U   26208.58714835  .00003743  00000+0  51954-3 0  9993
2 67782  51.8984 302.1278 0000330  86.0639 274.0362 14.79946595 26065
KUIPER-00223            
1 67783U 26030V   26207.95369280  .00003636  00000+0  50557-3 0  9993
2 67783  51.9014 297.2262 0000332 102.1251 257.9748 14.79939377 26080
KUIPER-00225            
1 67784U 26030W   26208.21843561  .00003696  00000+0  51342-3 0  9992
2 67784  51.8991 301.2158 0000377 100.6096 259.4908 14.79938248 26040
KUIPER-00226            
1 67785U 26030X   26208.22785936 -.00004736  00000+0 -64540-3 0  9997
2 67785  51.9004 287.4646 0003571 195.3012 164.7841 14.76380625 26245
KUIPER-00259            
1 67786U 26030Y   26208.58983211  .00000304  00000+0  68868-4 0  9996
2 67786  51.9007 299.4747 0000348 112.4810 247.6189 14.79926410 26101
KUIPER-00260            
1 67787U 26030Z   26208.25489409  .00003884  00000+0  53812-3 0  9999
2 67787  51.9011 298.5560 0000359 106.5837 253.5164 14.79941182 25993
KUIPER-00262            
1 67788U 26030AA  26208.62629608  .00003734  00000+0  51837-3 0  9997
2 67788  51.8985 296.8328 0000105 193.3217 166.7743 14.79943754 26144
KUIPER-00266            
1 67789U 26030AB  26208.25757382  .00003472  00000+0  48421-3 0  9992
2 67789  51.9001 295.9575 0001344 222.8941 137.1917 14.79936163 26126
KUIPER-00268            
1 67790U 26030AC  26208.29403409  .00003354  00000+0  46855-3 0  9994
2 67790  51.9043 293.3166 0000196 102.3202 257.7783 14.79947052 26161
KUIPER-00270            
1 67791U 26030AD  26207.59579061 -.00002932  00000+0 -35471-3 0  9990
2 67791  51.8984 286.3822 0001148  74.3809 285.7280 14.80053086 26200
KUIPER-00274            
1 67792U 26030AE  26208.31432392  .00003229  00000+0  45231-3 0  9990
2 67792  51.9029 305.7033 0000139 240.3844 119.7105 14.79940223 25998
KUIPER-00275            
1 67793U 26030AF  26208.20082962  .00003518  00000+0  49021-3 0  9995
2 67793  51.8998 286.2120 0000184  84.5582 275.5401 14.79935384 26252
KUIPER-00276            
1 67794U 26030AG  26208.63438901  .00000177  00000+0  52274-4 0  9994
2 67794  51.8988 289.2765 0001499 185.7739 174.3206 14.79928284 26258
KUIPER-00279            
1 67795U 26030AH  26208.20621394  .00003330  00000+0  46555-3 0  9996
2 67795  51.9030 281.2005 0000452 243.7600 116.3316 14.79936863 26325
KUIPER-00131            
1 68573U 26072A   26208.47246264  .00000335  00000+0  72881-4 0  9999
2 68573  51.8999  17.5074 0000529 105.2233 254.8788 14.79935987 17088
KUIPER-00189            
1 68574U 26072B   26208.50355588  .00003726  00000+0  51742-3 0  9993
2 68574  51.8994  19.8537 0000625 113.7771 246.3257 14.79936962 17059
KUIPER-00192            
1 68575U 26072C   26208.47516327  .00001110  00000+0  17457-3 0  9990
2 68575  51.9009  14.9911 0001092 134.2675 225.8377 14.79935444 17127
KUIPER-00193            
1 68576U 26072D   26208.48596548 -.00000580  00000+0 -47019-4 0  9995
2 68576  51.9066   4.9664 0001255  24.2142 335.8879 14.79945889 17261
KUIPER-00194            
1 68577U 26072E   26208.44410657  .00003844  00000+0  53284-3 0  9992
2 68577  51.9027  12.6456 0000409 129.1090 230.9908 14.79935492 17156
KUIPER-00229            
1 68578U 26072F   26208.50622560  .00003940  00000+0  54534-3 0  9994
2 68578  51.9016  17.3563 0000616 123.5565 236.5456 14.79944961 17095
KUIPER-00230            
1 68579U 26072G   26208.40113654  .00029693  00000+0  77524-3 0  9990
2 68579  51.8772 341.9849 0001805 154.5185 205.5891 15.38552126 17576
KUIPER-00231            
1 68580U 26072H   26208.58335648 -.00027682  00000+0 -39276-2 0  9999
2 68580  51.8987 349.4108 0004955  62.9630 289.7283 14.76446228  5890
KUIPER-00234            
1 68581U 26072J   26208.41041409  .00004226  00000+0  58278-3 0  9992
2 68581  51.9006  12.7715 0000042 270.6660  89.4297 14.79951490 17148
KUIPER-00236            
1 68582U 26072K   26207.77539008  .00027348  00000+0  71923-3 0  9990
2 68582  51.8773 345.2896 0002127 162.7335 197.3725 15.38372493 17476
KUIPER-00244            
1 68583U 26072L   26208.45488078  .00004039  00000+0  55839-3 0  9997
2 68583  51.9007   2.5960 0001104 151.3561 208.7462 14.79946838 17291
KUIPER-00253            
1 68584U 26072M   26208.45219712  .00003960  00000+0  54823-3 0  9999
2 68584  51.9045   5.1167 0000497 102.3626 257.7392 14.79928830 17258
KUIPER-00254            
1 68585U 26072N   26208.48326353  .00004043  00000+0  55894-3 0  9995
2 68585  51.9033   7.4775 0001421 147.3387 212.7664 14.79939674 17225
KUIPER-00263            
1 68586U 26072P   26208.43200186  .00003918  00000+0  54231-3 0  9990
2 68586  51.9021 352.7792 0000383  87.7145 272.3861 14.79954212 17421
KUIPER-00269            
1 68587U 26072Q   26208.42918867 -.00002343  00000+0 -27887-3 0  9992
2 68587  51.9013 355.2070 0000887  88.9531 271.1533 14.79876491 17392
KUIPER-00272            
1 68588U 26072R   26208.44140019  .00004157  00000+0  57386-3 0  9991
2 68588  51.8980  15.1293 0000643 118.6917 241.4110 14.79937364 17111
KUIPER-00285            
1 68589U 26072S   26208.46298895  .00004218  00000+0  58203-3 0  9997
2 68589  51.9057 355.1177 0001302 175.4067 184.6907 14.79926782 17390
KUIPER-00286            
1 68590U 26072T   26208.65604543  .00002659  00000+0  41041-3 0  9990
2 68590  51.9024 351.5823 0001937 185.7831 174.3108 14.76308375 17467
KUIPER-00289            
1 68591U 26072U   26208.45758060 -.00002218  00000+0 -26201-3 0  9997
2 68591  51.9016   0.0766 0000584  89.6931 270.4098 14.79929110 17321
KUIPER-00290            
1 68592U 26072V   26208.44234600  .00002514  00000+0  38866-3 0  9993
2 68592  51.9033 358.9349 0000880 153.9878 206.1128 14.76423112 17347
KUIPER-00293            
1 68593U 26072W   26208.44680897  .00003965  00000+0  54879-3 0  9990
2 68593  51.8991  10.1074 0001906 162.6105 197.4923 14.79936853 17183
KUIPER-00294            
1 68594U 26072X   26207.71745528  .00004132  00000+0  57073-3 0  9999
2 68594  51.8997   0.8475 0001560  77.1049 283.0087 14.79931276 17259
KUIPER-00296            
1 68595U 26072Y   26208.58335648 -.02108628  00000+0 -10902+0 0  9999
2 68595  51.8807 342.1080 0007304 155.5464 339.5115 15.19513996  4534
KUIPER-00297            
1 68596U 26072Z   26208.58335648 -.00027716  00000+0 -36243-2 0  9995
2 68596  51.9005   9.4945 0001159   7.1508 180.9592 14.79901309  4409
KUIPER-00300            
1 68597U 26072AA  26208.41146448  .00002874  00000+0  43925-3 0  9998
2 68597  51.9038   7.3839 0001655 168.2476 191.8524 14.76501556 17226
KUIPER-00301            
1 68598U 26072AB  26208.58335648 -.01086751  00000+0 -40064-1 0  9997
2 68598  51.8718 341.4294 0007999 169.8282 245.2440 15.30116272  5830
KUIPER-00304            
1 68599U 26072AC  26208.58335648 -.01269011  00000+0 -47841-1 0  9990
2 68599  51.8740 341.9146 0010082 168.7006  26.8911 15.29346396  4000
KUIPER-00317            
1 68600U 26072AD  26208.42653549  .00018989  00000+0  25155-2 0  9997
2 68600  51.8997 357.7228 0001370 104.9516 255.1598 14.79889241 17356
KUIPER-00320            
1 68601U 26072AE  26208.42111047  .00003854  00000+0  53409-3 0  9999
2 68601  51.9032   2.7417 0000538 112.1340 247.9680 14.79947468 17285
KUIPER-00299            
1 68864U 26095A   26207.99995885  .00002314  00000+0  35969-3 0  9997
2 68864  51.8998  73.4563 0001419 322.4145  37.6716 14.76492810 13521
KUIPER-00353            
1 68865U 26095B   26208.02414861  .00003973  00000+0  54956-3 0  9992
2 68865  51.9002  59.4995 0001154 122.7967 237.3107 14.79959763 13724
KUIPER-00357            
1 68866U 26095C   26208.59006031  .00000134  00000+0  46561-4 0  9991
2 68866  51.9001  64.5007 0001154 109.2891 250.8196 14.79931429 13706
KUIPER-00364            
1 68867U 26095D   26208.01337718 -.00000498  00000+0 -36325-4 0  9990
2 68867  51.9029  69.5602 0000955 175.2679 184.8292 14.79938330 13585
KUIPER-00375            
1 68868U 26095E   26208.01999408  .00002418  00000+0  37513-3 0  9992
2 68868  51.9012  61.6568 0003326 129.4384 230.6871 14.76418988 13695
KUIPER-00433            
1 68869U 26095F   26208.03905369  .00003844  00000+0  53267-3 0  9996
2 68869  51.9006  76.9317 0001104 112.1261 247.9819 14.79958834 13487
KUIPER-00437            
1 68870U 26095G   26207.97891607  .00027995  00000+0  72416-3 0  9999
2 68870  51.8776  49.7738 0007295  87.9088 272.2735 15.38847720 13856
KUIPER-00448            
1 68871U 26095H   26208.55399778  .00002437  00000+0  37745-3 0  9997
2 68871  51.9041  63.2314 0001119 200.3683 159.7233 14.76453161 13715
KUIPER-00459            
1 68872U 26095J   26208.58335648 -.00062576  00000+0 -67639-2 0  9993
2 68872  51.8978  52.0663 0008375  63.5857 210.7160 14.88105336  5247
KUIPER-00468            
1 68873U 26095K   26208.58335648 -.01959781  00000+0 -13660+0 0  9990
2 68873  51.8907  49.7496 0003510  35.1845 118.6273 15.08767905  4525
KUIPER-00476            
1 68874U 26095L   26208.58335648  .00022721  00000+0  75074-3 0  9994
2 68874  51.8726  48.5177 0010476  82.5138 261.7649 15.31237431  5461
KUIPER-00478            
1 68875U 26095M   26208.58335648  .00010803  00000+0  15659-2 0  9995
2 68875  51.8995  54.4830 0000492  13.1385 280.2302 14.76471524  5871
KUIPER-00480            
1 68876U 26095N   26208.58335648 -.00019968  00000+0 -23908-2 0  9995
2 68876  51.8998  51.6805 0003370  59.4075 192.7217 14.83377276  4635
KUIPER-00482            
1 68877U 26095P   26208.58335648  .00018457  00000+0  24397-2 0  9999
2 68877  51.9010  62.0255 0002162 135.8823 354.5598 14.79996651  3835
KUIPER-00483            
1 68878U 26095Q   26208.58335648  .00026537  00000+0  34952-2 0  9996
2 68878  51.8986  74.5009 0003010 122.2807  79.5727 14.79944447  5473
KUIPER-00488            
1 68879U 26095R   26207.99053059  .00006385  00000+0  86438-3 0  9990
2 68879  51.9037  59.6596 0000685 122.4511 237.6518 14.79998058 13714
KUIPER-00489            
1 68880U 26095S   26208.58335648  .00003086  00000+0  26137-3 0  9990
2 68880  51.8905  50.1164 0011846  80.5437 211.2930 15.00742909  5936
KUIPER-00499            
1 68881U 26095T   26208.58335648 -.00009649  00000+0 -12415-2 0  9997
2 68881  51.8989  54.5792 0000800  88.5276   0.3055 14.79832423  4773
KUIPER-00500            
1 68882U 26095U   26208.61571797 -.00005498  00000+0 -69260-3 0  9998
2 68882  51.9011  71.8827 0001016  86.2969 273.8109 14.79939628 13600
KUIPER-00502            
1 68883U 26095V   26208.58335648 -.01786835  00000+0 -14699+0 0  9992
2 68883  51.8946  49.1631 0006496  75.1974 305.2405 15.02282835  4010
KUIPER-00503            
1 68884U 26095W   26208.58467213 -.00000377  00000+0 -20486-4 0  9992
2 68884  51.8984  69.5077 0000917 106.0248 254.0815 14.79931857 13635
KUIPER-00504            
1 68885U 26095X   26207.93504937  .00003951  00000+0  54695-3 0  9993
2 68885  51.9014  79.8942 0000906 102.5884 257.5180 14.79934739 13434
KUIPER-00505            
1 68886U 26095Y   26207.97959216 -.00001865  00000+0 -21570-3 0  9992
2 68886  51.9008  69.6986 0000733 111.4293 248.6747 14.79929078 13579
KUIPER-00507            
1 68887U 26095Z   26208.57350386  .00002703  00000+0  41558-3 0  9991
2 68887  51.9005  56.9834 0001555  42.4946 317.6135 14.76434584 13803
KUIPER-00511            
1 68888U 26095AA  26208.58335648 -.00011996  00000+0 -10927-2 0  9998
2 68888  51.8973  50.1427 0002883  53.3264 128.8136 14.93977684  3398
KUIPER-00512            
1 68889U 26095AB  26207.87561563  .00003810  00000+0  52860-3 0  9994
2 68889  51.9010  72.6610 0000704 106.4854 253.6186 14.79929514 13521
KUIPER-00519            
1 68890U 26095AC  26208.02146190 -.00002234  00000+0 -26409-3 0  9990
2 68890  51.9035  62.0754 0002591  50.2250 309.8941 14.79928251 13681
KUIPER-00521            
1 68891U 26095AD  26208.58335648 -.00019107  00000+0 -24701-2 0  9999
2 68891  51.9023  53.2853 0000159 229.0696 254.9114 14.80176105  5755
KUIPER-00524            
1 68892U 26095AE  26208.03306776  .00002528  00000+0  39058-3 0  9999
2 68892  51.8982  63.5606 0002311 133.6716 226.4436 14.76437127 13663
KUIPER-00370            
1 68919U 26098A   26208.58335648  .00009344  00000+0  97333-3 0  9995
2 68919  51.8924 239.5157 0011011 304.4192 136.6565 14.90357070  1642
KUIPER-00380            
1 68920U 26098B   26208.58335648 -.01055901  00000+0 -50564-1 0  9993
2 68920  51.8783 235.3026 0005721 311.0047 341.1672 15.21443875  5785
KUIPER-00386            
1 68921U 26098C   26208.58335648 -.01801275  00000+0 -15923+0 0  9995
2 68921  51.8930 234.8847 0002774  10.1868 185.7671 14.99631305  5533
KUIPER-00388            
1 68922U 26098D   26208.46372049  .00001929  00000+0  30533-3 0  9992
2 68922  51.8996 245.0418 0001517  79.1476 280.9655 14.76426482 13372
KUIPER-00405            
1 68923U 26098E   26208.58335648  .00114353  00000+0  15896-1 0  9999
2 68923  51.8995 242.0025 0001671 171.6807 290.5969 14.76833237  5545
KUIPER-00408            
1 68924U 26098F   26208.58335648 -.00775673  00000+0 -39739-1 0  9992
2 68924  51.8775 237.2637 0013685 300.4778 128.1878 15.18624368  1680
KUIPER-00409            
1 68925U 26098G   26208.58335648 -.00010173  00000+0 -12787-2 0  9995
2 68925  51.8992 239.4051 0002690 171.7434 145.3468 14.80852496  5344
KUIPER-00410            
1 68926U 26098H   26208.58335648 -.01206060  00000+0 -96429-1 0  9993
2 68926  51.8889 238.0196 0014703 290.5206 135.0557 15.02996592  5302
KUIPER-00412            
1 68927U 26098J   26208.58335648 -.02103979  00000+0 -92403-1 0  9998
2 68927  51.8826 232.3218 0004419  34.9331 298.7968 15.25020555  4144
KUIPER-00413            
1 68928U 26098K   26208.58335648  .00001059  00000+0  16480-3 0  9994
2 68928  51.8973 242.0344 0015693 312.6893 219.5389 14.80820643  5045
KUIPER-00414            
1 68929U 26098L   26208.50602944  .00002744  00000+0  38872-3 0  9994
2 68929  51.8955 252.4650 0001474 326.8789  33.2080 14.79937390 13273
KUIPER-00415            
1 68930U 26098M   26208.58335648 -.01276847  00000+0 -89528-1 0  9990
2 68930  51.8900 236.0360 0007003 296.0572 354.6015 15.07626360  4196
KUIPER-00416            
1 68931U 26098N   26208.58335648 -.01844323  00000+0 -58987-1 0  9996
2 68931  51.8740 231.8498 0001981  52.2572 141.4415 15.35308836  2870
KUIPER-00420            
1 68932U 26098P   26208.58335648  .00024420  00000+0  74347-3 0  9992
2 68932  51.8768 232.5197 0004259 352.5836 255.2781 15.33853072  2993
KUIPER-00421            
1 68933U 26098Q   26208.58335648 -.01070695  00000+0 -51953-1 0  9997
2 68933  51.8800 235.0351 0007747 286.2320 175.4616 15.21016068  5432
KUIPER-00425            
1 68934U 26098R   26208.58335648  .00003628  00000+0  41745-3 0  9997
2 68934  51.8975 239.6971 0012467 294.5077 323.8178 14.87912926  5835
KUIPER-00430            
1 68935U 26098S   26208.58335648  .00009054  00000+0  11770-2 0  9991
2 68935  51.9013 241.9204 0008822 309.8463  42.3472 14.81259968  5580
KUIPER-00431            
1 68936U 26098T   26208.51411047  .00002554  00000+0  36372-3 0  9997
2 68936  51.8974 244.8304 0000760  43.3086 316.7936 14.79951677 13386
KUIPER-00432            
1 68937U 26098U   26208.58335648  .00019139  00000+0  15545-2 0  9992
2 68937  51.8881 237.6834 0011593 296.2175 321.2013 14.99570509  5376
KUIPER-00434            
1 68938U 26098V   26208.58335648 -.00017170  00000+0 -23137-2 0  9994
2 68938  51.8977 239.7107 0003106 353.6486   5.1324 14.78361519  5271
KUIPER-00436            
1 68939U 26098W   26208.58335648 -.00001631  00000+0 -16634-3 0  9995
2 68939  51.8987 239.5663 0005647 311.9936  99.6344 14.84052514  4231
KUIPER-00438            
1 68940U 26098X   26208.58335648 -.00049265  00000+0 -48760-2 0  9996
2 68940  51.8962 237.3631 0005240   5.6723 266.3726 14.91534881  4436
KUIPER-00439            
1 68941U 26098Y   26208.58335648 -.00053081  00000+0 -52001-2 0  9991
2 68941  51.8959 237.3375 0004186 343.0330  12.0909 14.91982991  3818
KUIPER-00440            
1 68942U 26098Z   26208.56495021  .00014235  00000+0  47053-3 0  9990
2 68942  51.8753 234.3617 0003290 347.3185  12.7716 15.31608554 13535
KUIPER-00442            
1 68943U 26098AA  26208.58335648 -.02058337  00000+0 -10254+0 0  9995
2 68943  51.8859 233.9828 0002426 320.5522 255.3546 15.20741217  2659
KUIPER-00446            
1 68944U 26098AB  26208.58335648 -.00046034  00000+0 -37232-2 0  9993
2 68944  51.8917 235.4465 0003055 260.6490 258.2871 14.99384070  4869
KUIPER-00451            
1 68945U 26098AC  26206.50121434  .00001570  00000+0  25447-3 0  9990
2 68945  51.8981 253.6981 0000781  36.5387 323.5627 14.76395604 13083
KUIPER-00452            
1 68946U 26098AD  26208.58335648 -.01166597  00000+0 -74737-1 0  9993
2 68946  51.8889 233.7888 0004272 307.2929  51.4561 15.11133597  5801
KUIPER-00453            
1 68947U 26098AE  26208.58335648 -.00034784  00000+0 -14187-2 0  9999
2 68947  51.8825 232.4926 0004144   7.5284 266.9781 15.23771143  5842
KUIPER-00454            
1 68948U 26098AF  26208.09658754  .00001787  00000+0  28507-3 0  9999
2 68948  51.8986 248.0282 0003319 175.7947 184.3043 14.76448939 13301
KUIPER-00455            
1 68949U 26098AG  26208.09207555 -.00004054  00000+0 -50288-3 0  9992
2 68949  51.8990 246.7049 0001959 313.8761  46.2039 14.79945766 13326
KUIPER-00458            
1 68950U 26098AH  26208.58335648 -.00953473  00000+0 -41824-1 0  9995
2 68950  51.8788 232.7271 0002605  12.9387  97.8164 15.24127361  5893
KUIPER-00282            
1 69267U 26118A   26208.58335648 -.00017042  00000+0 -16583-2 0  9998
2 69267  51.8936 222.3881 0012849 348.2635 353.3659 14.91584610  4855
KUIPER-00383            
1 69268U 26118B   26208.58335648 -.00598757  00000+0 -44082-1 0  9990
2 69268  51.8892 220.7357 0011430 338.1068 172.2589 15.05090986  3897
KUIPER-00527            
1 69269U 26118C   26208.58335648 -.00048164  00000+0 -36613-2 0  9995
2 69269  51.8867 220.7870 0007808 358.6548  60.1081 15.01738340  3840
KUIPER-00562            
1 69270U 26118D   26206.51451325 -.00144945  00000+0 -38766-2 0  9994
2 69270  51.8708 227.5565 0000276  87.2440 272.8578 15.38028987  9882
KUIPER-00570            
1 69271U 26118E   26208.58335648 -.00026580  00000+0 -32994-2 0  9994
2 69271  51.8974 224.6542 0003594  46.4480 197.7359 14.82042997  5522
KUIPER-00572            
1 69272U 26118F   26208.58335648 -.01665366  00000+0 -13059+0 0  9995
2 69272  51.8846 220.4917 0005316 349.9575 239.9656 15.03838661  4557
KUIPER-00581            
1 69273U 26118G   26208.58335648 -.00033866  00000+0 -44037-2 0  9992
2 69273  51.8985 224.5309 0000506 237.0677 106.0651 14.80236729  4503
KUIPER-00584            
1 69274U 26118H   26208.43186179  .00007213  00000+0  97485-3 0  9991
2 69274  51.8974 227.8128 0000635 117.6971 242.4056 14.79903865 10040
KUIPER-00587            
1 69275U 26118J   26208.58335648 -.00952904  00000+0 -48061-1 0  9997
2 69275  51.8753 218.8506 0008537 342.7055  50.4125 15.19351984  2734
KUIPER-00590            
1 69276U 26118K   26208.58335648 -.00023731  00000+0 -24982-2 0  9992
2 69276  51.8960 222.1930 0001907 344.8924 253.1155 14.88718614  4757
KUIPER-00592            
1 69277U 26118L   26208.58335648 -.00069541  00000+0 -68257-2 0  9995
2 69277  51.8927 221.6435 0002425 240.7953 294.4505 14.92050424  3419
KUIPER-00593            
1 69278U 26118M   26208.39966973  .00024432  00000+0  66744-3 0  9994
2 69278  51.8691 218.4432 0003147 329.3180  30.7622 15.37257674 10232
KUIPER-00594            
1 69279U 26118N   26208.40562642  .00024595  00000+0  66289-3 0  9996
2 69279  51.8692 218.4824 0001815  89.7124 270.4071 15.37675308 10176
KUIPER-00595            
1 69280U 26118P   26208.40808919  .00027582  00000+0  74108-3 0  9996
2 69280  51.8694 218.4955 0001646  37.4429 322.6673 15.37706631 10201
KUIPER-00596            
1 69281U 26118Q   26208.41487877  .00002280  00000+0  32770-3 0  9991
2 69281  51.8993 227.7779 0000890 147.9053 212.1964 14.79978586 10044
KUIPER-00597            
1 69282U 26118R   26208.43237736  .00031709  00000+0  84196-3 0  9998
2 69282  51.8632 218.6280 0007239 318.4474  41.5962 15.37977165 10170
KUIPER-00599            
1 69283U 26118S   26208.58335648 -.01060908  00000+0 -62335-1 0  9991
2 69283  51.8860 219.0986 0006398 311.1147 358.0098 15.13917644  5332
KUIPER-00600            
1 69284U 26118T   26208.18533391  .00030068  00000+0  80786-3 0  9996
2 69284  51.8612 219.9610 0008586 335.5494  24.5084 15.37630365 10139
KUIPER-00601            
1 69285U 26118U   26208.58335648 -.00082821  00000+0 -90215-2 0  9999
2 69285  51.8971 221.8641 0003255   1.2876 323.8531 14.87976761  2391
KUIPER-00602            
1 69286U 26118V   26208.58335648 -.00769746  00000+0 -29752-1 0  9995
2 69286  51.8756 217.9725 0003697 329.3385 143.5498 15.28152166  5912
KUIPER-00603            
1 69287U 26118W   26208.58335648 -.02235284  00000+0 -12841+0 0  9992
2 69287  51.8808 218.8056 0002588 346.9419   9.5530 15.15542997  5312
KUIPER-00605            
1 69288U 26118X   26208.58335648 -.00028867  00000+0 -36061-2 0  9991
2 69288  51.8972 224.5451 0002643  43.3185 112.4006 14.81825322  5475
KUIPER-00606            
1 69289U 26118Y   26208.58335648 -.02322142  00000+0 -14427+0 0  9996
2 69289  51.8860 218.9465 0002561  34.9070 292.0010 15.12925491  5363
KUIPER-00607            
1 69290U 26118Z   26208.42068191  .00029115  00000+0  76795-3 0  9997
2 69290  51.8652 218.5659 0006037 304.6938  55.3479 15.38234090 10177
KUIPER-00608            
1 69291U 26118AA  26208.58335648  .00005931  00000+0  19958-3 0  9997
2 69291  51.8574 219.0168 0010184 348.8884 283.8349 15.32166283  5811
KUIPER-00610            
1 69292U 26118AB  26208.58335648 -.00693885  00000+0 -27188-1 0  9993
2 69292  51.8762 217.7846 0001716  39.9401 143.2618 15.27871491  5684
KUIPER-00613            
1 69293U 26118AC  26208.58335648 -.00029836  00000+0 -37959-2 0  9991
2 69293  51.8975 224.5432 0002168 332.7654  97.7433 14.81082580  5774
KUIPER-00618            
1 69294U 26118AD  26208.58335648 -.00092378  00000+0 -27215-2 0  9997
2 69294  51.8709 217.6737 0001317  14.9956 223.2897 15.34770387  5701
KUIPER-00620            
1 69295U 26118AE  26208.58335648 -.01207995  00000+0 -52185-1 0  9995
2 69295  51.8788 217.9013 0002052 341.4659 164.5805 15.24843509  3344
KUIPER-00423            
1 69592U 26140A   26208.00407050  .00030578  00000+0  79510-3 0  9995
2 69592  51.8786 205.8536 0013447 315.3200  44.6703 15.38577762  7361
KUIPER-00428            
1 69593U 26140B   26208.37965359  .00021258  00000+0  58417-3 0  9995
2 69593  51.8782 204.6087 0007818  68.9369 291.2453 15.37140152  7414
KUIPER-00481            
1 69594U 26140C   26208.40896815  .00034848  00000+0  91562-3 0  9997
2 69594  51.8758 204.0574 0011307 324.3077  35.7154 15.38218441  7424
KUIPER-00490            
1 69595U 26140D   26208.54968512 -.00059913  00000+0 -15889-2 0  9996
2 69595  51.8758 203.4909 0006966  15.1312 344.9882 15.37795600  7443
KUIPER-00493            
1 69596U 26140E   26208.58335648 -.01214320  00000+0 -67716-1 0  9990
2 69596  51.8877 204.3994 0009411  81.6048 295.5856 15.16102730  3511
KUIPER-00496            
1 69597U 26140F   26208.58335648 -.00007746  00000+0 -22656-3 0  9998
2 69597  51.8763 204.2329 0011182  92.6378  11.7223 15.33125287  4061
KUIPER-00513            
1 69598U 26140G   26208.54410515 -.00182049  00000+0 -48925-2 0  9998
2 69598  51.8778 203.4696 0009394  26.6418 333.5051 15.37985556  7446
KUIPER-00516            
1 69599U 26140H   26208.36185349  .00026139  00000+0  69942-3 0  9991
2 69599  51.8763 204.4865 0007483  35.7502 324.3984 15.37842512  7416
KUIPER-00517            
1 69600U 26140J   26208.58335648 -.00006516  00000+0 -16538-3 0  9999
2 69600  51.8749 203.1017 0010740 340.7309 317.6454 15.37165887  5522
KUIPER-00520            
1 69601U 26140K   26208.58335648 -.00982398  00000+0 -36875-1 0  9995
2 69601  51.8831 203.6207 0006473  48.1970 359.8611 15.29280327  3071
KUIPER-00522            
1 69602U 26140L   26208.19736758  .00020960  00000+0  54407-3 0  9999
2 69602  51.8755 204.8916 0013715 311.3745  48.6063 15.38849138  7393
KUIPER-00528            
1 69603U 26140M   26208.58335648 -.01924678  00000+0 -81550-1 0  9995
2 69603  51.8828 203.6924 0005627  48.1905 297.4480 15.25881353  5584
KUIPER-00532            
1 69604U 26140N   26208.38547747  .00036626  00000+0  10127-2 0  9996
2 69604  51.8780 204.6376 0005398  72.9944 287.1633 15.36663651  7418
KUIPER-00533            
1 69605U 26140P   26208.40941338  .00036843  00000+0  96034-3 0  9997
2 69605  51.8751 204.0577 0008576   9.4642 350.6505 15.38463984  7429
KUIPER-00534            
1 69606U 26140Q   26208.00252961  .00012827  00000+0  36270-3 0  9993
2 69606  51.8799 205.8469 0012874 309.2102  50.7740 15.36606581  7361
KUIPER-00537            
1 69607U 26140R   26208.58335648 -.01588763  00000+0 -83636-1 0  9997
2 69607  51.8869 204.7173 0009632  94.0930 172.1886 15.18432489  5784
KUIPER-00538            
1 69608U 26140S   26208.58335648 -.00012406  00000+0 -43565-3 0  9992
2 69608  51.8826 203.6457 0007251  31.3790  27.6878 15.27975379  4137
KUIPER-00540            
1 69609U 26140T   26208.18214257  .00031254  00000+0  85122-3 0  9996
2 69609  51.8777 205.5405 0006842  63.0312 297.1373 15.37201693  7380
KUIPER-00541            
1 69610U 26140U   26208.40906448  .00015969  00000+0  42334-3 0  9996
2 69610  51.8794 204.0726 0008279   3.3165 356.7876 15.38459525  7425
KUIPER-00542            
1 69611U 26140V   26208.21259799  .00038244  00000+0  99382-3 0  9992
2 69611  51.8760 204.9889 0008150 346.0966  13.9795 15.38543064  7392
KUIPER-00543            
1 69612U 26140W   26208.25349039  .00025038  00000+0  69647-3 0  9992
2 69612  51.8774 205.2472 0007754  73.1263 287.0573 15.36660613  7393
KUIPER-00544            
1 69613U 26140X   26208.21793370  .00026990  00000+0  70817-3 0  9999
2 69613  51.8758 205.0232 0007429   3.6694 356.4346 15.38429188  7394
KUIPER-00546            
1 69614U 26140Y   26208.58746398 -.00158715  00000+0 -42055-2 0  9993
2 69614  51.8787 203.0085 0014419 265.9211  94.0128 15.38245804  7457
KUIPER-00547            
1 69615U 26140Z   26208.41001720  .00036405  00000+0  96334-3 0  9998
2 69615  51.8790 204.0774 0011215 330.8788  29.1573 15.37979750  7423
KUIPER-00549            
1 69616U 26140AA  26208.36980955  .00023924  00000+0  65386-3 0  9994
2 69616  51.8763 204.5380 0007525  56.5345 303.6361 15.37237290  7412
KUIPER-00550            
1 69617U 26140AB  26208.00988709  .00039550  00000+0  13055-2 0  9998
2 69617  51.8762 207.3474 0009415  94.7127 265.4933 15.30987939  7346
KUIPER-00551            
1 69618U 26140AC  26208.20398464  .00027845  00000+0  72753-3 0  9999
2 69618  51.8753 204.9335 0011857 323.4014  36.6163 15.38500253  7392
KUIPER-00554            
1 69619U 26140AD  26208.21197924  .00032631  00000+0  85949-3 0  9999
2 69619  51.8753 204.9851 0011932 333.5609  26.4768 15.38167726  7394
KUIPER-00555            
1 69620U 26140AE  26208.40520866  .00038816  00000+0  10268-2 0  9999
2 69620  51.8794 204.0455 0011529 322.4236  37.5944 15.37956956  7420
KUIPER-00556            
1 69621U 26140AF  26208.40051574  .00034329  00000+0  89281-3 0  9992
2 69621  51.8783 204.0095 0012711 310.7291  49.2591 15.38522948  7423
KUIPER-00557            
1 69622U 26140AG  26208.15670952  .00025301  00000+0  68018-3 0  9997
2 69622  51.8781 205.3738 0009152 342.1619  17.9046 15.37703113  7384
KUIPER-00560            
1 69623U 26140AH  26208.21674390  .00014619  00000+0  40596-3 0  9996
2 69623  51.8764 205.0176 0009831 355.4494   4.6402 15.37082709  7392
KUIPER-00561            
1 69624U 26140AJ  26208.40459168  .00025010  00000+0  68540-3 0  9998
2 69624  51.8795 204.0438 0008385 346.0581  14.0173 15.37120375  7429
KUIPER-00564            
1 69625U 26140AK  26208.22114217  .00033586  00000+0  90754-3 0  9991
2 69625  51.8772 205.0550 0009440 345.5367  14.5348 15.37390283  7392
KUIPER-00567            
1 69626U 26140AL  26208.39790294  .00011656  00000+0  31207-3 0  9997
2 69626  51.8745 203.9844 0012689 317.4325  42.5677 15.38409338  7420
KUIPER-00573            
1 69627U 26140AM  26208.03041230  .00028374  00000+0  76223-3 0  9990
2 69627  51.8764 206.0149 0009273 329.6510  30.3939 15.37660383  7367
KUIPER-00258            
1 69763U 26151A   26207.98850020  .00018398  00000+0  55209-3 0  9997
2 69763  51.8684 123.7595 0011037 208.2399 151.7989 15.34450083  3828
KUIPER-00526            
1 69764U 26151B   26208.58335648 -.01894528  00000+0 -79756-1 0  9990
2 69764  51.8823 120.7715 0003375 185.9052 283.2886 15.26065491  4046
KUIPER-00558            
1 69765U 26151C   26208.58335648  .00040380  00000+0  16645-2 0  9996
2 69765  51.8812 121.2575 0006998 193.1258  37.3741 15.23668655  4527
KUIPER-00569            
1 69766U 26151D   26208.58335648 -.00855885  00000+0 -26235-1 0  9998
2 69766  51.8803 120.4776 0005437 186.2244  79.3379 15.35760304  3010
KUIPER-00589            
1 69767U 26151E   26208.58335648  .00023966  00000+0  87428-3 0  9997
2 69767  51.8821 120.7490 0004883 190.5912 276.1549 15.28016122  4551
KUIPER-00598            
1 69768U 26151F   26208.25104256  .00025180  00000+0  76328-3 0  9998
2 69768  51.8647 122.5107 0008413 203.0284 157.0325 15.33950386  3865
KUIPER-00604            
1 69769U 26151G   26208.13348010  .00028529  00000+0  75372-3 0  9992
2 69769  51.8809 122.5095 0002800 149.0069 211.1084 15.38207392  3856
KUIPER-00609            
1 69770U 26151H   26208.06238332  .00027429  00000+0  72809-3 0  9991
2 69770  51.8796 122.7838 0000765  81.5476 278.5598 15.38084550  3845
KUIPER-00611            
1 69771U 26151J   26208.12908814  .00027606  00000+0  71707-3 0  9991
2 69771  51.8813 122.4779 0001587 146.3023 213.8065 15.38748992  3857
KUIPER-00612            
1 69772U 26151K   26208.58335648 -.00704186  00000+0 -21226-1 0  9997
2 69772  51.8802 120.3862 0002442 161.5467 146.5114 15.36225381  1303
KUIPER-00614            
1 69773U 26151L   26208.06921358  .00032768  00000+0  85901-3 0  9990
2 69773  51.8818 122.8272 0002549 162.9909 197.1164 15.38375097  3847
KUIPER-00615            
1 69774U 26151M   26208.58335648 -.00384452  00000+0 -13785-1 0  9990
2 69774  51.8817 120.7201 0006235 203.2976 314.8982 15.29817440  2753
KUIPER-00616            
1 69775U 26151N   26208.19603821  .00028047  00000+0  73119-3 0  9991
2 69775  51.8795 122.1822 0002518 164.3565 195.7500 15.38627512  3869
KUIPER-00617            
1 69776U 26151P   26208.13981917  .00021349  00000+0  57076-3 0  9993
2 69776  51.8808 122.5506 0004115 176.3801 183.7216 15.38008168  3859
KUIPER-00619            
1 69777U 26151Q   26208.06255059  .00042185  00000+0  10851-2 0  9997
2 69777  51.8812 122.7838 0001732 100.1692 259.9491 15.38838620  3844
KUIPER-00621            
1 69778U 26151R   26208.06650007  .00027974  00000+0  73082-3 0  9995
2 69778  51.8806 122.8129 0002075 153.0926 207.0169 15.38564918  3842
KUIPER-00622            
1 69779U 26151S   26208.03277641  .00029255  00000+0  90226-3 0  9995
2 69779  51.8769 123.3334 0006487 191.8948 168.1885 15.33331341  3838
KUIPER-00623            
1 69780U 26151T   26208.58335648 -.00880247  00000+0 -27667-1 0  9994
2 69780  51.8804 120.4826 0004128 176.2473  76.7922 15.35067012  4676
KUIPER-00626            
1 69781U 26151U   26207.98483357  .00018823  00000+0  56610-3 0  9992
2 69781  51.8710 123.7429 0010193 206.5900 153.4564 15.34371472  3827
KUIPER-00627            
1 69782U 26151V   26207.92267573  .00020510  00000+0  61492-3 0  9997
2 69782  51.8684 124.0706 0011343 213.8179 146.2084 15.34398996  3813
KUIPER-00629            
1 69783U 26151W   26208.58335648 -.02288358  00000+0 -13320+0 0  9993
2 69783  51.8876 121.6040 0006426 225.5137 248.3335 15.15128765  4246
KUIPER-00631            
1 69784U 26151X   26208.58335648 -.02204061  00000+0 -12930+0 0  9999
2 69784  51.8851 121.5646 0008021 215.7928 253.5106 15.14701715  1650
KUIPER-00634            
1 69785U 26151Y   26208.58335648 -.00909156  00000+0 -28220-1 0  9996
2 69785  51.8789 120.4185 0003091 185.6440 103.0440 15.35551637  3643
KUIPER-00639            
1 69786U 26151Z   26208.17663786  .00023328  00000+0  69360-3 0  9997
2 69786  51.8678 122.7763 0009649 207.3632 152.6846 15.34597571  3857
KUIPER-00641            
1 69787U 26151AA  26208.18750229  .00024763  00000+0  76074-3 0  9992
2 69787  51.8682 122.8426 0011264 211.2364 148.7953 15.33509966  3857
KUIPER-00644            
1 69788U 26151AB  26208.03067098  .00030752  00000+0  85484-3 0  9992
2 69788  51.8742 123.3101 0007874 200.8410 159.2257 15.36568000  3827
KUIPER-00646            
1 69789U 26151AC  26208.17283263 -.00021502  00000+0 -62309-3 0  9998
2 69789  51.8713 122.7522 0009567 214.6608 145.3755 15.34508799  3858
KUIPER-00647            
1 69790U 26151AD  26208.18123450  .00023435  00000+0  70742-3 0  9997
2 69790  51.8669 122.7993 0010861 213.3285 146.7018 15.34102834  3855
KUIPER-00662            
1 69791U 26151AE  26208.58335648 -.01086598  00000+0 -59440-1 0  9998
2 69791  51.8877 121.3724 0008056 207.7301 288.0769 15.16470191  2938
