GLOBALSTAR M001         
1 25162U 98008A   26074.49516191 -.00000066  00000+0  23495-3 0  9994
2 25162  52.0020 263.5485 0002353 103.4680 278.6253 12.38229840277328
GLOBALSTAR M004         
1 25163U 98008B   26074.66179591 -.00000052  00000+0  28682-3 0  9991
2 25163  52.0014 305.9374 0003283 158.5994 236.0739 12.63416992296009
GLOBALSTAR M002         
1 25164U 98008C   26074.50349079 -.00000052  00000+0  48752-3 0  9995
2 25164  52.0008 279.9228 0000480 299.6985  60.3787 11.61515412215594
GLOBALSTAR M003         
1 25165U 98008D   26074.62433384 -.00000190  00000+0 -10733-2 0  9993
2 25165  51.9846 136.6946 0008644 117.9017  48.8452 12.12023086266131
GLOBALSTAR M014         
1 25306U 98023A   26074.57136391 -.00000090  00000+0 -23899-3 0  9996
2 25306  51.9827 197.2651 0001750 130.9506 312.4709 11.65485070222816
GLOBALSTAR M006         
1 25307U 98023B   26074.46143103 -.00000049  00000+0  55329-3 0  9990
2 25307  51.9921 260.1592 0002398 228.1696 147.0986 11.58178085248268
GLOBALSTAR M015         
1 25308U 98023C   26074.53296080 -.00000065  00000+0  19395-3 0  9993
2 25308  51.9863  10.8875 0012438 198.0364 332.9457 11.48861060225265
GLOBALSTAR M008         
1 25309U 98023D   26074.54862398 -.00000068  00000+0  21964-3 0  9994
2 25309  51.9953 131.2985 0002604  36.6023 111.0686 12.36081738271400
GLOBALSTAR M023         
1 25621U 99004A   26074.66248464 -.00000046  00000+0  32330-3 0  9991
2 25621  52.0115 306.7846 0009993  11.0977  23.9980 12.62519127250027
GLOBALSTAR M040         
1 25622U 99004B   26074.66368368 -.00000053  00000+0  28507-3 0  9997
2 25622  51.9925 311.3345 0000110 324.4071  71.2351 12.62029998249533
GLOBALSTAR M036         
1 25623U 99004C   26074.43851416 -.00000055  00000+0  39810-3 0  9995
2 25623  51.9951 245.3450 0010203 207.4404 166.9937 11.86621006211185
GLOBALSTAR M038         
1 25624U 99004D   26074.54675859 -.00000088  00000+0  57274-4 0  9994
2 25624  52.0006  10.0747 0001256 265.1029 265.6919 12.32542147235832
GLOBALSTAR M022         
1 25649U 99012A   26074.54212750 -.00000056  00000+0  37413-3 0  9994
2 25649  52.0028 273.2289 0002560   6.5055  20.3280 12.02511192209024
GLOBALSTAR M041         
1 25650U 99012B   26074.59597979 -.00000116  00000+0 -39468-3 0  9990
2 25650  52.0010 162.8063 0001898 135.3682 224.7308 11.96683665210772
GLOBALSTAR M046         
1 25651U 99012C   26074.66239076 -.00000096  00000+0 -81957-4 0  9998
2 25651  52.0042 213.1244 0002557  84.3343 289.0374 12.09418615216510
GLOBALSTAR M037         
1 25652U 99012D   26074.44115922 -.00000091  00000+0  73899-4 0  9998
2 25652  51.9997  77.9703 0002197  70.6498  81.4164 12.62462471245536
GLOBALSTAR M045         
1 25676U 99019A   26074.51052996 -.00000054  00000+0  35066-3 0  9992
2 25676  51.9954 251.9316 0001030  91.8570 302.4078 12.27074908226703
GLOBALSTAR M019         
1 25677U 99019B   26074.60991357 -.00000208  00000+0 -12308-2 0  9991
2 25677  51.9893  41.1139 0001434 135.2480  36.9522 12.13884571218107
GLOBALSTAR M044         
1 25678U 99019C   26074.62178479 -.00000075  00000+0  12615-3 0  9999
2 25678  51.9999  26.3960 0005925 200.6090 330.4461 11.90262904203646
GLOBALSTAR M042         
1 25679U 99019D   26074.54552923 -.00000080  00000+0  11130-3 0  9998
2 25679  52.0049   4.8918 0003030 129.3419  41.3742 12.22094535218438
GLOBALSTAR M025         
1 25770U 99031A   26073.94011233 -.00000049  00000+0  57505-3 0  9992
2 25770  51.9794 252.0511 0001736 202.9294 327.1531 11.22560919512117
GLOBALSTAR M049         
1 25771U 99031B   26074.61081776  .00000017  00000+0  28658-2 0  9997
2 25771  51.9879 298.9021 0003430 108.9837 251.1332 11.12122300147620
GLOBALSTAR M047         
1 25772U 99031C   26074.25319161 -.00000048  00000+0  59873-3 0  9999
2 25772  51.9815 270.7836 0016475  11.9663 348.1531 11.31932795501806
GLOBALSTAR M052         
1 25773U 99031D   26074.43061869 -.00000099  00000+0 -11189-2 0  9993
2 25773  51.9886  44.1635 0002391 262.5370 276.4271 11.15063935508765
GLOBALSTAR M035         
1 25851U 99037A   26074.63792082 -.00000036  00000+0  10598-2 0  9999
2 25851  51.9939 169.6001 0013818  65.2339  76.2743 11.04541301126256
GLOBALSTAR M032         
1 25852U 99037B   26074.42780968 -.00000012  00000+0  17584-2 0  9993
2 25852  51.9995 336.5574 0012183 264.4328  95.5082 11.19069295165159
GLOBALSTAR M051         
1 25853U 99037C   26074.34417261 -.00000058  00000+0  34733-3 0  9994
2 25853  51.9775 106.7578 0000515 144.3935 215.6910 11.42200603163376
GLOBALSTAR M030         
1 25854U 99037D   26074.45576807 -.00000052  00000+0  49523-3 0  9996
2 25854  51.9861 255.3431 0004068 150.4329 209.6718 11.55104315181392
GLOBALSTAR M048         
1 25872U 99041A   26074.66619855 -.00000065  00000+0  12579-3 0  9990
2 25872  51.9382  51.5054 0013218 295.3705 235.3073 11.33862735155777
GLOBALSTAR M026         
1 25873U 99041B   26074.51745728 -.00000056  00000+0  28647-3 0  9997
2 25873  52.0011 284.9697 0002136  21.1369 348.1675 11.06843225178535
GLOBALSTAR M043         
1 25874U 99041C   26074.64957742 -.00000091  00000+0 -67917-3 0  9996
2 25874  51.9389 170.0067 0013482  57.5335  85.6698 11.25697869153443
GLOBALSTAR M028         
1 25875U 99041D   26074.41397264 -.00000054  00000+0  29628-3 0  9994
2 25875  51.9613 104.3032 0063111 300.4930  58.9710 12.50597861224112
GLOBALSTAR M024         
1 25883U 99043A   26074.50496793 -.00000052  00000+0  46559-3 0  9992
2 25883  52.0006 128.4320 0001977 174.2398 324.5812 11.10172799144999
GLOBALSTAR M027         
1 25884U 99043B   26074.67119764 -.00000110  00000+0 -17450-2 0  9994
2 25884  52.0191 213.7297 0021831  71.4122 288.9040 11.04373914171238
GLOBALSTAR M054         
1 25885U 99043C   26074.59098612 -.00000048  00000+0  59632-3 0  9992
2 25885  52.0142 295.6630 0003980 289.8154  93.5622 11.39224953149989
GLOBALSTAR M053         
1 25886U 99043D   26074.48336840 -.00000051  00000+0  52008-3 0  9993
2 25886  51.9966 258.0666 0003710 167.0787 215.4819 11.27671200150055
GLOBALSTAR M058         
1 25907U 99049A   26074.47285868 -.00000057  00000+0  36752-3 0  9999
2 25907  51.9921 104.7619 0002287  81.1028 279.0065 11.93208631573928
GLOBALSTAR M050         
1 25908U 99049B   26074.42182142 -.00000158  00000+0 -78579-3 0  9992
2 25908  51.9974  92.3084 0009125 211.0147 289.8236 12.07465479180956
GLOBALSTAR M033         
1 25909U 99049C   26074.30563633 -.00000109  00000+0 -16995-3 0  9998
2 25909  51.9924 305.7391 0015217 100.9719 259.2841 12.20303672568846
GLOBALSTAR M055         
1 25910U 99049D   26074.55500409 -.00000057  00000+0  32108-3 0  9994
2 25910  52.0025 302.5688 0006739 342.8676  17.1948 12.29441838201663
GLOBALSTAR M057         
1 25943U 99058A   26074.61697794 -.00000044  00000+0  44210-3 0  9994
2 25943  51.9987 297.8815 0002008 195.9990 164.0797 12.24835742200190
GLOBALSTAR M059         
1 25944U 99058B   26074.62632369 -.00000095  00000+0 -10718-3 0  9996
2 25944  52.0011 192.8312 0001126 136.7522 236.8631 11.99994486606637
GLOBALSTAR M056         
1 25945U 99058C   26074.62358444 -.00000036  00000+0  60635-3 0  9993
2 25945  51.9954 187.8426 0001008  44.2014 329.7078 12.04786789195340
GLOBALSTAR M031         
1 25946U 99058D   26074.43509560 -.00000164  00000+0 -74091-3 0  9994
2 25946  51.9967  64.4335 0001417  20.5670 146.3651 12.16050505197540
GLOBALSTAR M039         
1 25961U 99062A   26074.59288544 -.00000120  00000+0 -90546-4 0  9995
2 25961  51.9836 162.0530 0002541 215.8415 144.2281 12.62342814214497
GLOBALSTAR M034         
1 25962U 99062B   26074.59041732 -.00000085  00000+0 -68509-4 0  9996
2 25962  51.9903  25.8869 0013915 193.2596 337.7302 11.79456009170415
GLOBALSTAR M029         
1 25963U 99062C   26074.43569618 -.00000062  00000+0  29863-3 0  9991
2 25963  51.9794  81.1493 0002307 287.7654 221.4080 11.99909025201688
GLOBALSTAR M061         
1 25964U 99062D   26074.10771631 -.00000129  00000+0 -80141-3 0  9997
2 25964  51.9782 214.7765 0006809 115.0453  55.9770 11.76777580153072
GLOBALSTAR M063         
1 26081U 00008A   26074.51683772 -.00000061  00000+0  31399-3 0  9998
2 26081  51.9938 116.9786 0004960 115.8563  29.6174 11.86181536189771
GLOBALSTAR M062         
1 26082U 00008B   26074.15799943 -.00000034  00000+0  45900-3 0  9990
2 26082  51.9878  18.9245 0007369 334.9301  39.0052 12.43482173530333
GLOBALSTAR M060         
1 26083U 00008C   26074.54706586 -.00000162  00000+0 -71011-3 0  9990
2 26083  52.0050  16.1822 0003116 326.5681 204.5415 12.17674633185426
GLOBALSTAR M064         
1 26084U 00008D   26074.61589644 -.00000095  00000+0 -16302-3 0  9990
2 26084  52.0020 212.3471 0001547 186.9149 173.1662 11.88542568199379
GLOBALSTAR M065         
1 31571U 07020A   26074.58752265 -.00000071  00000+0  18276-3 0  9990
2 31571  51.9877 120.1981 0009995 187.6027 338.0868 12.62021397867674
GLOBALSTAR M069         
1 31573U 07020C   26074.58426453 -.00000099  00000+0 -55852-4 0  9992
2 31573  52.0026 157.0593 0001158 316.3781 181.9059 12.23468910867347
GLOBALSTAR M072         
1 31574U 07020D   26074.46811071 -.00000075  00000+0  12250-3 0  9991
2 31574  51.9969 349.7530 0001526 109.6456  61.9583 11.91656089863800
GLOBALSTAR M071         
1 31576U 07020F   26074.60843012 -.00000047  00000+0  43390-3 0  9997
2 31576  52.0053 190.2586 0000096 228.6472 144.4187 12.18266994528020
GLOBALSTAR M067         
1 32263U 07048A   26074.65802243 -.00000075  00000+0  16976-3 0  9998
2 32263  51.9747 321.5764 0000953 158.8849 218.3907 12.40685211843183
GLOBALSTAR M070         
1 32264U 07048B   26074.58944905 -.00000103  00000+0  41138-5 0  9995
2 32264  51.9776  21.6891 0000688  60.8052 110.4711 12.62331511847946
GLOBALSTAR M066         
1 32265U 07048C   26074.64324563 -.00000081  00000+0  11285-3 0  9998
2 32265  51.9613 326.4534 0004284 198.3569 176.7062 12.30386823848714
GLOBALSTAR M068         
1 32266U 07048D   26074.55587024 -.00000117  00000+0 -73906-4 0  9992
2 32266  51.9879 195.0197 0001152  55.0180  27.2053 12.62842135851849
GLOBALSTAR M079         
1 37188U 10054A   26074.64389476 -.00000105  00000+0 -54645-5 0  9999
2 37188  52.0061  33.4276 0000539 105.9088  65.0256 12.62263936710738
GLOBALSTAR M074         
1 37189U 10054B   26074.16050910 -.00000110  00000+0 -35892-4 0  9993
2 37189  52.0037  34.1799 0000245  74.9266 297.7352 12.62266342711283
GLOBALSTAR M076         
1 37190U 10054C   26074.61760437 -.00000103  00000+0  67169-5 0  9991
2 37190  52.0051  32.9829 0000304 121.6333  49.3497 12.62270627711059
GLOBALSTAR M077         
1 37191U 10054D   26074.67272413 -.00000091  00000+0 -23262-3 0  9991
2 37191  51.9990  56.7264 0000806 146.7906  24.9106 11.68156524710215
GLOBALSTAR M075         
1 37192U 10054E   26074.47022924 -.00000097  00000+0  35440-4 0  9997
2 37192  51.9940  75.5381 0000360  91.1424  69.9332 12.62264962710102
GLOBALSTAR M073         
1 37193U 10054F   26074.47278966 -.00000098  00000+0  33996-4 0  9992
2 37193  52.0089 349.5609 0000592 100.3695  71.3522 12.62265260712096
GLOBALSTAR M083         
1 37739U 11033A   26074.61232044 -.00000066  00000+0  20966-3 0  9996
2 37739  51.9860 297.4945 0000864 101.1394 286.5672 12.62267985681130
GLOBALSTAR M088         
1 37740U 11033B   26074.51799733 -.00000119  00000+0 -86068-4 0  9996
2 37740  52.0205 203.9798 0000721 108.1707 329.2782 12.62262263676665
GLOBALSTAR M091         
1 37741U 11033C   26074.62394061 -.00000107  00000+0 -16647-4 0  9997
2 37741  51.9989 166.7616 0000748 109.9443  29.6415 12.62270408677466
GLOBALSTAR M085         
1 37742U 11033D   26074.53326847 -.00000087  00000+0  92289-4 0  9997
2 37742  52.0109 118.2473 0000664 111.5565  36.0800 12.62269781677964
GLOBALSTAR M081         
1 37743U 11033E   26074.47842240 -.00000094  00000+0  55086-4 0  9993
2 37743  51.9946 120.9576 0000501 130.4405   7.7001 12.62262856678100
GLOBALSTAR M089         
1 37744U 11033F   26074.44234835 -.00000084  00000+0  10954-3 0  9999
2 37744  51.9924  75.2425 0000038 134.3190  19.9118 12.62264922678943
GLOBALSTAR M084         
1 38040U 11080A   26074.58351601 -.00000077  00000+0  15046-3 0  9996
2 38040  52.0015 302.2484 0000498  86.9980 288.8850 12.62265660656949
GLOBALSTAR M080         
1 38041U 11080B   26074.55277951 -.00000063  00000+0  23024-3 0  9999
2 38041  52.0068 304.0287 0001192  75.6460 290.0102 12.62267441657067
GLOBALSTAR M082         
1 38042U 11080C   26074.49309492 -.00000080  00000+0  13061-3 0  9998
2 38042  52.0063 259.6997 0001151  88.5572 295.7214 12.62268526657766
GLOBALSTAR M092         
1 38043U 11080D   26074.49918476 -.00000092  00000+0  68436-4 0  9997
2 38043  52.0114 350.0715 0000568  75.5471  96.2960 12.62264598656219
GLOBALSTAR M090         
1 38044U 11080E   26074.43829692 -.00000083  00000+0  11447-3 0  9992
2 38044  52.0108 253.7918 0000931 102.2954 271.8828 12.62272136657879
GLOBALSTAR M086         
1 38045U 11080F   26074.46285369 -.00000073  00000+0  17239-3 0  9997
2 38045  51.9888 253.8000 0001102 160.7453 220.0718 12.62284192657824
GLOBALSTAR M097         
1 39072U 13005A   26074.56648218 -.00000119  00000+0 -86242-4 0  9997
2 39072  52.0040 168.3218 0000787 121.2800 238.8144 12.62265586605081
GLOBALSTAR M093         
1 39073U 13005B   26074.61954084 -.00000096  00000+0  44632-4 0  9995
2 39073  52.0106 161.4736 0000868 127.6522 232.4424 12.62263956605041
GLOBALSTAR M094         
1 39074U 13005C   26074.46135446 -.00000100  00000+0  21214-4 0  9999
2 39074  51.9952  76.1654 0000528 117.2761 242.8160 12.62267185606639
GLOBALSTAR M096         
1 39075U 13005D   26074.55372156 -.00000087  00000+0  93273-4 0  9999
2 39075  52.0061 124.6129 0000638 118.2455 241.8477 12.62263770605569
GLOBALSTAR M078         
1 39076U 13005E   26074.52700272 -.00000115  00000+0 -63903-4 0  9991
2 39076  51.9867 208.8315 0001522  80.7100 279.3939 12.62276075604185
GLOBALSTAR M095         
1 39077U 13005F   26074.63280918 -.00000117  00000+0 -76081-4 0  9997
2 39077  52.0071 205.9813 0001239 105.1942 254.9062 12.62276265604050
GLOBALSTAR M087         
1 52888U 22064A   26073.93357702 -.00000084  00000+0  11188-3 0  9993
2 52888  52.0027 349.4052 0000812  88.9597 271.1362 12.62267165179235
