IRIDIUM 106             
1 41917U 17003A   26114.51326674 -.00000010  00000+0 -10536-4 0  9992
2 41917  86.3927 110.9999 0002541  86.1485 274.0002 14.34217315485510
IRIDIUM 103             
1 41918U 17003B   26114.43081141  .00000003  00000+0 -58560-5 0  9992
2 41918  86.3927 110.9343 0002169  97.6836 262.4606 14.34217523485520
IRIDIUM 109             
1 41919U 17003C   26114.50692256  .00000010  00000+0 -36142-5 0  9996
2 41919  86.3927 110.9612 0002164  90.7398 269.4045 14.34217793485503
IRIDIUM 102             
1 41920U 17003D   26114.47521080 -.00000003  00000+0 -82590-5 0  9991
2 41920  86.3927 110.8992 0002174  88.0371 272.1074 14.34217504485588
IRIDIUM 105             
1 41921U 17003E   26114.43520697  .00000134  00000+0  40515-4 0  9994
2 41921  86.3940  79.3421 0002282  87.7240 272.4217 14.34397444487431
IRIDIUM 104             
1 41922U 17003F   26114.48789442 -.00000003  00000+0 -82088-5 0  9994
2 41922  86.3928 110.9356 0001966  95.5080 264.6340 14.34217554485570
IRIDIUM 114             
1 41923U 17003G   26114.49423860  .00000005  00000+0 -52079-5 0  9993
2 41923  86.3927 110.9163 0002125  94.6914 265.4524 14.34217512485555
IRIDIUM 108             
1 41924U 17003H   26114.45276013  .00000047  00000+0  97258-5 0  9999
2 41924  86.3934  79.2268 0002242  83.6563 276.4888 14.34217566487405
IRIDIUM 112             
1 41925U 17003J   26114.41178458  .00000074  00000+0  19273-4 0  9990
2 41925  86.3921 110.7953 0002174  91.6892 268.4552 14.34218088485566
IRIDIUM 111             
1 41926U 17003K   26114.53863704 -.00000003  00000+0 -83032-5 0  9998
2 41926  86.3925 110.8116 0002208  91.5471 268.5977 14.34217437485562
IRIDIUM 113             
1 42803U 17039A   26114.16975848  .00000010  00000+0 -35298-5 0  9992
2 42803  86.3991 344.7639 0001849  90.1737 269.9671 14.34217584463440
IRIDIUM 123             
1 42804U 17039B   26114.21123614  .00000060  00000+0  14374-4 0  9990
2 42804  86.4017  16.1925 0002286  86.9855 273.1603 14.34218459462217
IRIDIUM 120             
1 42805U 17039C   26114.16341626  .00000056  00000+0  12932-4 0  9993
2 42805  86.3982 344.5564 0002249  83.0785 277.0667 14.34217992463433
IRIDIUM 115             
1 42806U 17039D   26113.06988514  .00000349  00000+0  97809-4 0  9996
2 42806  86.4524 345.1348 0002508  87.6504 272.4984 14.43282226466314
IRIDIUM 118             
1 42807U 17039E   26114.17318161 -.00000054  00000+0 -26324-4 0  9994
2 42807  86.4013  16.2066 0002009  84.6182 275.5243 14.34217490462203
IRIDIUM 117             
1 42808U 17039F   26113.21545065  .00000024  00000+0  15161-5 0  9997
2 42808  86.4024  16.5654 0002271  87.9741 272.1715 14.34217915462096
IRIDIUM 126             
1 42809U 17039G   26114.21758040  .00000011  00000+0 -29826-5 0  9998
2 42809  86.4014  16.1964 0002056  88.9237 271.2194 14.34217503462216
IRIDIUM 124             
1 42810U 17039H   26113.97437518  .00000101  00000+0  23924-4 0  9997
2 42810  86.4458 313.0445 0002217  89.1878 270.9577 14.43280973467291
IRIDIUM 128             
1 42811U 17039J   26114.27808679 -.00000010  00000+0 -10719-4 0  9991
2 42811  86.3987  47.6782 0002268  81.2838 278.8615 14.34217560462250
IRIDIUM 121             
1 42812U 17039K   26114.16686203  .00000219  00000+0  71156-4 0  9998
2 42812  86.4015  16.2449 0002205  82.2390 277.9056 14.34218506462082
IRIDIUM 133             
1 42955U 17061A   26114.30980012  .00000047  00000+0  97954-5 0  9996
2 42955  86.3987  47.7809 0002283  85.7463 274.3994 14.34217750447053
IRIDIUM 100             
1 42956U 17061B   26114.30345606 -.00000029  00000+0 -17343-4 0  9996
2 42956  86.3984  47.7033 0002280  85.1085 275.0371 14.34216592447051
IRIDIUM 122             
1 42957U 17061C   26114.34151375  .00000075  00000+0  19781-4 0  9996
2 42957  86.3982  47.6877 0002379  86.1983 273.9485 14.34217395447068
IRIDIUM 129             
1 42958U 17061D   26114.29711377 -.00000041  00000+0 -21611-4 0  9995
2 42958  86.3986  47.7729 0001822  85.6661 274.4743 14.34217477447074
IRIDIUM 119             
1 42959U 17061E   26114.33517042  .00000012  00000+0 -28560-5 0  9992
2 42959  86.3986  47.7523 0002224  88.6002 271.5449 14.34217644447095
IRIDIUM 107             
1 42960U 17061F   26114.28443021 -.00000145  00000+0 -58884-4 0  9992
2 42960  86.3989  47.7947 0002349  88.6557 271.4908 14.34218074447090
IRIDIUM 132             
1 42961U 17061G   26114.29077234  .00000065  00000+0  16077-4 0  9990
2 42961  86.3986  47.7715 0002251  85.5212 274.6241 14.34217886447092
IRIDIUM 136             
1 42962U 17061H   26114.32248529 -.00000033  00000+0 -18757-4 0  9996
2 42962  86.3984  47.7649 0002164  87.9012 272.2432 14.34217442447111
IRIDIUM 139             
1 42963U 17061J   26114.32882777 -.00000009  00000+0 -10109-4 0  9992
2 42963  86.3985  47.8233 0002212  83.7216 276.4232 14.34217565447128
IRIDIUM 125             
1 42964U 17061K   26114.31614257  .00000039  00000+0  68862-5 0  9999
2 42964  86.3988  47.8885 0002303  98.4364 261.7093 14.34217886447132
IRIDIUM 135             
1 43070U 17083A   26114.15073147  .00000041  00000+0  74692-5 0  9992
2 43070  86.3989 344.6126 0002153  84.8187 275.3254 14.34217526436402
IRIDIUM 138             
1 43071U 17083B   26114.17610092  .00000003  00000+0 -60179-5 0  9995
2 43071  86.3998 344.2888 0001846  94.1617 265.9790 14.34217603436398
IRIDIUM 116             
1 43072U 17083C   26114.14438869 -.00000005  00000+0 -88006-5 0  9995
2 43072  86.3990 344.6017 0002233  80.6639 279.4809 14.34217545436424
IRIDIUM 130             
1 43073U 17083D   26114.04290869 -.00000037  00000+0 -20163-4 0  9995
2 43073  86.3993 344.9136 0002272  85.5674 274.5781 14.34216998436357
IRIDIUM 151             
1 43074U 17083E   26114.15707368  .00000176  00000+0  55641-4 0  9996
2 43074  86.3988 344.6529 0002165  84.1996 275.9447 14.34218240436398
IRIDIUM 134             
1 43075U 17083F   26114.19512927  .00000123  00000+0  36780-4 0  9991
2 43075  86.3992 344.6444 0002292  86.4309 273.7149 14.34217717436364
IRIDIUM 137             
1 43076U 17083G   26114.13804642 -.00000100  00000+0 -42664-4 0  9999
2 43076  86.3991 344.7596 0002076  70.9540 289.1881 14.34217024436420
IRIDIUM 141             
1 43077U 17083H   26114.13170248  .00000120  00000+0  35798-4 0  9998
2 43077  86.3991 344.5964 0002087  86.4837 273.6597 14.34217841436420
IRIDIUM 153             
1 43078U 17083J   26114.01411339  .00000036  00000+0  59245-5 0  9995
2 43078  86.3937 313.1375 0002077  94.7295 265.4138 14.34217773437513
IRIDIUM 131             
1 43079U 17083K   26114.11901769  .00000069  00000+0  17593-4 0  9993
2 43079  86.3999 344.7841 0002074  85.1383 275.0050 14.34217677436353
IRIDIUM 144             
1 43249U 18030A   26114.50883844  .00000036  00000+0  56476-5 0  9999
2 43249  86.3935 312.8609 0002246  86.2050 273.9403 14.34217101422440
IRIDIUM 149             
1 43250U 18030B   26114.30587517  .00000015  00000+0 -16572-5 0  9998
2 43250  86.3930 312.9133 0001959  89.8662 270.2758 14.34217061422435
IRIDIUM 157             
1 43251U 18030C   26114.53420698  .00000030  00000+0  36898-5 0  9999
2 43251  86.3936 312.8699 0002155  89.4977 270.6466 14.34217545422440
IRIDIUM 140             
1 43252U 18030D   26114.55323632  .00000029  00000+0  32907-5 0  9997
2 43252  86.3933 312.8743 0002141  89.2053 270.9388 14.34217250422502
IRIDIUM 145             
1 43253U 18030E   26114.54055010  .00000046  00000+0  94096-5 0  9995
2 43253  86.3937 312.8524 0002392  82.9376 277.2092 14.34217646422433
IRIDIUM 146             
1 43254U 18030F   26114.52152204  .00000043  00000+0  83344-5 0  9998
2 43254  86.3935 312.8726 0002232  86.4204 273.7247 14.34217607422449
IRIDIUM 148             
1 43255U 18030G   26114.48982050  .00000044  00000+0  87613-5 0  9998
2 43255  86.3937 312.9282 0002096  86.1634 273.9801 14.34215448422474
IRIDIUM 142             
1 43256U 18030H   26114.52787529  .00000040  00000+0  71221-5 0  9992
2 43256  86.3934 312.8033 0002304  84.5838 275.5620 14.34214971422449
IRIDIUM 150             
1 43257U 18030J   26114.49615034  .00000036  00000+0  59478-5 0  9995
2 43257  86.3937 312.9311 0002189  88.5075 271.6372 14.34217870422465
IRIDIUM 143             
1 43258U 18030K   26113.98874363  .00000037  00000+0  60918-5 0  9993
2 43258  86.3942 313.2339 0002265  86.5843 273.5612 14.34217849422321
IRIDIUM 161             
1 43478U 18047C   26114.50692382  .00000154  00000+0  39682-4 0  9996
2 43478  86.4445 110.9211 0002013  90.2608 269.8823 14.43280662417393
IRIDIUM 152             
1 43479U 18047D   26114.51960919  .00000000  00000+0 -70437-5 0  9997
2 43479  86.3920 110.7762 0002079  92.2631 267.8803 14.34217418414796
IRIDIUM 147             
1 43480U 18047E   26114.52595179 -.00000010  00000+0 -10670-4 0  9996
2 43480  86.3924 110.7780 0002251  87.4423 272.7030 14.34217324414792
IRIDIUM 110             
1 43481U 18047F   26114.53229264  .00000026  00000+0  20844-5 0  9997
2 43481  86.3923 110.8656 0001935  94.4428 265.6989 14.34217720414789
IRIDIUM 162             
1 43482U 18047G   26114.43129247  .00000149  00000+0  38289-4 0  9994
2 43482  86.4444 110.8444 0002383  92.3106 267.8367 14.43280740417376
IRIDIUM 160             
1 43569U 18061A   26114.33859251  .00000011  00000+0 -30886-5 0  9995
2 43569  86.3938  79.3101 0002038  85.9195 274.2234 14.34217112405657
IRIDIUM 166             
1 43570U 18061B   26114.43375197  .00000229  00000+0  74664-4 0  9991
2 43570  86.3934  79.2210 0002365  84.6527 275.4938 14.34216964405695
IRIDIUM 158             
1 43571U 18061C   26114.33225080  .00000006  00000+0 -49013-5 0  9991
2 43571  86.3936  79.2738 0002160  90.0190 270.1253 14.34217522405641
IRIDIUM 165             
1 43572U 18061D   26114.42738977  .00000084  00000+0  22988-4 0  9992
2 43572  86.3936  79.2790 0002333  84.3882 275.7580 14.34217826405681
IRIDIUM 155             
1 43573U 18061E   26114.31956558  .00000136  00000+0  41442-4 0  9992
2 43573  86.3931  79.1958 0002394  88.7137 271.4333 14.34217794405638
IRIDIUM 154             
1 43574U 18061F   26114.44007486  .00000113  00000+0  33227-4 0  9991
2 43574  86.3935  79.2764 0002347  83.3086 276.8377 14.34217540405705
IRIDIUM 163             
1 43575U 18061G   26114.42104750  .00000227  00000+0  73824-4 0  9995
2 43575  86.3934  79.2013 0002216  89.7397 270.4052 14.34217877405671
IRIDIUM 156             
1 43576U 18061H   26114.32590866 -.00000015  00000+0 -12594-4 0  9996
2 43576  86.3937  79.2486 0002332  88.1972 271.9491 14.34217251405657
IRIDIUM 164             
1 43577U 18061J   26114.44641727  .00000011  00000+0 -29858-5 0  9990
2 43577  86.3937  79.2378 0002207  82.2393 277.9054 14.34217565405717
IRIDIUM 159             
1 43578U 18061K   26114.34493594  .00000078  00000+0  20679-4 0  9990
2 43578  86.3931  79.2178 0002104  87.8494 272.2942 14.34218153405661
IRIDIUM 180             
1 43922U 19002A   26113.64674525  .00000054  00000+0  12345-4 0  9991
2 43922  86.4018  16.3891 0002053  84.0243 276.1187 14.34218340381170
IRIDIUM 176             
1 43923U 19002B   26114.12466037  .00000539  00000+0  81590-4 0  9999
2 43923  86.6133  16.1408 0002571  81.9196 278.2313 14.72254002391296
IRIDIUM 168             
1 43924U 19002C   26114.19856819  .00000216  00000+0  70036-4 0  9993
2 43924  86.4018  16.2343 0002168  84.3593 275.7850 14.34219069381239
IRIDIUM 173             
1 43925U 19002D   26114.11609869 -.00000026  00000+0 -16366-4 0  9994
2 43925  86.4010  16.1596 0002083  87.7289 272.4145 14.34217241381204
IRIDIUM 169             
1 43926U 19002E   26114.20741222  .00000257  00000+0  77648-4 0  9999
2 43926  86.4253  47.7489 0003313  89.1013 271.0565 14.38606694382461
IRIDIUM 172             
1 43927U 19002F   26114.17952449 -.00000017  00000+0 -13226-4 0  9999
2 43927  86.4010  16.1409 0001935  84.1251 276.0166 14.34217415381222
IRIDIUM 175             
1 43928U 19002G   26114.00177126  .00000062  00000+0  12327-4 0  9992
2 43928  86.4489 313.1877 0004992  61.4672 298.7031 14.43589833391165
IRIDIUM 171             
1 43929U 19002H   26114.23026549 -.00000002  00000+0 -78949-5 0  9999
2 43929  86.4020  16.4199 0002191  82.7554 277.3891 14.34217621381227
IRIDIUM 170             
1 43930U 19002J   26114.19881161  .00000619  00000+0  94229-4 0  9995
2 43930  86.6137  16.1125 0002273  83.5591 276.5885 14.72250178391318
IRIDIUM 167             
1 43931U 19002K   26114.22392347  .00000036  00000+0  58469-5 0  9993
2 43931  86.4016  16.1445 0002498  83.3640 276.7841 14.34217955381227
IRIDIUM 181             
1 56726U 23068S   26113.33623220  .00000265  00000+0  72870-4 0  9999
2 56726  86.4472  79.7166 0002171  79.6752 280.4693 14.43311656154525
IRIDIUM 177             
1 56727U 23068T   26114.17380025  .00000799  00000+0  10165-3 0  9996
2 56727  86.1997 354.4463 0002257  92.1509 267.9971 14.80230507158375
IRIDIUM 174             
1 56728U 23068U   26114.18644850  .00000679  00000+0  10376-3 0  9998
2 56728  86.6143  16.2593 0002234  87.2860 272.8613 14.72253458158077
IRIDIUM 178             
1 56729U 23068V   26114.23039632  .00000925  00000+0  11832-3 0  9993
2 56729  86.6552  47.8980 0002536  79.7577 280.3931 14.80235223158388
IRIDIUM 179             
1 56730U 23068W   26114.15742149  .00000543  00000+0  67961-4 0  9991
2 56730  86.6781  56.7491 0002904  83.8230 276.3322 14.80231804158370
