QIANFAN-1               
1 60379U 24140A   26182.18195720  .00000145  00000+0  20549-3 0  9990
2 60379  88.9739 278.4788 0016953   3.6453 356.4819 13.51017668 94412
QIANFAN-2               
1 60380U 24140B   26182.13671943  .00000155  00000+0  22187-3 0  9994
2 60380  88.9726 278.2955 0011216 337.0792  22.9857 13.51013350 94467
QIANFAN-3               
1 60381U 24140C   26182.14492720  .00000148  00000+0  21027-3 0  9994
2 60381  88.9718 278.4121 0012780 350.0360  10.0536 13.51014344 94375
QIANFAN-4               
1 60382U 24140D   26182.12018845  .00000149  00000+0  21191-3 0  9998
2 60382  88.9743 278.3628 0011529 339.8701  20.1994 13.51017157 94497
QIANFAN-5               
1 60383U 24140E   26182.16959087  .00000153  00000+0  21745-3 0  9995
2 60383  88.9718 278.4342 0014496   0.9603 359.1573 13.51015905 94360
QIANFAN-6               
1 60384U 24140F   26182.11607767  .00000153  00000+0  21896-3 0  9993
2 60384  88.9745 278.2403 0011874 346.3003  13.7824 13.51016288 94553
QIANFAN-7               
1 60385U 24140G   26182.11535660  .00000611  00000+0  24070-3 0  9992
2 60385  88.9776 270.1380 0017708 101.4280 258.8904 14.27852780 98983
QIANFAN-8               
1 60386U 24140H   26182.12432514  .00000146  00000+0  20806-3 0  9994
2 60386  88.9746 278.4795 0015371 346.5560  13.5179 13.51012680 94405
QIANFAN-9               
1 60387U 24140J   26182.17366463  .00000158  00000+0  22571-3 0  9993
2 60387  88.9744 278.5457 0015051 346.2875  13.7865 13.51018302 94390
QIANFAN-10              
1 60388U 24140K   26182.17778972  .00000142  00000+0  20067-3 0  9997
2 60388  88.9755 277.9133 0012789 321.9479  38.0767 13.51019287 94521
QIANFAN-11              
1 60389U 24140L   26182.14075338  .00000150  00000+0  21302-3 0  9993
2 60389  88.9680 278.3536 0013102 347.2119  12.8698 13.51013392 94178
QIANFAN-12              
1 60390U 24140M   26182.16141566  .00000133  00000+0  18663-3 0  9991
2 60390  88.9723 278.4822 0012253 356.8126   3.2945 13.51015541 94309
QIANFAN-13              
1 60391U 24140N   26182.13257375  .00000136  00000+0  19200-3 0  9996
2 60391  88.9735 278.6093 0012190 359.8432   0.2714 13.51015597 94322
QIANFAN-14              
1 60392U 24140P   26182.15727234  .00000158  00000+0  22542-3 0  9992
2 60392  88.9714 278.4620 0015824 357.2286   2.8774 13.51009200 94339
QIANFAN-15              
1 60393U 24140Q   26182.16543323  .00000121  00000+0  16927-3 0  9999
2 60393  88.9738 278.4653 0011142 345.3750  14.7077 13.51009667 94329
QIANFAN-16              
1 60394U 24140R   26182.15321147  .00000153  00000+0  21799-3 0  9995
2 60394  88.9740 278.5924 0013949   2.4879 357.6339 13.51017568 94234
QIANFAN-17              
1 60395U 24140S   26182.14899772  .00000157  00000+0  22394-3 0  9995
2 60395  88.9751 278.6606 0014079 355.6739   4.4288 13.51013758 95191
QIANFAN-18              
1 60396U 24140T   26182.12838775  .00000137  00000+0  19385-3 0  9994
2 60396  88.9745 278.1830 0012770 337.4427  22.6161 13.51013089 94588
QIANFAN-19              
1 61552U 24185A   26182.14990010  .00000448  00000+0  22641-3 0  9995
2 61552  88.9826  54.9771 0008228  36.0135 324.1605 14.14486103 97990
QIANFAN-20              
1 61553U 24185B   26182.10532378  .00000265  00000+0  14463-3 0  9991
2 61553  88.9822  55.5049 0008075  72.3541 287.8524 14.09028598 97704
QIANFAN-21              
1 61554U 24185C   26182.12447991  .00000614  00000+0  26694-3 0  9997
2 61554  88.9742  53.5107 0012951  73.2012 287.0599 14.22868813 98465
QIANFAN-22              
1 61555U 24185D   26182.15105811  .00000291  00000+0  23972-3 0  9990
2 61555  88.9808  57.2900 0008604  98.0123 262.2024 13.86400672 96706
QIANFAN-23              
1 61556U 24185E   26182.12367794  .00000417  00000+0  20238-3 0  9990
2 61556  88.9818  54.6954 0009101  42.5856 317.6036 14.16510580 98117
QIANFAN-24              
1 61557U 24185F   26182.16819536  .00000619  00000+0  26301-3 0  9992
2 61557  88.9801  53.7699 0010099  18.4630 341.6927 14.24084811 98541
QIANFAN-25              
1 61558U 24185G   26182.13226541  .00000398  00000+0  23388-3 0  9994
2 61558  88.9816  55.5115 0012959  68.9364 291.3203 14.06087782 97662
QIANFAN-26              
1 61559U 24185H   26182.10749954  .00000243  00000+0  22961-3 0  9995
2 61559  88.9815  58.1245 0007463 114.1137 246.0810 13.77919134 96269
QIANFAN-27              
1 61560U 24185J   26182.16330308  .00000394  00000+0  15422-3 0  9993
2 61560  88.9811  53.4499 0007624  10.3507 349.7843 14.27547400 98755
QIANFAN-28              
1 61561U 24185K   26182.10566125  .00000713  00000+0  27967-3 0  9998
2 61561  88.9829  53.4695 0007445   8.8961 351.2364 14.28403681 98771
QIANFAN-29              
1 61562U 24185L   26182.14703486  .00000138  00000+0  19501-3 0  9992
2 61562  88.9789  60.5967 0009505 179.4209 180.6955 13.51076018 94857
QIANFAN-30              
1 61563U 24185M   26182.12561102  .00000170  00000+0  24797-3 0  9997
2 61563  88.9809  60.2008 0007486 161.9844 198.1573 13.50056130 95102
QIANFAN-31              
1 61564U 24185N   26182.16940397  .00000135  00000+0  17005-3 0  9994
2 61564  88.9793  59.6802 0007537 148.6857 211.4748 13.58043151 95360
QIANFAN-32              
1 61565U 24185P   26182.13210676  .00000160  00000+0  23071-3 0  9990
2 61565  88.9850  60.3944 0008644 196.0600 164.0279 13.50788739 95096
QIANFAN-33              
1 61566U 24185Q   26182.15244064  .00000181  00000+0  12062-3 0  9992
2 61566  88.9807  56.4648 0009615  65.9783 294.2400 13.96715935 97138
QIANFAN-34              
1 61567U 24185R   26182.15147372  .00000407  00000+0  25552-3 0  9996
2 61567  88.9784  55.7629 0008455  65.6899 294.5163 14.02477727 97445
QIANFAN-35              
1 61568U 24185S   26182.15591279  .00000670  00000+0  26275-3 0  9991
2 61568  88.9810  53.3563 0006534   8.8475 351.2833 14.28285229 98787
QIANFAN-36              
1 61569U 24185T   26182.13926874  .00000137  00000+0  17939-3 0  9998
2 61569  88.9784  60.1624 0006231 162.3618 197.7753 13.55637660 95073
QIANFAN-37              
1 62238U 24232B   26182.11146731  .00000046  00000+0  52759-4 0  9998
2 62238  89.0063  21.1861 0001567 100.8163 259.3164 13.51010330126226
QIANFAN-38              
1 62239U 24232C   26182.13614711  .00000045  00000+0  51830-4 0  9997
2 62239  89.0070  21.1132 0013884 344.3921  15.6800 13.51007045126283
QIANFAN-39              
1 62240U 24232D   26182.11861212  .00000139  00000+0  52685-4 0  9990
2 62240  89.0055  14.4794 0017687 136.2034 224.0566 14.25529616129930
QIANFAN-40              
1 62241U 24232E   26182.16903757  .00000042  00000+0  47054-4 0  9994
2 62241  89.0098  20.7503 0013215 353.1076   6.9891 13.51008788126659
QIANFAN-41              
1 62242U 24232F   26182.17728125  .00000055  00000+0  65992-4 0  9995
2 62242  89.0068  21.0569 0013155 340.5292  19.5355 13.51011400126319
QIANFAN-42              
1 62243U 24232G   26182.17403796  .00000137  00000+0  52396-4 0  9995
2 62243  89.0053  14.5500 0016328 141.7933 218.4420 14.24618269129902
QIANFAN-43              
1 62244U 24232H   26182.17315985  .00000044  00000+0  50450-4 0  9994
2 62244  89.0073  21.1314 0014862 345.1326  14.9386 13.51010973 94929
QIANFAN-44              
1 62245U 24232J   26182.16077922  .00000032  00000+0  31860-4 0  9991
2 62245  89.0071  20.9401 0012999 343.1321  16.9396 13.51012891126395
QIANFAN-45              
1 62246U 24232K   26182.12793016  .00000040  00000+0  44046-4 0  9996
2 62246  89.0075  21.0971 0013639 342.4121  17.6556 13.51010375126319
QIANFAN-46              
1 62247U 24232L   26182.15259329  .00000027  00000+0  22667-4 0  9994
2 62247  89.0071  21.1554 0013895 348.0673  12.0147 13.51011109126278
QIANFAN-47              
1 62248U 24232M   26182.15671647  .00000048  00000+0  56549-4 0  9995
2 62248  89.0067  21.0799 0014275 346.9491  13.1289 13.51010285126309
QIANFAN-48              
1 62249U 24232N   26182.11958909  .00000046  00000+0  52291-4 0  9999
2 62249  89.0071  21.0932 0016618 348.6037  11.4735 13.51014842126302
QIANFAN-49              
1 62250U 24232P   26182.10728206  .00000052  00000+0  62835-4 0  9997
2 62250  89.0070  21.1054 0013526 344.5341  15.5395 13.51013362 94898
QIANFAN-50              
1 62251U 24232Q   26182.13203931  .00000040  00000+0  43680-4 0  9998
2 62251  89.0076  21.1221 0015234 344.9660  15.1036 13.51010092 94926
QIANFAN-51              
1 62252U 24232R   26182.11558163  .00000043  00000+0  47371-4 0  9991
2 62252  89.0069  21.1052 0012859 350.2711   9.8189 13.51006911 94911
QIANFAN-52              
1 62253U 24232S   26182.14432078  .00000055  00000+0  66267-4 0  9999
2 62253  89.0065  20.9681 0014581 340.9546  19.1058 13.51012718 95001
QIANFAN-53              
1 62254U 24232T   26182.12376927  .00000042  00000+0  46405-4 0  9996
2 62254  89.0073  21.0899 0013495 342.7760  17.2931 13.51009219 94960
QIANFAN-54              
1 62255U 24232U   26182.16489589  .00000040  00000+0  44106-4 0  9994
2 62255  89.0064  20.7465 0003416  52.6087 307.5375 13.51013113126474
QIANFAN-55              
1 62785U 25016A   26182.11695279  .00000179  00000+0  25737-3 0  9994
2 62785  88.9731  82.4335 0018683 124.1221 236.1705 13.51008213 74245
QIANFAN-56              
1 62786U 25016B   26182.13342831  .00000158  00000+0  22497-3 0  9997
2 62786  88.9705  82.2147 0017262 125.8389 234.4369 13.51006874 74294
QIANFAN-57              
1 62787U 25016C   26182.16628715  .00000174  00000+0  25116-3 0  9998
2 62787  88.9736  82.4272 0001630  57.6709 302.4600 13.51006964 74261
QIANFAN-58              
1 62788U 25016D   26182.13746634  .00000167  00000+0  23901-3 0  9999
2 62788  88.9706  82.2006 0015383 118.1367 242.1340 13.51021656 74306
QIANFAN-59              
1 62789U 25016E   26182.16217323  .00000171  00000+0  24612-3 0  9996
2 62789  88.9730  82.3191 0015665 121.6844 238.5837 13.51015713 74309
QIANFAN-60              
1 62790U 25016F   26182.12110060  .00000176  00000+0  25387-3 0  9999
2 62790  88.9711  82.2567 0017291 119.0697 241.2189 13.51003310 74288
QIANFAN-61              
1 62791U 25016G   26182.15400323  .00000159  00000+0  22702-3 0  9996
2 62791  88.9778  82.5519 0016245 118.1126 242.1670 13.51010749 74309
QIANFAN-62              
1 62792U 25016H   26182.15806267  .00000172  00000+0  24711-3 0  9991
2 62792  88.9725  82.3122 0017610 118.8721 241.4200 13.51020281 74296
QIANFAN-63              
1 62793U 25016J   26182.10870541  .00000164  00000+0  23539-3 0  9991
2 62793  88.9731  82.2823 0017513 123.9200 236.3619 13.51014269 74322
QIANFAN-64              
1 62794U 25016K   26182.14987147  .00000162  00000+0  23160-3 0  9995
2 62794  88.9718  82.2252 0015648 116.7047 243.5708 13.51010767 74328
QIANFAN-65              
1 62795U 25016L   26182.14589332  .00000049  00000+0  57033-4 0  9991
2 62795  88.9715  82.2444 0015475 118.0492 242.2227 13.51027396 74302
QIANFAN-66              
1 62796U 25016M   26182.10056610  .00000157  00000+0  22339-3 0  9996
2 62796  88.9734  82.2587 0016653 114.7010 245.5877 13.51006542 74341
QIANFAN-67              
1 62797U 25016N   26182.10464213  .00000162  00000+0  23227-3 0  9992
2 62797  88.9724  82.2642 0016454 120.9387 239.3383 13.51009162 74319
QIANFAN-68              
1 62798U 25016P   26182.17044331  .00000168  00000+0  24159-3 0  9996
2 62798  88.9728  82.3097 0016583 118.8423 241.4395 13.51021886 74302
QIANFAN-69              
1 62799U 25016Q   26182.11276426  .00000158  00000+0  22610-3 0  9992
2 62799  88.9707  82.1423 0017289 120.5684 239.7176 13.51015681 74330
QIANFAN-70              
1 62800U 25016R   26182.12928302  .00000165  00000+0  23572-3 0  9999
2 62800  88.9727  82.3210 0017123 111.6933 248.6044 13.51014029 74299
QIANFAN-71              
1 62801U 25016S   26182.12523080  .00000165  00000+0  23714-3 0  9992
2 62801  88.9721  82.2888 0017108 123.7778 236.5005 13.51008414 74292
QIANFAN-72              
1 62802U 25016T   26182.14155384  .00000163  00000+0  23354-3 0  9991
2 62802  88.9712  82.2809 0020112 131.3845 228.9040 13.51015464 74281
QIANFAN-73              
1 63159U 25046A   26182.16852613  .00000156  00000+0  22243-3 0  9999
2 63159  88.9721 299.2301 0012998 260.8823  99.0857 13.51011487 74476
QIANFAN-74              
1 63160U 25046B   26182.15230279  .00000153  00000+0  21757-3 0  9994
2 63160  88.9721 299.1214 0002350 109.8487 250.2917 13.51012714 74538
QIANFAN-75              
1 63161U 25046C   26182.13984390  .00000169  00000+0  24271-3 0  9994
2 63161  88.9722 299.3592 0013996 264.7928  95.1626 13.51011530 74404
QIANFAN-76              
1 63162U 25046D   26182.13566569  .00000161  00000+0  23051-3 0  9996
2 63162  88.9723 299.3395 0011523 264.8289  95.1547 13.51009816 74419
QIANFAN-77              
1 63163U 25046E   26182.14438811  .00000350  00000+0  24444-3 0  9993
2 63163  88.9726 295.6947 0015798 166.9397 193.2192 13.96213186 76419
QIANFAN-78              
1 63164U 25046F   26182.17681149  .00000164  00000+0  23557-3 0  9998
2 63164  88.9722 299.1972 0012882 267.3864  92.5813 13.51005212 74496
QIANFAN-79              
1 63165U 25046G   26182.05755086  .00000166  00000+0  23788-3 0  9996
2 63165  88.9725 299.3245 0012717 266.0417  93.9280 13.51015585 74422
QIANFAN-80              
1 63166U 25046H   26182.14813616  .00000158  00000+0  22583-3 0  9994
2 63166  88.9722 299.0165 0011484 270.7914  89.1921 13.51012917 74595
QIANFAN-81              
1 63167U 25046J   26182.12746875  .00000171  00000+0  24563-3 0  9990
2 63167  88.9722 299.0863 0012913 258.6918 101.2782 13.51020441 74545
QIANFAN-82              
1 63168U 25046K   26182.16036605  .00000161  00000+0  23124-3 0  9999
2 63168  88.9722 299.1270 0010666 265.9363  94.0569 13.51014920 74533
QIANFAN-83              
1 63169U 25046L   26182.18365351  .00000196  00000+0  23894-3 0  9997
2 63169  88.9724 298.5061 0012537 236.4309 123.5652 13.62046425 74885
QIANFAN-84              
1 63170U 25046M   26182.18965823  .00000125  00000+0  17474-3 0  9998
2 63170  88.9722 299.2566 0013791 262.5209  97.4376 13.51040228 74464
QIANFAN-85              
1 63171U 25046N   26182.18501551  .00000158  00000+0  22681-3 0  9995
2 63171  88.9721 299.1272 0011186 264.6162  95.3713 13.51012650 74532
QIANFAN-86              
1 63172U 25046P   26182.19335187  .00000163  00000+0  23399-3 0  9990
2 63172  88.9724 298.9932 0008962 268.9152  91.0973 13.51020100 74619
QIANFAN-87              
1 63173U 25046Q   26182.16446723  .00000163  00000+0  23410-3 0  9991
2 63173  88.9720 299.1004 0009570 263.2615  96.7447 13.51005618 74544
QIANFAN-88              
1 63174U 25046R   26182.18100506  .00000158  00000+0  22674-3 0  9995
2 63174  88.9722 299.0582 0009910 273.6177  86.3841 13.51013462 74575
QIANFAN-89              
1 63175U 25046S   26182.14393479  .00000158  00000+0  22642-3 0  9990
2 63175  88.9722 299.2510 0014607 263.3321  96.6168 13.51020436 74468
QIANFAN-90              
1 63176U 25046T   26182.17265376  .00000152  00000+0  21700-3 0  9996
2 63176  88.9723 299.2209 0011556 260.7858  99.1986 13.51012504 74486
QIANFAN-91              
1 66033U 25233A   26182.13106562  .00000106  00000+0  14519-3 0  9995
2 66033  88.9989  41.7807 0001832  88.1682 271.9679 13.51013577 35063
QIANFAN-92              
1 66034U 25233B   26182.13923971  .00000102  00000+0  13925-3 0  9993
2 66034  88.9972  41.7492 0001933  81.6306 278.5064 13.51016790 35060
QIANFAN-93              
1 66035U 25233C   26182.07343488  .00000099  00000+0  13421-3 0  9992
2 66035  89.0000  41.8116 0001829  85.8445 274.2915 13.51015375 35058
QIANFAN-94              
1 66036U 25233D   26182.13516961  .00000104  00000+0  14228-3 0  9991
2 66036  88.9996  41.7081 0001998  84.8888 275.2491 13.51014145 35119
QIANFAN-95              
1 66037U 25233E   26182.06935965  .00000100  00000+0  13582-3 0  9991
2 66037  88.9993  41.2581 0001938  90.4948 269.6425 13.51015129 35354
QIANFAN-96              
1 66038U 25233F   26182.09404332  .00000109  00000+0  14958-3 0  9991
2 66038  88.9991  41.7987 0001801  89.7574 270.3784 13.51014108 35053
QIANFAN-97              
1 66039U 25233G   26182.07756542  .00000108  00000+0  14804-3 0  9992
2 66039  88.9994  41.7849 0001837  87.3973 272.7389 13.51014212 35064
QIANFAN-98              
1 66040U 25233H   26182.08577110  .00000109  00000+0  14947-3 0  9996
2 66040  88.9983  41.5135 0002407  86.1554 273.9872 13.51014168 35202
QIANFAN-99              
1 66041U 25233J   26182.08987198  .00000115  00000+0  16002-3 0  9999
2 66041  88.9995  41.7877 0002238  88.8139 271.3268 13.51014149 35065
QIANFAN-100             
1 66042U 25233K   26182.15589965  .00000049  00000+0  58018-4 0  9998
2 66042  89.0010  41.7086 0001842  91.9812 268.1550 13.51042055 35123
QIANFAN-101             
1 66043U 25233L   26182.11002709  .00000361  00000+0  14257-3 0  9994
2 66043  88.9990  38.9705 0017499  96.9714 263.3471 14.26816104 36617
QIANFAN-102             
1 66044U 25233M   26182.10224192  .00000098  00000+0  13336-3 0  9990
2 66044  88.9993  41.6957 0002025  86.1437 273.9945 13.51014051 35118
QIANFAN-103             
1 66045U 25233N   26182.10635963  .00000099  00000+0  13518-3 0  9996
2 66045  88.9995  41.7908 0001796  86.0715 274.0642 13.51014947 35064
QIANFAN-104             
1 66046U 25233P   26182.11061238  .00000101  00000+0  13834-3 0  9991
2 66046  89.0000  41.6933 0002065  83.4238 276.7148 13.51001677 35114
QIANFAN-105             
1 66047U 25233Q   26182.11886559  .00000109  00000+0  15018-3 0  9997
2 66047  89.0013  41.5374 0001950  90.0034 270.1341 13.51003432 35223
QIANFAN-106             
1 66048U 25233R   26182.11462285  .00000106  00000+0  14555-3 0  9996
2 66048  88.9981  41.7463 0002333  86.5692 273.5726 13.51014053 35060
QIANFAN-107             
1 66049U 25233S   26182.12282875  .00000116  00000+0  16111-3 0  9994
2 66049  88.9998  41.7802 0001848  86.0368 274.0994 13.51013561 35078
QIANFAN-108             
1 66050U 25233T   26182.12693959  .00000112  00000+0  15483-3 0  9992
2 66050  88.9992  41.7665 0002271  85.1273 275.0138 13.51014692 35074
QIANFAN-109             
1 68636U 26075A   26182.14106576  .00000082  00000+0  10790-3 0  9997
2 68636  88.9905 319.5858 0001838 114.3862 245.7482 13.51012308 11675
QIANFAN-110             
1 68637U 26075B   26182.14927478  .00000084  00000+0  11196-3 0  9993
2 68637  88.9905 319.6064 0001992  99.0285 261.1092 13.51013506 11675
QIANFAN-111             
1 68638U 26075C   26181.91480230  .00000074  00000+0  95889-4 0  9999
2 68638  88.9902 319.5896 0002030  99.5522 260.5858 13.51013482 11663
QIANFAN-112             
1 68639U 26075D   26182.17379926  .00000096  00000+0  12944-3 0  9992
2 68639  88.9903 319.5724 0001639 110.7197 249.4130 13.51025532 11694
QIANFAN-113             
1 68640U 26075E   26182.14513093  .00000090  00000+0  12012-3 0  9996
2 68640  88.9909 319.5697 0001874 100.2251 259.9112 13.51016394 11699
QIANFAN-114             
1 68641U 26075F   26182.15331082  .00000100  00000+0  13595-3 0  9993
2 68641  88.9904 319.5874 0001990  99.8304 260.3071 13.51015149 11689
QIANFAN-115             
1 68642U 26075G   26182.18206942  .00000096  00000+0  13029-3 0  9999
2 68642  88.9904 319.5917 0002018 104.7084 255.4290 13.51020436 11684
QIANFAN-116             
1 68643U 26075H   26182.16972455  .00000085  00000+0  11343-3 0  9992
2 68643  88.9897 319.5520 0001673 105.0529 255.0808 13.51023628 11698
QIANFAN-117             
1 68644U 26075J   26182.15741375  .00000091  00000+0  12247-3 0  9998
2 68644  88.9901 319.5696 0001874 106.4865 253.6492 13.51022389 11696
QIANFAN-118             
1 68645U 26075K   26181.89404686  .00000098  00000+0  13262-3 0  9995
2 68645  88.9906 319.6051 0002008  96.4763 263.6617 13.51020932 11651
QIANFAN-119             
1 68646U 26075L   26181.86941093  .00000075  00000+0  96974-4 0  9998
2 68646  88.9906 319.6032 0001890 110.2666 249.8689 13.51018530 11652
QIANFAN-120             
1 68647U 26075M   26181.88187137  .00000072  00000+0  92457-4 0  9991
2 68647  88.9908 319.5872 0001995 113.6447 246.4914 13.51018806 11667
QIANFAN-121             
1 68648U 26075N   26181.90635664  .00000073  00000+0  95141-4 0  9992
2 68648  88.9906 319.5893 0002034  98.1772 261.9610 13.51027166 11666
QIANFAN-122             
1 68649U 26075P   26181.89827800  .00000084  00000+0  11209-3 0  9990
2 68649  88.9904 319.5882 0001831 108.7064 251.4287 13.51014729 11653
QIANFAN-123             
1 68650U 26075Q   26181.86538466  .00000086  00000+0  11386-3 0  9994
2 68650  88.9901 319.5811 0001763 115.4711 244.6623 13.51013087 11634
QIANFAN-124             
1 68651U 26075R   26181.89004963  .00000093  00000+0  12471-3 0  9992
2 68651  88.9904 319.5879 0001784 110.8340 249.3002 13.51014202 11668
QIANFAN-125             
1 68652U 26075S   26181.90224300  .00000048  00000+0  55617-4 0  9994
2 68652  88.9904 319.5887 0001997  98.0610 262.0768 13.51011164 11666
QIANFAN-126             
1 68653U 26075T   26181.91060266  .00000066  00000+0  83639-4 0  9990
2 68653  88.9908 319.5540 0001787 115.3251 244.8086 13.51016407 11686
QIANFAN-127             
1 69073U 26104A   26182.17233127  .00000036  00000+0  22845-4 0  9996
2 69073  88.9880 340.0792 0008760  33.2016 326.9698 13.78273386  7029
QIANFAN-128             
1 69074U 26104B   26181.54796250 -.02086095  00000+0 -24483+1 0  9997
2 69074  88.9869 340.1739 0005674  90.9465 269.2348 13.72435086  6928
QIANFAN-129             
1 69075U 26104C   26182.15558649  .00000037  00000+0  23021-4 0  9993
2 69075  88.9874 340.0587 0008294  44.5802 315.6031 13.79170470  7034
QIANFAN-130             
1 69076U 26104D   26181.66573377 -.02011264  00000+0 -22589+1 0  9996
2 69076  88.9878 340.1543 0004184  79.4227 280.7409 13.74952671  6940
QIANFAN-131             
1 69077U 26104E   26181.74649369 -.01940397  00000+0 -22006+1 0  9992
2 69077  88.9863 340.1279 0003727 130.6677 229.4812 13.74221786  6968
QIANFAN-132             
1 69078U 26104F   26182.16399823  .00000029  00000+0  17787-4 0  9997
2 69078  88.9875 340.1168 0008231  40.4122 319.7651 13.72178536  7009
QIANFAN-133             
1 69079U 26104G   26181.56290553 -.02028617  00000+0 -22031+1 0  9992
2 69079  88.9873 340.1571 0005326  67.9826 292.1905 13.77007664  6938
QIANFAN-134             
1 69080U 26104H   26182.19320369  .00000031  00000+0  19655-4 0  9991
2 69080  88.9877 340.1009 0009854  34.4407 325.7394 13.74249421  7015
QIANFAN-135             
1 69081U 26104J   26181.65058369 -.01875840  00000+0 -21599+1 0  9997
2 69081  88.9869 340.1509 0004680  46.1365 314.0185 13.73843738  6947
QIANFAN-136             
1 69082U 26104K   26181.65197854 -.02019108  00000+0 -23886+1 0  9990
2 69082  88.9870 340.1505 0009107  48.8544 311.3403 13.71806062  6943
QIANFAN-137             
1 69083U 26104L   26182.13430993  .00000043  00000+0  24320-4 0  9991
2 69083  88.9877 340.0183 0008919  45.8048 314.3856 13.89707951  7052
QIANFAN-138             
1 69084U 26104M   26181.49880281 -.02035706  00000+0 -23864+1 0  9995
2 69084  88.9871 340.1647 0006261  37.8469 322.3133 13.72402379  6929
QIANFAN-139             
1 69085U 26104N   26181.60618566 -.02018869  00000+0 -22892+1 0  9995
2 69085  88.9868 340.1447 0003563 169.7918 190.3319 13.74390658  6949
QIANFAN-140             
1 69086U 26104P   26181.96234715  .00000033  00000+0  20297-4 0  9996
2 69086  88.9832 340.1026 0005727  47.6529 312.5121 13.77078980  6998
QIANFAN-141             
1 69087U 26104Q   26181.92904497  .00000035  00000+0  21129-4 0  9991
2 69087  88.9854 340.0961 0006135  38.3813 321.7790 13.81239288  6996
QIANFAN-142             
1 69088U 26104R   26182.11889245  .00000032  00000+0  17570-4 0  9999
2 69088  88.9879 340.0714 0008097  41.0843 319.0935 13.82680933  7027
QIANFAN-143             
1 69089U 26104S   26182.11060744  .00000033  00000+0  18952-4 0  9991
2 69089  88.9878 340.0703 0009019  35.4335 324.7430 13.79942009  7027
QIANFAN-144             
1 69090U 26104T   26182.12711788  .00000032  00000+0  19270-4 0  9998
2 69090  88.9879 340.0731 0008692  32.9816 327.1891 13.78540693  7023
QIANFAN-145             
1 69104U 26108A   26181.96054586  .00000050  00000+0  33010-4 0  9993
2 69104  89.0126  20.7513 0018693  59.4211 300.8800 13.83966208  6253
QIANFAN-146             
1 69105U 26108B   26181.93363632  .00000045  00000+0  22005-4 0  9992
2 69105  89.0098  20.6901 0017796  72.7933 287.5191 13.98711446  6289
QIANFAN-147             
1 69106U 26108C   26181.70104016 -.01989719  00000+0 -19817+1 0  9997
2 69106  89.0094  20.7650 0022000  64.3487 295.9951 13.81992383  6227
QIANFAN-148             
1 69107U 26108D   26181.92448944  .00000050  00000+0  33674-4 0  9993
2 69107  89.0084  20.7556 0017776  86.2696 274.0505 13.83452462  6258
QIANFAN-149             
1 69108U 26108E   26181.94170983  .00000049  00000+0  32790-4 0  9997
2 69108  89.0124  20.7476 0020113  63.6335 296.6896 13.82472945  6253
QIANFAN-150             
1 69109U 26108F   26181.80158526  .00000052  00000+0  32650-4 0  9991
2 69109  89.0102  20.7444 0019087  64.0777 296.2360 13.88224114  6248
QIANFAN-151             
1 69110U 26108G   26181.96684924  .00000050  00000+0  32878-4 0  9996
2 69110  89.0121  20.7316 0019789  61.1639 299.1514 13.83584312  6262
QIANFAN-152             
1 69111U 26108H   26181.94058829  .00000052  00000+0  33753-4 0  9999
2 69111  89.0098  20.7293 0017383  70.2751 290.0293 13.85300070  6267
QIANFAN-153             
1 69112U 26108J   26181.95854052 -.00000161  00000+0 -15581-3 0  9994
2 69112  89.0105  20.7279 0020447  65.4199 294.9099 13.84164660  6267
QIANFAN-154             
1 69113U 26108K   26181.72846214 -.02034483  00000+0 -21020+1 0  9999
2 69113  89.0105  20.7530 0021331  61.5181 298.8132 13.79910133  6235
QIANFAN-155             
1 69114U 26108L   26182.16107941  .00000051  00000+0  33247-4 0  9994
2 69114  89.0103  20.7056 0019347  63.7601 296.5556 13.85612327  6294
QIANFAN-156             
1 69115U 26108M   26181.96818392  .00000051  00000+0  31659-4 0  9996
2 69115  89.0083  20.7213 0020452  61.5720 298.7510 13.87499800  6277
QIANFAN-157             
1 69116U 26108N   26181.95745950  .00000055  00000+0  31581-4 0  9993
2 69116  89.0116  20.6934 0019118  69.5548 290.7677 13.93023354  6288
QIANFAN-158             
1 69117U 26108P   26181.63680410 -.02023174  00000+0 -18335+1 0  9997
2 69117  89.0091  20.7375 0015837  77.5027 282.7916 13.87671163  6238
QIANFAN-159             
1 69118U 26108Q   26181.65306041 -.02039653  00000+0 -19268+1 0  9990
2 69118  89.0083  20.7377 0019211  65.0952 295.2213 13.85243446  6237
QIANFAN-160             
1 69119U 26108R   26181.51565441  .00000054  00000+0  35300-4 0  9995
2 69119  89.0101  20.7570 0018937  66.6007 293.7153 13.86235073  6218
QIANFAN-161             
1 69120U 26108S   26181.96325038  .00000056  00000+0  32700-4 0  9995
2 69120  89.0051  20.7100 0014852  80.9185 279.3669 13.92817677  6283
QIANFAN-162             
1 69121U 26108T   26182.19147272  .00000051  00000+0  30528-4 0  9995
2 69121  89.0098  20.6725 0018238  65.1136 295.1930 13.89428674  6312
QIANFAN-163             
1 69325U 26121A   26171.83152253  .00000035  00000+0  30105-4 0  9993
2 69325  89.0159 300.1473 0020476 178.2353 181.8879 13.59758614  2659
QIANFAN-164             
1 69326U 26121B   26181.33753742  .00000132  00000+0  16633-3 0  9997
2 69326  89.0179 299.1939 0021210 151.1195 209.1139 13.57846346  3941
QIANFAN-165             
1 69382U 26124A   26182.17804345  .00000104  00000+0  45394-4 0  9997
2 69382  88.9986   0.4587 0003616 103.7585 256.4006 14.16014727  3792
QIANFAN-166             
1 69383U 26124B   26182.16325633  .00000106  00000+0  45611-4 0  9999
2 69383  88.9986   0.4567 0003061 100.1594 259.9939 14.17062008  3795
QIANFAN-167             
1 69384U 26124C   26182.16869691  .00000086  00000+0  36166-4 0  9999
2 69384  88.9985   0.4571 0003447 135.1309 225.0158 14.16528142  3792
QIANFAN-168             
1 69385U 26124D   26182.15170238  .00000103  00000+0  43633-4 0  9998
2 69385  88.9985   0.4547 0004068 112.0750 248.0871 14.17875198  3794
QIANFAN-169             
1 69386U 26124E   26182.14525787  .00000103  00000+0  43200-4 0  9991
2 69386  88.9985   0.4536 0004523 124.9850 235.1764 14.18288928  3790
QIANFAN-170             
1 69387U 26124F   26182.13384465  .00000095  00000+0  38393-4 0  9994
2 69387  88.9985   0.4518 0003910 108.5019 251.6595 14.19185618  3793
QIANFAN-171             
1 69388U 26124G   26182.19269029  .00000103  00000+0  41784-4 0  9997
2 69388  88.9985   0.4422 0003725 144.8415 215.3022 14.20069731  3808
QIANFAN-172             
1 69389U 26124H   26182.19806163  .00000104  00000+0  42655-4 0  9993
2 69389  88.9986   0.4430 0003766 128.3098 231.8431 14.19640521  3805
QIANFAN-173             
1 69390U 26124J   26182.11658675  .00000106  00000+0  42870-4 0  9991
2 69390  88.9985   0.4494 0003913 120.5560 239.6017 14.20511847  3792
QIANFAN-174             
1 69391U 26124K   26182.18037808  .00000132  00000+0  54459-4 0  9993
2 69391  88.9985   0.4403 0004208 124.9830 235.1756 14.20880694  3801
QIANFAN-175             
1 69392U 26124L   26182.17550586  .00000107  00000+0  42589-4 0  9999
2 69392  88.9985   0.4395 0004936 136.0700 224.0884 14.21341977  3806
QIANFAN-176             
1 69393U 26124M   26182.16899752  .00000113  00000+0  44878-4 0  9990
2 69393  88.9985   0.4386 0003905 139.8979 220.2501 14.21843340  3806
QIANFAN-177             
1 69394U 26124N   26182.15847300  .00000116  00000+0  45409-4 0  9996
2 69394  88.9985   0.4370 0004785 118.5309 241.6365 14.22732760  3807
QIANFAN-178             
1 69395U 26124P   26182.16358139  .00000120  00000+0  47719-4 0  9996
2 69395  88.9985   0.4377 0004189 127.6219 232.5353 14.22276414  3809
QIANFAN-179             
1 69396U 26124Q   26182.15347603  .00000113  00000+0  43532-4 0  9991
2 69396  88.9985   0.4361 0004161 124.4860 235.6725 14.23099409  3805
QIANFAN-180             
1 69397U 26124R   26182.14799883  .00000128  00000+0  49790-4 0  9990
2 69397  88.9985   0.4354 0004526 132.6605 227.4969 14.23621206  3806
QIANFAN-181             
1 69398U 26124S   26182.16959315  .00000094  00000+0  39832-4 0  9999
2 69398  88.9985   0.4573 0003038 103.6174 256.5353 14.16651190  3791
QIANFAN-182             
1 69399U 26124T   26182.13993456  .00000114  00000+0  47917-4 0  9997
2 69399  88.9985   0.4529 0003541 120.8372 239.3166 14.18740636  3790
QIANFAN-183             
1 69401U 26125A   26182.18599844  .00000430  00000+0  20889-3 0  9999
2 69401  88.9955 278.8651 0015706 131.7417 228.5117 14.16468928  3688
QIANFAN-184             
1 69402U 26125B   26182.17656363  .00000438  00000+0  21109-3 0  9993
2 69402  88.9956 278.8640 0016533 126.2009 234.0711 14.16889061  3680
QIANFAN-185             
1 69403U 26125C   26182.18390219  .00000443  00000+0  21666-3 0  9994
2 69403  88.9956 278.8650 0017389 126.6295 233.6495 14.16093870  3682
QIANFAN-186             
1 69404U 26125D   26182.16676630  .00000437  00000+0  20870-3 0  9996
2 69404  88.9956 278.8626 0015817 127.6259 232.6368 14.17439973  3688
QIANFAN-187             
1 69405U 26125E   26182.15622258  .00000429  00000+0  20078-3 0  9994
2 69405  88.9956 278.8608 0016341 128.6293 231.6362 14.18350647  3685
QIANFAN-188             
1 69406U 26125F   26182.14318058  .00000457  00000+0  21006-3 0  9997
2 69406  88.9955 278.8587 0016354 132.0109 228.2476 14.19443077  3689
QIANFAN-189             
1 69407U 26125G   26182.14915750  .00000432  00000+0  20110-3 0  9998
2 69407  88.9956 278.8598 0015577 129.5579 230.6990 14.18761902  3688
QIANFAN-190             
1 69408U 26125H   26182.14358984  .00000444  00000+0  20473-3 0  9994
2 69408  88.9956 278.8590 0016373 131.0426 229.2182 14.19224979  3681
QIANFAN-191             
1 69409U 26125J   26182.13205454  .00000461  00000+0  20955-3 0  9991
2 69409  88.9956 278.8570 0015779 130.0005 230.2573 14.20096473  3685
QIANFAN-192             
1 69410U 26125K   26182.12623223  .00000468  00000+0  21114-3 0  9995
2 69410  88.9956 278.8564 0016640 130.2803 229.9845 14.20522503  3681
QIANFAN-193             
1 69411U 26125L   26182.18962448  .00000476  00000+0  21292-3 0  9993
2 69411  88.9956 278.8471 0016524 130.4478 229.8156 14.20965198  3696
QIANFAN-194             
1 69412U 26125M   26182.11388338  .00000479  00000+0  21270-3 0  9996
2 69412  88.9956 278.8543 0015825 134.1363 226.1133 14.21406871  3676
QIANFAN-195             
1 69413U 26125N   26182.17933662  .00000489  00000+0  21518-3 0  9995
2 69413  88.9956 278.8456 0017025 132.5940 227.6691 14.21804379  3699
QIANFAN-196             
1 69414U 26125P   26182.17340981  .00000480  00000+0  20941-3 0  9992
2 69414  88.9957 278.8448 0017143 132.9810 227.2822 14.22299424  3695
QIANFAN-197             
1 69415U 26125Q   26182.16865587  .00000470  00000+0  20316-3 0  9991
2 69415  88.9956 278.8440 0015400 130.2294 230.0248 14.22743825  3680
QIANFAN-198             
1 69416U 26125R   26182.17492150  .00000476  00000+0  20838-3 0  9990
2 69416  88.9956 278.8450 0015709 129.6862 230.5717 14.22070533  3693
QIANFAN-199             
1 69417U 26125S   26182.15941596  .00000497  00000+0  21154-3 0  9997
2 69417  88.9956 278.8425 0017442 130.4670 229.8046 14.23634245  3692
QIANFAN-200             
1 69418U 26125T   26182.13708994  .00000461  00000+0  21120-3 0  9993
2 69418  88.9956 278.8579 0016450 128.8154 231.4508 14.19644007  3682
