GLOBALSTAR M069         
1 31573U 07020C   26151.61165272 -.00000092  00000+0  56422-5 0  9998
2 31573  52.0041 299.0409 0002617 114.4633 328.5484 12.23470638876779
GLOBALSTAR M072         
1 31574U 07020D   26151.28483877 -.00000085  00000+0 -13019-4 0  9993
2 31574  51.9899 145.2440 0001371 282.9670 178.3523 11.91658431872969
GLOBALSTAR M066         
1 32265U 07048C   26151.27899367 -.00000090  00000+0  37431-4 0  9994
2 32265  51.9574 106.4497 0005147   7.0382 138.3698 12.30389180858148
GLOBALSTAR M079         
1 37188U 10054A   26151.45090573 -.00000096  00000+0  43511-4 0  9998
2 37188  52.0011 159.6177 0000298 332.5357 190.9330 12.62265969720430
GLOBALSTAR M074         
1 37189U 10054B   26151.22153045 -.00000096  00000+0  41936-4 0  9997
2 37189  51.9985 159.5836 0000188  58.2811  22.4421 12.62268436721012
GLOBALSTAR M076         
1 37190U 10054C   26151.33188308 -.00000105  00000+0 -73113-5 0  9996
2 37190  52.0009 159.4487 0000330  22.3143  80.5920 12.62261797720744
GLOBALSTAR M077         
1 37191U 10054D   26151.71296609 -.00000038  00000+0  74033-3 0  9997
2 37191  51.9946 221.1108 0003005 143.3305  35.7304 11.67547520719219
GLOBALSTAR M075         
1 37192U 10054E   26151.59616918 -.00000064  00000+0  22084-3 0  9991
2 37192  51.9929 200.7097 0000251 153.4572  10.5311 12.62267315719844
GLOBALSTAR M073         
1 37193U 10054F   26151.88099484 -.00000121  00000+0 -96645-4 0  9997
2 37193  52.0044 113.9274 0000571  12.4978   5.2517 12.62262109721877
GLOBALSTAR M083         
1 37739U 11033A   26151.12879832 -.00000098  00000+0  32839-4 0  9998
2 37739  51.9866  64.4687 0000681  34.6526 104.7014 12.62262761690795
GLOBALSTAR M088         
1 37740U 11033B   26151.72407250 -.00000096  00000+0  43711-4 0  9996
2 37740  52.0233 329.0467 0000890 102.4677 341.3470 12.62268367686413
GLOBALSTAR M091         
1 37741U 11033C   26151.83163250 -.00000093  00000+0  61711-4 0  9995
2 37741  52.0006 291.7078 0000627 123.8732  30.1351 12.62263471687213
GLOBALSTAR M085         
1 37742U 11033D   26151.56962742 -.00000072  00000+0  17489-3 0  9998
2 37742  52.0123 243.7833 0000367 158.2015 304.7488 12.62263568687697
GLOBALSTAR M081         
1 37743U 11033E   26151.68492021 -.00000081  00000+0  12984-3 0  9995
2 37743  51.9956 245.8877 0000437 126.0217  20.6201 12.62264521687851
GLOBALSTAR M089         
1 37744U 11033F   26151.47834564 -.00000063  00000+0  22929-3 0  9995
2 37744  51.9911 200.6791 0000457 111.5693 356.6361 12.62266809688677
GLOBALSTAR M084         
1 38040U 11080A   26151.79217005 -.00000097  00000+0  36464-4 0  9994
2 38040  52.0019  67.1931 0000905  60.8485 334.0725 12.62267337666692
GLOBALSTAR M080         
1 38041U 11080B   26151.76174213 -.00000102  00000+0  91669-5 0  9991
2 38041  52.0066  68.9981 0000158  70.5059 316.0333 12.62269107666810
GLOBALSTAR M082         
1 38042U 11080C   26151.61667774 -.00000076  00000+0  15267-3 0  9993
2 38042  52.0099  24.9396 0000491  80.9028 296.2534 12.62269700667508
GLOBALSTAR M092         
1 38043U 11080D   26151.82794934 -.00000113  00000+0 -51761-4 0  9999
2 38043  52.0074 114.6924 0000361  41.4074 335.3325 12.62266792665986
GLOBALSTAR M090         
1 38044U 11080E   26151.64696352 -.00000082  00000+0  12015-3 0  9997
2 38044  52.0144  18.7980 0000741  67.7007 326.1092 12.62268749667626
GLOBALSTAR M086         
1 38045U 11080F   26151.06096928 -.00000079  00000+0  14097-3 0  9995
2 38045  51.9920  20.5395 0001531  36.8256 112.6567 12.62286397667498
GLOBALSTAR M097         
1 39072U 13005A   26151.77153529 -.00000099  00000+0  25311-4 0  9998
2 39072  52.0055 293.3051 0000563 114.2245 245.8680 12.62251313614837
GLOBALSTAR M093         
1 39073U 13005B   26151.74497795 -.00000088  00000+0  88566-4 0  9991
2 39073  52.0115 286.7274 0000412 104.9356 255.1557 12.62265436614782
GLOBALSTAR M094         
1 39074U 13005C   26151.58655529 -.00000070  00000+0  18812-3 0  9992
2 39074  51.9940 201.3442 0000076 225.7513 134.3347 12.62268356616376
GLOBALSTAR M096         
1 39075U 13005D   26151.44161478 -.00000078  00000+0  14587-3 0  9996
2 39075  52.0072 250.5731 0000383 144.3922 215.6971 12.62265040615274
GLOBALSTAR M078         
1 39076U 13005E   26151.81048175 -.00000113  00000+0 -49241-4 0  9993
2 39076  51.9892 333.4804 0000711 176.8302 183.2569 12.62259943613942
GLOBALSTAR M095         
1 39077U 13005F   26151.83727169 -.00000091  00000+0  72371-4 0  9997
2 39077  52.0096 330.9806 0000448 114.8972 245.1942 12.62263277613800
GLOBALSTAR M087         
1 52888U 22064A   26151.85058902 -.00000125  00000+0 -11639-3 0  9999
2 52888  51.9980 112.1875 0000393 353.9603   6.1259 12.62268805189072
