IRIDIUM 106             
1 41917U 17003A   26104.04798827  .00000060  00000+0  14203-4 0  9990
2 41917  86.3926 115.3783 0002679  92.7506 267.3996 14.34217622484010
IRIDIUM 103             
1 41918U 17003B   26104.31437666  .00000079  00000+0  20973-4 0  9993
2 41918  86.3926 115.1668 0002124  97.7954 262.3483 14.34217676484079
IRIDIUM 109             
1 41919U 17003C   26104.32072074  .00000034  00000+0  50321-5 0  9995
2 41919  86.3928 115.2226 0002251  92.6249 267.5204 14.34217619484047
IRIDIUM 102             
1 41920U 17003D   26104.28900751 -.00000018  00000+0 -13502-4 0  9997
2 41920  86.3929 115.1606 0002214  89.7997 270.3453 14.34217105484124
IRIDIUM 105             
1 41921U 17003E   26104.25028354  .00000073  00000+0  18758-4 0  9992
2 41921  86.3926  83.6044 0002221  89.1892 270.9559 14.34398022485978
IRIDIUM 104             
1 41922U 17003F   26104.09238546  .00000067  00000+0  16934-4 0  9998
2 41922  86.3924 115.2845 0002004  92.9556 267.1869 14.34218111484089
IRIDIUM 114             
1 41923U 17003G   26104.30803539  .00000053  00000+0  11945-4 0  9995
2 41923  86.3927 115.1778 0002135  94.6931 265.4509 14.34217731484098
IRIDIUM 108             
1 41924U 17003H   26104.19678626  .00000099  00000+0  28429-4 0  9995
2 41924  86.3920  83.5183 0002282  84.4940 275.6517 14.34218641485937
IRIDIUM 112             
1 41925U 17003J   26104.08604449  .00000009  00000+0 -36785-5 0  9993
2 41925  86.3926 115.1156 0002021  91.6335 268.5092 14.34217481484080
IRIDIUM 111             
1 41926U 17003K   26104.28266506  .00000004  00000+0 -57645-5 0  9997
2 41926  86.3927 115.1025 0002152  93.3367 266.8075 14.34217414484095
IRIDIUM 113             
1 42803U 17039A   26103.98355483  .00000003  00000+0 -61374-5 0  9993
2 42803  86.4005 349.0186 0001792  85.1690 274.9711 14.34217738461980
IRIDIUM 123             
1 42804U 17039B   26104.23434010  .00000004  00000+0 -57419-5 0  9993
2 42804  86.4013  20.3578 0002154  89.0094 271.1348 14.34217620460780
IRIDIUM 120             
1 42805U 17039C   26103.97721329  .00000109  00000+0  32014-4 0  9994
2 42805  86.4001 348.8125 0002315  84.3732 275.7728 14.34218040461971
IRIDIUM 115             
1 42806U 17039D   26104.12621447  .00000226  00000+0  61330-4 0  9996
2 42806  86.4536 348.8704 0002437  90.7975 269.3505 14.43279676465027
IRIDIUM 118             
1 42807U 17039E   26104.12651861  .00000169  00000+0  53288-4 0  9999
2 42807  86.4018  20.4012 0002149  85.5179 274.6262 14.34217988460769
IRIDIUM 117             
1 42808U 17039F   26104.07577515  .00000161  00000+0  50380-4 0  9999
2 42808  86.4017  20.3806 0002236  89.1414 271.0038 14.34218518460782
IRIDIUM 126             
1 42809U 17039G   26104.10114320 -.00000133  00000+0 -54397-4 0  9998
2 42809  86.4013  20.4201 0001940  87.0485 273.0933 14.34216408460765
IRIDIUM 124             
1 42810U 17039H   26103.99080036  .00000265  00000+0  72688-4 0  9999
2 42810  86.4472 317.2219 0002239  89.3093 270.8365 14.43292288465853
IRIDIUM 128             
1 42811U 17039J   26104.23142090  .00000106  00000+0  30615-4 0  9995
2 42811  86.3973  51.8763 0002453  84.8884 275.2592 14.34218273460814
IRIDIUM 121             
1 42812U 17039K   26104.18995587  .00000173  00000+0  54658-4 0  9994
2 42812  86.4018  20.4104 0002293  83.6937 276.4520 14.34214708460650
IRIDIUM 133             
1 42955U 17061A   26104.19336404  .00000033  00000+0  45588-5 0  9993
2 42955  86.3973  52.0084 0002255  87.2498 272.8956 14.34218094445608
IRIDIUM 100             
1 42956U 17061B   26104.18702157  .00000104  00000+0  30071-4 0  9994
2 42956  86.3971  51.9311 0002270  87.5400 272.6056 14.34218553445600
IRIDIUM 122             
1 42957U 17061C   26104.15530915  .00000111  00000+0  32723-4 0  9997
2 42957  86.3971  51.9443 0002234  87.7743 272.3708 14.34218618445602
IRIDIUM 129             
1 42958U 17061D   26104.18068160  .00000169  00000+0  53261-4 0  9992
2 42958  86.3972  52.0001 0001974  82.2911 277.8509 14.34217905445622
IRIDIUM 119             
1 42959U 17061E   26104.21873506  .00000023  00000+0  12673-5 0  9997
2 42959  86.3973  51.9798 0002133  88.3056 271.8384 14.34217391445646
IRIDIUM 107             
1 42960U 17061F   26104.23777476  .00000167  00000+0  52608-4 0  9990
2 42960  86.3973  51.9927 0002362  92.7297 267.4170 14.34219200445658
IRIDIUM 132             
1 42961U 17061G   26104.17433594  .00000109  00000+0  31834-4 0  9998
2 42961  86.3971  51.9990 0002282  87.8015 272.3442 14.34216679445644
IRIDIUM 136             
1 42962U 17061H   26104.20605052  .00000173  00000+0  54852-4 0  9999
2 42962  86.3973  51.9921 0002247  89.2825 270.8628 14.34216994445668
IRIDIUM 139             
1 42963U 17061J   26104.21239348  .00000142  00000+0  43641-4 0  9992
2 42963  86.3974  52.0505 0002375  87.4212 272.7255 14.34217192445671
IRIDIUM 125             
1 42964U 17061K   26104.19970687 -.00000036  00000+0 -19944-4 0  9991
2 42964  86.3973  52.1160 0001924 100.5038 259.6375 14.34217492445682
IRIDIUM 135             
1 43070U 17083A   26103.96452825  .00000129  00000+0  39059-4 0  9997
2 43070  86.4005 348.8679 0002189  85.1111 275.0335 14.34217637434948
IRIDIUM 138             
1 43071U 17083B   26104.12943416  .00000069  00000+0  17719-4 0  9990
2 43071  86.4022 348.4850 0001780  88.5949 271.5451 14.34218290434954
IRIDIUM 116             
1 43072U 17083C   26104.16749135  .00000086  00000+0  23525-4 0  9998
2 43072  86.4003 348.7698 0002447  84.0891 276.0584 14.34217465434999
IRIDIUM 130             
1 43073U 17083D   26104.13577789  .00000111  00000+0  32536-4 0  9991
2 43073  86.4012 349.0519 0002393  89.4270 270.7200 14.34217458434938
IRIDIUM 151             
1 43074U 17083E   26103.97087056  .00000121  00000+0  36146-4 0  9998
2 43074  86.4011 348.9083 0002239  83.9316 276.2135 14.34217557434939
IRIDIUM 134             
1 43075U 17083F   26104.14846321  .00000001  00000+0 -68807-5 0  9995
2 43075  86.4003 348.8409 0002156  87.6815 272.4628 14.34217593434929
IRIDIUM 137             
1 43076U 17083G   26104.16115176  .00000168  00000+0  52926-4 0  9992
2 43076  86.4010 348.9275 0002452  74.8205 285.3262 14.34217910434997
IRIDIUM 141             
1 43077U 17083H   26104.15480488 -.00000021  00000+0 -14547-4 0  9990
2 43077  86.4000 348.7641 0001967  84.4287 275.7133 14.34217626434993
IRIDIUM 153             
1 43078U 17083J   26103.96744632  .00000016  00000+0 -13454-5 0  9993
2 43078  86.3948 317.3406 0001849  92.4160 267.7247 14.34217916436073
IRIDIUM 131             
1 43079U 17083K   26104.14211981  .00000010  00000+0 -33394-5 0  9990
2 43079  86.4006 348.9510 0001977  83.5390 276.6030 14.34217753434924
IRIDIUM 144             
1 43249U 18030A   26104.04355864  .00000302  00000+0  10073-3 0  9990
2 43249  86.3947 317.2396 0002279  86.7911 273.3545 14.34217958420946
IRIDIUM 149             
1 43250U 18030B   26104.04990091  .00000472  00000+0  16162-3 0  9992
2 43250  86.3948 317.2049 0002051  86.8827 273.2603 14.34217701420961
IRIDIUM 157             
1 43251U 18030C   26104.13869700  .00000177  00000+0  55966-4 0  9993
2 43251  86.3950 317.2194 0002140  88.0975 272.0466 14.34218275420953
IRIDIUM 140             
1 43252U 18030D   26103.94841954  .00000030  00000+0  37214-5 0  9998
2 43252  86.3951 317.3117 0002190  89.3498 270.7949 14.34217685420988
IRIDIUM 145             
1 43253U 18030E   26104.28457914  .00000180  00000+0  57297-4 0  9994
2 43253  86.3949 317.1435 0002472  86.2854 273.8624 14.34218226420966
IRIDIUM 146             
1 43254U 18030F   26103.98647445  .00000141  00000+0  43316-4 0  9995
2 43254  86.3950 317.2806 0002238  86.9127 273.2325 14.34218725420935
IRIDIUM 148             
1 43255U 18030G   26103.95475670  .00000181  00000+0  57501-4 0  9997
2 43255  86.3952 317.3360 0002147  84.9202 275.2239 14.34214626420960
IRIDIUM 142             
1 43256U 18030H   26104.13234519  .00000059  00000+0  13883-4 0  9993
2 43256  86.3943 317.1530 0002389  86.9773 273.1697 14.34222111420953
IRIDIUM 150             
1 43257U 18030J   26103.96110467  .00000069  00000+0  17583-4 0  9991
2 43257  86.3953 317.3389 0002198  89.1296 271.0151 14.34216966420955
IRIDIUM 143             
1 43258U 18030K   26103.87230769  .00000169  00000+0  53173-4 0  9996
2 43258  86.3954 317.4661 0002302  87.4669 272.6791 14.34218737420879
IRIDIUM 161             
1 43478U 18047C   26104.03796705  .00000142  00000+0  36113-4 0  9990
2 43478  86.4446 115.3016 0002048  86.5962 273.5473 14.43280684415884
IRIDIUM 152             
1 43479U 18047D   26104.26363677  .00000018  00000+0 -56127-6 0  9996
2 43479  86.3925 115.0676 0002037  92.1940 267.9489 14.34217498413326
IRIDIUM 147             
1 43480U 18047E   26104.26997947  .00000040  00000+0  70577-5 0  9999
2 43480  86.3922 115.0691 0002367  89.7297 270.4170 14.34217818413327
IRIDIUM 110             
1 43481U 18047F   26104.27632116  .00000018  00000+0 -58668-6 0  9999
2 43481  86.3928 115.1565 0001797  89.4702 270.6700 14.34217588413313
IRIDIUM 162             
1 43482U 18047G   26104.30898717  .00000063  00000+0  12738-4 0  9990
2 43482  86.4446 115.0800 0002305  93.8683 266.2782 14.43278625415912
IRIDIUM 160             
1 43569U 18061A   26103.66401014  .00000060  00000+0  14241-4 0  9998
2 43569  86.3922  83.7760 0002169  85.3279 274.8164 14.34217663404122
IRIDIUM 166             
1 43570U 18061B   26104.17776116  .00000123  00000+0  36769-4 0  9994
2 43570  86.3921  83.5122 0002400  87.8097 272.3374 14.34213554404228
IRIDIUM 158             
1 43571U 18061C   26103.65766645  .00000073  00000+0  18987-4 0  9999
2 43571  86.3920  83.7399 0002186  92.1129 268.0318 14.34218128404112
IRIDIUM 165             
1 43572U 18061D   26104.24118280  .00000119  00000+0  35356-4 0  9992
2 43572  86.3922  83.5407 0002404  87.5457 272.6014 14.34218841404226
IRIDIUM 155             
1 43573U 18061E   26104.20313088  .00000039  00000+0  69668-5 0  9997
2 43573  86.3921  83.4290 0002321  91.4539 268.6923 14.34217595404182
IRIDIUM 154             
1 43574U 18061F   26104.25387245 -.00000093  00000+0 -40125-4 0  9997
2 43574  86.3923  83.5384 0002313  85.6893 274.4568 14.34216514404246
IRIDIUM 163             
1 43575U 18061G   26104.23483190  .00000030  00000+0  35670-5 0  9991
2 43575  86.3923  83.4636 0002049  90.2485 269.8946 14.34213880404219
IRIDIUM 156             
1 43576U 18061H   26104.20947220  .00000044  00000+0  87284-5 0  9991
2 43576  86.3920  83.4813 0002381  91.1506 268.9963 14.34217629404200
IRIDIUM 164             
1 43577U 18061J   26104.26021400  .00000008  00000+0 -42371-5 0  9990
2 43577  86.3923  83.4997 0002235  83.7574 276.3876 14.34217300404254
IRIDIUM 159             
1 43578U 18061K   26103.46104483  .00000111  00000+0  32667-4 0  9995
2 43578  86.3915  83.7718 0002118  86.1736 273.9701 14.34216000404107
IRIDIUM 180             
1 43922U 19002A   26104.22799733  .00000020  00000+0  19274-7 0  9998
2 43922  86.4019  20.3214 0002108  82.6313 277.5122 14.34217650379824
IRIDIUM 176             
1 43923U 19002B   26104.13341276  .00000533  00000+0  80566-4 0  9992
2 43923  86.6139  20.3133 0002606  84.1332 276.0182 14.72254237389826
IRIDIUM 168             
1 43924U 19002C   26104.22165404  .00000151  00000+0  47016-4 0  9999
2 43924  86.4022  20.3996 0002129  86.1752 273.9688 14.34218753379806
IRIDIUM 173             
1 43925U 19002D   26104.13920080  .00000174  00000+0  55029-4 0  9997
2 43925  86.4017  20.3254 0002129  88.2112 271.9327 14.34218509379774
IRIDIUM 169             
1 43926U 19002E   26104.19138452  .00000203  00000+0  59803-4 0  9995
2 43926  86.4228  51.9354 0002500 101.2700 258.8779 14.38607982381029
IRIDIUM 172             
1 43927U 19002F   26104.13285764  .00000030  00000+0  35773-5 0  9998
2 43927  86.4018  20.3358 0002093  82.6401 277.5033 14.34217926379780
IRIDIUM 175             
1 43928U 19002G   26103.95095482  .00000234  00000+0  63053-4 0  9991
2 43928  86.4504 317.3919 0005365  81.1936 278.9872 14.43588518389713
IRIDIUM 171             
1 43929U 19002H   26104.11383099  .00000154  00000+0  48081-4 0  9990
2 43929  86.4026  20.6427 0002350  85.6282 274.5183 14.34218593379770
IRIDIUM 170             
1 43930U 19002J   26104.00365304 -.00001190  00000+0 -19274-3 0  9993
2 43930  86.6135  20.3706 0002201  78.2467 281.8998 14.72248780389814
IRIDIUM 167             
1 43931U 19002K   26104.10748868  .00000075  00000+0  19600-4 0  9998
2 43931  86.4017  20.3682 0002541  88.2309 271.9178 14.34217803379772
IRIDIUM 181             
1 56726U 23068S   26104.18475444  .00000151  00000+0  38922-4 0  9999
2 56726  86.4459  83.5447 0002316  79.8869 280.2593 14.43311034153208
IRIDIUM 177             
1 56727U 23068T   26104.16872637  .00000683  00000+0  86401-4 0  9998
2 56727  86.2011 359.1937 0002157  89.0171 271.1297 14.80216494156892
IRIDIUM 174             
1 56728U 23068U   26104.19520760  .00000562  00000+0  85255-4 0  9991
2 56728  86.6147  20.4314 0002143  85.2163 274.9299 14.72260063156602
IRIDIUM 178             
1 56729U 23068V   26104.29298147  .00000743  00000+0  94359-4 0  9990
2 56729  86.6545  52.0494 0002717  82.2637 277.8893 14.80233643156914
IRIDIUM 179             
1 56730U 23068W   26104.28760167  .00000739  00000+0  93748-4 0  9993
2 56730  86.6766  60.8443 0002959  89.1634 270.9927 14.80233336156914
