IRIDIUM 106             
1 41917U 17003A   26247.98043788 -.00000090  00000+0 -39323-4 0  9995
2 41917  86.3923  55.1683 0002028  81.1828 278.9597 14.34218068504646
IRIDIUM 103             
1 41918U 17003B   26248.17705875 -.00000093  00000+0 -40182-4 0  9998
2 41918  86.3924  54.9856 0002226  91.1469 268.9982 14.34217720504695
IRIDIUM 109             
1 41919U 17003C   26248.18340382 -.00000085  00000+0 -37371-4 0  9995
2 41919  86.3925  55.0438 0002080  90.5378 269.6056 14.34217848504663
IRIDIUM 102             
1 41920U 17003D   26248.01215563 -.00000100  00000+0 -42740-4 0  9995
2 41920  86.3923  55.0373 0001986  89.6725 270.4699 14.34217315504729
IRIDIUM 105             
1 41921U 17003E   26248.31959777  .00000169  00000+0  53364-4 0  9998
2 41921  86.3991  23.3540 0002191  99.4665 260.6779 14.34217033506628
IRIDIUM 104             
1 41922U 17003F   26248.16439301 -.00000089  00000+0 -38863-4 0  9998
2 41922  86.3925  55.0173 0002220  97.0802 263.0647 14.34216138504736
IRIDIUM 114             
1 41923U 17003G   26248.17071961 -.00000080  00000+0 -35506-4 0  9996
2 41923  86.3924  54.9977 0002143  91.7430 268.4012 14.34217262504710
IRIDIUM 108             
1 41924U 17003H   26248.12923737  .00000076  00000+0  20069-4 0  9990
2 41924  86.3985  23.3185 0002090  94.9909 265.1526 14.34216479506564
IRIDIUM 112             
1 41925U 17003J   26247.94873005 -.00000203  00000+0 -79462-4 0  9997
2 41925  86.3920  54.9288 0002051  91.7029 268.4402 14.34216844504702
IRIDIUM 111             
1 41926U 17003K   26248.00580928 -.00000098  00000+0 -41915-4 0  9999
2 41926  86.3922  54.9774 0002076  89.7440 270.3994 14.34217784504696
IRIDIUM 113             
1 42803U 17039A   26248.19508420 -.00000018  00000+0 -13657-4 0  9994
2 42803  86.3938 288.7400 0002226  95.7548 264.3902 14.34217149482652
IRIDIUM 123             
1 42804U 17039B   26248.23655790  .00000037  00000+0  60305-5 0  9995
2 42804  86.3997 320.1952 0002303  91.6975 268.4485 14.34217342481426
IRIDIUM 120             
1 42805U 17039C   26248.25850896  .00000120  00000+0  35849-4 0  9999
2 42805  86.3926 288.4856 0002194  90.0005 270.1442 14.34217856482652
IRIDIUM 115             
1 42806U 17039D   26248.26502476  .00000156  00000+0  40272-4 0  9994
2 42806  86.4464 288.6227 0002443  89.1480 271.0001 14.43278310485812
IRIDIUM 118             
1 42807U 17039E   26247.57058119  .00000111  00000+0  32726-4 0  9994
2 42807  86.3998 320.4710 0002163  95.4612 264.6831 14.34215545481324
IRIDIUM 117             
1 42808U 17039F   26248.28729747  .00000131  00000+0  39727-4 0  9996
2 42808  86.3996 320.1286 0002256  93.6018 266.5435 14.34216408481455
IRIDIUM 126             
1 42809U 17039G   26248.24289834  .00000081  00000+0  21964-4 0  9999
2 42809  86.3997 320.1996 0002313  95.8509 264.2951 14.34216121481425
IRIDIUM 124             
1 42810U 17039H   26248.26817109  .00000109  00000+0  26483-4 0  9997
2 42810  86.4430 256.8616 0002418  89.5657 270.5821 14.43280652486661
IRIDIUM 128             
1 42811U 17039J   26248.30340700  .00000278  00000+0  92238-4 0  9999
2 42811  86.4024 351.6670 0002121  92.2045 267.9394 14.34216731481463
IRIDIUM 121             
1 42812U 17039K   26248.26192504  .00000049  00000+0  10511-4 0  9992
2 42812  86.3998 320.2199 0002170  94.2523 265.8921 14.34216092481304
IRIDIUM 133             
1 42955U 17061A   26248.26535251  .00000037  00000+0  59933-5 0  9994
2 42955  86.4027 351.8026 0002166  93.7591 266.3853 14.34216500466250
IRIDIUM 100             
1 42956U 17061B   26248.25900901  .00000028  00000+0  30460-5 0  9996
2 42956  86.4024 351.7219 0002151  94.2340 265.9102 14.34216447466255
IRIDIUM 122             
1 42957U 17061C   26247.73891046  .00000128  00000+0  38638-4 0  9993
2 42957  86.4026 351.9395 0002298  94.9127 265.2332 14.34216639466180
IRIDIUM 129             
1 42958U 17061D   26248.25266559 -.00000045  00000+0 -22963-4 0  9991
2 42958  86.4024 351.7930 0002110 100.8022 259.3412 14.34216234466270
IRIDIUM 119             
1 42959U 17061E   26248.29072121  .00000048  00000+0  10211-4 0  9990
2 42959  86.4026 351.7733 0002252  95.4515 264.6938 14.34215628466297
IRIDIUM 107             
1 42960U 17061F   26248.30975064  .00000032  00000+0  42873-5 0  9995
2 42960  86.4027 351.7869 0002334  90.1667 269.9797 14.34216030466302
IRIDIUM 132             
1 42961U 17061G   26248.31609322 -.00000089  00000+0 -38857-4 0  9998
2 42961  86.4024 351.7633 0002067  95.0465 265.0966 14.34216327466306
IRIDIUM 136             
1 42962U 17061H   26248.27803758  .00000158  00000+0  49286-4 0  9996
2 42962  86.4027 351.7863 0002130  94.6762 265.4678 14.34216622466314
IRIDIUM 139             
1 42963U 17061J   26248.28437849 -.00000086  00000+0 -37943-4 0  9991
2 42963  86.4026 351.8468 0002047  93.3891 266.7539 14.34216033466329
IRIDIUM 125             
1 42964U 17061K   26248.27169609  .00000001  00000+0 -68546-5 0  9997
2 42964  86.4028 351.9147 0002573  94.9194 265.2296 14.34216096466338
IRIDIUM 135             
1 43070U 17083A   26248.17605617  .00000152  00000+0  47131-4 0  9995
2 43070  86.3931 288.5797 0002257  93.4198 266.7256 14.34217787455611
IRIDIUM 138             
1 43071U 17083B   26247.36420459 -.00000005  00000+0 -89483-5 0  9991
2 43071  86.3945 288.6265 0002288  95.6029 264.5427 14.34217270455487
IRIDIUM 116             
1 43072U 17083C   26248.16971332 -.00000027  00000+0 -16881-4 0  9997
2 43072  86.3930 288.5671 0002009  86.2033 273.9392 14.34217150455633
IRIDIUM 130             
1 43073U 17083D   26248.20776842  .00000025  00000+0  17019-5 0  9993
2 43073  86.3939 288.8344 0002180  87.1409 273.0036 14.34217642455586
IRIDIUM 151             
1 43074U 17083E   26248.18239766  .00000047  00000+0  97265-5 0  9995
2 43074  86.3932 288.6216 0002211  91.7421 268.4028 14.34217904455609
IRIDIUM 134             
1 43075U 17083F   26248.22045375  .00000020  00000+0 -46221-7 0  9992
2 43075  86.3934 288.6146 0002183  91.4456 268.6990 14.34217565455576
IRIDIUM 137             
1 43076U 17083G   26248.16336926  .00000031  00000+0  38993-5 0  9997
2 43076  86.3936 288.7333 0001913  92.0490 268.0925 14.34217799455631
IRIDIUM 141             
1 43077U 17083H   26248.15702811  .00000118  00000+0  35131-4 0  9993
2 43077  86.3932 288.5619 0002262  94.1740 265.9714 14.34217520455636
IRIDIUM 153             
1 43078U 17083J   26248.10920233  .00000022  00000+0  67011-6 0  9997
2 43078  86.3909 257.0436 0002317  92.3624 267.7837 14.34218635456737
IRIDIUM 131             
1 43079U 17083K   26248.07457456  .00000027  00000+0  24714-5 0  9993
2 43079  86.3936 288.7873 0002234  94.7432 265.4019 14.34217088455552
IRIDIUM 144             
1 43249U 18030A   26248.04577777 -.00000156  00000+0 -62694-4 0  9994
2 43249  86.3907 256.9973 0002109  87.9009 272.2428 14.34216433441583
IRIDIUM 149             
1 43250U 18030B   26248.26142653 -.00000034  00000+0 -19178-4 0  9995
2 43250  86.3906 256.8732 0002237  91.6761 268.4691 14.34217921441633
IRIDIUM 157             
1 43251U 18030C   26248.28045166 -.00000043  00000+0 -22497-4 0  9997
2 43251  86.3908 256.9202 0002203  90.7427 269.4021 14.34218348441611
IRIDIUM 140             
1 43252U 18030D   26248.29947986 -.00000029  00000+0 -17480-4 0  9990
2 43252  86.3908 256.9246 0002209  90.2154 269.9295 14.34218360441676
IRIDIUM 145             
1 43253U 18030E   26248.28679530 -.00000053  00000+0 -26079-4 0  9998
2 43253  86.3908 256.9020 0002058  83.5572 276.5858 14.34218076441604
IRIDIUM 146             
1 43254U 18030F   26248.12822727 -.00000035  00000+0 -19615-4 0  9998
2 43254  86.3907 256.9803 0002133  87.9940 272.1501 14.34218618441591
IRIDIUM 148             
1 43255U 18030G   26248.09651826 -.00000021  00000+0 -14450-4 0  9992
2 43255  86.3908 257.0379 0002099  91.8793 268.2643 14.34217013441629
IRIDIUM 142             
1 43256U 18030H   26248.27410888 -.00000064  00000+0 -29814-4 0  9991
2 43256  86.3905 256.8496 0002076  87.4980 272.6454 14.34218297441611
IRIDIUM 150             
1 43257U 18030J   26248.03309223  .00000003  00000+0 -59637-5 0  9995
2 43257  86.3908 257.0695 0002191  88.5637 271.5810 14.34218244441603
IRIDIUM 143             
1 43258U 18030K   26248.08383071 -.00000005  00000+0 -87832-5 0  9995
2 43258  86.3911 257.1439 0002178  87.4676 272.6769 14.34217434441549
IRIDIUM 161             
1 43478U 18047C   26247.89945687  .00000055  00000+0  10353-4 0  9998
2 43478  86.4446  55.1116 0002183  95.5733 264.5717 14.43280036436630
IRIDIUM 152             
1 43479U 18047D   26247.98678545 -.00000082  00000+0 -36330-4 0  9990
2 43479  86.3919  54.9373 0002068  91.4112 268.7320 14.34217458433928
IRIDIUM 147             
1 43480U 18047E   26247.99312599 -.00000073  00000+0 -33003-4 0  9991
2 43480  86.3921  54.9412 0001960  87.4555 272.6865 14.34217524433925
IRIDIUM 110             
1 43481U 18047F   26247.99946966 -.00000076  00000+0 -34042-4 0  9990
2 43481  86.3923  55.0325 0002103  98.0790 262.0645 14.34217899433915
IRIDIUM 162             
1 43482U 18047G   26247.47717027  .00000072  00000+0  15280-4 0  9995
2 43482  86.4444  55.1786 0002209  89.1356 271.0098 14.43280071436561
IRIDIUM 160             
1 43569U 18061A   26248.29414247  .00000057  00000+0  13146-4 0  9998
2 43569  86.3988  23.2895 0002111  94.0418 266.1020 14.34216171424851
IRIDIUM 166             
1 43570U 18061B   26248.11020655 -.00000018  00000+0 -13403-4 0  9992
2 43570  86.3985  23.3161 0001993  91.5446 268.5978 14.34219228424851
IRIDIUM 158             
1 43571U 18061C   26248.28780292  .00000040  00000+0  72399-5 0  9994
2 43571  86.3987  23.2515 0002210  93.3960 266.7489 14.34216058424844
IRIDIUM 165             
1 43572U 18061D   26248.31317276  .00000000  00000+0 -70001-5 0  9992
2 43572  86.3987  23.2892 0001985  91.2348 268.9075 14.34216195424878
IRIDIUM 155             
1 43573U 18061E   26248.13558076  .00000025  00000+0  16901-5 0  9993
2 43573  86.3985  23.2282 0002175  91.4386 268.7059 14.34218323424815
IRIDIUM 154             
1 43574U 18061F   26248.11655234  .00000098  00000+0  27780-4 0  9992
2 43574  86.3989  23.3737 0002076  91.3668 268.7766 14.34218080424868
IRIDIUM 163             
1 43575U 18061G   26248.30682923 -.00000140  00000+0 -57213-4 0  9993
2 43575  86.3984  23.2073 0002053  93.8352 266.3078 14.34215774424865
IRIDIUM 156             
1 43576U 18061H   26247.93260923  .00000162  00000+0  50855-4 0  9991
2 43576  86.3986  23.3707 0002236  89.7861 270.3591 14.34222770424808
IRIDIUM 164             
1 43577U 18061J   26248.12289464 -.00000120  00000+0 -49889-4 0  9996
2 43577  86.3985  23.3331 0001906  91.0946 269.0468 14.34216352424878
IRIDIUM 159             
1 43578U 18061K   26248.30048784  .00000005  00000+0 -53705-5 0  9999
2 43578  86.3984  23.1942 0002063  95.3262 264.8170 14.34216484424865
IRIDIUM 180             
1 43922U 19002A   26247.46276456  .00000120  00000+0  35660-4 0  9999
2 43922  86.3997 320.4781 0002215  95.7884 264.3564 14.34221321400355
IRIDIUM 176             
1 43923U 19002B   26248.22494372  .00000341  00000+0  50221-4 0  9999
2 43923  86.6117 320.0923 0002383  94.3875 265.7614 14.72254968411020
IRIDIUM 168             
1 43924U 19002C   26248.22386991  .00000121  00000+0  35998-4 0  9997
2 43924  86.3999 320.2397 0002202  96.1971 263.9476 14.34219823400449
IRIDIUM 173             
1 43925U 19002D   26248.28095468  .00000143  00000+0  43831-4 0  9999
2 43925  86.3995 320.1013 0002241  94.8423 265.3028 14.34216357400437
IRIDIUM 169             
1 43926U 19002E   26248.24138233  .00000141  00000+0  39429-4 0  9990
2 43926  86.4281 351.7367 0002552  88.1907 271.9583 14.38607382401736
IRIDIUM 172             
1 43927U 19002F   26248.27461374  .00000134  00000+0  40719-4 0  9995
2 43927  86.3996 320.1124 0002212  95.7818 264.3630 14.34216241400440
IRIDIUM 175             
1 43928U 19002G   26248.26418769  .00000103  00000+0  24343-4 0  9996
2 43928  86.4460 257.0346 0002414   4.1846 355.9375 14.43643848410532
IRIDIUM 171             
1 43929U 19002H   26247.34859571  .00000065  00000+0  16219-4 0  9995
2 43929  86.4007 320.8140 0002198  92.6961 267.4486 14.34218722400303
IRIDIUM 170             
1 43930U 19002J   26248.23113203  .00000369  00000+0  54653-4 0  9992
2 43930  86.6116 320.0914 0002427  95.8647 264.2846 14.72249355411035
IRIDIUM 167             
1 43931U 19002K   26248.24923952  .00000100  00000+0  28671-4 0  9998
2 43931  86.3996 320.1459 0002195  88.5501 271.5947 14.34216383400432
IRIDIUM 181             
1 56726U 23068S   26247.90458319  .00000182  00000+0  47937-4 0  9999
2 56726  86.4524  23.4535 0002034  95.5028 264.6405 14.43313637173932
IRIDIUM 177             
1 56727U 23068T   26245.80301371  .00000536  00000+0  67333-4 0  9997
2 56727  86.1940 291.9483 0002598  93.8466 266.3052 14.80048058177842
IRIDIUM 174             
1 56728U 23068U   26248.21877441  .00000410  00000+0  61128-4 0  9999
2 56728  86.6124 320.2520 0002666  96.5804 263.5717 14.72249672177799
IRIDIUM 178             
1 56729U 23068V   26248.22611701  .00000585  00000+0  73856-4 0  9990
2 56729  86.6595 351.9317 0002427  93.7917 266.3582 14.80048676178204
IRIDIUM 179             
1 56730U 23068W   26247.34180399  .00000583  00000+0  73587-4 0  9997
2 56730  86.6830   1.5089 0002366  89.7696 270.3796 14.80050671178078
