KUIPER-00008            
1 63724U 25088A   26165.30368391 -.00000171  00000+0  65532-5 0  9993
2 63724  51.9010  20.7814 0000704 108.6476 251.4563 14.79928273 62359
KUIPER-00009            
1 63725U 25088B   26164.91323965  .00004604  00000+0  63671-3 0  9992
2 63725  51.9036  40.1303 0001714 148.0801 212.0265 14.79655656 62049
KUIPER-00010            
1 63726U 25088C   26165.27533085  .00000644  00000+0  11346-3 0  9991
2 63726  51.9037  16.0054 0000874 108.3603 251.7455 14.79936132 62032
KUIPER-00011            
1 63727U 25088D   26165.30101216  .00000197  00000+0  54815-4 0  9995
2 63727  51.9027  23.4453 0000746 103.9523 256.1522 14.79932249 62069
KUIPER-00012            
1 63728U 25088E   26164.87824128 -.00000243  00000+0 -28330-5 0  9999
2 63728  51.9039  10.2470 0000667 104.1530 255.9506 14.79923074 62165
KUIPER-00013            
1 63729U 25088F   26165.34966139  .00000397  00000+0  81067-4 0  9995
2 63729  51.9026  40.6788 0000878  90.0159 270.0905 14.79930044 61889
KUIPER-00014            
1 63730U 25088G   26164.84316597  .00000391  00000+0  80262-4 0  9998
2 63730  51.9030  42.8616 0000785  98.7465 261.3587 14.79936059 61625
KUIPER-00015            
1 63731U 25088H   26165.40639681  .00000931  00000+0  15110-3 0  9993
2 63731  51.9005  50.4405 0000674 100.0926 260.0113 14.79929840 62021
KUIPER-00016            
1 63732U 25088J   26164.84032199  .00004154  00000+0  57512-3 0  9995
2 63732  51.9018  45.3893 0000404 183.0811 177.0149 14.79817393 61580
KUIPER-00018            
1 63733U 25088K   26165.35774731 -.00000064  00000+0  20548-4 0  9995
2 63733  51.9048  33.1281 0000711 101.6092 258.4950 14.79930772 61804
KUIPER-00019            
1 63734U 25088L   26165.31688824  .00000215  00000+0  57211-4 0  9993
2 63734  51.9016  32.0741 0000679 107.7121 252.3916 14.79936999 61815
KUIPER-00020            
1 63735U 25088M   26165.35505261  .00000257  00000+0  62690-4 0  9994
2 63735  51.9033  35.6474 0001214  89.3770 270.7332 14.79929496 61975
KUIPER-00021            
1 63736U 25088N   26164.91608709  .00001488  00000+0  22416-3 0  9995
2 63736  51.9021  37.5467 0000805 102.7638 257.3414 14.79929017 61740
KUIPER-00023            
1 63737U 25088P   26165.35233901  .00000791  00000+0  13271-3 0  9998
2 63737  51.9015  38.1057 0000777 106.7346 253.3702 14.79941804 62075
KUIPER-00024            
1 63738U 25088Q   26165.29831408 -.00000056  00000+0  21633-4 0  9995
2 63738  51.9066  25.9363 0000820 108.0632 252.0420 14.79929930 62369
KUIPER-00025            
1 63739U 25088R   26165.32392116  .00001613  00000+0  24041-3 0  9992
2 63739  51.9056  33.3034 0000826 111.0922 249.0129 14.79963674 62128
KUIPER-00027            
1 63740U 25088S   26164.82277110  .00001444  00000+0  21820-3 0  9998
2 63740  51.9024  30.4923 0000688 112.7148 247.3887 14.79976112 61856
KUIPER-00028            
1 63741U 25088T   26165.33206621 -.00000039  00000+0  23834-4 0  9993
2 63741  51.9012  25.6977 0000739 107.0514 253.0529 14.79936965 62377
KUIPER-00029            
1 63742U 25088U   26164.90301065  .00008843  00000+0  11849-2 0  9995
2 63742  51.9014  26.2758 0001800 123.9077 236.2057 14.80021262 61853
KUIPER-00030            
1 63743U 25088V   26165.34689115  .00000009  00000+0  30177-4 0  9993
2 63743  51.9033  43.1377 0000814 100.3098 259.7956 14.79911070 61947
KUIPER-00031            
1 63744U 25088W   26165.31345551  .00003217  00000+0  48892-3 0  9990
2 63744  51.9025  27.4524 0002630  98.6109 261.5150 14.76423348 61870
KUIPER-00032            
1 63745U 25088X   26165.56680055  .00014960  00000+0  37620-3 0  9993
2 63745  51.8687 274.7285 0004191 105.7536 254.3915 15.40157446 64465
KUIPER-00033            
1 63746U 25088Y   26165.43207551  .00002045  00000+0  29708-3 0  9995
2 63746  51.9003  57.7845 0000616 104.3411 255.7620 14.79938278 61944
KUIPER-00034            
1 63747U 25088Z   26165.33746712 -.00000096  00000+0  16446-4 0  9993
2 63747  51.9034  20.7346 0000791 100.8030 259.3021 14.79929116 62135
KUIPER-00035            
1 63748U 25088AA  26165.37802875 -.00000079  00000+0  18594-4 0  9998
2 63748  51.9021  45.5336 0000722 102.6224 257.4820 14.79929724 61843
KUIPER-00037            
1 63749U 25088AB  26165.37094035 -.00000147  00000+0  97821-5 0  9997
2 63749  51.9016  44.4205 0000789  97.3827 262.7225 14.79930006 62645
KUIPER-00038            
1 63750U 25088AC  26165.36045059  .00000052  00000+0  35819-4 0  9992
2 63750  51.9043  30.6300 0000783  96.7161 263.3890 14.79930063 61836
KUIPER-00039            
1 64500U 25134A   26165.26548273  .00001864  00000+0  27352-3 0  9997
2 64500  51.8994 166.0475 0000494  76.4156 283.6861 14.79926848 54379
KUIPER-00040            
1 64501U 25134B   26165.28844499 -.00001948  00000+0 -22659-3 0  9999
2 64501  51.8962 176.0356 0000495  30.6245 329.4746 14.79927505 54233
KUIPER-00041            
1 64502U 25134C   26165.25198994  .00001944  00000+0  28383-3 0  9993
2 64502  51.8978 178.5776 0000512  88.6508 271.4513 14.79939135 54194
KUIPER-00042            
1 64503U 25134D   26165.22359275  .00000738  00000+0  12576-3 0  9999
2 64503  51.8984 173.6834 0000525  77.1145 282.9875 14.79926097 54266
KUIPER-00043            
1 64504U 25134E   26165.29924627  .00001967  00000+0  28695-3 0  9990
2 64504  51.9000 165.8382 0000487  57.5493 302.5516 14.79935992 54381
KUIPER-00044            
1 64505U 25134F   26165.28574802 -.00001025  00000+0 -10551-3 0  9995
2 64505  51.8977 178.4094 0000519  73.9247 286.1772 14.79930440 54204
KUIPER-00046            
1 64506U 25134G   26165.32222262  .00001911  00000+0  27952-3 0  9996
2 64506  51.8973 175.7271 0000452  81.7545 278.3469 14.79936575 54247
KUIPER-00047            
1 64507U 25134H   26165.25058914  .00000390  00000+0  80232-4 0  9991
2 64507  51.8975 148.5663 0000682  62.1354 297.9678 14.79925303 54616
KUIPER-00048            
1 64508U 25134J   26165.21682760  .00002101  00000+0  30451-3 0  9999
2 64508  51.8984 148.7287 0000550  61.7960 298.3058 14.79932915 54617
KUIPER-00049            
1 64509U 25134K   26165.23710323  .00001995  00000+0  29060-3 0  9993
2 64509  51.8987 161.1005 0000478  54.3346 305.7661 14.79935518 54449
KUIPER-00050            
1 64510U 25134L   26165.18844938 -.00000616  00000+0 -51847-4 0  9999
2 64510  51.8990 143.8385 0000610  58.1788 301.9234 14.79927335 54681
KUIPER-00051            
1 64511U 25134M   26165.28089795  .00008941  00000+0  11960-2 0  9990
2 64511  51.8994 159.6018 0000875  77.5680 282.5381 14.80084550 54461
KUIPER-00053            
1 64513U 25134P   26165.27000936  .00002255  00000+0  31166-3 0  9994
2 64513  51.8994 155.2652 0000939 170.7316 189.3665 14.81700916 54520
KUIPER-00054            
1 64514U 25134Q   26165.21412749 -.00000074  00000+0  19360-4 0  9999
2 64514  51.8978 151.2244 0000967  28.3485 331.7529 14.79931829 54575
KUIPER-00055            
1 64515U 25134R   26165.09654102  .00000238  00000+0  60231-4 0  9991
2 64515  51.9012 104.3645 0000939  87.5970 272.5100 14.79923958 55229
KUIPER-00056            
1 64516U 25134S   26165.24250161  .00000602  00000+0  10798-3 0  9993
2 64516  51.9017 156.1794 0000545  62.9343 297.1675 14.79927258 54517
KUIPER-00057            
1 64517U 25134T   26165.30193553  .00000866  00000+0  14264-3 0  9996
2 64517  51.8990 163.3550 0000587  73.7176 286.3850 14.79931438 54416
KUIPER-00058            
1 64518U 25134U   26165.27354956  .00002145  00000+0  31023-3 0  9993
2 64518  51.8993 158.4476 0000527  65.2101 294.8916 14.79941083 54481
KUIPER-00059            
1 64519U 25134V   26165.27894961  .00002227  00000+0  32096-3 0  9991
2 64519  51.8987 153.4674 0000538  73.7784 286.3237 14.79939377 54556
KUIPER-00060            
1 64520U 25134W   26165.24520649  .00002169  00000+0  31349-3 0  9994
2 64520  51.9014 153.6727 0000571  76.8247 283.2779 14.79929588 54534
KUIPER-00061            
1 64521U 25134X   26165.27089208 -.00001571  00000+0 -17711-3 0  9994
2 64521  51.8997 161.0164 0000621  59.6445 300.4579 14.79938043 54432
KUIPER-00062            
1 64522U 25134Y   26165.26814274 -.00000185  00000+0  46863-5 0  9994
2 64522  51.8946 163.5183 0000599  83.6312 276.4718 14.79924833 54416
KUIPER-00063            
1 64523U 25134Z   26165.32761541 -.00000678  00000+0 -59989-4 0  9990
2 64523  51.9013 170.7922 0000570  82.4427 277.6601 14.79928499 54312
KUIPER-00064            
1 64524U 25134AA  26165.26277769  .00001973  00000+0  28780-3 0  9999
2 64524  51.9008 168.5009 0000495  83.4857 276.6162 14.79926209 54343
KUIPER-00065            
1 64525U 25134AB  26165.32490318  .00000308  00000+0  69367-4 0  9992
2 64525  51.9011 173.3929 0000673 102.2692 257.8346 14.79949169 54264
KUIPER-00066            
1 64526U 25134AC  26165.15596861  .00003666  00000+0  50951-3 0  9992
2 64526  51.9023 111.4233 0000654  68.4346 291.6686 14.79943060 55131
KUIPER-00069            
1 64816U 25151A   26165.41679693 -.00002317  00000+0 -27498-3 0  9991
2 64816  51.9007 212.9122 0000547 104.2337 255.8686 14.79943927 51083
KUIPER-00070            
1 64817U 25151B   26165.49111047  .00046624  00000+0  61143-2 0  9995
2 64817  51.8998 237.5005 0000930  71.9276 288.1787 14.79851398 50757
KUIPER-00071            
1 64818U 25151C   26165.49394947  .00002663  00000+0  37872-3 0  9996
2 64818  51.9008 235.0254 0000265  96.1096 263.9897 14.79868741 49605
KUIPER-00072            
1 64819U 25151D   26165.41434007  .00002403  00000+0  34450-3 0  9992
2 64819  51.8964 215.3306 0000559  73.9664 286.1360 14.79884054 49871
KUIPER-00073            
1 64820U 25151E   26165.46009953  .00001056  00000+0  16744-3 0  9996
2 64820  51.8995 235.1595 0000285  59.4808 300.6182 14.79936682 50783
KUIPER-00074            
1 64821U 25151F   26165.58335648  .00068199  00000+0  25980-3 0  9996
2 64821  51.8827 158.5955 0008727  24.0227  80.7404 15.86853568  3802
KUIPER-00075            
1 64822U 25151G   26165.14648765  .00036086  00000+0  76980-3 0  9992
2 64822  51.8668 111.2907 0002611 278.1971  81.8723 15.44540976 51295
KUIPER-00076            
1 64823U 25151H   26165.47084942 -.00001330  00000+0 -14546-3 0  9996
2 64823  51.9003 225.1335 0001144 109.1538 250.9548 14.79937190 49748
KUIPER-00077            
1 64824U 25151J   26165.46540512  .00002689  00000+0  38183-3 0  9995
2 64824  51.9005 230.1697 0000679  92.7747 267.3293 14.79903252 49672
KUIPER-00078            
1 64825U 25151K   26165.43441767 -.00000314  00000+0 -12233-4 0  9999
2 64825  51.8993 227.7889 0000590  93.5772 266.5258 14.79927957 49706
KUIPER-00079            
1 64826U 25151L   26165.46279099 -.00000576  00000+0 -46574-4 0  9995
2 64826  51.8989 232.6270 0000490  94.5812 265.5206 14.79930208 50837
KUIPER-00080            
1 64827U 25151M   26165.49654441  .00002603  00000+0  37026-3 0  9999
2 64827  51.8991 232.4866 0000432  83.5327 276.5685 14.79937620 49640
KUIPER-00082            
1 64828U 25151N   26165.40872799 -.00000367  00000+0 -19207-4 0  9998
2 64828  51.9011 220.4244 0000527  73.2442 286.8578 14.79927244 49805
KUIPER-00083            
1 64829U 25151P   26165.46819139  .00000328  00000+0  72024-4 0  9995
2 64829  51.9003 227.6450 0000487 103.0870 257.0147 14.79932024 50892
KUIPER-00084            
1 64830U 25151Q   26165.45739814  .00003059  00000+0  43003-3 0  9995
2 64830  51.9010 237.6777 0000463  94.3865 265.7151 14.79938470 49569
KUIPER-00085            
1 64831U 25151R   26165.44251325  .00002543  00000+0  36238-3 0  9990
2 64831  51.9021 220.3159 0000511  92.4318 267.6703 14.79938492 49806
KUIPER-00086            
1 64832U 25151S   26165.43169982  .00002715  00000+0  38509-3 0  9991
2 64832  51.9005 230.3158 0000538  94.5602 265.5422 14.79922530 49662
KUIPER-00087            
1 64833U 25151T   26165.38307095  .00002355  00000+0  33772-3 0  9992
2 64833  51.8977 212.9976 0000481  86.9700 273.1317 14.79938269 49894
KUIPER-00089            
1 64834U 25151U   26165.44520580  .00002374  00000+0  34021-3 0  9995
2 64834  51.8995 217.7419 0000486  91.1647 268.9371 14.79937467 49849
KUIPER-00090            
1 64835U 25151V   26165.38576879  .00002467  00000+0  35243-3 0  9991
2 64835  51.8970 210.5171 0000504  86.5537 273.5483 14.79932845 49937
KUIPER-00091            
1 64836U 25151W   26165.44790276  .00002365  00000+0  33906-3 0  9999
2 64836  51.9001 215.2446 0000442  86.6432 273.4581 14.79937158 49870
KUIPER-00092            
1 64837U 25151X   26165.43982443 -.00000059  00000+0  21308-4 0  9991
2 64837  51.8991 222.7735 0000538  93.9230 266.1794 14.79929154 50981
KUIPER-00093            
1 64838U 25151Y   26165.36959097  .00000706  00000+0  12160-3 0  9996
2 64838  51.8995 225.5606 0000464  90.1145 269.9870 14.79932233 49724
KUIPER-00094            
1 64839U 25151Z   26165.58335648  .00005529  00000+0  75873-3 0  9999
2 64839  51.9006 179.6907 0002511  22.0819 140.2943 14.79651115  4819
KUIPER-00081            
1 65132U 25171A   26165.49218722  .00002501  00000+0  35705-3 0  9998
2 65132  51.9003  80.0123 0000874 100.5574 259.5487 14.79925455 47374
KUIPER-00088            
1 65133U 25171B   26165.06817179  .00000433  00000+0  85768-4 0  9990
2 65133  51.9003  99.3910 0000842  75.0287 285.0768 14.79931605 47060
KUIPER-00095            
1 65134U 25171C   26165.49492256  .00001275  00000+0  19619-3 0  9999
2 65134  51.8974  77.5575 0000836  93.0280 267.0778 14.79930254 47406
KUIPER-00096            
1 65135U 25171D   26165.51519808  .00001127  00000+0  17685-3 0  9993
2 65135  51.9003  89.9125 0000803  88.2929 271.8125 14.79939299 47237
KUIPER-00097            
1 65136U 25171E   26165.51251817  .00001546  00000+0  23180-3 0  9999
2 65136  51.9039  92.5736 0000791  88.9980 271.1073 14.79933683 47185
KUIPER-00098            
1 65137U 25171F   26165.50979728  .00001598  00000+0  23850-3 0  9998
2 65137  51.9009  94.9544 0000787  97.5934 262.5118 14.79936162 46500
KUIPER-00099            
1 65138U 25171G   26165.48682649  .00000953  00000+0  15397-3 0  9990
2 65138  51.9028  85.0548 0000785  92.6482 267.4571 14.79938325 47296
KUIPER-00100            
1 65139U 25171H   26165.45574307  .00001961  00000+0  28614-3 0  9995
2 65139  51.9010  82.6661 0000772  93.4385 266.6665 14.79935998 47326
KUIPER-00102            
1 65140U 25171J   26165.04787789  .00004052  00000+0  56001-3 0  9997
2 65140  51.8990  86.9656 0000775  98.6187 261.4863 14.79943551 47221
KUIPER-00103            
1 65141U 25171K   26165.13029317  .00003897  00000+0  53971-3 0  9993
2 65141  51.8984 104.0970 0000711  83.7071 276.3973 14.79943206 46990
KUIPER-00104            
1 65142U 25171L   26165.48142306  .00001760  00000+0  25978-3 0  9999
2 65142  51.9017  90.0356 0000749  86.4778 273.6270 14.79938623 47220
KUIPER-00105            
1 65143U 25171M   26165.50711584  .00000373  00000+0  77901-4 0  9996
2 65143  51.8994  97.5280 0000771  96.3188 263.7862 14.79932378 47129
KUIPER-00106            
1 65144U 25171N   26165.58335648  .00002214  00000+0  32046-3 0  9994
2 65144  51.9020  75.9434 0000928  98.2841  53.6973 14.79782884  5345
KUIPER-00107            
1 65145U 25171P   26165.45833523 -.00000706  00000+0 -63456-4 0  9992
2 65145  51.9013  80.1829 0000789 112.3507 247.7540 14.80047962 47363
KUIPER-00108            
1 65146U 25171Q   26165.00603625  .00000773  00000+0  13036-3 0  9992
2 65146  51.9019  94.7155 0000874  92.2301 267.8762 14.79935219 47128
KUIPER-00109            
1 65147U 25171R   26165.51789570  .00000861  00000+0  14189-3 0  9991
2 65147  51.9034  87.3966 0000754  92.3389 267.7660 14.79933162 47264
KUIPER-00110            
1 65148U 25171S   26165.13300638  .00003926  00000+0  54354-3 0  9997
2 65148  51.9005 101.6623 0000698 104.1763 255.9277 14.79946458 47027
KUIPER-00111            
1 65149U 25171T   26165.56653636  .00003510  00000+0  48914-3 0  9998
2 65149  51.8966 104.6306 0000941  93.1054 267.0016 14.79942663 47024
KUIPER-00112            
1 65150U 25171U   26165.48412254  .00002390  00000+0  34245-3 0  9997
2 65150  51.9010  87.5954 0001064 102.1457 257.9624 14.79930431 47258
KUIPER-00114            
1 65151U 25171V   26165.56378977  .00003484  00000+0  48538-3 0  9995
2 65151  51.8989 107.2190 0000830  76.2090 283.8965 14.79963221 46987
KUIPER-00115            
1 65152U 25171W   26165.50440301  .00001734  00000+0  25642-3 0  9998
2 65152  51.9003  99.9806 0000876  98.5462 261.5600 14.79935273 47084
KUIPER-00116            
1 65153U 25171X   26165.12761998  .00002169  00000+0  31340-3 0  9990
2 65153  51.9003 106.6818 0000813  78.9882 281.1172 14.79938107 46959
KUIPER-00118            
1 65154U 25171Y   26165.53008437  .00000914  00000+0  14888-3 0  9992
2 65154  51.8986 107.3552 0000668  93.2655 266.8384 14.79933341 46981
KUIPER-00119            
1 65155U 25171Z   26165.54357221  .00003601  00000+0  50095-3 0  9998
2 65155  51.9014  94.8862 0000756 107.0214 253.0831 14.79945138 47154
KUIPER-00120            
1 65762U 25217A   26165.24013697  .00001151  00000+0  17997-3 0  9998
2 65762  51.8999 346.1142 0000875  73.8878 286.2180 14.79926039 39033
KUIPER-00132            
1 65763U 25217B   26165.48952093  .00037140  00000+0  84554-3 0  9997
2 65763  51.8560 252.4920 0006567 312.6245  47.4190 15.42577888 40357
KUIPER-00133            
1 65764U 25217C   26165.20639853  .00000966  00000+0  15568-3 0  9999
2 65764  51.9046 346.3579 0000651 121.0441 239.0586 14.79935891 39031
KUIPER-00139            
1 65765U 25217D   26165.03598920  .00064162  00000+0  90323-2 0  9999
2 65765  51.9001 314.5594 0001533 145.6179 214.4881 14.76680311 39460
KUIPER-00142            
1 65766U 25217E   26165.59667843  .00003398  00000+0  47451-3 0  9991
2 65766  51.9013 327.0629 0000598 110.1385 249.9642 14.79936852 39339
KUIPER-00145            
1 65767U 25217F   26165.18880275  .00002605  00000+0  37054-3 0  9991
2 65767  51.9006 331.3858 0000594  98.7462 261.3568 14.79937952 39233
KUIPER-00147            
1 65768U 25217G   26164.67963714  .00000849  00000+0  14041-3 0  9994
2 65768  51.8985 336.1264 0000812  81.9474 278.1581 14.79936079 39121
KUIPER-00148            
1 65769U 25217H   26165.57060892  .00003070  00000+0  47237-3 0  9992
2 65769  51.9069 313.9242 0000885 159.7827 200.3169 14.76007820 39513
KUIPER-00150            
1 65770U 25217J   26165.20909058  .00001125  00000+0  17658-3 0  9993
2 65770  51.9028 343.8087 0000648 103.8359 256.2676 14.79937471 39066
KUIPER-00151            
1 65771U 25217K   26165.21717594  .00003052  00000+0  42920-3 0  9998
2 65771  51.9028 336.2698 0000524 109.5087 250.5932 14.79935016 39172
KUIPER-00152            
1 65772U 25217L   26165.12934609 -.00001181  00000+0 -12593-3 0  9993
2 65772  51.9003 324.1444 0000691 111.7472 248.3564 14.79941721 39333
KUIPER-00153            
1 65773U 25217M   26165.13475413  .00002387  00000+0  34194-3 0  9996
2 65773  51.9049 319.1912 0000543  95.0774 265.0251 14.79939703 39407
KUIPER-00155            
1 65774U 25217N   26165.63713106  .00000833  00000+0  13829-3 0  9992
2 65774  51.9035 289.4322 0000490 112.9477 247.1537 14.79930146 39867
KUIPER-00156            
1 65775U 25217P   26164.69582559  .00000951  00000+0  15368-3 0  9995
2 65775  51.9056 321.1128 0000631 107.8712 252.2320 14.79935022 39338
KUIPER-00163            
1 65777U 25217R   26165.58335648  .00119794  00000+0  41659-3 0  9999
2 65777  51.8888 279.1914 0006048 318.1867 206.0384 15.88512748  5970
KUIPER-00165            
1 65778U 25217S   26165.15773770  .00002342  00000+0  33606-3 0  9998
2 65778  51.9020 329.0212 0000614 102.8916 257.2115 14.79936502 39268
KUIPER-00166            
1 65779U 25217T   26164.73228670  .00001243  00000+0  19201-3 0  9990
2 65779  51.9031 318.4466 0000833 104.8422 255.2633 14.79932392 39379
KUIPER-00167            
1 65780U 25217U   26165.21446525  .00003161  00000+0  44336-3 0  9995
2 65780  51.8969 338.6951 0000844  93.2019 266.9040 14.79944403 39139
KUIPER-00168            
1 65781U 25217V   26164.69311612  .00004085  00000+0  56447-3 0  9997
2 65781  51.9006 323.5796 0000609 104.3604 255.7426 14.79939761 39300
KUIPER-00169            
1 65782U 25217W   26165.16043172  .00002309  00000+0  33177-3 0  9996
2 65782  51.9023 326.5216 0000481 101.8470 258.2547 14.79939153 39308
KUIPER-00170            
1 65783U 25217X   26165.15502311  .00002315  00000+0  33251-3 0  9991
2 65783  51.9004 331.5093 0000603 110.7153 249.3874 14.79934733 39235
KUIPER-00172            
1 65785U 25217Z   26165.14016873  .00003819  00000+0  52924-3 0  9993
2 65785  51.9009 314.1040 0001945  45.3856 314.7265 14.79974128 39473
KUIPER-00173            
1 65786U 25217AA  26164.72148901  .00003955  00000+0  54747-3 0  9991
2 65786  51.9019 328.4588 0000617 115.4371 244.6655 14.79939232 39231
KUIPER-00174            
1 65787U 25217AB  26165.13205862  .00003471  00000+0  48390-3 0  9998
2 65787  51.9037 321.6868 0000647 113.6863 246.4167 14.79950793 39364
KUIPER-00176            
1 65788U 25217AC  26165.18338291  .00001997  00000+0  29090-3 0  9994
2 65788  51.9008 336.4031 0000639  98.6531 261.4504 14.79927942 39164
KUIPER-00101            
1 65947U 25228A   26165.53312457 -.00002506  00000+0 -29984-3 0  9999
2 65947  51.8983 292.3187 0000729 103.0580 257.0464 14.79927444 37575
KUIPER-00113            
1 65948U 25228B   26165.63981124  .00000851  00000+0  14066-3 0  9998
2 65948  51.8997 286.8671 0000627 122.1837 237.9187 14.79929617 37653
KUIPER-00117            
1 65949U 25228C   26165.60336469  .00001119  00000+0  17581-3 0  9995
2 65949  51.8978 289.5282 0000689 105.5037 254.6002 14.79928408 37611
KUIPER-00121            
1 65950U 25228D   26165.57497773  .00000515  00000+0  96527-4 0  9996
2 65950  51.9012 284.6644 0000330 104.7788 255.3211 14.79934999 37687
KUIPER-00122            
1 65951U 25228E   26165.63172371  .00003640  00000+0  50630-3 0  9994
2 65951  51.8986 294.3868 0000662  81.2342 278.8695 14.79930317 37558
KUIPER-00123            
1 65952U 25228F   26165.66549726  .00000272  00000+0  64721-4 0  9995
2 65952  51.9019 294.2515 0000765 107.5999 252.5047 14.79935353 37554
KUIPER-00124            
1 65953U 25228G   26165.60606164  .00000950  00000+0  15363-3 0  9990
2 65953  51.8993 287.0025 0000607 103.6985 256.4045 14.79927829 37659
KUIPER-00125            
1 65954U 25228H   26165.55471129 -.00000576  00000+0 -46512-4 0  9993
2 65954  51.8986 272.2693 0000773  98.6675 261.4375 14.79932615 37855
KUIPER-00126            
1 65955U 25228J   26165.63443268  .00001831  00000+0  26907-3 0  9994
2 65955  51.9000 291.9060 0000573 107.7723 252.3302 14.79936698 37588
KUIPER-00127            
1 65956U 25228K   26165.55810558  .00003603  00000+0  50135-3 0  9995
2 65956  51.9021 284.7092 0000585  81.9829 278.1200 14.79939636 37689
KUIPER-00128            
1 65957U 25228L   26165.54123050 -.00000747  00000+0 -69009-4 0  9998
2 65957  51.9017 284.8500 0000572 114.6739 245.4283 14.79929436 37674
KUIPER-00129            
1 65958U 25228M   26165.58038419  .00000588  00000+0  10608-3 0  9998
2 65958  51.9019 279.6569 0000562 108.9241 251.1782 14.79933169 37752
KUIPER-00130            
1 65959U 25228N   26165.61145366  .00000883  00000+0  14487-3 0  9990
2 65959  51.9046 282.0482 0000449 104.6288 255.4724 14.79929602 28012
KUIPER-00134            
1 65960U 25228P   26165.40881706  .00034839  00000+0  83230-3 0  9994
2 65960  51.8709 210.8460 0006293 305.3046  54.7353 15.41162546 38698
KUIPER-00135            
1 65961U 25228Q   26165.57770322  .00001058  00000+0  16772-3 0  9998
2 65961  51.9032 282.2532 0000592  97.3265 262.7765 14.79929654 37710
KUIPER-00136            
1 65962U 25228R   26165.61407554  .00003798  00000+0  52647-3 0  9992
2 65962  51.9018 279.5495 0000332 101.4056 258.6943 14.79972926 37755
KUIPER-00137            
1 65963U 25228S   26165.61685251  .00002398  00000+0  34336-3 0  9995
2 65963  51.9048 277.0261 0000568  99.6232 260.4794 14.79937288 37799
KUIPER-00138            
1 65964U 25228T   26165.51824380  .00003472  00000+0  48418-3 0  9993
2 65964  51.8989 274.9026 0000652  83.3593 276.7444 14.79931450 37812
KUIPER-00140            
1 65965U 25228U   26165.58308620  .00001030  00000+0  16406-3 0  9995
2 65965  51.8995 277.2040 0000551  98.4566 261.6459 14.79933720 37784
KUIPER-00141            
1 65966U 25228V   26165.58850432  .00003615  00000+0  50189-3 0  9996
2 65966  51.9030 272.2259 0000720  42.8749 317.2270 14.80021835 37851
KUIPER-00146            
1 65967U 25228W   26165.55202387 -.00000038  00000+0  24071-4 0  9993
2 65967  51.9040 274.8979 0000580 104.7183 255.3844 14.79933890 37810
KUIPER-00149            
1 65968U 25228X   26165.59115264  .00009676  00000+0  12952-2 0  9994
2 65968  51.9014 269.6113 0000391  75.8114 284.2892 14.79972385 37890
KUIPER-00154            
1 65969U 25228Y   26165.56010604  .00001628  00000+0  24247-3 0  9994
2 65969  51.8997 267.2462 0000512  97.8448 262.2573 14.79937830 37922
KUIPER-00157            
1 65970U 25228Z   26165.55742082  .00002422  00000+0  34651-3 0  9990
2 65970  51.9019 269.8894 0000624  98.7608 261.3425 14.79936782 37885
KUIPER-00144            
1 67133U 25301A   26165.20358917 -.00013873  00000+0 -17922-2 0  9992
2 67133  51.9010 348.8264 0001021  69.0994 291.0078 14.79985850 28164
KUIPER-00164            
1 67134U 25301B   26165.24594013  .00002109  00000+0  32993-3 0  9990
2 67134  51.9045   0.3275 0000704 185.6004 174.4949 14.76570348 28181
KUIPER-00175            
1 67135U 25301C   26165.21891441  .00004513  00000+0  46168-3 0  9993
2 67135  51.8963 345.5488 0000843  66.5241 293.5816 14.92241469 28288
KUIPER-00179            
1 67136U 25301D   26164.85525540  .00003803  00000+0  52754-3 0  9996
2 67136  51.8993   0.3513 0000639 110.8007 249.3024 14.79940489 28152
KUIPER-00181            
1 67137U 25301E   26164.84177622  .00003482  00000+0  48539-3 0  9999
2 67137  51.9034  12.9358 0001025 120.9589 239.1475 14.79939816 27959
KUIPER-00183            
1 67138U 25301F   26164.78803681  .00004910  00000+0  49456-3 0  9990
2 67138  51.8956 348.2872 0009596  28.8519 331.2978 14.92682010 28306
KUIPER-00184            
1 67139U 25301G   26165.23212397  .00003489  00000+0  48637-3 0  9990
2 67139  51.9003 353.6856 0000620  87.1865 272.9168 14.79938398 28371
KUIPER-00186            
1 67140U 25301H   26165.28072424  .00001143  00000+0  17888-3 0  9991
2 67140  51.9035  11.0056 0000604 113.7113 246.3913 14.79932066 27861
KUIPER-00187            
1 67141U 25301J   26164.87285763  .00001949  00000+0  28456-3 0  9995
2 67141  51.9038  15.3299 0000767 105.7050 254.3997 14.79937392 27769
KUIPER-00188            
1 67142U 25301K   26164.80661751  .00000452  00000+0  88344-4 0  9995
2 67142  51.9040 343.2132 0000588  82.9006 277.2023 14.79934470 28208
KUIPER-00191            
1 67143U 25301L   26165.25233119  .00001412  00000+0  21421-3 0  9998
2 67143  51.9017   6.1466 0000677  78.6696 281.4342 14.79921416 27952
KUIPER-00196            
1 67144U 25301M   26165.58335648 -.00043504  00000+0 -45286-2 0  9999
2 67144  51.8977 320.7042 0005028 343.7463 125.6510 14.89461471  4711
KUIPER-00204            
1 67145U 25301N   26164.70812166  .00003465  00000+0  48403-3 0  9993
2 67145  51.9026 341.0365 0000656 137.5091 222.5922 14.79862065 28342
KUIPER-00210            
1 67146U 25301P   26164.74586970  .00003659  00000+0  50860-3 0  9994
2 67146  51.9007   8.3418 0000619 106.1741 253.9289 14.79938526 28022
KUIPER-00221            
1 67147U 25301Q   26165.31179342  .00002933  00000+0  41357-3 0  9995
2 67147  51.9020  13.3585 0000633 110.3351 249.7680 14.79938254 27833
KUIPER-00232            
1 67148U 25301R   26165.22668772  .00000246  00000+0  61252-4 0  9998
2 67148  51.9010 358.7646 0001054 121.1825 238.9240 14.79928864 28021
KUIPER-00241            
1 67149U 25301S   26165.24965766  .00000816  00000+0  13610-3 0  9991
2 67149  51.9043   8.6539 0000702 113.2211 246.8826 14.79930273 28227
KUIPER-00245            
1 67150U 25301T   26165.30911443  .00031075  00000+0  40918-2 0  9994
2 67150  51.9041  15.9011 0001117  86.4695 273.6396 14.79877099 27798
KUIPER-00246            
1 67151U 25301U   26164.81880477  .00001568  00000+0  23465-3 0  9995
2 67151  51.9012   3.0286 0000748 109.3757 250.7286 14.79937845 27950
KUIPER-00247            
1 67152U 25301V   26165.23475422  .00002278  00000+0  32773-3 0  9994
2 67152  51.8965 351.1734 0000572 100.0894 260.0132 14.79936019 28134
KUIPER-00248            
1 67153U 25301W   26164.74420281  .00002333  00000+0  36124-3 0  9999
2 67153  51.9002 335.5872 0001810  58.8910 301.2228 14.76630250 28478
KUIPER-00249            
1 67154U 25301X   26165.23747150 -.00000235  00000+0 -17958-5 0  9999
2 67154  51.8995 348.7101 0000894 109.1059 251.0000 14.79929942 28163
KUIPER-00250            
1 67155U 25301Y   26164.84986579  .00003522  00000+0  49073-3 0  9997
2 67155  51.8998   5.3791 0000739 109.6032 250.5010 14.79931886 27931
KUIPER-00251            
1 67156U 25301Z   26165.20100007  .00002353  00000+0  33752-3 0  9991
2 67156  51.9014 351.3893 0000765 183.7992 176.2965 14.79939391 28311
KUIPER-00252            
1 67157U 25301AA  26164.79312678  .00000808  00000+0  13497-3 0  9991
2 67157  51.9015 355.6453 0000608  97.1679 262.9353 14.79932619 28037
KUIPER-00261            
1 67158U 25301AB  26164.74858188  .00000479  00000+0  91784-4 0  9998
2 67158  51.9032   5.8907 0000802 103.9150 256.1901 14.79932406 27881
KUIPER-00265            
1 67159U 25301AC  26165.30640099  .00000474  00000+0  91207-4 0  9997
2 67159  51.9029  18.3977 0000752 100.8330 259.2717 14.79936319 27790
KUIPER-00159            
1 67764U 26030A   26165.11575732  .00035242  00000+0  92916-3 0  9997
2 67764  51.8843 113.2081 0007452  42.0455 318.1103 15.38142097 19923
KUIPER-00160            
1 67765U 26030B   26165.11620547  .00030515  00000+0  79613-3 0  9990
2 67765  51.8819 113.1657 0007098  50.0924 310.0686 15.38540763 19920
KUIPER-00177            
1 67766U 26030C   26165.25329343  .00001301  00000+0  19967-3 0  9993
2 67766  51.8994 146.1175 0000654  97.3174 262.7863 14.79928120 19479
KUIPER-00178            
1 67767U 26030D   26165.14317550  .00002021  00000+0  31795-3 0  9992
2 67767  51.8990 146.4979 0000646  37.4563 322.6442 14.76497482 19466
KUIPER-00180            
1 67768U 26030E   26165.22491747  .00002491  00000+0  35557-3 0  9994
2 67768  51.8971 141.2352 0000609  69.2827 290.8200 14.79934669 19542
KUIPER-00197            
1 67769U 26030F   26165.57171844  .00001937  00000+0  30729-3 0  9996
2 67769  51.8986 119.5850 0002122 104.8635 255.2561 14.76320858 19872
KUIPER-00198            
1 67770U 26030G   26165.60440161 -.00001211  00000+0 -12988-3 0  9997
2 67770  51.8981 132.0561 0000659  97.2938 262.8100 14.79926158 19705
KUIPER-00199            
1 67771U 26030H   26165.57054917  .00027389  00000+0  76913-3 0  9994
2 67771  51.8818 112.4258 0011447  47.8640 312.3318 15.36281115 19970
KUIPER-00200            
1 67772U 26030J   26165.58335648 -.00030857  00000+0 -17249-2 0  9991
2 67772  51.8876 119.0456 0002996  67.5145 274.2653 15.12832843  4174
KUIPER-00203            
1 67773U 26030K   26165.24787441  .00002272  00000+0  32689-3 0  9991
2 67773  51.9044 151.1693 0000656  63.9214 296.1815 14.79934022 19400
KUIPER-00205            
1 67774U 26030L   26165.58335648 -.00021634  00000+0 -20913-2 0  9998
2 67774  51.8972 114.8425 0005102  12.6965   7.5127 14.92055615  3459
KUIPER-00208            
1 67775U 26030M   26165.62057051  .00001802  00000+0  28735-3 0  9997
2 67775  51.8965 141.2245 0007743  27.4498 332.6870 14.76447065 19577
KUIPER-00209            
1 67776U 26030N   26165.19113725  .00005691  00000+0  77458-3 0  9997
2 67776  51.8981 141.4720 0000459  24.1957 335.9027 14.79951748 19534
KUIPER-00213            
1 67777U 26030P   26165.63280565  .00002221  00000+0  32022-3 0  9998
2 67777  51.8946 137.0108 0000891  79.9125 280.1938 14.79928997 19635
KUIPER-00214            
1 67778U 26030Q   26165.60173588  .00001874  00000+0  27478-3 0  9994
2 67778  51.8990 134.6470 0000602  71.3662 288.7366 14.79937909 19667
KUIPER-00215            
1 67779U 26030R   26165.57917803  .00001918  00000+0  30378-3 0  9999
2 67779  51.8979 121.3955 0000600  37.6857 322.4146 14.76423913 19850
KUIPER-00218            
1 67780U 26030S   26161.67847081  .00001555  00000+0  25207-3 0  9990
2 67780  51.8959 154.3718 0000521  58.5510 301.5502 14.76431094 19058
KUIPER-00220            
1 67781U 26030T   26165.55767459  .00016851  00000+0  10239-2 0  9995
2 67781  51.8899 115.2233 0009403  57.6994 302.4891 15.10544311 19938
KUIPER-00222            
1 67782U 26030U   26165.63820926  .00002687  00000+0  38132-3 0  9999
2 67782  51.8973 132.0536 0000521  46.3854 313.7151 14.79936055 19700
KUIPER-00223            
1 67783U 26030V   26165.61257582  .00002856  00000+0  40356-3 0  9999
2 67783  51.9001 124.4534 0000938  87.0090 273.0980 14.79925219 19813
KUIPER-00225            
1 67784U 26030W   26165.60702231 -.00014409  00000+0 -18680-2 0  9998
2 67784  51.8970 129.6508 0001203 119.8995 240.2087 14.79867044 19736
KUIPER-00226            
1 67785U 26030X   26165.58606111  .00011302  00000+0  48604-3 0  9993
2 67785  51.8796 119.0906 0019142  52.2258 308.0453 15.22954397 19884
KUIPER-00259            
1 67786U 26030Y   26165.58335648 -.00033316  00000+0 -43547-2 0  9999
2 67786  51.8968 129.6536 0000540 222.6347 191.6452 14.80011545  3763
KUIPER-00260            
1 67787U 26030Z   26164.62840163  .00114555  00000+0  15862-1 0  9998
2 67787  51.8995 131.4453 0000568  60.3261 299.7756 14.76999930 19532
KUIPER-00262            
1 67788U 26030AA  26165.60952144  .00002847  00000+0  40154-3 0  9995
2 67788  51.9003 127.0450 0000461  80.1296 279.9719 14.80008125 19779
KUIPER-00266            
1 67789U 26030AB  26165.17346990  .00002268  00000+0  32630-3 0  9991
2 67789  51.8989 126.4745 0004343  84.1581 275.9877 14.79955437 19749
KUIPER-00268            
1 67790U 26030AC  26165.61526489  .00003090  00000+0  43399-3 0  9993
2 67790  51.9030 122.0240 0001026  96.9103 263.1977 14.79954975 19844
KUIPER-00270            
1 67791U 26030AD  26165.58335648 -.00021496  00000+0 -13251-2 0  9990
2 67791  51.8998 113.6872 0010810  33.1771 162.2545 15.09063327  3905
KUIPER-00274            
1 67792U 26030AE  26165.63563926  .00011951  00000+0  15944-2 0  9993
2 67792  51.8999 134.4208 0001166 113.3528 246.7557 14.79917059 19674
KUIPER-00275            
1 67793U 26030AF  26165.58335648 -.01120971  00000+0 -11020+0 0  9990
2 67793  51.9173 115.1411 0009277  48.0353  51.2594 14.94954830  4526
KUIPER-00276            
1 67794U 26030AG  26165.58335648 -.00025797  00000+0 -20838-2 0  9990
2 67794  51.8978 120.3128 0018095  23.2444 138.0110 14.99008466  5750
KUIPER-00279            
1 67795U 26030AH  26165.58335648 -.00004627  00000+0 -19044-3 0  9998
2 67795  51.8852 112.3177 0009299  36.5343  35.3210 15.21106639  5373
KUIPER-00131            
1 68573U 26072A   26165.38846599 -.00000415  00000+0 -25496-4 0  9999
2 68573  51.8992 208.0258 0000462  84.8289 275.2727 14.79928674 10708
KUIPER-00189            
1 68574U 26072B   26161.49792811  .00001467  00000+0  23985-3 0  9991
2 68574  51.8976 227.6690 0001086 317.0425  43.0451 14.76372215 10092
KUIPER-00192            
1 68575U 26072C   26165.39115419  .00002287  00000+0  32889-3 0  9992
2 68575  51.8985 205.5119 0000510  85.3191 274.7829 14.79928931 10749
KUIPER-00193            
1 68576U 26072D   26165.58335648  .00028497  00000+0  30428-2 0  9999
2 68576  51.8973 194.2268 0002193  43.5855  64.4110 14.88584234  4056
KUIPER-00194            
1 68577U 26072E   26165.36000181  .00002220  00000+0  32073-3 0  9992
2 68577  51.9010 203.1560 0000240 331.8528  28.2421 14.79849261 10779
KUIPER-00229            
1 68578U 26072F   26161.43480844  .00015216  00000+0  21947-2 0  9991
2 68578  51.9020 225.4706 0002912 233.4279 126.6414 14.76410618 10129
KUIPER-00230            
1 68579U 26072G   26165.33001000  .00026350  00000+0  70446-3 0  9998
2 68579  51.8760 190.5434 0003326  25.6036 334.5115 15.37883587 10947
KUIPER-00231            
1 68580U 26072H   26165.32552369  .00033765  00000+0  90099-3 0  9992
2 68580  51.8741 190.5095 0003335  26.3057 333.8099 15.37812024 10943
KUIPER-00234            
1 68581U 26072J   26165.32320768  .00001420  00000+0  23239-3 0  9994
2 68581  51.8978 202.5783 0001483 160.3907 199.7111 14.76532177 10774
KUIPER-00236            
1 68582U 26072K   26165.27760377  .00030830  00000+0  83324-3 0  9991
2 68582  51.8749 190.9417 0003709  16.8075 343.3034 15.37461502 10939
KUIPER-00244            
1 68583U 26072L   26165.58335648  .00017012  00000+0  16121-2 0  9992
2 68583  51.8956 192.3529 0005095  37.6173 270.5551 14.93660199  4639
KUIPER-00253            
1 68584U 26072M   26165.58335648 -.00024092  00000+0 -28126-2 0  9999
2 68584  51.9001 194.7589 0004341  41.7284 342.6538 14.84518858  5569
KUIPER-00254            
1 68585U 26072N   26165.58335648  .00027498  00000+0  36243-2 0  9990
2 68585  51.9005 197.1708 0001665  29.4307 232.0692 14.79897539  5326
KUIPER-00263            
1 68586U 26072P   26165.32162081  .00023053  00000+0  61149-3 0  9999
2 68586  51.8751 190.4885 0002103   4.9062 355.1945 15.38206692 10942
KUIPER-00269            
1 68587U 26072Q   26165.58335648  .00017872  00000+0  60510-3 0  9992
2 68587  51.8766 189.3677 0006020   7.5986 293.6557 15.30640787  5152
KUIPER-00272            
1 68588U 26072R   26165.42497566  .00002174  00000+0  31413-3 0  9993
2 68588  51.8971 205.3578 0000854  52.2252 307.8788 14.79935195 10749
KUIPER-00285            
1 68589U 26072S   26165.58335648  .00035509  00000+0  13015-2 0  9998
2 68589  51.8780 189.4212 0007593  16.3945 229.7935 15.27638287  5782
KUIPER-00286            
1 68590U 26072T   26165.32429058  .00014654  00000+0  40365-3 0  9998
2 68590  51.8729 190.4949 0005293   0.3615 359.7374 15.37361731 10941
KUIPER-00289            
1 68591U 26072U   26165.58335648  .00104486  00000+0  64214-2 0  9999
2 68591  51.8847 191.3961 0012133  34.4487 264.4190 15.09130792  4775
KUIPER-00290            
1 68592U 26072V   26165.58335648  .00030245  00000+0  16952-2 0  9997
2 68592  51.8813 191.2728 0012664  21.1800  61.8889 15.13079584  1306
KUIPER-00293            
1 68593U 26072W   26164.82253007  .00002146  00000+0  31008-3 0  9991
2 68593  51.8963 203.0235 0003663  47.2577 312.8693 14.79982415 10722
KUIPER-00294            
1 68594U 26072X   26165.58335648  .00031298  00000+0  13311-2 0  9994
2 68594  51.8735 190.4295 0011458  15.7640 114.7916 15.22699233  4415
KUIPER-00296            
1 68595U 26072Y   26165.35807073  .00013657  00000+0  36673-3 0  9992
2 68595  51.8682 190.6949 0009963  15.6341 344.4952 15.38185507 10948
KUIPER-00297            
1 68596U 26072Z   26165.36734117  .00001577  00000+0  25520-3 0  9999
2 68596  51.8983 199.6036 0001525 103.8462 256.2669 14.76431177 10829
KUIPER-00300            
1 68597U 26072AA  26165.58335648  .00000836  00000+0  14033-3 0  9994
2 68597  51.9006 195.7383 0001321 108.4509 346.2235 14.79391084  5194
KUIPER-00301            
1 68598U 26072AB  26165.35976873  .00027333  00000+0  72285-3 0  9995
2 68598  51.8631 190.6729 0010440  22.7522 337.3926 15.38153029 10949
KUIPER-00304            
1 68599U 26072AC  26165.36929837  .00025742  00000+0  68706-3 0  9990
2 68599  51.8641 190.7406 0011900  16.1136 344.0227 15.37887917 10942
KUIPER-00317            
1 68600U 26072AD  26165.58335648  .00032397  00000+0  15072-2 0  9999
2 68600  51.8786 190.2704 0011098   4.9624 154.6047 15.19612495  1465
KUIPER-00320            
1 68601U 26072AE  26165.58335648  .00018878  00000+0  16087-2 0  9995
2 68601  51.9083 192.8585 0012555  20.9331 246.7725 14.97715658  4755
KUIPER-00299            
1 68864U 26095A   26165.58335648 -.00002501  00000+0 -26583-3 0  9992
2 68864  51.8996 260.1677 0008627 320.1866  81.9374 14.84612571  5219
KUIPER-00353            
1 68865U 26095B   26165.52908016  .00025723  00000+0  69773-3 0  9999
2 68865  51.8840 255.0034 0001640 327.2317  32.8567 15.37451689  7328
KUIPER-00357            
1 68866U 26095C   26165.58335648  .00014952  00000+0  93810-3 0  9992
2 68866  51.8914 256.2820 0003079 359.9207 287.8039 15.09488736  4915
KUIPER-00364            
1 68867U 26095D   26165.58335648 -.00011012  00000+0 -85467-3 0  9998
2 68867  51.9117 257.5736 0002107   6.5252  13.2265 15.00058055  4457
KUIPER-00375            
1 68868U 26095E   26165.58335648  .00034065  00000+0  10218-2 0  9991
2 68868  51.8842 254.7798 0002008 352.0949 292.4104 15.34151663  5125
KUIPER-00433            
1 68869U 26095F   26161.03709509  .00002009  00000+0  30621-3 0  9993
2 68869  51.9005 284.7606 0001990  78.6103 281.5082 14.77935609  6526
KUIPER-00437            
1 68870U 26095G   26165.55818670  .00014700  00000+0  39808-3 0  9993
2 68870  51.8797 255.1800 0007414 302.0924  57.9343 15.37876099  7323
KUIPER-00448            
1 68871U 26095H   26165.58335648  .00014534  00000+0  62668-3 0  9991
2 68871  51.8883 255.6975 0002906 328.7015 188.6967 15.22770035  4244
KUIPER-00459            
1 68872U 26095J   26165.54077293  .00033503  00000+0  98632-3 0  9994
2 68872  51.8709 255.7652 0010138 303.5660  56.4357 15.34706828  7316
KUIPER-00468            
1 68873U 26095K   26165.54351318  .00023077  00000+0  62345-3 0  9995
2 68873  51.8817 255.0931 0004024 284.2918  75.7622 15.37634989  7329
KUIPER-00476            
1 68874U 26095L   26165.52924510  .00020762  00000+0  59673-3 0  9992
2 68874  51.8750 255.7103 0007711 296.8537  63.1661 15.35753939  7314
KUIPER-00478            
1 68875U 26095M   26165.50127861  .00021183  00000+0  57087-3 0  9990
2 68875  51.8787 255.5376 0008005 306.1305  53.8940 15.37746226  7319
KUIPER-00480            
1 68876U 26095N   26165.55181428  .00021282  00000+0  56740-3 0  9990
2 68876  51.8769 255.1285 0006143 294.7150  65.3197 15.38087183  7320
KUIPER-00482            
1 68877U 26095P   26165.49949322 -.00512247  00000+0 -20031-1 0  9999
2 68877  51.8869 255.5581 0003516 342.9964  17.0900 15.27581914  7319
KUIPER-00483            
1 68878U 26095Q   26165.57292143  .00001750  00000+0  27874-3 0  9995
2 68878  51.8995 263.7608 0002390 132.8181 227.2981 14.76607554  7201
KUIPER-00488            
1 68879U 26095R   26165.53791057  .00019731  00000+0  56564-3 0  9996
2 68879  51.8670 255.7292 0011607 313.4552  46.5468 15.35833907  7315
KUIPER-00489            
1 68880U 26095S   26165.52810203  .00020957  00000+0  59951-3 0  9997
2 68880  51.8755 255.7047 0010327 306.5012  53.5022 15.35873872  7310
KUIPER-00499            
1 68881U 26095T   26165.54555983  .00022405  00000+0  66421-3 0  9991
2 68881  51.8695 255.7893 0007412 303.6984  56.3295 15.34731546  7313
KUIPER-00500            
1 68882U 26095U   26165.58335648  .00002089  00000+0  30205-3 0  9997
2 68882  51.9009 262.1688 0001516 223.1943  52.4309 14.80059577  3437
KUIPER-00502            
1 68883U 26095V   26165.54497738  .00027572  00000+0  72756-3 0  9994
2 68883  51.8799 255.0944 0005923 297.7738  62.2648 15.38251580  7323
KUIPER-00503            
1 68884U 26095W   26165.58335648 -.00024979  00000+0 -28208-2 0  9992
2 68884  51.8982 259.7824 0005570 350.1001  29.4480 14.85891645  5152
KUIPER-00504            
1 68885U 26095X   26161.06612185  .00015986  00000+0  22985-2 0  9998
2 68885  51.9026 287.1075 0000478  97.7698 262.3317 14.76513191  6496
KUIPER-00505            
1 68886U 26095Y   26165.58335648  .00022416  00000+0  19713-2 0  9997
2 68886  51.9187 257.6306 0002669 353.4270 225.8422 14.96438849  5731
KUIPER-00507            
1 68887U 26095Z   26165.52802677  .00039743  00000+0  10515-2 0  9995
2 68887  51.8836 254.9969 0000919  25.2083 334.8949 15.38001584  7320
KUIPER-00511            
1 68888U 26095AA  26165.55408327  .00024684  00000+0  65786-3 0  9992
2 68888  51.8781 255.1490 0006249 297.1186  62.9163 15.38005422  7320
KUIPER-00512            
1 68889U 26095AB  26165.58335648 -.00001708  00000+0 -16531-3 0  9999
2 68889  51.9013 259.7994 0004188  11.1954 189.1816 14.86388295  5370
KUIPER-00519            
1 68890U 26095AC  26165.58335648 -.01048954  00000+0 -37838-1 0  9997
2 68890  51.8852 254.8413 0000849  44.5485 192.0566 15.30783242  4772
KUIPER-00521            
1 68891U 26095AD  26165.45497040  .00026541  00000+0  69281-3 0  9993
2 68891  51.8841 255.2587 0000908 312.3790  47.7120 15.38620011  7316
KUIPER-00524            
1 68892U 26095AE  26165.58335648 -.00008583  00000+0 -31386-3 0  9996
2 68892  51.8896 255.1974 0001031  10.9392  38.4280 15.26259288  4089
KUIPER-00370            
1 68919U 26098A   26165.48411899  .00007557  00000+0  28362-3 0  9999
2 68919  51.8757  82.0884 0014279 143.1627 217.0340 15.28119248  6919
KUIPER-00380            
1 68920U 26098B   26165.01851441  .00016555  00000+0  53372-3 0  9998
2 68920  51.8763  83.5002 0008159 126.7454 233.4281 15.32267448  6851
KUIPER-00386            
1 68921U 26098C   26165.01983362  .00030977  00000+0  87721-3 0  9996
2 68921  51.8745  82.7735 0003915 165.6416 194.4682 15.36005813  6863
KUIPER-00388            
1 68922U 26098D   26165.50440805  .00014627  00000+0  53903-3 0  9990
2 68922  51.8767  82.2221 0021872 134.6061 225.6710 15.27828454  6916
KUIPER-00405            
1 68923U 26098E   26165.25307866  .00024976  00000+0  85585-3 0  9991
2 68923  51.8766  82.8202 0013780 143.2017 216.9915 15.29965416  6885
KUIPER-00408            
1 68924U 26098F   26165.48280759  .00006782  00000+0  25610-3 0  9996
2 68924  51.8790  82.0945 0015276 138.8832 221.3305 15.28080458  6916
KUIPER-00409            
1 68925U 26098G   26165.58335648  .00048385  00000+0  15349-2 0  9998
2 68925  51.8744  80.5858 0007050 144.1176 195.1814 15.32190378  5408
KUIPER-00410            
1 68926U 26098H   26165.02281162  .00012307  00000+0  45269-3 0  9999
2 68926  51.8770  84.2549 0014379 139.3931 220.8127 15.28174996  6848
KUIPER-00412            
1 68927U 26098J   26165.45563042  .00027756  00000+0  76675-3 0  9996
2 68927  51.8781  80.4683 0001712 183.8075 176.2899 15.36842339  6930
KUIPER-00413            
1 68928U 26098K   26165.04979875 -.00019263  00000+0 -67159-3 0  9990
2 68928  51.8768  84.4264 0025575 148.3798 211.8728 15.28257606  6841
KUIPER-00414            
1 68929U 26098L   26165.58335648  .00021171  00000+0  15811-2 0  9990
2 68929  51.8981  83.2698 0021602 133.3888 262.3873 15.02586033  5312
KUIPER-00415            
1 68930U 26098M   26165.48173160  .00011291  00000+0  37653-3 0  9991
2 68930  51.8792  81.3678 0011737 126.7090 233.4974 15.31497698  6929
KUIPER-00416            
1 68931U 26098N   26165.05898842  .00016980  00000+0  47045-3 0  9992
2 68931  51.8750  82.2998 0001219 146.1353 213.9711 15.37066685  6871
KUIPER-00420            
1 68932U 26098P   26165.02158526  .00024641  00000+0  70240-3 0  9994
2 68932  51.8784  82.8003 0003248 147.2614 212.8574 15.35926496  6865
KUIPER-00421            
1 68933U 26098Q   26165.45671737  .00025887  00000+0  83714-3 0  9999
2 68933  51.8780  81.2057 0007341 137.5628 222.5925 15.31878426  6929
KUIPER-00425            
1 68934U 26098R   26165.48327120  .00019527  00000+0  70997-3 0  9990
2 68934  51.8765  82.0887 0017670 141.6064 218.6180 15.28127340  6915
KUIPER-00430            
1 68935U 26098S   26165.03324786  .00021651  00000+0  77091-3 0  9990
2 68935  51.8808  84.3323 0020687 138.4112 221.8449 15.28691375  6844
KUIPER-00431            
1 68936U 26098T   26165.50598017  .00016187  00000+0  59392-3 0  9995
2 68936  51.8766  82.2356 0017637 136.5722 223.6654 15.27965622  6912
KUIPER-00432            
1 68937U 26098U   26165.24546896 -.00024032  00000+0 -81041-3 0  9991
2 68937  51.8751  82.7653 0013093 138.4655 221.7325 15.29729723  6882
KUIPER-00434            
1 68938U 26098V   26165.24893631  .00026841  00000+0  84221-3 0  9995
2 68938  51.8728  82.0464 0006922 121.7143 238.4518 15.32826562  6893
KUIPER-00436            
1 68939U 26098W   26165.48082777 -.00052785  00000+0 -16681-2 0  9995
2 68939  51.8775  81.3474 0010550 141.3186 218.8556 15.32231151  6928
KUIPER-00438            
1 68940U 26098X   26165.25199803  .00025584  00000+0  80171-3 0  9992
2 68940  51.8747  82.0742 0005127 143.9611 216.1721 15.32904523  6891
KUIPER-00439            
1 68941U 26098Y   26165.08018535  .00020049  00000+0  63989-3 0  9995
2 68941  51.8777  83.1771 0006778 140.9350 219.2126 15.32460953  6863
KUIPER-00440            
1 68942U 26098Z   26165.05102685  .00027777  00000+0  84072-3 0  9994
2 68942  51.8801  82.9948 0004888 158.2017 201.9178 15.33965152  6864
KUIPER-00442            
1 68943U 26098AA  26165.05182560  .00044625  00000+0  13204-2 0  9994
2 68943  51.8790  82.9996 0005696 133.3431 226.8030 15.34446553  6860
KUIPER-00446            
1 68944U 26098AB  26165.05133111  .00025754  00000+0  76939-3 0  9990
2 68944  51.8761  82.9808 0006594 131.8403 228.3147 15.34411634  6869
KUIPER-00451            
1 68945U 26098AC  26165.49027337  .00005249  00000+0  20438-3 0  9991
2 68945  51.8814  82.1497 0013159 131.2151 228.9968 15.27574162  6915
KUIPER-00452            
1 68946U 26098AD  26165.01766543  .00034947  00000+0  98452-3 0  9997
2 68946  51.8758  82.7672 0003969 128.9533 231.1807 15.36107675  6862
KUIPER-00453            
1 68947U 26098AE  26165.45509265  .00029820  00000+0  82192-3 0  9990
2 68947  51.8752  80.4517 0002086 167.1918 192.9122 15.36872752  6938
KUIPER-00454            
1 68948U 26098AF  26164.99949225  .00003212  00000+0  13606-3 0  9994
2 68948  51.8759  84.8472 0016228 127.1017 233.1451 15.26031996  6831
KUIPER-00455            
1 68949U 26098AG  26165.05164677  .00019546  00000+0  70899-3 0  9997
2 68949  51.8768  84.4418 0019985 136.5590 223.6972 15.28163994  6840
KUIPER-00458            
1 68950U 26098AH  26165.59898636  .00022660  00000+0  64433-3 0  9995
2 68950  51.8770  79.9219 0003977 149.2421 210.8799 15.36052746  6959
KUIPER-00282            
1 69267U 26118A   26165.55187084 -.00034324  00000+0 -99639-3 0  9992
2 69267  51.8589  66.2574 0011970 171.2984 188.8211 15.34689071  3576
KUIPER-00383            
1 69268U 26118B   26165.61404764 -.00007119  00000+0 -19753-3 0  9998
2 69268  51.8589  65.9257 0010987 171.9094 188.2070 15.34616244  3587
KUIPER-00527            
1 69269U 26118C   26165.61012894  .00016242  00000+0  47970-3 0  9995
2 69269  51.8616  65.9035 0010210 167.4841 192.6400 15.35056473  3581
KUIPER-00562            
1 69270U 26118D   26165.58316624  .00015273  00000+0  40433-3 0  9991
2 69270  51.8732  65.7256 0001827 104.5050 255.6140 15.38563268  3582
KUIPER-00570            
1 69271U 26118E   26165.61209295 -.00032707  00000+0 -93682-3 0  9998
2 69271  51.8576  65.9119 0013194 175.2433 184.8680 15.35065633  3581
KUIPER-00572            
1 69272U 26118F   26165.59970368  .00014086  00000+0  39349-3 0  9990
2 69272  51.8679  65.8394 0007266 161.4616 198.6636 15.36948465  3581
KUIPER-00581            
1 69273U 26118G   26165.60301687  .00015709  00000+0  44253-3 0  9998
2 69273  51.8657  65.8601 0008954 165.3600 194.7648 15.36579920  3676
KUIPER-00584            
1 69274U 26118H   26165.61416887 -.00041603  00000+0 -11957-2 0  9997
2 69274  51.8607  65.9272 0012312 179.3629 180.7374 15.35088351  3589
KUIPER-00587            
1 69275U 26118J   26165.60244813  .00014029  00000+0  39593-3 0  9992
2 69275  51.8633  65.8552 0008274 168.6355 191.4820 15.36625089  3589
KUIPER-00590            
1 69276U 26118K   26165.59070138  .00017132  00000+0  46259-3 0  9993
2 69276  51.8697  65.7813 0004219 149.6996 210.4236 15.37856397  3586
KUIPER-00592            
1 69277U 26118L   26165.58848356  .00018203  00000+0  48696-3 0  9995
2 69277  51.8718  65.7656 0003567 128.4867 231.6441 15.38099597  3588
KUIPER-00593            
1 69278U 26118M   26165.58912697  .00023046  00000+0  61543-3 0  9993
2 69278  51.8724  65.7687 0003981 145.8500 214.2744 15.37995707  3644
KUIPER-00594            
1 69279U 26118N   26165.58205643  .00015049  00000+0  39810-3 0  9996
2 69279  51.8730  65.7217 0001053  76.5055 283.6050 15.38599310  3588
KUIPER-00595            
1 69280U 26118P   26165.58407400  .00015990  00000+0  42368-3 0  9990
2 69280  51.8724  65.7370 0001775 126.9300 233.1850 15.38498107  3611
KUIPER-00596            
1 69281U 26118Q   26165.41742847 -.00096529  00000+0 -28332-2 0  9993
2 69281  51.8554  66.8539 0011785 180.0560 180.0426 15.34826975  3559
KUIPER-00597            
1 69282U 26118R   26165.59806517  .00014064  00000+0  39266-3 0  9999
2 69282  51.8656  65.8284 0007109 162.2736 197.8500 15.36967072  3589
KUIPER-00599            
1 69283U 26118S   26165.59576021  .00015029  00000+0  41405-3 0  9994
2 69283  51.8700  65.8146 0006239 154.7610 205.3682 15.37329633  3589
KUIPER-00600            
1 69284U 26118T   26165.60178691  .00014349  00000+0  40401-3 0  9997
2 69284  51.8646  65.8517 0008947 164.5658 195.5603 15.36673951  3587
KUIPER-00601            
1 69285U 26118U   26165.59276815  .00014732  00000+0  40268-3 0  9990
2 69285  51.8714  65.7944 0004729 144.9265 215.2034 15.37597075  3588
KUIPER-00602            
1 69286U 26118V   26165.58776928  .00017421  00000+0  46619-3 0  9994
2 69286  51.8712  65.7619 0002995 137.3135 222.8085 15.38124436  3589
KUIPER-00603            
1 69287U 26118W   26165.59391931  .00015179  00000+0  41565-3 0  9996
2 69287  51.8681  65.8027 0005508 151.1607 208.9686 15.37513887  3583
KUIPER-00605            
1 69288U 26118X   26165.59874924  .00012566  00000+0  35184-3 0  9992
2 69288  51.8669  65.8334 0007612 157.9435 202.1881 15.36983356  3586
KUIPER-00606            
1 69289U 26118Y   26165.59159695  .00015301  00000+0  41645-3 0  9993
2 69289  51.8705  65.7873 0004722 141.6931 218.4392 15.37698682  3588
KUIPER-00607            
1 69290U 26118Z   26165.59487138  .00014508  00000+0  39941-3 0  9995
2 69290  51.8690  65.8089 0006154 152.5484 207.5829 15.37381627  3580
KUIPER-00608            
1 69291U 26118AA  26165.60764996  .00021497  00000+0  62569-3 0  9995
2 69291  51.8611  65.8877 0009379 168.6321 191.4878 15.35322436  3585
KUIPER-00610            
1 69292U 26118AB  26165.58598539  .00016213  00000+0  43179-3 0  9997
2 69292  51.8732  65.7467 0002720 127.7903 232.3331 15.38329166  3588
KUIPER-00613            
1 69293U 26118AC  26165.61191940  .00016131  00000+0  47533-3 0  9994
2 69293  51.8630  65.9159 0010220 175.5708 184.5370 15.35133070  3589
KUIPER-00618            
1 69294U 26118AD  26165.58252639  .00015791  00000+0  41740-3 0  9999
2 69294  51.8732  65.7231 0001802  83.9843 276.1350 15.38582248  3584
KUIPER-00620            
1 69295U 26118AE  26165.58532242  .00016538  00000+0  44133-3 0  9990
2 69295  51.8727  65.7437 0002897 113.5809 246.5483 15.38249974  3588
