ORBCOMM FM06            
1 25118U 97084G   26212.39660443  .00000944  00000+0  29282-3 0  9995
2 25118  45.0121 199.8695 0001927 282.8002 230.6114 14.47657046500792
ORBCOMM FM04            
1 25159U 98007C   26213.96014319  .00000572  00000+0  24089-3 0  9992
2 25159 107.9626 263.6316 0042064 246.8259 112.8448 14.35808739483162
ORBCOMM FM19            
1 25415U 98046C   26213.90292560  .00000870  00000+0  32137-3 0  9994
2 25415  44.9947  26.2434 0004139 173.3459 339.6274 14.39574064463365
ORBCOMM FM20            
1 25416U 98046D   26213.51518919  .00000721  00000+0  28226-3 0  9990
2 25416  44.9947  36.5122 0001208 157.0669 203.0234 14.38124836463312
ORBCOMM FM27            
1 25481U 98053G   26213.79428705  .00000938  00000+0  34546-3 0  9995
2 25481  45.0048 118.7206 0001159   7.8875 352.1992 14.39216427456802
ORBCOMM FM32            
1 25982U 99065C   26213.33568031  .00000551  00000+0  23070-3 0  9993
2 25982  45.0167 319.5259 0006830 268.3573  91.6493 14.37190198393589
ORBCOMM FM109           
1 40086U 14040A   26213.77883403  .00000236  00000+0  85984-4 0  9999
2 40086  47.0018 235.9283 0000576  31.2047 328.8873 14.58883610641001
ORBCOMM FM110           
1 41182U 15081D   26213.85147635  .00000563  00000+0  15502-3 0  9993
2 41182  47.0012 145.5174 0003715 289.3673  70.6811 14.58942915564290
ORBCOMM FM118           
1 41183U 15081E   26213.54367679  .00000570  00000+0  15655-3 0  9999
2 41183  47.0033 147.3168 0003481 254.3698 105.6804 14.58925544564353
ORBCOMM FM112           
1 41184U 15081F   26213.82119676  .00000599  00000+0  16261-3 0  9998
2 41184  46.9993  54.4453 0002666  55.3390 304.7747 14.58962023565615
ORBCOMM FM113           
1 41185U 15081G   26213.93648305  .00000364  00000+0  11307-3 0  9993
2 41185  47.0010  54.3016 0001171  48.8918 311.2069 14.58899249565614
ORBCOMM FM108           
1 41187U 15081J   26213.35023814  .00000615  00000+0  16612-3 0  9996
2 41187  47.0063 328.6580 0001545  38.6154 321.4842 14.58933968566677
ORBCOMM FM117           
1 41188U 15081K   26213.59006103  .00000634  00000+0  17014-3 0  9993
2 41188  47.0027 326.1473 0001947  51.4566 308.6495 14.58921061566759
ORBCOMM FM116           
1 41189U 15081L   26213.84402915  .00000452  00000+0  13171-3 0  9991
2 41189  47.0026  54.7348 0001796 273.7965  86.2715 14.58927326565605
