ORBCOMM FM06            
1 25118U 97084G   26118.88067787  .00001329  00000+0  39780-3 0  9998
2 25118  45.0141 290.0532 0000495  99.1962  48.2161 14.47436145487245
ORBCOMM FM04            
1 25159U 98007C   26119.13328367  .00001153  00000+0  44098-3 0  9995
2 25159 107.9616  68.4730 0039366  50.4857 309.9753 14.35639059469558
ORBCOMM FM19            
1 25415U 98046C   26119.28185780  .00001016  00000+0  36913-3 0  9994
2 25415  44.9927 116.0060 0002217  18.2637 356.5262 14.39395951449732
ORBCOMM FM20            
1 25416U 98046D   26119.03504224  .00000638  00000+0  25560-3 0  9991
2 25416  44.9927 124.5641 0001758 290.7131  69.3529 14.37989761449716
ORBCOMM FM27            
1 25481U 98053G   26119.31522903  .00000921  00000+0  34100-3 0  9991
2 25481  45.0045 207.4611 0001619 240.9986 119.0701 14.39046654443198
ORBCOMM FM32            
1 25982U 99065C   26119.14160723  .00000869  00000+0  33746-3 0  9996
2 25982  45.0166  45.3763 0004536 179.6446 180.4406 14.37059294380034
ORBCOMM FM109           
1 40086U 14040A   26119.26576703  .00000489  00000+0  13984-3 0  9990
2 40086  47.0044 322.7742 0001611 342.5040  17.5791 14.58792460627206
ORBCOMM FM114           
1 41179U 15081A   26119.00940712  .00000520  00000+0  14643-3 0  9996
2 41179  47.0043 234.5006 0002445 314.0446  46.0238 14.58802826550578
ORBCOMM FM110           
1 41182U 15081D   26119.27211066  .00000746  00000+0  19425-3 0  9995
2 41182  47.0016 232.7130 0003708 217.2653 142.7976 14.58825745550485
ORBCOMM FM118           
1 41183U 15081E   26119.30680933  .00000764  00000+0  19809-3 0  9999
2 41183  47.0033 232.8747 0003316 184.5785 175.5071 14.58823609550596
ORBCOMM FM112           
1 41184U 15081F   26119.03580681  .00000524  00000+0  14720-3 0  9990
2 41184  46.9980 142.6332 0002621 315.7544  44.3132 14.58792574551771
ORBCOMM FM113           
1 41185U 15081G   26119.08176850  .00000413  00000+0  12369-3 0  9999
2 41185  46.9992 142.7941 0002115 315.2537  44.8178 14.58802844551763
ORBCOMM FM108           
1 41187U 15081J   26119.18130768  .00000713  00000+0  18723-3 0  9993
2 41187  47.0057  53.8802 0003169 324.0311  36.0361 14.58795603552925
ORBCOMM FM117           
1 41188U 15081K   26119.07824838  .00000704  00000+0  18552-3 0  9990
2 41188  47.0023  53.0164 0003573 329.8533  30.2146 14.58794028552950
ORBCOMM FM116           
1 41189U 15081L   26119.33304234  .00000449  00000+0  13142-3 0  9999
2 41189  47.0009 141.6023 0002248 231.3211 128.7474 14.58813696551804
