GLOBALSTAR M001         
1 25162U 98008A   26033.26443685 -.00000071  00000+0  19621-3 0  9993
2 25162  52.0057  23.5551 0001606  30.4475  73.5680 12.38226470272212
GLOBALSTAR M004         
1 25163U 98008B   26033.29633273 -.00000080  00000+0  13143-3 0  9994
2 25163  52.0004  72.1343 0003529  86.2929 354.4673 12.63413808290778
GLOBALSTAR M002         
1 25164U 98008C   26033.28218726 -.00000066  00000+0  21142-3 0  9998
2 25164  52.0035  23.2749 0001338 199.9102 160.1666 11.61515111210808
GLOBALSTAR M003         
1 25165U 98008D   26033.30882214 -.00000212  00000+0 -13064-2 0  9998
2 25165  51.9862 251.1431 0008848  39.1755 132.5592 12.12030857261125
GLOBALSTAR M014         
1 25306U 98023A   26033.16803127 -.00000048  00000+0  55818-3 0  9992
2 25306  51.9855 301.9531 0001751  60.2931 109.2207 11.65484086217989
GLOBALSTAR M006         
1 25307U 98023B   26033.32598040 -.00000086  00000+0 -20711-3 0  9993
2 25307  51.9971   2.6257 0002930 161.4057 347.7701 11.58176360243490
GLOBALSTAR M015         
1 25308U 98023C   26033.16717251 -.00000109  00000+0 -81513-3 0  9996
2 25308  51.9820 112.0347 0013392 125.8445 246.8955 11.48862192220511
GLOBALSTAR M008         
1 25309U 98023D   26033.07029139 -.00000067  00000+0  23147-3 0  9999
2 25309  51.9952 251.5598 0002020 319.3097 206.9648 12.36080165266273
GLOBALSTAR M023         
1 25621U 99004A   26033.26675760 -.00000055  00000+0  26893-3 0  9992
2 25621  52.0109  72.8364 0009353 274.7968 162.6380 12.62516216244792
GLOBALSTAR M040         
1 25622U 99004B   26033.16329569 -.00000072  00000+0  17519-3 0  9999
2 25622  51.9920  77.6436 0001295 158.7413 236.3179 12.62028203244292
GLOBALSTAR M036         
1 25623U 99004C   26033.18580483 -.00000056  00000+0  38917-3 0  9993
2 25623  52.0001 354.0820 0010709 129.9646 340.9365 11.86618186206288
GLOBALSTAR M038         
1 25624U 99004D   26033.23599911 -.00000076  00000+0  15375-3 0  9991
2 25624  51.9968 129.0494 0002400 157.2093 225.2285 12.32540258230745
GLOBALSTAR M022         
1 25649U 99012A   26033.06789171 -.00000106  00000+0 -22595-3 0  9994
2 25649  52.0066  25.9740 0002437 265.5678 135.9991 12.02509282204036
GLOBALSTAR M041         
1 25650U 99012B   26032.99982933 -.00000073  00000+0  16006-3 0  9990
2 25650  52.0015 274.6210 0002149  63.9984 296.1074 11.96683388205795
GLOBALSTAR M046         
1 25651U 99012C   26033.20491315 -.00000094  00000+0 -54836-4 0  9993
2 25651  52.0087 327.3422 0002184   4.3967 143.9856 12.09417038211498
GLOBALSTAR M037         
1 25652U 99012D   26032.95884481 -.00000092  00000+0  68107-4 0  9998
2 25652  51.9981 204.3061 0001743   9.8414 159.1101 12.62460836240295
GLOBALSTAR M045         
1 25676U 99019A   26033.20750601 -.00000057  00000+0  32389-3 0  9999
2 25676  51.9994   9.6553 0000271  18.9206 355.2825 12.27072077221638
GLOBALSTAR M019         
1 25677U 99019B   26033.32072263 -.00000056  00000+0  35047-3 0  9997
2 25677  51.9859 155.8952 0002123  85.5717 290.1386 12.13879495213095
GLOBALSTAR M044         
1 25678U 99019C   26032.79612046 -.00000112  00000+0 -39433-3 0  9994
2 25678  51.9962 137.4366 0006939 121.8254  27.9205 11.90263456198664
GLOBALSTAR M042         
1 25679U 99019D   26033.20816204 -.00000114  00000+0 -20237-3 0  9998
2 25679  52.0010 121.5914 0003250  67.0383 313.5376 12.22095490213388
GLOBALSTAR M025         
1 25770U 99031A   26033.23940403 -.00000067  00000+0  27446-4 0  9992
2 25770  51.9855 346.3374 0001999 154.6829 346.3978 11.22561218507549
GLOBALSTAR M049         
1 25771U 99031B   26033.26546735 -.00000041  00000+0  84443-3 0  9997
2 25771  51.9898  32.5994 0002840  50.9970 309.1079 11.12121519143023
GLOBALSTAR M047         
1 25772U 99031C   26033.27854792 -.00000063  00000+0  17329-3 0  9997
2 25772  51.9866   7.5575 0016307 298.8338  61.0831 11.31931903497164
GLOBALSTAR M052         
1 25773U 99031D   26033.33748664 -.00000093  00000+0 -92331-3 0  9995
2 25773  51.9856 137.8758 0003071 175.1344 218.4514 11.15063680504189
GLOBALSTAR M035         
1 25851U 99037A   26033.10673174  .00000008  00000+0  27034-2 0  9997
2 25851  51.9927 262.2239 0013878 359.5982 172.0825 11.04541674121664
GLOBALSTAR M032         
1 25852U 99037B   26033.33922621 -.00000136  00000+0 -22375-2 0  9994
2 25852  51.9956  71.0206 0012854 193.8450 166.1999 11.19068509160553
GLOBALSTAR M051         
1 25853U 99037C   26033.21306894 -.00000087  00000+0 -37631-3 0  9997
2 25853  51.9763 205.9820 0001169  93.8919 266.2026 11.42200076158672
GLOBALSTAR M030         
1 25854U 99037D   26033.17870202 -.00000105  00000+0 -63815-3 0  9996
2 25854  51.9911 357.5424 0003692  89.2033 270.9207 11.55108644176621
GLOBALSTAR M048         
1 25872U 99041A   26033.28190264 -.00000083  00000+0 -36486-3 0  9995
2 25872  51.9354 149.7436 0013060 218.6191 153.6706 11.33861950151085
GLOBALSTAR M026         
1 25873U 99041B   26033.24645844 -.00000161  00000+0 -35596-2 0  9998
2 25873  52.0042  17.4384 0001793 298.4768  74.1718 11.06841178173962
GLOBALSTAR M043         
1 25874U 99041C   26033.09613123 -.00000008  00000+0  18042-2 0  9993
2 25874  51.9386 266.9925 0013597 347.5437 169.0798 11.25697403148761
GLOBALSTAR M028         
1 25875U 99041D   26033.25352178 -.00000080  00000+0  12858-3 0  9992
2 25875  51.9599 227.0399 0062766 210.3799 149.3418 12.50595588218961
GLOBALSTAR M024         
1 25883U 99043A   26033.00497492 -.00000001  00000+0  22740-2 0  9998
2 25883  51.9973 222.0715 0002675 101.9048  69.4135 11.10168486140384
GLOBALSTAR M027         
1 25884U 99043B   26033.12599518 -.00000036  00000+0  10600-2 0  9994
2 25884  52.0236 306.2986 0021750   3.8715 356.2243 11.04373531166646
GLOBALSTAR M054         
1 25885U 99043C   26033.28321903 -.00000081  00000+0 -23746-3 0  9990
2 25885  52.0160  34.6260 0004802 211.8938 247.9998 11.39223469145278
GLOBALSTAR M053         
1 25886U 99043D   26033.17416459 -.00000061  00000+0  23105-3 0  9996
2 25886  52.0020 354.7446 0003530 108.1066 264.8657 11.27669683145395
GLOBALSTAR M058         
1 25907U 99049A   26033.17431944 -.00000081  00000+0  39729-4 0  9994
2 25907  51.9910 215.0434 0002176  20.4749 339.6173 11.93208064568994
GLOBALSTAR M050         
1 25908U 99049B   26033.02834431 -.00000111  00000+0 -25507-3 0  9990
2 25908  51.9958 205.9364 0010065 125.9791   0.1037 12.07464333175959
GLOBALSTAR M033         
1 25909U 99049C   26033.26935149  .00000003  00000+0  91139-3 0  9997
2 25909  51.9917  61.2166 0014181  19.2321 340.9059 12.20301757563837
GLOBALSTAR M055         
1 25910U 99049D   26033.25478169 -.00000068  00000+0  22320-3 0  9990
2 25910  52.0025  60.7996 0006811 247.0830 112.9303 12.29440171196589
GLOBALSTAR M057         
1 25943U 99058A   26033.32455775 -.00000056  00000+0  33509-3 0  9990
2 25943  51.9990  55.0680 0002731 126.4832 233.6269 12.24832545195137
GLOBALSTAR M059         
1 25944U 99058B   26033.26653515 -.00000015  00000+0  88208-3 0  9997
2 25944  52.0037 304.7297 0001056  61.6035 117.3644 11.99992153601662
GLOBALSTAR M056         
1 25945U 99058C   26033.17326603 -.00000035  00000+0  61188-3 0  9993
2 25945  51.9978 301.0475 0000622 326.4125 185.8493 12.04784116190348
GLOBALSTAR M031         
1 25946U 99058D   26033.17394262 -.00000071  00000+0  20056-3 0  9999
2 25946  51.9942 179.5928 0000297 303.1772 227.9498 12.16048258192527
GLOBALSTAR M039         
1 25961U 99062A   26033.10296574 -.00000064  00000+0  22174-3 0  9996
2 25961  51.9851 288.4301 0002997 122.0230 238.0928 12.62340678209256
GLOBALSTAR M034         
1 25962U 99062B   26033.19566910 -.00000083  00000+0 -26292-4 0  9998
2 25962  51.9866 133.4933 0015069 116.6267 252.3843 11.79455508165539
GLOBALSTAR M029         
1 25963U 99062C   26033.20634058 -.00000101  00000+0 -17955-3 0  9996
2 25963  51.9779 192.7278 0002405 181.0762 349.7579 11.99907990196731
GLOBALSTAR M061         
1 25964U 99062D   26033.05664928 -.00000078  00000+0  32885-4 0  9991
2 25964  51.9820 320.9443 0006544  38.6266  26.4634 11.76777366148243
GLOBALSTAR M063         
1 26081U 00008A   26033.31663849 -.00000080  00000+0  41044-4 0  9994
2 26081  51.9921 225.4886 0005360  44.4367 126.9923 11.86180883184888
GLOBALSTAR M062         
1 26082U 00008B   26033.24475291 -.00000188  00000+0 -64440-3 0  9993
2 26082  51.9849 139.2421 0006805 237.8690 139.4259 12.43480591525240
GLOBALSTAR M060         
1 26083U 00008C   26033.22285058  .00000017  00000+0  10778-2 0  9995
2 26083  52.0015 131.8622 0003048 216.8894 160.1075 12.17674050180394
GLOBALSTAR M064         
1 26084U 00008D   26033.23920629 -.00000051  00000+0  45630-3 0  9992
2 26084  52.0059 321.8106 0001657 118.3386 241.7614 11.88539951194451
GLOBALSTAR M065         
1 31571U 07020A   26033.00766230 -.00000062  00000+0  23528-3 0  9995
2 31571  51.9875 246.7602 0010833  95.7329  69.2793 12.62019898862425
GLOBALSTAR M069         
1 31573U 07020C   26033.17252965 -.00000039  00000+0  49840-3 0  9999
2 31573  52.0025 274.2732 0000957 208.6191 327.1378 12.23467649862270
GLOBALSTAR M072         
1 31574U 07020D   26033.16325843 -.00000062  00000+0  29806-3 0  9991
2 31574  51.9930  99.7168 0001381  77.1144 298.4411 11.91655361858880
GLOBALSTAR M071         
1 31576U 07020F   26033.12205500 -.00000120  00000+0 -28560-3 0  9998
2 31576  52.0082 306.5154 0000392 144.4248 355.1065 12.18264833522963
GLOBALSTAR M067         
1 32263U 07048A   26033.17231189 -.00000081  00000+0  12265-3 0  9999
2 32263  51.9728  82.9675 0001630 118.4104 276.1079 12.40684146838036
GLOBALSTAR M070         
1 32264U 07048B   26033.30316895 -.00000118  00000+0 -81572-4 0  9993
2 32264  51.9742 147.4683 0000644 107.8986 270.9412 12.62329824842731
GLOBALSTAR M066         
1 32265U 07048C   26033.30807586 -.00000087  00000+0  61341-4 0  9992
2 32265  51.9585  85.1119 0005301 121.7725 317.4460 12.30384216843620
GLOBALSTAR M068         
1 32266U 07048D   26033.17435597 -.00000066  00000+0  20819-3 0  9998
2 32266  51.9905 321.1704 0000716 319.3928 181.4086 12.62839408846613
GLOBALSTAR M079         
1 37188U 10054A   26033.27366936 -.00000117  00000+0 -73736-4 0  9993
2 37188  52.0026 159.3658 0001081  96.7848 270.2105 12.62270164705519
GLOBALSTAR M074         
1 37189U 10054B   26033.30257942 -.00000123  00000+0 -10546-3 0  9990
2 37189  52.0003 158.5656 0001002 114.5356 262.9738 12.62265642706123
GLOBALSTAR M076         
1 37190U 10054C   26033.32926752 -.00000121  00000+0 -97209-4 0  9996
2 37190  52.0016 158.6763 0001174 109.6629 268.7688 12.62270024705843
GLOBALSTAR M077         
1 37191U 10054D   26033.30674257 -.00000084  00000+0 -11346-3 0  9990
2 37191  51.9955 161.8519 0001530 108.3250 264.8956 11.68178327705383
GLOBALSTAR M075         
1 37192U 10054E   26032.89921713 -.00000113  00000+0 -50112-4 0  9994
2 37192  51.9924 202.1142 0000949  92.4760  71.6839 12.62264081704856
GLOBALSTAR M073         
1 37193U 10054F   26033.26703472 -.00000094  00000+0  56643-4 0  9999
2 37193  52.0061 114.9917 0000914 111.0164 283.7915 12.62269086706896
GLOBALSTAR M083         
1 37739U 11033A   26033.29001017 -.00000092  00000+0  64022-4 0  9990
2 37739  51.9865  63.3339 0000601 101.8332 339.2015 12.62266892675912
GLOBALSTAR M088         
1 37740U 11033B   26033.19826955 -.00000093  00000+0  59129-4 0  9990
2 37740  52.0241 329.7147 0000503  64.1498  79.4698 12.62260831671446
GLOBALSTAR M091         
1 37741U 11033C   26033.02455487 -.00000072  00000+0  17534-3 0  9991
2 37741  52.0006 293.4119 0000802  56.1341 316.7628 12.62269288672213
GLOBALSTAR M085         
1 37742U 11033D   26033.04323296 -.00000085  00000+0  10493-3 0  9997
2 37742  52.0102 244.5274 0001081  68.4232  89.8838 12.62268975672724
GLOBALSTAR M081         
1 37743U 11033E   26032.98791773 -.00000070  00000+0  18573-3 0  9990
2 37743  51.9940 247.2848 0001104  80.4788  67.0673 12.62262166672862
GLOBALSTAR M089         
1 37744U 11033F   26032.87310502 -.00000110  00000+0 -37442-4 0  9999
2 37744  51.9909 201.8179 0001066 109.6554  55.7102 12.62264121673699
GLOBALSTAR M084         
1 38040U 11080A   26033.26310959 -.00000086  00000+0  97835-4 0  9994
2 38040  52.0012  68.0397 0000682 139.6857 298.3354 12.62267554651720
GLOBALSTAR M080         
1 38041U 11080B   26033.31413883 -.00000079  00000+0  13558-3 0  9992
2 38041  52.0063  69.5563 0000246  41.8451  37.7875 12.62265899651855
GLOBALSTAR M082         
1 38042U 11080C   26033.34279551 -.00000102  00000+0  72436-5 0  9997
2 38042  52.0093  24.9549 0000397  33.3130 106.4307 12.62267079652560
GLOBALSTAR M092         
1 38043U 11080D   26033.21209149 -.00000094  00000+0  52660-4 0  9996
2 38043  52.0081 115.7427 0000695 116.6425 268.9298 12.62269810651001
GLOBALSTAR M090         
1 38044U 11080E   26033.28267814 -.00000104  00000+0  12882-5 0  9992
2 38044  52.0146  19.0512 0000476  71.8114  33.3374 12.62266358652676
GLOBALSTAR M086         
1 38045U 11080F   26033.20671631 -.00000098  00000+0  34808-4 0  9994
2 38045  51.9917  19.4317 0001453 104.0666 268.5839 12.62282257652613
GLOBALSTAR M097         
1 39072U 13005A   26033.15347173 -.00000076  00000+0  15545-3 0  9991
2 39072  52.0055 294.3919 0000924  69.3026 290.7939 12.62268502599857
GLOBALSTAR M093         
1 39073U 13005B   26033.12725568 -.00000068  00000+0  19863-3 0  9995
2 39073  52.0109 287.7682 0001169  64.1126 295.9862 12.62272437599806
GLOBALSTAR M094         
1 39074U 13005C   26033.20647949 -.00000115  00000+0 -61511-4 0  9993
2 39074  51.9934 201.7764 0001197  85.6336 274.4667 12.62266836601423
GLOBALSTAR M096         
1 39075U 13005D   26033.06115291 -.00000079  00000+0  13674-3 0  9992
2 39075  52.0053 250.9141 0001119  70.4741 289.6247 12.62262906600323
GLOBALSTAR M078         
1 39076U 13005E   26033.27242745 -.00000012  00000+0  51018-3 0  9992
2 39076  51.9900 334.4676 0000960   2.2792 357.8079 12.62276412598971
GLOBALSTAR M095         
1 39077U 13005F   26033.21974686 -.00000089  00000+0  79937-4 0  9998
2 39077  52.0107 332.0411 0000887  38.6002 321.4928 12.62268058598820
GLOBALSTAR M087         
1 52888U 22064A   26033.23297047 -.00000092  00000+0  66373-4 0  9993
2 52888  51.9993 113.3158 0000755  98.1364 261.9589 12.62262688174093
