QIANFAN-1               
1 60379U 24140A   26215.58394482  .00000061  00000+0  75478-4 0  9996
2 60379  88.9713 275.0153 0015336 256.8798 103.0642 13.51023077 98922
QIANFAN-2               
1 60380U 24140B   26215.61290284  .00000073  00000+0  94694-4 0  9991
2 60380  88.9699 274.8199 0011266 223.3257 136.7009 13.51018980 98984
QIANFAN-3               
1 60381U 24140C   26215.62107361  .00000055  00000+0  66051-4 0  9992
2 60381  88.9691 274.9339 0012028 238.2838 121.7141 13.51020004 98892
QIANFAN-4               
1 60382U 24140D   26215.59627111  .00000064  00000+0  80717-4 0  9994
2 60382  88.9716 274.8930 0011419 226.4714 133.5490 13.51022858 99014
QIANFAN-5               
1 60383U 24140E   26215.57175105  .00000036  00000+0  37168-4 0  9995
2 60383  88.9691 274.9637 0013042 252.0592 107.9138 13.51028133 98874
QIANFAN-6               
1 60384U 24140F   26215.59218417  .00000062  00000+0  78214-4 0  9998
2 60384  88.9718 274.7711 0011361 233.3441 126.6666 13.51021664 99072
QIANFAN-7               
1 60385U 24140G   26215.54319674  .00000347  00000+0  13442-3 0  9998
2 60385  88.9748 266.2091 0014534   1.7354 358.3888 14.27878526103750
QIANFAN-8               
1 60386U 24140H   26215.60051581  .00000079  00000+0  10351-3 0  9994
2 60386  88.9719 275.0107 0014748 237.3924 122.5804 13.51018080 98920
QIANFAN-9               
1 60387U 24140J   26215.57566640  .00000072  00000+0  93377-4 0  9991
2 60387  88.9717 275.0839 0014440 237.0609 122.9154 13.51018709 98905
QIANFAN-10              
1 60388U 24140K   26215.57979154  .00000065  00000+0  81520-4 0  9999
2 60388  88.9728 274.4551 0013610 211.4660 148.5678 13.51019082 99038
QIANFAN-11              
1 60389U 24140L   26215.61692761  .00000060  00000+0  73610-4 0  9997
2 60389  88.9653 274.8624 0012490 235.8723 124.1244 13.51018812 98696
QIANFAN-12              
1 60390U 24140M   26215.56346914  .00000073  00000+0  95158-4 0  9994
2 60390  88.9696 275.0132 0011124 244.9481 115.0516 13.51021019 98815
QIANFAN-13              
1 60391U 24140N   26215.53462393  .00000080  00000+0  10503-3 0  9990
2 60391  88.9708 275.1444 0010884 248.0869 111.9125 13.51021172 98837
QIANFAN-14              
1 60392U 24140P   26215.55938680  .00000070  00000+0  89936-4 0  9996
2 60392  88.9687 274.9900 0014578 249.1060 110.8531 13.51024089 98847
QIANFAN-15              
1 60393U 24140Q   26215.56764200  .00000084  00000+0  11179-3 0  9991
2 60393  88.9711 275.0014 0010694 231.5530 128.4662 13.51015176 98832
QIANFAN-16              
1 60394U 24140R   26215.55520797  .00000059  00000+0  72934-4 0  9991
2 60394  88.9714 275.1293 0012453 253.1233 106.8553 13.51023016 98742
QIANFAN-17              
1 60395U 24140S   26215.62515885  .00000067  00000+0  85347-4 0  9993
2 60395  88.9724 275.1935 0012961 245.6900 114.2898 13.51019057 99711
QIANFAN-18              
1 60396U 24140T   26215.53051569  .00000075  00000+0  96952-4 0  9991
2 60396  88.9718 274.7215 0012720 226.0154 133.9950 13.51018521 99091
QIANFAN-19              
1 61552U 24185A   26215.53976030  .00000334  00000+0  16702-3 0  9996
2 61552  88.9805  51.1509 0004498 276.5344  83.5330 14.14505774102717
QIANFAN-20              
1 61553U 24185B   26215.55340979  .00000370  00000+0  20563-3 0  9996
2 61553  88.9800  51.7048 0004645 341.9048  18.1970 14.09046946102415
QIANFAN-21              
1 61554U 24185C   26215.59895942  .00000449  00000+0  19338-3 0  9991
2 61554  88.9723  49.5898 0009359 333.4512  26.6199 14.22897924103229
QIANFAN-22              
1 61555U 24185D   26215.56725328  .00000208  00000+0  16856-3 0  9994
2 61555  88.9783  53.6284 0006901  19.4774 340.6660 13.86414369101331
QIANFAN-23              
1 61556U 24185E   26215.60714362  .00000304  00000+0  14564-3 0  9997
2 61556  88.9798  50.8432 0005136 288.8313  71.2318 14.16529322102857
QIANFAN-24              
1 61557U 24185F   26215.54382884  .00000489  00000+0  20648-3 0  9995
2 61557  88.9780  49.8750 0007146 251.4693 108.5724 14.24117717103294
QIANFAN-25              
1 61558U 24185G   26215.57906577  .00000235  00000+0  13460-3 0  9993
2 61558  88.9791  51.7270 0010411 339.1929  20.8828 14.06105159102366
QIANFAN-26              
1 61559U 24185H   26215.58402863  .00000181  00000+0  16766-3 0  9996
2 61559  88.9790  54.5110 0006998  40.8096 319.3593 13.77930700100870
QIANFAN-27              
1 61560U 24185J   26215.59837221  .00000413  00000+0  16194-3 0  9992
2 61560  88.9793  49.5305 0005236 229.5804 130.4934 14.27570268103523
QIANFAN-28              
1 61561U 24185K   26215.59059368  .00000552  00000+0  21477-3 0  9995
2 61561  88.9810  49.5452 0005231 227.8551 132.2200 14.28440010103553
QIANFAN-29              
1 61562U 24185L   26215.54763656  .00000122  00000+0  16930-3 0  9994
2 61562  88.9761  57.1438 0011833  93.7049 266.5456 13.51083112 99363
QIANFAN-30              
1 61563U 24185M   26215.55136242  .00000111  00000+0  15513-3 0  9995
2 61563  88.9782  56.7583 0009624  81.9809 278.2433 13.50064966 99619
QIANFAN-31              
1 61564U 24185N   26215.54610641  .00000136  00000+0  17132-3 0  9991
2 61564  88.9765  56.1894 0009016  71.6785 288.5351 13.58051906 99895
QIANFAN-32              
1 61565U 24185P   26215.53978113  .00000107  00000+0  14758-3 0  9991
2 61565  88.9822  56.9629 0011599 107.3675 252.8746 13.50797578 99603
QIANFAN-33              
1 61566U 24185Q   26215.60864257  .00000263  00000+0  18012-3 0  9993
2 61566  88.9783  52.7348 0006362 331.3206  28.7620 13.96729668101805
QIANFAN-34              
1 61567U 24185R   26215.54165459  .00000345  00000+0  21580-3 0  9990
2 61567  88.9760  51.9962 0004609 341.5714  18.5299 14.02493273102126
QIANFAN-35              
1 61568U 24185S   26215.57362607  .00000533  00000+0  20789-3 0  9997
2 61568  88.9791  49.4335 0004465 220.8599 139.2261 14.28317159103551
QIANFAN-36              
1 61569U 24185T   26215.57518736  .00000058  00000+0  65780-4 0  9997
2 61569  88.9759  56.6775 0008431  84.9240 275.2876 13.55642777 99602
QIANFAN-37              
1 62238U 24232B   26215.58768245  .00000048  00000+0  55209-4 0  9991
2 62238  89.0087  17.8237 0002507 104.1803 255.9627 13.51024342130740
QIANFAN-38              
1 62239U 24232C   26215.53827408  .00000028  00000+0  25144-4 0  9997
2 62239  89.0094  17.7603 0012899 234.9028 125.0914 13.51022997130796
QIANFAN-39              
1 62240U 24232D   26215.60115546  .00000230  00000+0  90926-4 0  9995
2 62240  89.0084  10.6674 0017386  39.6473 320.5987 14.25537996134706
QIANFAN-40              
1 62241U 24232E   26215.57120482  .00000036  00000+0  38013-4 0  9990
2 62241  89.0122  17.4066 0011761 243.5697 116.4248 13.51023204131164
QIANFAN-41              
1 62242U 24232F   26215.57944486  .00000036  00000+0  36784-4 0  9992
2 62242  89.0092  17.7033 0012398 230.1231 129.8830 13.51024002130825
QIANFAN-42              
1 62243U 24232G   26215.60775457  .00000212  00000+0  84748-4 0  9996
2 62243  89.0082  10.7484 0016468  46.4095 313.8461 14.24626179134661
QIANFAN-43              
1 62244U 24232H   26215.57531512  .00000034  00000+0  33863-4 0  9999
2 62244  89.0096  17.7794 0013813 236.5926 123.3905 13.51023843 99434
QIANFAN-44              
1 62245U 24232J   26215.56296318  .00000037  00000+0  39393-4 0  9998
2 62245  89.0095  17.5875 0012100 232.6384 127.3666 13.51014483130901
QIANFAN-45              
1 62246U 24232K   26215.60413371  .00000024  00000+0  18198-4 0  9990
2 62246  89.0098  17.7383 0012766 232.3699 127.6295 13.51023093130835
QIANFAN-46              
1 62247U 24232L   26215.55473245  .00000043  00000+0  48473-4 0  9991
2 62247  89.0094  17.8026 0012698 238.7870 121.2037 13.51024315130788
QIANFAN-47              
1 62248U 24232M   26215.55885508  .00000055  00000+0  66003-4 0  9993
2 62248  89.0090  17.7258 0013133 237.9792 122.0084 13.51022969130818
QIANFAN-48              
1 62249U 24232N   26215.59576907  .00000048  00000+0  55434-4 0  9996
2 62249  89.0094  17.7331 0015350 241.3537 118.6071 13.51017097130828
QIANFAN-49              
1 62250U 24232P   26215.58351382  .00000028  00000+0  24977-4 0  9991
2 62250  89.0093  17.7449 0012542 234.4518 125.5464 13.51015039 99417
QIANFAN-50              
1 62251U 24232Q   26215.53416025  .00000035  00000+0  36342-4 0  9990
2 62251  89.0099  17.7708 0014159 236.6679 123.3117 13.51023992 99430
QIANFAN-51              
1 62252U 24232R   26215.59178202  .00000040  00000+0  43784-4 0  9993
2 62252  89.0093  17.7445 0011558 239.9963 120.0042 13.51023150 99432
QIANFAN-52              
1 62253U 24232S   26215.54649710  .00000057  00000+0  70043-4 0  9992
2 62253  89.0088  17.6135 0013754 231.9576 128.0335 13.51015232 99518
QIANFAN-53              
1 62254U 24232T   26215.60001687  .00000044  00000+0  49179-4 0  9997
2 62254  89.0096  17.7304 0012609 232.5649 127.4355 13.51022156 99487
QIANFAN-54              
1 62255U 24232U   26215.56708551  .00000037  00000+0  39051-4 0  9997
2 62255  89.0088  17.3914 0000286 346.7816  13.3327 13.51014413130984
QIANFAN-55              
1 62785U 25016A   26215.59318469  .00000070  00000+0  88789-4 0  9993
2 62785  88.9692  78.9550 0018753  37.4616 322.7839 13.51024241 78762
QIANFAN-56              
1 62786U 25016B   26215.60961993  .00000081  00000+0  10707-3 0  9998
2 62786  88.9665  78.7273 0017444  39.9634 320.2798 13.51024890 78819
QIANFAN-57              
1 62787U 25016C   26215.64254796  .00000076  00000+0  98251-4 0  9994
2 62787  88.9696  78.9503 0001845 104.0127 256.1229 13.51023927 78783
QIANFAN-58              
1 62788U 25016D   26215.61363642  .00000084  00000+0  11138-3 0  9990
2 62788  88.9667  78.7135 0015168  33.7710 326.4404 13.51017152 78824
QIANFAN-59              
1 62789U 25016E   26215.56423478  .00000080  00000+0  10456-3 0  9997
2 62789  88.9690  78.8476 0015632  37.2183 323.0048 13.51021333 78811
QIANFAN-60              
1 62790U 25016F   26215.59727089  .00000067  00000+0  84893-4 0  9999
2 62790  88.9671  78.7711 0017079  33.3219 326.9004 13.51024320 78809
QIANFAN-61              
1 62791U 25016G   26215.55615663  .00000075  00000+0  98008-4 0  9992
2 62791  88.9738  79.0967 0016048  33.3480 326.8679 13.51024282 78811
QIANFAN-62              
1 62792U 25016H   26215.56013174  .00000071  00000+0  91286-4 0  9990
2 62792  88.9685  78.8390 0017380  33.1120 327.1115 13.51016763 78802
QIANFAN-63              
1 62793U 25016J   26215.58486311  .00000084  00000+0  11077-3 0  9993
2 62793  88.9691  78.8037 0017583  37.9369 322.3018 13.51020036 78841
QIANFAN-64              
1 62794U 25016K   26215.62611119  .00000085  00000+0  11208-3 0  9992
2 62794  88.9678  78.7421 0015333  32.0889 328.1193 13.51016542 78842
QIANFAN-65              
1 62795U 25016L   26215.62177725  .00000084  00000+0  11131-3 0  9997
2 62795  88.9675  78.7602 0015235  33.7145 326.4972 13.51020564 78828
QIANFAN-66              
1 62796U 25016M   26215.57666200  .00000088  00000+0  11734-3 0  9996
2 62796  88.9694  78.7810 0016208  29.3953 330.8107 13.51026239 78868
QIANFAN-67              
1 62797U 25016N   26215.58081622  .00000087  00000+0  11585-3 0  9990
2 62797  88.9684  78.7832 0016370  35.7032 324.5210 13.51025951 78833
QIANFAN-68              
1 62798U 25016P   26215.57243740  .00000087  00000+0  11529-3 0  9999
2 62798  88.9688  78.8376 0016386  33.7645 326.4546 13.51018736 78811
QIANFAN-69              
1 62799U 25016Q   26215.58888390  .00000073  00000+0  94466-4 0  9994
2 62799  88.9667  78.6555 0017154  34.7880 325.4389 13.51021379 78857
QIANFAN-70              
1 62800U 25016R   26215.60543406  .00000078  00000+0  10224-3 0  9990
2 62800  88.9687  78.8410 0016481  25.9814 334.2161 13.51019871 78811
QIANFAN-71              
1 62801U 25016S   26215.60140003  .00000063  00000+0  78537-4 0  9993
2 62801  88.9681  78.8068 0017151  38.0345 322.2014 13.51023706 78810
QIANFAN-72              
1 62802U 25016T   26215.61777403  .00000085  00000+0  11242-3 0  9998
2 62802  88.9672  78.7956 0020579  43.8165 316.4615 13.51017384 78804
QIANFAN-73              
1 63159U 25046A   26215.57071724  .00000130  00000+0  18234-3 0  9994
2 63159  88.9713 295.7615 0016138 160.2557 199.9223 13.51019808 78985
QIANFAN-74              
1 63160U 25046B   26215.55430953  .00000148  00000+0  21000-3 0  9991
2 63160  88.9713 295.6530 0002494  99.4360 260.7073 13.51027757 79047
QIANFAN-75              
1 63161U 25046C   26215.61610705  .00000003  00000+0 -13916-4 0  9993
2 63161  88.9714 295.8832 0017158 164.0504 196.1191 13.51017008 78925
QIANFAN-76              
1 63162U 25046D   26215.61193569  .00000127  00000+0  17742-3 0  9994
2 63162  88.9714 295.8637 0014691 162.9557 197.2091 13.51019150 78935
QIANFAN-77              
1 63163U 25046E   26215.61257363  .00000246  00000+0  16903-3 0  9998
2 63163  88.9715 291.9440 0017107  75.0855 285.2215 13.96233146 81084
QIANFAN-78              
1 63164U 25046F   26215.57914042 -.00000006  00000+0 -27779-4 0  9998
2 63164  88.9713 295.7287 0015948 165.9454 194.2144 13.51012666 79001
QIANFAN-79              
1 63165U 25046G   26215.53368432  .00000132  00000+0  18559-3 0  9994
2 63165  88.9717 295.8495 0015818 164.3044 195.8601 13.51025061 78942
QIANFAN-80              
1 63166U 25046H   26215.62433358  .00000152  00000+0  21607-3 0  9995
2 63166  88.9714 295.5406 0014518 167.5852 192.5659 13.51022319 79117
QIANFAN-81              
1 63167U 25046J   26215.52947710  .00000029  00000+0  25349-4 0  9998
2 63167  88.9714 295.6179 0016108 158.7981 201.3842 13.51017670 79058
QIANFAN-82              
1 63168U 25046K   26215.56245473  .00000143  00000+0  20294-3 0  9990
2 63168  88.9714 295.6586 0013788 163.6632 196.4966 13.51023892 79043
QIANFAN-83              
1 63169U 25046L   26215.53580329  .00000164  00000+0  19581-3 0  9990
2 63169  88.9715 294.9773 0015991 139.3948 220.8405 13.62057534 79427
QIANFAN-84              
1 63170U 25046M   26215.59121833  .00000147  00000+0  20810-3 0  9997
2 63170  88.9714 295.7883 0016832 162.1120 198.0627 13.51019082 78975
QIANFAN-85              
1 63171U 25046N   26215.58716094  .00000148  00000+0  21008-3 0  9997
2 63171  88.9713 295.6587 0014338 162.8351 197.3288 13.51021919 79043
QIANFAN-86              
1 63172U 25046P   26215.59535186  .00000036  00000+0  37544-4 0  9999
2 63172  88.9715 295.5254 0012088 164.8669 195.2847 13.51017460 79123
QIANFAN-87              
1 63173U 25046Q   26215.56678031  .00000138  00000+0  19420-3 0  9999
2 63173  88.9712 295.6314 0012760 161.1454 199.0173 13.51015219 79054
QIANFAN-88              
1 63174U 25046R   26215.58312672  .00000147  00000+0  20892-3 0  9993
2 63174  88.9714 295.5900 0012882 169.1532 190.9900 13.51022367 79080
QIANFAN-89              
1 63175U 25046S   26215.62000706  .00000145  00000+0  20630-3 0  9999
2 63175  88.9714 295.7750 0017740 162.7611 197.4146 13.51017502 78988
QIANFAN-90              
1 63176U 25046T   26215.57479713  .00000143  00000+0  20213-3 0  9997
2 63176  88.9715 295.7528 0014771 160.0098 200.1635 13.51022123 78995
QIANFAN-91              
1 66033U 25233A   26215.53323018  .00000038  00000+0  40240-4 0  9998
2 66033  88.9984  38.3965 0002238  94.0333 266.1074 13.51016092 39575
QIANFAN-92              
1 66034U 25233B   26215.54144177  .00000050  00000+0  58396-4 0  9992
2 66034  88.9968  38.3596 0002018  92.7410 267.3973 13.51014843 39578
QIANFAN-93              
1 66035U 25233C   26215.54961757  .00000030  00000+0  27302-4 0  9995
2 66035  88.9994  38.4234 0002188  94.3374 265.8027 13.51017856 39573
QIANFAN-94              
1 66036U 25233D   26215.53731502  .00000048  00000+0  55362-4 0  9994
2 66036  88.9991  38.3264 0002107  90.4048 269.7344 13.51017103 39625
QIANFAN-95              
1 66037U 25233E   26215.54554410  .00000042  00000+0  46600-4 0  9996
2 66037  88.9989  37.8678 0002301  91.1255 269.0160 13.51018034 39870
QIANFAN-96              
1 66038U 25233F   26215.49619451  .00000034  00000+0  34108-4 0  9999
2 66038  88.9985  38.4151 0002302  94.6319 265.5095 13.51016692 39562
QIANFAN-97              
1 66039U 25233G   26215.47971158  .00000031  00000+0  29896-4 0  9998
2 66039  88.9990  38.4024 0002218  93.9640 266.1765 13.51016998 39574
QIANFAN-98              
1 66040U 25233H   26215.48792099  .00000027  00000+0  23004-4 0  9996
2 66040  88.9979  38.1272 0002092  78.7324 281.4062 13.51016604 39715
QIANFAN-99              
1 66041U 25233J   26215.49202122  .00000030  00000+0  27407-4 0  9996
2 66041  88.9990  38.4055 0002211  83.2768 276.8634 13.51016716 39578
QIANFAN-100             
1 66042U 25233K   26215.48374527  .00000024  00000+0  18049-4 0  9990
2 66042  89.0001  38.3386 0002192  95.0518 265.0883 13.51016628 39626
QIANFAN-101             
1 66043U 25233L   26215.49213371  .00000326  00000+0  12846-3 0  9994
2 66043  88.9990  35.1319 0014877 358.4242   1.6902 14.26833400 41375
QIANFAN-102             
1 66044U 25233M   26215.50439388  .00000038  00000+0  40472-4 0  9992
2 66044  88.9987  38.3127 0002144  89.2868 270.8529 13.51016623 39628
QIANFAN-103             
1 66045U 25233N   26215.50848988  .00000035  00000+0  35381-4 0  9993
2 66045  88.9991  38.4088 0002202  94.6115 265.5287 13.51017514 39577
QIANFAN-104             
1 66046U 25233P   26215.51267157  .00000025  00000+0  19950-4 0  9991
2 66046  88.9995  38.3127 0002040  88.7657 271.3728 13.51022877 39629
QIANFAN-105             
1 66047U 25233Q   26215.52093248  .00000026  00000+0  22354-4 0  9994
2 66047  89.0008  38.1612 0002267  90.8339 269.3072 13.51022252 39734
QIANFAN-106             
1 66048U 25233R   26215.51677428  .00000024  00000+0  18708-4 0  9998
2 66048  88.9977  38.3598 0002121  80.7070 279.4321 13.51016537 39572
QIANFAN-107             
1 66049U 25233S   26215.52499471  .00000027  00000+0  23155-4 0  9995
2 66049  88.9993  38.3989 0002161  94.3784 265.7614 13.51016023 39586
QIANFAN-108             
1 66050U 25233T   26215.52907344  .00000036  00000+0  36771-4 0  9998
2 66050  88.9986  38.3829 0002083  82.0423 278.0965 13.51017407 39583
QIANFAN-109             
1 68636U 26075A   26215.54308819  .00000137  00000+0  19300-3 0  9999
2 68636  88.9921 316.1809 0002695 108.5102 251.6342 13.51028066 16186
QIANFAN-110             
1 68637U 26075B   26215.55139807  .00000036  00000+0  37085-4 0  9999
2 68637  88.9922 316.2016 0002173 106.3074 253.8316 13.51024871 16189
QIANFAN-111             
1 68638U 26075C   26215.39096573  .00000145  00000+0  20567-3 0  9991
2 68638  88.9920 316.1773 0002178 104.9179 255.2214 13.51010820 16184
QIANFAN-112             
1 68639U 26075D   26215.57598105  .00000130  00000+0  18322-3 0  9990
2 68639  88.9919 316.1669 0002602 112.9825 247.1601 13.51017104 16201
QIANFAN-113             
1 68640U 26075E   26215.54719194  .00000136  00000+0  19194-3 0  9996
2 68640  88.9925 316.1661 0002240 109.0170 251.1224 13.51022733 16200
QIANFAN-114             
1 68641U 26075F   26215.55540431  .00000124  00000+0  17291-3 0  9997
2 68641  88.9920 316.1822 0002194 105.9297 254.2096 13.51021177 16198
QIANFAN-115             
1 68642U 26075G   26215.58417218  .00000120  00000+0  16796-3 0  9992
2 68642  88.9920 316.1865 0002365 104.8703 255.2710 13.51017943 16196
QIANFAN-116             
1 68643U 26075H   26215.57182488  .00000143  00000+0  20313-3 0  9995
2 68643  88.9913 316.1445 0002438 112.5587 247.5822 13.51018590 16209
QIANFAN-117             
1 68644U 26075J   26215.55949914  .00000130  00000+0  18311-3 0  9990
2 68644  88.9918 316.1636 0002439 107.7267 252.4151 13.51016412 16200
QIANFAN-118             
1 68645U 26075K   26215.59240020  .00000127  00000+0  17862-3 0  9993
2 68645  88.9923 316.1705 0002076 106.9959 253.1419 13.51018313 16207
QIANFAN-119             
1 68646U 26075L   26215.56767143  .00000140  00000+0  19842-3 0  9996
2 68646  88.9923 316.1687 0002565 106.9709 253.1724 13.51024549 16200
QIANFAN-120             
1 68647U 26075M   26215.58011966  .00000134  00000+0  18882-3 0  9990
2 68647  88.9924 316.1532 0002667 104.6770 255.4677 13.51025239 16217
QIANFAN-121             
1 68648U 26075N   26215.60479324  .00000148  00000+0  21009-3 0  9990
2 68648  88.9922 316.1546 0002138 105.2324 254.9063 13.51017189 16214
QIANFAN-122             
1 68649U 26075P   26215.59663319  .00000131  00000+0  18374-3 0  9991
2 68649  88.9921 316.1530 0002521 108.4191 251.7235 13.51020713 16202
QIANFAN-123             
1 68650U 26075Q   26215.56373711  .00000134  00000+0  18925-3 0  9999
2 68650  88.9918 316.1448 0002736 109.4479 250.6968 13.51026029 16180
QIANFAN-124             
1 68651U 26075R   26215.58841525  .00000127  00000+0  17857-3 0  9990
2 68651  88.9920 316.1525 0002588 109.5436 250.5995 13.51020390 16217
QIANFAN-125             
1 68652U 26075S   26215.60068279  .00000133  00000+0  18707-3 0  9993
2 68652  88.9920 316.1533 0002131 105.9637 254.1749 13.51017328 16218
QIANFAN-126             
1 68653U 26075T   26215.60891659  .00000130  00000+0  18324-3 0  9992
2 68653  88.9924 316.1200 0002735 108.7997 251.3452 13.51022503 16237
QIANFAN-127             
1 69073U 26104A   26215.54006374  .00000110  00000+0  15185-3 0  9997
2 69073  88.9937 336.6317 0001928 107.5086 252.6276 13.51018954 11556
QIANFAN-128             
1 69074U 26104B   26215.54841469  .00000131  00000+0  18436-3 0  9995
2 69074  88.9915 336.6652 0001767  95.9655 264.1698 13.51011994 11539
QIANFAN-129             
1 69075U 26104C   26215.57345275  .00000033  00000+0  32408-4 0  9990
2 69075  88.9918 336.5957 0008012 315.8064  44.2447 13.51295984 11574
QIANFAN-130             
1 69076U 26104D   26215.61012940  .00000034  00000+0  33355-4 0  9999
2 69076  88.9920 336.6567 0002000 114.2211 245.9150 13.51025385 11546
QIANFAN-131             
1 69077U 26104E   26215.63063964  .00000114  00000+0  15854-3 0  9996
2 69077  88.9913 336.6183 0002015  96.8304 263.3076 13.51017481 11568
QIANFAN-132             
1 69078U 26104F   26215.54418562  .00000114  00000+0  15830-3 0  9999
2 69078  88.9915 336.6828 0001985 109.2093 250.9274 13.51024081 11528
QIANFAN-133             
1 69079U 26104G   26215.55247725  .00000046  00000+0  53298-4 0  9997
2 69079  88.9919 336.6305 0001974  89.5938 270.5439 13.51016627 11549
QIANFAN-134             
1 69080U 26104H   26215.58130112  .00000121  00000+0  16900-3 0  9995
2 69080  88.9923 336.6519 0001818  94.3745 265.7613 13.51020563 11544
QIANFAN-135             
1 69081U 26104J   26215.63471549  .00000110  00000+0  15121-3 0  9996
2 69081  88.9917 336.6402 0001595  97.3561 262.7771 13.51024002 11555
QIANFAN-136             
1 69082U 26104K   26215.56894042  .00000034  00000+0  34502-4 0  9996
2 69082  88.9919 336.6489 0001932  91.0759 269.0613 13.51014206 11547
QIANFAN-137             
1 69083U 26104L   26215.63889934  .00000036  00000+0  37250-4 0  9994
2 69083  88.9929 336.5142 0002027 107.0784 253.0589 13.51013484 11627
QIANFAN-138             
1 69084U 26104M   26215.58947166  .00000120  00000+0  16723-3 0  9996
2 69084  88.9912 336.6498 0001644 105.2740 254.8593 13.51017870 11549
QIANFAN-139             
1 69085U 26104N   26215.57716416  .00000108  00000+0  14800-3 0  9998
2 69085  88.9914 336.6318 0001853 107.0517 253.0837 13.51019127 11557
QIANFAN-140             
1 69086U 26104P   26215.58533987  .00000124  00000+0  17405-3 0  9992
2 69086  88.9915 336.6341 0001563 101.2333 258.8994 13.51026769 11552
QIANFAN-141             
1 69087U 26104Q   26215.59358897  .00000112  00000+0  15484-3 0  9991
2 69087  88.9912 336.5990 0001710  96.8227 263.3119 13.51020361 11578
QIANFAN-142             
1 69088U 26104R   26215.52776132  .00000103  00000+0  14099-3 0  9992
2 69088  88.9911 336.6057 0001679 104.4879 255.6459 13.51022609 11563
QIANFAN-143             
1 69089U 26104S   26215.59772105  .00000043  00000+0  48218-4 0  9990
2 69089  88.9921 336.6001 0002077  96.5630 263.5757 13.51019001 11575
QIANFAN-144             
1 69090U 26104T   26215.60594121  .00000106  00000+0  14571-3 0  9998
2 69090  88.9920 336.6183 0001762 109.1490 250.9852 13.51023205 11568
QIANFAN-145             
1 69104U 26108A   26215.53543827  .00000022  00000+0  16342-4 0  9993
2 69104  89.0124  17.3054 0018224 329.4247  30.5840 13.49977687 10837
QIANFAN-146             
1 69105U 26108B   26214.79088107  .00000028  00000+0  20347-4 0  9992
2 69105  89.0128  17.2246 0020784 337.9593  22.0669 13.63794328 10825
QIANFAN-147             
1 69106U 26108C   26215.54441339  .00000026  00000+0  21529-4 0  9998
2 69106  89.0126  17.3089 0002053 349.6177  10.4931 13.50964748 10821
QIANFAN-148             
1 69107U 26108D   26214.71727481 -.02104216  00000+0 -35890+1 0  9994
2 69107  89.0105  17.3839 0007939 320.7243  39.3330 13.49111057 10710
QIANFAN-149             
1 69108U 26108E   26215.54030589  .00000021  00000+0  14536-4 0  9996
2 69108  89.0120  17.3231 0001687  96.1934 263.9410 13.51037333 10822
QIANFAN-150             
1 69109U 26108F   26215.03412119  .00000050  00000+0  54998-4 0  9992
2 69109  89.0122  17.3255 0020235 331.4297  28.5746 13.55548133 10778
QIANFAN-151             
1 69110U 26108G   26215.57565908  .00000044  00000+0  50041-4 0  9996
2 69110  89.0123  17.2940 0020193 333.9026  26.1105 13.49921999 10839
QIANFAN-152             
1 69111U 26108H   26214.96421576  .00000030  00000+0  27882-4 0  9993
2 69111  89.0119  17.3490 0018607 334.6799  25.3439 13.51021622 10768
QIANFAN-153             
1 69112U 26108J   26214.96223485  .00000040  00000+0  40583-4 0  9997
2 69112  89.0115  17.3280 0020503 337.2663  22.7581 13.54594237 10768
QIANFAN-154             
1 69113U 26108K   26214.74620179  .00000027  00000+0  23008-4 0  9993
2 69113  89.0125  17.3945 0006836 336.7265  23.3576 13.50962493 10729
QIANFAN-155             
1 69114U 26108L   26215.56633860  .00000069  00000+0  84877-4 0  9993
2 69114  89.0126  17.2769 0020648 332.9834  27.0242 13.53991025 10841
QIANFAN-156             
1 69115U 26108M   26215.58200200  .00000024  00000+0  19910-4 0  9991
2 69115  89.0139  17.2686 0021356 334.3406  25.6683 13.49900169 10861
QIANFAN-157             
1 69116U 26108N   26215.56137467  .00000033  00000+0  32099-4 0  9997
2 69116  89.0120  17.2009 0019816 342.5910  17.4561 13.53135116 10894
QIANFAN-158             
1 69117U 26108P   26215.58341470  .00000025  00000+0  20913-4 0  9994
2 69117  89.0122  17.2404 0020236 337.5681  22.4583 13.49931308 10873
QIANFAN-159             
1 69118U 26108Q   26215.50740029  .00000023  00000+0  17417-4 0  9993
2 69118  89.0113  17.2600 0019858 331.6808  28.3262 13.51021161 10853
QIANFAN-160             
1 69119U 26108R   26215.59800492  .00000029  00000+0  26691-4 0  9994
2 69119  89.0130  17.2810 0001746 101.9170 258.2177 13.51029669 10853
QIANFAN-161             
1 69120U 26108S   26215.47137898  .00000028  00000+0  22193-4 0  9998
2 69120  89.0129  17.2116 0018742 339.7254  20.3154 13.56795406 10880
QIANFAN-162             
1 69121U 26108T   26214.79330639  .00000014  00000+0  32052-5 0  9992
2 69121  89.0122  17.3086 0019552 336.4880  23.5379 13.56704618 10766
QIANFAN-163             
1 69325U 26121A   26213.18843284  .00000042  00000+0  45947-4 0  9997
2 69325  89.0188 296.0346 0002001  73.2965 286.8405 13.51025522  8249
QIANFAN-164             
1 69326U 26121B   26215.30334219  .00000131  00000+0  18373-3 0  9998
2 69326  89.0160 295.8159 0006631  74.9207 285.2677 13.51023051  8530
QIANFAN-165             
1 69382U 26124A   26214.65416218 -.02109104  00000+0 -29300+1 0  9993
2 69382  89.0024 356.9537 0005507  12.9998 347.1300 13.62104179  8309
QIANFAN-166             
1 69383U 26124B   26215.56373081  .00000037  00000+0  32373-4 0  9994
2 69383  89.0045 356.8489 0008745  21.9717 338.1814 13.62070432  8432
QIANFAN-167             
1 69384U 26124C   26214.83924165  .00000039  00000+0  36545-4 0  9996
2 69384  89.0078 356.9320 0011873  35.8582 324.3368 13.58147376  8320
QIANFAN-168             
1 69385U 26124D   26215.53358450  .00000044  00000+0  43490-4 0  9996
2 69385  89.0024 356.8597 0011696  24.2491 335.9213 13.58545079  8421
QIANFAN-169             
1 69386U 26124E   26214.62520251  .00000032  00000+0  26140-4 0  9996
2 69386  89.0009 356.9496 0012725  34.3900 325.8077 13.60021708  8309
QIANFAN-170             
1 69387U 26124F   26214.75713892  .00000033  00000+0  25727-4 0  9997
2 69387  89.0028 356.9100 0010350  18.2385 341.9142 13.63802840  8335
QIANFAN-171             
1 69388U 26124G   26214.76042418  .00000031  00000+0  24837-4 0  9997
2 69388  89.0052 356.9138 0010232  41.4408 318.7524 13.61941740  8334
QIANFAN-172             
1 69389U 26124H   26214.80512378  .00000037  00000+0  30125-4 0  9993
2 69389  89.0024 356.8940 0011700  29.7007 330.4814 13.65145454  8345
QIANFAN-173             
1 69390U 26124J   26214.80592189  .00000032  00000+0  25504-4 0  9993
2 69390  89.0013 356.9040 0007719  29.0517 331.1069 13.62590981  8347
QIANFAN-174             
1 69391U 26124K   26214.78451968  .00000033  00000+0  24065-4 0  9992
2 69391  89.0009 356.8786 0010587  30.0847 330.0921 13.69141468  8348
QIANFAN-175             
1 69392U 26124L   26214.83834242  .00000036  00000+0  29579-4 0  9997
2 69392  89.0066 356.8839 0012252  36.4721 323.7269 13.63502064  8355
QIANFAN-176             
1 69393U 26124M   26215.29901954  .00000037  00000+0  30249-4 0  9991
2 69393  89.0021 356.8434 0010974  27.7870 332.3873 13.64086135  8405
QIANFAN-177             
1 69394U 26124N   26214.65957752  .00000036  00000+0  28341-4 0  9997
2 69394  89.0033 356.8964 0011930  27.7894 332.3900 13.65380570  8330
QIANFAN-178             
1 69395U 26124P   26214.74849517  .00000043  00000+0  33882-4 0  9991
2 69395  88.9995 356.8704 0010699  27.5088 332.6639 13.71462116  8350
QIANFAN-179             
1 69396U 26124Q   26214.80428356  .00000036  00000+0  26481-4 0  9992
2 69396  89.0016 356.8613 0009810  30.2358 329.9369 13.71204326  8367
QIANFAN-180             
1 69397U 26124R   26215.58514630  .00000040  00000+0  33496-4 0  9999
2 69397  89.0027 356.7943 0010704  31.4041 328.7756 13.64907836  8467
QIANFAN-181             
1 69398U 26124S   26215.53291195  .00000047  00000+0  48801-4 0  9996
2 69398  89.0035 356.8781 0008732  22.9334 337.2209 13.57850480  8413
QIANFAN-182             
1 69399U 26124T   26215.54452583  .00000038  00000+0  36332-4 0  9994
2 69399  89.0014 356.8604 0011287  28.4094 331.7674 13.57832194  8415
QIANFAN-183             
1 69401U 26125A   26215.60268840 -.02145568  00000+0 -29140+1 0  9994
2 69401  88.9897 275.2225 0020820  32.9106 327.3344 13.63500786  8338
QIANFAN-184             
1 69402U 26125B   26215.55407502 -.01902846  00000+0 -27362+1 0  9992
2 69402  88.9921 275.2368 0020446  17.4914 342.6943 13.60134029  8328
QIANFAN-185             
1 69403U 26125C   26215.58261802 -.02154882  00000+0 -24491+1 0  9997
2 69403  88.9934 275.1871 0018986  17.8199 342.3627 13.74451141  8357
QIANFAN-186             
1 69404U 26125D   26215.54646936 -.02083310  00000+0 -30349+1 0  9995
2 69404  88.9927 275.2368 0021311  16.1919 343.9913 13.58996450  8321
QIANFAN-187             
1 69405U 26125E   26215.57443222 -.02153000  00000+0 -28673+1 0  9993
2 69405  88.9926 275.2216 0023882  32.3928 327.8691 13.64702310  8330
QIANFAN-188             
1 69406U 26125F   26215.58813429 -.02150657  00000+0 -29661+1 0  9998
2 69406  88.9927 275.2040 0021482  23.6321 336.5818 13.62550368  8342
QIANFAN-189             
1 69407U 26125G   26215.53596580 -.02077314  00000+0 -28694+1 0  9993
2 69407  88.9908 275.2156 0021888  19.1521 341.0454 13.62302088  8321
QIANFAN-190             
1 69408U 26125H   26215.59805804 -.02072996  00000+0 -29263+1 0  9996
2 69408  88.9913 275.2070 0020151  14.6368 345.5369 13.60953460  8344
QIANFAN-191             
1 69409U 26125J   26215.53666681 -.02151745  00000+0 -30291+1 0  9992
2 69409  88.9923 275.2155 0018336  18.4756 341.7063 13.61301324  8330
QIANFAN-192             
1 69410U 26125K   26215.59432223 -.02136311  00000+0 -31000+1 0  9994
2 69410  88.9930 275.2069 0023957  10.4533 349.7116 13.59322587  8343
QIANFAN-193             
1 69411U 26125L   26215.58515715 -.02141377  00000+0 -31207+1 0  9999
2 69411  88.9906 275.2048 0022716  16.5748 343.6146 13.59077594  8342
QIANFAN-194             
1 69412U 26125M   26215.56036896 -.02151725  00000+0 -29453+1 0  9994
2 69412  88.9940 275.2010 0021935  19.3651 340.8335 13.63017491  8339
QIANFAN-195             
1 69413U 26125N   26215.55925258 -.02156017  00000+0 -28452+1 0  9990
2 69413  88.9937 275.1826 0024503  36.2685 324.0129 13.65267926  8358
QIANFAN-196             
1 69414U 26125P   26215.58561684 -.02149955  00000+0 -29275+1 0  9990
2 69414  88.9945 275.1867 0023064  27.1200 333.1158 13.63328752  8352
QIANFAN-197             
1 69415U 26125Q   26215.62114890 -.02091289  00000+0 -27049+1 0  9992
2 69415  88.9925 275.1722 0027411  29.7974 330.4740 13.66344463  8354
QIANFAN-198             
1 69416U 26125R   26215.57303155 -.02152880  00000+0 -28724+1 0  9997
2 69416  88.9918 275.1837 0023381  34.7481 325.5200 13.64594690  8358
QIANFAN-199             
1 69417U 26125S   26215.60599812 -.02115069  00000+0 -26042+1 0  9998
2 69417  88.9919 275.1548 0025490  27.4310 332.8191 13.69438020  8373
QIANFAN-200             
1 69418U 26125T   26215.61492349 -.02148856  00000+0 -30714+1 0  9998
2 69418  88.9927 275.2085 0018697  20.2398 339.9495 13.60341490  8345
QIANFAN-201             
1 69800U 26153A   26215.44756936 -.02093630  00000+0 -11675+1 0  9994
2 69800  88.9941 356.8365 0011308 144.1691 216.0257 14.15171394  4282
QIANFAN-202             
1 69801U 26153B   26215.58145597  .00000074  00000+0  30472-4 0  9991
2 69801  88.9946 356.8398 0008785 123.2806 236.9224 14.15493870  4297
QIANFAN-203             
1 69802U 26153C   26215.49614096 -.02105840  00000+0 -12339+1 0  9996
2 69802  88.9936 356.8453 0009304 105.2987 254.9228 14.12516445  4281
QIANFAN-204             
1 69803U 26153D   26215.63379775 -.02107859  00000+0 -12321+1 0  9998
2 69803  88.9940 356.8291 0008093 137.1308 223.0511 14.12661371  4306
QIANFAN-205             
1 69804U 26153E   26215.50434743 -.02077524  00000+0 -12392+1 0  9995
2 69804  88.9939 356.8467 0010521  91.5714 268.6676 14.11481073  4285
QIANFAN-206             
1 69805U 26153F   26215.62579895 -.02087254  00000+0 -11630+1 0  9992
2 69805  88.9939 356.8280 0014763 130.1355 230.1128 14.15179350  4307
QIANFAN-207             
1 69806U 26153G   26215.54625890 -.02114380  00000+0 -12446+1 0  9998
2 69806  88.9937 356.8343 0011543 102.3347 257.9132 14.12271618  4298
QIANFAN-208             
1 69807U 26153H   26215.65250466  .00000088  00000+0  35653-4 0  9998
2 69807  88.9941 356.8113 0010400 119.9004 240.3220 14.18055488  4312
QIANFAN-209             
1 69808U 26153J   26215.55276258 -.02089443  00000+0 -12269+1 0  9995
2 69808  88.9939 356.8358 0011767 103.0985 257.1515 14.12353141  4291
QIANFAN-210             
1 69809U 26153K   26215.54489855 -.02071002  00000+0 -12136+1 0  9999
2 69809  88.9940 356.8351 0012038 109.9326 250.3158 14.12428557  4295
QIANFAN-211             
1 69810U 26153L   26215.54217220 -.02059923  00000+0 -12137+1 0  9995
2 69810  88.9939 356.8342 0012173 104.7751 255.4784 14.12104580  4298
QIANFAN-212             
1 69811U 26153M   26215.38859623 -.02037667  00000+0 -11666+1 0  9994
2 69811  88.9939 356.8485 0010378 134.5819 225.6216 14.13636306  4272
QIANFAN-213             
1 69812U 26153N   26215.38448211 -.02021453  00000+0 -11430+1 0  9997
2 69812  88.9938 356.8483 0009811 138.1508 222.0431 14.14282423  4273
QIANFAN-214             
1 69813U 26153P   26215.54944249 -.02116309  00000+0 -11166+1 0  9999
2 69813  88.9935 356.8166 0008475 165.6144 194.5288 14.18218479  4306
QIANFAN-215             
1 69814U 26153Q   26215.60222193 -.02075333  00000+0 -10157+1 0  9994
2 69814  88.9938 356.8056 0012480 110.9191 249.3338 14.22116133  4319
QIANFAN-216             
1 69815U 26153R   26215.60702024 -.02087571  00000+0 -10688+1 0  9997
2 69815  88.9938 356.8062 0012340 125.5195 234.7148 14.19746702  4312
QIANFAN-217             
1 69816U 26153S   26215.59999683  .00000461  00000+0  18446-3 0  9997
2 69816  88.9944 356.8044 0009730 127.2796 232.9286 14.26778621  4311
QIANFAN-218             
1 69817U 26153T   26215.59908988  .00000455  00000+0  18179-3 0  9992
2 69817  88.9947 356.8053 0009447 125.1801 235.0280 14.26822570  4315
QIANFAN-219             
1 69848U 26155A   26215.54834758 -.02076668  00000+0 -11668+1 0  9992
2 69848  89.0055  58.7497 0033132 160.9146 199.3291 14.14477483  4138
QIANFAN-220             
1 69849U 26155B   26215.57231717 -.02093181  00000+0 -13112+1 0  9997
2 69849  89.0050  58.7709 0025961 151.6911 208.5690 14.08676747  4120
QIANFAN-221             
1 69850U 26155C   26215.58185043  .00000108  00000+0  38311-4 0  9995
2 69850  89.0052  58.7350 0032832 158.8227 201.4335 14.26653265  4140
QIANFAN-222             
1 69851U 26155D   26215.55525277 -.02085425  00000+0 -12838+1 0  9991
2 69851  89.0052  58.7686 0023991 152.5021 207.7439 14.09647287  4122
QIANFAN-223             
1 69852U 26155E   26215.62035926  .00000070  00000+0  30086-4 0  9995
2 69852  89.0056  58.7604 0029694 156.3474 203.9085 14.12813495  4133
QIANFAN-224             
1 69853U 26155F   26215.60132800 -.02059665  00000+0 -12251+1 0  9991
2 69853  89.0035  58.7534 0027471 153.0415 207.2205 14.11430572  4134
QIANFAN-225             
1 69854U 26155G   26215.53622046 -.02045218  00000+0 -12408+1 0  9993
2 69854  89.0042  58.7648 0027479 148.0092 212.2768 14.10317287  4127
QIANFAN-226             
1 69855U 26155H   26215.53178524 -.02074402  00000+0 -12526+1 0  9999
2 69855  89.0047  58.7649 0027507 148.1788 212.1066 14.10636393  4121
QIANFAN-227             
1 69856U 26155J   26215.59427238 -.02095850  00000+0 -12593+1 0  9999
2 69856  89.0040  58.7556 0027222 163.1842 197.0252 14.10957559  4133
QIANFAN-228             
1 69857U 26155K   26215.59054320 -.02043941  00000+0 -12285+1 0  9990
2 69857  89.0047  58.7551 0025422 160.1602 200.0577 14.10854478  4138
QIANFAN-229             
1 69858U 26155L   26215.56750129 -.02112878  00000+0 -12138+1 0  9991
2 69858  89.0050  58.7520 0031095 159.7796 200.4630 14.13382783  4132
QIANFAN-230             
1 69859U 26155M   26215.56639918 -.02083828  00000+0 -12851+1 0  9998
2 69859  89.0044  58.7687 0024239 152.3082 207.9399 14.09540383  4129
QIANFAN-231             
1 69860U 26155N   26215.62222629  .00000065  00000+0  24632-4 0  9996
2 69860  89.0053  58.7416 0032003 155.1217 205.1524 14.17658002  4149
QIANFAN-232             
1 69861U 26155P   26215.54565320 -.02084946  00000+0 -11528+1 0  9996
2 69861  89.0048  58.7483 0036803 160.4997 199.7609 14.15295288  4136
QIANFAN-233             
1 69862U 26155Q   26215.54646401 -.02093084  00000+0 -11562+1 0  9998
2 69862  89.0048  58.7489 0036657 159.8601 200.4043 14.15367152  4136
QIANFAN-234             
1 69863U 26155R   26215.54020106 -.02122853  00000+0 -11572+1 0  9995
2 69863  89.0044  58.7478 0038461 152.8656 207.4553 14.16105555  4130
QIANFAN-235             
1 69864U 26155S   26215.57961657  .00000101  00000+0  35356-4 0  9991
2 69864  89.0053  58.7349 0032718 158.9281 201.3270 14.26770269  4149
QIANFAN-236             
1 69865U 26155T   26215.57108557  .00000076  00000+0  31625-4 0  9990
2 69865  89.0053  58.7510 0029994 156.0118 204.2474 14.14995736  4132
QIANFAN-237             
1 69866U 26155U   26215.53870421 -.02104714  00000+0 -11575+1 0  9999
2 69866  89.0044  58.7474 0036326 164.5252 195.7056 14.15632931  4127
QIANFAN-238             
1 69867U 26155V   26215.58773934 -.02106385  00000+0 -11108+1 0  9994
2 69867  89.0061  58.7384 0037576 160.3905 199.8740 14.17866870  4144
