KUIPER-00008            
1 63724U 25088A   26146.26045301  .00004744  00000+0  65114-3 0  9993
2 63724  51.9002 104.9909 0000932  89.7991 270.3079 14.79911931 59535
KUIPER-00009            
1 63725U 25088B   26146.20763315  .00001445  00000+0  21833-3 0  9995
2 63725  51.9020 122.8431 0000329  37.3959 322.7027 14.79955660 59271
KUIPER-00010            
1 63726U 25088C   26146.23191956  .00001785  00000+0  26312-3 0  9999
2 63726  51.9017 100.2110 0000709  66.9040 293.1997 14.79936862 59217
KUIPER-00011            
1 63727U 25088D   26146.25761389 -.00000005  00000+0  28398-4 0  9997
2 63727  51.8995 107.6523 0000785  53.6485 306.4549 14.79942302 59241
KUIPER-00012            
1 63728U 25088E   26146.10494866  .00000078  00000+0  39289-4 0  9995
2 63728  51.9010  93.2575 0000802  99.9625 260.1428 14.79928124 59380
KUIPER-00013            
1 63729U 25088F   26146.23872869  .00001268  00000+0  19533-3 0  9994
2 63729  51.9007 125.1843 0000940   7.7261 352.3716 14.79936410 59051
KUIPER-00014            
1 63730U 25088G   26146.13741360  .00001278  00000+0  19660-3 0  9998
2 63730  51.9017 125.5755 0000319  39.3706 320.7280 14.79933386 58856
KUIPER-00015            
1 63731U 25088H   26146.22796705  .00001478  00000+0  22272-3 0  9997
2 63731  51.8990 135.2497 0000597  46.6415 313.4597 14.79945947 59186
KUIPER-00016            
1 63732U 25088J   26145.39188251  .00001257  00000+0  19343-3 0  9996
2 63732  51.8995 131.3933 0000556  67.5290 292.5732 14.80018538 58706
KUIPER-00018            
1 63733U 25088K   26146.17924889 -.00001334  00000+0 -14597-3 0  9993
2 63733  51.9017 117.9267 0000477  84.9047 275.1970 14.79930636 58967
KUIPER-00019            
1 63734U 25088L   26146.20594145  .00002443  00000+0  34931-3 0  9990
2 63734  51.8994 116.5805 0000480 160.7698 199.3283 14.79933815 58981
KUIPER-00020            
1 63735U 25088M   26146.17659350 -.00000910  00000+0 -90295-4 0  9992
2 63735  51.9025 120.4524 0001208  11.3433 348.7556 14.79936482 59131
KUIPER-00021            
1 63736U 25088N   26146.14281277  .00001646  00000+0  24489-3 0  9995
2 63736  51.9001 120.5610 0001336  77.1018 283.0094 14.79940799 58968
KUIPER-00023            
1 63737U 25088P   26146.24149579  .00002070  00000+0  30044-3 0  9991
2 63737  51.8994 122.6133 0000779  68.4483 291.6563 14.79929803 59242
KUIPER-00024            
1 63738U 25088Q   26146.18738037  .00000169  00000+0  51176-4 0  9995
2 63738  51.9038 110.4401 0000785  79.4840 280.6211 14.79928824 59534
KUIPER-00025            
1 63739U 25088R   26146.28057845  .00001191  00000+0  18520-3 0  9999
2 63739  51.9030 117.5081 0000727  58.2227 301.8807 14.79929571 59301
KUIPER-00027            
1 63740U 25088S   26146.18464713  .00001468  00000+0  22138-3 0  9993
2 63740  51.9010 112.9089 0000713  63.3651 296.7385 14.79949636 59094
KUIPER-00028            
1 63741U 25088T   26146.28866761 -.00000426  00000+0 -26883-4 0  9991
2 63741  51.8989 109.9078 0000788  69.3832 290.7214 14.79933338 59550
KUIPER-00029            
1 63742U 25088U   26146.25852205  .00041101  00000+0  58062-2 0  9992
2 63742  51.9000 108.6521 0002497  89.6337 270.4910 14.76758198 59092
KUIPER-00030            
1 63743U 25088V   26146.23597440  .00001974  00000+0  28789-3 0  9996
2 63743  51.8996 127.6428 0000737  72.7004 287.4039 14.79929248 59114
KUIPER-00031            
1 63744U 25088W   26146.15657005  .00001643  00000+0  26495-3 0  9997
2 63744  51.9006 111.6887 0001670  48.5993 311.5111 14.76385231 59042
KUIPER-00032            
1 63745U 25088X   26145.90190171  .00014945  00000+0  38426-3 0  9992
2 63745  51.8683  10.1836 0004903  49.8340 310.3076 15.39476575 61437
KUIPER-00033            
1 63746U 25088Y   26146.25361864  .00002376  00000+0  34056-3 0  9991
2 63746  51.8996 142.5910 0000457  66.0223 294.0787 14.79938050 59101
KUIPER-00034            
1 63747U 25088Z   26146.15901266 -.00000891  00000+0 -87889-4 0  9992
2 63747  51.9020 105.5386 0000734  78.0617 282.0427 14.79939360 59298
KUIPER-00035            
1 63748U 25088AA  26146.26708979  .00000975  00000+0  15693-3 0  9995
2 63748  51.8999 130.0422 0000788  29.0319 331.0687 14.79936280 59012
KUIPER-00037            
1 63749U 25088AB  26146.25001157 -.00029396  00000+0 -36944-2 0  9990
2 63749  51.8984 128.9937 0001558  58.9593 236.9900 14.81585430  5578
KUIPER-00038            
1 63750U 25088AC  26146.18196629  .00002079  00000+0  30120-3 0  9991
2 63750  51.9027 115.4332 0001122  62.3088 297.7988 14.79987656 58992
KUIPER-00039            
1 64500U 25134A   26146.28960534  .00000772  00000+0  13026-3 0  9996
2 64500  51.9056 249.9576 0000190 102.4412 257.6572 14.79934801 51566
KUIPER-00040            
1 64501U 25134B   26146.31259301  .00000842  00000+0  13942-3 0  9999
2 64501  51.8972 259.9477 0000877 159.9141 200.1856 14.79935561 51429
KUIPER-00041            
1 64502U 25134C   26146.27611869  .00002233  00000+0  32185-3 0  9992
2 64502  51.9010 262.4904 0000330 147.4664 212.6319 14.79935182 51380
KUIPER-00042            
1 64503U 25134D   26146.04515078  .00001058  00000+0  16776-3 0  9995
2 64503  51.8976 258.4915 0000369 105.3415 254.7588 14.79934924 51420
KUIPER-00043            
1 64504U 25134E   26145.58053112  .00003339  00000+0  46661-3 0  9990
2 64504  51.9001 253.0304 0000252 119.1161 240.9827 14.79942452 51468
KUIPER-00044            
1 64505U 25134F   26146.03975822  .00002331  00000+0  33457-3 0  9993
2 64505  51.8992 263.5157 0000678 105.2736 254.8301 14.79939957 51350
KUIPER-00046            
1 64506U 25134G   26146.27880394 -.00000623  00000+0 -52754-4 0  9995
2 64506  51.8989 259.9398 0000398 117.2906 242.8097 14.79946856 51427
KUIPER-00047            
1 64507U 25134H   26145.93708140  .00002983  00000+0  41971-3 0  9993
2 64507  51.8982 233.9709 0000218  55.6336 304.4647 14.79972504 51753
KUIPER-00048            
1 64508U 25134J   26145.22800032  .00000450  00000+0  88031-4 0  9995
2 64508  51.8978 237.1212 0000289 110.4808 249.6186 14.79935115 51650
KUIPER-00049            
1 64509U 25134K   26146.26121976  .00001114  00000+0  17504-3 0  9998
2 64509  51.8964 245.0094 0000479 103.7306 256.3710 14.79937608 51636
KUIPER-00050            
1 64510U 25134L   26145.94245008  .00000357  00000+0  75842-4 0  9995
2 64510  51.8993 228.9444 0000405 105.0738 255.0269 14.79933414 51830
KUIPER-00051            
1 64511U 25134M   26144.67875861  .00049983  00000+0  70269-2 0  9995
2 64511  51.8995 250.6462 0000639  43.0121 317.0890 14.76868978 51413
KUIPER-00053            
1 64513U 25134P   26146.24910906  .00002683  00000+0  36583-3 0  9990
2 64513  51.9002 239.6065 0001779 119.9635 240.1505 14.81663599 51709
KUIPER-00054            
1 64514U 25134Q   26146.23825021 -.00001534  00000+0 -17234-3 0  9991
2 64514  51.8973 235.1352 0000711  89.6959 270.4084 14.79923147 51762
KUIPER-00055            
1 64515U 25134R   26146.12076786  .00002305  00000+0  33163-3 0  9990
2 64515  51.9000 188.2738 0001535  74.6171 285.4961 14.79891441 52410
KUIPER-00056            
1 64516U 25134S   26146.26662712  .00003621  00000+0  50365-3 0  9991
2 64516  51.9024 240.0867 0000298  98.0557 262.0440 14.79939136 51708
KUIPER-00057            
1 64517U 25134T   26145.65075912  .00003373  00000+0  47109-3 0  9990
2 64517  51.8989 250.2531 0000457 113.2571 246.8439 14.79943434 51504
KUIPER-00058            
1 64518U 25134U   26146.29768558  .00002541  00000+0  36210-3 0  9994
2 64518  51.8990 242.3571 0000322 106.6727 253.4270 14.79936456 51674
KUIPER-00059            
1 64519U 25134V   26145.56022968  .00001953  00000+0  28505-3 0  9996
2 64519  51.8997 240.6628 0000988  89.5836 270.5239 14.79949908 51631
KUIPER-00060            
1 64520U 25134W   26146.26930571  .00003614  00000+0  50305-3 0  9993
2 64520  51.9008 237.5792 0000597  95.5288 264.5742 14.79914608 51729
KUIPER-00061            
1 64521U 25134X   26146.29457668  .00004068  00000+0  56322-3 0  9997
2 64521  51.9004 244.9235 0000191 144.2573 215.8402 14.79864651 51622
KUIPER-00062            
1 64522U 25134Y   26146.29230012  .00001126  00000+0  17661-3 0  9995
2 64522  51.8951 247.4353 0000229  92.2411 267.8578 14.79933560 51602
KUIPER-00063            
1 64523U 25134Z   26146.28418286  .00000007  00000+0  29975-4 0  9995
2 64523  51.9089 254.9948 0001897 257.7022 102.3728 14.79939910 51499
KUIPER-00064            
1 64524U 25134AA  26146.28689957  .00001989  00000+0  28980-3 0  9995
2 64524  51.9020 252.4076 0000363  92.5582 267.5422 14.79936825 51535
KUIPER-00065            
1 64525U 25134AB  26145.33610959  .00000363  00000+0  76578-4 0  9999
2 64525  51.9037 261.7779 0000542 118.4342 241.6676 14.79932466 51304
KUIPER-00066            
1 64526U 25134AC  26146.11255422  .00002218  00000+0  31982-3 0  9997
2 64526  51.9009 195.6305 0000295   1.0577 359.0386 14.79934792 52314
KUIPER-00069            
1 64816U 25151A   26145.42801724  .00003527  00000+0  49140-3 0  9992
2 64816  51.9018 301.2988 0000604 112.1562 247.9465 14.79936824 48125
KUIPER-00070            
1 64817U 25151B   26146.17749778  .00004254  00000+0  58590-3 0  9993
2 64817  51.8994 322.9043 0000747 127.8774 232.2256 14.79985736 47890
KUIPER-00071            
1 64818U 25151C   26145.77515516  .00001163  00000+0  18158-3 0  9992
2 64818  51.9006 322.2175 0000707 102.3183 257.7859 14.79936328 46683
KUIPER-00072            
1 64819U 25151D   26146.16812061  .00007151  00000+0  96537-3 0  9992
2 64819  51.8973 300.4397 0000505 194.7209 165.3739 14.79960534 47026
KUIPER-00073            
1 64820U 25151E   26145.87644821  .00001615  00000+0  24083-3 0  9994
2 64820  51.8987 321.7560 0000671 120.5093 239.5936 14.79937624 47884
KUIPER-00074            
1 64821U 25151F   26146.25829513  .00255902  00000+0  12495-2 0  9994
2 64821  51.8903 258.7322 0007916 304.2365  55.7890 15.81022112 47608
KUIPER-00075            
1 64822U 25151G   26145.86094627  .00047128  00000+0  10225-2 0  9999
2 64822  51.8677 205.5292 0002846 193.4722 166.6192 15.43916396 48315
KUIPER-00076            
1 64823U 25151H   26146.15735791  .00001446  00000+0  21859-3 0  9996
2 64823  51.9019 310.5324 0001009 133.6605 226.4441 14.79936587 46880
KUIPER-00077            
1 64824U 25151J   26145.74678329  .00003645  00000+0  50679-3 0  9999
2 64824  51.9022 317.3636 0000674 117.8240 242.2791 14.79939931 46758
KUIPER-00078            
1 64825U 25151K   26146.18842038  .00001830  00000+0  26894-3 0  9995
2 64825  51.9006 312.8916 0000621 121.8661 238.2362 14.79938952 46858
KUIPER-00079            
1 64826U 25151L   26145.94667125  .00003558  00000+0  49535-3 0  9997
2 64826  51.8998 318.9273 0000659 105.3636 254.7400 14.79938088 47948
KUIPER-00080            
1 64827U 25151M   26145.91290755  .00001533  00000+0  23005-3 0  9991
2 64827  51.8999 319.0854 0000677 120.3313 239.7717 14.79937970 46746
KUIPER-00082            
1 64828U 25151N   26146.16273680  .00004297  00000+0  59216-3 0  9991
2 64828  51.9015 305.5254 0000615 111.0475 249.0554 14.79946620 46957
KUIPER-00083            
1 64829U 25151P   26145.74945122 -.00001165  00000+0 -12381-3 0  9997
2 64829  51.9010 314.8380 0001089 107.4066 252.7015 14.79940146 47970
KUIPER-00084            
1 64830U 25151Q   26145.87374495  .00001306  00000+0  20035-3 0  9992
2 64830  51.9052 324.2736 0000572 102.2123 257.8903 14.79925533 46661
KUIPER-00085            
1 64831U 25151R   26146.12899244  .00002230  00000+0  32145-3 0  9998
2 64831  51.9028 305.7144 0000722 122.5759 237.5273 14.79938095 46942
KUIPER-00086            
1 64832U 25151S   26145.84807771  .00001359  00000+0  20716-3 0  9993
2 64832  51.9011 316.9118 0000817 126.3104 233.7934 14.79937032 46763
KUIPER-00087            
1 64833U 25151T   26146.13707060  .00003082  00000+0  43299-3 0  9993
2 64833  51.8989 298.1046 0000559 101.9712 258.1313 14.79941177 47044
KUIPER-00089            
1 64834U 25151U   26146.13168325  .00002223  00000+0  32041-3 0  9998
2 64834  51.9021 303.1451 0000667 105.8547 254.2489 14.79941436 46980
KUIPER-00090            
1 64835U 25151V   26146.13977030  .00002326  00000+0  33400-3 0  9994
2 64835  51.8979 295.6223 0000991 121.7398 238.3661 14.79936952 47089
KUIPER-00091            
1 64836U 25151W   26146.13429589  .00004289  00000+0  59458-3 0  9997
2 64836  51.9011 300.6452 0000559  98.5338 261.5688 14.79690343 47015
KUIPER-00092            
1 64837U 25151X   26145.85617255  .00001741  00000+0  25726-3 0  9996
2 64837  51.9020 309.3700 0000634 114.7066 245.3963 14.79937351 48088
KUIPER-00093            
1 64838U 25151Y   26146.19105361  .00002873  00000+0  40581-3 0  9998
2 64838  51.8998 310.3652 0000605  86.0072 274.0960 14.79915220 46889
KUIPER-00094            
1 64839U 25151Z   26146.25001157 -.00015968  00000+0 -14028-2 0  9991
2 64839  51.8936 265.9003 0005667 185.7104 248.6659 14.95607425  4747
KUIPER-00081            
1 65132U 25171A   26146.31375555  .00002400  00000+0  34366-3 0  9996
2 65132  51.8988 164.8200 0000403  66.8514 293.2491 14.79933973 44537
KUIPER-00088            
1 65133U 25171B   26146.29487569  .00002516  00000+0  35891-3 0  9995
2 65133  51.8985 182.4077 0000265  44.7947 315.3037 14.79939771 44280
KUIPER-00095            
1 65134U 25171C   26146.31645727  .00002428  00000+0  34726-3 0  9999
2 65134  51.8963 162.3676 0000468  77.7218 282.3797 14.79941953 44563
KUIPER-00096            
1 65135U 25171D   26146.26920271  .00002372  00000+0  33999-3 0  9993
2 65135  51.8979 175.0194 0000393  75.5231 284.5775 14.79935091 44381
KUIPER-00097            
1 65136U 25171E   26146.26651691 -.00000105  00000+0  15244-4 0  9998
2 65136  51.9001 177.6767 0000337  66.0667 294.0331 14.79931576 44332
KUIPER-00098            
1 65137U 25171F   26146.26380924 -.00000394  00000+0 -22700-4 0  9993
2 65137  51.8984 180.0587 0000366  70.0060 290.0942 14.79932639 43653
KUIPER-00099            
1 65138U 25171G   26146.24087178  .00002433  00000+0  34787-3 0  9998
2 65138  51.9004 170.1579 0000578  51.2097 308.8917 14.79949853 44449
KUIPER-00100            
1 65139U 25171H   26146.27728913 -.00000529  00000+0 -40453-4 0  9995
2 65139  51.8991 167.4699 0000380  76.1063 283.9941 14.79931128 44486
KUIPER-00102            
1 65140U 25171J   26146.27457257 -.00003815  00000+0 -47170-3 0  9990
2 65140  51.8969 169.9854 0000317  58.7898 301.3095 14.79931427 44448
KUIPER-00103            
1 65141U 25171K   26146.28948250  .00002645  00000+0  37579-3 0  9990
2 65141  51.8979 187.4144 0000320  84.9419 275.1580 14.79935479 44203
KUIPER-00104            
1 65142U 25171L   26146.30296076  .00000183  00000+0  52949-4 0  9990
2 65142  51.8999 174.8405 0000358  69.3943 290.7058 14.79931431 44382
KUIPER-00105            
1 65143U 25171M   26146.26096900 -.00020489  00000+0 -26649-2 0  9999
2 65143  51.8999 182.6316 0001366 134.1496 225.9579 14.79961603 44275
KUIPER-00106            
1 65144U 25171N   26146.26709561  .00003963  00000+0  36367-3 0  9999
2 65144  51.8922 162.3917 0008319   3.1283 356.9737 14.96895225 44566
KUIPER-00107            
1 65145U 25171P   26146.27999860  .00002123  00000+0  30743-3 0  9993
2 65145  51.8991 164.9907 0000387  74.6218 285.4787 14.79931644 44522
KUIPER-00108            
1 65146U 25171Q   26146.30027557 -.00000435  00000+0 -28077-4 0  9997
2 65146  51.9010 177.4309 0000382  59.7226 300.3774 14.79931440 44357
KUIPER-00109            
1 65147U 25171R   26146.27189706  .00002377  00000+0  34063-3 0  9995
2 65147  51.9009 172.4978 0000395  55.6641 304.4359 14.79934431 44417
KUIPER-00110            
1 65148U 25171S   26146.29217569  .00002586  00000+0  36811-3 0  9992
2 65148  51.8991 184.9776 0000669  97.1145 262.9894 14.79923639 44235
KUIPER-00111            
1 65149U 25171T   26146.11795572 -.00000067  00000+0  20152-4 0  9994
2 65149  51.8950 190.6387 0000421  85.4580 274.6431 14.79932021 44144
KUIPER-00112            
1 65150U 25171U   26146.30291495  .00002319  00000+0  33157-3 0  9991
2 65150  51.9004 172.3836 0000701 330.8397  29.2527 14.80134663 44415
KUIPER-00114            
1 65151U 25171V   26145.84515256  .00000359  00000+0  76022-4 0  9995
2 65151  51.8970 194.4168 0000350  84.1956 275.9046 14.79932707 44060
KUIPER-00115            
1 65152U 25171W   26146.25837401  .00002390  00000+0  34213-3 0  9993
2 65152  51.8997 185.0815 0001248 128.9118 231.1956 14.79965208 44234
KUIPER-00116            
1 65153U 25171X   26146.28679421  .00002720  00000+0  38562-3 0  9991
2 65153  51.8988 189.9964 0000344  83.8134 276.2867 14.79934198 44163
KUIPER-00118            
1 65154U 25171Y   26146.28405910 -.00003634  00000+0 -44776-3 0  9993
2 65154  51.8980 192.4622 0000541  82.4061 277.6963 14.79951907 44135
KUIPER-00119            
1 65155U 25171Z   26143.53944020  .00040682  00000+0  53720-2 0  9999
2 65155  51.9002 192.2951 0001280 103.5757 256.5348 14.79627262 43892
KUIPER-00120            
1 65762U 25217A   26146.06168068 -.00000166  00000+0  72873-5 0  9992
2 65762  51.8986  70.9198 0000793  99.8723 260.2329 14.79930311 36197
KUIPER-00132            
1 65763U 25217B   26145.85542632  .00024670  00000+0  57795-3 0  9991
2 65763  51.8576 348.1697 0005681 232.1336 127.9139 15.41940729 37328
KUIPER-00133            
1 65764U 25217C   26146.16298582  .00004576  00000+0  62862-3 0  9993
2 65764  51.9037  70.5593 0000797  87.6898 272.4156 14.79946307 36212
KUIPER-00139            
1 65765U 25217D   26146.25001157  .00005441  00000+0  45367-3 0  9997
2 65765  51.8882  38.5734 0008138 203.9343 340.1664 14.99978936  5450
KUIPER-00142            
1 65766U 25217E   26145.94550457  .00003995  00000+0  55266-3 0  9996
2 65766  51.9001  53.9600 0000855  95.0886 265.0174 14.79936175 36427
KUIPER-00145            
1 65767U 25217F   26146.14539453  .00004706  00000+0  64570-3 0  9992
2 65767  51.9006  55.5944 0000798 100.6979 259.4074 14.79940457 36417
KUIPER-00147            
1 65768U 25217G   26145.97387861  .00000155  00000+0  49409-4 0  9996
2 65768  51.8996  58.8400 0001200  78.1360 281.9737 14.79931602 36351
KUIPER-00148            
1 65769U 25217H   26146.06937764  .00003032  00000+0  46862-3 0  9997
2 65769  51.9053  39.6064 0001039 105.9868 254.1207 14.75850568 36634
KUIPER-00150            
1 65770U 25217J   26146.16567888  .00004617  00000+0  63404-3 0  9997
2 65770  51.9011  68.0145 0000826  96.4729 263.6327 14.79944317 36244
KUIPER-00151            
1 65771U 25217K   26146.17376598  .00004686  00000+0  64305-3 0  9992
2 65771  51.9016  60.4763 0001058  82.2638 277.8445 14.79948903 36357
KUIPER-00152            
1 65772U 25217L   26146.01842964  .00002237  00000+0  32226-3 0  9998
2 65772  51.9011  48.6506 0001026  90.0006 270.1074 14.79940181 36508
KUIPER-00153            
1 65773U 25217M   26146.09150228  .00003965  00000+0  54886-3 0  9997
2 65773  51.9036  43.3952 0000993 110.2705 249.8364 14.79928901 36585
KUIPER-00155            
1 65774U 25217N   26145.91842772  .00000312  00000+0  69902-4 0  9999
2 65774  51.9044  16.6237 0000978 125.6802 234.4251 14.79938993 36942
KUIPER-00156            
1 65775U 25217P   26146.12512200  .00002014  00000+0  29304-3 0  9996
2 65775  51.9033  43.2267 0000791 103.2076 256.8975 14.79938861 36583
KUIPER-00163            
1 65777U 25217R   26146.13633471  .00147504  00000+0  70435-3 0  9998
2 65777  51.8953  20.1299 0002358 177.4746 182.6272 15.81853754 36905
KUIPER-00165            
1 65778U 25217S   26146.18185464  .00004725  00000+0  64812-3 0  9997
2 65778  51.9020  52.9302 0000997  92.0355 268.0722 14.79945623 36457
KUIPER-00166            
1 65779U 25217T   26146.09404922  .00000765  00000+0  12936-3 0  9991
2 65779  51.9040  40.8601 0000826 104.5237 255.5817 14.79937251 36619
KUIPER-00167            
1 65780U 25217U   26145.96847104  .00003712  00000+0  51550-3 0  9991
2 65780  51.8972  63.8051 0000806  96.7855 263.3199 14.79942559 36284
KUIPER-00168            
1 65781U 25217V   26145.98736357  .00001404  00000+0  21320-3 0  9999
2 65781  51.9012  46.2940 0000887 102.0596 258.0466 14.79932291 36533
KUIPER-00169            
1 65782U 25217W   26146.18455252  .00004893  00000+0  67008-3 0  9993
2 65782  51.9023  50.4293 0000870  96.1254 263.9807 14.79947791 36490
KUIPER-00170            
1 65783U 25217X   26146.17915129  .00004632  00000+0  63613-3 0  9996
2 65783  51.8994  55.4220 0000796 100.5116 259.5937 14.79938229 36420
KUIPER-00172            
1 65785U 25217Z   26146.08834651  .00002152  00000+0  33536-3 0  9994
2 65785  51.8998  38.2648 0000979 175.1130 184.9841 14.76658059 36653
KUIPER-00173            
1 65786U 25217AA  26145.94820102  .00003599  00000+0  50076-3 0  9999
2 65786  51.9013  51.4727 0001229  78.4445 281.6655 14.79941069 36456
KUIPER-00174            
1 65787U 25217AB  26146.02113431  .00001362  00000+0  20759-3 0  9991
2 65787  51.9032  46.1859 0001093 108.0350 252.0732 14.79936095 36539
KUIPER-00176            
1 65788U 25217AC  26146.20753446  .00001659  00000+0  24652-3 0  9993
2 65788  51.9009  60.3134 0000842 102.1028 258.0029 14.79936074 36358
KUIPER-00101            
1 65947U 25228A   26146.08454606  .00001979  00000+0  28852-3 0  9995
2 65947  51.8995  18.3236 0000935 104.6227 255.4839 14.79938540 34690
KUIPER-00113            
1 65948U 25228B   26145.92111670  .00000833  00000+0  13833-3 0  9990
2 65948  51.8990  14.0643 0000972 102.6694 257.4377 14.79932358 34733
KUIPER-00117            
1 65949U 25228C   26146.08724123  .00001054  00000+0  16724-3 0  9990
2 65949  51.8997  15.8312 0000879 105.6144 254.4916 14.79934405 34722
KUIPER-00121            
1 65950U 25228D   26145.92381356  .00000264  00000+0  63687-4 0  9994
2 65950  51.8993  11.5590 0001137 105.3325 254.7763 14.79935693 34775
KUIPER-00122            
1 65951U 25228E   26146.04803885 -.00006042  00000+0 -76403-3 0  9996
2 65951  51.8999  20.9858 0001209  97.3551 262.7549 14.79942418 34655
KUIPER-00123            
1 65952U 25228F   26146.01433628  .00003918  00000+0  54251-3 0  9992
2 65952  51.8997  21.1503 0000941  92.1884 267.9186 14.79940401 34641
KUIPER-00124            
1 65953U 25228G   26145.88734629  .00000546  00000+0  10069-3 0  9995
2 65953  51.9002  14.2003 0000768 106.2100 253.8947 14.79923841 34731
KUIPER-00125            
1 65954U 25228H   26145.97105911  .00003705  00000+0  51456-3 0  9997
2 65954  51.9014 358.8668 0000842 109.1969 250.9085 14.79943931 34954
KUIPER-00126            
1 65955U 25228J   26146.05078015  .00001917  00000+0  28035-3 0  9992
2 65955  51.9004  18.5054 0000729 103.3934 256.7110 14.79938344 34680
KUIPER-00127            
1 65956U 25228K   26146.04198379  .00001440  00000+0  21778-3 0  9996
2 65956  51.9019  11.0077 0001244 112.6383 247.4711 14.79938636 34794
KUIPER-00128            
1 65957U 25228L   26145.89004935  .00003637  00000+0  50567-3 0  9991
2 65957  51.9030  11.7438 0000853 108.6777 251.4279 14.79942969 34768
KUIPER-00129            
1 65958U 25228M   26145.79415034  .00000343  00000+0  74003-4 0  9990
2 65958  51.9011   7.1503 0000904 105.3699 254.7363 14.79934442 34828
KUIPER-00130            
1 65959U 25228N   26145.89275412  .00000938  00000+0  15199-3 0  9996
2 65959  51.9041   9.2376 0000823 104.0186 256.0868 14.79930639 25098
KUIPER-00134            
1 65960U 25228P   26146.01811503  .00030979  00000+0  75385-3 0  9991
2 65960  51.8744 305.1239 0005980 226.0928 133.9566 15.40665509 35700
KUIPER-00135            
1 65961U 25228Q   26146.06158119  .00000897  00000+0  14662-3 0  9991
2 65961  51.9029   8.5482 0000840 109.2529 250.8524 14.79934140 34827
KUIPER-00136            
1 65962U 25228R   26145.89554885  .00003504  00000+0  48644-3 0  9997
2 65962  51.9019   6.7448 0001072  66.4513 293.6562 14.80110884 34835
KUIPER-00137            
1 65963U 25228S   26145.89814630  .00001203  00000+0  18680-3 0  9996
2 65963  51.9042   4.2140 0000678 111.5797 248.5238 14.79932117 34873
KUIPER-00138            
1 65964U 25228T   26145.86707195  .00001432  00000+0  21684-3 0  9993
2 65964  51.9007   1.8024 0000749 114.0767 246.0274 14.79935509 34908
KUIPER-00140            
1 65965U 25228U   26145.86437836  .00003558  00000+0  49538-3 0  9995
2 65965  51.9003   4.4010 0000732 108.0307 252.0735 14.79942763 34868
KUIPER-00141            
1 65966U 25228V   26146.27494070  .00004195  00000+0  57863-3 0  9993
2 65966  51.9038 357.6246 0000743 109.7421 250.3621 14.79954944 34991
KUIPER-00146            
1 65967U 25228W   26146.03589826  .00000079  00000+0  39367-4 0  9999
2 65967  51.9044   1.1911 0000800 116.6355 243.4689 14.79932710 34923
KUIPER-00149            
1 65968U 25228X   26146.27763833  .00002827  00000+0  39962-3 0  9991
2 65968  51.9018 355.0161 0000754 107.9795 252.1249 14.79937207 35030
KUIPER-00154            
1 65969U 25228Y   26145.97645687  .00001084  00000+0  17118-3 0  9997
2 65969  51.9012 353.8442 0000697 106.8317 253.2722 14.79937100 35026
KUIPER-00157            
1 65970U 25228Z   26145.97376851  .00003867  00000+0  53596-3 0  9994
2 65970  51.9035 356.4827 0000646 107.4387 252.6647 14.79928676 34988
KUIPER-00144            
1 67133U 25301A   26146.06865176  .00001861  00000+0  29569-3 0  9998
2 67133  51.9013  73.1942 0001127  57.0448 303.0621 14.76425978 25337
KUIPER-00164            
1 67134U 25301B   26146.22642781  .00002607  00000+0  40120-3 0  9997
2 67134  51.9031  83.9753 0001138 138.8688 221.2359 14.76502030 25371
KUIPER-00175            
1 67135U 25301C   26146.19874202  .00005340  00000+0  54237-3 0  9990
2 67135  51.8952  71.3029 0001068  54.5347 305.5720 14.92202842 25440
KUIPER-00179            
1 67136U 25301D   26146.08197591  .00001397  00000+0  21215-3 0  9996
2 67136  51.8971  83.3673 0000679  94.9456 265.1583 14.79935746 25377
KUIPER-00181            
1 67137U 25301E   26146.27109137 -.00000278  00000+0 -74015-5 0  9994
2 67137  51.9006  95.0500 0001650  82.7108 277.4042 14.79941940 25207
KUIPER-00183            
1 67138U 25301F   26146.17467656  .00005277  00000+0  53099-3 0  9996
2 67138  51.8944  72.2606 0009113 330.4777  29.5675 14.92584569 25527
KUIPER-00184            
1 67139U 25301G   26146.17218265  .00002473  00000+0  38255-3 0  9999
2 67139  51.8992  77.7981 0001808 122.5376 237.5760 14.76461032 25555
KUIPER-00186            
1 67140U 25301H   26146.23726434  .00002253  00000+0  32454-3 0  9991
2 67140  51.9017  95.2098 0000636 102.5799 257.5235 14.79917281 25043
KUIPER-00187            
1 67141U 25301J   26146.16709527  .00003700  00000+0  51406-3 0  9994
2 67141  51.9021  98.0403 0000712  90.1620 269.9424 14.79934519 24993
KUIPER-00188            
1 67142U 25301K   26146.25001157  .00019818  00000+0  26150-2 0  9993
2 67142  51.9025  65.2631 0001145 103.2393 332.1102 14.80028986  5776
KUIPER-00191            
1 67143U 25301L   26146.20894402  .00004334  00000+0  59657-3 0  9998
2 67143  51.9003  90.3539 0000852  67.5060 292.5993 14.79970163 25136
KUIPER-00196            
1 67144U 25301M   26146.26240222 -.00075619  00000+0 -27207-2 0  9991
2 67144  51.8785  49.8596 0000590 294.6839  65.4082 15.28284539 25676
KUIPER-00204            
1 67145U 25301N   26146.25001157  .00035188  00000+0  28398-2 0  9990
2 67145  51.9010  63.2599 0001582 354.7770 277.4137 14.99534440  5878
KUIPER-00210            
1 67146U 25301P   26146.24271101  .00000713  00000+0  12246-3 0  9990
2 67146  51.8996  90.1621 0000811  75.2525 284.8527 14.79935366 25285
KUIPER-00221            
1 67147U 25301Q   26146.13332771  .00003093  00000+0  43451-3 0  9996
2 67147  51.9009  98.1619 0000794  75.7732 284.3319 14.79939416 24993
KUIPER-00232            
1 67148U 25301R   26146.11574229  .00003280  00000+0  45949-3 0  9993
2 67148  51.8993  83.2739 0001218  87.2221 272.8881 14.79896468 25194
KUIPER-00241            
1 67149U 25301S   26146.13872102 -.00000585  00000+0 -47728-4 0  9992
2 67149  51.9018  93.1535 0000885  88.9903 271.1161 14.79929746 25393
KUIPER-00245            
1 67150U 25301T   26146.26565393  .00003753  00000+0  52062-3 0  9993
2 67150  51.9018 100.1052 0000871  63.7009 296.4043 14.79964771 24970
KUIPER-00246            
1 67151U 25301U   26146.24810310 -.00001368  00000+0 -15041-3 0  9992
2 67151  51.9002  85.1460 0000842  78.0504 282.0553 14.79940448 25205
KUIPER-00247            
1 67152U 25301V   26146.19156056  .00004260  00000+0  58732-3 0  9993
2 67152  51.8960  75.3900 0000939  84.3700 275.7370 14.79943049 25311
KUIPER-00248            
1 67153U 25301W   26146.25001157  .00003740  00000+0  51380-3 0  9996
2 67153  51.8991  56.9933 0001685  80.4662 163.1116 14.80390344  5637
KUIPER-00249            
1 67154U 25301X   26146.19403658  .00004369  00000+0  60193-3 0  9992
2 67154  51.8999  72.9191 0000875  77.2874 282.8187 14.79917982 25347
KUIPER-00250            
1 67155U 25301Y   26146.21165741  .00004129  00000+0  56953-3 0  9997
2 67155  51.8988  87.7977 0001151  72.8191 287.2897 14.79990588 25174
KUIPER-00251            
1 67156U 25301Z   26146.22512116  .00004237  00000+0  58434-3 0  9997
2 67156  51.9008  75.2979 0001661 150.5417 209.5639 14.79938082 25503
KUIPER-00252            
1 67157U 25301AA  26146.22241128  .00004428  00000+0  60917-3 0  9991
2 67157  51.9002  77.7615 0000606  80.5465 279.5565 14.79951134 25288
KUIPER-00261            
1 67158U 25301AB  26146.24538800  .00001317  00000+0  20172-3 0  9993
2 67158  51.9029  87.7054 0000818 105.5359 254.5694 14.79940285 25147
KUIPER-00265            
1 67159U 25301AC  26146.12793737  .00001405  00000+0  21325-3 0  9992
2 67159  51.9008 103.1978 0000745  74.6100 285.4945 14.79934836 24957
KUIPER-00159            
1 67764U 26030A   26145.88167579  .00021742  00000+0  58338-3 0  9995
2 67764  51.8827 206.2750 0006400 330.0047  30.0573 15.37874196 16963
KUIPER-00160            
1 67765U 26030B   26146.14555485  .00014197  00000+0  38405-3 0  9992
2 67765  51.8805 205.0042 0006259 339.0657  21.0073 15.37946216 17003
KUIPER-00177            
1 67766U 26030C   26146.20987425  .00003834  00000+0  53165-3 0  9999
2 67766  51.9000 230.3269 0000545  91.4152 268.6873 14.79928431 16656
KUIPER-00178            
1 67767U 26030D   26146.25824994  .00002079  00000+0  32652-3 0  9994
2 67767  51.8990 229.5527 0000408 102.3669 257.7338 14.76455625 16678
KUIPER-00180            
1 67768U 26030E   26146.24903526  .00000439  00000+0  86610-4 0  9995
2 67768  51.8973 225.1494 0000749 113.6998 246.4043 14.79934777 16731
KUIPER-00197            
1 67769U 26030F   26146.25001157 -.00017697  00000+0 -12022-2 0  9996
2 67769  51.8960 206.0031 0003169 347.6909 201.1745 15.05433063  4964
KUIPER-00198            
1 67770U 26030G   26146.22333837  .00003307  00000+0  46268-3 0  9999
2 67770  51.8972 217.7623 0000374  97.1153 262.9852 14.79926612 16838
KUIPER-00199            
1 67771U 26030H   26146.18017948  .00030515  00000+0  87936-3 0  9995
2 67771  51.8792 205.9600 0011604 340.3548  19.6989 15.35411558 16998
KUIPER-00200            
1 67772U 26030J   26145.90674753  .00010031  00000+0  49009-3 0  9998
2 67772  51.8837 211.4153 0002816  22.0935 338.0165 15.18819981 16899
KUIPER-00203            
1 67773U 26030K   26146.27197956  .00004037  00000+0  55766-3 0  9991
2 67773  51.9059 235.0694 0000348 119.7950 240.3048 14.79973408 16591
KUIPER-00205            
1 67774U 26030L   26146.25001157 -.00006432  00000+0 -21857-3 0  9994
2 67774  51.8838 204.2098 0003149 309.5506  75.5885 15.28146368  5609
KUIPER-00208            
1 67775U 26030M   26145.92307645  .00001674  00000+0  26858-3 0  9996
2 67775  51.8966 227.8553 0007019 328.3772  31.6767 14.76532520 16664
KUIPER-00209            
1 67776U 26030N   26145.94511151  .00002598  00000+0  36976-3 0  9996
2 67776  51.8982 226.5791 0000440 169.9771 190.1200 14.79918534 16683
KUIPER-00213            
1 67777U 26030P   26146.25171056  .00000672  00000+0  11722-3 0  9991
2 67777  51.8952 222.7224 0001102  62.9447 297.1628 14.79915809 16761
KUIPER-00214            
1 67778U 26030Q   26146.22067955  .00003311  00000+0  46286-3 0  9997
2 67778  51.8980 220.3497 0000371 110.9115 249.1887 14.79959331 16797
KUIPER-00215            
1 67779U 26030R   26146.25001157 -.01740645  00000+0 -13175+0 0  9991
2 67779  51.8948 207.6815 0010220 349.4372 181.7278 15.05242595  5545
KUIPER-00218            
1 67780U 26030S   26146.24504294  .00001820  00000+0  28967-3 0  9993
2 67780  51.8969 222.2454 0000857  93.2118 266.8940 14.76463341 16778
KUIPER-00220            
1 67781U 26030T   26146.25001157 -.01723308  00000+0 -73819-1 0  9994
2 67781  51.8860 205.6564 0008378 343.4028  19.0765 15.25662233  5746
KUIPER-00222            
1 67782U 26030U   26146.18967930  .00012147  00000+0  16195-2 0  9991
2 67782  51.8996 218.0590 0000283 280.4834  79.6096 14.79931316 16825
KUIPER-00223            
1 67783U 26030V   26146.25001157 -.00013174  00000+0 -14716-2 0  9990
2 67783  51.9012 210.0193 0008940   3.6818 119.3418 14.85895792  5813
KUIPER-00225            
1 67784U 26030W   26146.19446957  .00001878  00000+0  29812-3 0  9995
2 67784  51.8972 215.1699 0002923 356.5520   3.5421 14.76433390 16867
KUIPER-00226            
1 67785U 26030X   26146.16611992  .00010854  00000+0  45972-3 0  9995
2 67785  51.8887 210.9768 0018912 344.1685  15.8703 15.23517485 16920
KUIPER-00259            
1 67786U 26030Y   26146.15643463  .00001812  00000+0  28913-3 0  9993
2 67786  51.8981 215.1962 0001500 105.0167 255.0960 14.76359635 16867
KUIPER-00260            
1 67787U 26030Z   26146.21692049  .00001771  00000+0  28310-3 0  9990
2 67787  51.9001 212.4134 0002117 132.4295 227.6845 14.76393721 16810
KUIPER-00262            
1 67788U 26030AA  26146.16118249  .00063815  00000+0  83398-2 0  9993
2 67788  51.8996 213.0471 0001111 112.6514 247.4566 14.79835665 16890
KUIPER-00266            
1 67789U 26030AB  26146.25001157 -.00013109  00000+0 -94755-3 0  9996
2 67789  51.8919 211.1890 0020891 352.3263 139.0656 15.02695199  5583
KUIPER-00268            
1 67790U 26030AC  26146.25001157 -.00092302  00000+0 -93519-2 0  9996
2 67790  51.8998 207.9373 0004550  16.1399 289.0920 14.90946360  4720
KUIPER-00270            
1 67791U 26030AD  26146.16139217  .00025490  00000+0  72117-3 0  9990
2 67791  51.8809 205.8362 0010439 341.0563  19.0033 15.36098511 16998
KUIPER-00274            
1 67792U 26030AE  26146.22509467  .00002008  00000+0  31727-3 0  9998
2 67792  51.8996 219.9485 0004057   8.0655 352.0370 14.76350971 16807
KUIPER-00275            
1 67793U 26030AF  26146.25001157 -.00619598  00000+0 -21254-1 0  9997
2 67793  51.8863 205.3786 0010330 325.5670 192.9795 15.31788843  5770
KUIPER-00276            
1 67794U 26030AG  26145.89909267  .00010351  00000+0  43457-3 0  9997
2 67794  51.8823 212.1968 0018049 317.7392  42.2197 15.23883188 16880
KUIPER-00279            
1 67795U 26030AH  26145.87453394  .00008017  00000+0  23966-3 0  9990
2 67795  51.8794 206.9121 0007580 326.3074  33.7430 15.35471886 16955
KUIPER-00131            
1 68573U 26072A   26146.14253091  .00008457  00000+0  11361-2 0  9997
2 68573  51.8991 293.1286 0001560 133.6407 226.4685 14.79962988  7857
KUIPER-00189            
1 68574U 26072B   26146.13147106  .00002861  00000+0  43910-3 0  9995
2 68574  51.8989 295.2380 0000906 234.9207 125.1668 14.76325441  7826
KUIPER-00192            
1 68575U 26072C   26146.25001157  .00009257  00000+0  12376-2 0  9991
2 68575  51.8997 290.1538 0001487  76.9204 121.5740 14.80070713  4340
KUIPER-00193            
1 68576U 26072D   26146.25001157 -.01087151  00000+0 -47160-1 0  9992
2 68576  51.8819 283.2621 0002498 276.3623  43.8991 15.24870693  5297
KUIPER-00194            
1 68577U 26072E   26146.25001157  .00035735  00000+0  39270-2 0  9995
2 68577  51.8983 287.7772 0002742 302.5862 354.1928 14.87303585  5124
KUIPER-00229            
1 68578U 26072F   26146.13622364  .00002546  00000+0  39391-3 0  9991
2 68578  51.9016 292.7373 0002318 140.7652 219.3477 14.76354884  7864
KUIPER-00230            
1 68579U 26072G   26146.09171136  .00014295  00000+0  39292-3 0  9997
2 68579  51.8758 283.5962 0001331 345.2239  14.8709 15.37457047  7988
KUIPER-00231            
1 68580U 26072H   26146.08697511  .00033520  00000+0  90995-3 0  9997
2 68580  51.8753 283.5664 0002093 305.7314  54.3478 15.37285960  7980
KUIPER-00234            
1 68581U 26072J   26146.25001157 -.00032002  00000+0 -34691-2 0  9998
2 68581  51.8977 286.7317 0006427 357.9723 307.3277 14.87673626  5235
KUIPER-00236            
1 68582U 26072K   26145.77434274  .00032939  00000+0  90706-3 0  9992
2 68582  51.8776 285.2202 0002745 271.1928  88.8744 15.36849300  7931
KUIPER-00244            
1 68583U 26072L   26146.25001157  .00056502  00000+0  17258-2 0  9999
2 68583  51.8768 282.7946 0002778 312.5861 228.3331 15.33344074  5905
KUIPER-00253            
1 68584U 26072M   26146.25001157 -.02151629  00000+0 -10802+0 0  9995
2 68584  51.8773 283.4672 0007046 313.9791 210.0618 15.20596328  4548
KUIPER-00254            
1 68585U 26072N   26146.25001157 -.00044246  00000+0 -27315-2 0  9990
2 68585  51.8889 284.5323 0008166 308.9690  29.8362 15.09406481  5559
KUIPER-00263            
1 68586U 26072P   26145.76296347  .00037010  00000+0  98888-3 0  9996
2 68586  51.8769 285.1449 0000574  75.4228 284.6823 15.37730039  7938
KUIPER-00269            
1 68587U 26072Q   26146.09163091  .00030960  00000+0  80831-3 0  9999
2 68587  51.8738 283.5921 0004445 287.4924  72.5578 15.38524678  7988
KUIPER-00272            
1 68588U 26072R   26146.25001157  .00019546  00000+0  25852-2 0  9990
2 68588  51.8976 290.1512 0000891 119.0558 259.7994 14.79937690  5588
KUIPER-00285            
1 68589U 26072S   26145.77524368  .00040956  00000+0  10699-2 0  9993
2 68589  51.8750 285.2175 0006701 291.0674  68.9597 15.38358293  7937
KUIPER-00286            
1 68590U 26072T   26146.08816438  .00039413  00000+0  10204-2 0  9990
2 68590  51.8739 283.5697 0004807 287.5720  72.4742 15.38663084  7987
KUIPER-00289            
1 68591U 26072U   26146.08257066  .00013776  00000+0  39086-3 0  9991
2 68591  51.8678 284.2293 0011606 314.8839  45.1205 15.36446492  7970
KUIPER-00290            
1 68592U 26072V   26146.08437007  .00023783  00000+0  66892-3 0  9991
2 68592  51.8646 284.2349 0013547 300.0620  59.9022 15.36286715  7979
KUIPER-00293            
1 68593U 26072W   26146.25001157 -.00016667  00000+0 -14036-2 0  9991
2 68593  51.8895 285.8716 0013392 322.8644  48.5640 14.97205284  1306
KUIPER-00294            
1 68594U 26072X   26146.07821619  .00024583  00000+0  68516-3 0  9992
2 68594  51.8740 284.2098 0011827 308.5268  51.4657 15.36572216  7972
KUIPER-00296            
1 68595U 26072Y   26145.66851187  .00029098  00000+0  78401-3 0  9990
2 68595  51.8709 285.9841 0009992 299.0164  60.9821 15.37547219  7919
KUIPER-00297            
1 68596U 26072Z   26146.25001157  .00047176  00000+0  28847-2 0  9996
2 68596  51.8799 285.1417 0008269 310.2023 171.4035 15.09759423  4627
KUIPER-00300            
1 68597U 26072AA  26146.25001157 -.01585400  00000+0 -72143-1 0  9994
2 68597  51.8785 283.8373 0008614 309.0454  81.0450 15.23376043  4117
KUIPER-00301            
1 68598U 26072AB  26145.80087274  .00027792  00000+0  74644-3 0  9991
2 68598  51.8666 285.3469 0008870 303.8785  56.1357 15.37680794  7930
KUIPER-00304            
1 68599U 26072AC  26145.67635432  .00034462  00000+0  93154-3 0  9991
2 68599  51.8670 286.0198 0010215 304.6599  55.3424 15.37358516  7919
KUIPER-00317            
1 68600U 26072AD  26145.99260791  .00040532  00000+0  10830-2 0  9995
2 68600  51.8705 284.4007 0009503 300.3316  59.6731 15.37645544  7963
KUIPER-00320            
1 68601U 26072AE  26146.09119781 -.00030484  00000+0 -84776-3 0  9998
2 68601  51.8618 284.2630 0009838 341.2491  18.8131 15.35989473  7978
KUIPER-00299            
1 68864U 26095A   26146.25001157 -.01961124  00000+0 -98220-1 0  9991
2 68864  51.8805 349.3361 0009039 227.3658  51.7820 15.20307579  5067
KUIPER-00353            
1 68865U 26095B   26146.28949104  .00018065  00000+0  47341-3 0  9992
2 68865  51.8856 348.0302 0000668 183.3611 176.7372 15.38745389  4360
KUIPER-00357            
1 68866U 26095C   26145.84323439  .00029645  00000+0  77683-3 0  9999
2 68866  51.8832 350.2892 0003379 181.9288 178.1687 15.38437793  4294
KUIPER-00364            
1 68867U 26095D   26146.25001157 -.00030959  00000+0 -86856-3 0  9990
2 68867  51.8824 348.3834 0003401 197.9234 227.7981 15.35777100  4333
KUIPER-00375            
1 68868U 26095E   26146.29123535  .00038852  00000+0  10023-2 0  9990
2 68868  51.8844 348.0459 0001282 197.5410 162.5534 15.38787344  4360
KUIPER-00433            
1 68869U 26095F   26146.25001157 -.01780204  00000+0 -14221+0 0  9991
2 68869  51.8867 350.8493 0007203 234.1748  98.1283 15.03356723  4322
KUIPER-00437            
1 68870U 26095G   26146.25396503  .00030986  00000+0  84314-3 0  9991
2 68870  51.8799 348.5353 0007627 214.8761 145.1727 15.37229417  4352
KUIPER-00448            
1 68871U 26095H   26145.84634754  .00029268  00000+0  77293-3 0  9998
2 68871  51.8840 350.3112 0003242 198.1553 161.9319 15.38205401  4290
KUIPER-00459            
1 68872U 26095J   26145.81740241  .00035200  00000+0  10046-2 0  9990
2 68872  51.8731 350.8365 0010745 220.2710 139.7481 15.35653332  4282
KUIPER-00468            
1 68873U 26095K   26145.98140056  .00031043  00000+0  82724-3 0  9991
2 68873  51.8828 349.7150 0005074 199.7297 160.3494 15.37889703  4311
KUIPER-00476            
1 68874U 26095L   26146.26751411  .00024915  00000+0  70576-3 0  9999
2 68874  51.8747 348.6109 0007883 215.7209 144.3250 15.36095285  4355
KUIPER-00478            
1 68875U 26095M   26146.25972823  .00042687  00000+0  11668-2 0  9993
2 68875  51.8780 348.5673 0007910 226.1343 133.8991 15.36931933  4358
KUIPER-00480            
1 68876U 26095N   26145.92529335  .00021870  00000+0  59480-3 0  9999
2 68876  51.8771 350.0789 0006263 205.1498 154.9184 15.37452757  4309
KUIPER-00482            
1 68877U 26095P   26145.96932065  .00034661  00000+0  89973-3 0  9994
2 68877  51.8858 349.6357 0002123 184.6739 175.4229 15.38651770  4317
KUIPER-00483            
1 68878U 26095Q   26146.25001157 -.00031773  00000+0 -20248-2 0  9999
2 68878  51.8920 350.2793 0010423 238.4511 279.4039 15.08072280  4413
KUIPER-00488            
1 68879U 26095R   26146.27611790  .00026472  00000+0  75787-3 0  9999
2 68879  51.8690 348.6504 0010569 230.0959 129.9099 15.35704163  4354
KUIPER-00489            
1 68880U 26095S   26146.26841106  .00026477  00000+0  75244-3 0  9999
2 68880  51.8768 348.6196 0009882 226.4197 133.5970 15.35941842  4354
KUIPER-00499            
1 68881U 26095T   26146.27602135  .00023024  00000+0  66866-3 0  9993
2 68881  51.8707 348.6562 0007639 218.4722 141.5720 15.35361985  4354
KUIPER-00500            
1 68882U 26095U   26146.25001157 -.02201329  00000+0 -13300+0 0  9990
2 68882  51.8871 349.5125 0004565 220.2468  40.6921 15.13698164  5570
KUIPER-00502            
1 68883U 26095V   26145.98546688  .00027240  00000+0  73139-3 0  9997
2 68883  51.8814 349.7373 0005748 207.5781 152.4902 15.37722793  4319
KUIPER-00503            
1 68884U 26095W   26146.25001157 -.00010086  00000+0 -36521-3 0  9992
2 68884  51.8824 348.8973 0006345 221.0650 319.2670 15.26759616  4921
KUIPER-00504            
1 68885U 26095X   26146.25001157 -.01167045  00000+0 -11623+0 0  9994
2 68885  51.9237 352.7281 0011862 246.0548 253.1930 14.94041876  4718
KUIPER-00505            
1 68886U 26095Y   26146.25001157 -.00004161  00000+0 -11439-3 0  9992
2 68886  51.8834 348.4238 0004147 194.5406 200.8203 15.33711960  5134
KUIPER-00507            
1 68887U 26095Z   26146.25001157 -.00005158  00000+0 -12829-3 0  9994
2 68887  51.8854 348.2367 0001043  90.4930  45.1854 15.37358922  3517
KUIPER-00511            
1 68888U 26095AA  26145.99164496  .00037234  00000+0  10060-2 0  9993
2 68888  51.8789 349.7747 0006911 214.0605 145.9939 15.37363221  4315
KUIPER-00512            
1 68889U 26095AB  26146.25001157 -.01749610  00000+0 -76796-1 0  9996
2 68889  51.8858 348.7978 0003330 210.5167 344.0499 15.24970955  5446
KUIPER-00519            
1 68890U 26095AC  26146.03272975  .00046658  00000+0  12026-2 0  9998
2 68890  51.8848 349.3111 0001944 165.1612 194.9433 15.38730979  4323
KUIPER-00521            
1 68891U 26095AD  26146.29119781  .00026734  00000+0  70748-3 0  9991
2 68891  51.8852 348.0425 0001188 123.9134 236.1966 15.38193095  4360
KUIPER-00524            
1 68892U 26095AE  26146.03713025  .00034075  00000+0  89034-3 0  9990
2 68892  51.8829 349.3403 0002108 187.2100 172.8858 15.38458352  4326
KUIPER-00370            
1 68919U 26098A   26146.26976599  .00437092  00000+0  13355-1 0  9992
2 68919  51.8763 173.8392 0011983  57.4167 302.7973 15.31479171  3979
KUIPER-00380            
1 68920U 26098B   26146.30450123  .00026760  00000+0  82856-3 0  9999
2 68920  51.8728 173.3375 0009263  62.2652 297.9271 15.33236145  3980
KUIPER-00386            
1 68921U 26098C   26146.27771295  .00242215  00000+0  67327-2 0  9992
2 68921  51.8729 173.1653 0004484 109.6097 250.5373 15.35373119  3981
KUIPER-00388            
1 68922U 26098D   26145.37134366  .00013750  00000+0  47202-3 0  9996
2 68922  51.8741 178.3190 0021744  65.4462 294.8785 15.30209310  3830
KUIPER-00405            
1 68923U 26098E   26146.26006638  .00017570  00000+0  56734-3 0  9990
2 68923  51.8765 173.7890 0015313  70.9592 289.3050 15.32094393  3977
KUIPER-00408            
1 68924U 26098F   26145.81258342 -.00016931  00000+0 -55295-3 0  9995
2 68924  51.8763 176.0371 0017463  69.3991 290.8864 15.30443998  3909
KUIPER-00409            
1 68925U 26098G   26146.29511676 -.00013480  00000+0 -39346-3 0  9996
2 68925  51.8731 173.2802 0007845  71.0479 289.1356 15.33931534  3983
KUIPER-00410            
1 68926U 26098H   26146.26335490  .00018375  00000+0  62552-3 0  9993
2 68926  51.8766 173.8025 0013047  65.8049 294.4297 15.30385021  3973
KUIPER-00412            
1 68927U 26098J   26146.26893765  .00059690  00000+0  16518-2 0  9993
2 68927  51.8778 173.1172 0002760 111.5909 248.5372 15.36423298  3987
KUIPER-00413            
1 68928U 26098K   26146.29207634  .00017810  00000+0  61570-3 0  9998
2 68928  51.8732 173.9851 0025191  82.6312 277.7533 15.29691198  3979
KUIPER-00414            
1 68929U 26098L   26146.29356348  .00024085  00000+0  83683-3 0  9997
2 68929  51.8748 174.0013 0022215  70.7218 289.6166 15.29393753  3976
KUIPER-00415            
1 68930U 26098M   26146.24442708  .00025700  00000+0  79812-3 0  9994
2 68930  51.8763 173.6941 0010987  59.9948 300.2126 15.33147732  3977
KUIPER-00416            
1 68931U 26098N   26146.26558618  .00025630  00000+0  71627-3 0  9993
2 68931  51.8740 173.0898 0001317 112.9787 247.1339 15.36525335  3984
KUIPER-00420            
1 68932U 26098P   26146.27913139  .00030965  00000+0  89466-3 0  9995
2 68932  51.8758 173.1816 0004062  77.3359 282.8081 15.35376143  3984
KUIPER-00421            
1 68933U 26098Q   26146.29564237  .00025148  00000+0  75821-3 0  9996
2 68933  51.8752 173.2897 0008961  52.7301 307.4500 15.34118016  3987
KUIPER-00425            
1 68934U 26098R   26146.25001157 -.00014077  00000+0 -46022-3 0  9992
2 68934  51.8750 173.9480 0018456  73.5782 174.1291 15.30233031  3814
KUIPER-00430            
1 68935U 26098S   26146.28039230  .00016009  00000+0  54031-3 0  9993
2 68935  51.8780 173.9154 0020548  79.6411 280.6888 15.30654273  3974
KUIPER-00431            
1 68936U 26098T   26146.27967618  .00023921  00000+0  83624-3 0  9994
2 68936  51.8766 173.9029 0017960  75.7251 284.5725 15.29278292  3977
KUIPER-00432            
1 68937U 26098U   26146.24849643  .00024707  00000+0  78521-3 0  9992
2 68937  51.8731 173.7122 0011367  74.2377 285.9860 15.32428417  3975
KUIPER-00434            
1 68938U 26098V   26146.29414729  .00024593  00000+0  73081-3 0  9990
2 68938  51.8722 173.2709 0007809  57.0297 303.1438 15.34598077  3985
KUIPER-00436            
1 68939U 26098W   26146.24721019  .00018724  00000+0  59039-3 0  9995
2 68939  51.8746 173.7024 0011265  70.2273 289.9926 15.32860320  3972
KUIPER-00438            
1 68940U 26098X   26146.28875458  .00023350  00000+0  70436-3 0  9993
2 68940  51.8724 173.2382 0005576  65.3784 294.7781 15.34167881  3980
KUIPER-00439            
1 68941U 26098Y   26146.23600264  .00027613  00000+0  84225-3 0  9997
2 68941  51.8752 173.6364 0006702  72.5920 287.5797 15.33713336  3977
KUIPER-00440            
1 68942U 26098Z   26146.29114965  .01577393  00000+0  39550-1 0  9997
2 68942  51.8760 173.2633 0011217 319.5671  40.4480 15.36633836  3981
KUIPER-00442            
1 68943U 26098AA  26146.29333242  .00023733  00000+0  71515-3 0  9991
2 68943  51.8765 173.2786 0006973  67.3491 292.8232 15.34183902  3987
KUIPER-00446            
1 68944U 26098AB  26146.09599564  .00027181  00000+0  81935-3 0  9999
2 68944  51.8722 174.1950 0006332  63.2751 296.8882 15.34097625  3955
KUIPER-00451            
1 68945U 26098AC  26146.26324558  .00012892  00000+0  45051-3 0  9990
2 68945  51.8775 173.8101 0014659  71.2870 288.9703 15.29808045  3976
KUIPER-00452            
1 68946U 26098AD  26146.27814921  .00027477  00000+0  78999-3 0  9992
2 68946  51.8745 173.1713 0004224  61.1852 298.9558 15.35593513  3989
KUIPER-00453            
1 68947U 26098AE  26145.81358672  .00027389  00000+0  77007-3 0  9999
2 68947  51.8746 175.3099 0003046 103.1324 257.0003 15.36297773  3918
KUIPER-00454            
1 68948U 26098AF  26146.28667638  .00016945  00000+0  60879-3 0  9992
2 68948  51.8759 173.9611 0016516  66.8265 293.4456 15.28639320  3973
KUIPER-00455            
1 68949U 26098AG  26146.29095858  .00024288  00000+0  83734-3 0  9997
2 68949  51.8710 173.9822 0018666  72.0365 288.2652 15.29709873  3975
KUIPER-00458            
1 68950U 26098AH  26146.27361254  .00025216  00000+0  71756-3 0  9996
2 68950  51.8775 173.1463 0003732  74.3647 285.7751 15.35965747  3981
