IRIDIUM 106             
1 41917U 17003A   26077.88479526  .00000079  00000+0  21293-4 0  9990
2 41917  86.3958 126.3194 0002319 105.4881 254.6571 14.34217741480265
IRIDIUM 103             
1 41918U 17003B   26077.59303499  .00000072  00000+0  18684-4 0  9997
2 41918  86.3963 126.3417 0001923  89.7991 270.3425 14.34217892480244
IRIDIUM 109             
1 41919U 17003C   26077.87845249  .00000023  00000+0  12802-5 0  9996
2 41919  86.3962 126.2801 0002187  94.6246 265.5200 14.34217587480250
IRIDIUM 102             
1 41920U 17003D   26077.56766288  .00000156  00000+0  48620-4 0  9992
2 41920  86.3961 126.3356 0002296  94.9826 265.1632 14.34219144480295
IRIDIUM 105             
1 41921U 17003E   26077.95085927 -.00000297  00000+0 -11277-3 0  9995
2 41921  86.3913  94.6157 0002080  89.6316 270.5119 14.34397638482203
IRIDIUM 104             
1 41922U 17003F   26077.85942461  .00000208  00000+0  67333-4 0  9995
2 41922  86.3962 126.2548 0002139  86.5212 273.6229 14.34217838480320
IRIDIUM 114             
1 41923U 17003G   26077.86576695  .00000079  00000+0  21014-4 0  9991
2 41923  86.3963 126.2359 0002054  90.5649 269.5782 14.34217378480302
IRIDIUM 108             
1 41924U 17003H   26077.96382475  .00000046  00000+0  92038-5 0  9993
2 41924  86.3904  94.5001 0002378  92.1107 268.0361 14.34217704482172
IRIDIUM 112             
1 41925U 17003J   26077.85308206  .00000176  00000+0  55648-4 0  9991
2 41925  86.3956 126.0874 0002221  91.0953 269.0498 14.34217089480326
IRIDIUM 111             
1 41926U 17003K   26077.84039675  .00000045  00000+0  89737-5 0  9994
2 41926  86.3959 126.1613 0002137  95.1309 265.0131 14.34217697480301
IRIDIUM 113             
1 42803U 17039A   26077.75061320  .00000555  00000+0  19109-3 0  9990
2 42803  86.4032 359.9691 0002143  77.0756 283.0680 14.34216882458223
IRIDIUM 123             
1 42804U 17039B   26077.93160775 -.00000018  00000+0 -13401-4 0  9991
2 42804  86.3986  31.3420 0001827  87.1977 272.9428 14.34217470457014
IRIDIUM 120             
1 42805U 17039C   26077.53494452 -.00000002  00000+0 -78573-5 0  9995
2 42805  86.4015 359.8534 0002098  88.9912 271.1524 14.34217564458183
IRIDIUM 115             
1 42806U 17039D   26077.71115711  .00000244  00000+0  66447-4 0  9996
2 42806  86.4557 359.8961 0001972  92.5605 267.5822 14.43276127461217
IRIDIUM 118             
1 42807U 17039E   26077.96332155 -.00000010  00000+0 -10755-4 0  9991
2 42807  86.3989  31.3271 0002054  83.3694 276.7736 14.34217367457010
IRIDIUM 117             
1 42808U 17039F   26077.91258060  .00000057  00000+0  13452-4 0  9995
2 42808  86.3991  31.3065 0002054  86.6300 273.5131 14.34217346457038
IRIDIUM 126             
1 42809U 17039G   26077.79841173  .00000067  00000+0  16832-4 0  9991
2 42809  86.3991  31.4037 0002031  83.4760 276.6667 14.34218470456990
IRIDIUM 124             
1 42810U 17039H   26077.92258835  .00000327  00000+0  91173-4 0  9995
2 42810  86.4521 328.1199 0002087  85.9908 274.1531 14.43281492462094
IRIDIUM 128             
1 42811U 17039J   26077.92868852  .00000002  00000+0 -62562-5 0  9994
2 42811  86.3926  62.8771 0002227  94.1880 265.9570 14.34217609457047
IRIDIUM 121             
1 42812U 17039K   26077.88721055  .00000098  00000+0  27835-4 0  9990
2 42812  86.3991  31.3938 0002323  86.6048 273.5414 14.34217394456889
IRIDIUM 133             
1 42955U 17061A   26077.96040158 -.00000027  00000+0 -16781-4 0  9992
2 42955  86.3927  62.9797 0002067  89.8400 270.3032 14.34217299441846
IRIDIUM 100             
1 42956U 17061B   26077.67498266  .00000132  00000+0  40084-4 0  9996
2 42956  86.3933  63.0185 0002262  89.6953 270.4502 14.34217715441807
IRIDIUM 122             
1 42957U 17061C   26077.92234452 -.00000006  00000+0 -90599-5 0  9999
2 42957  86.3925  62.9163 0001984  88.3187 271.8236 14.34217291441840
IRIDIUM 129             
1 42958U 17061D   26077.38956307  .00000156  00000+0  48745-4 0  9999
2 42958  86.3927  63.2050 0002358  80.5963 279.5499 14.34219637441789
IRIDIUM 119             
1 42959U 17061E   26077.91599871 -.00000176  00000+0 -69938-4 0  9999
2 42959  86.3926  62.9805 0002001  83.8390 276.3034 14.34215992441878
IRIDIUM 107             
1 42960U 17061F   26077.93502988  .00000014  00000+0 -21614-5 0  9996
2 42960  86.3924  62.9930 0001798  93.0361 267.1041 14.34217552441881
IRIDIUM 132             
1 42961U 17061G   26077.94137311 -.00000035  00000+0 -19462-4 0  9993
2 42961  86.3926  62.9706 0002031  89.7955 270.3474 14.34217225441880
IRIDIUM 136             
1 42962U 17061H   26077.97308552  .00000031  00000+0  41651-5 0  9994
2 42962  86.3926  62.9631 0002070  87.7118 272.4314 14.34217898441905
IRIDIUM 139             
1 42963U 17061J   26077.90966073 -.00000037  00000+0 -20320-4 0  9993
2 42963  86.3928  63.0508 0002056  90.6416 269.5015 14.34217232441908
IRIDIUM 125             
1 42964U 17061K   26077.96674253  .00000008  00000+0 -42429-5 0  9998
2 42964  86.3929  63.0862 0001561  80.9802 279.1571 14.34217384441928
IRIDIUM 135             
1 43070U 17083A   26077.52225828  .00000083  00000+0  22681-4 0  9992
2 43070  86.4030 359.9067 0002153  84.8401 275.3040 14.34217017431157
IRIDIUM 138             
1 43071U 17083B   26077.75693482  .00000037  00000+0  60652-5 0  9993
2 43071  86.4042 359.4908 0002075  74.6895 285.4530 14.34217234431176
IRIDIUM 116             
1 43072U 17083C   26077.86475960 -.00000008  00000+0 -99641-5 0  9995
2 43072  86.4022 359.7510 0002140  92.2252 267.9189 14.34217535431228
IRIDIUM 130             
1 43073U 17083D   26077.76327777 -.00000044  00000+0 -22920-4 0  9992
2 43073  86.4029   0.0596 0001894  92.4555 267.6857 14.34217172431157
IRIDIUM 151             
1 43074U 17083E   26077.87744459  .00000043  00000+0  82075-5 0  9990
2 43074  86.4028 359.8015 0002145  85.1787 274.9654 14.34217850431197
IRIDIUM 134             
1 43075U 17083F   26077.84573156 -.00000027  00000+0 -16604-4 0  9990
2 43075  86.4027 359.8215 0001927  87.6890 272.4526 14.34217339431157
IRIDIUM 137             
1 43076U 17083G   26077.71888039  .00000036  00000+0  57262-5 0  9990
2 43076  86.4033 359.9653 0002574  90.0434 270.1057 14.34217842431202
IRIDIUM 141             
1 43077U 17083H   26077.78230555 -.00000048  00000+0 -24027-4 0  9999
2 43077  86.4021 359.7745 0002016  82.2232 277.9193 14.34217459431211
IRIDIUM 153             
1 43078U 17083J   26077.94378882  .00000076  00000+0  20055-4 0  9990
2 43078  86.3997 328.2189 0001939  79.3062 280.8352 14.34217150432340
IRIDIUM 131             
1 43079U 17083K   26077.76962071  .00000124  00000+0  37342-4 0  9991
2 43079  86.4033 359.9599 0002285  82.4065 277.7390 14.34217588431141
IRIDIUM 144             
1 43249U 18030A   26077.81059619  .00000291  00000+0  96891-4 0  9993
2 43249  86.3998 328.2061 0002171  90.0254 270.1191 14.34217459417182
IRIDIUM 149             
1 43250U 18030B   26077.95647503  .00000111  00000+0  32753-4 0  9993
2 43250  86.3996 328.1131 0002061  83.7524 276.3906 14.34218189417224
IRIDIUM 157             
1 43251U 18030C   26077.97550339  .00000068  00000+0  17178-4 0  9991
2 43251  86.3998 328.1561 0002159  85.5794 274.5649 14.34217400417208
IRIDIUM 140             
1 43252U 18030D   26077.78522519  .00000263  00000+0  86795-4 0  9998
2 43252  86.3997 328.2484 0002082  86.7167 273.4267 14.34217896417231
IRIDIUM 145             
1 43253U 18030E   26077.98184455  .00000080  00000+0  21478-4 0  9998
2 43253  86.3999 328.1388 0002172  94.4030 265.7414 14.34216673417196
IRIDIUM 146             
1 43254U 18030F   26077.96281789  .00000155  00000+0  48194-4 0  9992
2 43254  86.4000 328.1593 0002203  89.0704 271.0745 14.34217598417208
IRIDIUM 148             
1 43255U 18030G   26077.93110528  .00000274  00000+0  90863-4 0  9994
2 43255  86.4000 328.2142 0002195  85.5489 274.5958 14.34217945417234
IRIDIUM 142             
1 43256U 18030H   26077.96915907  .00000167  00000+0  52694-4 0  9993
2 43256  86.4002 328.0903 0002225  92.2741 267.8709 14.34216401417202
IRIDIUM 150             
1 43257U 18030J   26077.93744736  .00000086  00000+0  23708-4 0  9995
2 43257  86.3996 328.2172 0002077  86.9981 273.1452 14.34217372417220
IRIDIUM 143             
1 43258U 18030K   26077.98818546  .00000164  00000+0  51400-4 0  9999
2 43258  86.4000 328.2850 0002154  91.2486 268.8957 14.34219182417161
IRIDIUM 161             
1 43478U 18047C   26077.83093060  .00000298  00000+0  82497-4 0  9999
2 43478  86.4481 126.2628 0002403  86.1758 273.9718 14.43279774412103
IRIDIUM 152             
1 43479U 18047D   26077.89113723  .00000096  00000+0  27133-4 0  9997
2 43479  86.3956 126.0980 0002228  91.1530 268.9922 14.34218045409547
IRIDIUM 147             
1 43480U 18047E   26077.82771171  .00000067  00000+0  16996-4 0  9992
2 43480  86.3957 126.1282 0002329  97.4355 262.7106 14.34217864409535
IRIDIUM 110             
1 43481U 18047F   26077.90382247  .00000012  00000+0 -26431-5 0  9991
2 43481  86.3962 126.1854 0002171  83.9084 276.2359 14.34217657409531
IRIDIUM 162             
1 43482U 18047G   26077.54729921  .00000301  00000+0  83544-4 0  9993
2 43482  86.4480 126.2736 0002148  95.1288 265.0158 14.43280838412058
IRIDIUM 160             
1 43569U 18061A   26077.77988915  .00000054  00000+0  12346-4 0  9997
2 43569  86.3908  94.6110 0002268  89.4166 270.7289 14.34218032400418
IRIDIUM 166             
1 43570U 18061B   26077.94479713  .00000038  00000+0  65560-5 0  9998
2 43570  86.3907  94.4936 0002290  94.2441 265.9016 14.34217798400465
IRIDIUM 158             
1 43571U 18061C   26077.77354696  .00000037  00000+0  63078-5 0  9993
2 43571  86.3909  94.5754 0002045  90.4192 269.7238 14.34217787400406
IRIDIUM 165             
1 43572U 18061D   26077.79891780  .00000026  00000+0  22591-5 0  9999
2 43572  86.3908  94.6093 0002278  94.9826 265.1630 14.34217575400438
IRIDIUM 155             
1 43573U 18061E   26077.97016679  .00000017  00000+0 -10570-5 0  9991
2 43573  86.3906  94.4110 0001995  94.5255 265.6169 14.34217666400424
IRIDIUM 154             
1 43574U 18061F   26077.95113994  .00000004  00000+0 -55626-5 0  9995
2 43574  86.3909  94.5482 0002231  95.7161 264.4289 14.34217596400471
IRIDIUM 163             
1 43575U 18061G   26077.79257370  .00000070  00000+0  17850-4 0  9993
2 43575  86.3906  94.5328 0002166  90.7500 269.3944 14.34218125400423
IRIDIUM 156             
1 43576U 18061H   26077.48813015  .00000025  00000+0  19791-5 0  9991
2 43576  86.3906  94.6673 0002118  95.6450 264.4987 14.34217632400372
IRIDIUM 164             
1 43577U 18061J   26077.95748065 -.00000039  00000+0 -21164-4 0  9999
2 43577  86.3907  94.5096 0002326  92.7907 267.3555 14.34217417400484
IRIDIUM 159             
1 43578U 18061K   26077.78623186  .00000103  00000+0  29770-4 0  9998
2 43578  86.3905  94.5203 0002252  88.0358 272.1096 14.34218266400420
IRIDIUM 180             
1 43922U 19002A   26077.92526631 -.00000019  00000+0 -13948-4 0  9998
2 43922  86.3987  31.3055 0002114  83.4496 276.6941 14.34217271376050
IRIDIUM 176             
1 43923U 19002B   26077.89788051  .00000904  00000+0  13950-3 0  9994
2 43923  86.6113  31.2726 0002554  89.0445 271.1065 14.72258852385962
IRIDIUM 168             
1 43924U 19002C   26077.91892405  .00000203  00000+0  65445-4 0  9996
2 43924  86.3994  31.3827 0002196  85.6188 274.5258 14.34217790376031
IRIDIUM 173             
1 43925U 19002D   26077.83646549  .00000104  00000+0  30001-4 0  9994
2 43925  86.3994  31.3097 0002032  84.3927 275.7500 14.34219094376006
IRIDIUM 169             
1 43926U 19002E   26077.96885385  .00000158  00000+0  45133-4 0  9993
2 43926  86.4183  62.9024 0001524  97.8438 262.2933 14.38608231377257
IRIDIUM 172             
1 43927U 19002F   26077.89989460  .00000210  00000+0  68102-4 0  9995
2 43927  86.3989  31.2908 0002308  82.7506 277.3953 14.34217662376024
IRIDIUM 175             
1 43928U 19002G   26077.14593713  .00000762  00000+0  12604-3 0  9993
2 43928  86.1833 328.5992 0020034  35.2163 325.0371 14.68817430385845
IRIDIUM 171             
1 43929U 19002H   26077.95063650 -.00000006  00000+0 -91816-5 0  9992
2 43929  86.3996  31.5663 0002094  90.6722 269.4714 14.34217426376020
IRIDIUM 170             
1 43930U 19002J   26077.90407410  .00000900  00000+0  13879-3 0  9997
2 43930  86.6113  31.2731 0002616  86.2792 273.8724 14.72255391385976
IRIDIUM 167             
1 43931U 19002K   26077.94429373 -.00000010  00000+0 -10510-4 0  9998
2 43931  86.3985  31.2940 0001957  95.8831 264.2588 14.34217280376021
IRIDIUM 181             
1 56726U 23068S   26077.77025799  .00000170  00000+0  44605-4 0  9993
2 56726  86.4445  94.5991 0002631  90.0183 270.1319 14.43310392149398
IRIDIUM 177             
1 56727U 23068T   26077.87165146  .00001256  00000+0  16172-3 0  9999
2 56727  86.2014  11.6667 0002125  77.2737 282.8721 14.80235765153000
IRIDIUM 174             
1 56728U 23068U   26077.89169990  .00001247  00000+0  19380-3 0  9997
2 56728  86.6121  31.4165 0002591  78.3085 281.8423 14.72246947152734
IRIDIUM 178             
1 56729U 23068V   26077.92833847  .00000517  00000+0  64522-4 0  9999
2 56729  86.6499  63.0719 0002684  97.4395 262.7132 14.80235335153013
IRIDIUM 179             
1 56730U 23068W   26077.92296589  .00000495  00000+0  61710-4 0  9998
2 56730  86.6727  71.7924 0002434  96.0666 264.0833 14.80233606153014
