EUTELSAT 139 WEST A     
1 28187U 04008A   26048.45259794 -.00000274  00000+0  00000+0 0  9995
2 28187   5.5234  73.4585 0001055 122.8099  46.3584  1.00838753 80150
EUTELSAT 174A           
1 28924U 05052A   26048.42919781  .00000013  00000+0  00000+0 0  9990
2 28924   3.9131  78.0305 0006111 252.0608 145.7818  1.00270561 51135
EUTELSAT 33F            
1 29270U 06032A   26048.47261804  .00000160  00000+0  00000+0 0  9998
2 29270   1.3507  83.6929 0003484 251.2880  15.7161  1.00275446 46101
EUTELSAT HOTBIRD 13C    
1 33459U 08065A   26048.45606463 -.00000278  00000+0  00000+0 0  9993
2 33459   2.6409  80.6484 0003727 260.1053 280.5299  1.00269595 46140
EUTELSAT 36B            
1 36101U 09065A   26048.92308833  .00000117  00000+0  00000+0 0  9994
2 36101   0.1879  76.2927 0005745 254.8481 199.5326  1.00270987 59513
EUTELSAT KA-SAT 9A      
1 37258U 10069A   26048.38447423  .00000066  00000+0  00000+0 0  9996
2 37258   0.0535 359.2247 0002072 138.4123 157.0873  1.00272115 42809
EUTELSAT 7 WEST A       
1 37816U 11051A   26048.93447612 -.00000055  00000+0  00000+0 0  9998
2 37816   0.0682 332.5023 0002271 267.9926 236.5179  1.00274062 52680
EUTELSAT 16A            
1 37836U 11057A   26048.95808588  .00000108  00000+0  00000+0 0  9999
2 37836   0.0562 353.3636 0005489 336.9460 178.4881  1.00271232  6144
EUTELSAT 21B            
1 38992U 12062B   26048.95808588  .00000134  00000+0  00000+0 0  9999
2 38992   0.0684 359.8716 0002879 325.1852 189.3399  1.00270983 48635
EUTELSAT 70B            
1 39020U 12069A   26048.81066757 -.00000039  00000+0  00000+0 0  9993
2 39020   0.0685 335.1479 0002519 324.1334 210.8059  1.00272784 48316
EUTELSAT 117 WEST A     
1 39122U 13012A   26048.37156420  .00000000  00000+0  00000+0 0  9990
2 39122   0.0172 248.7095 0002813  91.4617 184.1392  1.00266587 47235
EUTELSAT 7B             
1 39163U 13022A   26048.92892101  .00000052  00000+0  00000+0 0  9997
2 39163   0.0696 344.9519 0006099   3.1333 141.1954  1.00271710 46753
EXPRESS-AT1             
1 39612U 14010A   26048.62212405  .00000085  00000+0  00000+0 0  9990
2 39612   0.0430 277.9111 0002205 132.7764  16.8613  1.00257760 43614
EXPRESS-AT2             
1 39613U 14010B   26048.69766912  .00000000  00000+0  00000+0 0  9992
2 39613   0.0199 130.9949 0001848 136.3487 271.3447  1.00269685 43306
EUTELSAT 3B             
1 39773U 14030A   26048.92892101  .00000025  00000+0  00000+0 0  9994
2 39773   0.0675 331.6338 0001815 281.6419 232.1215  1.00273711 42871
EUTELSAT 115 WEST B     
1 40425U 15010B   26048.51456492 -.00000020  00000+0  00000+0 0  9999
2 40425   0.0101 254.5575 0000230   1.7681 321.4700  1.00269220 40193
EUTELSAT 8 WEST B       
1 40875U 15039B   26048.93447612 -.00000061  00000+0  00000+0 0  9994
2 40875   0.0671   1.6142 0003910 326.8726 147.8046  1.00271603 38462
EUTELSAT 9B             
1 41310U 16005A   26048.38447423  .00000067  00000+0  00000+0 0  9997
2 41310   0.0149  46.1121 0004469 261.6373 347.0046  1.00275507 36911
EUTELSAT 65 WEST A      
1 41382U 16014A   26048.45311794 -.00000272  00000+0  00000+0 0  9994
2 41382   0.0528   4.2593 0002188 321.7477 279.3427  1.00272232 36336
EUTELSAT 117 WEST B     
1 41589U 16038B   26048.57910453 -.00000007  00000+0  00000+0 0  9995
2 41589   0.0091 264.0231 0000179 316.7364  18.2545  1.00269753 35460
EUTELSAT 172B           
1 42741U 17029B   26048.60322576 -.00000001  00000+0  00000+0 0  9998
2 42741   0.0189 151.0104 0000098  23.9728   1.7262  1.00273466 32538
EUTELSAT 7C             
1 44334U 19034B   26048.92892101  .00000053  00000+0  00000+0 0  9993
2 44334   0.0761 177.3953 0003331 140.9172 170.9843  1.00271652  5644
EUTELSAT 5 WEST B       
1 44624U 19067A   26048.93447612 -.00000038  00000+0  00000+0 0  9999
2 44624   0.0959 306.2396 0003012  30.8377 142.2038  1.00271694 23249
EUTELSAT KONNECT        
1 45027U 20005B   26048.92864323  .00000054  00000+0  00000+0 0  9999
2 45027   0.0652  98.2949 0000493 219.1716 171.9349  1.00270838 23140
EUTELSAT QUANTUM        
1 49056U 21069B   26048.92336610  .00000131  00000+0  00000+0 0  9995
2 49056   0.0193 299.3420 0002905  27.2818 201.3615  1.00271390 16730
EUTELSAT KONNECT VHTS   
1 53765U 22110A   26048.92892101  .00000021  00000+0  00000+0 0  9995
2 53765   0.0589 102.1192 0002980 199.1143 183.7510  1.00268940  5643
EUTELSAT HOTBIRD 13F    
1 54048U 22134A   26048.95808588  .00000092  00000+0  00000+0 0  9993
2 54048   0.0569 291.5965 0002114  69.5888 144.6308  1.00272551 12183
EUTELSAT HOTBIRD 13G    
1 54225U 22146A   26048.05600581  .00000092  00000+0  00000+0 0  9997
2 54225   0.0545 241.3345 0001935 305.4492 353.3891  1.00275659  6262
EUTELSAT 10B            
1 54259U 22157A   26048.38447423  .00000074  00000+0  00000+0 0  9996
2 54259   0.0567 102.0268 0001979 343.4886 210.2455  1.00278622 11825
EUTELSAT 36D            
1 59346U 24059A   26048.92545110  .00000160  00000+0  00000+0 0  9999
2 59346   0.0111 124.5322 0000207 246.5808 145.7901  1.00272375  6957
