KUIPER-00008            
1 63724U 25088A   26218.78730997  .00000167  00000+0  50876-4 0  9997
2 63724  51.9006 144.2768 0000819  87.5771 272.5285 14.79929551 70279
KUIPER-00009            
1 63725U 25088B   26218.91668981 -.00013126  00000+0 -83463-3 0  9994
2 63725  51.9010 159.8034 0000617   4.3931 314.9644 15.07636621  1925
KUIPER-00010            
1 63726U 25088C   26218.96154103  .00000776  00000+0  13089-3 0  9998
2 63726  51.9019 138.6117 0000776  93.8936 266.2115 14.79919365 69985
KUIPER-00011            
1 63727U 25088D   26218.91967613  .00000255  00000+0  62522-4 0  9991
2 63727  51.9019 146.3436 0000783  80.2785 279.8266 14.79928785 70004
KUIPER-00012            
1 63728U 25088E   26218.83455097  .00000890  00000+0  14570-3 0  9995
2 63728  51.9020 131.6570 0000743 103.2011 256.9034 14.79927315 70150
KUIPER-00013            
1 63729U 25088F   26218.56313234 -.00002698  00000+0 -32507-3 0  9992
2 63729  51.9006 165.3733 0000664  78.9616 281.1421 14.79931753 69767
KUIPER-00014            
1 63730U 25088G   26218.12419230 -.00001595  00000+0 -18027-3 0  9995
2 63730  51.9015 167.2600 0000795  78.6979 281.4073 14.79926830 69516
KUIPER-00015            
1 63731U 25088H   26218.07964878  .00000308  00000+0  69388-4 0  9999
2 63731  51.8986 177.5129 0000738  61.7520 298.3517 14.79928132 69826
KUIPER-00016            
1 63732U 25088J   26218.86434358  .00002016  00000+0  29345-3 0  9998
2 63732  51.9001 166.4986 0000790  84.2814 275.8239 14.79917920 69585
KUIPER-00018            
1 63733U 25088K   26218.97641985  .00000587  00000+0  10604-3 0  9996
2 63733  51.9025 156.0396 0000798  70.8137 289.2912 14.79924144 69740
KUIPER-00019            
1 63734U 25088L   26218.86806561  .00000757  00000+0  12843-3 0  9994
2 63734  51.9005 155.2720 0001180  79.6023 280.5072 14.79880978 69745
KUIPER-00020            
1 63735U 25088M   26218.56854777  .00000874  00000+0  14366-3 0  9996
2 63735  51.9013 160.3433 0000955  76.6222 283.4847 14.79929085 69857
KUIPER-00021            
1 63736U 25088N   26218.80489096  .00000753  00000+0  12777-3 0  9992
2 63736  51.9015 159.2522 0000720  82.4957 277.6087 14.79935610 69724
KUIPER-00023            
1 63737U 25088P   26218.16065259  .00001278  00000+0  19662-3 0  9996
2 63737  51.9006 164.5895 0000801  68.8531 291.2517 14.79923443 69892
KUIPER-00024            
1 63738U 25088Q   26218.84944132  .00000640  00000+0  11293-3 0  9992
2 63738  51.9037 149.1492 0000966  85.8862 274.2211 14.79932409 70297
KUIPER-00025            
1 63739U 25088R   26218.80760689  .00001250  00000+0  19307-3 0  9994
2 63739  51.9031 156.8144 0000883  76.3588 283.7473 14.79917104 70042
KUIPER-00027            
1 63740U 25088S   26218.84670533  .00001637  00000+0  24382-3 0  9996
2 63740  51.9022 151.6058 0001031  85.1455 274.9625 14.79906544 69852
KUIPER-00028            
1 63741U 25088T   26218.54555889  .00000911  00000+0  14846-3 0  9998
2 63741  51.9007 150.3853 0000967  81.6905 278.4167 14.79931852 70259
KUIPER-00029            
1 63742U 25088U   26218.79170749  .00000568  00000+0  10358-3 0  9996
2 63742  51.9023 147.9860 0001062  52.5703 307.5355 14.79918731 69834
KUIPER-00030            
1 63743U 25088V   26218.83057258  .00000421  00000+0  84204-4 0  9991
2 63743  51.9015 166.6374 0000779  74.7188 285.3860 14.79915700 69861
KUIPER-00031            
1 63744U 25088W   26218.00262076  .00001580  00000+0  23622-3 0  9990
2 63744  51.9005 155.3219 0000800 108.6055 251.4995 14.79932457 69668
KUIPER-00032            
1 63745U 25088X   26218.75050851  .00006490  00000+0  16157-3 0  9999
2 63745  51.8683  16.1682 0003525 296.7759  63.2868 15.41542335 72669
KUIPER-00033            
1 63746U 25088Y   26218.10531219  .00001806  00000+0  26590-3 0  9999
2 63746  51.8994 184.8662 0000578  76.3712 283.7314 14.79920769 69743
KUIPER-00034            
1 63747U 25088Z   26218.95614841  .00000610  00000+0  10903-3 0  9999
2 63747  51.9021 143.6392 0000921  92.9424 267.1644 14.79923148 70079
KUIPER-00035            
1 63748U 25088AA  26218.86164890  .00000155  00000+0  49307-4 0  9999
2 63748  51.9004 169.0263 0000637  85.2324 274.8712 14.79913151 69766
KUIPER-00037            
1 63749U 25088AB  26218.58444493  .00000701  00000+0  12100-3 0  9996
2 63749  51.9007 169.1120 0000755  68.6528 291.4515 14.79932743 70525
KUIPER-00038            
1 63750U 25088AC  26218.97911703  .00000720  00000+0  12354-3 0  9996
2 63750  51.9031 153.5349 0000761  91.9972 268.1077 14.79918850 69775
KUIPER-00039            
1 64500U 25134A   26218.61403738  .00001903  00000+0  27865-3 0  9994
2 64500  51.9028 290.1492 0000404  96.5527 263.5481 14.79921482 62274
KUIPER-00040            
1 64501U 25134B   26218.50189201  .00001955  00000+0  28546-3 0  9993
2 64501  51.8989 300.7160 0000512  91.1726 268.9295 14.79911823 62115
KUIPER-00041            
1 64502U 25134C   26218.60054475  .00002104  00000+0  30502-3 0  9991
2 64502  51.9005 302.6684 0000536  94.3714 265.7310 14.79924245 62098
KUIPER-00042            
1 64503U 25134D   26218.50463422  .00001715  00000+0  25386-3 0  9998
2 64503  51.8996 298.0701 0000436  93.6084 266.4928 14.79938591 62155
KUIPER-00043            
1 64504U 25134E   26218.51273538  .00001810  00000+0  26648-3 0  9995
2 64504  51.9023 290.5400 0000378  87.7823 272.3182 14.79919323 62263
KUIPER-00044            
1 64505U 25134F   26218.63431864  .00001571  00000+0  23506-3 0  9991
2 64505  51.8999 302.5000 0000418  95.2277 264.8733 14.79921648 62101
KUIPER-00046            
1 64506U 25134G   26218.67075237  .00001868  00000+0  27392-3 0  9990
2 64506  51.8999 299.8132 0000409 103.2105 256.8903 14.79945176 62142
KUIPER-00047            
1 64507U 25134H   26218.59913984  .00001700  00000+0  25188-3 0  9998
2 64507  51.9004 272.6563 0000486  51.4598 308.6408 14.79934851 62518
KUIPER-00048            
1 64508U 25134J   26218.49784639  .00001677  00000+0  24900-3 0  9995
2 64508  51.8996 273.1166 0000498 101.6062 258.4956 14.79921967 62503
KUIPER-00049            
1 64509U 25134K   26218.45059380  .00001881  00000+0  27571-3 0  9994
2 64509  51.9019 285.7941 0000351  92.3790 267.7213 14.79934992 62324
KUIPER-00050            
1 64510U 25134L   26218.40192090  .00001445  00000+0  21850-3 0  9997
2 64510  51.8991 268.5299 0000353  58.6431 301.4566 14.79944497 62562
KUIPER-00051            
1 64511U 25134M   26218.49424859  .00001682  00000+0  24932-3 0  9995
2 64511  51.9013 284.2966 0000442  79.7759 280.3253 14.79976868 62342
KUIPER-00053            
1 64513U 25134P   26218.42053805  .00001428  00000+0  20768-3 0  9990
2 64513  51.9015 279.5896 0001039  22.3936 337.7073 14.81721696 62403
KUIPER-00054            
1 64514U 25134Q   26218.42760216 -.00000221  00000+0  28170-7 0  9992
2 64514  51.8992 275.9004 0000190 189.2707 170.8252 14.79931642 62455
KUIPER-00055            
1 64515U 25134R   26218.98532475  .00001055  00000+0  16738-3 0  9996
2 64515  51.9007 226.0766 0000418  51.8991 308.2009 14.79936616 63205
KUIPER-00056            
1 64516U 25134S   26218.45598874 -.00000935  00000+0 -93731-4 0  9991
2 64516  51.9037 280.8827 0000275  84.9691 275.1303 14.79929362 62398
KUIPER-00057            
1 64517U 25134T   26218.44790401  .00001937  00000+0  28293-3 0  9992
2 64517  51.8995 288.3423 0000343  96.4380 263.6621 14.79934883 62282
KUIPER-00058            
1 64518U 25134U   26218.68963736  .00001740  00000+0  25715-3 0  9990
2 64518  51.9015 282.2475 0000347  83.4355 276.6647 14.79939114 62395
KUIPER-00059            
1 64519U 25134V   26218.42493102  .00001685  00000+0  24996-3 0  9996
2 64519  51.9006 278.4563 0000297  91.1524 268.9473 14.79930794 62429
KUIPER-00060            
1 64520U 25134W   26218.45868531  .00001809  00000+0  26622-3 0  9999
2 64520  51.9029 278.3767 0000367  76.0831 284.0172 14.79943164 62411
KUIPER-00061            
1 64521U 25134X   26218.48436292  .00001926  00000+0  28155-3 0  9991
2 64521  51.9010 285.7106 0000494  97.1538 262.9480 14.79929584 62316
KUIPER-00062            
1 64522U 25134Y   26218.54917366  .00001890  00000+0  27693-3 0  9991
2 64522  51.8969 287.8888 0000383  75.2496 284.8509 14.79927910 62301
KUIPER-00063            
1 64523U 25134Z   26218.47357839 -.00000529  00000+0 -40411-4 0  9991
2 64523  51.9037 295.7929 0000427  96.5956 263.5055 14.79928726 62181
KUIPER-00064            
1 64524U 25134AA  26218.47625843  .00004598  00000+0  63147-3 0  9993
2 64524  51.9031 293.2064 0000688  70.1727 289.9309 14.79954458 62222
KUIPER-00065            
1 64525U 25134AB  26218.60594906 -.00000567  00000+0 -45404-4 0  9995
2 64525  51.9052 297.8056 0000444  76.8712 283.2300 14.79930038 62152
KUIPER-00066            
1 64526U 25134AC  26218.30194459  .00001460  00000+0  22052-3 0  9996
2 64526  51.9016 236.4230 0000405  80.4789 279.6219 14.79925328 63007
KUIPER-00069            
1 64816U 25151A   26218.69791156 -.00005248  00000+0 -66077-3 0  9991
2 64816  51.9031 337.3104 0000515  47.3017 312.7989 14.79881181 58976
KUIPER-00070            
1 64817U 25151B   26218.77216226  .00002180  00000+0  31477-3 0  9997
2 64817  51.9018   1.8873 0000422 117.7802 242.3203 14.79943578 58649
KUIPER-00071            
1 64818U 25151C   26218.77488263 -.00001837  00000+0 -21203-3 0  9996
2 64818  51.9028 359.4184 0000926 133.6462 226.4578 14.79921129 57494
KUIPER-00072            
1 64819U 25151D   26218.56010044  .00000068  00000+0  37889-4 0  9993
2 64819  51.9012 340.3058 0000414 117.6880 242.4124 14.79925116 57748
KUIPER-00073            
1 64820U 25151E   26218.80864678  .00002008  00000+0  29235-3 0  9993
2 64820  51.9009 359.2508 0000575 100.6615 259.4412 14.79918457 58683
KUIPER-00075            
1 64822U 25151G   26218.24257782  .00010098  00000+0  21179-3 0  9992
2 64822  51.8648 211.4294 0004471  76.0065 284.1423 15.46016410 59500
KUIPER-00076            
1 64823U 25151H   26218.61683748  .00001930  00000+0  28216-3 0  9993
2 64823  51.9021 350.1207 0000495 102.0774 258.0244 14.79931776 57618
KUIPER-00077            
1 64824U 25151J   26218.61145943  .00001923  00000+0  28122-3 0  9992
2 64824  51.9024 355.1640 0000562 100.4541 259.6485 14.79924121 57549
KUIPER-00078            
1 64825U 25151K   26218.58038347  .00002051  00000+0  29802-3 0  9997
2 64825  51.9027 352.7767 0000525 108.2586 251.8434 14.79920416 57574
KUIPER-00079            
1 64826U 25151L   26218.67628410  .00005454  00000+0  74447-3 0  9999
2 64826  51.9043 357.3113 0000415  70.6196 289.4811 14.79897644 58715
KUIPER-00080            
1 64827U 25151M   26218.57498079  .00001941  00000+0  28354-3 0  9998
2 64827  51.9014 357.7703 0000538 102.1716 257.9306 14.79931580 57501
KUIPER-00082            
1 64828U 25151N   26218.75728427  .00002211  00000+0  31888-3 0  9999
2 64828  51.9027 344.5208 0000407 100.5324 259.5685 14.79940501 57705
KUIPER-00083            
1 64829U 25151P   26218.81672738  .00002129  00000+0  30821-3 0  9994
2 64829  51.9017 351.7400 0000292  85.1968 274.9028 14.79934290 58793
KUIPER-00084            
1 64830U 25151Q   26218.80594971  .00000918  00000+0  14950-3 0  9996
2 64830  51.9022   1.7733 0000593  93.5011 266.6019 14.79917165 57461
KUIPER-00085            
1 64831U 25151R   26218.65600594  .00002197  00000+0  31709-3 0  9991
2 64831  51.9044 345.0188 0000552 118.8052 241.2966 14.79933027 57684
KUIPER-00086            
1 64832U 25151S   26218.78027368  .00002064  00000+0  29958-3 0  9994
2 64832  51.9022 354.4117 0000571 111.8747 248.2276 14.79937752 57569
KUIPER-00087            
1 64833U 25151T   26218.73161186 -.00000711  00000+0 -64349-4 0  9990
2 64833  51.9013 337.0872 0000482  95.5850 264.5168 14.79925612 57797
KUIPER-00089            
1 64834U 25151U   26218.72622005  .00002153  00000+0  31132-3 0  9995
2 64834  51.9020 342.1341 0000411 104.1033 255.9975 14.79933775 57739
KUIPER-00090            
1 64835U 25151V   26218.73431732  .00001829  00000+0  26881-3 0  9996
2 64835  51.8997 334.5999 0000526 109.1501 250.9518 14.79942875 57838
KUIPER-00091            
1 64836U 25151W   26218.52632742 -.00001434  00000+0 -15914-3 0  9997
2 64836  51.9025 340.5360 0000480 109.3004 250.8010 14.79928686 57739
KUIPER-00092            
1 64837U 25151X   26218.65329558  .00002525  00000+0  36017-3 0  9997
2 64837  51.9010 347.4646 0000572  90.4702 269.6326 14.79926195 58860
KUIPER-00093            
1 64838U 25151Y   26218.58306829  .00001895  00000+0  27752-3 0  9991
2 64838  51.9017 350.2479 0000570 103.6750 256.4276 14.79932384 57608
KUIPER-00094            
1 64839U 25151Z   26218.49649081  .00001703  00000+0  25238-3 0  9997
2 64839  51.9044 305.7298 0000385  98.4287 261.6720 14.79917124 58229
KUIPER-00081            
1 65132U 25171A   26218.16545206 -.00000196  00000+0  32922-5 0  9990
2 65132  51.8989 207.0922 0000688  61.7758 298.3274 14.79923826 55171
KUIPER-00088            
1 65133U 25171B   26218.28167358  .00001277  00000+0  19653-3 0  9996
2 65133  51.8980 224.0796 0000476  54.1895 305.9111 14.79930637 54941
KUIPER-00095            
1 65134U 25171C   26218.97853256  .00001379  00000+0  20988-3 0  9998
2 65134  51.8962 201.0400 0000570  53.0750 307.0264 14.79924972 55322
KUIPER-00096            
1 65135U 25171D   26218.25597719 -.00001412  00000+0 -15623-3 0  9999
2 65135  51.8979 216.6856 0000357 102.5820 257.5182 14.79939041 55049
KUIPER-00097            
1 65136U 25171E   26218.25330499  .00001161  00000+0  18133-3 0  9998
2 65136  51.9004 219.3621 0000449  44.1212 315.9786 14.79930232 54993
KUIPER-00098            
1 65137U 25171F   26218.31810828  .00001504  00000+0  22629-3 0  9991
2 65137  51.8996 221.4378 0000500  46.7793 313.3211 14.79935984 54327
KUIPER-00099            
1 65138U 25171G   26218.97044647  .00000777  00000+0  13090-3 0  9995
2 65138  51.9002 208.5612 0000567  62.4979 297.6041 14.79944003 55214
KUIPER-00100            
1 65139U 25171H   26218.19652463  .00001646  00000+0  24492-3 0  9995
2 65139  51.8996 209.4506 0000497  57.9264 302.1746 14.79932543 55137
KUIPER-00102            
1 65140U 25171J   26218.19385880  .00001397  00000+0  21228-3 0  9990
2 65140  51.8963 211.9447 0000607  53.4932 306.6087 14.79923349 55097
KUIPER-00103            
1 65141U 25171K   26218.47882965  .00001509  00000+0  22684-3 0  9990
2 65141  51.8983 228.1850 0000438  54.2119 305.8884 14.79933069 54899
KUIPER-00104            
1 65142U 25171L   26218.96503561  .00001566  00000+0  23433-3 0  9993
2 65142  51.9009 213.5404 0000449  50.5567 309.5435 14.79931174 55148
KUIPER-00105            
1 65143U 25171M   26218.31531168 -.00005611  00000+0 -70793-3 0  9995
2 65143  51.8996 224.0112 0000881  33.3141 326.7876 14.79913689 54941
KUIPER-00106            
1 65144U 25171N   26218.97145275  .00002208  00000+0  31869-3 0  9996
2 65144  51.9012 199.8750 0000599  52.9023 307.1994 14.79916000 55340
KUIPER-00107            
1 65145U 25171P   26218.26677546  .00001704  00000+0  25249-3 0  9995
2 65145  51.8987 206.6678 0000559  52.2762 307.8251 14.79925172 55181
KUIPER-00108            
1 65146U 25171Q   26218.21951345  .00001244  00000+0  19218-3 0  9991
2 65146  51.9007 219.4180 0000485  46.3858 313.7145 14.79940022 55004
KUIPER-00109            
1 65147U 25171R   26218.93396000 -.00002036  00000+0 -23821-3 0  9999
2 65147  51.9010 211.2007 0000642  58.3383 301.7642 14.79922415 55171
KUIPER-00110            
1 65148U 25171S   26218.27896772  .00001254  00000+0  19351-3 0  9990
2 65148  51.8985 226.6514 0000460  46.6357 313.4644 14.79928652 54893
KUIPER-00111            
1 65149U 25171T   26218.98264115  .00001581  00000+0  23632-3 0  9999
2 65149  51.8968 228.4118 0000458  55.9843 304.1163 14.79927470 54930
KUIPER-00112            
1 65150U 25171U   26218.96772810  .00001352  00000+0  20631-3 0  9997
2 65150  51.8994 211.0979 0000516  44.4644 315.6360 14.79935171 55171
KUIPER-00114            
1 65151U 25171V   26218.23707667  .00001249  00000+0  19279-3 0  9997
2 65151  51.8982 234.2959 0000607  43.7560 316.3451 14.79932700 54784
KUIPER-00115            
1 65152U 25171W   26218.98800821  .00002221  00000+0  32028-3 0  9994
2 65152  51.9026 223.4818 0000101  46.8974 313.1997 14.79932516 55002
KUIPER-00116            
1 65153U 25171X   26218.34108932  .00001539  00000+0  23085-3 0  9993
2 65153  51.8998 231.3731 0000511  82.4020 277.7000 14.79922200 54834
KUIPER-00118            
1 65154U 25171Y   26218.33837756 -.00000272  00000+0 -66758-5 0  9997
2 65154  51.8978 233.8342 0000398  80.0700 280.0308 14.79931743 54807
KUIPER-00119            
1 65155U 25171Z   26218.28431672  .00003501  00000+0  48778-3 0  9995
2 65155  51.9003 221.6710 0000607 342.2261  17.8680 14.79952103 54969
KUIPER-00120            
1 65762U 25217A   26218.92634844  .00002192  00000+0  31651-3 0  9994
2 65762  51.8996 108.7061 0000678  98.6655 261.4384 14.79924190 46980
KUIPER-00132            
1 65763U 25217B   26218.84922595  .00023199  00000+0  50785-3 0  9998
2 65763  51.8550 352.0627 0005502 138.8681 221.2724 15.44006278 48598
KUIPER-00133            
1 65764U 25217C   26218.89260950  .00002034  00000+0  29566-3 0  9992
2 65764  51.9039 108.9755 0000601  88.8713 271.2318 14.79934143 46980
KUIPER-00139            
1 65765U 25217D   26218.86011718 -.00001196  00000+0 -12795-3 0  9992
2 65765  51.8986  76.5646 0000806 109.6020 250.5029 14.79922098 47436
KUIPER-00142            
1 65766U 25217E   26218.94518775  .00004806  00000+0  65873-3 0  9991
2 65766  51.8999  91.1509 0000526  66.3470 293.7548 14.79951322 47234
KUIPER-00145            
1 65767U 25217F   26218.87499387  .00001955  00000+0  28540-3 0  9993
2 65767  51.9011  93.9847 0000662 106.0488 254.0548 14.79930022 47186
KUIPER-00147            
1 65768U 25217G   26218.97359707  .00002033  00000+0  29559-3 0  9995
2 65768  51.8994  96.0271 0000913 105.2133 254.8930 14.79936717 47166
KUIPER-00148            
1 65769U 25217H   26218.92494796  .00001825  00000+0  26833-3 0  9999
2 65769  51.9068  78.7683 0000826 116.0246 244.0801 14.79938411 47400
KUIPER-00150            
1 65770U 25217J   26218.89527978  .00002128  00000+0  30798-3 0  9998
2 65770  51.9016 106.4126 0000848  97.6842 262.4217 14.79937561 47013
KUIPER-00151            
1 65771U 25217K   26218.97091478 -.00000785  00000+0 -73991-4 0  9991
2 65771  51.9039  98.5771 0000760 108.5173 251.5872 14.79926273 47135
KUIPER-00152            
1 65772U 25217L   26218.88308159  .00001946  00000+0  28417-3 0  9999
2 65772  51.9006  86.4465 0000786 113.7011 246.4034 14.79934097 47296
KUIPER-00153            
1 65773U 25217M   26218.82095387  .00001690  00000+0  25055-3 0  9991
2 65773  51.9022  81.8012 0000760 118.7496 241.3543 14.79938473 47354
KUIPER-00155            
1 65774U 25217N   26218.91814969 -.00000304  00000+0 -10875-4 0  9995
2 65774  51.9029  53.8332 0000667 105.5672 254.5364 14.79927438 47752
KUIPER-00156            
1 65775U 25217P   26218.92223441  .00002149  00000+0  31075-3 0  9997
2 65775  51.9032  81.3348 0001044 151.4568 208.6451 14.79949213 47363
KUIPER-00165            
1 65778U 25217S   26218.84395285  .00001807  00000+0  26587-3 0  9999
2 65778  51.9006  91.6227 0000832 104.9601 255.1454 14.79941023 47217
KUIPER-00166            
1 65779U 25217T   26218.82365408  .00001678  00000+0  24915-3 0  9991
2 65779  51.9025  79.2656 0000742  98.8517 261.2529 14.79925836 47387
KUIPER-00167            
1 65780U 25217U   26218.96820410 -.00000530  00000+0 -40460-4 0  9999
2 65780  51.8959 100.9714 0000821  97.9156 262.1900 14.79927135 47093
KUIPER-00168            
1 65781U 25217V   26218.91952572  .00000229  00000+0  59004-4 0  9997
2 65781  51.9009  83.7922 0000668  66.2385 293.8648 14.79923984 47337
KUIPER-00169            
1 65782U 25217W   26218.64404271 -.00000418  00000+0 -25870-4 0  9992
2 65782  51.9038  90.0246 0000898 110.8771 249.2288 14.79929674 47225
KUIPER-00170            
1 65783U 25217X   26218.90876626 -.00000453  00000+0 -30462-4 0  9991
2 65783  51.9002  93.8047 0001259 130.4891 229.6181 14.79925504 47198
KUIPER-00172            
1 65785U 25217Z   26218.82634459  .00001933  00000+0  28255-3 0  9998
2 65785  51.8998  76.6990 0000784 116.4832 243.6211 14.79924021 47429
KUIPER-00173            
1 65786U 25217AA  26218.94790994  .00002048  00000+0  29747-3 0  9994
2 65786  51.9012  88.6720 0000897 113.2310 246.8747 14.79947039 47268
KUIPER-00174            
1 65787U 25217AB  26218.81825054  .00000447  00000+0  87627-4 0  9990
2 65787  51.9025  84.2992 0000711 108.4860 251.6180 14.79942650 47312
KUIPER-00176            
1 65788U 25217AC  26218.86931448  .00001719  00000+0  25401-3 0  9995
2 65788  51.8999  98.9993 0001005 103.8823 256.2251 14.80007894 47112
KUIPER-00101            
1 65947U 25228A   26218.94919946  .00001989  00000+0  28974-3 0  9999
2 65947  51.8989  56.1001 0000706 108.7436 251.3603 14.79936815 45482
KUIPER-00113            
1 65948U 25228B   26218.71825350  .00001889  00000+0  27677-3 0  9998
2 65948  51.8992  52.1433 0000644 100.3711 259.7324 14.79922750 45516
KUIPER-00117            
1 65949U 25228C   26218.95190042  .00002070  00000+0  30036-3 0  9994
2 65949  51.8992  53.6092 0000696 114.4678 245.6357 14.79940102 45510
KUIPER-00121            
1 65950U 25228D   26218.92354739  .00001862  00000+0  27331-3 0  9990
2 65950  51.9004  48.7504 0000736 111.2688 248.8353 14.79920709 45580
KUIPER-00122            
1 65951U 25228E   26218.77768416  .00001986  00000+0  28944-3 0  9993
2 65951  51.9000  59.3680 0000708 105.2153 254.8888 14.79939555 45421
KUIPER-00123            
1 65952U 25228F   26218.94650635 -.00000816  00000+0 -77986-4 0  9990
2 65952  51.8979  58.6316 0000514 150.3395 209.7597 14.79936093 45440
KUIPER-00124            
1 65953U 25228G   26218.95459719  .00001993  00000+0  29024-3 0  9996
2 65953  51.8993  51.0850 0000632 109.2212 250.8819 14.79940103 45552
KUIPER-00125            
1 65954U 25228H   26218.70065763  .00001816  00000+0  26709-3 0  9993
2 65954  51.9006  37.2557 0000668 113.9223 246.1809 14.79934238 45720
KUIPER-00126            
1 65955U 25228J   26218.84790614  .00001986  00000+0  28945-3 0  9991
2 65955  51.8999  56.5887 0000624 101.0219 259.0814 14.79935007 45461
KUIPER-00127            
1 65956U 25228K   26218.90665662  .00001921  00000+0  28095-3 0  9998
2 65956  51.9017  48.8026 0000731 118.4723 241.6314 14.79932053 45587
KUIPER-00128            
1 65957U 25228L   26218.95730306 -.00000990  00000+0 -10092-3 0  9997
2 65957  51.9008  48.6438 0000672 111.8571 248.2463 14.79924706 45589
KUIPER-00129            
1 65958U 25228M   26218.92894109  .00002022  00000+0  29424-3 0  9992
2 65958  51.9013  43.7502 0000717 117.6867 242.4168 14.79922186 45652
KUIPER-00130            
1 65959U 25228N   26218.82494441 -.00000395  00000+0 -22849-4 0  9995
2 65959  51.9033  46.7515 0000751 120.3727 239.7310 14.79928496 35899
KUIPER-00134            
1 65960U 25228P   26218.69076828  .00008322  00000+0  19922-3 0  9990
2 65960  51.8712 311.4778 0005940 121.4973 238.6597 15.42320293 46919
KUIPER-00135            
1 65961U 25228Q   26218.72365708  .00001800  00000+0  26498-3 0  9993
2 65961  51.9023  47.2490 0000806 107.7205 252.3846 14.79939189 45583
KUIPER-00136            
1 65962U 25228R   26218.96270399 -.00001068  00000+0 -11119-3 0  9993
2 65962  51.9005  43.6439 0000716 117.2763 242.8272 14.79924487 45652
KUIPER-00137            
1 65963U 25228S   26218.89788330  .00001770  00000+0  26118-3 0  9998
2 65963  51.9039  41.4311 0000683 115.9019 244.2014 14.79924545 45685
KUIPER-00138            
1 65964U 25228T   26218.86687151  .00004867  00000+0  66725-3 0  9993
2 65964  51.8980  38.9848 0000908  24.6476 335.4530 14.79910946 45719
KUIPER-00140            
1 65965U 25228U   26218.93162711 -.00001613  00000+0 -18269-3 0  9990
2 65965  51.9001  41.2896 0000807 133.8645 226.2384 14.79931302 45683
KUIPER-00141            
1 65966U 25228V   26218.91668981  .00037087  00000+0  48707-2 0  9990
2 65966  51.9027  36.4211 0000561  83.2007 168.4746 14.79901458  4926
KUIPER-00146            
1 65967U 25228W   26218.90057240  .00001705  00000+0  25252-3 0  9999
2 65967  51.9025  39.0019 0000604 105.3354 254.7675 14.79936829 45711
KUIPER-00149            
1 65968U 25228X   26218.87220422  .00002090  00000+0  30316-3 0  9995
2 65968  51.9023  34.0086 0000606 108.6280 251.4749 14.79919932 45784
KUIPER-00154            
1 65969U 25228Y   26218.77357900  .00002006  00000+0  29217-3 0  9992
2 65969  51.8996  31.9314 0000742  99.3381 260.7666 14.79927027 45800
KUIPER-00157            
1 65970U 25228Z   26218.67538000  .00001525  00000+0  22232-3 0  9990
2 65970  51.9030  34.7222 0001501 104.8725 255.2404 14.81235301 45752
KUIPER-00144            
1 67133U 25301A   26218.95734935 -.00004298  00000+0 -53516-3 0  9992
2 67133  51.9008 111.1323 0001275  78.5510 281.5595 14.79930891 36126
KUIPER-00164            
1 67134U 25301B   26218.94393286  .00001785  00000+0  26306-3 0  9995
2 67134  51.9030 123.7068 0000674  96.4308 263.6731 14.79930593 36125
KUIPER-00175            
1 67135U 25301C   26218.92904497  .00002128  00000+0  30805-3 0  9997
2 67135  51.9006 106.2198 0000843 100.4991 259.6067 14.79937724 36266
KUIPER-00179            
1 67136U 25301D   26218.94663726  .00002161  00000+0  31235-3 0  9992
2 67136  51.8990 121.1485 0000760 104.4185 255.6862 14.79929903 36168
KUIPER-00181            
1 67137U 25301E   26218.93316351  .00002225  00000+0  32074-3 0  9994
2 67137  51.9031 133.7559 0001122  98.2374 261.8716 14.79937172 35961
KUIPER-00183            
1 67138U 25301F   26218.91668981 -.00079904  00000+0 -87831-2 0  9992
2 67138  51.8983 104.0720 0009089 204.9996 317.1228 14.87556045  3596
KUIPER-00184            
1 67139U 25301G   26218.91826665  .00001726  00000+0  25549-3 0  9992
2 67139  51.8983 116.2786 0000799  61.7192 298.3851 14.79917247 36325
KUIPER-00186            
1 67140U 25301H   26218.96693450  .00001892  00000+0  27728-3 0  9998
2 67140  51.9031 133.6170 0000759  95.7770 264.3279 14.79917648 35812
KUIPER-00187            
1 67141U 25301J   26218.96422824 -.00002116  00000+0 -24867-3 0  9997
2 67141  51.9031 136.1525 0000888  85.9434 274.1630 14.79930088 35774
KUIPER-00188            
1 67142U 25301K   26218.89800008  .00000033  00000+0  33351-4 0  9997
2 67142  51.9036 104.0334 0000834 100.7176 259.3880 14.79923748 36219
KUIPER-00191            
1 67143U 25301L   26218.93854242 -.00001750  00000+0 -20053-3 0  9995
2 67143  51.9010 128.7546 0001045 129.1319 230.9736 14.79932239 35904
KUIPER-00196            
1 67144U 25301M   26218.93379089  .00001655  00000+0  26658-3 0  9996
2 67144  51.8989  85.7119 0002097  64.2698 295.8479 14.76388180 36478
KUIPER-00204            
1 67145U 25301N   26218.86685653 -.00002053  00000+0 -24040-3 0  9994
2 67145  51.9020 101.5517 0001003  96.1265 263.9812 14.79921395 36364
KUIPER-00210            
1 67146U 25301P   26218.97231283  .00002308  00000+0  33169-3 0  9996
2 67146  51.9005 128.5501 0000850  96.7352 263.3707 14.79921169 36054
KUIPER-00221            
1 67147U 25301Q   26218.93047053  .00002256  00000+0  32483-3 0  9993
2 67147  51.9023 136.2640 0000598  97.7890 262.3141 14.79929408 35775
KUIPER-00232            
1 67148U 25301R   26218.91286670  .00001928  00000+0  28178-3 0  9993
2 67148  51.8987 121.3607 0000855  99.1660 260.9399 14.79944458 35972
KUIPER-00241            
1 67149U 25301S   26218.93586030  .00001947  00000+0  28445-3 0  9997
2 67149  51.9029 131.2667 0000820  97.1228 262.9828 14.79922859 36170
KUIPER-00245            
1 67150U 25301T   26218.52259897  .00002120  00000+0  30708-3 0  9991
2 67150  51.9033 140.6048 0000701  92.3472 267.7571 14.79920116 35676
KUIPER-00246            
1 67151U 25301U   26218.91017501 -.00000404  00000+0 -24020-4 0  9995
2 67151  51.9020 123.8366 0000924 117.1710 242.9346 14.79923388 35968
KUIPER-00247            
1 67152U 25301V   26218.92096449 -.00000584  00000+0 -47564-4 0  9992
2 67152  51.8966 113.7518 0000772 112.9448 247.1596 14.79928084 36082
KUIPER-00248            
1 67153U 25301W   26218.87228869 -.00004217  00000+0 -52462-3 0  9999
2 67153  51.8996  96.6023 0000854 103.2863 256.8195 14.79918062 36482
KUIPER-00249            
1 67154U 25301X   26218.92366387 -.00001250  00000+0 -13507-3 0  9995
2 67154  51.9000 111.3051 0000859  92.1806 267.9255 14.79924223 36110
KUIPER-00250            
1 67155U 25301Y   26218.94133166  .00002249  00000+0  32408-3 0  9993
2 67155  51.8995 126.1813 0000776  79.4458 280.6591 14.79908925 35948
KUIPER-00251            
1 67156U 25301Z   26218.95473340 -.00004742  00000+0 -59339-3 0  9990
2 67156  51.8995 113.6906 0000853 108.7479 251.3576 14.79941557 36271
KUIPER-00252            
1 67157U 25301AA  26218.95202990  .00002182  00000+0  31508-3 0  9994
2 67157  51.9016 116.1554 0000786  97.7299 262.3753 14.79938097 36056
KUIPER-00261            
1 67158U 25301AB  26218.97501635  .00002288  00000+0  32912-3 0  9992
2 67158  51.9027 126.1113 0000704  82.3081 277.7961 14.79921088 35917
KUIPER-00265            
1 67159U 25301AC  26218.92505150 -.00000577  00000+0 -46755-4 0  9996
2 67159  51.9032 141.3056 0000496 124.0511 236.0499 14.79935796 35734
KUIPER-00159            
1 67764U 26030A   26218.91668981  .00039005  00000+0  48718-2 0  9994
2 67764  51.8997 219.1514 0001424 101.8310 295.9191 14.81981690  5052
KUIPER-00160            
1 67765U 26030B   26218.27710469  .00018359  00000+0  49708-3 0  9993
2 67765  51.8795 216.0097 0004662 213.5494 146.5198 15.37716970 28100
KUIPER-00177            
1 67766U 26030C   26218.53430940  .00001595  00000+0  23814-3 0  9990
2 67766  51.9007 270.5139 0000303  59.8053 300.2940 14.79935860 27367
KUIPER-00178            
1 67767U 26030D   26218.56808517  .00001675  00000+0  24873-3 0  9998
2 67767  51.9007 270.3469 0000496  88.5528 271.5491 14.79931836 27372
KUIPER-00180            
1 67768U 26030E   26218.50593887 -.00000227  00000+0 -80303-6 0  9991
2 67768  51.8995 265.6226 0000482 103.1689 256.9328 14.79923881 27437
KUIPER-00197            
1 67769U 26030F   26218.39244217 -.00000073  00000+0  19422-4 0  9999
2 67769  51.8988 246.1384 0000394  14.6152 345.4822 14.79922755 27692
KUIPER-00198            
1 67770U 26030G   26218.54777458  .00000066  00000+0  37595-4 0  9998
2 67770  51.8973 257.9288 0000371  67.9128 292.1874 14.79933933 27549
KUIPER-00199            
1 67771U 26030H   26218.56923376  .00008277  00000+0  23458-3 0  9997
2 67771  51.8802 216.4274 0009218 229.9271 130.0908 15.37099516 28122
KUIPER-00200            
1 67772U 26030J   26218.49645237  .00001501  00000+0  22586-3 0  9991
2 67772  51.8978 243.1996 0000593  72.9953 287.1074 14.79923585 27747
KUIPER-00203            
1 67773U 26030K   26218.52892813  .00001792  00000+0  26403-3 0  9994
2 67773  51.9066 275.5954 0000374  88.9570 271.1435 14.79934177 27292
KUIPER-00205            
1 67774U 26030L   26218.49913210  .00001324  00000+0  20261-3 0  9993
2 67774  51.8997 240.6440 0000204  57.8813 302.2169 14.79923758 27782
KUIPER-00208            
1 67775U 26030M   26218.43570537 -.00000608  00000+0 -50784-4 0  9999
2 67775  51.8989 268.4312 0000386  14.9331 345.1642 14.79925521 27388
KUIPER-00209            
1 67776U 26030N   26218.53970736  .00001239  00000+0  19159-3 0  9995
2 67776  51.8988 265.5650 0000350  56.4652 303.6344 14.79921602 27439
KUIPER-00213            
1 67777U 26030P   26218.77880694  .00001545  00000+0  23174-3 0  9997
2 67777  51.8958 261.9807 0000493  51.5440 308.5566 14.79904119 27502
KUIPER-00214            
1 67778U 26030Q   26218.41005335  .00001593  00000+0  23793-3 0  9990
2 67778  51.9000 261.1311 0000322  77.1235 282.9764 14.79936046 27487
KUIPER-00215            
1 67779U 26030R   26218.38976610  .00001475  00000+0  22241-3 0  9996
2 67779  51.8981 248.5803 0000385  43.9129 316.1864 14.79932742 27662
KUIPER-00218            
1 67780U 26030S   26218.33979397  .00001446  00000+0  21872-3 0  9995
2 67780  51.8972 263.8438 0000597  64.4436 295.6588 14.79929735 27440
KUIPER-00220            
1 67781U 26030T   26218.36670822 -.00006886  00000+0 -87456-3 0  9995
2 67781  51.8954 238.7571 0000587  56.2569 303.8449 14.79962546 27798
KUIPER-00222            
1 67782U 26030U   26218.37898953  .00001610  00000+0  24028-3 0  9998
2 67782  51.8983 258.8276 0000342  77.5339 282.5661 14.79918193 27514
KUIPER-00223            
1 67783U 26030V   26218.48835103  .00001572  00000+0  23516-3 0  9997
2 67783  51.9009 250.6437 0000354  72.5429 287.5572 14.79918975 27640
KUIPER-00225            
1 67784U 26030W   26218.48297646  .00001617  00000+0  24114-3 0  9997
2 67784  51.8980 255.8252 0000341  68.0190 292.0809 14.79919944 27563
KUIPER-00226            
1 67785U 26030X   26218.38173523  .00001170  00000+0  19746-3 0  9993
2 67785  51.8994 242.8158 0003070 230.1965 129.8725 14.76382813 27744
KUIPER-00259            
1 67786U 26030Y   26218.31415612  .00001378  00000+0  20970-3 0  9996
2 67786  51.8976 256.4741 0000391  75.4115 284.6890 14.79928287 27549
KUIPER-00260            
1 67787U 26030Z   26218.31683316 -.00001848  00000+0 -21350-3 0  9992
2 67787  51.9008 254.0628 0000396  84.8918 275.2089 14.79925495 27482
KUIPER-00262            
1 67788U 26030AA  26218.48564845  .00001479  00000+0  22297-3 0  9995
2 67788  51.9002 253.2340 0000457 339.8166  20.2778 14.79933101 27605
KUIPER-00266            
1 67789U 26030AB  26218.38705865  .00001557  00000+0  23321-3 0  9990
2 67789  51.8997 251.1647 0000954 272.5851  87.5002 14.79929728 27629
KUIPER-00268            
1 67790U 26030AC  26218.49104294 -.00001155  00000+0 -12258-3 0  9996
2 67790  51.9022 248.2300 0000346  30.7764 329.3219 14.79927713 27670
KUIPER-00270            
1 67791U 26030AD  26218.26548462  .00001186  00000+0  18446-3 0  9998
2 67791  51.8974 239.1985 0000434 108.3654 251.7355 14.79937588 27784
KUIPER-00274            
1 67792U 26030AE  26218.64639470  .00001529  00000+0  22957-3 0  9994
2 67792  51.9019 260.0172 0000363   0.9678 359.1285 14.79917345 27527
KUIPER-00275            
1 67793U 26030AF  26218.26277129 -.00000757  00000+0 -70266-4 0  9993
2 67793  51.8986 241.7168 0000345  33.7880 326.3105 14.79928754 27747
KUIPER-00276            
1 67794U 26030AG  26218.49376383  .00001546  00000+0  23173-3 0  9990
2 67794  51.8983 245.6769 0001019 235.8785 124.2080 14.79926783 27717
KUIPER-00279            
1 67795U 26030AH  26218.26817008 -.00000446  00000+0 -29561-4 0  9998
2 67795  51.9017 236.7085 0000558 330.4467  29.6464 14.79927081 27812
KUIPER-00131            
1 68573U 26072A   26218.73701569  .00001833  00000+0  26934-3 0  9994
2 68573  51.9016 332.1194 0000556 113.6503 246.4518 14.79942722 18603
KUIPER-00189            
1 68574U 26072B   26218.70054437 -.00001752  00000+0 -20084-3 0  9999
2 68574  51.9013 334.7626 0000571 127.5102 232.5912 14.79928622 18567
KUIPER-00192            
1 68575U 26072C   26218.73970800  .00001980  00000+0  28859-3 0  9993
2 68575  51.9010 329.6042 0000462 107.0223 253.0790 14.79942730 18643
KUIPER-00193            
1 68576U 26072D   26218.68297526  .00001885  00000+0  27615-3 0  9998
2 68576  51.9057 319.8834 0001184  45.1430 314.9629 14.79936005 18779
KUIPER-00194            
1 68577U 26072E   26218.57358398  .00001935  00000+0  28266-3 0  9991
2 68577  51.9022 327.8568 0000274 104.4258 255.6735 14.79937218 18654
KUIPER-00229            
1 68578U 26072F   26218.70314611  .00001847  00000+0  27097-3 0  9990
2 68578  51.9023 332.2665 0000239 113.9900 246.1087 14.79974258 18609
KUIPER-00230            
1 68579U 26072G   26218.47024473  .00013976  00000+0  37445-3 0  9993
2 68579  51.8770 293.2251 0000917 219.2399 140.8521 15.38271041 19127
KUIPER-00231            
1 68580U 26072H   26218.91668981 -.00034716  00000+0 -45575-2 0  9991
2 68580  51.8983 303.9088 0001598 355.3368 264.4048 14.79847800  5595
KUIPER-00234            
1 68581U 26072J   26218.67488381  .00001913  00000+0  27993-3 0  9995
2 68581  51.9009 327.3824 0000183  43.2025 316.8952 14.79925478 18662
KUIPER-00236            
1 68582U 26072K   26217.52019457  .00017305  00000+0  45944-3 0  9991
2 68582  51.8761 298.1085 0001604 190.6158 169.4796 15.38375685 18971
KUIPER-00244            
1 68583U 26072L   26218.71943424  .00002161  00000+0  31241-3 0  9993
2 68583  51.9015 317.2084 0000486 185.9624 174.1333 14.79932596 18816
KUIPER-00253            
1 68584U 26072M   26218.64921231  .00001649  00000+0  24527-3 0  9997
2 68584  51.9047 320.0309 0000599  98.0154 262.0877 14.79922144 18763
KUIPER-00254            
1 68585U 26072N   26218.68027335  .00001760  00000+0  25971-3 0  9992
2 68585  51.9046 322.3912 0000745 186.7786 173.3167 14.79940676 18730
KUIPER-00263            
1 68586U 26072P   26218.62894175  .00001928  00000+0  28175-3 0  9996
2 68586  51.9035 307.6914 0000389 108.4965 251.6040 14.79938771 18936
KUIPER-00269            
1 68587U 26072Q   26218.55878809  .00001738  00000+0  25677-3 0  9998
2 68587  51.9007 310.4156 0000202  56.3928 303.7053 14.79946773 18899
KUIPER-00272            
1 68588U 26072R   26218.57087897  .00001643  00000+0  24447-3 0  9999
2 68588  51.8993 330.3364 0000402 119.1276 240.9727 14.79933413 18618
KUIPER-00285            
1 68589U 26072S   26218.72753090  .00000501  00000+0  94701-4 0  9995
2 68589  51.9055 309.7333 0000774 228.1981 131.8915 14.79926489 18916
KUIPER-00286            
1 68590U 26072T   26218.66260939 -.00004897  00000+0 -61368-3 0  9991
2 68590  51.9018 307.4624 0000667 103.6137 256.4899 14.79938869 18949
KUIPER-00289            
1 68591U 26072U   26218.51953139 -.00001018  00000+0 -10459-3 0  9994
2 68591  51.8992 315.5820 0000558 111.1041 248.9981 14.79924497 18811
KUIPER-00290            
1 68592U 26072V   26218.66351680  .00001213  00000+0  20331-3 0  9999
2 68592  51.9040 313.9892 0000506 200.6208 159.4733 14.76442473 18851
KUIPER-00293            
1 68593U 26072W   26218.71134050  .00001702  00000+0  25225-3 0  9996
2 68593  51.9007 324.7162 0001300 200.7068 159.3842 14.79917799 18708
KUIPER-00294            
1 68594U 26072X   26218.65729797  .00001744  00000+0  25774-3 0  9993
2 68594  51.9005 312.4720 0000918 106.5129 253.5934 14.79934626 18871
KUIPER-00296            
1 68595U 26072Y   26218.91668981 -.00067662  00000+0 -58746-2 0  9997
2 68595  51.8945 294.3966 0007654 166.4238 288.4103 14.96820715  4326
KUIPER-00297            
1 68596U 26072Z   26218.81264646  .00002344  00000+0  33622-3 0  9998
2 68596  51.9024 324.2617 0001411  19.4226 340.6790 14.79960768 18727
KUIPER-00300            
1 68597U 26072AA  26218.56440137  .00001290  00000+0  21399-3 0  9999
2 68597  51.9036 322.7317 0001369 215.1851 144.9020 14.76521255 18724
KUIPER-00301            
1 68598U 26072AB  26218.91668981 -.00088083  00000+0 -49512-2 0  9991
2 68598  51.8845 292.4784 0005832 203.1006  22.3158 15.13131117  4879
KUIPER-00304            
1 68599U 26072AC  26218.91668981 -.00050636  00000+0 -33683-2 0  9997
2 68599  51.8850 293.1885 0007900 201.3308  71.4376 15.06740838  5594
KUIPER-00317            
1 68600U 26072AD  26218.69105406 -.00000811  00000+0 -77396-4 0  9994
2 68600  51.8997 312.3329 0000395 108.9559 251.1446 14.79927987 18878
KUIPER-00320            
1 68601U 26072AE  26218.48307516  .00001646  00000+0  24482-3 0  9990
2 68601  51.9035 318.2520 0000473  96.0920 264.0096 14.79937017 18775
KUIPER-00299            
1 68864U 26095A   26218.83022638  .00001299  00000+0  21556-3 0  9997
2 68864  51.9012  25.8258 0001872   2.3454 357.7515 14.76453775 15129
KUIPER-00353            
1 68865U 26095B   26218.62635554  .00001848  00000+0  27138-3 0  9994
2 68865  51.9018  12.6160 0000627 139.3395 220.7614 14.79935944 15297
KUIPER-00357            
1 68866U 26095C   26218.65202516  .00001362  00000+0  20765-3 0  9996
2 68866  51.9015  20.0066 0000609 135.7332 224.3680 14.79928597 15192
KUIPER-00364            
1 68867U 26095D   26218.75061668  .00001839  00000+0  27014-3 0  9992
2 68867  51.9042  22.0841 0000458 203.1409 156.9533 14.79939427 15172
KUIPER-00375            
1 68868U 26095E   26218.85037095  .00001503  00000+0  24470-3 0  9992
2 68868  51.9025  14.0290 0003039 163.9161 196.1897 14.76446520 15295
KUIPER-00433            
1 68869U 26095F   26218.91134462  .00002102  00000+0  30468-3 0  9996
2 68869  51.9017  28.8540 0000752 125.4645 234.6388 14.79924757 15094
KUIPER-00437            
1 68870U 26095G   26218.76936865  .00012349  00000+0  34160-3 0  9995
2 68870  51.8804 357.5984 0006641 125.4110 234.7498 15.37384550 15519
KUIPER-00448            
1 68871U 26095H   26218.84274577  .00001347  00000+0  22249-3 0  9991
2 68871  51.9049  17.9862 0001069 256.5741 103.5100 14.76413198 15234
KUIPER-00459            
1 68872U 26095J   26218.91668981  .00019605  00000+0  28114-2 0  9998
2 68872  51.9033   6.2751 0002412 238.0980  82.2911 14.76496210  4630
KUIPER-00468            
1 68873U 26095K   26218.91668981 -.00048535  00000+0 -59336-2 0  9995
2 68873  51.8991   3.0157 0004865  80.7900 291.2602 14.82964594  5087
KUIPER-00476            
1 68874U 26095L   26218.76847359  .00010907  00000+0  37230-3 0  9997
2 68874  51.8746 359.7344 0009797 121.1035 239.0911 15.30798951 15487
KUIPER-00478            
1 68875U 26095M   26218.73029739  .00001883  00000+0  27610-3 0  9993
2 68875  51.9002   9.6635 0000401 314.6802  45.4128 14.79913212 15347
KUIPER-00480            
1 68876U 26095N   26218.60972591  .00001176  00000+0  19747-3 0  9990
2 68876  51.9033   7.4682 0001306 333.7872  26.3022 14.76568285 15360
KUIPER-00482            
1 68877U 26095P   26218.82347822  .00001911  00000+0  27982-3 0  9995
2 68877  51.9027  16.7453 0001257 172.5914 187.5067 14.79910922 15253
KUIPER-00483            
1 68878U 26095Q   26218.87757325  .00000525  00000+0  97934-4 0  9999
2 68878  51.9004  28.9780 0002413 148.7274 211.3832 14.79913233 15081
KUIPER-00488            
1 68879U 26095R   26218.79516116  .00002012  00000+0  29267-3 0  9998
2 68879  51.9015  11.8817 0000359 136.9360 223.1631 14.79949129 15315
KUIPER-00489            
1 68880U 26095S   26218.91668981 -.00042484  00000+0 -55302-2 0  9999
2 68880  51.9000   3.6939 0003202  87.0342 233.9560 14.80295981  5424
KUIPER-00499            
1 68881U 26095T   26218.15626003 -.00001289  00000+0 -14021-3 0  9997
2 68881  51.9004  12.2487 0000732 140.1887 219.9129 14.79904837 15255
KUIPER-00500            
1 68882U 26095U   26218.88028110  .00001762  00000+0  26001-3 0  9998
2 68882  51.9012  26.4938 0000762 117.8806 242.2234 14.79940539 15129
KUIPER-00502            
1 68883U 26095V   26218.91668981 -.00035222  00000+0 -42737-2 0  9992
2 68883  51.9008   2.4328 0006656  73.6040 109.4889 14.83112403  5607
KUIPER-00503            
1 68884U 26095W   26218.64661660 -.00001726  00000+0 -19754-3 0  9996
2 68884  51.8989  25.0121 0000750 105.1310 254.9735 14.79928858 15125
KUIPER-00504            
1 68885U 26095X   26218.87488452  .00001636  00000+0  24358-3 0  9992
2 68885  51.9031  31.5186 0000610 119.0388 241.0636 14.79932559 15054
KUIPER-00505            
1 68886U 26095Y   26218.64930645 -.00001390  00000+0 -15337-3 0  9990
2 68886  51.9026  22.5179 0000736 135.5435 224.5587 14.79928832 15157
KUIPER-00507            
1 68887U 26095Z   26218.64336258  .00001832  00000+0  26945-3 0  9997
2 68887  51.9022  12.5367 0000581 114.1824 245.9199 14.79894848 15295
KUIPER-00511            
1 68888U 26095AA  26218.91668981  .00018259  00000+0  24139-2 0  9992
2 68888  51.8997   3.9457 0001079 172.3418 252.3705 14.79997699  4974
KUIPER-00512            
1 68889U 26095AB  26218.88298185  .00002079  00000+0  30173-3 0  9993
2 68889  51.9033  23.9867 0000573 104.5448 255.5579 14.79919914 15152
KUIPER-00519            
1 68890U 26095AC  26218.82624889  .00000346  00000+0  74498-4 0  9997
2 68890  51.9045  14.2980 0002156  87.7120 272.4089 14.79924001 15285
KUIPER-00521            
1 68891U 26095AD  26218.82467677  .00001763  00000+0  26057-3 0  9999
2 68891  51.9035   8.0005 0001040 135.5614 224.5432 14.79875941 15373
KUIPER-00524            
1 68892U 26095AE  26218.86331194  .00001617  00000+0  26077-3 0  9998
2 68892  51.8998  15.9283 0002087 167.8105 192.2907 14.76464076 15267
KUIPER-00370            
1 68919U 26098A   26218.14175388  .00001150  00000+0  18448-3 0  9998
2 68919  51.8981 197.1226 0002540 156.1925 203.9155 14.78794930 14883
KUIPER-00380            
1 68920U 26098B   26218.91668981 -.00527675  00000+0 -38711-1 0  9991
2 68920  51.8936 187.2387 0004332 358.0221  45.5006 15.05377931  5015
KUIPER-00386            
1 68921U 26098C   26218.91668981 -.00057626  00000+0 -81461-2 0  9997
2 68921  51.8975 188.6961 0005886 138.6318 341.7371 14.76960977  5826
KUIPER-00388            
1 68922U 26098D   26218.91668981  .00021209  00000+0  28028-2 0  9994
2 68922  51.8989 198.9886 0000466 121.6024  74.4320 14.79926217  5339
KUIPER-00405            
1 68923U 26098E   26218.96714087  .00001415  00000+0  21474-3 0  9995
2 68923  51.9002 196.1181 0001665  91.0587 269.0566 14.79903964 14968
KUIPER-00408            
1 68924U 26098F   26218.91668981 -.00011574  00000+0 -91760-3 0  9996
2 68924  51.8889 189.5041 0013362 336.4894 107.5778 14.99212909  3251
KUIPER-00409            
1 68925U 26098G   26218.91668981  .00018716  00000+0  24793-2 0  9991
2 68925  51.9003 193.8366 0001695 101.7512 155.4414 14.79896907  1302
KUIPER-00410            
1 68926U 26098H   26218.91668981  .00012295  00000+0  15094-2 0  9992
2 68926  51.9321 191.3793 0015072 323.9501 253.8807 14.83319364  5735
KUIPER-00412            
1 68927U 26098J   26218.91668981 -.00010996  00000+0 -93070-3 0  9992
2 68927  51.8941 184.3014 0007118  76.9277 344.2087 14.96720112  5734
KUIPER-00413            
1 68928U 26098K   26218.95015637  .00001442  00000+0  21818-3 0  9996
2 68928  51.8980 196.1823 0001415  52.5836 307.5255 14.79922570 14969
KUIPER-00414            
1 68929U 26098L   26218.23030879  .00001250  00000+0  19292-3 0  9993
2 68929  51.8957 209.4593 0001856 359.4701   0.6259 14.79935444 14717
KUIPER-00415            
1 68930U 26098M   26218.91668981 -.00042737  00000+0 -46889-2 0  9999
2 68930  51.8976 189.0009 0005046 326.0161 272.6683 14.87332639  5774
KUIPER-00416            
1 68931U 26098N   26218.91668981 -.01706796  00000+0 -93660-1 0  9991
2 68931  51.8804 182.5576 0002747  76.9195  95.2697 15.17333578  4461
KUIPER-00420            
1 68932U 26098P   26218.91668981  .00007184  00000+0  37079-3 0  9998
2 68932  51.8829 183.3714 0003686 358.4130 231.1888 15.17326705  4582
KUIPER-00421            
1 68933U 26098Q   26218.91668981 -.00013879  00000+0 -10381-2 0  9995
2 68933  51.8891 187.1338 0008670 306.8181 240.1591 15.01628082  5293
KUIPER-00425            
1 68934U 26098R   26218.24369315  .00001544  00000+0  23204-3 0  9994
2 68934  51.8980 196.8144 0001341 142.0932 218.0125 14.79838717 14892
KUIPER-00430            
1 68935U 26098S   26218.24102383  .00001546  00000+0  23193-3 0  9994
2 68935  51.9021 199.2088 0001577  32.1622 327.9436 14.79912647 14867
KUIPER-00431            
1 68936U 26098T   26218.98121755  .00001331  00000+0  20349-3 0  9992
2 68936  51.8985 198.5427 0000964  51.7977 308.3072 14.79938124 14939
KUIPER-00432            
1 68937U 26098U   26218.91668981 -.00033966  00000+0 -41459-2 0  9998
2 68937  51.9000 191.2577 0008162 340.4644 335.3565 14.82840310  5639
KUIPER-00434            
1 68938U 26098V   26218.19373173  .00001340  00000+0  22072-3 0  9995
2 68938  51.8999 197.4256 0001124   2.3692 357.7274 14.76592205 14888
KUIPER-00436            
1 68939U 26098W   26218.15942310  .00036809  00000+0  48399-2 0  9994
2 68939  51.8974 197.1875 0000777 120.2958 239.8081 14.79854957 14888
KUIPER-00438            
1 68940U 26098X   26218.91668981  .00019939  00000+0  26381-2 0  9991
2 68940  51.9005 191.3490 0000514 160.0791 262.6571 14.79911613  3981
KUIPER-00439            
1 68941U 26098Y   26218.91668981  .00013997  00000+0  18764-2 0  9996
2 68941  51.9013 191.3287 0000987 138.4553  19.2987 14.79589913  5392
KUIPER-00440            
1 68942U 26098Z   26218.91668981 -.00007512  00000+0 -44413-3 0  9996
2 68942  51.8878 185.5354 0004223 339.3846 239.1320 15.09612323  5306
KUIPER-00442            
1 68943U 26098AA  26218.91668981 -.00020351  00000+0 -17936-2 0  9992
2 68943  51.8944 186.1009 0003386  21.6501 178.9202 14.95653099  4232
KUIPER-00446            
1 68944U 26098AB  26218.91668981 -.00043665  00000+0 -53969-2 0  9992
2 68944  51.8980 188.8782 0002774 191.4109  24.1134 14.82468266  5783
KUIPER-00451            
1 68945U 26098AC  26218.93067143  .00001455  00000+0  21997-3 0  9994
2 68945  51.8966 198.7732 0001231  12.6307 347.4686 14.79900825 14921
KUIPER-00452            
1 68946U 26098AD  26218.91668981 -.00024816  00000+0 -24852-2 0  9990
2 68946  51.8951 186.5965 0005879 313.5094 119.5329 14.90726078  4545
KUIPER-00453            
1 68947U 26098AE  26218.91668981 -.00009656  00000+0 -73845-3 0  9993
2 68947  51.8935 184.4637 0003381  36.2481  40.3445 15.00472271  4800
KUIPER-00454            
1 68948U 26098AF  26218.24992111  .00001395  00000+0  22913-3 0  9995
2 68948  51.8990 203.3738 0002878 213.2785 146.7995 14.76463424 14803
KUIPER-00455            
1 68949U 26098AG  26218.96433656 -.00003063  00000+0 -37296-3 0  9995
2 68949  51.8990 198.6244 0002066  12.7812 347.3202 14.79921977 14933
KUIPER-00458            
1 68950U 26098AH  26218.91668981 -.00016707  00000+0 -13142-2 0  9995
2 68950  51.8896 184.5524 0001329  61.7004 180.5061 14.99899738  2368
KUIPER-00282            
1 69267U 26118A   26218.91668981  .00001106  00000+0  17517-3 0  9996
2 69267  51.8947 176.3266 0002338  61.0158  96.8156 14.79649372  5231
KUIPER-00383            
1 69268U 26118B   26218.91668981 -.00044276  00000+0 -51623-2 0  9999
2 69268  51.8994 173.9220 0008280 359.8724   6.7900 14.84853362  5471
KUIPER-00527            
1 69269U 26118C   26218.91668981 -.00054354  00000+0 -64821-2 0  9992
2 69269  51.8977 174.0387 0004719  41.4742 159.3466 14.84045442  5436
KUIPER-00562            
1 69270U 26118D   26218.91668981 -.00075903  00000+0 -41379-2 0  9990
2 69270  51.8835 168.5807 0003643 290.4518 274.5571 15.14150537  5778
KUIPER-00570            
1 69271U 26118E   26218.86784748  .00001565  00000+0  23426-3 0  9990
2 69271  51.8987 179.1570 0000301   4.6811 355.4154 14.79927592 11610
KUIPER-00572            
1 69272U 26118F   26218.91668981 -.00000643  00000+0 -47971-4 0  9997
2 69272  51.8993 173.6071 0004478  31.4476  49.9547 14.84776133  5148
KUIPER-00581            
1 69273U 26118G   26218.91838839 -.00000506  00000+0 -37253-4 0  9999
2 69273  51.8999 178.8260 0003297  51.2918 308.8338 14.79931980 11724
KUIPER-00584            
1 69274U 26118H   26218.15600374  .00001432  00000+0  21689-3 0  9999
2 69274  51.8998 184.8127 0000766  80.1913 279.9136 14.79911788 11488
KUIPER-00587            
1 69275U 26118J   26218.91668981 -.00044607  00000+0 -43443-2 0  9996
2 69275  51.8943 171.3267 0008837 350.8389 306.0574 14.92105811  4326
KUIPER-00590            
1 69276U 26118K   26218.91668981  .00000585  00000+0  10828-3 0  9994
2 69276  51.9005 176.3328 0002287  83.3497 257.7475 14.78849014  5700
KUIPER-00592            
1 69277U 26118L   26218.91668981 -.00000874  00000+0 -93583-4 0  9998
2 69277  51.9013 175.7155 0001087 316.9166   9.5965 14.76603392  4987
KUIPER-00593            
1 69278U 26118M   26218.08570218  .00015905  00000+0  43717-3 0  9994
2 69278  51.8694 171.6073 0003718   8.2201 351.8846 15.37362879 11721
KUIPER-00594            
1 69279U 26118N   26218.91668981 -.02159357  00000+0 -80132-1 0  9996
2 69279  51.8729 167.7552 0001224 112.8958  83.8919 15.30619534  4833
KUIPER-00595            
1 69280U 26118P   26218.35081464  .00015380  00000+0  41513-3 0  9996
2 69280  51.8697 170.3822 0001645  58.5506 301.5641 15.37957886 11732
KUIPER-00596            
1 69281U 26118Q   26218.20662230 -.00001032  00000+0 -10640-3 0  9995
2 69281  51.9008 184.4782 0000536 118.8429 241.2588 14.79917706 11498
KUIPER-00597            
1 69282U 26118R   26218.11359005  .00012816  00000+0  34549-3 0  9993
2 69282  51.8642 171.7524 0006763  12.9835 347.1325 15.38148592 11667
KUIPER-00599            
1 69283U 26118S   26218.91668981 -.00032809  00000+0 -29939-2 0  9990
2 69283  51.8933 171.6913 0004582 343.9931 164.1526 14.94547805  5410
KUIPER-00600            
1 69284U 26118T   26218.84330438  .00020116  00000+0  53960-3 0  9994
2 69284  51.8648 168.3837 0009123  15.8683 344.2588 15.37915963 11774
KUIPER-00601            
1 69285U 26118U   26218.92016463  .00001109  00000+0  18835-3 0  9996
2 69285  51.9010 176.1358 0001487 114.1923 245.9194 14.76489323 11676
KUIPER-00602            
1 69286U 26118V   26218.91668981 -.00080396  00000+0 -57020-2 0  9999
2 69286  51.8894 169.6227 0002792 342.7459  88.9219 15.04623813  5336
KUIPER-00603            
1 69287U 26118W   26218.91668981 -.00046835  00000+0 -50302-2 0  9996
2 69287  51.8978 171.3646 0003087  71.9341  51.2360 14.88245772  5597
KUIPER-00605            
1 69288U 26118X   26218.20934115  .00001814  00000+0  26679-3 0  9991
2 69288  51.8980 181.9572 0000747 177.4387 182.6579 14.79941166 11530
KUIPER-00606            
1 69289U 26118Y   26218.91668981 -.00047149  00000+0 -47016-2 0  9995
2 69289  51.8933 171.6343 0000787  26.9765  40.7950 14.91229363  4545
KUIPER-00607            
1 69290U 26118Z   26218.87967856  .00014263  00000+0  37908-3 0  9994
2 69290  51.8669 167.9084 0005465   3.2371 356.8651 15.38492895 11789
KUIPER-00608            
1 69291U 26118AA  26218.90664336  .00005971  00000+0  20459-3 0  9995
2 69291  51.8596 169.4954 0010614  21.5097 338.6331 15.31563391 11766
KUIPER-00610            
1 69292U 26118AB  26218.91668981 -.00431136  00000+0 -33943-1 0  9995
2 69292  51.9001 169.4210 0001689  98.8108 351.4465 15.02669442  5694
KUIPER-00613            
1 69293U 26118AC  26218.90152671  .00001643  00000+0  24439-3 0  9995
2 69293  51.9000 178.9063 0001029 110.3062 249.8011 14.79961844 11634
KUIPER-00618            
1 69294U 26118AD  26218.91668981 -.01885492  00000+0 -10922+0 0  9996
2 69294  51.8831 168.4941 0000828 338.9912 208.9557 15.15237410  5284
KUIPER-00620            
1 69295U 26118AE  26218.91668981 -.00087400  00000+0 -66714-2 0  9992
2 69295  51.8913 169.7789 0002807  10.5801 318.9041 15.01913947  4942
KUIPER-00423            
1 69592U 26140A   26218.98051007  .00009772  00000+0  25986-3 0  9990
2 69592  51.8794 152.6795 0013322 355.1487   4.9370 15.38819130  9052
KUIPER-00428            
1 69593U 26140B   26218.97679941  .00012816  00000+0  35591-3 0  9999
2 69593  51.8789 153.3903 0007519 105.6493 254.5324 15.37221268  9041
KUIPER-00481            
1 69594U 26140C   26218.93340574  .00021879  00000+0  57797-3 0  9994
2 69594  51.8790 153.1014 0012203   5.8447 354.2681 15.38302078  9045
KUIPER-00490            
1 69595U 26140D   26218.91668981 -.01212933  00000+0 -59929-1 0  9991
2 69595  51.8830 153.9850 0005305  48.8620 220.3952 15.20316097  4903
KUIPER-00493            
1 69596U 26140E   26218.91668981 -.00050429  00000+0 -46035-2 0  9996
2 69596  51.8937 156.8219 0008212 126.4145 124.7638 14.94717657  5094
KUIPER-00496            
1 69597U 26140F   26218.93128090  .00006919  00000+0  23072-3 0  9991
2 69597  51.8778 154.5447 0009691 139.0322 221.1392 15.32187423  9026
KUIPER-00513            
1 69598U 26140G   26218.91668981 -.01295057  00000+0 -68794-1 0  9992
2 69598  51.8853 153.9065 0006805  65.7277 197.0706 15.18020971  4694
KUIPER-00516            
1 69599U 26140H   26218.10874526  .00019184  00000+0  51338-3 0  9998
2 69599  51.8781 157.3167 0007455  72.1443 288.0357 15.38034167  8911
KUIPER-00517            
1 69600U 26140J   26218.93095457  .00012679  00000+0  35047-3 0  9991
2 69600  51.8764 153.0778 0010925  16.8674 343.2674 15.37348775  9046
KUIPER-00520            
1 69601U 26140K   26218.91668981 -.00972905  00000+0 -60003-1 0  9995
2 69601  51.8954 155.0308 0006418  84.6951 342.7200 15.12413863  4668
KUIPER-00522            
1 69602U 26140L   26218.53458899  .00018677  00000+0  52449-3 0  9991
2 69602  51.8773 154.9299 0013482 347.0168  13.0470 15.36497379  8986
KUIPER-00528            
1 69603U 26140M   26218.91668981 -.00035958  00000+0 -24784-2 0  9992
2 69603  51.8921 155.3064 0006574  70.1754 162.6847 15.05276544  2489
KUIPER-00532            
1 69604U 26140N   26218.92032727  .00006994  00000+0  20169-3 0  9997
2 69604  51.8776 153.7492 0005631 111.4163 248.7425 15.36836249  9035
KUIPER-00533            
1 69605U 26140P   26218.91668981 -.01374854  00000+0 -52929-1 0  9997
2 69605  51.8809 153.3371 0007721  44.9961 138.8448 15.28943991  2843
KUIPER-00534            
1 69606U 26140Q   26218.80024400  .00016734  00000+0  47626-3 0  9995
2 69606  51.8782 153.7243 0012734 359.9762   0.1221 15.36170366  9028
KUIPER-00537            
1 69607U 26140R   26218.91668981 -.00043103  00000+0 -31704-2 0  9997
2 69607  51.8913 156.7216 0008493 141.8826 251.6423 15.02922623  3557
KUIPER-00538            
1 69608U 26140S   26218.91668981 -.00021994  00000+0 -13707-2 0  9995
2 69608  51.8949 155.0815 0005534  56.0053  64.5686 15.08723846  5721
KUIPER-00540            
1 69609U 26140T   26218.97351859  .00014011  00000+0  38602-3 0  9997
2 69609  51.8807 153.3742 0006848  95.3068 264.8701 15.37387951  9043
KUIPER-00541            
1 69610U 26140U   26218.93129656  .00020553  00000+0  53623-3 0  9991
2 69610  51.8805 153.1069 0008788  39.2887 320.8737 15.38760921  9049
KUIPER-00542            
1 69611U 26140V   26218.08559528  .00010266  00000+0  27417-3 0  9995
2 69611  51.8770 157.1672 0008110  26.7137 333.4267 15.38674165  8910
KUIPER-00543            
1 69612U 26140W   26218.85357234  .00011708  00000+0  33000-3 0  9998
2 69612  51.8767 154.0473 0008087 108.0583 252.1285 15.36845727  9026
KUIPER-00544            
1 69613U 26140X   26218.87048889  .00016381  00000+0  43120-3 0  9990
2 69613  51.8792 153.4265 0007434  41.8180 318.3375 15.38664217  9030
KUIPER-00546            
1 69614U 26140Y   26218.85234305  .00019678  00000+0  52135-3 0  9997
2 69614  51.8772 153.3116 0014898 344.8489  15.2050 15.38246542  9033
KUIPER-00547            
1 69615U 26140Z   26218.87071717  .00021582  00000+0  57134-3 0  9997
2 69615  51.8812 153.4468 0011254  13.4177 346.7108 15.38255200  9033
KUIPER-00549            
1 69616U 26140AA  26218.83589304  .00018668  00000+0  51062-3 0  9995
2 69616  51.8766 153.9366 0008263  96.2700 263.9229 15.37369884  9027
KUIPER-00550            
1 69617U 26140AB  26218.85209343  .00000329  00000+0  23781-4 0  9993
2 69617  51.8780 155.5055 0010212 128.6800 231.5098 15.29619846  9005
KUIPER-00551            
1 69618U 26140AC  26218.53163012  .00015243  00000+0  40173-3 0  9995
2 69618  51.8772 154.9107 0012443   1.4448 358.6573 15.38638720  8989
KUIPER-00554            
1 69619U 26140AD  26218.93115071  .00013909  00000+0  36983-3 0  9993
2 69619  51.8780 153.0848 0011600  13.1387 346.9901 15.38458276  9046
KUIPER-00555            
1 69620U 26140AE  26218.08644351  .00019024  00000+0  50585-3 0  9997
2 69620  51.8816 157.1906 0010801 355.8515   4.2381 15.38210503  8919
KUIPER-00556            
1 69621U 26140AF  26218.92307748  .00015973  00000+0  42027-3 0  9998
2 69621  51.8797 153.0438 0011867 350.3717   9.7041 15.38657423  9044
KUIPER-00557            
1 69622U 26140AG  26218.09941431  .00017715  00000+0  47560-3 0  9993
2 69622  51.8806 157.2678 0009928  19.1424 340.9934 15.37973308  8916
KUIPER-00560            
1 69623U 26140AH  26218.55347225  .00014666  00000+0  40361-3 0  9990
2 69623  51.8793 155.0516 0009973  29.8083 330.3470 15.37359209  8981
KUIPER-00561            
1 69624U 26140AJ  26218.91668981 -.01471017  00000+0 -53298-1 0  9997
2 69624  51.8831 153.3697 0007810  12.9730 184.3987 15.31105966  5470
KUIPER-00564            
1 69625U 26140AK  26218.55681891  .00014821  00000+0  40735-3 0  9990
2 69625  51.8787 155.0834 0009920  23.2629 336.8805 15.37389853  8986
KUIPER-00567            
1 69626U 26140AL  26218.79228854  .00019233  00000+0  50920-3 0  9992
2 69626  51.8767 153.6530 0012882 350.7882   9.2867 15.38312950  9022
KUIPER-00573            
1 69627U 26140AM  26218.03834781  .00016742  00000+0  45074-3 0  9998
2 69627  51.8793 157.5952 0009595   4.6833 355.4243 15.37932460  8904
KUIPER-00258            
1 69763U 26151A   26218.80181049  .00017791  00000+0  54242-3 0  9990
2 69763  51.8687  71.7203 0010592 258.3468 101.6329 15.33975574  5489
KUIPER-00526            
1 69764U 26151B   26218.91668981 -.00025428  00000+0 -19435-2 0  9990
2 69764  51.8942  72.4532 0004010 264.0425  60.1287 15.01241115  5633
KUIPER-00558            
1 69765U 26151C   26218.91668981 -.00017969  00000+0 -11454-2 0  9995
2 69765  51.8863  72.8242 0006989 247.8577 312.5622 15.07762549  5689
KUIPER-00569            
1 69766U 26151D   26218.91668981  .00008172  00000+0  40432-3 0  9999
2 69766  51.8873  71.3434 0004900 254.0931 349.9464 15.18630318  4602
KUIPER-00589            
1 69767U 26151E   26218.91668981 -.00088442  00000+0 -60712-2 0  9992
2 69767  51.8952  72.1069 0006890 257.2878 264.5945 15.05870019  4166
KUIPER-00598            
1 69768U 26151F   26218.80954817  .00003123  00000+0  10871-3 0  9990
2 69768  51.8638  71.7565 0009350 249.2069 110.7915 15.32782256  5481
KUIPER-00604            
1 69769U 26151G   26218.91668981 -.02313947  00000+0 -86524-1 0  9995
2 69769  51.8841  70.4757 0002028 191.6347  70.5514 15.30631053  2796
KUIPER-00609            
1 69770U 26151H   26218.97725309 -.00324807  00000+0 -88668-2 0  9998
2 69770  51.8816  69.9480 0015298 321.9385  38.0520 15.38002270  5520
KUIPER-00611            
1 69771U 26151J   26218.91668981 -.01124405  00000+0 -45389-1 0  9990
2 69771  51.8849  70.5405 0001758 243.8856  13.3727 15.27346191  2571
KUIPER-00612            
1 69772U 26151K   26218.91668981 -.01687234  00000+0 -94172-1 0  9999
2 69772  51.8902  71.1582 0001716 231.7412  79.2488 15.16711295  2847
KUIPER-00614            
1 69773U 26151L   26218.91668981 -.01210563  00000+0 -48926-1 0  9993
2 69773  51.8850  70.5645 0002003 253.5032 309.3141 15.27043708  2935
KUIPER-00615            
1 69774U 26151M   26218.91668981 -.00069022  00000+0 -42696-2 0  9994
2 69774  51.8861  71.9694 0004963 265.5160  45.5467 15.09565878  4343
KUIPER-00616            
1 69775U 26151N   26218.58741540  .00165088  00000+0  41203-2 0  9991
2 69775  51.8811  71.8341 0004887 257.9966 102.0474 15.39046103  5460
KUIPER-00617            
1 69776U 26151P   26218.92501333  .00007867  00000+0  21530-3 0  9996
2 69776  51.8811  70.3452 0003973 222.2773 137.7909 15.38292237  5518
KUIPER-00619            
1 69777U 26151Q   26218.85356956 -.00218552  00000+0 -62885-2 0  9992
2 69777  51.8823  70.6116 0001431 179.1503 180.9486 15.36097204  5504
KUIPER-00621            
1 69778U 26151R   26218.91668981  .00012938  00000+0  46394-3 0  9990
2 69778  51.8852  70.4946 0001302 214.2129  54.3759 15.29042183  5637
KUIPER-00622            
1 69779U 26151S   26218.91668981 -.01780822  00000+0 -95284-1 0  9998
2 69779  51.8815  71.6029 0007187 236.2182 193.6244 15.17745948  5230
KUIPER-00623            
1 69780U 26151T   26218.91668981 -.01596760  00000+0 -79503-1 0  9992
2 69780  51.8886  71.0766 0004678 256.7806  40.3721 15.20414404  4774
KUIPER-00626            
1 69781U 26151U   26217.81962249  .00016762  00000+0  50588-3 0  9995
2 69781  51.8725  76.4001 0009690 250.0677 109.9265 15.34350904  5337
KUIPER-00627            
1 69782U 26151V   26218.80673834  .00019498  00000+0  62632-3 0  9997
2 69782  51.8712  71.7565 0011069 228.4652 131.5384 15.32238184  5484
KUIPER-00629            
1 69783U 26151W   26218.91668981 -.00046242  00000+0 -42514-2 0  9992
2 69783  51.8954  74.2100 0007886 281.1439  29.4532 14.94400341  5839
KUIPER-00631            
1 69784U 26151X   26218.91668981 -.00039165  00000+0 -37387-2 0  9991
2 69784  51.8953  74.1995 0011731 260.1210  11.5444 14.92810899  3224
KUIPER-00634            
1 69785U 26151Y   26218.91668981 -.00038091  00000+0 -20099-2 0  9991
2 69785  51.8913  71.2807 0003856 277.6068 298.3804 15.14974932  5236
KUIPER-00639            
1 69786U 26151Z   26218.85772264  .00010221  00000+0  31380-3 0  9994
2 69786  51.8705  71.3509 0009111 240.5254 119.4823 15.34290532  5493
KUIPER-00641            
1 69787U 26151AA  26218.81429434  .00013061  00000+0  42298-3 0  9994
2 69787  51.8681  71.8004 0011526 252.6264 107.3460 15.32298051  5484
KUIPER-00644            
1 69788U 26151AB  26218.89146156  .00009329  00000+0  26589-3 0  9997
2 69788  51.8749  70.8506 0008265 250.2409 109.7687 15.36763411  5496
KUIPER-00646            
1 69789U 26151AC  26218.91668981  .00003498  00000+0  12402-3 0  9996
2 69789  51.8718  71.1164 0009233 256.1842  47.8770 15.31788195  5338
KUIPER-00647            
1 69790U 26151AD  26218.91668981  .00003140  00000+0  11248-3 0  9999
2 69790  51.8675  71.1981 0009617 249.9156   8.4092 15.31810117  5489
KUIPER-00662            
1 69791U 26151AE  26218.91668981 -.00043116  00000+0 -39566-2 0  9991
2 69791  51.8984  73.7686 0009036 272.3855  77.0772 14.94431605  4513
