KUIPER-00008            
1 63724U 25088A   26123.50002315 -.00012898  00000+0 -16637-2 0  9999
2 63724  51.8989 205.6389 0000455  73.6743 271.6327 14.79991584  5382
KUIPER-00009            
1 63725U 25088B   26123.51753689 -.00001847  00000+0 -21318-3 0  9993
2 63725  51.9027 223.1714 0000883  33.7241 326.3777 14.79960302 55914
KUIPER-00010            
1 63726U 25088C   26123.47428917  .00004676  00000+0  64243-3 0  9997
2 63726  51.9006 200.8423 0000377  96.1959 263.9046 14.79898207 55849
KUIPER-00011            
1 63727U 25088D   26123.50000757 -.00010709  00000+0 -13780-2 0  9995
2 63727  51.9002 208.2876 0000555  92.8857 267.2169 14.79930809 55879
KUIPER-00012            
1 63728U 25088E   26123.48242154  .00007048  00000+0  95178-3 0  9994
2 63728  51.9004 193.2930 0000619  73.8512 286.2519 14.79964471 56035
KUIPER-00013            
1 63729U 25088F   26123.27858578  .00005144  00000+0  70306-3 0  9996
2 63729  51.9015 226.7123 0000417 200.4750 159.6196 14.79940092 55656
KUIPER-00014            
1 63730U 25088G   26123.51510010  .00004502  00000+0  61949-3 0  9991
2 63730  51.9006 225.6107 0000869 134.1098 225.9936 14.79912897 55502
KUIPER-00015            
1 63731U 25088H   26123.47038845 -.00000163  00000+0  75976-5 0  9995
2 63731  51.8993 235.8863 0000432  96.8424 263.2587 14.79933211 55816
KUIPER-00016            
1 63732U 25088J   26123.51161676  .00005075  00000+0  69133-3 0  9992
2 63732  51.8998 228.1422 0000448 116.2037 243.8971 14.80106649 55463
KUIPER-00018            
1 63733U 25088K   26123.55676586  .00004354  00000+0  59974-3 0  9999
2 63733  51.9024 217.9595 0000528  93.9656 266.1367 14.79933166 55613
KUIPER-00019            
1 63734U 25088L   26123.56098332  .00004096  00000+0  61253-3 0  9994
2 63734  51.8995 216.4858 0000505  88.5396 271.5623 14.76519161 55631
KUIPER-00020            
1 63735U 25088M   26123.55408760 -.00001353  00000+0 -14851-3 0  9991
2 63735  51.9019 220.4854 0000441 229.2600 130.8324 14.79926461 55781
KUIPER-00021            
1 63736U 25088N   26122.97993283  .00057869  00000+0  76358-2 0  9996
2 63736  51.8999 222.9865 0000334 104.3661 255.7338 14.79482723 55531
KUIPER-00023            
1 63737U 25088P   26123.28025947 -.00011338  00000+0 -14645-2 0  9999
2 63737  51.8984 224.1315 0001000  92.2651 267.8425 14.79825410 55844
KUIPER-00024            
1 63738U 25088Q   26123.49734003  .00003674  00000+0  51045-3 0  9991
2 63738  51.9029 210.7691 0000459  88.9994 271.1021 14.79950712 56174
KUIPER-00025            
1 63739U 25088R   26123.52297397  .00004139  00000+0  57108-3 0  9999
2 63739  51.9045 218.1351 0000273  64.7929 295.3062 14.79969984 55939
KUIPER-00027            
1 63740U 25088S   26123.42712972  .00003148  00000+0  44175-3 0  9990
2 63740  51.9013 213.5416 0000562  90.9254 269.1773 14.79928721 55729
KUIPER-00028            
1 63741U 25088T   26123.53110698  .00004629  00000+0  63566-3 0  9990
2 63741  51.8994 210.5433 0000542  98.8181 261.2843 14.79939893 56181
KUIPER-00029            
1 63742U 25088U   26123.51884822  .00003955  00000+0  59039-3 0  9997
2 63742  51.9010 208.6950 0002527  40.4242 319.6907 14.76678881 55733
KUIPER-00030            
1 63743U 25088V   26123.00538864  .00005371  00000+0  73125-3 0  9990
2 63743  51.9012 230.3629 0000395  49.7558 310.3439 14.80036332 55679
KUIPER-00031            
1 63744U 25088W   26123.52512191  .00005017  00000+0  62062-3 0  9998
2 63744  51.9008 211.6736 0001369 325.4163  34.6712 14.84206705 55693
KUIPER-00032            
1 63745U 25088X   26123.24245358  .00015398  00000+0  40242-3 0  9995
2 63745  51.8670 120.0722 0004650 329.9854  30.0866 15.38948717 57944
KUIPER-00033            
1 63746U 25088Y   26123.02335898  .00004769  00000+0  65406-3 0  9990
2 63746  51.9002 245.3141 0000633 100.2886 259.8148 14.79935373 55662
KUIPER-00034            
1 63747U 25088Z   26123.53649409  .00003157  00000+0  44271-3 0  9990
2 63747  51.9014 205.5729 0000480  88.8823 271.2194 14.79949877 55942
KUIPER-00035            
1 63748U 25088AA  26123.03679943  .00001995  00000+0  29059-3 0  9997
2 63748  51.9005 232.7661 0000295 258.7543 101.3386 14.79933608 55571
KUIPER-00037            
1 63749U 25088AB  26123.55767405  .00006092  00000+0  75992-3 0  9996
2 63749  51.8998 229.8860 0000099 148.4455 211.6515 14.83524794 56442
KUIPER-00038            
1 63750U 25088AC  26123.55947707  .00005111  00000+0  69861-3 0  9992
2 63750  51.9018 215.4658 0000569  98.0126 262.0901 14.79953192 55644
KUIPER-00039            
1 64500U 25134A   26123.32946183  .00001828  00000+0  26889-3 0  9994
2 64500  51.9026 351.4831 0000778 116.5919 243.5124 14.79915680 48169
KUIPER-00040            
1 64501U 25134B   26123.35263569  .00004498  00000+0  61955-3 0  9997
2 64501  51.9002   1.4821 0001467  95.2479 264.8650 14.79874443 48021
KUIPER-00041            
1 64502U 25134C   26123.38353322  .00004491  00000+0  61784-3 0  9991
2 64502  51.9009   3.7241 0000751 105.3403 254.7643 14.79921202 47996
KUIPER-00042            
1 64503U 25134D   26123.50002315  .00014918  00000+0  19512-2 0  9995
2 64503  51.8997 358.1929 0002065  77.4123 332.6451 14.80584562  3115
KUIPER-00043            
1 64504U 25134E   26123.36321287  .00000121  00000+0  44970-4 0  9991
2 64504  51.9060 351.2738 0002400  80.1254 279.9979 14.79938452 48171
KUIPER-00044            
1 64505U 25134F   26123.50002315  .00010907  00000+0  14186-2 0  9993
2 64505  51.9003   3.1987 0001028  75.4234   0.1283 14.81074440  5455
KUIPER-00046            
1 64506U 25134G   26123.38619154  .00000450  00000+0  88005-4 0  9990
2 64506  51.9007   1.1746 0000896 105.3415 254.7646 14.79940370 48039
KUIPER-00047            
1 64507U 25134H   26123.31465701  .00004247  00000+0  58539-3 0  9997
2 64507  51.9002 334.0099 0000637 107.3124 252.7908 14.79957556 48400
KUIPER-00048            
1 64508U 25134J   26123.28079119  .00002056  00000+0  29850-3 0  9998
2 64508  51.8993 334.1719 0000412  86.9332 273.1677 14.79946030 48408
KUIPER-00049            
1 64509U 25134K   26122.89590914  .00003911  00000+0  54166-3 0  9995
2 64509  51.9012 348.3320 0000824 101.0668 259.0387 14.79936222 48172
KUIPER-00050            
1 64510U 25134L   26122.98230635 -.00003353  00000+0 -41101-3 0  9995
2 64510  51.9014 330.4748 0000801 113.1846 246.9201 14.79928469 48432
KUIPER-00051            
1 64511U 25134M   26123.02031772  .00003643  00000+0  54818-3 0  9992
2 64511  51.9017 345.9160 0000997 229.1404 130.9471 14.76524160 48213
KUIPER-00053            
1 64513U 25134P   26123.31552376  .00002495  00000+0  34253-3 0  9999
2 64513  51.9016 341.2910 0002056  60.9942 299.1227 14.81627213 48308
KUIPER-00054            
1 64514U 25134Q   26123.27811388  .00004509  00000+0  62011-3 0  9997
2 64514  51.8997 336.6683 0000640 112.7699 247.3331 14.79933225 48360
KUIPER-00055            
1 64515U 25134R   26120.79228871  .00082831  00000+0  11567-1 0  9993
2 64515  51.9040 300.2203 0001562 125.0297 235.0811 14.76870570 48661
KUIPER-00056            
1 64516U 25134S   26123.30646712  .00000232  00000+0  59421-4 0  9991
2 64516  51.9029 341.6114 0000553 100.0901 260.0123 14.79946366 48308
KUIPER-00057            
1 64517U 25134T   26123.36590763 -.00002630  00000+0 -31610-3 0  9997
2 64517  51.9010 348.7986 0000688 103.9148 256.1891 14.79929878 48204
KUIPER-00058            
1 64518U 25134U   26123.33755010  .00004474  00000+0  61546-3 0  9990
2 64518  51.9015 343.8860 0000673  96.6700 263.4339 14.79934812 48272
KUIPER-00059            
1 64519U 25134V   26123.00529010  .00004003  00000+0  55367-3 0  9996
2 64519  51.9005 340.4017 0000913 105.2477 254.8587 14.79945255 48298
KUIPER-00060            
1 64520U 25134W   26123.30898156 -.00009400  00000+0 -12059-2 0  9999
2 64520  51.9035 339.1037 0000756 108.8415 251.2629 14.79929568 48327
KUIPER-00061            
1 64521U 25134X   26123.33394586  .00004131  00000+0  56850-3 0  9993
2 64521  51.9019 346.4495 0001139 106.1137 253.9951 14.80083811 48227
KUIPER-00062            
1 64522U 25134Y   26123.33215218  .00001322  00000+0  20240-3 0  9991
2 64522  51.8976 348.9744 0000782  93.1835 266.9217 14.79941056 48205
KUIPER-00063            
1 64523U 25134Z   26122.85137493  .00004072  00000+0  56292-3 0  9997
2 64523  51.9040 358.6109 0000697 104.0012 256.1028 14.79925968 48021
KUIPER-00064            
1 64524U 25134AA  26123.32674508  .00004241  00000+0  58465-3 0  9996
2 64524  51.9044 353.9310 0000706 103.7580 256.3461 14.79953668 48138
KUIPER-00065            
1 64525U 25134AB  26123.38892171  .00004374  00000+0  60255-3 0  9998
2 64525  51.9056 358.8205 0000690 105.4718 254.6321 14.79921304 48052
KUIPER-00066            
1 64526U 25134AC  26123.49003566  .00004014  00000+0  55506-3 0  9997
2 64526  51.9020 295.6621 0000468 157.3508 202.7475 14.79941632 48960
KUIPER-00069            
1 64816U 25151A   26123.48083115  .00004877  00000+0  66814-3 0  9996
2 64816  51.9033  38.3448 0000640 110.5712 249.5320 14.79939024 44871
KUIPER-00070            
1 64817U 25151B   26123.21750788  .00004678  00000+0  64214-3 0  9996
2 64817  51.9002  64.4345 0000669  93.9619 266.1419 14.79936451 44498
KUIPER-00071            
1 64818U 25151C   26123.22020530  .00004574  00000+0  62847-3 0  9998
2 64818  51.9017  61.9517 0000742  88.7299 271.3748 14.79938453 43346
KUIPER-00072            
1 64819U 25151D   26123.14047070  .00005407  00000+0  73808-3 0  9993
2 64819  51.8992  42.2728 0001012  94.2152 265.8926 14.79912407 43612
KUIPER-00073            
1 64820U 25151E   26123.52406753 -.00000674  00000+0 -59432-4 0  9995
2 64820  51.9000  60.5953 0001312  85.1164 274.9948 14.79937797 44573
KUIPER-00074            
1 64821U 25151F   26123.40652352  .00298581  00000+0  17699-2 0  9992
2 64821  51.8968  16.2291 0005548 182.4761 177.6216 15.76620988 43999
KUIPER-00075            
1 64822U 25151G   26123.52582653  .00046351  00000+0  10249-2 0  9992
2 64822  51.8702 314.5737 0003387 120.9469 239.1853 15.43360336 44866
KUIPER-00076            
1 64823U 25151H   26122.79214242  .00004432  00000+0  60991-3 0  9991
2 64823  51.9020  53.8506 0001346  84.3663 275.7453 14.79935985 43429
KUIPER-00077            
1 64824U 25151J   26123.52946844  .00001677  00000+0  24909-3 0  9991
2 64824  51.9021  55.6037 0000788 105.6407 254.4642 14.79907677 43467
KUIPER-00078            
1 64825U 25151K   26123.49841199  .00004385  00000+0  60375-3 0  9991
2 64825  51.9014  53.2250 0000803  92.7918 267.3136 14.79940363 43495
KUIPER-00079            
1 64826U 25151L   26123.52678868  .00004573  00000+0  62845-3 0  9990
2 64826  51.9004  58.0684 0000820  95.1289 264.9767 14.79936027 44627
KUIPER-00080            
1 64827U 25151M   26123.08783958  .00004303  00000+0  59313-3 0  9996
2 64827  51.9005  60.0174 0000719 102.1300 257.9743 14.79934310 43365
KUIPER-00082            
1 64828U 25151N   26123.47274144  .00004551  00000+0  62548-3 0  9991
2 64828  51.9023  45.8570 0000728 102.0095 258.0949 14.79937404 43599
KUIPER-00083            
1 64829U 25151P   26123.53216596  .00002330  00000+0  33438-3 0  9995
2 64829  51.9046  53.0803 0001252  80.3268 279.7836 14.79949769 44681
KUIPER-00084            
1 64830U 25151Q   26123.25123791  .00004043  00000+0  55869-3 0  9995
2 64830  51.9014  64.3071 0000757  96.7286 263.3763 14.79955158 43316
KUIPER-00085            
1 64831U 25151R   26123.50651363  .00004433  00000+0  61000-3 0  9992
2 64831  51.9048  45.7440 0000603  96.5632 263.5399 14.79938430 43591
KUIPER-00086            
1 64832U 25151S   26123.49570082  .00000816  00000+0  13598-3 0  9999
2 64832  51.9013  55.7462 0002049  59.6519 300.4646 14.79944271 43450
KUIPER-00087            
1 64833U 25151T   26123.44703759 -.00000852  00000+0 -82665-4 0  9998
2 64833  51.8971  38.4371 0001422  91.3564 268.7561 14.79941083 43682
KUIPER-00089            
1 64834U 25151U   26123.50919409  .00004122  00000+0  56944-3 0  9999
2 64834  51.9023  43.1794 0000658  98.9867 261.1170 14.79932334 43630
KUIPER-00090            
1 64835U 25151V   26123.44975749  .00003266  00000+0  45725-3 0  9995
2 64835  51.8996  35.9634 0000678 124.0540 236.0487 14.79926126 43726
KUIPER-00091            
1 64836U 25151W   26123.03901555  .00004388  00000+0  60321-3 0  9990
2 64836  51.9023  42.7682 0000946  90.9982 269.1089 14.80000669 43594
KUIPER-00092            
1 64837U 25151X   26123.50379241 -.00002143  00000+0 -25221-3 0  9993
2 64837  51.9020  48.2096 0000767  95.4875 264.6175 14.79924686 44773
KUIPER-00093            
1 64838U 25151Y   26123.50089242  .00004518  00000+0  62266-3 0  9999
2 64838  51.9008  50.6987 0000667  80.2216 279.8822 14.79837725 43522
KUIPER-00094            
1 64839U 25151Z   26123.37693429  .00009632  00000+0  69207-3 0  9997
2 64839  51.8906  10.9720 0007104 120.4462 239.7213 15.04850688 44078
KUIPER-00081            
1 65132U 25171A   26123.42113402 -.00000618  00000+0 -52108-4 0  9990
2 65132  51.8994 266.0503 0000914  96.1277 263.9790 14.79934391 41149
KUIPER-00088            
1 65133U 25171B   26123.46980873  .00004462  00000+0  61377-3 0  9995
2 65133  51.8995 283.3405 0000733 100.1566 259.9479 14.79939988 40909
KUIPER-00095            
1 65134U 25171C   26123.42384006 -.00001610  00000+0 -18226-3 0  9997
2 65134  51.8988 263.6033 0000604 104.6495 255.4534 14.79931149 41171
KUIPER-00096            
1 65135U 25171D   26123.44413260  .00004540  00000+0  62407-3 0  9998
2 65135  51.9001 275.9538 0000588 106.4578 253.6449 14.79936317 41007
KUIPER-00097            
1 65136U 25171E   26123.17131289  .00004845  00000+0  66389-3 0  9998
2 65136  51.9026 279.8003 0000480  99.0932 261.0085 14.79945596 40914
KUIPER-00098            
1 65137U 25171F   26123.43872611 -.00000584  00000+0 -47584-4 0  9994
2 65137  51.9010 280.9905 0000605 103.6606 256.4424 14.79919340 40273
KUIPER-00099            
1 65138U 25171G   26123.41574883  .00000191  00000+0  54056-4 0  9997
2 65138  51.9026 271.0853 0000594 103.6935 256.4093 14.79915482 41069
KUIPER-00100            
1 65139U 25171H   26122.84442769  .00015462  00000+0  20502-2 0  9995
2 65139  51.9013 271.0882 0000854 124.3099 235.7944 14.79980664 41012
KUIPER-00102            
1 65140U 25171J   26123.44951198  .00001123  00000+0  17633-3 0  9996
2 65140  51.8972 270.9201 0000764  99.9373 260.1675 14.79918712 41065
KUIPER-00103            
1 65141U 25171K   26123.46439874 -.00002765  00000+0 -33392-3 0  9996
2 65141  51.9016 288.3493 0000568  90.9809 269.1218 14.79918710 40822
KUIPER-00104            
1 65142U 25171L   26123.41035127  .00000571  00000+0  10391-3 0  9990
2 65142  51.9008 276.0664 0000600 102.4537 257.6492 14.79923803 40995
KUIPER-00105            
1 65143U 25171M   26123.16592000  .00004533  00000+0  62301-3 0  9991
2 65143  51.9010 284.7606 0000601 108.6532 251.4496 14.79945750 40851
KUIPER-00106            
1 65144U 25171N   26123.10566895  .00006182  00000+0  54444-3 0  9990
2 65144  51.8932 267.6453 0006965 284.4374  75.5822 14.97619856 41090
KUIPER-00107            
1 65145U 25171P   26123.38737904  .00004680  00000+0  64227-3 0  9993
2 65145  51.9011 266.2205 0000645 102.2463 257.8572 14.79944362 41130
KUIPER-00108            
1 65146U 25171Q   26123.47518443 -.00000522  00000+0 -39479-4 0  9994
2 65146  51.8985 278.3583 0001521  66.0081 294.1041 14.79936490 40979
KUIPER-00109            
1 65147U 25171R   26123.44682873  .00004747  00000+0  65152-3 0  9998
2 65147  51.9020 273.4246 0000683 101.0197 259.0842 14.79911474 41031
KUIPER-00110            
1 65148U 25171S   26123.46708910 -.00000147  00000+0  96755-5 0  9998
2 65148  51.9006 285.9103 0000947 117.8527 242.2532 14.79938120 40857
KUIPER-00111            
1 65149U 25171T   26123.49546895  .00003963  00000+0  54844-3 0  9993
2 65149  51.8971 290.6810 0000598 103.4693 256.6336 14.79937716 40797
KUIPER-00112            
1 65150U 25171U   26123.41275044  .00003986  00000+0  55040-3 0  9996
2 65150  51.9020 273.6244 0000547 138.1849 221.9155 14.80017966 41028
KUIPER-00114            
1 65151U 25171V   26123.49277580  .00004202  00000+0  57978-3 0  9996
2 65151  51.8991 293.2602 0000609  99.5755 260.5276 14.79940626 40754
KUIPER-00115            
1 65152U 25171W   26123.43333779 -.00000435  00000+0 -28076-4 0  9998
2 65152  51.8990 286.0155 0000535 101.6388 258.4634 14.79926212 40852
KUIPER-00116            
1 65153U 25171X   26123.19160944  .00004452  00000+0  61267-3 0  9993
2 65153  51.9001 292.1227 0000638 112.1776 247.9254 14.79929964 40743
KUIPER-00118            
1 65154U 25171Y   26123.45852641  .00004042  00000+0  55757-3 0  9997
2 65154  51.8995 293.3918 0000853 131.4576 228.6459 14.80037533 40754
KUIPER-00119            
1 65155U 25171Z   26123.47594225  .00008929  00000+0  12160-2 0  9999
2 65155  51.9004 280.9417 0001200  47.6354 312.4710 14.79324328 40922
KUIPER-00120            
1 65762U 25217A   26123.50672686  .00000125  00000+0  45421-4 0  9994
2 65762  51.8969 170.6630 0000502  96.4524 263.6496 14.79924602 32854
KUIPER-00132            
1 65763U 25217B   26123.23240051  .00036558  00000+0  86279-3 0  9996
2 65763  51.8563  98.3195 0006125 150.8946 209.2384 15.41507298 33836
KUIPER-00133            
1 65764U 25217C   26123.40543007  .00003083  00000+0  43307-3 0  9995
2 65764  51.9016 171.1868 0000155 134.2844 225.8131 14.79946964 32849
KUIPER-00139            
1 65765U 25217D   26123.46420980  .00006028  00000+0  47088-3 0  9998
2 65765  51.8831 142.9490 0008231 126.5436 233.6294 15.02315070 33242
KUIPER-00142            
1 65766U 25217E   26123.39054975  .00003058  00000+0  42991-3 0  9996
2 65766  51.8982 153.7004 0000443  87.3104 272.7909 14.79939518 33085
KUIPER-00145            
1 65767U 25217F   26123.38784583  .00001688  00000+0  25032-3 0  9995
2 65767  51.8978 156.2288 0000457  97.4758 262.6256 14.79937488 33048
KUIPER-00147            
1 65768U 25217G   26123.48638167 -.00004465  00000+0 -55723-3 0  9991
2 65768  51.8955 158.2833 0000562  21.4851 338.6135 14.79919060 33024
KUIPER-00148            
1 65769U 25217H   26123.31878069  .00002257  00000+0  35304-3 0  9999
2 65769  51.9030 139.5765 0001808 189.6723 170.4203 14.76312467 33275
KUIPER-00150            
1 65770U 25217J   26123.40811853  .00002961  00000+0  41709-3 0  9997
2 65770  51.8992 168.6476 0000430  73.0955 287.0054 14.79946609 32876
KUIPER-00151            
1 65771U 25217K   26123.41619204  .00003081  00000+0  43277-3 0  9991
2 65771  51.8993 161.1085 0000356  42.8419 317.2571 14.79952619 32988
KUIPER-00152            
1 65772U 25217L   26123.32841825  .00002815  00000+0  39829-3 0  9990
2 65772  51.8986 148.9857 0000398  53.4678 306.6320 14.79917793 33149
KUIPER-00153            
1 65773U 25217M   26123.44854882  .00002022  00000+0  31832-3 0  9997
2 65773  51.9001 143.3071 0000310 300.4667  59.6263 14.76474164 33231
KUIPER-00155            
1 65774U 25217N   26123.50002315 -.00006579  00000+0 -76704-3 0  9991
2 65774  51.9001 115.8386 0003532 100.9472 223.0397 14.83410440  4868
KUIPER-00156            
1 65775U 25217P   26123.43510873  .00002561  00000+0  36472-3 0  9990
2 65775  51.9006 143.5563 0000491  77.1526 282.9491 14.79937884 33227
KUIPER-00163            
1 65777U 25217R   26123.48530470  .00106988  00000+0  63600-3 0  9993
2 65777  51.8962 136.7184 0003577  42.2439 317.8840 15.77165164 33326
KUIPER-00165            
1 65778U 25217S   26123.49182870  .00002718  00000+0  38522-3 0  9993
2 65778  51.8993 153.2658 0000435  56.2516 303.8488 14.79945715 33098
KUIPER-00166            
1 65779U 25217T   26123.33652528  .00002710  00000+0  38451-3 0  9992
2 65779  51.9003 141.4870 0000515  76.3477 283.7543 14.79918036 33246
KUIPER-00167            
1 65780U 25217U   26123.41353985  .00003015  00000+0  42443-3 0  9993
2 65780  51.8948 163.5538 0000580  95.4837 264.6192 14.79920842 32947
KUIPER-00168            
1 65781U 25217V   26123.43241330  .00002564  00000+0  36524-3 0  9997
2 65781  51.8988 146.0320 0000463  81.6832 278.4183 14.79929365 33199
KUIPER-00169            
1 65782U 25217W   26123.35950544  .00002633  00000+0  37444-3 0  9992
2 65782  51.8990 151.3600 0000495  80.4710 279.6308 14.79916503 33114
KUIPER-00170            
1 65783U 25217X   26123.48867845  .00002621  00000+0  37186-3 0  9998
2 65783  51.8967 155.7576 0000343  30.0119 330.0863 14.80022141 33065
KUIPER-00172            
1 65785U 25217Z   26123.48332498  .00001859  00000+0  29372-3 0  9991
2 65785  51.8964 137.7137 0001507 127.2714 232.8385 14.76684058 33312
KUIPER-00173            
1 65786U 25217AA  26123.25858552  .00021085  00000+0  27803-2 0  9990
2 65786  51.8984 151.8100 0000726 340.2559  19.8375 14.80021090 33091
KUIPER-00174            
1 65787U 25217AB  26123.33109632  .00003403  00000+0  47499-3 0  9996
2 65787  51.9010 146.5185 0000535  61.8054 298.2962 14.79945025 33176
KUIPER-00176            
1 65788U 25217AC  26123.11232899  .00002842  00000+0  40149-3 0  9996
2 65788  51.8978 162.4417 0000401  75.4601 284.6406 14.79944144 32931
KUIPER-00101            
1 65947U 25228A   26123.25942282  .00002610  00000+0  37123-3 0  9995
2 65947  51.8964 119.2592 0000512  58.1331 301.9681 14.79938020 31313
KUIPER-00113            
1 65948U 25228B   26123.23124728  .00002985  00000+0  42035-3 0  9994
2 65948  51.8965 114.4033 0000465  42.8206 317.2792 14.79930613 31379
KUIPER-00117            
1 65949U 25228C   26123.26217638  .00002875  00000+0  40602-3 0  9997
2 65949  51.8973 116.7672 0000583  64.8328 295.2695 14.79923897 31343
KUIPER-00121            
1 65950U 25228D   26123.23376764  .00002924  00000+0  41233-3 0  9998
2 65950  51.8978 111.8954 0000819  50.2431 309.8604 14.79935804 31416
KUIPER-00122            
1 65951U 25228E   26123.29053830  .00002787  00000+0  39448-3 0  9993
2 65951  51.8976 121.6214 0000521  70.2486 289.8532 14.79920214 31286
KUIPER-00123            
1 65952U 25228F   26123.39196728  .00002933  00000+0  41421-3 0  9996
2 65952  51.8966 121.1905 0000716  95.0781 265.0263 14.79871609 31298
KUIPER-00124            
1 65953U 25228G   26123.26484527  .00002863  00000+0  40426-3 0  9996
2 65953  51.8970 114.2397 0000649  78.3591 281.7444 14.79941895 31381
KUIPER-00125            
1 65954U 25228H   26123.34856317  .00003360  00000+0  46924-3 0  9998
2 65954  51.8992  98.9021 0000733  59.8226 300.2808 14.79956275 31605
KUIPER-00126            
1 65955U 25228J   26123.36074458  .00000217  00000+0  57431-4 0  9993
2 65955  51.8963 118.8400 0000481  65.3644 294.7368 14.79950456 31325
KUIPER-00127            
1 65956U 25228K   26120.98854234 -.00015584  00000+0 -19730-2 0  9990
2 65956  51.8995 121.7938 0000984 128.9231 231.1820 14.80911856 31080
KUIPER-00128            
1 65957U 25228L   26123.26754396  .00003026  00000+0  42555-3 0  9991
2 65957  51.8994 111.7782 0000629  58.8770 301.2254 14.79950273 31412
KUIPER-00129            
1 65958U 25228M   26123.23919245  .00003070  00000+0  43138-3 0  9992
2 65958  51.8990 106.8868 0000635  54.2356 305.8665 14.79941232 31484
KUIPER-00130            
1 65959U 25228N   26123.27026787  .00003043  00000+0  42796-3 0  9996
2 65959  51.9013 109.2676 0000581  65.1161 294.9861 14.79934216 21749
KUIPER-00134            
1 65960U 25228P   26123.50581531  .00029574  00000+0  73293-3 0  9990
2 65960  51.8742  54.4812 0006374 138.2796 221.8679 15.40133193 32230
KUIPER-00135            
1 65961U 25228Q   26123.30404235  .00003130  00000+0  43936-3 0  9995
2 65961  51.9004 109.1767 0000580  69.1782 290.9243 14.79928951 31452
KUIPER-00136            
1 65962U 25228R   26123.34103729  .00003201  00000+0  44945-3 0  9994
2 65962  51.8984 106.4832 0000809  46.0653 314.0376 14.79865787 31493
KUIPER-00137            
1 65963U 25228S   26123.34319323  .00007235  00000+0  97756-3 0  9993
2 65963  51.9031 103.9452 0000868  99.3193 260.7867 14.79909120 31530
KUIPER-00138            
1 65964U 25228T   26123.31210473 -.00002271  00000+0 -26904-3 0  9991
2 65964  51.8976 101.5431 0000709  78.9644 281.1398 14.79931639 31566
KUIPER-00140            
1 65965U 25228U   26123.24189686  .00003333  00000+0  46599-3 0  9995
2 65965  51.8977 104.4392 0000622  77.6735 282.4297 14.79930007 31512
KUIPER-00141            
1 65966U 25228V   26123.17972352  .00003356  00000+0  46867-3 0  9991
2 65966  51.9011  99.7443 0000643  73.3584 286.7449 14.79959398 31570
KUIPER-00146            
1 65967U 25228W   26123.21082727 -.00000231  00000+0 -12992-5 0  9990
2 65967  51.9016 102.1156 0000723  93.3456 266.7589 14.79926224 31547
KUIPER-00149            
1 65968U 25228X   26123.11492489  .00003379  00000+0  47196-3 0  9996
2 65968  51.9000  97.4384 0000662  61.2770 298.8259 14.79936937 31604
KUIPER-00154            
1 65969U 25228Y   26123.28644284  .00003497  00000+0  48758-3 0  9993
2 65969  51.8995  94.1785 0000635  91.1428 268.9607 14.79920629 31660
KUIPER-00157            
1 65970U 25228Z   26123.21622445 -.00000094  00000+0  16661-4 0  9993
2 65970  51.8998  97.1095 0000729  61.8444 298.2592 14.79927239 31616
KUIPER-00144            
1 67133U 25301A   26123.50002315  .00019901  00000+0  28571-2 0  9995
2 67133  51.8984 172.4461 0000473  18.9147 192.7046 14.76440245  5681
KUIPER-00164            
1 67134U 25301B   26123.34794066  .00002388  00000+0  37046-3 0  9998
2 67134  51.9020 184.5895 0001773 106.5323 253.5833 14.76463477 21997
KUIPER-00175            
1 67135U 25301C   26123.42741505  .00004174  00000+0  42942-3 0  9994
2 67135  51.8936 173.9672 0000485  58.1494 301.9521 14.92178099 22048
KUIPER-00179            
1 67136U 25301D   26123.45946419 -.00000444  00000+0 -29266-4 0  9992
2 67136  51.8986 183.4111 0000673  97.2950 262.8088 14.79898965 22025
KUIPER-00181            
1 67137U 25301E   26123.44606066  .00018155  00000+0  24027-2 0  9997
2 67137  51.9023 195.9786 0001724  43.4540 316.6558 14.79955858 21823
KUIPER-00183            
1 67138U 25301F   26122.87297713  .00003930  00000+0  40204-3 0  9990
2 67138  51.8934 177.3731 0008693 247.8615 112.1431 14.92553383 22049
KUIPER-00184            
1 67139U 25301G   26123.42844688  .00002039  00000+0  32107-3 0  9994
2 67139  51.8977 177.8221 0001943  83.3864 276.7318 14.76422739 22195
KUIPER-00186            
1 67140U 25301H   26123.47976748 -.00000760  00000+0 -70719-4 0  9997
2 67140  51.9008 195.8402 0000451  81.1962 278.9051 14.79919166 21670
KUIPER-00187            
1 67141U 25301J   26123.47708301  .00003855  00000+0  53447-3 0  9990
2 67141  51.9025 198.3710 0000558  93.8024 266.3002 14.79928521 21635
KUIPER-00188            
1 67142U 25301K   26123.50002315  .00003653  00000+0  47494-3 0  9998
2 67142  51.9006 165.6007 0000802 167.3199  82.2193 14.82799010  5678
KUIPER-00191            
1 67143U 25301L   26123.51890681 -.00000684  00000+0 -60677-4 0  9993
2 67143  51.8994 190.6895 0000416  97.2976 262.8034 14.79936736 21775
KUIPER-00196            
1 67144U 25301M   26123.40522646  .00026537  00000+0  69312-3 0  9992
2 67144  51.8689 159.9515 0001962 190.6276 169.4670 15.38600593 22169
KUIPER-00204            
1 67145U 25301N   26123.40509604  .00017381  00000+0  67497-3 0  9991
2 67145  51.8805 170.2372 0002321  82.2274 277.8971 15.26160053 22135
KUIPER-00210            
1 67146U 25301P   26123.48516066  .00000174  00000+0  51870-4 0  9991
2 67146  51.8997 190.7975 0000425 104.3220 255.7789 14.79924137 21919
KUIPER-00221            
1 67147U 25301Q   26123.51083336  .00003652  00000+0  50767-3 0  9992
2 67147  51.9013 198.1966 0000417  84.2801 275.8208 14.79942651 21644
KUIPER-00232            
1 67148U 25301R   26123.42096951  .00075920  00000+0  10601-1 0  9998
2 67148  51.8963 183.5819 0001028 128.2125 231.8929 14.76928209 21833
KUIPER-00241            
1 67149U 25301S   26123.44868944  .00001047  00000+0  16625-3 0  9993
2 67149  51.9015 193.4839 0001414  78.7492 281.3630 14.79941758 22039
KUIPER-00245            
1 67150U 25301T   26123.50813119  .00003808  00000+0  52797-3 0  9993
2 67150  51.9013 200.7347 0000290  86.2596 273.8400 14.79950070 21605
KUIPER-00246            
1 67151U 25301U   26123.35551421  .00003540  00000+0  49313-3 0  9995
2 67151  51.9002 186.3790 0000513  82.2852 277.8168 14.79926727 21814
KUIPER-00247            
1 67152U 25301V   26123.50002315  .00056741  00000+0  74872-2 0  9994
2 67152  51.8942 175.7389 0000335 172.1736 182.2979 14.79492214  5624
KUIPER-00248            
1 67153U 25301W   26123.50002315  .00043844  00000+0  19109-2 0  9997
2 67153  51.8761 160.9229 0005130 227.2982 253.3988 15.21748248  4174
KUIPER-00249            
1 67154U 25301X   26123.42166234  .00002256  00000+0  35152-3 0  9999
2 67154  51.8978 173.4684 0001971  55.3256 304.7890 14.76479882 21976
KUIPER-00250            
1 67155U 25301Y   26123.45411255  .00003701  00000+0  51417-3 0  9997
2 67155  51.8981 188.4356 0000475  69.8808 290.2205 14.79930948 21803
KUIPER-00251            
1 67156U 25301Z   26123.50002315  .00063445  00000+0  83630-2 0  9999
2 67156  51.8984 175.7881 0000422  45.6051 128.6524 14.79477052  5681
KUIPER-00252            
1 67157U 25301AA  26123.50002315  .00058848  00000+0  78074-2 0  9997
2 67157  51.8982 178.2373 0000496 359.6314 190.2542 14.79243941  5576
KUIPER-00261            
1 67158U 25301AB  26123.48785220 -.00002293  00000+0 -27186-3 0  9992
2 67158  51.9020 188.3359 0000514 120.9393 239.1620 14.79927977 21772
KUIPER-00265            
1 67159U 25301AC  26123.50544029  .00003626  00000+0  50421-3 0  9993
2 67159  51.9019 203.2314 0000486 106.4044 253.6971 14.79944230 21602
KUIPER-00159            
1 67764U 26030A   26123.52318836  .00032590  00000+0  88408-3 0  9990
2 67764  51.8849 314.3943 0005198 226.0826 133.9732 15.37312784 13523
KUIPER-00160            
1 67765U 26030B   26123.52825528  .00032256  00000+0  87472-3 0  9991
2 67765  51.8842 314.3984 0005361 240.4868 119.5585 15.37327703 13523
KUIPER-00177            
1 67766U 26030C   26123.31725912  .00004215  00000+0  58145-3 0  9994
2 67766  51.9011 331.5568 0000681 118.4079 241.6952 14.79942068 13268
KUIPER-00178            
1 67767U 26030D   26122.83761814  .00002432  00000+0  37716-3 0  9992
2 67767  51.9011 332.5491 0000805  78.8224 281.2828 14.76415118 13219
KUIPER-00180            
1 67768U 26030E   26123.50002315  .00037470  00000+0  49227-2 0  9991
2 67768  51.8987 325.7466 0000944  86.8377 319.5059 14.79881357  5485
KUIPER-00197            
1 67769U 26030F   26123.23042520  .00036897  00000+0  97572-3 0  9993
2 67769  51.8838 315.4309 0002321 215.3671 144.7162 15.38049634 13482
KUIPER-00198            
1 67770U 26030G   26123.50002315 -.00027845  00000+0 -28381-2 0  9999
2 67770  51.8977 318.4459 0002348 223.8787 215.6562 14.90098238  5785
KUIPER-00199            
1 67771U 26030H   26122.94750903  .00035490  00000+0  10072-2 0  9991
2 67771  51.8827 317.9853 0011220 253.5550 106.4203 15.35817305 13422
KUIPER-00200            
1 67772U 26030J   26123.27077037  .00015958  00000+0  77401-3 0  9996
2 67772  51.8860 317.7727 0001314 275.4884  84.5945 15.18642934 13451
KUIPER-00203            
1 67773U 26030K   26122.97411743 -.00003749  00000+0 -46335-3 0  9998
2 67773  51.9070 338.0774 0000926  66.6633 293.4427 14.79898570 13141
KUIPER-00205            
1 67774U 26030L   26123.22584337  .00035587  00000+0  93559-3 0  9991
2 67774  51.8816 315.3817 0003867 215.2536 144.8196 15.38243514 13483
KUIPER-00208            
1 67775U 26030M   26123.51898863  .00002401  00000+0  37203-3 0  9999
2 67775  51.8989 326.3995 0006464 252.9808 107.0445 14.76497234 13355
KUIPER-00209            
1 67776U 26030N   26123.29213639  .00002737  00000+0  42071-3 0  9998
2 67776  51.9009 326.4366 0001038 322.7219  37.3670 14.76404373 13332
KUIPER-00213            
1 67777U 26030P   26123.50002315  .00033333  00000+0  43638-2 0  9995
2 67777  51.9045 323.3423 0001731 345.1962  44.0015 14.80085770  3908
KUIPER-00214            
1 67778U 26030Q   26123.50002315  .00026345  00000+0  36030-2 0  9999
2 67778  51.9003 320.7925 0001235  28.9240 181.7133 14.78357517  5680
KUIPER-00215            
1 67779U 26030R   26123.53675200  .00029200  00000+0  85654-3 0  9992
2 67779  51.8844 315.2112 0010675 254.8236 105.1570 15.34886355 13519
KUIPER-00218            
1 67780U 26030S   26123.50002315  .00031074  00000+0  41101-2 0  9992
2 67780  51.8978 322.3103 0000529  71.6877 263.7962 14.79687337  5706
KUIPER-00220            
1 67781U 26030T   26123.25217811  .00029767  00000+0  83574-3 0  9991
2 67781  51.8844 316.2812 0009045 248.4767 111.5255 15.36265133 13470
KUIPER-00222            
1 67782U 26030U   26123.50002315  .00026963  00000+0  22857-2 0  9992
2 67782  51.8949 318.8633 0018800 258.0662 255.0204 14.97638301  3504
KUIPER-00223            
1 67783U 26030V   26123.50002315  .00062197  00000+0  19512-2 0  9996
2 67783  51.8848 315.5233 0011128 249.6389 199.3022 15.32398304  5934
KUIPER-00225            
1 67784U 26030W   26123.50002315 -.01126998  00000+0 -83931-1 0  9995
2 67784  51.9077 316.5395 0004279 272.7437 315.2242 15.05551114  5001
KUIPER-00226            
1 67785U 26030X   26123.54203448 -.00107659  00000+0 -42622-2 0  9995
2 67785  51.8823 318.1317 0017061 254.1824 105.7276 15.25167219 13479
KUIPER-00259            
1 67786U 26030Y   26123.50002315  .00041758  00000+0  26245-2 0  9990
2 67786  51.8942 316.3958 0008595 234.6801 135.8230 15.08811439  5233
KUIPER-00260            
1 67787U 26030Z   26123.50002315 -.01095594  00000+0 -62178-1 0  9995
2 67787  51.8897 315.0075 0002158 285.2341 353.0497 15.15262217  5780
KUIPER-00262            
1 67788U 26030AA  26123.50002315  .00036173  00000+0  20778-2 0  9992
2 67788  51.8894 315.1280 0002404 229.8367  46.7739 15.12173715  5824
KUIPER-00266            
1 67789U 26030AB  26123.53268301  .00012880  00000+0  51145-3 0  9997
2 67789  51.8858 318.0680 0021274 263.7181  96.1378 15.25474095 13475
KUIPER-00268            
1 67790U 26030AC  26123.25370200  .00032765  00000+0  88850-3 0  9997
2 67790  51.8868 315.5880 0003395 219.5439 140.5301 15.37328836 13486
KUIPER-00270            
1 67791U 26030AD  26123.26038140  .00033727  00000+0  95171-3 0  9996
2 67791  51.8816 316.3335 0010270 249.4676 110.5209 15.36032245 13477
KUIPER-00274            
1 67792U 26030AE  26123.50002315 -.00044018  00000+0 -45618-2 0  9996
2 67792  51.8971 320.2278 0018680 269.3314  10.5566 14.89513478  5748
KUIPER-00275            
1 67793U 26030AF  26123.51261058  .00004947  00000+0  14924-3 0  9991
2 67793  51.8843 315.0567 0009755 238.1716 121.8321 15.36083931 13511
KUIPER-00276            
1 67794U 26030AG  26123.54478300  .00018593  00000+0  71324-3 0  9994
2 67794  51.8853 318.1608 0018553 237.9995 121.9185 15.26373672 13472
KUIPER-00279            
1 67795U 26030AH  26123.22962565  .00019581  00000+0  56233-3 0  9991
2 67795  51.8802 316.1299 0006723 236.3185 123.7160 15.35825054 13470
KUIPER-00131            
1 68573U 26072A   26123.50002315 -.00007903  00000+0 -51338-3 0  9999
2 68573  51.8896  34.6528 0006202 208.9184  88.5107 15.06265371  5435
KUIPER-00189            
1 68574U 26072B   26123.50002315 -.00005417  00000+0 -43159-3 0  9990
2 68574  51.8949  36.2276 0000572 162.5645  63.7666 14.98070735  5000
KUIPER-00192            
1 68575U 26072C   26123.50002315  .00025455  00000+0  10941-2 0  9995
2 68575  51.8833  33.6007 0004894 214.6219 316.6706 15.22494168  4128
KUIPER-00193            
1 68576U 26072D   26123.48194014  .00029567  00000+0  78375-3 0  9995
2 68576  51.8774  33.0516 0003808 185.5241 174.5705 15.38082587  4504
KUIPER-00194            
1 68577U 26072E   26123.50002315  .00027718  00000+0  92978-3 0  9992
2 68577  51.8803  33.0297 0003089 177.3856 261.8822 15.30678747  5249
KUIPER-00229            
1 68578U 26072F   26123.50002315  .00006606  00000+0  39446-3 0  9997
2 68578  51.8823  34.5290 0007752 219.5786 231.5169 15.12211071  5558
KUIPER-00230            
1 68579U 26072G   26123.50002315  .00025266  00000+0  69169-3 0  9996
2 68579  51.8787  32.8184 0001310 185.5072 345.0329 15.37174962  4030
KUIPER-00231            
1 68580U 26072H   26123.50002315  .00025484  00000+0  66794-3 0  9991
2 68580  51.8772  32.8938 0002587 187.2777 308.4395 15.38515326  3670
KUIPER-00234            
1 68581U 26072J   26123.50002315  .00033364  00000+0  11059-2 0  9991
2 68581  51.8815  32.9766 0001347 172.9568 269.2618 15.30972033  4397
KUIPER-00236            
1 68582U 26072K   26123.47033398  .00029498  00000+0  76441-3 0  9993
2 68582  51.8790  32.9750 0002686 163.4199 196.6877 15.38784588  4502
KUIPER-00244            
1 68583U 26072L   26123.47763602  .00032228  00000+0  84444-3 0  9999
2 68583  51.8786  33.0258 0003440 197.0378 163.0494 15.38396652  4508
KUIPER-00253            
1 68584U 26072M   26123.16171890  .00034956  00000+0  93192-3 0  9998
2 68584  51.8753  34.6524 0004870 204.5671 155.5084 15.37817701  4451
KUIPER-00254            
1 68585U 26072N   26123.04200174  .00028823  00000+0  78273-3 0  9993
2 68585  51.8743  35.3447 0007179 210.1186 149.9389 15.37332001  4430
KUIPER-00263            
1 68586U 26072P   26123.50002315  .00024774  00000+0  67680-3 0  9993
2 68586  51.8785  32.8112 0001429 149.2662  25.7033 15.37251302  3587
KUIPER-00269            
1 68587U 26072Q   26123.15830383  .00037170  00000+0  98423-3 0  9992
2 68587  51.8766  34.6337 0004414 190.8223 169.2670 15.38000119  4455
KUIPER-00272            
1 68588U 26072R   26123.50002315 -.01936647  00000+0 -99438-1 0  9993
2 68588  51.8863  33.6089 0004534 213.7744 259.0873 15.19471423  4039
KUIPER-00285            
1 68589U 26072S   26123.16390872  .00057282  00000+0  15146-2 0  9995
2 68589  51.8764  34.6686 0006368 208.0666 151.9978 15.37838976  4453
KUIPER-00286            
1 68590U 26072T   26123.50002315  .00027015  00000+0  71667-3 0  9999
2 68590  51.8757  32.9606 0004479 195.7936 266.3985 15.38104668  4301
KUIPER-00289            
1 68591U 26072U   26123.44896939  .00032098  00000+0  89180-3 0  9992
2 68591  51.8673  33.5566 0010507 224.1819 135.8328 15.36538905  4491
KUIPER-00290            
1 68592U 26072V   26123.44839164  .00016258  00000+0  45923-3 0  9997
2 68592  51.8650  33.5477 0010478 217.4622 142.5635 15.36454368  4498
KUIPER-00293            
1 68593U 26072W   26123.45756714  .00024694  00000+0  70993-3 0  9996
2 68593  51.8667  33.6081 0011109 223.1549 136.8567 15.35607218  4496
KUIPER-00294            
1 68594U 26072X   26123.44411534  .00027568  00000+0  76710-3 0  9990
2 68594  51.8693  33.5298 0009668 223.0666 136.9565 15.36579654  4493
KUIPER-00296            
1 68595U 26072Y   26123.04655218  .00010617  00000+0  29823-3 0  9996
2 68595  51.8719  35.3734 0007892 212.3293 147.7210 15.37060588  4435
KUIPER-00297            
1 68596U 26072Z   26123.44732745  .00029550  00000+0  82451-3 0  9994
2 68596  51.8647  33.5389 0009915 219.9799 140.0458 15.36454485  4492
KUIPER-00300            
1 68597U 26072AA  26123.04286155  .00029106  00000+0  79021-3 0  9996
2 68597  51.8696  35.3422 0007761 214.4216 145.6269 15.37330256  4431
KUIPER-00301            
1 68598U 26072AB  26122.91888503  .00030872  00000+0  84617-3 0  9996
2 68598  51.8676  36.0047 0008553 217.0552 142.9845 15.36998859  4419
KUIPER-00304            
1 68599U 26072AC  26123.44079434  .00023616  00000+0  65324-3 0  9993
2 68599  51.8681  33.5061 0008933 217.3636 142.6730 15.36860447  4491
KUIPER-00317            
1 68600U 26072AD  26123.04584642  .00030094  00000+0  82349-3 0  9998
2 68600  51.8702  35.3636 0008667 212.8078 147.2372 15.37061333  4435
KUIPER-00320            
1 68601U 26072AE  26123.45131339  .00027981  00000+0  79106-3 0  9993
2 68601  51.8624  33.5578 0010639 219.8580 140.1626 15.36066590  4490
KUIPER-00299            
1 68864U 26095A   26123.50002315  .00010913  00000+0  31363-3 0  9996
2 68864  51.8708  98.5069 0009221 135.3035 232.4412 15.36305082  1578
KUIPER-00353            
1 68865U 26095B   26123.50002315  .00019483  00000+0  51556-3 0  9994
2 68865  51.8824  98.4097 0001285  84.2682 323.5423 15.38391229  1484
KUIPER-00357            
1 68866U 26095C   26123.50002315  .00014864  00000+0  40242-3 0  9993
2 68866  51.8809  98.4374 0003842 104.8856 293.0759 15.37889432  1793
KUIPER-00364            
1 68867U 26095D   26123.50002315  .00014107  00000+0  38515-3 0  9994
2 68867  51.8790  98.4495 0003993 113.1958 280.5572 15.37674907  1300
KUIPER-00375            
1 68868U 26095E   26123.50002315  .00018742  00000+0  49817-3 0  9991
2 68868  51.8814  98.4211 0001667  93.4710 312.0997 15.38280118  2048
KUIPER-00433            
1 68869U 26095F   26123.50002315  .00013755  00000+0  38979-3 0  9998
2 68869  51.8732  98.4949 0008103 129.5930 243.8156 15.36516658  1308
KUIPER-00437            
1 68870U 26095G   26123.50002315  .00011359  00000+0  32063-3 0  9996
2 68870  51.8775  98.4845 0007641 127.1232 250.1980 15.36836088  1305
KUIPER-00448            
1 68871U 26095H   26123.50002315  .00014736  00000+0  40030-3 0  9992
2 68871  51.8815  98.4397 0003551 110.0999 285.9662 15.37793674  1587
KUIPER-00459            
1 68872U 26095J   26123.50002315  .00010206  00000+0  29732-3 0  9997
2 68872  51.8696  98.5206 0011183 136.4296 224.5534 15.35938835  1526
KUIPER-00468            
1 68873U 26095K   26123.50002315  .00013597  00000+0  37374-3 0  9995
2 68873  51.8806  98.4542 0005121 115.9008 274.3270 15.37494923  1303
KUIPER-00476            
1 68874U 26095L   26123.50002315  .00012929  00000+0  37057-3 0  9992
2 68874  51.8721  98.5095 0009796 133.6579 232.6184 15.36205275  2048
KUIPER-00478            
1 68875U 26095M   26123.50002315  .00010916  00000+0  31169-3 0  9995
2 68875  51.8757  98.4986 0008463 133.4325 237.5439 15.36514838  1306
KUIPER-00480            
1 68876U 26095N   26123.50002315  .00011939  00000+0  33523-3 0  9998
2 68876  51.8753  98.4796 0006866 122.2284 258.3408 15.36950917  2082
KUIPER-00482            
1 68877U 26095P   26123.50002315  .00015362  00000+0  41279-3 0  9990
2 68877  51.8822  98.4250 0002835  98.9520 302.9983 15.38096577  1582
KUIPER-00483            
1 68878U 26095Q   26123.50002315  .00009560  00000+0  28062-3 0  9999
2 68878  51.8712  98.5280 0010893 140.6384 216.6281 15.35784079  1301
KUIPER-00488            
1 68879U 26095R   26123.50002315  .00007617  00000+0  22642-3 0  9999
2 68879  51.8658  98.5296 0011185 143.6799 212.6744 15.35706477  2066
KUIPER-00489            
1 68880U 26095S   26123.50002315  .00012255  00000+0  35214-3 0  9994
2 68880  51.8734  98.5097 0009866 136.4651 229.7807 15.36180138  2062
KUIPER-00499            
1 68881U 26095T   26123.50002315  .00009974  00000+0  29006-3 0  9991
2 68881  51.8682  98.5196 0010233 139.7755 221.7200 15.36031218  1305
KUIPER-00500            
1 68882U 26095U   26123.50002315  .00013239  00000+0  36779-3 0  9996
2 68882  51.8793  98.4687 0005870 124.0860 259.9974 15.37186746  2072
KUIPER-00502            
1 68883U 26095V   26123.50002315  .00013669  00000+0  37831-3 0  9994
2 68883  51.8782  98.4663 0006126 120.1058 265.7060 15.37272672  1575
KUIPER-00503            
1 68884U 26095W   26123.50002315  .00010891  00000+0  31009-3 0  9990
2 68884  51.8744  98.4955 0008431 128.5988 244.2074 15.36607393  1436
KUIPER-00504            
1 68885U 26095X   26123.50002315  .00025165  00000+0  74798-3 0  9993
2 68885  51.8696  98.5431 0013105 141.8628 209.3242 15.34526281  1305
KUIPER-00505            
1 68886U 26095Y   26123.50002315  .00014219  00000+0  38917-3 0  9995
2 68886  51.8798  98.4518 0004619 108.6754 283.3540 15.37589433  1635
KUIPER-00507            
1 68887U 26095Z   26123.50002315  .00019136  00000+0  50464-3 0  9990
2 68887  51.8821  98.4061 0000995  66.1004 345.4802 15.38509925  1309
KUIPER-00511            
1 68888U 26095AA  26123.50002315  .00011572  00000+0  32553-3 0  9996
2 68888  51.8764  98.4818 0007216 123.4862 255.4934 15.36923117  1305
KUIPER-00512            
1 68889U 26095AB  26123.50002315  .00013469  00000+0  37183-3 0  9998
2 68889  51.8773  98.4635 0005585 118.4098 269.3371 15.37366923  1941
KUIPER-00519            
1 68890U 26095AC  26123.50002315  .00018922  00000+0  50441-3 0  9991
2 68890  51.8818  98.4229 0002367  86.3077 317.3889 15.38183954  1587
KUIPER-00521            
1 68891U 26095AD  26123.50002315  .00018668  00000+0  49295-3 0  9994
2 68891  51.8822  98.4081 0001698  64.0948 345.5933 15.38486269  1932
KUIPER-00524            
1 68892U 26095AE  26123.50002315  .00015247  00000+0  41135-3 0  9990
2 68892  51.8803  98.4354 0002831 104.7090 294.9842 15.37977867  1917
