EUTELSAT 174A           
1 28924U 05052A   26150.59578659  .00000020  00000+0  00000+0 0  9995
2 28924   4.1763  76.7411 0006559 348.9840 210.8797  1.00274539 52153
EUTELSAT 33F            
1 29270U 06032A   26150.50971145  .00000167  00000+0  00000+0 0  9999
2 29270   1.6171  82.4363 0003744 339.3086  42.8627  1.00270888 47132
EUTELSAT HOTBIRD 13C    
1 33459U 08065A   26150.42182977 -.00000272  00000+0  00000+0 0  9997
2 33459   2.9059  79.3984 0004094 350.1735 279.9249  1.00272252 47163
EUTELSAT 36B            
1 36101U 09065A   26150.51309147  .00000124  00000+0  00000+0 0  9990
2 36101   0.4479  80.9019 0005976 346.0415  56.2904  1.00272928 60535
EUTELSAT KA-SAT 9A      
1 37258U 10069A   26150.50477144  .00000073  00000+0  00000+0 0  9995
2 37258   0.0628  11.4897 0003875 111.8129 315.4216  1.00269819 43835
EUTELSAT 7 WEST A       
1 37816U 11051A   26150.43014980 -.00000048  00000+0  00000+0 0  9997
2 37816   0.0697  18.1913 0004280  58.1340 319.1671  1.00271758 53699
EUTELSAT 16A            
1 37836U 11057A   26150.50633144  .00000116  00000+0  00000+0 0  9997
2 37836   0.0501  16.5540 0005913  58.3278  11.4181  1.00272769  7161
EUTELSAT 21B            
1 38992U 12062B   26150.50728478  .00000142  00000+0  00000+0 0  9992
2 38992   0.0686   7.1743 0002953  63.5203  21.5373  1.00272361 49650
EUTELSAT 70B            
1 39020U 12069A   26150.51707815 -.00000031  00000+0  00000+0 0  9993
2 39020   0.0654 336.0145 0004002  86.2272  82.4425  1.00270891 49338
EUTELSAT 117 WEST A     
1 39122U 13012A   26150.55132354 -.00000001  00000+0  00000+0 0  9996
2 39122   0.0250  29.1772 0002973  39.8881 260.6770  1.00270958 48251
EUTELSAT 7B             
1 39163U 13022A   26150.29064523  .00000060  00000+0  00000+0 0  9999
2 39163   0.0800  26.4613 0005384   9.7775 323.2009  1.00273372 47767
EXPRESS-AT1             
1 39612U 14010A   26150.51508480  .00000053  00000+0  00000+0 0  9998
2 39612   0.2133  86.0019 0003539  28.9023  18.9727  1.00299753 44648
EXPRESS-AT2             
1 39613U 14010B   26150.51421814  .00000091  00000+0  00000+0 0  9996
2 39613   0.0177 311.2324 0000523  24.7658 153.1495  1.00273546 44326
EUTELSAT 3B             
1 39773U 14030A   26150.36113843  .00000032  00000+0  00000+0 0  9993
2 39773   0.0647 336.4846 0004198  94.5552 309.9491  1.00271042 43889
EUTELSAT 115 WEST B     
1 40425U 15010B   26150.55167021 -.00000013  00000+0  00000+0 0  9996
2 40425   0.0069 141.5914 0000266 133.5386  56.6474  1.00271322 41218
EUTELSAT 8 WEST B       
1 40875U 15039B   26150.43014980 -.00000053  00000+0  00000+0 0  9992
2 40875   0.0673   7.5137 0003852  59.2444 328.0490  1.00271889 39476
EUTELSAT 9B             
1 41310U 16005A   26150.50485810  .00000074  00000+0  00000+0 0  9995
2 41310   0.0427  60.3236 0002319 337.1853  41.2568  1.00270252 37947
EUTELSAT 65 WEST A      
1 41382U 16014A   26150.49021137 -.00000264  00000+0  00000+0 0  9992
2 41382   0.0738  42.1443 0002623  23.6216 293.5289  1.00271371 37346
EUTELSAT 117 WEST B     
1 41589U 16038B   26150.47998464  .00000000  00000+0  00000+0 0  9998
2 41589   0.0171 143.0035 0000204 115.7158  45.0984  1.00272490 36484
EUTELSAT 172B           
1 42741U 17029B   26150.53719681  .00000006  00000+0  00000+0 0  9995
2 42741   0.0031  52.1987 0000315  77.8095 123.4501  1.00270670 33567
EUTELSAT 7C             
1 44334U 19034B   26150.29064523  .00000061  00000+0  00000+0 0  9995
2 44334   0.0757 176.1081 0003324 238.5266 304.8088  1.00272448  6653
EUTELSAT 5 WEST B       
1 44624U 19067A   26150.35957843 -.00000030  00000+0  00000+0 0  9993
2 44624   0.0638 350.7790 0003351  76.3491 305.1953  1.00272530 24251
EUTELSAT KONNECT        
1 45027U 20005B   26150.36200510  .00000062  00000+0  00000+0 0  9992
2 45027   0.0706 100.9481 0000768 138.1984 146.2658  1.00270867 24156
EUTELSAT QUANTUM        
1 49056U 21069B   26150.51257146  .00000138  00000+0  00000+0 0  9997
2 49056   0.0108 350.4401 0002619  76.8221  52.9911  1.00272128 17756
EUTELSAT KONNECT VHTS   
1 53765U 22110A   26150.36105176  .00000030  00000+0  00000+0 0  9996
2 53765   0.0635 107.5433 0003243 300.9880 332.0231  1.00273871  6655
EUTELSAT HOTBIRD 13F    
1 54048U 22134A   26150.50563810  .00000100  00000+0  00000+0 0  9994
2 54048   0.0444 292.8907 0002102  73.6958  76.4698  1.00273832 13207
EUTELSAT HOTBIRD 13G    
1 54225U 22146A   26150.50572477  .00000100  00000+0  00000+0 0  9993
2 54225   0.0435 233.8175 0001932 298.6267 270.6402  1.00274328  7281
EUTELSAT 10B            
1 54259U 22157A   26150.50503144  .00000081  00000+0  00000+0 0  9995
2 54259   0.0635 105.8145 0001866 343.2157 350.7737  1.00273561 12843
EUTELSAT 36D            
1 59346U 24059A   26150.51023146  .00000000  00000+0  00000+0 0  9991
2 59346   0.0199 340.2564 0000430 140.7649 346.5512  1.00271183  7972
