GLOBALSTAR M001         
1 25162U 98008A   26039.62908868 -.00000050  00000+0  35655-3 0  9990
2 25162  52.0059   5.0300 0001775  41.2172   7.4170 12.38227178273006
GLOBALSTAR M004         
1 25163U 98008B   26039.48542922 -.00000079  00000+0  13928-3 0  9990
2 25163  52.0010  53.2516 0003509  96.3272  67.9494 12.63414385291553
GLOBALSTAR M002         
1 25164U 98008C   26039.30617773 -.00000098  00000+0 -43112-3 0  9999
2 25164  52.0046   8.1716 0001155 211.9907 148.0843 11.61514844211503
GLOBALSTAR M003         
1 25165U 98008D   26039.72069835 -.00000193  00000+0 -11072-2 0  9991
2 25165  51.9845 233.3811 0008948  51.8831  29.7538 12.12029565261904
GLOBALSTAR M014         
1 25306U 98023A   26039.83591836 -.00000074  00000+0  69576-4 0  9999
2 25306  51.9838 285.0948 0001862  70.6870   7.8204 11.65484278218764
GLOBALSTAR M006         
1 25307U 98023B   26039.28158677 -.00000078  00000+0 -51722-4 0  9990
2 25307  51.9974 347.7914 0002822 171.2346 340.2254 11.58176385244181
GLOBALSTAR M015         
1 25308U 98023C   26039.45266838 -.00000134  00000+0 -13770-2 0  9991
2 25308  51.9820  96.6655 0013232 136.7694 323.3341 11.48861195221232
GLOBALSTAR M008         
1 25309U 98023D   26039.84874854 -.00000062  00000+0  26511-3 0  9995
2 25309  51.9942 231.9055 0002064 335.3114 128.6194 12.36080608267110
GLOBALSTAR M023         
1 25621U 99004A   26039.75187398 -.00000053  00000+0  28254-3 0  9998
2 25621  52.0112  53.0878 0009385 290.0965 116.9057 12.62517148245610
GLOBALSTAR M040         
1 25622U 99004B   26039.35566482 -.00000096  00000+0  45407-4 0  9997
2 25622  51.9921  58.7957 0001052 171.6684 290.8787 12.62028347245072
GLOBALSTAR M036         
1 25623U 99004C   26039.26394971 -.00000034  00000+0  70883-3 0  9997
2 25623  51.9999 338.0615 0010660 141.0171  26.2939 11.86618774207005
GLOBALSTAR M038         
1 25624U 99004D   26039.49830258 -.00000057  00000+0  31758-3 0  9999
2 25624  51.9971 111.0145 0002236 171.2968 290.9877 12.32540807231519
GLOBALSTAR M022         
1 25649U 99012A   26039.32665713 -.00000040  00000+0  55961-3 0  9993
2 25649  52.0069   8.9596 0002433 281.1377 227.1778 12.02509490204785
GLOBALSTAR M041         
1 25650U 99012B   26039.01373435 -.00000061  00000+0  31020-3 0  9991
2 25650  52.0000 258.4554 0002265  74.7796 285.3291 11.96683756206511
GLOBALSTAR M046         
1 25651U 99012C   26039.24328433  .00000032  00000+0  13313-2 0  9996
2 25651  52.0070 310.7075 0002342  15.7603 155.1647 12.09417895212225
GLOBALSTAR M037         
1 25652U 99012D   26039.59009352 -.00000051  00000+0  29654-3 0  9999
2 25652  51.9987 184.1100 0001845  22.3060  59.4031 12.62461462241134
GLOBALSTAR M045         
1 25676U 99019A   26039.26562514 -.00000048  00000+0  39881-3 0  9999
2 25676  51.9997 352.3887 0000501  32.3644 115.8748 12.27072677222373
GLOBALSTAR M019         
1 25677U 99019B   26039.59918346  .00000060  00000+0  15637-2 0  9999
2 25677  51.9868 138.4423 0002080  94.8005  10.2642 12.13880973213853
GLOBALSTAR M044         
1 25678U 99019C   26039.41445991 -.00000126  00000+0 -59549-3 0  9998
2 25678  51.9964 119.8666 0006772 134.1712 307.5647 11.90262754199459
GLOBALSTAR M042         
1 25679U 99019D   26039.35582419 -.00000115  00000+0 -21610-3 0  9995
2 25679  52.0011 104.2359 0003207  76.1761   3.8984 12.22095099214136
GLOBALSTAR M025         
1 25770U 99031A   26039.20637104 -.00000073  00000+0 -16528-3 0  9992
2 25770  51.9852 332.5158 0001916 160.3361 344.6148 11.22561077508215
GLOBALSTAR M049         
1 25771U 99031B   26039.28751124  .00000008  00000+0  25533-2 0  9991
2 25771  51.9906  18.9512 0002950  59.2711 300.8376 11.12122348143696
GLOBALSTAR M047         
1 25772U 99031C   26039.10683755 -.00000061  00000+0  22331-3 0  9991
2 25772  51.9870 353.7925 0016325 309.4225  50.5136 11.31931959497823
GLOBALSTAR M052         
1 25773U 99031D   26039.53956829 -.00000066  00000+0 -15367-5 0  9993
2 25773  51.9862 123.7331 0002933 188.0852 272.3529 11.15063567504875
GLOBALSTAR M035         
1 25851U 99037A   26039.07897329 -.00000058  00000+0  20913-3 0  9995
2 25851  51.9914 248.9041 0013930   9.4229 159.6648 11.04542159122323
GLOBALSTAR M032         
1 25852U 99037B   26039.41318854 -.00000131  00000+0 -20769-2 0  9996
2 25852  51.9963  57.0557 0012723 204.3897 155.6302 11.19067568161233
GLOBALSTAR M051         
1 25853U 99037C   26039.68903094 -.00000053  00000+0  47617-3 0  9996
2 25853  51.9762 190.3581 0001150 102.1016 257.9924 11.42200079159414
GLOBALSTAR M030         
1 25854U 99037D   26039.23612170 -.00000100  00000+0 -52571-3 0  9999
2 25854  51.9911 342.5455 0003825  96.8574 263.2678 11.55108006177328
GLOBALSTAR M048         
1 25872U 99041A   26039.56243560 -.00000052  00000+0  49282-3 0  9993
2 25872  51.9363 134.8360 0013073 230.2335 229.4545 11.33862088151794
GLOBALSTAR M026         
1 25873U 99041B   26039.33144859 -.00000168  00000+0 -38089-2 0  9991
2 25873  52.0048   3.8048 0001858 312.5513 196.3990 11.06839842174631
GLOBALSTAR M043         
1 25874U 99041C   26039.82691468 -.00000055  00000+0  38646-3 0  9993
2 25874  51.9371 251.2826 0013565 359.6247  85.0357 11.25697815149520
GLOBALSTAR M028         
1 25875U 99041D   26039.64735995 -.00000069  00000+0  20050-3 0  9993
2 25875  51.9601 207.9731 0062743 224.3061 135.2768 12.50595831219766
GLOBALSTAR M024         
1 25883U 99043A   26039.73943397  .00000015  00000+0  28386-2 0  9990
2 25883  51.9982 206.8749 0002646 112.2572 345.0879 11.10169368141138
GLOBALSTAR M027         
1 25884U 99043B   26039.82391945 -.00000081  00000+0 -65689-3 0  9990
2 25884  52.0219 291.3759 0021847  15.0362 345.1076 11.04373204167389
GLOBALSTAR M054         
1 25885U 99043C   26039.34952400 -.00000072  00000+0 -31766-4 0  9997
2 25885  52.0164  20.0915 0004654 223.2422 286.3485 11.39223535145966
GLOBALSTAR M053         
1 25886U 99043D   26039.24205574 -.00000052  00000+0  48597-3 0  9996
2 25886  52.0023 340.5445 0003574 115.5342  61.0238 11.27669885146079
GLOBALSTAR M058         
1 25907U 99049A   26039.70836840 -.00000050  00000+0  46615-3 0  9990
2 25907  51.9914 197.5943 0002205  31.6036 328.4930 11.93208358569773
GLOBALSTAR M050         
1 25908U 99049B   26039.81322112  .00000028  00000+0  13179-2 0  9997
2 25908  51.9968 187.3109 0009966 139.4217 333.1753 12.07465163176778
GLOBALSTAR M033         
1 25909U 99049C   26039.00297338 -.00000009  00000+0  79636-3 0  9991
2 25909  51.9922  45.0810 0014316  30.8087 329.3598 12.20302980564533
GLOBALSTAR M055         
1 25910U 99049D   26039.43355471 -.00000064  00000+0  25696-3 0  9991
2 25910  52.0031  43.1104 0006753 261.7620  98.2466 12.29440583197345
GLOBALSTAR M057         
1 25943U 99058A   26039.44498146 -.00000056  00000+0  33873-3 0  9992
2 25943  51.9998  37.6974 0002609 135.9700 224.1358 12.24833150195889
GLOBALSTAR M059         
1 25944U 99058B   26039.82298134  .00000005  00000+0  11342-2 0  9999
2 25944  52.0020 286.9926 0001208  72.3421   3.1782 11.99993488602456
GLOBALSTAR M056         
1 25945U 99058C   26039.06137440 -.00000095  00000+0 -91596-4 0  9990
2 25945  51.9960 284.9674 0000693 345.6797 156.3004 12.04784306191056
GLOBALSTAR M031         
1 25946U 99058D   26039.56537087  .00000048  00000+0  14043-2 0  9993
2 25946  51.9950 161.7547 0000418 320.9364 123.3797 12.16049559193308
GLOBALSTAR M039         
1 25961U 99062A   26039.83320772 -.00000056  00000+0  26575-3 0  9990
2 25961  51.9833 267.9305 0002976 134.1952 225.9160 12.62341428210107
GLOBALSTAR M034         
1 25962U 99062B   26039.39926756 -.00000063  00000+0  28721-3 0  9999
2 25962  51.9867 117.3676 0014905 128.1201 313.3345 11.79455700166269
GLOBALSTAR M029         
1 25963U 99062C   26039.68900175 -.00000059  00000+0  34105-3 0  9997
2 25963  51.9787 175.1836 0002335 195.7844 270.7536 11.99908113197511
GLOBALSTAR M061         
1 25964U 99062D   26039.19440285 -.00000075  00000+0  81344-4 0  9991
2 25964  51.9811 305.0720 0006717  50.2073 108.3879 11.76777336148960
GLOBALSTAR M063         
1 26081U 00008A   26039.70056294 -.00000068  00000+0  21754-3 0  9994
2 26081  51.9922 208.6740 0005379  56.0872  28.5149 11.86180929185644
GLOBALSTAR M062         
1 26082U 00008B   26039.53369656 -.00000233  00000+0 -96220-3 0  9990
2 26082  51.9845 120.7478 0006843 252.7616 210.5868 12.43478444526027
GLOBALSTAR M060         
1 26083U 00008C   26039.39376595 -.00000024  00000+0  66124-3 0  9992
2 26083  52.0015 114.5881 0003048 234.1097 206.4404 12.17675707181141
GLOBALSTAR M064         
1 26084U 00008D   26039.21024070 -.00000046  00000+0  53672-3 0  9990
2 26084  52.0048 306.0158 0001665 124.5144 235.5846 11.88540700195162
GLOBALSTAR M065         
1 31571U 07020A   26039.81071993 -.00000065  00000+0  21896-3 0  9994
2 31571  51.9865 226.0514 0010826 110.2796  17.9223 12.62020390863282
GLOBALSTAR M069         
1 31573U 07020C   26039.76806131 -.00000058  00000+0  31880-3 0  9996
2 31573  52.0011 255.6048 0000841 220.8616 218.3645 12.23468313863085
GLOBALSTAR M072         
1 31574U 07020D   26039.30151411 -.00000072  00000+0  15932-3 0  9997
2 31574  51.9929  83.3747 0001356  81.8637 358.4297 11.91655618859617
GLOBALSTAR M071         
1 31576U 07020F   26039.83531753  .00000005  00000+0  95183-3 0  9999
2 31576  52.0066 287.7042 0000379 135.0388 300.8527 12.18265350523783
GLOBALSTAR M067         
1 32263U 07048A   26039.48557091 -.00000091  00000+0  50477-4 0  9991
2 32263  51.9729  64.4932 0001469 126.1808  39.7184 12.40684568838819
GLOBALSTAR M070         
1 32264U 07048B   26039.57793381 -.00000074  00000+0  16410-3 0  9995
2 32264  51.9747 128.3529 0000540 110.0693 357.6336 12.62330136843523
GLOBALSTAR M066         
1 32265U 07048C   26039.50165725 -.00000109  00000+0 -12629-3 0  9992
2 32265  51.9586  67.3315 0005084 133.0831  32.8103 12.30383664844385
GLOBALSTAR M068         
1 32266U 07048D   26039.19377044 -.00000044  00000+0  32938-3 0  9999
2 32266  51.9897 302.8219 0000802 344.8263 174.8962 12.62839883847371
GLOBALSTAR M079         
1 37188U 10054A   26039.29719344 -.00000079  00000+0  13559-3 0  9998
2 37188  52.0033 141.0298 0001030 105.4484 286.7211 12.62263425706279
GLOBALSTAR M074         
1 37189U 10054B   26039.57685378 -.00000085  00000+0  10616-3 0  9997
2 37189  52.0010 139.4652 0000863 122.9367 339.7180 12.62265778706915
GLOBALSTAR M076         
1 37190U 10054C   26039.60410251 -.00000091  00000+0  72930-4 0  9994
2 37190  52.0023 139.5745 0001057 118.8197 347.4025 12.62270081706632
GLOBALSTAR M077         
1 37191U 10054D   26039.57471442 -.00000071  00000+0  12565-3 0  9995
2 37191  51.9961 145.9235 0001372 117.9610 346.4156 11.68178304706114
GLOBALSTAR M075         
1 37192U 10054E   26039.69551596 -.00000084  00000+0  10822-3 0  9996
2 37192  51.9933 181.4204 0000865 100.1322   2.4593 12.62264129705710
GLOBALSTAR M073         
1 37193U 10054F   26039.45822422 -.00000091  00000+0  70864-4 0  9991
2 37193  52.0059  96.1457 0000802 115.7986 346.4936 12.62269335707676
GLOBALSTAR M083         
1 37739U 11033A   26039.40177177 -.00000109  00000+0 -30153-4 0  9998
2 37739  51.9877  44.7211 0000556  97.6282  49.7541 12.62266834676680
GLOBALSTAR M088         
1 37740U 11033B   26039.22110179 -.00000074  00000+0  16805-3 0  9996
2 37740  52.0235 311.3889 0000632  65.9830  99.5037 12.62261158672209
GLOBALSTAR M091         
1 37741U 11033C   26039.84937963 -.00000082  00000+0  12100-3 0  9996
2 37741  51.9989 272.6343 0000938  65.7843  15.3589 12.62269691673073
GLOBALSTAR M085         
1 37742U 11033D   26039.84174373 -.00000095  00000+0  49660-4 0  9991
2 37742  52.0100 223.8344 0001114  78.0127  28.8811 12.62269075673588
GLOBALSTAR M081         
1 37743U 11033E   26039.70381490 -.00000091  00000+0  71469-4 0  9995
2 37743  51.9934 226.8356 0001124  87.7219 352.6756 12.62262274673713
GLOBALSTAR M089         
1 37744U 11033F   26039.58509621 -.00000087  00000+0  95654-4 0  9997
2 37744  51.9917 181.3800 0000982 118.8382 321.6699 12.62264185674549
GLOBALSTAR M084         
1 38040U 11080A   26039.45851081 -.00000098  00000+0  32598-4 0  9995
2 38040  52.0015  49.1780 0000505 141.0834  23.5420 12.62267725652504
GLOBALSTAR M080         
1 38041U 11080B   26039.50968468 -.00000087  00000+0  96221-4 0  9991
2 38041  52.0068  50.6965 0000381  34.5700 132.2828 12.62266239652638
GLOBALSTAR M082         
1 38042U 11080C   26039.36489215 -.00000096  00000+0  43922-4 0  9994
2 38042  52.0100   6.6246 0000565  37.8336 120.5855 12.62267197653325
GLOBALSTAR M092         
1 38043U 11080D   26039.48542838 -.00000103  00000+0  16581-5 0  9990
2 38043  52.0081  96.6475 0000569 119.4155 347.1270 12.62269956651799
GLOBALSTAR M090         
1 38044U 11080E   26039.68613615 -.00000092  00000+0  62976-4 0  9990
2 38044  52.0149 359.5622 0000589  68.5279 349.0824 12.62266497653484
GLOBALSTAR M086         
1 38045U 11080F   26039.33713451 -.00000078  00000+0  14351-3 0  9999
2 38045  51.9923   0.7637 0001434 110.5564  53.5994 12.62282577653380
GLOBALSTAR M097         
1 39072U 13005A   26039.80492411 -.00000089  00000+0  81762-4 0  9994
2 39072  52.0039 274.1444 0001019  77.1970 282.9011 12.62268758600691
GLOBALSTAR M093         
1 39073U 13005B   26038.98685165 -.00000092  00000+0  64859-4 0  9995
2 39073  52.0095 269.9332 0001267  73.5020 286.5986 12.62272686600543
GLOBALSTAR M094         
1 39074U 13005C   26039.69956992 -.00000091  00000+0  70792-4 0  9996
2 39074  51.9942 182.0062 0001152  94.6984 265.4014 12.62266828602242
GLOBALSTAR M096         
1 39075U 13005D   26039.71263454 -.00000094  00000+0  56138-4 0  9995
2 39075  52.0047 230.6664 0001156  79.9355 280.1642 12.62263124601168
GLOBALSTAR M078         
1 39076U 13005E   26039.21118410 -.00000090  00000+0  74587-4 0  9996
2 39076  51.9894 316.3830 0001094  16.1382 343.9519 12.62276440599722
GLOBALSTAR M095         
1 39077U 13005F   26039.15854764 -.00000078  00000+0  14275-3 0  9992
2 39077  52.0097 313.9652 0001037  48.3865 311.7091 12.62268323599577
GLOBALSTAR M087         
1 52888U 22064A   26039.48851249 -.00000097  00000+0  40214-4 0  9997
2 52888  51.9997  94.2711 0000685  99.1271 260.9674 12.62266719174889
