EUTELSAT 139 WEST A     
1 28187U 04008A   26106.79143025 -.00000214  00000+0  00000+0 0  9990
2 28187   5.6741  72.6304 0000626 158.0890 231.3078  0.98809065 80757
EUTELSAT 174A           
1 28924U 05052A   26106.76014344  .00000018  00000+0  00000+0 0  9998
2 28924   4.0637  77.2595 0006286 308.5103 266.7818  1.00270271 51716
EUTELSAT 33F            
1 29270U 06032A   26106.87483199  .00000163  00000+0  00000+0 0  9993
2 29270   1.5024  82.8779 0003437 299.7796 170.4046  1.00269263 46697
EUTELSAT HOTBIRD 13C    
1 33459U 08065A   26106.92960774 -.00000274  00000+0  00000+0 0  9994
2 33459   2.7925  79.8820 0004005 309.6150  99.9492  1.00273451 46733
EUTELSAT 36B            
1 36101U 09065A   26106.87829867  .00000119  00000+0  00000+0 0  9990
2 36101   0.3360  79.4246 0005803 308.0511 184.2184  1.00271624 60097
EUTELSAT KA-SAT 9A      
1 37258U 10069A   26106.72749315  .00000069  00000+0  00000+0 0  9997
2 37258   0.0610   5.0284 0003703 132.3473 338.4193  1.00273382 43395
EUTELSAT 7 WEST A       
1 37816U 11051A   26106.93818778 -.00000054  00000+0  00000+0 0  9997
2 37816   0.0701  20.5462 0002620 105.6658  49.2986  1.00270895 53261
EUTELSAT 16A            
1 37836U 11057A   26106.86915354  .00000111  00000+0  00000+0 0  9998
2 37836   0.0601  19.2714 0005692  11.9535 142.6640  1.00272303  6722
EUTELSAT 21B            
1 38992U 12062B   26106.92849473  .00000137  00000+0  00000+0 0  9992
2 38992   0.0711   8.0241 0002917  18.1559 174.7311  1.00272286 49213
EUTELSAT 70B            
1 39020U 12069A   26106.96258406 -.00000037  00000+0  00000+0 0  9996
2 39020   0.0675 355.1479 0005106  30.5031 236.4819  1.00270609 48899
EUTELSAT 117 WEST A     
1 39122U 13012A   26106.91651885 -.00000006  00000+0  00000+0 0  9997
2 39122   0.0231 348.5030 0002565  16.7616  52.9258  1.00271794 47815
EUTELSAT 7B             
1 39163U 13022A   26106.86971863  .00000055  00000+0  00000+0 0  9991
2 39163   0.0758  23.5897 0005985 349.8899 151.6288  1.00271867 47335
EXPRESS-AT1             
1 39612U 14010A   26106.95092784  .00000075  00000+0  00000+0 0  9996
2 39612   0.0997  82.4621 0001704  15.7138 146.3519  1.00285970 44209
EXPRESS-AT2             
1 39613U 14010B   26106.03100176  .00000085  00000+0  00000+0 0  9992
2 39613   0.0140 175.1077 0000274 111.1902 345.0554  1.00271768 43875
EUTELSAT 3B             
1 39773U 14030A   26106.94018111  .00000026  00000+0  00000+0 0  9993
2 39773   0.0689 355.1259 0003919  29.3441 162.1835  1.00270142 43458
EUTELSAT 115 WEST B     
1 40425U 15010B   26106.91677885 -.00000019  00000+0  00000+0 0  9997
2 40425   0.0187  74.1160 0000075 259.9794  86.1141  1.00273606 40773
EUTELSAT 8 WEST B       
1 40875U 15039B   26106.93801444 -.00000059  00000+0  00000+0 0  9993
2 40875   0.0700   9.9624 0003893  16.9740 147.8324  1.00271603 39048
EUTELSAT 9B             
1 41310U 16005A   26106.94139446  .00000068  00000+0  00000+0 0  9998
2 41310   0.0568  56.6005 0003622 294.8555 201.5299  1.00269856 37503
EUTELSAT 65 WEST A      
1 41382U 16014A   26106.92666106 -.00000270  00000+0  00000+0 0  9999
2 41382   0.0565   1.3508 0002117  19.5454  92.5908  1.00270938 36914
EUTELSAT 117 WEST B     
1 41589U 16038B   26106.55990251 -.00000005  00000+0  00000+0 0  9990
2 41589   0.0166  76.2797 0000075 313.8271 259.1723  1.00272210 36044
EUTELSAT 172B           
1 42741U 17029B   26106.90239213  .00000001  00000+0  00000+0 0  9990
2 42741   0.0177 165.8348 0000146  84.1266  91.9434  1.00271956 33128
EUTELSAT 7C             
1 44334U 19034B   26106.94096112  .00000055  00000+0  00000+0 0  9990
2 44334   0.0735 181.4678 0003252 187.9464 181.4147  1.00270932  6221
EUTELSAT 5 WEST B       
1 44624U 19067A   26106.93862111 -.00000036  00000+0  00000+0 0  9997
2 44624   0.0769  31.4321 0003269 359.7936 146.7576  1.00271580 23825
EUTELSAT KONNECT        
1 45027U 20005B   26106.94104779  .00000056  00000+0  00000+0 0  9990
2 45027   0.0693  90.0148 0001964 208.8194 252.2571  1.00270260 23728
EUTELSAT QUANTUM        
1 49056U 21069B   26106.94902116  .00000133  00000+0  00000+0 0  9994
2 49056   0.0153 293.8874 0002437  88.6671 211.8946  1.00271182 17313
EUTELSAT KONNECT VHTS   
1 53765U 22110A   26106.72627981  .00000024  00000+0  00000+0 0  9993
2 53765   0.0629  95.9667 0003184 259.6170 113.4501  1.00273775  6220
EUTELSAT HOTBIRD 13F    
1 54048U 22134A   26106.85947541  .00000094  00000+0  00000+0 0  9992
2 54048   0.0497 286.0683 0001859  72.7216 168.6237  1.00271415 12764
EUTELSAT HOTBIRD 13G    
1 54225U 22146A   26106.79957696  .00000094  00000+0  00000+0 0  9997
2 54225   0.0397 232.6586 0002084 310.9908 322.1425  1.00270867  6854
EUTELSAT 10B            
1 54259U 22157A   26106.87032530  .00000074  00000+0  00000+0 0  9994
2 54259   0.0599  91.3146 0001550  24.5954  52.4350  1.00266318 12418
EUTELSAT 36D            
1 59346U 24059A   26106.82013696  .00000000  00000+0  00000+0 0  9995
2 59346   0.0182 218.8862 0000255 334.8776 342.3048  1.00269229  7535
