KUIPER-00008            
1 63724U 25088A   26100.85860581  .00001395  00000+0  22892-3 0  9998
2 63724  51.9008 305.5349 0001517 193.1348 166.9573 14.76506708 52816
KUIPER-00009            
1 63725U 25088B   26100.99684867  .00004740  00000+0  59520-3 0  9990
2 63725  51.9036 323.1112 0005341 196.8828 163.1960 14.83689729 52579
KUIPER-00010            
1 63726U 25088C   26101.25694658  .00001790  00000+0  26359-3 0  9996
2 63726  51.9027 299.0846 0000740 102.6301 257.4744 14.79966859 52556
KUIPER-00011            
1 63727U 25088D   26101.28274746  .00000921  00000+0  14975-3 0  9998
2 63727  51.9003 306.5324 0000766 103.9174 256.1874 14.79930367 52584
KUIPER-00012            
1 63728U 25088E   26100.79240944  .00001447  00000+0  21871-3 0  9994
2 63728  51.9018 293.6263 0000879 106.9436 253.1623 14.79939604 52670
KUIPER-00013            
1 63729U 25088F   26100.99369431  .00002870  00000+0  40514-3 0  9996
2 63729  51.9026 325.2538 0001504 138.2135 221.8943 14.79951698 52356
KUIPER-00014            
1 63730U 25088G   26100.99369518  .00004830  00000+0  60504-3 0  9993
2 63730  51.9029 325.5451 0001150 198.1219 161.9704 14.83750641 52161
KUIPER-00015            
1 63731U 25088H   26101.05047181  .00001797  00000+0  26468-3 0  9991
2 63731  51.9013 335.0310 0001000 108.3747 251.7324 14.79936287 52497
KUIPER-00016            
1 63732U 25088J   26100.98954402  .00004996  00000+0  62371-3 0  9993
2 63732  51.9014 328.0755 0004377 175.5827 184.5177 14.83834186 52128
KUIPER-00018            
1 63733U 25088K   26100.93425651  .00003338  00000+0  46663-3 0  9993
2 63733  51.9037 317.9917 0000846  99.5952 260.5106 14.79929854 52266
KUIPER-00019            
1 63734U 25088L   26101.25002315 -.00034064  00000+0 -44986-2 0  9995
2 63734  51.9004 314.6007 0000770  73.4069  70.1304 14.79589697  5092
KUIPER-00020            
1 63735U 25088M   26100.86405321 -.00001892  00000+0 -21922-3 0  9995
2 63735  51.9056 320.8217 0001496 149.5755 210.5295 14.79930990 52429
KUIPER-00021            
1 63736U 25088N   26101.20039101 -.00113625  00000+0 -13828-1 0  9996
2 63736  51.9017 319.6316 0004796 167.5437 192.5646 14.83657869 52308
KUIPER-00023            
1 63737U 25088P   26100.99633722  .00003790  00000+0  52567-3 0  9995
2 63737  51.9015 322.6862 0001029 177.8601 182.2366 14.79953967 52544
KUIPER-00024            
1 63738U 25088Q   26101.28003499 -.00000785  00000+0 -73947-4 0  9990
2 63738  51.9033 309.0087 0000757 107.6962 252.4084 14.79925959 52885
KUIPER-00025            
1 63739U 25088R   26101.25002315 -.00065276  00000+0 -85765-2 0  9999
2 63739  51.9032 316.6225 0000811 114.1618 308.9113 14.80129494  5368
KUIPER-00027            
1 63740U 25088S   26101.27730835  .00001838  00000+0  26997-3 0  9993
2 63740  51.9031 311.4866 0000739  97.3703 262.7344 14.79933309 52449
KUIPER-00028            
1 63741U 25088T   26100.84103054  .00003188  00000+0  44701-3 0  9996
2 63741  51.9006 310.8800 0000979 102.1398 257.9674 14.79935826 52824
KUIPER-00029            
1 63742U 25088U   26100.98079609 -.00305286  00000+0 -44091-1 0  9996
2 63742  51.9017 307.8341 0004468  63.4961 296.6458 14.77736831 52402
KUIPER-00030            
1 63743U 25088V   26101.05852579 -.00000663  00000+0 -58043-4 0  9997
2 63743  51.9036 327.4145 0000700 130.5255 229.5769 14.79921638 52426
KUIPER-00031            
1 63744U 25088W   26100.96614372  .00003823  00000+0  48153-3 0  9993
2 63744  51.9029 312.0844 0000800 234.1462 125.9428 14.84020715 52341
KUIPER-00032            
1 63745U 25088X   26100.76982552  .00013771  00000+0  36706-3 0  9994
2 63745  51.8662 228.9647 0004385 235.4237 124.6337 15.38439609 54484
KUIPER-00033            
1 63746U 25088Y   26100.94112380  .00003361  00000+0  46981-3 0  9999
2 63746  51.9025 342.9614 0000742 107.5247 252.5796 14.79919991 52392
KUIPER-00034            
1 63747U 25088Z   26101.25164391  .00001032  00000+0  16434-3 0  9997
2 63747  51.9027 304.1131 0000663  99.9931 260.1106 14.79925496 52640
KUIPER-00035            
1 63748U 25088AA  26101.25002315 -.00026842  00000+0 -33722-2 0  9991
2 63748  51.9004 329.1198 0000754  83.8361  46.3574 14.81556175  3136
KUIPER-00037            
1 63749U 25088AB  26101.25002315 -.00031960  00000+0 -40591-2 0  9991
2 63749  51.9011 329.0795 0000927  94.1337 221.0682 14.81190455  5271
KUIPER-00038            
1 63750U 25088AC  26101.27457601 -.00002881  00000+0 -34900-3 0  9995
2 63750  51.9032 314.0066 0000761 107.1037 253.0009 14.79933198 52343
KUIPER-00039            
1 64500U 25134A   26101.24719123  .00002286  00000+0  32867-3 0  9995
2 64500  51.9017  89.1258 0000933  60.7255 299.3801 14.79939813 44894
KUIPER-00040            
1 64501U 25134B   26099.21665029  .00087235  00000+0  10274-1 0  9997
2 64501  51.8986 108.6240 0011754  14.8487 345.2820 14.83950312 44442
KUIPER-00041            
1 64502U 25134C   26101.30120899  .00010617  00000+0  14192-2 0  9997
2 64502  51.9000 101.3715 0000723  88.6693 271.4352 14.79940642 44721
KUIPER-00042            
1 64503U 25134D   26101.25320875  .00002416  00000+0  31902-3 0  9995
2 64503  51.8993  97.0587 0006132  36.6799 323.4583 14.83421404 44785
KUIPER-00043            
1 64504U 25134E   26101.01081676  .00002957  00000+0  41671-3 0  9997
2 64504  51.9025  90.1096 0000770  87.9234 272.1817 14.79937800 44863
KUIPER-00044            
1 64505U 25134F   26100.71345876  .00003295  00000+0  42308-3 0  9993
2 64505  51.8982 104.5052 0006836  28.1417 331.9916 14.83604981 44631
KUIPER-00046            
1 64506U 25134G   26101.30394142  .00002321  00000+0  33339-3 0  9993
2 64506  51.8983  98.8249 0000648  93.9021 266.2016 14.79932930 44760
KUIPER-00047            
1 64507U 25134H   26099.47649453  .00010064  00000+0  13541-2 0  9991
2 64507  51.9000  79.4200 0001659  88.3790 271.7362 14.79714863 44878
KUIPER-00048            
1 64508U 25134J   26101.19852642 -.00001724  00000+0 -19717-3 0  9998
2 64508  51.8974  71.8201 0001158  84.9077 275.2018 14.79922618 45135
KUIPER-00049            
1 64509U 25134K   26101.25002315 -.00007127  00000+0 -87529-3 0  9999
2 64509  51.8996  84.0554 0000684  86.5466  76.6009 14.81395958  5223
KUIPER-00050            
1 64510U 25134L   26101.25002315  .00034515  00000+0  45843-2 0  9992
2 64510  51.8994  66.5705 0000738 102.5624 324.5528 14.79461252  5534
KUIPER-00051            
1 64511U 25134M   26099.26321436 -.00059993  00000+0 -79498-2 0  9990
2 64511  51.9000  90.4103 0002027 167.9795 192.1216 14.79724600 44703
KUIPER-00053            
1 64513U 25134P   26101.18990125  .00001700  00000+0  25181-3 0  9996
2 64513  51.9017  79.3768 0001340 359.9961   0.1001 14.79951943 45029
KUIPER-00054            
1 64514U 25134Q   26101.19582888  .00002491  00000+0  35554-3 0  9994
2 64514  51.8979  74.3169 0000890  83.6652 276.4412 14.79941988 45092
KUIPER-00055            
1 64515U 25134R   26101.25002315  .00025142  00000+0  21771-2 0  9997
2 64515  51.8990  27.3854 0002375 160.8716  66.2820 14.96976260  5616
KUIPER-00056            
1 64516U 25134S   26101.22420498  .00002347  00000+0  33670-3 0  9995
2 64516  51.9011  79.2530 0000810  81.4900 278.6154 14.79943225 45039
KUIPER-00057            
1 64517U 25134T   26101.21607884  .00002639  00000+0  37496-3 0  9995
2 64517  51.9000  86.7449 0001252  78.5768 281.5335 14.79944952 44929
KUIPER-00058            
1 64518U 25134U   26101.12020755  .00002655  00000+0  37721-3 0  9991
2 64518  51.9013  82.1274 0000783  81.8280 278.2771 14.79931047 44988
KUIPER-00059            
1 64519U 25134V   26100.92302091  .00003479  00000+0  48514-3 0  9992
2 64519  51.8993  78.0487 0000716  43.8179 316.2840 14.79929093 45020
KUIPER-00060            
1 64520U 25134W   26101.29444655  .00002466  00000+0  35230-3 0  9994
2 64520  51.9024  76.4458 0000829  71.3107 288.7945 14.79935808 45064
KUIPER-00061            
1 64521U 25134X   26101.25258134  .00002458  00000+0  35139-3 0  9995
2 64521  51.9011  84.0991 0000673  76.3708 283.7330 14.79925667 44959
KUIPER-00062            
1 64522U 25134Y   26101.24987544  .00002235  00000+0  32199-3 0  9995
2 64522  51.8954  86.6294 0000850  79.6847 280.4211 14.79944045 44937
KUIPER-00063            
1 64523U 25134Z   26101.24177202  .00003241  00000+0  45371-3 0  9992
2 64523  51.9050  94.1619 0000711  37.2565 322.8447 14.79952732 44826
KUIPER-00064            
1 64524U 25134AA  26101.24445817  .00001851  00000+0  27162-3 0  9996
2 64524  51.9008  91.5657 0000922  94.0919 266.0148 14.79955998 44869
KUIPER-00065            
1 64525U 25134AB  26101.23912135  .00002109  00000+0  30555-3 0  9995
2 64525  51.9034  96.7579 0000767  70.0926 290.0119 14.79938292 44771
KUIPER-00066            
1 64526U 25134AC  26101.25002315  .00011146  00000+0  14774-2 0  9993
2 64526  51.9029  33.9550 0000650 214.3747  50.0873 14.80254694  5792
KUIPER-00069            
1 64816U 25151A   26101.12842804  .00002879  00000+0  40647-3 0  9997
2 64816  51.9013 137.1847 0000760  74.7367 285.3680 14.79929976 41565
KUIPER-00070            
1 64817U 25151B   26100.86510104 -.00000569  00000+0 -45658-4 0  9997
2 64817  51.8968 163.2785 0000902  98.5652 261.5413 14.79926731 41188
KUIPER-00071            
1 64818U 25151C   26100.86778508 -.00001182  00000+0 -12609-3 0  9993
2 64818  51.9026 160.7966 0000636  90.4742 269.6293 14.79919532 40032
KUIPER-00072            
1 64819U 25151D   26101.12569906  .00002924  00000+0  41239-3 0  9998
2 64819  51.8963 139.6277 0000790  56.5429 303.5609 14.79928592 40358
KUIPER-00073            
1 64820U 25151E   26101.30677642  .00002428  00000+0  34735-3 0  9999
2 64820  51.8995 158.8432 0000692  62.7594 297.3439 14.79933019 41288
KUIPER-00074            
1 64821U 25151F   26101.25002315 -.00068136  00000+0 -49433-3 0  9994
2 64821  51.8974 129.4242 0005389  80.5715 257.0250 15.72696412  4987
KUIPER-00075            
1 64822U 25151G   26101.17968907  .00041909  00000+0  95206-3 0  9990
2 64822  51.8682  63.5463 0004604  49.5606 310.5784 15.42596249 41410
KUIPER-00076            
1 64823U 25151H   26100.84462351  .00002881  00000+0  40616-3 0  9997
2 64823  51.9001 150.8990 0000440  89.8043 270.2969 14.79997266 40170
KUIPER-00077            
1 64824U 25151J   26101.17698935 -.00002509  00000+0 -30050-3 0  9994
2 64824  51.9017 154.4423 0000720  77.5875 282.5168 14.79894740 40155
KUIPER-00078            
1 64825U 25151K   26100.53823082  .00002928  00000+0  41282-3 0  9999
2 64825  51.9000 154.7549 0000566  74.3824 285.7201 14.79943844 40093
KUIPER-00079            
1 64826U 25151L   26101.30944593  .00001836  00000+0  26976-3 0  9997
2 64826  51.8979 156.3085 0000059 102.4061 257.6908 14.79922056 41336
KUIPER-00080            
1 64827U 25151M   26101.14062146  .00003365  00000+0  46997-3 0  9999
2 64827  51.8982 157.0706 0000573  99.3918 260.7109 14.79946765 40111
KUIPER-00082            
1 64828U 25151N   26101.12033162  .00002855  00000+0  40330-3 0  9992
2 64828  51.9007 144.6973 0000519  93.6795 266.4227 14.79943401 40285
KUIPER-00083            
1 64829U 25151P   26100.84151040 -.00005947  00000+0 -75011-3 0  9998
2 64829  51.8990 153.4106 0000475  45.2712 314.8289 14.80026832 41329
KUIPER-00084            
1 64830U 25151Q   26100.56110638 -.00002482  00000+0 -29682-3 0  9991
2 64830  51.9008 164.6387 0000462  22.6196 337.4786 14.79909365 39956
KUIPER-00085            
1 64831U 25151R   26101.15412203  .00002160  00000+0  31214-3 0  9996
2 64831  51.9021 144.5801 0000649 102.3011 257.8024 14.79939619 40282
KUIPER-00086            
1 64832U 25151S   26101.14335774  .00002154  00000+0  31152-3 0  9997
2 64832  51.9008 154.5929 0000687  64.1194 295.9839 14.79927692 40149
KUIPER-00087            
1 64833U 25151T   26100.48688772  .00002168  00000+0  31344-3 0  9991
2 64833  51.8965 139.9691 0001021  89.1737 270.9342 14.79922794 40282
KUIPER-00089            
1 64834U 25151U   26101.08923464  .00002926  00000+0  41239-3 0  9995
2 64834  51.8994 142.3203 0000572  80.6559 279.4468 14.79957727 40311
KUIPER-00090            
1 64835U 25151V   26101.09736605  .00002834  00000+0  40060-3 0  9995
2 64835  51.8982 134.8098 0000751  66.9097 293.1945 14.79930099 40417
KUIPER-00091            
1 64836U 25151W   26101.09195007 -.00000740  00000+0 -68050-4 0  9997
2 64836  51.8990 139.8177 0000513  85.9514 274.1507 14.79927011 40346
KUIPER-00092            
1 64837U 25151X   26101.15140588  .00002313  00000+0  33228-3 0  9993
2 64837  51.8997 147.0516 0000662  68.4933 291.6100 14.79932027 41468
KUIPER-00093            
1 64838U 25151Y   26101.14864391  .00002310  00000+0  33170-3 0  9991
2 64838  51.8991 149.5427 0000613  79.8936 280.2096 14.79963386 40218
KUIPER-00094            
1 64839U 25151Z   26101.06115156  .00006172  00000+0  45324-3 0  9995
2 64839  51.8893 113.5764 0007141  47.9629 312.1950 15.04637909 40710
KUIPER-00081            
1 65132U 25171A   26101.00120978  .00003777  00000+0  52397-3 0  9992
2 65132  51.9030   5.1922 0000880 105.4273 254.6787 14.79947698 37827
KUIPER-00088            
1 65133U 25171B   26101.04986233  .00003784  00000+0  52489-3 0  9991
2 65133  51.9004  22.4821 0000738  99.2181 260.8865 14.79943742 37584
KUIPER-00095            
1 65134U 25171C   26100.93640790  .00003725  00000+0  51736-3 0  9993
2 65134  51.9001   3.0482 0000786 105.2229 254.8820 14.79928038 37848
KUIPER-00096            
1 65135U 25171D   26101.15920704  .00001927  00000+0  28149-3 0  9999
2 65135  51.9009  14.4992 0000803  95.8878 264.2176 14.79960387 37700
KUIPER-00097            
1 65136U 25171E   26101.15653033  .00003732  00000+0  51785-3 0  9996
2 65136  51.9033  17.1463 0001015  99.6263 260.4814 14.79964345 37656
KUIPER-00098            
1 65137U 25171F   26101.15386924  .00003220  00000+0  45117-3 0  9993
2 65137  51.9014  19.5338 0000917  77.7147 282.3918 14.79936860 36974
KUIPER-00099            
1 65138U 25171G   26101.13088683 -.00001633  00000+0 -18527-3 0  9996
2 65138  51.9035   9.6247 0001054  91.2193 268.8890 14.79926888 37767
KUIPER-00100            
1 65139U 25171H   26101.09985402 -.00003794  00000+0 -46936-3 0  9992
2 65139  51.9026   7.2394 0000721  97.6951 262.4093 14.79895811 37796
KUIPER-00102            
1 65140U 25171J   26101.02957061 -.00000240  00000+0 -24811-5 0  9990
2 65140  51.8980  10.0634 0001329  96.1120 263.9994 14.79928627 37745
KUIPER-00103            
1 65141U 25171K   26101.17953525  .00003270  00000+0  45768-3 0  9994
2 65141  51.8996  26.8944 0000843  93.4574 266.6484 14.79936136 37529
KUIPER-00104            
1 65142U 25171L   26101.12546448  .00003422  00000+0  47749-3 0  9992
2 65142  51.9030  14.6064 0000715 102.7278 257.3764 14.79944927 37694
KUIPER-00105            
1 65143U 25171M   26101.15134350  .00003435  00000+0  47802-3 0  9995
2 65143  51.9012  22.1096 0000492 109.9671 250.1345 14.80052520 37598
KUIPER-00106            
1 65144U 25171N   26101.14937103  .00004642  00000+0  41633-3 0  9999
2 65144  51.8946   7.4620 0007155 204.5311 155.5319 14.97438271 37801
KUIPER-00107            
1 65145U 25171P   26101.10250995 -.00003648  00000+0 -44981-3 0  9999
2 65145  51.9001   4.7639 0001007  99.7110 260.3966 14.79923697 37833
KUIPER-00108            
1 65146U 25171Q   26101.05527058  .00003849  00000+0  53343-3 0  9994
2 65146  51.9037  17.4940 0000873 100.8219 259.2842 14.79944356 37658
KUIPER-00109            
1 65147U 25171R   26101.16194205  .00003529  00000+0  49162-3 0  9990
2 65147  51.9036  11.9646 0000748  91.9937 268.1111 14.79939738 37733
KUIPER-00110            
1 65148U 25171S   26101.18223108 -.00006388  00000+0 -80917-3 0  9999
2 65148  51.9013  24.4532 0000865  31.4599 328.6415 14.79961550 37551
KUIPER-00111            
1 65149U 25171T   26101.07551544 -.00000972  00000+0 -98468-4 0  9990
2 65149  51.9002  29.8297 0000865 102.9616 257.1443 14.79934203 37474
KUIPER-00112            
1 65150U 25171U   26101.12818375  .00003421  00000+0  47740-3 0  9992
2 65150  51.9038  12.1669 0000793  97.8409 262.2644 14.79948565 37729
KUIPER-00114            
1 65151U 25171V   26101.07285085  .00001082  00000+0  17096-3 0  9995
2 65151  51.9006  32.4020 0001462  85.9998 274.1132 14.79936386 37436
KUIPER-00115            
1 65152U 25171W   26101.14847760  .00003660  00000+0  50871-3 0  9990
2 65152  51.9015  24.5584 0000554  89.2887 270.8139 14.79941011 37553
KUIPER-00116            
1 65153U 25171X   26101.17680087  .00003379  00000+0  47174-3 0  9990
2 65153  51.9009  29.4703 0000907  63.6587 296.4469 14.79964858 37485
KUIPER-00118            
1 65154U 25171Y   26101.10661557  .00003976  00000+0  55027-3 0  9994
2 65154  51.9011  32.2371 0000881  94.8583 265.2480 14.79933131 37448
KUIPER-00119            
1 65155U 25171Z   26101.18592653  .00003298  00000+0  45902-3 0  9991
2 65155  51.9019  19.4549 0000865 104.8051 255.3007 14.80155974 37623
KUIPER-00120            
1 65762U 25217A   26101.15432207  .00002708  00000+0  38400-3 0  9991
2 65762  51.8986 269.5078 0000518 103.1342 256.9678 14.79942451 29549
KUIPER-00132            
1 65763U 25217B   26101.25146326  .00034603  00000+0  82929-3 0  9991
2 65763  51.8568 205.2735 0007299  76.7275 283.4527 15.41063107 30447
KUIPER-00133            
1 65764U 25217C   26101.18810361  .00002709  00000+0  38419-3 0  9998
2 65764  51.9043 269.4247 0001472 120.5588 239.5520 14.79942757 29551
KUIPER-00139            
1 65765U 25217D   26101.11151739  .00006524  00000+0  50925-3 0  9994
2 65765  51.8837 245.3367 0008532  57.4422 302.7372 15.02212360 29888
KUIPER-00142            
1 65766U 25217E   26101.10566549 -.00009405  00000+0 -12059-2 0  9991
2 65766  51.8992 252.2457 0001574 115.0556 245.0570 14.79946042 29788
KUIPER-00145            
1 65767U 25217F   26100.69779601  .00003837  00000+0  53186-3 0  9998
2 65767  51.8989 256.5650 0000553 100.5347 259.5678 14.79945122 29686
KUIPER-00147            
1 65768U 25217G   26101.13403651  .00001937  00000+0  28289-3 0  9993
2 65768  51.8985 257.1274 0000522 128.7232 231.3777 14.79944034 29716
KUIPER-00148            
1 65769U 25217H   26101.25002315  .00040864  00000+0  58241-2 0  9991
2 65769  51.9029 236.6023 0003096 120.6152 238.1032 14.76380897  5915
KUIPER-00150            
1 65770U 25217J   26101.19083043  .00002851  00000+0  40294-3 0  9997
2 65770  51.9009 266.8909 0000723 107.3787 252.7254 14.79914224 29580
KUIPER-00151            
1 65771U 25217K   26101.13132681 -.00001438  00000+0 -15974-3 0  9994
2 65771  51.9016 259.6498 0000815 111.7088 248.3962 14.79905111 29680
KUIPER-00152            
1 65772U 25217L   26101.11106464  .00000189  00000+0  53791-4 0  9993
2 65772  51.8999 247.2300 0000642 115.3154 244.7875 14.79919877 29853
KUIPER-00153            
1 65773U 25217M   26101.11114763  .00002394  00000+0  37154-3 0  9999
2 65773  51.9030 241.5376 0001017 134.8268 225.2776 14.76440401 29932
KUIPER-00155            
1 65774U 25217N   26101.25002315  .00044426  00000+0  19554-2 0  9999
2 65774  51.8805 217.4030 0005840  47.3015 213.2644 15.21405345  5683
KUIPER-00156            
1 65775U 25217P   26101.08267046  .00001197  00000+0  18604-3 0  9999
2 65775  51.9018 242.3930 0000664  65.0388 295.0643 14.79907420 29918
KUIPER-00158            
1 65776U 25217Q   26101.13358454  .00002918  00000+0  40232-3 0  9994
2 65776  51.8966 261.8001 0001207 131.8157 228.2909 14.80918892 29656
KUIPER-00163            
1 65777U 25217R   26101.25002315  .00113659  00000+0  12840-2 0  9998
2 65777  51.9000 250.0930 0001396   3.1777 349.4956 15.61614629  5817
KUIPER-00165            
1 65778U 25217S   26100.80181360  .00003906  00000+0  54096-3 0  9990
2 65778  51.9005 253.6000 0000596  84.9675 275.1355 14.79939844 29737
KUIPER-00166            
1 65779U 25217T   26100.91657493 -.00000226  00000+0 -64171-6 0  9990
2 65779  51.9004 240.6203 0000749 104.5360 255.5685 14.79922158 29927
KUIPER-00167            
1 65780U 25217U   26100.72349736  .00003426  00000+0  47831-3 0  9993
2 65780  51.8965 263.8989 0000687 105.7011 254.4028 14.79923804 29589
KUIPER-00168            
1 65781U 25217V   26100.80987058  .00000187  00000+0  53603-4 0  9994
2 65781  51.9021 246.0680 0000729  99.5247 260.5798 14.79929060 29844
KUIPER-00169            
1 65782U 25217W   26101.14216000 -.00001911  00000+0 -22181-3 0  9999
2 65782  51.9019 249.6037 0000873 101.8779 258.2282 14.79926691 29821
KUIPER-00170            
1 65783U 25217X   26100.79911167  .00000388  00000+0  79848-4 0  9994
2 65783  51.8985 256.0977 0000620 109.5208 250.5821 14.79929037 29708
KUIPER-00172            
1 65785U 25217Z   26101.28448009  .00001846  00000+0  29216-3 0  9994
2 65785  51.8977 235.3761 0002178  80.5090 279.6117 14.76650749 30035
KUIPER-00173            
1 65786U 25217AA  26101.25002315  .00036373  00000+0  48199-2 0  9991
2 65786  51.8995 249.1261 0000896 126.4269 268.8472 14.79532851  2531
KUIPER-00174            
1 65787U 25217AB  26101.11385775  .00004165  00000+0  57514-3 0  9997
2 65787  51.9005 244.7583 0000539  81.9429 278.1595 14.79926598 29882
KUIPER-00176            
1 65788U 25217AC  26101.16511434 -.00002481  00000+0 -29666-3 0  9994
2 65788  51.9005 259.4951 0000908 109.1390 250.9671 14.79919051 29682
KUIPER-00101            
1 65947U 25228A   26101.31227483  .00008089  00000+0  10895-2 0  9999
2 65947  51.8988 216.3140 0000264 137.3378 222.7605 14.79903947 28066
KUIPER-00113            
1 65948U 25228B   26101.28388517  .00003341  00000+0  46695-3 0  9996
2 65948  51.8981 211.4581 0000506  91.7759 268.3262 14.79937351 28128
KUIPER-00117            
1 65949U 25228C   26101.31485389  .00000035  00000+0  33606-4 0  9992
2 65949  51.8993 213.8228 0000535 353.3892   6.7064 14.79901215 28093
KUIPER-00121            
1 65950U 25228D   26101.01646915  .00003994  00000+0  55245-3 0  9994
2 65950  51.8980 210.1425 0000329  84.9649 275.1351 14.79943540 28120
KUIPER-00122            
1 65951U 25228E   26100.60048754 -.00001698  00000+0 -19387-3 0  9994
2 65951  51.8983 221.9592 0000477 110.8714 249.2300 14.79925953 27926
KUIPER-00123            
1 65952U 25228F   26101.30955968  .00003148  00000+0  44204-3 0  9993
2 65952  51.8979 218.8420 0000682  94.0623 266.0417 14.79910085 28025
KUIPER-00124            
1 65953U 25228G   26101.04755672 -.00001438  00000+0 -15979-3 0  9994
2 65953  51.8994 212.4875 0000877 260.5527  99.5336 14.79913756 28090
KUIPER-00125            
1 65954U 25228H   26100.99616930 -.00003466  00000+0 -42598-3 0  9991
2 65954  51.9015 197.7442 0000829  97.8976 262.2081 14.79918952 28298
KUIPER-00126            
1 65955U 25228J   26101.00837101  .00003992  00000+0  55239-3 0  9998
2 65955  51.8978 217.6870 0000628  75.7445 284.3587 14.79932201 28015
KUIPER-00127            
1 65956U 25228K   26101.31601082  .00001697  00000+0  27257-3 0  9999
2 65956  51.9000 208.5666 0001352 317.2844  42.8012 14.76401260 28177
KUIPER-00128            
1 65957U 25228L   26101.32036373  .00003260  00000+0  45640-3 0  9990
2 65957  51.9003 208.8279 0000511 102.5951 257.5069 14.79931295 28169
KUIPER-00129            
1 65958U 25228M   26101.29199655  .00003063  00000+0  43056-3 0  9990
2 65958  51.8997 203.9374 0000720  96.8325 263.2720 14.79933335 28238
KUIPER-00130            
1 65959U 25228N   26101.25551320 -.00012475  00000+0 -16098-2 0  9992
2 65959  51.9003 206.6114 0000647  88.5335 271.5702 14.79949900 18480
KUIPER-00134            
1 65960U 25228P   26101.18054729  .00028107  00000+0  70621-3 0  9997
2 65960  51.8720 162.8451 0006551  67.2837 292.8843 15.39740320 28794
KUIPER-00135            
1 65961U 25228Q   26101.28929629 -.00000706  00000+0 -63638-4 0  9997
2 65961  51.8985 206.5232 0000517  99.4486 260.6535 14.79932262 28190
KUIPER-00136            
1 65962U 25228R   26100.98793268  .00002399  00000+0  34326-3 0  9991
2 65962  51.9001 205.3216 0000260 201.2511 158.8441 14.79975871 28183
KUIPER-00137            
1 65963U 25228S   26101.26090461  .00003133  00000+0  43969-3 0  9999
2 65963  51.9022 201.5863 0000619 105.8584 254.2447 14.79938419 28263
KUIPER-00138            
1 65964U 25228T   26101.29729774  .00001132  00000+0  17731-3 0  9994
2 65964  51.8977 198.8963 0000660  82.8315 277.2722 14.79960274 28303
KUIPER-00140            
1 65965U 25228U   26101.29468748  .00003139  00000+0  44049-3 0  9997
2 65965  51.8985 201.4929 0000577  84.3131 275.7897 14.79945681 28262
KUIPER-00141            
1 65966U 25228V   26101.23254589  .00003090  00000+0  43410-3 0  9995
2 65966  51.9028 196.7910 0000534  77.6268 282.4754 14.79940074 28322
KUIPER-00146            
1 65967U 25228W   26101.26362080  .00003027  00000+0  42587-3 0  9999
2 65967  51.9020 199.1618 0000584  75.4566 284.6462 14.79935193 28291
KUIPER-00149            
1 65968U 25228X   26101.23525983  .00003150  00000+0  44216-3 0  9998
2 65968  51.9003 194.1901 0000426  94.9639 265.1372 14.79922828 28368
KUIPER-00154            
1 65969U 25228Y   26101.27167636  .00007696  00000+0  10365-2 0  9996
2 65969  51.8998 191.5340 0000585  51.0391 309.0623 14.79967859 28409
KUIPER-00157            
1 65970U 25228Z   26101.26902352  .00002952  00000+0  41614-3 0  9991
2 65970  51.9023 194.1578 0000404  92.3796 267.7212 14.79928904 28367
KUIPER-00144            
1 67133U 25301A   26101.25002315  .00009028  00000+0  88551-3 0  9997
2 67133  51.8960 271.2114 0004560 142.1817  53.4213 14.92845788  6008
KUIPER-00164            
1 67134U 25301B   26101.21336996  .00002349  00000+0  36537-3 0  9995
2 67134  51.9034 281.9235 0002027  57.3620 302.7536 14.76415548 18728
KUIPER-00175            
1 67135U 25301C   26100.85558732  .00005702  00000+0  58012-3 0  9997
2 67135  51.8954 275.7147 0000697  92.0535 268.0513 14.92013406 18672
KUIPER-00179            
1 67136U 25301D   26101.22821634  .00001924  00000+0  30441-3 0  9992
2 67136  51.9005 281.5773 0000737 207.3976 152.6947 14.76457815 18730
KUIPER-00181            
1 67137U 25301E   26101.27486083  .00001729  00000+0  27604-3 0  9993
2 67137  51.9025 293.7950 0001589 167.8618 192.2381 14.76574985 18543
KUIPER-00183            
1 67138U 25301F   26101.17747148  .00003686  00000+0  37977-3 0  9993
2 67138  51.8947 275.2298 0009368 171.8633 188.2488 14.92422613 18801
KUIPER-00184            
1 67139U 25301G   26101.25002315  .00000788  00000+0  13032-3 0  9999
2 67139  51.8992 275.3860 0000660 103.7333   8.4211 14.80635009  4999
KUIPER-00186            
1 67140U 25301H   26100.78972348  .00003247  00000+0  45463-3 0  9996
2 67140  51.9024 296.1722 0000746  96.5177 263.5870 14.79938803 18318
KUIPER-00187            
1 67141U 25301J   26101.25971909 -.00001802  00000+0 -20746-3 0  9996
2 67141  51.9036 296.6092 0000721 107.3070 252.7971 14.79918980 18342
KUIPER-00188            
1 67142U 25301K   26101.25002315  .00023775  00000+0  94747-3 0  9996
2 67142  51.8774 268.0329 0007817 181.8293  95.9391 15.25070801  4198
KUIPER-00191            
1 67143U 25301L   26101.23408055  .00002569  00000+0  36590-3 0  9996
2 67143  51.9005 289.2325 0000733 116.5339 243.5699 14.79928951 18478
KUIPER-00196            
1 67144U 25301M   26101.18756462  .00023998  00000+0  63855-3 0  9992
2 67144  51.8698 267.5465 0003906 122.5464 237.5901 15.38081967 18743
KUIPER-00204            
1 67145U 25301N   26101.20492209  .00006424  00000+0  25791-3 0  9994
2 67145  51.8851 275.7296 0002031  48.1340 311.9815 15.26189546 18742
KUIPER-00210            
1 67146U 25301P   26100.99773551  .00003195  00000+0  44797-3 0  9991
2 67146  51.8999 290.2378 0000788  85.5308 274.5744 14.79924194 18585
KUIPER-00221            
1 67147U 25301Q   26100.95583885  .00000398  00000+0  81185-4 0  9992
2 67147  51.9031 297.9314 0000708 105.7886 254.3154 14.79922588 18302
KUIPER-00232            
1 67148U 25301R   26101.21984487  .00001705  00000+0  27325-3 0  9994
2 67148  51.8996 281.2323 0000837 107.9757 252.1295 14.76468932 18556
KUIPER-00241            
1 67149U 25301S   26101.23137576  .00002602  00000+0  37017-3 0  9992
2 67149  51.9025 291.7232 0000459 125.9074 234.1931 14.79932602 18749
KUIPER-00245            
1 67150U 25301T   26100.81810404  .00003165  00000+0  44397-3 0  9999
2 67150  51.9041 301.0661 0000742 118.1444 241.9594 14.79929126 18243
KUIPER-00246            
1 67151U 25301U   26101.20567985  .00002028  00000+0  29516-3 0  9990
2 67151  51.9001 284.3241 0001000  74.5575 285.5498 14.79901150 18531
KUIPER-00247            
1 67152U 25301V   26101.25002315  .00004402  00000+0  53086-3 0  9994
2 67152  51.8983 273.8382 0010237 165.6740 164.1470 14.85515841  4999
KUIPER-00248            
1 67153U 25301W   26101.19307827  .00028092  00000+0  73027-3 0  9992
2 67153  51.8668 268.2678 0009848 158.6720 201.4680 15.38673306 18906
KUIPER-00249            
1 67154U 25301X   26101.25002315  .00009388  00000+0  94529-3 0  9991
2 67154  51.8937 271.4654 0003378 190.0276  95.0326 14.91751804  5115
KUIPER-00250            
1 67155U 25301Y   26101.22390487  .00001640  00000+0  26349-3 0  9997
2 67155  51.8987 286.6063 0001206 164.6849 195.4149 14.76539774 18513
KUIPER-00251            
1 67156U 25301Z   26101.25002315 -.00026554  00000+0 -32841-2 0  9997
2 67156  51.9000 273.8100 0001255 157.0963  32.2349 14.82200183  4968
KUIPER-00252            
1 67157U 25301AA  26101.25002315 -.00037727  00000+0 -53429-2 0  9997
2 67157  51.8987 276.1345 0001209 195.4367  74.8146 14.76688288  5622
KUIPER-00261            
1 67158U 25301AB  26101.20285361  .00002446  00000+0  34858-3 0  9991
2 67158  51.9026 286.8740 0001670  74.4692 285.6455 14.80089243 18477
KUIPER-00265            
1 67159U 25301AC  26101.28814049  .00002577  00000+0  36719-3 0  9994
2 67159  51.9026 301.4727 0000925  89.5619 270.5449 14.79902513 18316
KUIPER-00159            
1 67764U 26030A   26101.28590834  .00025049  00000+0  69114-3 0  9993
2 67764  51.8880  61.8301 0005568 142.4638 217.6738 15.36926630 10100
KUIPER-00160            
1 67765U 26030B   26101.29123873  .00024383  00000+0  67675-3 0  9990
2 67765  51.8834  61.8426 0005369 153.5067 206.6195 15.36759187 10102
KUIPER-00177            
1 67766U 26030C   26101.25002315  .00005786  00000+0  85341-3 0  9990
2 67766  51.8998  69.0628 0001646  38.3468  80.0580 14.76476524  5657
KUIPER-00178            
1 67767U 26030D   26101.25002315 -.00024690  00000+0 -30877-2 0  9991
2 67767  51.9001  67.5614 0002434 138.4106 210.1772 14.81698254  5807
KUIPER-00180            
1 67768U 26030E   26101.25002315  .00016136  00000+0  10389-2 0  9992
2 67768  51.8879  65.2065 0014357 177.0845 207.8286 15.08407727  4389
KUIPER-00197            
1 67769U 26030F   26101.26369394  .00022010  00000+0  59883-3 0  9998
2 67769  51.8840  61.6791 0002900 129.3190 230.8054 15.37449616 10109
KUIPER-00198            
1 67770U 26030G   26101.25002315  .00030575  00000+0  10439-2 0  9994
2 67770  51.8844  62.0798 0002788 144.0445 334.6314 15.30056084  5975
KUIPER-00199            
1 67771U 26030H   26101.07993145  .00020256  00000+0  58996-3 0  9991
2 67771  51.8820  63.4092 0011048 166.1687 193.9604 15.35324867 10060
KUIPER-00200            
1 67772U 26030J   26101.25002315  .00025290  00000+0  85935-3 0  9998
2 67772  51.8823  61.5929 0001900  94.9188 242.7601 15.30312637  5153
KUIPER-00203            
1 67773U 26030K   26101.20147169  .00001946  00000+0  30746-3 0  9993
2 67773  51.9051  74.0540 0000132 139.5242 220.5729 14.76467132  9923
KUIPER-00205            
1 67774U 26030L   26101.26180954  .00025473  00000+0  68688-3 0  9996
2 67774  51.8825  61.6531 0004523 123.4532 236.6888 15.37633491 10103
KUIPER-00208            
1 67775U 26030M   26101.25002315  .00014901  00000+0  10188-2 0  9995
2 67775  51.8938  65.9390 0018345 163.1295 150.6002 15.06191882  3163
KUIPER-00209            
1 67776U 26030N   26101.25002315  .00016013  00000+0  10450-2 0  9994
2 67776  51.8906  65.0689 0014062 164.7723 232.0691 15.07918250  5490
KUIPER-00213            
1 67777U 26030P   26101.25002315  .00022188  00000+0  11803-2 0  9998
2 67777  51.8852  64.0756 0016991 171.6566   2.2774 15.15061166  5897
KUIPER-00214            
1 67778U 26030Q   26101.25002315  .00008298  00000+0  38763-3 0  9990
2 67778  51.8902  62.1331 0002674 110.2003 309.8151 15.20618195  5374
KUIPER-00215            
1 67779U 26030R   26101.26992294  .00013963  00000+0  41261-3 0  9998
2 67779  51.8851  62.4558 0011256 167.2944 192.8328 15.35157382 10097
KUIPER-00218            
1 67780U 26030S   26101.25002315  .00022404  00000+0  11959-2 0  9995
2 67780  51.8885  63.2151 0007980 163.2115 131.0787 15.15024317  5489
KUIPER-00220            
1 67781U 26030T   26101.26073085  .00019439  00000+0  56036-3 0  9999
2 67781  51.8819  62.3780 0008714 161.0018 199.1295 15.35698336 10091
KUIPER-00222            
1 67782U 26030U   26101.17786231  .00012284  00000+0  42806-3 0  9995
2 67782  51.8819  64.0348 0016958 169.9554 190.1772 15.29914233 10060
KUIPER-00223            
1 67783U 26030V   26101.28197647  .00020331  00000+0  59749-3 0  9991
2 67783  51.8864  62.5241 0012333 167.5445 192.5848 15.35026131 10093
KUIPER-00225            
1 67784U 26030W   26101.28060187  .00032033  00000+0  87732-3 0  9995
2 67784  51.8835  61.7743 0004916 136.4582 223.6794 15.37025903 10101
KUIPER-00226            
1 67785U 26030X   26101.29054131  .00018833  00000+0  67576-3 0  9995
2 67785  51.8843  64.0275 0019227 175.6400 184.4754 15.28558967 10079
KUIPER-00259            
1 67786U 26030Y   26101.18491754  .00020196  00000+0  57759-3 0  9997
2 67786  51.8814  62.6206 0008299 153.2544 206.8872 15.35924331 10085
KUIPER-00260            
1 67787U 26030Z   26101.25824111  .00027293  00000+0  73490-3 0  9998
2 67787  51.8805  61.6243 0002383 117.1069 243.0161 15.37645301 10011
KUIPER-00262            
1 67788U 26030AA  26101.18415479  .00025021  00000+0  66826-3 0  9996
2 67788  51.8812  61.8870 0001587  98.1802 261.9366 15.37947222 10097
KUIPER-00266            
1 67789U 26030AB  26101.15860188  .00022278  00000+0  78516-3 0  9995
2 67789  51.8840  64.6381 0022447 185.1472 174.9284 15.28970565 10059
KUIPER-00268            
1 67790U 26030AC  26101.14706791  .00037687  00000+0  10362-2 0  9999
2 67790  51.8882  62.3991 0004023 142.9688 217.1577 15.36828681 10087
KUIPER-00270            
1 67791U 26030AD  26101.26558269  .00018646  00000+0  54125-3 0  9998
2 67791  51.8817  62.4080 0010695 165.1160 195.0143 15.35491593 10091
KUIPER-00274            
1 67792U 26030AE  26101.29579099  .00018507  00000+0  66473-3 0  9991
2 67792  51.8845  64.0703 0017818 186.7978 173.2766 15.28561430 10070
KUIPER-00275            
1 67793U 26030AF  26101.25917338  .00027566  00000+0  78844-3 0  9990
2 67793  51.8854  62.3881 0009912 157.5360 202.6062 15.35718148 10092
KUIPER-00276            
1 67794U 26030AG  26101.29756924  .00016594  00000+0  60095-3 0  9995
2 67794  51.8865  64.0781 0017420 171.9307 188.1960 15.28380921 10076
KUIPER-00279            
1 67795U 26030AH  26101.10718933  .00031389  00000+0  88012-3 0  9992
2 67795  51.8802  62.8471 0006637 149.6237 210.5135 15.36295995 10071
KUIPER-00131            
1 68573U 26072A   26101.25002315 -.00014674  00000+0 -38788-3 0  9994
2 68573  51.8689 140.6608 0007006 128.4246 177.8838 15.37081548  2009
KUIPER-00189            
1 68574U 26072B   26101.25002315 -.00016388  00000+0 -41355-3 0  9993
2 68574  51.8759 140.5731 0001325  74.2567 270.7417 15.38625704  1572
KUIPER-00192            
1 68575U 26072C   26101.25002315 -.00015270  00000+0 -39818-3 0  9994
2 68575  51.8743 140.6321 0005286 119.8901 198.1108 15.37547576  1300
KUIPER-00193            
1 68576U 26072D   26101.25002315 -.00015715  00000+0 -40980-3 0  9991
2 68576  51.8747 140.6178 0003498 109.2430 215.3679 15.37583314  1303
KUIPER-00194            
1 68577U 26072E   26101.25002315 -.00016195  00000+0 -41489-3 0  9990
2 68577  51.8759 140.5966 0003067 104.4898 228.5502 15.38149345  1818
KUIPER-00229            
1 68578U 26072F   26101.25002315 -.00014526  00000+0 -38669-3 0  9993
2 68578  51.8700 140.6669 0007828 124.6773 178.3503 15.36848947  2121
KUIPER-00230            
1 68579U 26072G   26101.25002315 -.00016282  00000+0 -41098-3 0  9995
2 68579  51.8761 140.5716 0001730  95.4732 248.3425 15.38610004  1300
KUIPER-00231            
1 68580U 26072H   26101.25002315 -.00016076  00000+0 -41511-3 0  9998
2 68580  51.8741 140.6072 0002898 109.0004 221.5380 15.37903920  1300
KUIPER-00234            
1 68581U 26072J   26101.25002315 -.00016498  00000+0 -42041-3 0  9996
2 68581  51.8752 140.5908 0002354  97.0231 240.5706 15.38329895  1302
KUIPER-00236            
1 68582U 26072K   26101.25002315 -.00016478  00000+0 -42118-3 0  9990
2 68582  51.8755 140.5905 0002807 100.2161 236.6240 15.38233874  1305
KUIPER-00244            
1 68583U 26072L   26101.25002315 -.00015775  00000+0 -40776-3 0  9998
2 68583  51.8752 140.6136 0004212 119.6398 206.3479 15.37849937  2297
KUIPER-00253            
1 68584U 26072M   26101.25002315 -.00015104  00000+0 -39526-3 0  9996
2 68584  51.8710 140.6413 0005853 126.5734 188.8234 15.37424788  2176
KUIPER-00254            
1 68585U 26072N   26101.25002315 -.00014413  00000+0 -38385-3 0  9991
2 68585  51.8711 140.6698 0007914 131.1788 170.1134 15.36826529  1309
KUIPER-00263            
1 68586U 26072P   26101.25002315 -.00014707  00000+0 -37264-3 0  9993
2 68586  51.8761 140.5765 0001938  70.6912 271.6905 15.38406576  1306
KUIPER-00269            
1 68587U 26072Q   26101.25002315 -.00015549  00000+0 -40540-3 0  9990
2 68587  51.8736 140.6265 0004735 110.4009 210.9460 15.37570988  1998
KUIPER-00272            
1 68588U 26072R   26101.25002315 -.00015031  00000+0 -39440-3 0  9994
2 68588  51.8719 140.6441 0006085 123.7229 189.8120 15.37336867  1305
KUIPER-00285            
1 68589U 26072S   26101.25002315 -.00014871  00000+0 -39119-3 0  9999
2 68589  51.8729 140.6487 0006588 129.4579 181.3669 15.37245415  2153
KUIPER-00286            
1 68590U 26072T   26101.25002315 -.00015514  00000+0 -40320-3 0  9992
2 68590  51.8728 140.6271 0004420 113.6921 208.0094 15.37667593  1304
KUIPER-00289            
1 68591U 26072U   26101.25002315 -.00015216  00000+0 -41733-3 0  9991
2 68591  51.8648 140.7200 0011121 144.8641 132.6627 15.35934135  2223
KUIPER-00290            
1 68592U 26072V   26101.25002315 -.00015272  00000+0 -41764-3 0  9998
2 68592  51.8633 140.7152 0011120 141.2544 138.6040 15.36027104  1309
KUIPER-00293            
1 68593U 26072W   26101.25002315 -.00015462  00000+0 -42787-3 0  9996
2 68593  51.8630 140.7339 0012122 147.6881 122.9489 15.35659945  1307
KUIPER-00294            
1 68594U 26072X   26101.25002315 -.00015415  00000+0 -41946-3 0  9991
2 68594  51.8671 140.7045 0009962 142.2666 142.7335 15.36203321  1424
KUIPER-00296            
1 68595U 26072Y   26101.25002315 -.00014023  00000+0 -37591-3 0  9997
2 68595  51.8693 140.6856 0008741 135.7206 158.2828 15.36591930  1301
KUIPER-00297            
1 68596U 26072Z   26101.25002315 -.00015328  00000+0 -41814-3 0  9990
2 68596  51.8619 140.7105 0010454 142.7356 139.3537 15.36115464  2094
KUIPER-00300            
1 68597U 26072AA  26101.25002315 -.00014317  00000+0 -38183-3 0  9993
2 68597  51.8667 140.6761 0008341 135.9377 163.1096 15.36774447  1304
KUIPER-00301            
1 68598U 26072AB  26101.25002315 -.00014001  00000+0 -37703-3 0  9991
2 68598  51.8644 140.6919 0009025 138.9639 152.3759 15.36448048  1816
KUIPER-00304            
1 68599U 26072AC  26101.25002315 -.00015584  00000+0 -42210-3 0  9998
2 68599  51.8657 140.6961 0009674 139.0785 150.1184 15.36359037  2236
KUIPER-00317            
1 68600U 26072AD  26101.25002315 -.00014212  00000+0 -38006-3 0  9996
2 68600  51.8680 140.6815 0008762 131.3104 164.9339 15.36678308  1778
KUIPER-00320            
1 68601U 26072AE  26101.25002315 -.00015580  00000+0 -42844-3 0  9991
2 68601  51.8595 140.7224 0011432 144.9377 130.9785 15.35869675  2226
